Category,Real Category,Business Name,Address,City,State,Postal Code,Country,Phone,Email,Website,Latitude,Longitude,Map Link,Details Link
hotel,hotel,Kalimantan Timur 75313,"Kota Bontang, Kalimantan Timur","Kota Bontang, Kalimantan Timur",KALIMANTAN TIMUR,,Indonesia,,,,0.1379123,117.493321,https://maps.google.com/?cid=0x0:0xc31ada602112700b,
hotel,hotel,,,,KALIMANTAN TIMUR,,Indonesia,,,,,,https://maps.google.com/?cid=0x0:0xd8836872ea3fba6f%7C/g/1tlqmhqz%7Cen-ID,
hotel,hotel,Hotel Raodah 2 Bontang,"Jl. MT. Haryono, Api-Api, Kec. Bontang Utara, Kota Bontang, Kalimantan Timur 75325","Api-Api, Kec. Bontang Utara, Kota Bontang",KALIMANTAN TIMUR,75325.0,Indonesia,54828261.0,,,0.1358009,117.4813696,https://maps.google.com/?cid=0x0:0x2f077e275f694095,
hotel,hotel,Grand Equator Hotel,"Jl. Pupuk Raya No.1, Guntung, Kec. Bontang Utara, Kota Bontang, Kalimantan Timur 75313","Guntung, Kec. Bontang Utara, Kota Bontang",KALIMANTAN TIMUR,75313.0,Indonesia,82350906060.0,,,0.1858178,117.4757408,https://maps.google.com/?cid=0x0:0xd604b84a9ad7dd59,
hotel,hotel,Hotel Bintang Sintuk,"5F6F+2C6, Komp. Kawasan Lapangan Golf Sintuk PKT Jl. Urea, Lok Tuan, Kec. Bontang Utara, Kota Bontang, Kalimantan Timur 75313","Komp. Kawasan Lapangan Golf Sintuk PKT Jl. Urea, Lok Tuan, Kec. Bontang Utara, Kota Bontang",KALIMANTAN TIMUR,75313.0,Indonesia,54826268.0,,,0.160026,117.473509,https://maps.google.com/?cid=0x0:0xd8836872ea3fba6f,
hotel,hotel,Hotel Tiara Surya,"Jl. MT. Haryono No.55, Gn. Elai, Kec. Bontang Utara, Kota Bontang, Kalimantan Timur 75311","Gn. Elai, Kec. Bontang Utara, Kota Bontang",KALIMANTAN TIMUR,75311.0,Indonesia,54828001.0,,,0.134567,117.4792428,https://maps.google.com/?cid=0x0:0xf0bd988349090f1d,
hotel,hotel,Hotel Andika bontang,"4F8H+JW9, Berbas Tengah, Kec. Bontang Sel., Kota Bontang, Kalimantan Timur 75325","Berbas Tengah, Kec. Bontang Sel., Kota Bontang",KALIMANTAN TIMUR,75325.0,Indonesia,,,,0.1165348,117.479854,https://maps.google.com/?cid=0x0:0x149e8f375ced935b,
hotel,hotel,Yetelu Guest House,"Jl. Gajah Mada No.5, Berbas Tengah, Kec. Bontang Sel., Kota Bontang, Kalimantan Timur 75324","Berbas Tengah, Kec. Bontang Sel., Kota Bontang",KALIMANTAN TIMUR,75324.0,Indonesia,81242090024.0,,,0.1178436,117.4778025,https://maps.google.com/?cid=0x0:0x761b9bc60fa7dcef,
hotel,hotel,Grand Raodah Hotel,"Jl. Letjend Jl. R. Suprapto No.1, Api-Api, Kec. Bontang Utara, Kota Bontang, Kalimantan Timur 75311","Api-Api, Kec. Bontang Utara, Kota Bontang",KALIMANTAN TIMUR,75311.0,Indonesia,54821180.0,,,0.1350198,117.4893525,https://maps.google.com/?cid=0x0:0xc23095180837725d,
hotel,hotel,Omah Ijo Guest House Bontang,"Jl. Mulawarman No.27, Bontang Baru, Kec. Bontang Utara, Kota Bontang, Kalimantan Timur 75325","Bontang Baru, Kec. Bontang Utara, Kota Bontang",KALIMANTAN TIMUR,75325.0,Indonesia,81348303716.0,,,0.1420922,117.4954397,https://maps.google.com/?cid=0x0:0xb5fc42efefee370b,
hotel,hotel,Hotel Gembira,"Jl. Hayam Wuruk No.7-9, Kampung Baru, Berbas Tengah, Kec. Bontang Sel., Kota Bontang, Kalimantan Timur 75313","Kampung Baru, Berbas Tengah, Kec. Bontang Sel., Kota Bontang",KALIMANTAN TIMUR,75313.0,Indonesia,54826145.0,,,0.1169033,117.4799093,https://maps.google.com/?cid=0x0:0x479c6feb43b88e31,
hotel,hotel,Guest House Minimalis Bontang (cabang BTN PKT),"Jl. MT. Haryono Gg. Selancar 7 No.RT 029, Api-Api, Kec. Bontang Utara, Kota Bontang, Kalimantan Timur 75313","Api-Api, Kec. Bontang Utara, Kota Bontang",KALIMANTAN TIMUR,75313.0,Indonesia,82150181849.0,,,0.1365772,117.4860063,https://maps.google.com/?cid=0x0:0xba8979a665603b8,
hotel,hotel,AlasDjati Guest House,"Jl. Bulutangkis Perumahan Casa Derica No.1, Api-Api, Kec. Bontang Utara, Kota Bontang, Kalimantan Timur 75313","Api-Api, Kec. Bontang Utara, Kota Bontang",KALIMANTAN TIMUR,75313.0,Indonesia,81150500800.0,,,0.1318179,117.4824447,https://maps.google.com/?cid=0x0:0x33229a1c7c263072,
hotel,hotel,Cozy Hotel,"Jl. S. Parman No.27, Belimbing, Kec. Bontang Bar., Kota Bontang, Kalimantan Timur 75321","Belimbing, Kec. Bontang Bar., Kota Bontang",KALIMANTAN TIMUR,75321.0,Indonesia,81377059292.0,,,0.1396964,117.4553851,https://maps.google.com/?cid=0x0:0x676f5fa62c522b36,
hotel,hotel,Hotel Surya Raya,"Jl. Aip II KS Tubun No.5, Tj. Laut Indah, Kec. Bontang Sel., Kota Bontang, Kalimantan Timur 75313","Tj. Laut Indah, Kec. Bontang Sel., Kota Bontang",KALIMANTAN TIMUR,75313.0,Indonesia,83896326877.0,,,0.1212744,117.4966485,https://maps.google.com/?cid=0x0:0xa73e121c0bc80a9e,
hotel,hotel,Okra Leaf Guest House Syariah,"Jl. Mayor Jenderal DI Panjaitan, RT.27/RW.No. 04, Api-Api, Kec. Bontang Utara, Kota Bontang, Kalimantan Timur 75313","RT.27/RW.No. 04, Api-Api, Kec. Bontang Utara, Kota Bontang",KALIMANTAN TIMUR,75313.0,Indonesia,54821236.0,,,0.1329936,117.4994554,https://maps.google.com/?cid=0x0:0x26fc241b5573849a,
hotel,hotel,Hotel Cahaya Bone,"Jl. S. Parman No.02, Kanaan, Kec. Bontang Bar., Kota Bontang, Kalimantan Timur 75313","Kanaan, Kec. Bontang Bar., Kota Bontang",KALIMANTAN TIMUR,75313.0,Indonesia,5483510003.0,,,0.1404806,117.4609883,https://maps.google.com/?cid=0x0:0xf0a3ccb4dfc2161e,
hotel,hotel,,,,KALIMANTAN TIMUR,,Indonesia,,,,,,https://maps.google.com/?cid=0x0:0xdb040fce5326c002%7C/g/11b6d1lrnf%7Cen-ID,
hotel,hotel,Akbar Hotel,"JL. Imam Bonjol, No. 65, Gunung Sari, Tj. Laut, Kec. Bontang Sel., Kota Bontang, Kalimantan Timur 75311","No. 65, Gunung Sari, Tj. Laut, Kec. Bontang Sel., Kota Bontang",KALIMANTAN TIMUR,75311.0,Indonesia,54827679.0,,,0.1293884,117.4835703,https://maps.google.com/?cid=0x0:0xdb040fce5326c002,
hotel,hotel,Hotel Borneo,"Jl. Sultan Hasanudin No.8, Berbas Tengah, Kec. Bontang Sel., Kota Bontang, Kalimantan Timur 75322","Berbas Tengah, Kec. Bontang Sel., Kota Bontang",KALIMANTAN TIMUR,75322.0,Indonesia,81347275099.0,,,0.1137832,117.4814495,https://maps.google.com/?cid=0x0:0xd34545e0716b21bc,
hotel,hotel,Alya guesthouse Syariah Bontang,"Jl. Gendang 3 No.51B Lantai 2, RT.22, Bontang Baru, Kec. Bontang Utara, Kota Bontang, Kalimantan Timur 75311","RT.22, Bontang Baru, Kec. Bontang Utara, Kota Bontang",KALIMANTAN TIMUR,75311.0,Indonesia,82149625177.0,,,0.1420747,117.4897325,https://maps.google.com/?cid=0x0:0x373203217df125b0,
hotel,hotel,Redhazka Homestay,"4F9R+7JM, jl sutan syahrir Jl. Sultan Syahrir No.rt 08 no 1 kel, Tj. Laut Indah, Kec. Bontang Sel., Kota Bontang, Kalimantan Timur 75325","jl sutan syahrir Jl. Sultan Syahrir No.rt 08 no 1 kel, Tj. Laut Indah, Kec. Bontang Sel., Kota Bontang",KALIMANTAN TIMUR,75325.0,Indonesia,81346815951.0,,,0.1179972,117.4914658,https://maps.google.com/?cid=0x0:0xb663618bdc2c8fe,
hotel,hotel,RedDoorz near Kantor Walikota Bontang,"Jl. Moch Roem No.Rt.03, Bontang Lestari, Kec. Bontang Sel., Kota Bontang, Kalimantan Timur 75325","Bontang Lestari, Kec. Bontang Sel., Kota Bontang",KALIMANTAN TIMUR,75325.0,Indonesia,895417300072.0,,,0.0750369,117.4540774,https://maps.google.com/?cid=0x0:0x5c59af58708eb771,
hotel,hotel,Kec. Bontang Bar.,"Kota Bontang, Kalimantan Timur","Kota Bontang, Kalimantan Timur",KALIMANTAN TIMUR,,Indonesia,,,,0.1372358,117.4548496,https://maps.google.com/?cid=0x0:0xdc6d300939175081,
hotel,hotel,Hotel Bintang Sintuk,"5F6F+2C6, Komp. Kawasan Lapangan Golf Sintuk PKT Jl. Urea, Lok Tuan, Kec. Bontang Utara, Kota Bontang, Kalimantan Timur 75313","Komp. Kawasan Lapangan Golf Sintuk PKT Jl. Urea, Lok Tuan, Kec. Bontang Utara, Kota Bontang",KALIMANTAN TIMUR,75313.0,Indonesia,54826268.0,,,0.160026,117.473509,https://maps.google.com/?cid=0x0:0xd8836872ea3fba6f,
hotel,hotel,,,,KALIMANTAN TIMUR,,Indonesia,,,,,,https://maps.google.com/?cid=0x0:0xd8836872ea3fba6f%7C/g/1tlqmhqz%7Cen-ID,
hotel,hotel,Grand Equator Hotel,"Jl. Pupuk Raya No.1, Guntung, Kec. Bontang Utara, Kota Bontang, Kalimantan Timur 75313","Guntung, Kec. Bontang Utara, Kota Bontang",KALIMANTAN TIMUR,75313.0,Indonesia,82350906060.0,,,0.1858178,117.4757408,https://maps.google.com/?cid=0x0:0xd604b84a9ad7dd59,
hotel,hotel,Hotel Raodah 2 Bontang,"Jl. MT. Haryono, Api-Api, Kec. Bontang Utara, Kota Bontang, Kalimantan Timur 75325","Api-Api, Kec. Bontang Utara, Kota Bontang",KALIMANTAN TIMUR,75325.0,Indonesia,54828261.0,,,0.1358009,117.4813696,https://maps.google.com/?cid=0x0:0x2f077e275f694095,
hotel,hotel,Hotel Tiara Surya,"Jl. MT. Haryono No.55, Gn. Elai, Kec. Bontang Utara, Kota Bontang, Kalimantan Timur 75311","Gn. Elai, Kec. Bontang Utara, Kota Bontang",KALIMANTAN TIMUR,75311.0,Indonesia,54828001.0,,,0.134567,117.4792428,https://maps.google.com/?cid=0x0:0xf0bd988349090f1d,
hotel,hotel,Hotel Gembira,"Jl. Hayam Wuruk No.7-9, Kampung Baru, Berbas Tengah, Kec. Bontang Sel., Kota Bontang, Kalimantan Timur 75313","Kampung Baru, Berbas Tengah, Kec. Bontang Sel., Kota Bontang",KALIMANTAN TIMUR,75313.0,Indonesia,54826145.0,,,0.1169033,117.4799093,https://maps.google.com/?cid=0x0:0x479c6feb43b88e31,
hotel,hotel,Hotel Andika bontang,"4F8H+JW9, Berbas Tengah, Kec. Bontang Sel., Kota Bontang, Kalimantan Timur 75325","Berbas Tengah, Kec. Bontang Sel., Kota Bontang",KALIMANTAN TIMUR,75325.0,Indonesia,,,,0.1165348,117.479854,https://maps.google.com/?cid=0x0:0x149e8f375ced935b,
hotel,hotel,Cozy Hotel,"Jl. S. Parman No.27, Belimbing, Kec. Bontang Bar., Kota Bontang, Kalimantan Timur 75321","Belimbing, Kec. Bontang Bar., Kota Bontang",KALIMANTAN TIMUR,75321.0,Indonesia,81377059292.0,,,0.1396964,117.4553851,https://maps.google.com/?cid=0x0:0x676f5fa62c522b36,
hotel,hotel,Yetelu Guest House,"Jl. Gajah Mada No.5, Berbas Tengah, Kec. Bontang Sel., Kota Bontang, Kalimantan Timur 75324","Berbas Tengah, Kec. Bontang Sel., Kota Bontang",KALIMANTAN TIMUR,75324.0,Indonesia,81242090024.0,,,0.1178436,117.4778025,https://maps.google.com/?cid=0x0:0x761b9bc60fa7dcef,
hotel,hotel,Grand Raodah Hotel,"Jl. Letjend Jl. R. Suprapto No.1, Api-Api, Kec. Bontang Utara, Kota Bontang, Kalimantan Timur 75311","Api-Api, Kec. Bontang Utara, Kota Bontang",KALIMANTAN TIMUR,75311.0,Indonesia,54821180.0,,,0.1350198,117.4893525,https://maps.google.com/?cid=0x0:0xc23095180837725d,
hotel,hotel,AlasDjati Guest House,"Jl. Bulutangkis Perumahan Casa Derica No.1, Api-Api, Kec. Bontang Utara, Kota Bontang, Kalimantan Timur 75313","Api-Api, Kec. Bontang Utara, Kota Bontang",KALIMANTAN TIMUR,75313.0,Indonesia,81150500800.0,,,0.1318179,117.4824447,https://maps.google.com/?cid=0x0:0x33229a1c7c263072,
hotel,hotel,Hotel Cahaya Bone,"Jl. S. Parman No.02, Kanaan, Kec. Bontang Bar., Kota Bontang, Kalimantan Timur 75313","Kanaan, Kec. Bontang Bar., Kota Bontang",KALIMANTAN TIMUR,75313.0,Indonesia,5483510003.0,,,0.1404806,117.4609883,https://maps.google.com/?cid=0x0:0xf0a3ccb4dfc2161e,
hotel,hotel,Omah Ijo Guest House Bontang,"Jl. Mulawarman No.27, Bontang Baru, Kec. Bontang Utara, Kota Bontang, Kalimantan Timur 75325","Bontang Baru, Kec. Bontang Utara, Kota Bontang",KALIMANTAN TIMUR,75325.0,Indonesia,81348303716.0,,,0.1420922,117.4954397,https://maps.google.com/?cid=0x0:0xb5fc42efefee370b,
hotel,hotel,Hotel Borneo,"Jl. Sultan Hasanudin No.8, Berbas Tengah, Kec. Bontang Sel., Kota Bontang, Kalimantan Timur 75322","Berbas Tengah, Kec. Bontang Sel., Kota Bontang",KALIMANTAN TIMUR,75322.0,Indonesia,81347275099.0,,,0.1137832,117.4814495,https://maps.google.com/?cid=0x0:0xd34545e0716b21bc,
hotel,hotel,Guest House Minimalis Bontang (cabang BTN PKT),"Jl. MT. Haryono Gg. Selancar 7 No.RT 029, Api-Api, Kec. Bontang Utara, Kota Bontang, Kalimantan Timur 75313","Api-Api, Kec. Bontang Utara, Kota Bontang",KALIMANTAN TIMUR,75313.0,Indonesia,82150181849.0,,,0.1365772,117.4860063,https://maps.google.com/?cid=0x0:0xba8979a665603b8,
hotel,hotel,,,,KALIMANTAN TIMUR,,Indonesia,,,,,,https://maps.google.com/?cid=0x0:0xdb040fce5326c002%7C/g/11b6d1lrnf%7Cen-ID,
hotel,hotel,Hotel Surya Raya,"Jl. Aip II KS Tubun No.5, Tj. Laut Indah, Kec. Bontang Sel., Kota Bontang, Kalimantan Timur 75313","Tj. Laut Indah, Kec. Bontang Sel., Kota Bontang",KALIMANTAN TIMUR,75313.0,Indonesia,83896326877.0,,,0.1212744,117.4966485,https://maps.google.com/?cid=0x0:0xa73e121c0bc80a9e,
hotel,hotel,Akbar Hotel,"JL. Imam Bonjol, No. 65, Gunung Sari, Tj. Laut, Kec. Bontang Sel., Kota Bontang, Kalimantan Timur 75311","No. 65, Gunung Sari, Tj. Laut, Kec. Bontang Sel., Kota Bontang",KALIMANTAN TIMUR,75311.0,Indonesia,54827679.0,,,0.1293884,117.4835703,https://maps.google.com/?cid=0x0:0xdb040fce5326c002,
hotel,hotel,Redhazka Homestay,"4F9R+7JM, jl sutan syahrir Jl. Sultan Syahrir No.rt 08 no 1 kel, Tj. Laut Indah, Kec. Bontang Sel., Kota Bontang, Kalimantan Timur 75325","jl sutan syahrir Jl. Sultan Syahrir No.rt 08 no 1 kel, Tj. Laut Indah, Kec. Bontang Sel., Kota Bontang",KALIMANTAN TIMUR,75325.0,Indonesia,81346815951.0,,,0.1179972,117.4914658,https://maps.google.com/?cid=0x0:0xb663618bdc2c8fe,
hotel,hotel,Alya guesthouse Syariah Bontang,"Jl. Gendang 3 No.51B Lantai 2, RT.22, Bontang Baru, Kec. Bontang Utara, Kota Bontang, Kalimantan Timur 75311","RT.22, Bontang Baru, Kec. Bontang Utara, Kota Bontang",KALIMANTAN TIMUR,75311.0,Indonesia,82149625177.0,,,0.1420747,117.4897325,https://maps.google.com/?cid=0x0:0x373203217df125b0,
hotel,hotel,Okra Leaf Guest House Syariah,"Jl. Mayor Jenderal DI Panjaitan, RT.27/RW.No. 04, Api-Api, Kec. Bontang Utara, Kota Bontang, Kalimantan Timur 75313","RT.27/RW.No. 04, Api-Api, Kec. Bontang Utara, Kota Bontang",KALIMANTAN TIMUR,75313.0,Indonesia,54821236.0,,,0.1329936,117.4994554,https://maps.google.com/?cid=0x0:0x26fc241b5573849a,
hotel,hotel,Kalimantan Timur 75321,"Kec. Tlk. Pandan, Kabupaten Kutai Timur, Kalimantan Timur","Kabupaten Kutai Timur, Kalimantan Timur",KALIMANTAN TIMUR,,Indonesia,,,,0.1825802,117.4321452,https://maps.google.com/?cid=0x0:0x70eac15f80c6d3d5,
hotel,hotel,Hotel Bintang Sintuk,"5F6F+2C6, Komp. Kawasan Lapangan Golf Sintuk PKT Jl. Urea, Lok Tuan, Kec. Bontang Utara, Kota Bontang, Kalimantan Timur 75313","Komp. Kawasan Lapangan Golf Sintuk PKT Jl. Urea, Lok Tuan, Kec. Bontang Utara, Kota Bontang",KALIMANTAN TIMUR,75313.0,Indonesia,54826268.0,,,0.160026,117.473509,https://maps.google.com/?cid=0x0:0xd8836872ea3fba6f,
hotel,hotel,Hotel Grand Mutiara,"Jl. Arif Rahman Hakim No.KM. 3, Belimbing, Kota Bontang, Kalimantan Timur 75313","Belimbing, Kota Bontang",KALIMANTAN TIMUR,75313.0,Indonesia,54841988.0,,,0.1688223,117.4590919,https://maps.google.com/?cid=0x0:0x3937ef5771ae78e4,
hotel,hotel,Hotel Gembira,"Jl. Hayam Wuruk No.7-9, Kampung Baru, Berbas Tengah, Kec. Bontang Sel., Kota Bontang, Kalimantan Timur 75313","Kampung Baru, Berbas Tengah, Kec. Bontang Sel., Kota Bontang",KALIMANTAN TIMUR,75313.0,Indonesia,54826145.0,,,0.1169033,117.4799093,https://maps.google.com/?cid=0x0:0x479c6feb43b88e31,
hotel,hotel,Grand Equator Hotel,"Jl. Pupuk Raya No.1, Guntung, Kec. Bontang Utara, Kota Bontang, Kalimantan Timur 75313","Guntung, Kec. Bontang Utara, Kota Bontang",KALIMANTAN TIMUR,75313.0,Indonesia,82350906060.0,,,0.1858178,117.4757408,https://maps.google.com/?cid=0x0:0xd604b84a9ad7dd59,
hotel,hotel,Hotel Raodah 2 Bontang,"Jl. MT. Haryono, Api-Api, Kec. Bontang Utara, Kota Bontang, Kalimantan Timur 75325","Api-Api, Kec. Bontang Utara, Kota Bontang",KALIMANTAN TIMUR,75325.0,Indonesia,54828261.0,,,0.1358009,117.4813696,https://maps.google.com/?cid=0x0:0x2f077e275f694095,
hotel,hotel,Hotel Andika bontang,"4F8H+JW9, Berbas Tengah, Kec. Bontang Sel., Kota Bontang, Kalimantan Timur 75325","Berbas Tengah, Kec. Bontang Sel., Kota Bontang",KALIMANTAN TIMUR,75325.0,Indonesia,,,,0.1165348,117.479854,https://maps.google.com/?cid=0x0:0x149e8f375ced935b,
hotel,hotel,Hotel Tiara Surya,"Jl. MT. Haryono No.55, Gn. Elai, Kec. Bontang Utara, Kota Bontang, Kalimantan Timur 75311","Gn. Elai, Kec. Bontang Utara, Kota Bontang",KALIMANTAN TIMUR,75311.0,Indonesia,54828001.0,,,0.134567,117.4792428,https://maps.google.com/?cid=0x0:0xf0bd988349090f1d,
hotel,hotel,Yetelu Guest House,"Jl. Gajah Mada No.5, Berbas Tengah, Kec. Bontang Sel., Kota Bontang, Kalimantan Timur 75324","Berbas Tengah, Kec. Bontang Sel., Kota Bontang",KALIMANTAN TIMUR,75324.0,Indonesia,81242090024.0,,,0.1178436,117.4778025,https://maps.google.com/?cid=0x0:0x761b9bc60fa7dcef,
hotel,hotel,RedDoorz near Kantor Walikota Bontang,"Jl. Moch Roem No.Rt.03, Bontang Lestari, Kec. Bontang Sel., Kota Bontang, Kalimantan Timur 75325","Bontang Lestari, Kec. Bontang Sel., Kota Bontang",KALIMANTAN TIMUR,75325.0,Indonesia,895417300072.0,,,0.0750369,117.4540774,https://maps.google.com/?cid=0x0:0x5c59af58708eb771,
hotel,hotel,Cozy Hotel,"Jl. S. Parman No.27, Belimbing, Kec. Bontang Bar., Kota Bontang, Kalimantan Timur 75321","Belimbing, Kec. Bontang Bar., Kota Bontang",KALIMANTAN TIMUR,75321.0,Indonesia,81377059292.0,,,0.1396964,117.4553851,https://maps.google.com/?cid=0x0:0x676f5fa62c522b36,
hotel,hotel,Grand Raodah Hotel,"Jl. Letjend Jl. R. Suprapto No.1, Api-Api, Kec. Bontang Utara, Kota Bontang, Kalimantan Timur 75311","Api-Api, Kec. Bontang Utara, Kota Bontang",KALIMANTAN TIMUR,75311.0,Indonesia,54821180.0,,,0.1350198,117.4893525,https://maps.google.com/?cid=0x0:0xc23095180837725d,
hotel,hotel,Omah Ijo Guest House Bontang,"Jl. Mulawarman No.27, Bontang Baru, Kec. Bontang Utara, Kota Bontang, Kalimantan Timur 75325","Bontang Baru, Kec. Bontang Utara, Kota Bontang",KALIMANTAN TIMUR,75325.0,Indonesia,81348303716.0,,,0.1420922,117.4954397,https://maps.google.com/?cid=0x0:0xb5fc42efefee370b,
hotel,hotel,Guest House Minimalis Bontang (cabang BTN PKT),"Jl. MT. Haryono Gg. Selancar 7 No.RT 029, Api-Api, Kec. Bontang Utara, Kota Bontang, Kalimantan Timur 75313","Api-Api, Kec. Bontang Utara, Kota Bontang",KALIMANTAN TIMUR,75313.0,Indonesia,82150181849.0,,,0.1365772,117.4860063,https://maps.google.com/?cid=0x0:0xba8979a665603b8,
hotel,hotel,OYO 94248 Hotel Majest,"Jalan Muhammad Said No.75325, Bontang Lestari, Kec. Bontang Sel., Kota Samarinda, Kalimantan Timur 75325","Bontang Lestari, Kec. Bontang Sel., Kota Samarinda",KALIMANTAN TIMUR,75325.0,Indonesia,817788016.0,,,0.075006,117.45418,https://maps.google.com/?cid=0x0:0xde578031821ca01d,
hotel,hotel,Hotel Borneo,"Jl. Sultan Hasanudin No.8, Berbas Tengah, Kec. Bontang Sel., Kota Bontang, Kalimantan Timur 75322","Berbas Tengah, Kec. Bontang Sel., Kota Bontang",KALIMANTAN TIMUR,75322.0,Indonesia,81347275099.0,,,0.1137832,117.4814495,https://maps.google.com/?cid=0x0:0xd34545e0716b21bc,
hotel,hotel,Hotel Surya Raya,"Jl. Aip II KS Tubun No.5, Tj. Laut Indah, Kec. Bontang Sel., Kota Bontang, Kalimantan Timur 75313","Tj. Laut Indah, Kec. Bontang Sel., Kota Bontang",KALIMANTAN TIMUR,75313.0,Indonesia,83896326877.0,,,0.1212744,117.4966485,https://maps.google.com/?cid=0x0:0xa73e121c0bc80a9e,
hotel,hotel,Okra Leaf Guest House Syariah,"Jl. Mayor Jenderal DI Panjaitan, RT.27/RW.No. 04, Api-Api, Kec. Bontang Utara, Kota Bontang, Kalimantan Timur 75313","RT.27/RW.No. 04, Api-Api, Kec. Bontang Utara, Kota Bontang",KALIMANTAN TIMUR,75313.0,Indonesia,54821236.0,,,0.1329936,117.4994554,https://maps.google.com/?cid=0x0:0x26fc241b5573849a,
hotel,hotel,Hotel Cahaya Bone,"Jl. S. Parman No.02, Kanaan, Kec. Bontang Bar., Kota Bontang, Kalimantan Timur 75313","Kanaan, Kec. Bontang Bar., Kota Bontang",KALIMANTAN TIMUR,75313.0,Indonesia,5483510003.0,,,0.1404806,117.4609883,https://maps.google.com/?cid=0x0:0xf0a3ccb4dfc2161e,
hotel,hotel,,,,KALIMANTAN TIMUR,,Indonesia,,,,,,https://maps.google.com/?cid=0x0:0xdb040fce5326c002%7C/g/11b6d1lrnf%7Cen-ID,
hotel,hotel,Akbar Hotel,"JL. Imam Bonjol, No. 65, Gunung Sari, Tj. Laut, Kec. Bontang Sel., Kota Bontang, Kalimantan Timur 75311","No. 65, Gunung Sari, Tj. Laut, Kec. Bontang Sel., Kota Bontang",KALIMANTAN TIMUR,75311.0,Indonesia,54827679.0,,,0.1293884,117.4835703,https://maps.google.com/?cid=0x0:0xdb040fce5326c002,
hotel,hotel,Hotel Majestic,"Jl Moch Roem, Bontang Lestari, Kec. Bontang Sel., Kota Bontang, Kalimantan Timur 75325","Bontang Lestari, Kec. Bontang Sel., Kota Bontang",KALIMANTAN TIMUR,75325.0,Indonesia,81255461227.0,,,0.0750171,117.4542585,https://maps.google.com/?cid=0x0:0x9556188b900e5d91,
hotel,hotel,AlasDjati Guest House,"Jl. Bulutangkis Perumahan Casa Derica No.1, Api-Api, Kec. Bontang Utara, Kota Bontang, Kalimantan Timur 75313","Api-Api, Kec. Bontang Utara, Kota Bontang",KALIMANTAN TIMUR,75313.0,Indonesia,81150500800.0,,,0.1318179,117.4824447,https://maps.google.com/?cid=0x0:0x33229a1c7c263072,
hotel,hotel,Kalimantan Timur 75324,"Kec. Bontang Sel., Kota Bontang, Kalimantan Timur","Kota Bontang, Kalimantan Timur",KALIMANTAN TIMUR,,Indonesia,,,,0.1495015,117.2911248,https://maps.google.com/?cid=0x0:0x38f97e9610099fa,
hotel,hotel,Grand Equator Hotel,"Jl. Pupuk Raya No.1, Guntung, Kec. Bontang Utara, Kota Bontang, Kalimantan Timur 75313","Guntung, Kec. Bontang Utara, Kota Bontang",KALIMANTAN TIMUR,75313.0,Indonesia,82350906060.0,,,0.1858178,117.4757408,https://maps.google.com/?cid=0x0:0xd604b84a9ad7dd59,
hotel,hotel,Hotel Grand Mutiara,"Jl. Arif Rahman Hakim No.KM. 3, Belimbing, Kota Bontang, Kalimantan Timur 75313","Belimbing, Kota Bontang",KALIMANTAN TIMUR,75313.0,Indonesia,54841988.0,,,0.1688223,117.4590919,https://maps.google.com/?cid=0x0:0x3937ef5771ae78e4,
hotel,hotel,Hotel Gembira,"Jl. Hayam Wuruk No.7-9, Kampung Baru, Berbas Tengah, Kec. Bontang Sel., Kota Bontang, Kalimantan Timur 75313","Kampung Baru, Berbas Tengah, Kec. Bontang Sel., Kota Bontang",KALIMANTAN TIMUR,75313.0,Indonesia,54826145.0,,,0.1169033,117.4799093,https://maps.google.com/?cid=0x0:0x479c6feb43b88e31,
hotel,hotel,,,,KALIMANTAN TIMUR,,Indonesia,,,,,,https://maps.google.com/?cid=0x0:0xd8836872ea3fba6f%7C/g/1tlqmhqz%7Cen-ID,
hotel,hotel,Hotel Andika bontang,"4F8H+JW9, Berbas Tengah, Kec. Bontang Sel., Kota Bontang, Kalimantan Timur 75325","Berbas Tengah, Kec. Bontang Sel., Kota Bontang",KALIMANTAN TIMUR,75325.0,Indonesia,,,,0.1165348,117.479854,https://maps.google.com/?cid=0x0:0x149e8f375ced935b,
hotel,hotel,Hotel Raodah 2 Bontang,"Jl. MT. Haryono, Api-Api, Kec. Bontang Utara, Kota Bontang, Kalimantan Timur 75325","Api-Api, Kec. Bontang Utara, Kota Bontang",KALIMANTAN TIMUR,75325.0,Indonesia,54828261.0,,,0.1358009,117.4813696,https://maps.google.com/?cid=0x0:0x2f077e275f694095,
hotel,hotel,Hotel Tiara Surya,"Jl. MT. Haryono No.55, Gn. Elai, Kec. Bontang Utara, Kota Bontang, Kalimantan Timur 75311","Gn. Elai, Kec. Bontang Utara, Kota Bontang",KALIMANTAN TIMUR,75311.0,Indonesia,54828001.0,,,0.134567,117.4792428,https://maps.google.com/?cid=0x0:0xf0bd988349090f1d,
hotel,hotel,Yetelu Guest House,"Jl. Gajah Mada No.5, Berbas Tengah, Kec. Bontang Sel., Kota Bontang, Kalimantan Timur 75324","Berbas Tengah, Kec. Bontang Sel., Kota Bontang",KALIMANTAN TIMUR,75324.0,Indonesia,81242090024.0,,,0.1178436,117.4778025,https://maps.google.com/?cid=0x0:0x761b9bc60fa7dcef,
hotel,hotel,RedDoorz near Kantor Walikota Bontang,"Jl. Moch Roem No.Rt.03, Bontang Lestari, Kec. Bontang Sel., Kota Bontang, Kalimantan Timur 75325","Bontang Lestari, Kec. Bontang Sel., Kota Bontang",KALIMANTAN TIMUR,75325.0,Indonesia,895417300072.0,,,0.0750369,117.4540774,https://maps.google.com/?cid=0x0:0x5c59af58708eb771,
hotel,hotel,Grand Raodah Hotel,"Jl. Letjend Jl. R. Suprapto No.1, Api-Api, Kec. Bontang Utara, Kota Bontang, Kalimantan Timur 75311","Api-Api, Kec. Bontang Utara, Kota Bontang",KALIMANTAN TIMUR,75311.0,Indonesia,54821180.0,,,0.1350198,117.4893525,https://maps.google.com/?cid=0x0:0xc23095180837725d,
hotel,hotel,OYO 94248 Hotel Majest,"Jalan Muhammad Said No.75325, Bontang Lestari, Kec. Bontang Sel., Kota Samarinda, Kalimantan Timur 75325","Bontang Lestari, Kec. Bontang Sel., Kota Samarinda",KALIMANTAN TIMUR,75325.0,Indonesia,817788016.0,,,0.075006,117.45418,https://maps.google.com/?cid=0x0:0xde578031821ca01d,
hotel,hotel,Guest House Minimalis Bontang (cabang BTN PKT),"Jl. MT. Haryono Gg. Selancar 7 No.RT 029, Api-Api, Kec. Bontang Utara, Kota Bontang, Kalimantan Timur 75313","Api-Api, Kec. Bontang Utara, Kota Bontang",KALIMANTAN TIMUR,75313.0,Indonesia,82150181849.0,,,0.1365772,117.4860063,https://maps.google.com/?cid=0x0:0xba8979a665603b8,
hotel,hotel,AlasDjati Guest House,"Jl. Bulutangkis Perumahan Casa Derica No.1, Api-Api, Kec. Bontang Utara, Kota Bontang, Kalimantan Timur 75313","Api-Api, Kec. Bontang Utara, Kota Bontang",KALIMANTAN TIMUR,75313.0,Indonesia,81150500800.0,,,0.1318179,117.4824447,https://maps.google.com/?cid=0x0:0x33229a1c7c263072,
hotel,hotel,Omah Ijo Guest House Bontang,"Jl. Mulawarman No.27, Bontang Baru, Kec. Bontang Utara, Kota Bontang, Kalimantan Timur 75325","Bontang Baru, Kec. Bontang Utara, Kota Bontang",KALIMANTAN TIMUR,75325.0,Indonesia,81348303716.0,,,0.1420922,117.4954397,https://maps.google.com/?cid=0x0:0xb5fc42efefee370b,
hotel,hotel,Cozy Hotel,"Jl. S. Parman No.27, Belimbing, Kec. Bontang Bar., Kota Bontang, Kalimantan Timur 75321","Belimbing, Kec. Bontang Bar., Kota Bontang",KALIMANTAN TIMUR,75321.0,Indonesia,81377059292.0,,,0.1396964,117.4553851,https://maps.google.com/?cid=0x0:0x676f5fa62c522b36,
hotel,hotel,Hotel Surya Raya,"Jl. Aip II KS Tubun No.5, Tj. Laut Indah, Kec. Bontang Sel., Kota Bontang, Kalimantan Timur 75313","Tj. Laut Indah, Kec. Bontang Sel., Kota Bontang",KALIMANTAN TIMUR,75313.0,Indonesia,83896326877.0,,,0.1212744,117.4966485,https://maps.google.com/?cid=0x0:0xa73e121c0bc80a9e,
hotel,hotel,Hotel Majestic,"Jl Moch Roem, Bontang Lestari, Kec. Bontang Sel., Kota Bontang, Kalimantan Timur 75325","Bontang Lestari, Kec. Bontang Sel., Kota Bontang",KALIMANTAN TIMUR,75325.0,Indonesia,81255461227.0,,,0.0750171,117.4542585,https://maps.google.com/?cid=0x0:0x9556188b900e5d91,
hotel,hotel,Hotel Borneo,"Jl. Sultan Hasanudin No.8, Berbas Tengah, Kec. Bontang Sel., Kota Bontang, Kalimantan Timur 75322","Berbas Tengah, Kec. Bontang Sel., Kota Bontang",KALIMANTAN TIMUR,75322.0,Indonesia,81347275099.0,,,0.1137832,117.4814495,https://maps.google.com/?cid=0x0:0xd34545e0716b21bc,
hotel,hotel,Redhazka Homestay,"4F9R+7JM, jl sutan syahrir Jl. Sultan Syahrir No.rt 08 no 1 kel, Tj. Laut Indah, Kec. Bontang Sel., Kota Bontang, Kalimantan Timur 75325","jl sutan syahrir Jl. Sultan Syahrir No.rt 08 no 1 kel, Tj. Laut Indah, Kec. Bontang Sel., Kota Bontang",KALIMANTAN TIMUR,75325.0,Indonesia,81346815951.0,,,0.1179972,117.4914658,https://maps.google.com/?cid=0x0:0xb663618bdc2c8fe,
hotel,hotel,Okra Leaf Guest House Syariah,"Jl. Mayor Jenderal DI Panjaitan, RT.27/RW.No. 04, Api-Api, Kec. Bontang Utara, Kota Bontang, Kalimantan Timur 75313","RT.27/RW.No. 04, Api-Api, Kec. Bontang Utara, Kota Bontang",KALIMANTAN TIMUR,75313.0,Indonesia,54821236.0,,,0.1329936,117.4994554,https://maps.google.com/?cid=0x0:0x26fc241b5573849a,
hotel,hotel,Akbar Hotel,"JL. Imam Bonjol, No. 65, Gunung Sari, Tj. Laut, Kec. Bontang Sel., Kota Bontang, Kalimantan Timur 75311","No. 65, Gunung Sari, Tj. Laut, Kec. Bontang Sel., Kota Bontang",KALIMANTAN TIMUR,75311.0,Indonesia,54827679.0,,,0.1293884,117.4835703,https://maps.google.com/?cid=0x0:0xdb040fce5326c002,
hotel,hotel,,,,KALIMANTAN TIMUR,,Indonesia,,,,,,https://maps.google.com/?cid=0x0:0xdb040fce5326c002%7C/g/11b6d1lrnf%7Cen-ID,
hotel,hotel,Kalimantan Timur 75325,Kalimantan Timur,Kalimantan Timur,KALIMANTAN TIMUR,,Indonesia,,,,0.0830107,117.2440957,https://maps.google.com/?cid=0x0:0x26084c6c6cec55ca,
hotel,hotel,Hotel Bintang Sintuk,"5F6F+2C6, Komp. Kawasan Lapangan Golf Sintuk PKT Jl. Urea, Lok Tuan, Kec. Bontang Utara, Kota Bontang, Kalimantan Timur 75313","Komp. Kawasan Lapangan Golf Sintuk PKT Jl. Urea, Lok Tuan, Kec. Bontang Utara, Kota Bontang",KALIMANTAN TIMUR,75313.0,Indonesia,54826268.0,,,0.160026,117.473509,https://maps.google.com/?cid=0x0:0xd8836872ea3fba6f,
hotel,hotel,,,,KALIMANTAN TIMUR,,Indonesia,,,,,,https://maps.google.com/?cid=0x0:0xd8836872ea3fba6f%7C/g/1tlqmhqz%7Cen-ID,
hotel,hotel,Hotel Gembira,"Jl. Hayam Wuruk No.7-9, Kampung Baru, Berbas Tengah, Kec. Bontang Sel., Kota Bontang, Kalimantan Timur 75313","Kampung Baru, Berbas Tengah, Kec. Bontang Sel., Kota Bontang",KALIMANTAN TIMUR,75313.0,Indonesia,54826145.0,,,0.1169033,117.4799093,https://maps.google.com/?cid=0x0:0x479c6feb43b88e31,
hotel,hotel,Grand Equator Hotel,"Jl. Pupuk Raya No.1, Guntung, Kec. Bontang Utara, Kota Bontang, Kalimantan Timur 75313","Guntung, Kec. Bontang Utara, Kota Bontang",KALIMANTAN TIMUR,75313.0,Indonesia,82350906060.0,,,0.1858178,117.4757408,https://maps.google.com/?cid=0x0:0xd604b84a9ad7dd59,
hotel,hotel,Hotel Raodah 2 Bontang,"Jl. MT. Haryono, Api-Api, Kec. Bontang Utara, Kota Bontang, Kalimantan Timur 75325","Api-Api, Kec. Bontang Utara, Kota Bontang",KALIMANTAN TIMUR,75325.0,Indonesia,54828261.0,,,0.1358009,117.4813696,https://maps.google.com/?cid=0x0:0x2f077e275f694095,
hotel,hotel,Hotel Tiara Surya,"Jl. MT. Haryono No.55, Gn. Elai, Kec. Bontang Utara, Kota Bontang, Kalimantan Timur 75311","Gn. Elai, Kec. Bontang Utara, Kota Bontang",KALIMANTAN TIMUR,75311.0,Indonesia,54828001.0,,,0.134567,117.4792428,https://maps.google.com/?cid=0x0:0xf0bd988349090f1d,
hotel,hotel,Hotel Andika bontang,"4F8H+JW9, Berbas Tengah, Kec. Bontang Sel., Kota Bontang, Kalimantan Timur 75325","Berbas Tengah, Kec. Bontang Sel., Kota Bontang",KALIMANTAN TIMUR,75325.0,Indonesia,,,,0.1165348,117.479854,https://maps.google.com/?cid=0x0:0x149e8f375ced935b,
hotel,hotel,Yetelu Guest House,"Jl. Gajah Mada No.5, Berbas Tengah, Kec. Bontang Sel., Kota Bontang, Kalimantan Timur 75324","Berbas Tengah, Kec. Bontang Sel., Kota Bontang",KALIMANTAN TIMUR,75324.0,Indonesia,81242090024.0,,,0.1178436,117.4778025,https://maps.google.com/?cid=0x0:0x761b9bc60fa7dcef,
hotel,hotel,RedDoorz near Kantor Walikota Bontang,"Jl. Moch Roem No.Rt.03, Bontang Lestari, Kec. Bontang Sel., Kota Bontang, Kalimantan Timur 75325","Bontang Lestari, Kec. Bontang Sel., Kota Bontang",KALIMANTAN TIMUR,75325.0,Indonesia,895417300072.0,,,0.0750369,117.4540774,https://maps.google.com/?cid=0x0:0x5c59af58708eb771,
hotel,hotel,Grand Raodah Hotel,"Jl. Letjend Jl. R. Suprapto No.1, Api-Api, Kec. Bontang Utara, Kota Bontang, Kalimantan Timur 75311","Api-Api, Kec. Bontang Utara, Kota Bontang",KALIMANTAN TIMUR,75311.0,Indonesia,54821180.0,,,0.1350198,117.4893525,https://maps.google.com/?cid=0x0:0xc23095180837725d,
hotel,hotel,AlasDjati Guest House,"Jl. Bulutangkis Perumahan Casa Derica No.1, Api-Api, Kec. Bontang Utara, Kota Bontang, Kalimantan Timur 75313","Api-Api, Kec. Bontang Utara, Kota Bontang",KALIMANTAN TIMUR,75313.0,Indonesia,81150500800.0,,,0.1318179,117.4824447,https://maps.google.com/?cid=0x0:0x33229a1c7c263072,
hotel,hotel,Guest House Minimalis Bontang (cabang BTN PKT),"Jl. MT. Haryono Gg. Selancar 7 No.RT 029, Api-Api, Kec. Bontang Utara, Kota Bontang, Kalimantan Timur 75313","Api-Api, Kec. Bontang Utara, Kota Bontang",KALIMANTAN TIMUR,75313.0,Indonesia,82150181849.0,,,0.1365772,117.4860063,https://maps.google.com/?cid=0x0:0xba8979a665603b8,
hotel,hotel,Omah Ijo Guest House Bontang,"Jl. Mulawarman No.27, Bontang Baru, Kec. Bontang Utara, Kota Bontang, Kalimantan Timur 75325","Bontang Baru, Kec. Bontang Utara, Kota Bontang",KALIMANTAN TIMUR,75325.0,Indonesia,81348303716.0,,,0.1420922,117.4954397,https://maps.google.com/?cid=0x0:0xb5fc42efefee370b,
hotel,hotel,Cozy Hotel,"Jl. S. Parman No.27, Belimbing, Kec. Bontang Bar., Kota Bontang, Kalimantan Timur 75321","Belimbing, Kec. Bontang Bar., Kota Bontang",KALIMANTAN TIMUR,75321.0,Indonesia,81377059292.0,,,0.1396964,117.4553851,https://maps.google.com/?cid=0x0:0x676f5fa62c522b36,
hotel,hotel,OYO 94248 Hotel Majest,"Jalan Muhammad Said No.75325, Bontang Lestari, Kec. Bontang Sel., Kota Samarinda, Kalimantan Timur 75325","Bontang Lestari, Kec. Bontang Sel., Kota Samarinda",KALIMANTAN TIMUR,75325.0,Indonesia,817788016.0,,,0.075006,117.45418,https://maps.google.com/?cid=0x0:0xde578031821ca01d,
hotel,hotel,Hotel Borneo,"Jl. Sultan Hasanudin No.8, Berbas Tengah, Kec. Bontang Sel., Kota Bontang, Kalimantan Timur 75322","Berbas Tengah, Kec. Bontang Sel., Kota Bontang",KALIMANTAN TIMUR,75322.0,Indonesia,81347275099.0,,,0.1137832,117.4814495,https://maps.google.com/?cid=0x0:0xd34545e0716b21bc,
hotel,hotel,Hotel Majestic,"Jl Moch Roem, Bontang Lestari, Kec. Bontang Sel., Kota Bontang, Kalimantan Timur 75325","Bontang Lestari, Kec. Bontang Sel., Kota Bontang",KALIMANTAN TIMUR,75325.0,Indonesia,81255461227.0,,,0.0750171,117.4542585,https://maps.google.com/?cid=0x0:0x9556188b900e5d91,
hotel,hotel,Hotel Surya Raya,"Jl. Aip II KS Tubun No.5, Tj. Laut Indah, Kec. Bontang Sel., Kota Bontang, Kalimantan Timur 75313","Tj. Laut Indah, Kec. Bontang Sel., Kota Bontang",KALIMANTAN TIMUR,75313.0,Indonesia,83896326877.0,,,0.1212744,117.4966485,https://maps.google.com/?cid=0x0:0xa73e121c0bc80a9e,
hotel,hotel,Okra Leaf Guest House Syariah,"Jl. Mayor Jenderal DI Panjaitan, RT.27/RW.No. 04, Api-Api, Kec. Bontang Utara, Kota Bontang, Kalimantan Timur 75313","RT.27/RW.No. 04, Api-Api, Kec. Bontang Utara, Kota Bontang",KALIMANTAN TIMUR,75313.0,Indonesia,54821236.0,,,0.1329936,117.4994554,https://maps.google.com/?cid=0x0:0x26fc241b5573849a,
hotel,hotel,Redhazka Homestay,"4F9R+7JM, jl sutan syahrir Jl. Sultan Syahrir No.rt 08 no 1 kel, Tj. Laut Indah, Kec. Bontang Sel., Kota Bontang, Kalimantan Timur 75325","jl sutan syahrir Jl. Sultan Syahrir No.rt 08 no 1 kel, Tj. Laut Indah, Kec. Bontang Sel., Kota Bontang",KALIMANTAN TIMUR,75325.0,Indonesia,81346815951.0,,,0.1179972,117.4914658,https://maps.google.com/?cid=0x0:0xb663618bdc2c8fe,
hotel,hotel,,,,KALIMANTAN TIMUR,,Indonesia,,,,,,https://maps.google.com/?cid=0x0:0xdb040fce5326c002%7C/g/11b6d1lrnf%7Cen-ID,
hotel,hotel,Akbar Hotel,"JL. Imam Bonjol, No. 65, Gunung Sari, Tj. Laut, Kec. Bontang Sel., Kota Bontang, Kalimantan Timur 75311","No. 65, Gunung Sari, Tj. Laut, Kec. Bontang Sel., Kota Bontang",KALIMANTAN TIMUR,75311.0,Indonesia,54827679.0,,,0.1293884,117.4835703,https://maps.google.com/?cid=0x0:0xdb040fce5326c002,
hotel,hotel,Kalimantan Timur 75311,"Gn. Elai, Kec. Bontang Utara, Kota Bontang, Kalimantan Timur","Kota Bontang, Kalimantan Timur",KALIMANTAN TIMUR,,Indonesia,,,,0.1444417,117.4887629,https://maps.google.com/?cid=0x0:0x33198cc450f8143a,
hotel,hotel,Hotel Bintang Sintuk,"5F6F+2C6, Komp. Kawasan Lapangan Golf Sintuk PKT Jl. Urea, Lok Tuan, Kec. Bontang Utara, Kota Bontang, Kalimantan Timur 75313","Komp. Kawasan Lapangan Golf Sintuk PKT Jl. Urea, Lok Tuan, Kec. Bontang Utara, Kota Bontang",KALIMANTAN TIMUR,75313.0,Indonesia,54826268.0,,,0.160026,117.473509,https://maps.google.com/?cid=0x0:0xd8836872ea3fba6f,
hotel,hotel,,,,KALIMANTAN TIMUR,,Indonesia,,,,,,https://maps.google.com/?cid=0x0:0xd8836872ea3fba6f%7C/g/1tlqmhqz%7Cen-ID,
hotel,hotel,Grand Equator Hotel,"Jl. Pupuk Raya No.1, Guntung, Kec. Bontang Utara, Kota Bontang, Kalimantan Timur 75313","Guntung, Kec. Bontang Utara, Kota Bontang",KALIMANTAN TIMUR,75313.0,Indonesia,82350906060.0,,,0.1858178,117.4757408,https://maps.google.com/?cid=0x0:0xd604b84a9ad7dd59,
hotel,hotel,Hotel Tiara Surya,"Jl. MT. Haryono No.55, Gn. Elai, Kec. Bontang Utara, Kota Bontang, Kalimantan Timur 75311","Gn. Elai, Kec. Bontang Utara, Kota Bontang",KALIMANTAN TIMUR,75311.0,Indonesia,54828001.0,,,0.134567,117.4792428,https://maps.google.com/?cid=0x0:0xf0bd988349090f1d,
hotel,hotel,Hotel Grand Mutiara,"Jl. Arif Rahman Hakim No.KM. 3, Belimbing, Kota Bontang, Kalimantan Timur 75313","Belimbing, Kota Bontang",KALIMANTAN TIMUR,75313.0,Indonesia,54841988.0,,,0.1688223,117.4590919,https://maps.google.com/?cid=0x0:0x3937ef5771ae78e4,
hotel,hotel,Hotel Gembira,"Jl. Hayam Wuruk No.7-9, Kampung Baru, Berbas Tengah, Kec. Bontang Sel., Kota Bontang, Kalimantan Timur 75313","Kampung Baru, Berbas Tengah, Kec. Bontang Sel., Kota Bontang",KALIMANTAN TIMUR,75313.0,Indonesia,54826145.0,,,0.1169033,117.4799093,https://maps.google.com/?cid=0x0:0x479c6feb43b88e31,
hotel,hotel,Hotel Andika bontang,"4F8H+JW9, Berbas Tengah, Kec. Bontang Sel., Kota Bontang, Kalimantan Timur 75325","Berbas Tengah, Kec. Bontang Sel., Kota Bontang",KALIMANTAN TIMUR,75325.0,Indonesia,,,,0.1165348,117.479854,https://maps.google.com/?cid=0x0:0x149e8f375ced935b,
hotel,hotel,Grand Raodah Hotel,"Jl. Letjend Jl. R. Suprapto No.1, Api-Api, Kec. Bontang Utara, Kota Bontang, Kalimantan Timur 75311","Api-Api, Kec. Bontang Utara, Kota Bontang",KALIMANTAN TIMUR,75311.0,Indonesia,54821180.0,,,0.1350198,117.4893525,https://maps.google.com/?cid=0x0:0xc23095180837725d,
hotel,hotel,Yetelu Guest House,"Jl. Gajah Mada No.5, Berbas Tengah, Kec. Bontang Sel., Kota Bontang, Kalimantan Timur 75324","Berbas Tengah, Kec. Bontang Sel., Kota Bontang",KALIMANTAN TIMUR,75324.0,Indonesia,81242090024.0,,,0.1178436,117.4778025,https://maps.google.com/?cid=0x0:0x761b9bc60fa7dcef,
hotel,hotel,Omah Ijo Guest House Bontang,"Jl. Mulawarman No.27, Bontang Baru, Kec. Bontang Utara, Kota Bontang, Kalimantan Timur 75325","Bontang Baru, Kec. Bontang Utara, Kota Bontang",KALIMANTAN TIMUR,75325.0,Indonesia,81348303716.0,,,0.1420922,117.4954397,https://maps.google.com/?cid=0x0:0xb5fc42efefee370b,
hotel,hotel,Guest House Minimalis Bontang (cabang BTN PKT),"Jl. MT. Haryono Gg. Selancar 7 No.RT 029, Api-Api, Kec. Bontang Utara, Kota Bontang, Kalimantan Timur 75313","Api-Api, Kec. Bontang Utara, Kota Bontang",KALIMANTAN TIMUR,75313.0,Indonesia,82150181849.0,,,0.1365772,117.4860063,https://maps.google.com/?cid=0x0:0xba8979a665603b8,
hotel,hotel,AlasDjati Guest House,"Jl. Bulutangkis Perumahan Casa Derica No.1, Api-Api, Kec. Bontang Utara, Kota Bontang, Kalimantan Timur 75313","Api-Api, Kec. Bontang Utara, Kota Bontang",KALIMANTAN TIMUR,75313.0,Indonesia,81150500800.0,,,0.1318179,117.4824447,https://maps.google.com/?cid=0x0:0x33229a1c7c263072,
hotel,hotel,Alya guesthouse Syariah Bontang,"Jl. Gendang 3 No.51B Lantai 2, RT.22, Bontang Baru, Kec. Bontang Utara, Kota Bontang, Kalimantan Timur 75311","RT.22, Bontang Baru, Kec. Bontang Utara, Kota Bontang",KALIMANTAN TIMUR,75311.0,Indonesia,82149625177.0,,,0.1420747,117.4897325,https://maps.google.com/?cid=0x0:0x373203217df125b0,
hotel,hotel,Cozy Hotel,"Jl. S. Parman No.27, Belimbing, Kec. Bontang Bar., Kota Bontang, Kalimantan Timur 75321","Belimbing, Kec. Bontang Bar., Kota Bontang",KALIMANTAN TIMUR,75321.0,Indonesia,81377059292.0,,,0.1396964,117.4553851,https://maps.google.com/?cid=0x0:0x676f5fa62c522b36,
hotel,hotel,Akbar Hotel,"JL. Imam Bonjol, No. 65, Gunung Sari, Tj. Laut, Kec. Bontang Sel., Kota Bontang, Kalimantan Timur 75311","No. 65, Gunung Sari, Tj. Laut, Kec. Bontang Sel., Kota Bontang",KALIMANTAN TIMUR,75311.0,Indonesia,54827679.0,,,0.1293884,117.4835703,https://maps.google.com/?cid=0x0:0xdb040fce5326c002,
hotel,hotel,,,,KALIMANTAN TIMUR,,Indonesia,,,,,,https://maps.google.com/?cid=0x0:0xdb040fce5326c002%7C/g/11b6d1lrnf%7Cen-ID,
hotel,hotel,Okra Leaf Guest House Syariah,"Jl. Mayor Jenderal DI Panjaitan, RT.27/RW.No. 04, Api-Api, Kec. Bontang Utara, Kota Bontang, Kalimantan Timur 75313","RT.27/RW.No. 04, Api-Api, Kec. Bontang Utara, Kota Bontang",KALIMANTAN TIMUR,75313.0,Indonesia,54821236.0,,,0.1329936,117.4994554,https://maps.google.com/?cid=0x0:0x26fc241b5573849a,
hotel,hotel,Hotel Surya Raya,"Jl. Aip II KS Tubun No.5, Tj. Laut Indah, Kec. Bontang Sel., Kota Bontang, Kalimantan Timur 75313","Tj. Laut Indah, Kec. Bontang Sel., Kota Bontang",KALIMANTAN TIMUR,75313.0,Indonesia,83896326877.0,,,0.1212744,117.4966485,https://maps.google.com/?cid=0x0:0xa73e121c0bc80a9e,
hotel,hotel,Hotel Rahayu,"Jl. MH. Thamrin No.25, Bontang Baru, Kec. Bontang Utara, Kota Bontang, Kalimantan Timur 75311","Bontang Baru, Kec. Bontang Utara, Kota Bontang",KALIMANTAN TIMUR,75311.0,Indonesia,54821871.0,,,0.1464811,117.4894916,https://maps.google.com/?cid=0x0:0xdfe07f59b78a5284,
hotel,hotel,cloverleaf homestay,"Jl. Gendang 4 No.23 RT. 22, Bontang Baru, Kec. Bontang Utara, Kota Bontang, Kalimantan Timur 75311","Bontang Baru, Kec. Bontang Utara, Kota Bontang",KALIMANTAN TIMUR,75311.0,Indonesia,811555669.0,,,0.1423688,117.4906996,https://maps.google.com/?cid=0x0:0x29b2db1b6496ca1b,
hotel,hotel,Hotel Borneo,"Jl. Sultan Hasanudin No.8, Berbas Tengah, Kec. Bontang Sel., Kota Bontang, Kalimantan Timur 75322","Berbas Tengah, Kec. Bontang Sel., Kota Bontang",KALIMANTAN TIMUR,75322.0,Indonesia,81347275099.0,,,0.1137832,117.4814495,https://maps.google.com/?cid=0x0:0xd34545e0716b21bc,
hotel,hotel,Redhazka Homestay,"4F9R+7JM, jl sutan syahrir Jl. Sultan Syahrir No.rt 08 no 1 kel, Tj. Laut Indah, Kec. Bontang Sel., Kota Bontang, Kalimantan Timur 75325","jl sutan syahrir Jl. Sultan Syahrir No.rt 08 no 1 kel, Tj. Laut Indah, Kec. Bontang Sel., Kota Bontang",KALIMANTAN TIMUR,75325.0,Indonesia,81346815951.0,,,0.1179972,117.4914658,https://maps.google.com/?cid=0x0:0xb663618bdc2c8fe,
hotel,hotel,Kalimantan Timur 75312,"Kec. Tlk. Pandan, Kabupaten Kutai Timur, Kalimantan Timur","Kabupaten Kutai Timur, Kalimantan Timur",KALIMANTAN TIMUR,,Indonesia,,,,0.2740898,117.4908738,https://maps.google.com/?cid=0x0:0x66ae207830c2242a,
hotel,hotel,Grand Equator Hotel,"Jl. Pupuk Raya No.1, Guntung, Kec. Bontang Utara, Kota Bontang, Kalimantan Timur 75313","Guntung, Kec. Bontang Utara, Kota Bontang",KALIMANTAN TIMUR,75313.0,Indonesia,82350906060.0,,,0.1858178,117.4757408,https://maps.google.com/?cid=0x0:0xd604b84a9ad7dd59,
hotel,hotel,Hotel Grand Mutiara,"Jl. Arif Rahman Hakim No.KM. 3, Belimbing, Kota Bontang, Kalimantan Timur 75313","Belimbing, Kota Bontang",KALIMANTAN TIMUR,75313.0,Indonesia,54841988.0,,,0.1688223,117.4590919,https://maps.google.com/?cid=0x0:0x3937ef5771ae78e4,
hotel,hotel,,,,KALIMANTAN TIMUR,,Indonesia,,,,,,https://maps.google.com/?cid=0x0:0xd8836872ea3fba6f%7C/g/1tlqmhqz%7Cen-ID,
hotel,hotel,Hotel Gembira,"Jl. Hayam Wuruk No.7-9, Kampung Baru, Berbas Tengah, Kec. Bontang Sel., Kota Bontang, Kalimantan Timur 75313","Kampung Baru, Berbas Tengah, Kec. Bontang Sel., Kota Bontang",KALIMANTAN TIMUR,75313.0,Indonesia,54826145.0,,,0.1169033,117.4799093,https://maps.google.com/?cid=0x0:0x479c6feb43b88e31,
hotel,hotel,Hotel Raodah 2 Bontang,"Jl. MT. Haryono, Api-Api, Kec. Bontang Utara, Kota Bontang, Kalimantan Timur 75325","Api-Api, Kec. Bontang Utara, Kota Bontang",KALIMANTAN TIMUR,75325.0,Indonesia,54828261.0,,,0.1358009,117.4813696,https://maps.google.com/?cid=0x0:0x2f077e275f694095,
hotel,hotel,Hotel Tiara Surya,"Jl. MT. Haryono No.55, Gn. Elai, Kec. Bontang Utara, Kota Bontang, Kalimantan Timur 75311","Gn. Elai, Kec. Bontang Utara, Kota Bontang",KALIMANTAN TIMUR,75311.0,Indonesia,54828001.0,,,0.134567,117.4792428,https://maps.google.com/?cid=0x0:0xf0bd988349090f1d,
hotel,hotel,Hotel Andika bontang,"4F8H+JW9, Berbas Tengah, Kec. Bontang Sel., Kota Bontang, Kalimantan Timur 75325","Berbas Tengah, Kec. Bontang Sel., Kota Bontang",KALIMANTAN TIMUR,75325.0,Indonesia,,,,0.1165348,117.479854,https://maps.google.com/?cid=0x0:0x149e8f375ced935b,
hotel,hotel,Yetelu Guest House,"Jl. Gajah Mada No.5, Berbas Tengah, Kec. Bontang Sel., Kota Bontang, Kalimantan Timur 75324","Berbas Tengah, Kec. Bontang Sel., Kota Bontang",KALIMANTAN TIMUR,75324.0,Indonesia,81242090024.0,,,0.1178436,117.4778025,https://maps.google.com/?cid=0x0:0x761b9bc60fa7dcef,
hotel,hotel,Grand Raodah Hotel,"Jl. Letjend Jl. R. Suprapto No.1, Api-Api, Kec. Bontang Utara, Kota Bontang, Kalimantan Timur 75311","Api-Api, Kec. Bontang Utara, Kota Bontang",KALIMANTAN TIMUR,75311.0,Indonesia,54821180.0,,,0.1350198,117.4893525,https://maps.google.com/?cid=0x0:0xc23095180837725d,
hotel,hotel,Guest House Minimalis Bontang (cabang BTN PKT),"Jl. MT. Haryono Gg. Selancar 7 No.RT 029, Api-Api, Kec. Bontang Utara, Kota Bontang, Kalimantan Timur 75313","Api-Api, Kec. Bontang Utara, Kota Bontang",KALIMANTAN TIMUR,75313.0,Indonesia,82150181849.0,,,0.1365772,117.4860063,https://maps.google.com/?cid=0x0:0xba8979a665603b8,
hotel,hotel,Omah Ijo Guest House Bontang,"Jl. Mulawarman No.27, Bontang Baru, Kec. Bontang Utara, Kota Bontang, Kalimantan Timur 75325","Bontang Baru, Kec. Bontang Utara, Kota Bontang",KALIMANTAN TIMUR,75325.0,Indonesia,81348303716.0,,,0.1420922,117.4954397,https://maps.google.com/?cid=0x0:0xb5fc42efefee370b,
hotel,hotel,AlasDjati Guest House,"Jl. Bulutangkis Perumahan Casa Derica No.1, Api-Api, Kec. Bontang Utara, Kota Bontang, Kalimantan Timur 75313","Api-Api, Kec. Bontang Utara, Kota Bontang",KALIMANTAN TIMUR,75313.0,Indonesia,81150500800.0,,,0.1318179,117.4824447,https://maps.google.com/?cid=0x0:0x33229a1c7c263072,
hotel,hotel,Cozy Hotel,"Jl. S. Parman No.27, Belimbing, Kec. Bontang Bar., Kota Bontang, Kalimantan Timur 75321","Belimbing, Kec. Bontang Bar., Kota Bontang",KALIMANTAN TIMUR,75321.0,Indonesia,81377059292.0,,,0.1396964,117.4553851,https://maps.google.com/?cid=0x0:0x676f5fa62c522b36,
hotel,hotel,Hotel Surya Raya,"Jl. Aip II KS Tubun No.5, Tj. Laut Indah, Kec. Bontang Sel., Kota Bontang, Kalimantan Timur 75313","Tj. Laut Indah, Kec. Bontang Sel., Kota Bontang",KALIMANTAN TIMUR,75313.0,Indonesia,83896326877.0,,,0.1212744,117.4966485,https://maps.google.com/?cid=0x0:0xa73e121c0bc80a9e,
hotel,hotel,Okra Leaf Guest House Syariah,"Jl. Mayor Jenderal DI Panjaitan, RT.27/RW.No. 04, Api-Api, Kec. Bontang Utara, Kota Bontang, Kalimantan Timur 75313","RT.27/RW.No. 04, Api-Api, Kec. Bontang Utara, Kota Bontang",KALIMANTAN TIMUR,75313.0,Indonesia,54821236.0,,,0.1329936,117.4994554,https://maps.google.com/?cid=0x0:0x26fc241b5573849a,
hotel,hotel,Redhazka Homestay,"4F9R+7JM, jl sutan syahrir Jl. Sultan Syahrir No.rt 08 no 1 kel, Tj. Laut Indah, Kec. Bontang Sel., Kota Bontang, Kalimantan Timur 75325","jl sutan syahrir Jl. Sultan Syahrir No.rt 08 no 1 kel, Tj. Laut Indah, Kec. Bontang Sel., Kota Bontang",KALIMANTAN TIMUR,75325.0,Indonesia,81346815951.0,,,0.1179972,117.4914658,https://maps.google.com/?cid=0x0:0xb663618bdc2c8fe,
hotel,hotel,Hotel Cahaya Bone,"Jl. S. Parman No.02, Kanaan, Kec. Bontang Bar., Kota Bontang, Kalimantan Timur 75313","Kanaan, Kec. Bontang Bar., Kota Bontang",KALIMANTAN TIMUR,75313.0,Indonesia,5483510003.0,,,0.1404806,117.4609883,https://maps.google.com/?cid=0x0:0xf0a3ccb4dfc2161e,
hotel,hotel,Alya guesthouse Syariah Bontang,"Jl. Gendang 3 No.51B Lantai 2, RT.22, Bontang Baru, Kec. Bontang Utara, Kota Bontang, Kalimantan Timur 75311","RT.22, Bontang Baru, Kec. Bontang Utara, Kota Bontang",KALIMANTAN TIMUR,75311.0,Indonesia,82149625177.0,,,0.1420747,117.4897325,https://maps.google.com/?cid=0x0:0x373203217df125b0,
hotel,hotel,Hotel Borneo,"Jl. Sultan Hasanudin No.8, Berbas Tengah, Kec. Bontang Sel., Kota Bontang, Kalimantan Timur 75322","Berbas Tengah, Kec. Bontang Sel., Kota Bontang",KALIMANTAN TIMUR,75322.0,Indonesia,81347275099.0,,,0.1137832,117.4814495,https://maps.google.com/?cid=0x0:0xd34545e0716b21bc,
hotel,hotel,Akbar Hotel,"JL. Imam Bonjol, No. 65, Gunung Sari, Tj. Laut, Kec. Bontang Sel., Kota Bontang, Kalimantan Timur 75311","No. 65, Gunung Sari, Tj. Laut, Kec. Bontang Sel., Kota Bontang",KALIMANTAN TIMUR,75311.0,Indonesia,54827679.0,,,0.1293884,117.4835703,https://maps.google.com/?cid=0x0:0xdb040fce5326c002,
hotel,hotel,,,,KALIMANTAN TIMUR,,Indonesia,,,,,,https://maps.google.com/?cid=0x0:0xdb040fce5326c002%7C/g/11b6d1lrnf%7Cen-ID,
hotel,hotel,RedDoorz near Kantor Walikota Bontang,"Jl. Moch Roem No.Rt.03, Bontang Lestari, Kec. Bontang Sel., Kota Bontang, Kalimantan Timur 75325","Bontang Lestari, Kec. Bontang Sel., Kota Bontang",KALIMANTAN TIMUR,75325.0,Indonesia,895417300072.0,,,0.0750369,117.4540774,https://maps.google.com/?cid=0x0:0x5c59af58708eb771,
hotel,hotel,Kec. Bontang Utara,"Kota Bontang, Kalimantan Timur","Kota Bontang, Kalimantan Timur",KALIMANTAN TIMUR,,Indonesia,,,,0.1342654,117.4918113,https://maps.google.com/?cid=0x0:0x8e264a38633f2806,
hotel,hotel,,,,KALIMANTAN TIMUR,,Indonesia,,,,,,https://maps.google.com/?cid=0x0:0xd8836872ea3fba6f%7C/g/1tlqmhqz%7Cen-ID,
hotel,hotel,Hotel Bintang Sintuk,"5F6F+2C6, Komp. Kawasan Lapangan Golf Sintuk PKT Jl. Urea, Lok Tuan, Kec. Bontang Utara, Kota Bontang, Kalimantan Timur 75313","Komp. Kawasan Lapangan Golf Sintuk PKT Jl. Urea, Lok Tuan, Kec. Bontang Utara, Kota Bontang",KALIMANTAN TIMUR,75313.0,Indonesia,54826268.0,,,0.160026,117.473509,https://maps.google.com/?cid=0x0:0xd8836872ea3fba6f,
hotel,hotel,Grand Equator Hotel,"Jl. Pupuk Raya No.1, Guntung, Kec. Bontang Utara, Kota Bontang, Kalimantan Timur 75313","Guntung, Kec. Bontang Utara, Kota Bontang",KALIMANTAN TIMUR,75313.0,Indonesia,82350906060.0,,,0.1858178,117.4757408,https://maps.google.com/?cid=0x0:0xd604b84a9ad7dd59,
hotel,hotel,Hotel Raodah 2 Bontang,"Jl. MT. Haryono, Api-Api, Kec. Bontang Utara, Kota Bontang, Kalimantan Timur 75325","Api-Api, Kec. Bontang Utara, Kota Bontang",KALIMANTAN TIMUR,75325.0,Indonesia,54828261.0,,,0.1358009,117.4813696,https://maps.google.com/?cid=0x0:0x2f077e275f694095,
hotel,hotel,Hotel Gembira,"Jl. Hayam Wuruk No.7-9, Kampung Baru, Berbas Tengah, Kec. Bontang Sel., Kota Bontang, Kalimantan Timur 75313","Kampung Baru, Berbas Tengah, Kec. Bontang Sel., Kota Bontang",KALIMANTAN TIMUR,75313.0,Indonesia,54826145.0,,,0.1169033,117.4799093,https://maps.google.com/?cid=0x0:0x479c6feb43b88e31,
hotel,hotel,Hotel Tiara Surya,"Jl. MT. Haryono No.55, Gn. Elai, Kec. Bontang Utara, Kota Bontang, Kalimantan Timur 75311","Gn. Elai, Kec. Bontang Utara, Kota Bontang",KALIMANTAN TIMUR,75311.0,Indonesia,54828001.0,,,0.134567,117.4792428,https://maps.google.com/?cid=0x0:0xf0bd988349090f1d,
hotel,hotel,Hotel Andika bontang,"4F8H+JW9, Berbas Tengah, Kec. Bontang Sel., Kota Bontang, Kalimantan Timur 75325","Berbas Tengah, Kec. Bontang Sel., Kota Bontang",KALIMANTAN TIMUR,75325.0,Indonesia,,,,0.1165348,117.479854,https://maps.google.com/?cid=0x0:0x149e8f375ced935b,
hotel,hotel,Yetelu Guest House,"Jl. Gajah Mada No.5, Berbas Tengah, Kec. Bontang Sel., Kota Bontang, Kalimantan Timur 75324","Berbas Tengah, Kec. Bontang Sel., Kota Bontang",KALIMANTAN TIMUR,75324.0,Indonesia,81242090024.0,,,0.1178436,117.4778025,https://maps.google.com/?cid=0x0:0x761b9bc60fa7dcef,
hotel,hotel,Grand Raodah Hotel,"Jl. Letjend Jl. R. Suprapto No.1, Api-Api, Kec. Bontang Utara, Kota Bontang, Kalimantan Timur 75311","Api-Api, Kec. Bontang Utara, Kota Bontang",KALIMANTAN TIMUR,75311.0,Indonesia,54821180.0,,,0.1350198,117.4893525,https://maps.google.com/?cid=0x0:0xc23095180837725d,
hotel,hotel,Omah Ijo Guest House Bontang,"Jl. Mulawarman No.27, Bontang Baru, Kec. Bontang Utara, Kota Bontang, Kalimantan Timur 75325","Bontang Baru, Kec. Bontang Utara, Kota Bontang",KALIMANTAN TIMUR,75325.0,Indonesia,81348303716.0,,,0.1420922,117.4954397,https://maps.google.com/?cid=0x0:0xb5fc42efefee370b,
hotel,hotel,AlasDjati Guest House,"Jl. Bulutangkis Perumahan Casa Derica No.1, Api-Api, Kec. Bontang Utara, Kota Bontang, Kalimantan Timur 75313","Api-Api, Kec. Bontang Utara, Kota Bontang",KALIMANTAN TIMUR,75313.0,Indonesia,81150500800.0,,,0.1318179,117.4824447,https://maps.google.com/?cid=0x0:0x33229a1c7c263072,
hotel,hotel,Guest House Minimalis Bontang (cabang BTN PKT),"Jl. MT. Haryono Gg. Selancar 7 No.RT 029, Api-Api, Kec. Bontang Utara, Kota Bontang, Kalimantan Timur 75313","Api-Api, Kec. Bontang Utara, Kota Bontang",KALIMANTAN TIMUR,75313.0,Indonesia,82150181849.0,,,0.1365772,117.4860063,https://maps.google.com/?cid=0x0:0xba8979a665603b8,
hotel,hotel,Cozy Hotel,"Jl. S. Parman No.27, Belimbing, Kec. Bontang Bar., Kota Bontang, Kalimantan Timur 75321","Belimbing, Kec. Bontang Bar., Kota Bontang",KALIMANTAN TIMUR,75321.0,Indonesia,81377059292.0,,,0.1396964,117.4553851,https://maps.google.com/?cid=0x0:0x676f5fa62c522b36,
hotel,hotel,Okra Leaf Guest House Syariah,"Jl. Mayor Jenderal DI Panjaitan, RT.27/RW.No. 04, Api-Api, Kec. Bontang Utara, Kota Bontang, Kalimantan Timur 75313","RT.27/RW.No. 04, Api-Api, Kec. Bontang Utara, Kota Bontang",KALIMANTAN TIMUR,75313.0,Indonesia,54821236.0,,,0.1329936,117.4994554,https://maps.google.com/?cid=0x0:0x26fc241b5573849a,
hotel,hotel,Hotel Surya Raya,"Jl. Aip II KS Tubun No.5, Tj. Laut Indah, Kec. Bontang Sel., Kota Bontang, Kalimantan Timur 75313","Tj. Laut Indah, Kec. Bontang Sel., Kota Bontang",KALIMANTAN TIMUR,75313.0,Indonesia,83896326877.0,,,0.1212744,117.4966485,https://maps.google.com/?cid=0x0:0xa73e121c0bc80a9e,
hotel,hotel,Hotel Borneo,"Jl. Sultan Hasanudin No.8, Berbas Tengah, Kec. Bontang Sel., Kota Bontang, Kalimantan Timur 75322","Berbas Tengah, Kec. Bontang Sel., Kota Bontang",KALIMANTAN TIMUR,75322.0,Indonesia,81347275099.0,,,0.1137832,117.4814495,https://maps.google.com/?cid=0x0:0xd34545e0716b21bc,
hotel,hotel,Redhazka Homestay,"4F9R+7JM, jl sutan syahrir Jl. Sultan Syahrir No.rt 08 no 1 kel, Tj. Laut Indah, Kec. Bontang Sel., Kota Bontang, Kalimantan Timur 75325","jl sutan syahrir Jl. Sultan Syahrir No.rt 08 no 1 kel, Tj. Laut Indah, Kec. Bontang Sel., Kota Bontang",KALIMANTAN TIMUR,75325.0,Indonesia,81346815951.0,,,0.1179972,117.4914658,https://maps.google.com/?cid=0x0:0xb663618bdc2c8fe,
hotel,hotel,Akbar Hotel,"JL. Imam Bonjol, No. 65, Gunung Sari, Tj. Laut, Kec. Bontang Sel., Kota Bontang, Kalimantan Timur 75311","No. 65, Gunung Sari, Tj. Laut, Kec. Bontang Sel., Kota Bontang",KALIMANTAN TIMUR,75311.0,Indonesia,54827679.0,,,0.1293884,117.4835703,https://maps.google.com/?cid=0x0:0xdb040fce5326c002,
hotel,hotel,,,,KALIMANTAN TIMUR,,Indonesia,,,,,,https://maps.google.com/?cid=0x0:0xdb040fce5326c002%7C/g/11b6d1lrnf%7Cen-ID,
hotel,hotel,Hotel Cahaya Bone,"Jl. S. Parman No.02, Kanaan, Kec. Bontang Bar., Kota Bontang, Kalimantan Timur 75313","Kanaan, Kec. Bontang Bar., Kota Bontang",KALIMANTAN TIMUR,75313.0,Indonesia,5483510003.0,,,0.1404806,117.4609883,https://maps.google.com/?cid=0x0:0xf0a3ccb4dfc2161e,
hotel,hotel,Alya guesthouse Syariah Bontang,"Jl. Gendang 3 No.51B Lantai 2, RT.22, Bontang Baru, Kec. Bontang Utara, Kota Bontang, Kalimantan Timur 75311","RT.22, Bontang Baru, Kec. Bontang Utara, Kota Bontang",KALIMANTAN TIMUR,75311.0,Indonesia,82149625177.0,,,0.1420747,117.4897325,https://maps.google.com/?cid=0x0:0x373203217df125b0,
restaurant,restaurant,Kalimantan Timur 75313,"Kota Bontang, Kalimantan Timur","Kota Bontang, Kalimantan Timur",KALIMANTAN TIMUR,,Indonesia,,,,0.1379123,117.493321,https://maps.google.com/?cid=0x0:0xc31ada602112700b,
restaurant,Restoran,TERRA Dining,"Jl. Awang Long No.53c, RT.09, Bontang Baru, Kec. Bontang Utara, Kota Bontang, Kalimantan Timur 75325","RT.09, Bontang Baru, Kec. Bontang Utara, Kota Bontang",KALIMANTAN TIMUR,75325.0,Indonesia,82150562200.0,,,0.1372264,117.4987729,https://maps.google.com/?cid=0x0:0x5fbd61d4b261d2b0,
restaurant,Restoran,Rameshan Brigjen Katamso Bontang,"Jl. Brigjen Katamso No.7, RT.46, Belimbing, Kec. Bontang Bar., Kota Bontang, Kalimantan Timur 75313","RT.46, Belimbing, Kec. Bontang Bar., Kota Bontang",KALIMANTAN TIMUR,75313.0,Indonesia,,,,0.1360729,117.4730294,https://maps.google.com/?cid=0x0:0x4adcaa119f02e2e2,
restaurant,Hidangan Laut,RM Sari Laut Mbak Zuly Bontang,"Jl. Brigjen Katamso No.25, Belimbing, Kec. Bontang Bar., Kota Bontang, Kalimantan Timur 75325","Belimbing, Kec. Bontang Bar., Kota Bontang",KALIMANTAN TIMUR,75325.0,Indonesia,82189040384.0,,,0.1374632,117.4667821,https://maps.google.com/?cid=0x0:0xd91717ec8a527a8d,
restaurant,Restoran,Bakoel penyetzz foodfighter,"4FPQ+6WR, Bontang Baru, Kec. Bontang Utara, Kota Bontang, Kalimantan Timur 75313","Bontang Baru, Kec. Bontang Utara, Kota Bontang",KALIMANTAN TIMUR,75313.0,Indonesia,81350755857.0,,,0.1356042,117.4897651,https://maps.google.com/?cid=0x0:0xf2ee705abd694b91,
restaurant,Brunch,Griyo Dhahar Kaca5,"Jl. Mulawarman, Salebba, Bontang Baru, Kota Bontang, Kalimantan Timur 75313","Salebba, Bontang Baru, Kota Bontang",KALIMANTAN TIMUR,75313.0,Indonesia,82116677330.0,,,0.1427305,117.4955588,https://maps.google.com/?cid=0x0:0xefd3efb79704601a,
restaurant,Kafe,Batavia Cafe,"4GP5+4C6, Bontang Kuala, Kec. Bontang Utara, Kota Bontang, Kalimantan Timur 75313","Bontang Kuala, Kec. Bontang Utara, Kota Bontang",KALIMANTAN TIMUR,75313.0,Indonesia,8115812939.0,,,0.135291,117.5085274,https://maps.google.com/?cid=0x0:0x44d6b431b422ce29,
restaurant,Rumah Makan,Warung Bucu,"Jl. Cut Nyak Dien No.108, Bontang Kuala, Kec. Bontang Utara, Kota Bontang, Kalimantan Timur 75325","Bontang Kuala, Kec. Bontang Utara, Kota Bontang",KALIMANTAN TIMUR,75325.0,Indonesia,85247020006.0,,,0.14424,117.4980012,https://maps.google.com/?cid=0x0:0x201f63588b12db85,
restaurant,Indonesia,Rumah Boga,"4FQ7+W7W, Jl. Brigjen Katamso, Belimbing, Kec. Bontang Bar., Kota Bontang, Kalimantan Timur 75325","Jl. Brigjen Katamso, Belimbing, Kec. Bontang Bar., Kota Bontang",KALIMANTAN TIMUR,75325.0,Indonesia,81250615099.0,,,0.1398714,117.4632103,https://maps.google.com/?cid=0x0:0xdaa4fe2d83c24456,
restaurant,Restoran,Salby Chicken Smash Bontang,"4FMV+CJQ, Jl. Mayor Jenderal DI Panjaitan, Api-Api, Kec. Bontang Utara, Kota Bontang, Kalimantan Timur 75313","Jl. Mayor Jenderal DI Panjaitan, Api-Api, Kec. Bontang Utara, Kota Bontang",KALIMANTAN TIMUR,75313.0,Indonesia,,,,0.1335768,117.494098,https://maps.google.com/?cid=0x0:0x852faa2056820f98,
restaurant,Sesuai untuk keluarga,MagSeven Steak  Grill,"Jl. MT. Haryono No.14, Api-Api, Kec. Bontang Utara, Kota Bontang, Kalimantan Timur 75325","Api-Api, Kec. Bontang Utara, Kota Bontang",KALIMANTAN TIMUR,75325.0,Indonesia,,,,0.1365916,117.4822105,https://maps.google.com/?cid=0x0:0x81df6a604c356be3,
restaurant,Restoran,Udonku Cipto Mangunkusumo,"Jl. Cipto Mangunkusumo, Belimbing, Kec. Bontang Bar., Kota Bontang, Kalimantan Timur 75325","Belimbing, Kec. Bontang Bar., Kota Bontang",KALIMANTAN TIMUR,75325.0,Indonesia,81351137837.0,,,0.1459201,117.4742253,https://maps.google.com/?cid=0x0:0xadb1b87cb1f76ba6,
restaurant,,Bontang Nusantara,"4FV6+XV, Belimbing, Kec. Bontang Bar., Kota Bontang, Kalimantan Timur","Kota Bontang, Kalimantan Timur",KALIMANTAN TIMUR,,Indonesia,81250615088.0,,,0.1449451,117.4621276,https://maps.google.com/?cid=0x0:0x2518159e9165935e,
restaurant,Restoran,White Place,"Bontang Baru, Kec. Bontang Utara, Kota Bontang, Kalimantan Timur 75313","Kec. Bontang Utara, Kota Bontang",KALIMANTAN TIMUR,75313.0,Indonesia,82250861625.0,,,0.1390733,117.4944523,https://maps.google.com/?cid=0x0:0xc24912d75c8ba696,
restaurant,Restoran,Heartbond Coffee and Eatery,"Jl. Simon Tampubolon, HOP 4/147, Gn. Telihan, Kec. Bontang Bar., Kota Bontang, Kalimantan Timur 75383","HOP 4/147, Gn. Telihan, Kec. Bontang Bar., Kota Bontang",KALIMANTAN TIMUR,75383.0,Indonesia,81346418881.0,,,0.1304211,117.4642577,https://maps.google.com/?cid=0x0:0x5a495ee6f282fa7f,
restaurant,Ikan Bakar,Rumah Makan Prasmanan Budhe Sri,"4FPV+VFH, Bontang Baru, Kec. Bontang Utara, Kota Bontang, Kalimantan Timur 75325","Bontang Baru, Kec. Bontang Utara, Kota Bontang",KALIMANTAN TIMUR,75325.0,Indonesia,81256197753.0,,,0.1371865,117.493726,https://maps.google.com/?cid=0x0:0xc5fe941fde358fe3,
restaurant,Kedai Kopi,PEOPLE  COFFEE,"Kodim, Jl. Awang Long, Bontang Baru, Bontang Utara, Bontang City, East Kalimantan 75313","Jl. Awang Long, Bontang Baru, Bontang Utara, Bontang City",KALIMANTAN TIMUR,75313.0,Indonesia,81250391043.0,,,0.1387322,117.4914926,https://maps.google.com/?cid=0x0:0x51df805d4bf78eca,
restaurant,Ikan Bakar,Warung Fajar,"Jalan Awang Long, RT.17, Bontang Baru, Bontang Utara, Bontang Baru, Kec. Bontang Utara, Kota Bontang, Kalimantan Timur 75325","RT.17, Bontang Baru, Bontang Utara, Bontang Baru, Kec. Bontang Utara, Kota Bontang",KALIMANTAN TIMUR,75325.0,Indonesia,82191309613.0,,,0.1389429,117.490875,https://maps.google.com/?cid=0x0:0xf90490956f77c8f5,
restaurant,Restoran,Kenyang By Milahelda,"4FMR+8GX, Jl. Jend. Achmad Yani, Api-Api, Kec. Bontang Utara, Kota Bontang, Kalimantan Timur 75313","Jl. Jend. Achmad Yani, Api-Api, Kec. Bontang Utara, Kota Bontang",KALIMANTAN TIMUR,75313.0,Indonesia,,,,0.1333519,117.4913479,https://maps.google.com/?cid=0x0:0x596fe42011a68c3a,
restaurant,Kedai Kopi,Kopte,"4GM4+HHC, rt09, Jl. Piere Tandean No.32, Bontang Kuala, Kec. Bontang Utara, Kota Bontang, Kalimantan Timur 75313","rt09, Jl. Piere Tandean No.32, Bontang Kuala, Kec. Bontang Utara, Kota Bontang",KALIMANTAN TIMUR,75313.0,Indonesia,,,,0.135033,117.5023795,https://maps.google.com/?cid=0x0:0x5f2bcaa4f59d8dda,
restaurant,Pempek,Empek-Empek Dahlia Bontang,"Jalan Dahlia Belimbing F 9 BTN, Belimbing, Bontang Barat, Bontang City, East Kalimantan 75313","Belimbing, Bontang Barat, Bontang City",KALIMANTAN TIMUR,75313.0,Indonesia,82156330712.0,,,0.14174,117.46921,https://maps.google.com/?cid=0x0:0x90635f03d5d4241d,
restaurant,Restoran,Warung Jombang,"4FXC+PFH, Belimbing, Kec. Bontang Bar., Kota Bontang, Kalimantan Timur 75313","Belimbing, Kec. Bontang Bar., Kota Bontang",KALIMANTAN TIMUR,75313.0,Indonesia,81351640137.0,,,0.1493011,117.4712362,https://maps.google.com/?cid=0x0:0xb28ad157326b5651,
restaurant,Restoran,Warung Makan Podomoro,"4FPM+WQQ, Api-Api, Kec. Bontang Utara, Kota Bontang, Kalimantan Timur 75313","Api-Api, Kec. Bontang Utara, Kota Bontang",KALIMANTAN TIMUR,75313.0,Indonesia,,,,0.1373424,117.4844879,https://maps.google.com/?cid=0x0:0x6489670a7b381e94,
restaurant,Kedai Kopi,Foresthree Coffee  Kitchen Bontang,"Jl. Pattimura No.148, RT.41, Api-Api, Kec. Bontang Utara, Kota Bontang, Kalimantan Timur 75311","RT.41, Api-Api, Kec. Bontang Utara, Kota Bontang",KALIMANTAN TIMUR,75311.0,Indonesia,82321689999.0,,,0.130281,117.495275,https://maps.google.com/?cid=0x0:0x961f77a42340f67c,
restaurant,Pemasok makanan dan minuman katering,DIMASAKINECKY,"BTN PKT, Jl. Kutilang No.12 blok x, Belimbing, Bontang Barat, Bontang City, East Kalimantan 75313","Jl. Kutilang No.12 blok x, Belimbing, Bontang Barat, Bontang City",KALIMANTAN TIMUR,75313.0,Indonesia,,,,0.1422269,117.4742116,https://maps.google.com/?cid=0x0:0xee9764c097ddfa4d,
restaurant,Rumah Makan,Warung Tirto Arum,"Bontang Baru, Kec. Bontang Utara, Kota Bontang, Kalimantan Timur 75313","Kec. Bontang Utara, Kota Bontang",KALIMANTAN TIMUR,75313.0,Indonesia,85753711918.0,,,0.1348582,117.4921209,https://maps.google.com/?cid=0x0:0x182d0a1bc4717f5b,
restaurant,Sesuai untuk keluarga,Rest Area Warung Bontang,"Jl. Pattimura, Api-Api, Kec. Bontang Utara, Kota Bontang, Kalimantan Timur 75313","Api-Api, Kec. Bontang Utara, Kota Bontang",KALIMANTAN TIMUR,75313.0,Indonesia,85389255879.0,,,0.1320497,117.4920231,https://maps.google.com/?cid=0x0:0xf490df03141ab486,
restaurant,restaurant,Kec. Bontang Bar.,"Kota Bontang, Kalimantan Timur","Kota Bontang, Kalimantan Timur",KALIMANTAN TIMUR,,Indonesia,,,,0.1372358,117.4548496,https://maps.google.com/?cid=0x0:0xdc6d300939175081,
restaurant,Restoran,Heartbond Coffee and Eatery,"Jl. Simon Tampubolon, HOP 4/147, Gn. Telihan, Kec. Bontang Bar., Kota Bontang, Kalimantan Timur 75383","HOP 4/147, Gn. Telihan, Kec. Bontang Bar., Kota Bontang",KALIMANTAN TIMUR,75383.0,Indonesia,81346418881.0,,,0.1304211,117.4642577,https://maps.google.com/?cid=0x0:0x5a495ee6f282fa7f,
restaurant,Hidangan Laut,RM Sari Laut Mbak Zuly Bontang,"Jl. Brigjen Katamso No.25, Belimbing, Kec. Bontang Bar., Kota Bontang, Kalimantan Timur 75325","Belimbing, Kec. Bontang Bar., Kota Bontang",KALIMANTAN TIMUR,75325.0,Indonesia,82189040384.0,,,0.1374632,117.4667821,https://maps.google.com/?cid=0x0:0xd91717ec8a527a8d,
restaurant,Pempek,Empek - Empek Frozen Kenanga Bontang,"Jl. Kenanga No.12 BLOK F, Belimbing, Kec. Bontang Bar., Kota Bontang, Kalimantan Timur 74313","Belimbing, Kec. Bontang Bar., Kota Bontang",KALIMANTAN TIMUR,74313.0,Indonesia,85249982552.0,,,0.1416517,117.4688902,https://maps.google.com/?cid=0x0:0x562ab3c1a296f243,
restaurant,Restoran,Rameshan Brigjen Katamso Bontang,"Jl. Brigjen Katamso No.7, RT.46, Belimbing, Kec. Bontang Bar., Kota Bontang, Kalimantan Timur 75313","RT.46, Belimbing, Kec. Bontang Bar., Kota Bontang",KALIMANTAN TIMUR,75313.0,Indonesia,,,,0.1360729,117.4730294,https://maps.google.com/?cid=0x0:0x4adcaa119f02e2e2,
restaurant,Rumah Makan,Pondok Makan Selamat (Masakan Padang),"Jl. Brigjen Katamso No.5, Belimbing, Kec. Bontang Bar., Kota Bontang, Kalimantan Timur 75325","Belimbing, Kec. Bontang Bar., Kota Bontang",KALIMANTAN TIMUR,75325.0,Indonesia,54825332.0,,,0.1362718,117.4676476,https://maps.google.com/?cid=0x0:0xdf882dcf6d68e3af,
restaurant,Restoran,Depot Aroma,"Jl. S. Parman No.27, Belimbing, Kec. Bontang Bar., Kota Bontang, Kalimantan Timur 75321","Belimbing, Kec. Bontang Bar., Kota Bontang",KALIMANTAN TIMUR,75321.0,Indonesia,,,,0.1400008,117.4579319,https://maps.google.com/?cid=0x0:0xaa80b324273c798d,
restaurant,Sesuai untuk keluarga,MagSeven Steak  Grill,"Jl. MT. Haryono No.14, Api-Api, Kec. Bontang Utara, Kota Bontang, Kalimantan Timur 75325","Api-Api, Kec. Bontang Utara, Kota Bontang",KALIMANTAN TIMUR,75325.0,Indonesia,,,,0.1365916,117.4822105,https://maps.google.com/?cid=0x0:0x81df6a604c356be3,
restaurant,Pesan-Antar Pizza,Pizza Hut Restoran,"Bontang Plaza, Jl. Brigjen Katamso No.10, Belimbing, Kec. Bontang Bar., Kota Bontang, Kalimantan Timur","Kota Bontang, Kalimantan Timur",KALIMANTAN TIMUR,,Indonesia,1500600.0,,,0.1407053,117.4620494,https://maps.google.com/?cid=0x0:0x8446e6ccdb7beabc,
restaurant,Indonesia,Rumah Boga,"4FQ7+W7W, Jl. Brigjen Katamso, Belimbing, Kec. Bontang Bar., Kota Bontang, Kalimantan Timur 75325","Jl. Brigjen Katamso, Belimbing, Kec. Bontang Bar., Kota Bontang",KALIMANTAN TIMUR,75325.0,Indonesia,81250615099.0,,,0.1398714,117.4632103,https://maps.google.com/?cid=0x0:0xdaa4fe2d83c24456,
restaurant,Restoran,Salby Chicken Smash Katamso,"Jl. Brigjen Katamso No.17, Belimbing, Kec. Bontang Bar., Kota Bontang, Kalimantan Timur 75325","Belimbing, Kec. Bontang Bar., Kota Bontang",KALIMANTAN TIMUR,75325.0,Indonesia,,,,0.1357971,117.4689106,https://maps.google.com/?cid=0x0:0x5c0e11f83a2a946d,
restaurant,Kedai Kopi,Foresthree Coffee  Kitchen Bontang,"Jl. Pattimura No.148, RT.41, Api-Api, Kec. Bontang Utara, Kota Bontang, Kalimantan Timur 75311","RT.41, Api-Api, Kec. Bontang Utara, Kota Bontang",KALIMANTAN TIMUR,75311.0,Indonesia,82321689999.0,,,0.130281,117.495275,https://maps.google.com/?cid=0x0:0x961f77a42340f67c,
restaurant,Rumah Makan,RM. Cemara (Masakan Padang),"Jl. Brigjen Katamso, Belimbing, Kec. Bontang Bar., Kota Bontang, Kalimantan Timur 75325","Belimbing, Kec. Bontang Bar., Kota Bontang",KALIMANTAN TIMUR,75325.0,Indonesia,54828461.0,,,0.1364833,117.4674568,https://maps.google.com/?cid=0x0:0xfdeb49ab03d6349,
restaurant,Restoran,Warung Bu Endang,"Jl. Brigjen Katamso, Belimbing, Kec. Bontang Bar., Kota Bontang, Kalimantan Timur 75325","Belimbing, Kec. Bontang Bar., Kota Bontang",KALIMANTAN TIMUR,75325.0,Indonesia,81253691608.0,,,0.139427,117.463414,https://maps.google.com/?cid=0x0:0x6c617f448baa9c40,
restaurant,Nasi Goreng,Richeese Factory Bontang Plaza,"Jl. Brigjen Katamso No.10, Belimbing, Kec. Bontang Bar., Kota Bontang, Kalimantan Timur 61256","Belimbing, Kec. Bontang Bar., Kota Bontang",KALIMANTAN TIMUR,61256.0,Indonesia,,,,0.1405603,117.4625868,https://maps.google.com/?cid=0x0:0x28bd85fb1d2c440a,
restaurant,Restoran,TERRA Dining,"Jl. Awang Long No.53c, RT.09, Bontang Baru, Kec. Bontang Utara, Kota Bontang, Kalimantan Timur 75325","RT.09, Bontang Baru, Kec. Bontang Utara, Kota Bontang",KALIMANTAN TIMUR,75325.0,Indonesia,82150562200.0,,,0.1372264,117.4987729,https://maps.google.com/?cid=0x0:0x5fbd61d4b261d2b0,
restaurant,Rumah Makan,Warung Bucu,"Jl. Cut Nyak Dien No.108, Bontang Kuala, Kec. Bontang Utara, Kota Bontang, Kalimantan Timur 75325","Bontang Kuala, Kec. Bontang Utara, Kota Bontang",KALIMANTAN TIMUR,75325.0,Indonesia,85247020006.0,,,0.14424,117.4980012,https://maps.google.com/?cid=0x0:0x201f63588b12db85,
restaurant,Pempek,Empek Empek Vc IV,"Jl. S. Parman No.7, Belimbing, Kec. Bontang Bar., Kota Bontang, Kalimantan Timur 75321","Belimbing, Kec. Bontang Bar., Kota Bontang",KALIMANTAN TIMUR,75321.0,Indonesia,,,,0.139802,117.4530691,https://maps.google.com/?cid=0x0:0x72b4eed89a219720,
restaurant,Nasi,Warung Aviva,"4FQ7+8M9, Jl. Brigjen Katamso, Belimbing, Kec. Bontang Bar., Kota Bontang, Kalimantan Timur 75325","Jl. Brigjen Katamso, Belimbing, Kec. Bontang Bar., Kota Bontang",KALIMANTAN TIMUR,75325.0,Indonesia,82154400136.0,,,0.1382767,117.4642321,https://maps.google.com/?cid=0x0:0x777597efaeff5a7b,
restaurant,Brunch,SAS CORNER,"Jl. Kalimantan No.206, Gn. Telihan, Kec. Bontang Bar., Kota Bontang, Kalimantan Timur 75325","Gn. Telihan, Kec. Bontang Bar., Kota Bontang",KALIMANTAN TIMUR,75325.0,Indonesia,,,,0.1377072,117.4641624,https://maps.google.com/?cid=0x0:0xdad24acefda0cbc,
restaurant,Kedai Kopi,ATTIC coffee  eatery,"warung ratu, perumahan BTN, Jl. Cipto Mangunkusumo lantai 2, Belimbing, Kec. Bontang Bar., Kota Bontang, Kalimantan Timur 75333","perumahan BTN, Jl. Cipto Mangunkusumo lantai 2, Belimbing, Kec. Bontang Bar., Kota Bontang",KALIMANTAN TIMUR,75333.0,Indonesia,81348580040.0,,,0.1482693,117.472238,https://maps.google.com/?cid=0x0:0x8b664933554cb6c8,
restaurant,Kafe,CakeBun Bontang,"4FR9+VFJ, Belimbing, Kec. Bontang Bar., Kota Bontang, Kalimantan Timur 75325","Belimbing, Kec. Bontang Bar., Kota Bontang",KALIMANTAN TIMUR,75325.0,Indonesia,85250256139.0,,,0.1422153,117.4686423,https://maps.google.com/?cid=0x0:0xdbcdf82ca63c3ceb,
restaurant,Pujasera,Pujasera Pupuk Kaltim / Kopkar PKT,"4FV7+44V, Belimbing, Kec. Bontang Bar., Kota Bontang, Kalimantan Timur 75321","Belimbing, Kec. Bontang Bar., Kota Bontang",KALIMANTAN TIMUR,75321.0,Indonesia,,,,0.1428599,117.4627964,https://maps.google.com/?cid=0x0:0x57f9eb647bba74a4,
restaurant,Restoran,PoetandFood,"Jl. Pontianak I, Gn. Telihan, Kec. Bontang Bar., Kota Bontang, Kalimantan Timur 75321","Gn. Telihan, Kec. Bontang Bar., Kota Bontang",KALIMANTAN TIMUR,75321.0,Indonesia,81257790990.0,,,0.135778,117.4530252,https://maps.google.com/?cid=0x0:0x392b0cfb0af8ff5b,
restaurant,Rumah Makan,Warung Ratu,"4FXC+8W6 Bar, Belimbing, Kec. Bontang Bar., Kota Bontang, Kalimantan Timur 75313","Belimbing, Kec. Bontang Bar., Kota Bontang",KALIMANTAN TIMUR,75313.0,Indonesia,81291719150.0,,,0.148283,117.4722661,https://maps.google.com/?cid=0x0:0x1f6b9a80afd28c2f,
restaurant,Restoran,Lontong Ces,"4FR7+25F, Jl. S. Parman, Belimbing, Kec. Bontang Bar., Kota Bontang, Kalimantan Timur 75321","Jl. S. Parman, Belimbing, Kec. Bontang Bar., Kota Bontang",KALIMANTAN TIMUR,75321.0,Indonesia,,,,0.140068,117.462922,https://maps.google.com/?cid=0x0:0x267d6290263815ce,
restaurant,Pempek,Empek-Empek Anda Kota Taman,"Jl. S. Parman No.158, Kanaan, Kec. Bontang Bar., Kota Bontang, Kalimantan Timur 75321","Kanaan, Kec. Bontang Bar., Kota Bontang",KALIMANTAN TIMUR,75321.0,Indonesia,81347397591.0,,,0.1397711,117.453054,https://maps.google.com/?cid=0x0:0x6691d57cc5cc0874,
restaurant,restaurant,Kalimantan Timur 75321,"Kec. Tlk. Pandan, Kabupaten Kutai Timur, Kalimantan Timur","Kabupaten Kutai Timur, Kalimantan Timur",KALIMANTAN TIMUR,,Indonesia,,,,0.1825802,117.4321452,https://maps.google.com/?cid=0x0:0x70eac15f80c6d3d5,
restaurant,Restoran,Wiwako Resto,"Jl. Poros Samarinda - Bontang No.KM, RW.7, Tlk. Pandan, Kec. Tlk. Pandan, Kabupaten Kutai Timur, Kalimantan Timur 75321","RW.7, Tlk. Pandan, Kec. Tlk. Pandan, Kabupaten Kutai Timur",KALIMANTAN TIMUR,75321.0,Indonesia,81346280726.0,,,0.1329553,117.4188471,https://maps.google.com/?cid=0x0:0x9624fbbb9ab81fa0,
restaurant,Brunch,Restoran Oemah Joglo Bontang (Pendopo Pak Rusnawi),"m keluar gerbang selamat datang, Jl. Poros Bontang - Sangatta No.Km. 7 (500, Tlk. Pandan, Kec. Tlk. Pandan, Kabupaten Kutai Timur, Kalimantan Timur 75321","Jl. Poros Bontang - Sangatta No.Km. 7 (500, Tlk. Pandan, Kec. Tlk. Pandan, Kabupaten Kutai Timur",KALIMANTAN TIMUR,75321.0,Indonesia,82157700074.0,,,0.1424899,117.437694,https://maps.google.com/?cid=0x0:0x3a4bca00687aa9d2,
restaurant,Restoran,TERRA Dining,"Jl. Awang Long No.53c, RT.09, Bontang Baru, Kec. Bontang Utara, Kota Bontang, Kalimantan Timur 75325","RT.09, Bontang Baru, Kec. Bontang Utara, Kota Bontang",KALIMANTAN TIMUR,75325.0,Indonesia,82150562200.0,,,0.1372264,117.4987729,https://maps.google.com/?cid=0x0:0x5fbd61d4b261d2b0,
restaurant,Ikan Bakar,Warung Fajar,"Jalan Awang Long, RT.17, Bontang Baru, Bontang Utara, Bontang Baru, Kec. Bontang Utara, Kota Bontang, Kalimantan Timur 75325","RT.17, Bontang Baru, Bontang Utara, Bontang Baru, Kec. Bontang Utara, Kota Bontang",KALIMANTAN TIMUR,75325.0,Indonesia,82191309613.0,,,0.1389429,117.490875,https://maps.google.com/?cid=0x0:0xf90490956f77c8f5,
restaurant,Sulawesi Selatan,Coto Daeng Makassar (Pisangan),"4FGG+RCF, Jl. HM Ardans, Satimpo, Kec. Bontang Sel., Kota Bontang, Kalimantan Timur 75325","Jl. HM Ardans, Satimpo, Kec. Bontang Sel., Kota Bontang",KALIMANTAN TIMUR,75325.0,Indonesia,,,,0.1270749,117.4760492,https://maps.google.com/?cid=0x0:0xc5c25145e00a79e0,
restaurant,Sulawesi Selatan,Coto makassar lampu merah loktuan,"Jl. Slamet Riyadi No.Rt 22, Lok Tuan, Kec. Bontang Utara, Kota Bontang, Kalimantan Timur 75321","Lok Tuan, Kec. Bontang Utara, Kota Bontang",KALIMANTAN TIMUR,75321.0,Indonesia,,,,0.1695871,117.4681481,https://maps.google.com/?cid=0x0:0xbf17c5f986caba9f,
restaurant,Indonesia,Cafe SingaPore Bontang,"Jl, Tj. Laut Indah, Kec. Bontang Sel., Kota Bontang, Kalimantan Timur 75325","Tj. Laut Indah, Kec. Bontang Sel., Kota Bontang",KALIMANTAN TIMUR,75325.0,Indonesia,,,,0.1113753,117.4952314,https://maps.google.com/?cid=0x0:0xbefeedde52770320,
restaurant,Pujasera,Pujasera Pupuk Kaltim / Kopkar PKT,"4FV7+44V, Belimbing, Kec. Bontang Bar., Kota Bontang, Kalimantan Timur 75321","Belimbing, Kec. Bontang Bar., Kota Bontang",KALIMANTAN TIMUR,75321.0,Indonesia,,,,0.1428599,117.4627964,https://maps.google.com/?cid=0x0:0x57f9eb647bba74a4,
restaurant,Rumah Makan,Makan Enak,"5FC9+2J, Lok Tuan, Kec. Bontang Utara, Kota Bontang, Kalimantan Timur 75321","Lok Tuan, Kec. Bontang Utara, Kota Bontang",KALIMANTAN TIMUR,75321.0,Indonesia,87772477999.0,,,0.1701558,117.4690465,https://maps.google.com/?cid=0x0:0x9885ba2893254082,
restaurant,Rumah Makan,Warung Prasmanan Yhunia,"Jl. Kapal Pinisi No.39, Lok Tuan, Kec. Bontang Utara, Kota Bontang, Kalimantan Timur 75321","Lok Tuan, Kec. Bontang Utara, Kota Bontang",KALIMANTAN TIMUR,75321.0,Indonesia,81347857072.0,,,0.1723655,117.4794094,https://maps.google.com/?cid=0x0:0x6252ce19f61104fd,
restaurant,,Bontang Nusantara,"4FV6+XV, Belimbing, Kec. Bontang Bar., Kota Bontang, Kalimantan Timur","Kota Bontang, Kalimantan Timur",KALIMANTAN TIMUR,,Indonesia,81250615088.0,,,0.1449451,117.4621276,https://maps.google.com/?cid=0x0:0x2518159e9165935e,
restaurant,Hidangan Laut,Rawa Indah Sea Food Court,"4FCV+3R3, Tj. Laut Indah, Kec. Bontang Sel., Kota Bontang, Kalimantan Timur 75325","Tj. Laut Indah, Kec. Bontang Sel., Kota Bontang",KALIMANTAN TIMUR,75325.0,Indonesia,81340643737.0,,,0.1201345,117.4945546,https://maps.google.com/?cid=0x0:0xea94d7ceefa2b47e,
restaurant,Sate,Rumah Makan Prasaja I,"4FMR+X4C, Bontang Baru, Kec. Bontang Utara, Kota Bontang, Kalimantan Timur 75325","Bontang Baru, Kec. Bontang Utara, Kota Bontang",KALIMANTAN TIMUR,75325.0,Indonesia,54822355.0,,,0.1349466,117.490266,https://maps.google.com/?cid=0x0:0x8f044525a0b1ec59,
restaurant,Hidangan Laut,Bontang Fish Market,"5FC5+22M, Belimbing, Kec. Bontang Bar., Kota Bontang, Kalimantan Timur 75321","Belimbing, Kec. Bontang Bar., Kota Bontang",KALIMANTAN TIMUR,75321.0,Indonesia,54821698.0,,,0.1700956,117.4575576,https://maps.google.com/?cid=0x0:0x418c81771667e145,
restaurant,Restoran,Salby Chicken Smash Bontang,"4FMV+CJQ, Jl. Mayor Jenderal DI Panjaitan, Api-Api, Kec. Bontang Utara, Kota Bontang, Kalimantan Timur 75313","Jl. Mayor Jenderal DI Panjaitan, Api-Api, Kec. Bontang Utara, Kota Bontang",KALIMANTAN TIMUR,75313.0,Indonesia,,,,0.1335768,117.494098,https://maps.google.com/?cid=0x0:0x852faa2056820f98,
restaurant,Restoran,Warung Makan Lapri,"Jl. Poros Bontang - Sangatta, Tlk. Pandan, Kec. Tlk. Pandan, Kota Bontang, Kalimantan Timur","Kota Bontang, Kalimantan Timur",KALIMANTAN TIMUR,,Indonesia,,,,0.1934265,117.4460322,https://maps.google.com/?cid=0x0:0x524f8028cb477899,
restaurant,Restoran,Depot Aroma,"Jl. S. Parman No.27, Belimbing, Kec. Bontang Bar., Kota Bontang, Kalimantan Timur 75321","Belimbing, Kec. Bontang Bar., Kota Bontang",KALIMANTAN TIMUR,75321.0,Indonesia,,,,0.1400008,117.4579319,https://maps.google.com/?cid=0x0:0xaa80b324273c798d,
restaurant,Rumah Makan,Warung BOJONEGORO,"Jl. Pupuk Raya No.15, Belimbing, Kec. Bontang Bar., Kota Bontang, Kalimantan Timur 75321","Belimbing, Kec. Bontang Bar., Kota Bontang",KALIMANTAN TIMUR,75321.0,Indonesia,81350799129.0,,,0.1706563,117.4677438,https://maps.google.com/?cid=0x0:0x437224175cdf3b77,
restaurant,Brunch,Mari makan,"Jl. Kapal Layar No.5, Lok Tuan, Kec. Bontang Utara, Kota Bontang, Kalimantan Timur 75321","Lok Tuan, Kec. Bontang Utara, Kota Bontang",KALIMANTAN TIMUR,75321.0,Indonesia,81368257116.0,,,0.1666461,117.4702953,https://maps.google.com/?cid=0x0:0xf5f38dba492ce319,
restaurant,Restoran,Magnificent Seven Resto,"Jl. Letnan Jenderal MT Haryono No.14, Api-Api, Kec. Bontang Utara, Kota Bontang, Kalimantan Timur 75325","Api-Api, Kec. Bontang Utara, Kota Bontang",KALIMANTAN TIMUR,75325.0,Indonesia,54828543.0,,,0.1365485,117.4821464,https://maps.google.com/?cid=0x0:0xe0f0216610fd0d23,
restaurant,Tempat Cukur Rambut,HOME Barber Cafe  Distro,"4FP6+6FJ, Jl. Sumatera, Kanaan, Kec. Bontang Bar., Kota Bontang, Kalimantan Timur 75321","Jl. Sumatera, Kanaan, Kec. Bontang Bar., Kota Bontang",KALIMANTAN TIMUR,75321.0,Indonesia,85246009420.0,,,0.1355922,117.4611296,https://maps.google.com/?cid=0x0:0xc537ff264f434622,
restaurant,Kafe,Batavia Cafe,"4GP5+4C6, Bontang Kuala, Kec. Bontang Utara, Kota Bontang, Kalimantan Timur 75313","Bontang Kuala, Kec. Bontang Utara, Kota Bontang",KALIMANTAN TIMUR,75313.0,Indonesia,8115812939.0,,,0.135291,117.5085274,https://maps.google.com/?cid=0x0:0x44d6b431b422ce29,
restaurant,Sesuai untuk keluarga,MagSeven Steak  Grill,"Jl. MT. Haryono No.14, Api-Api, Kec. Bontang Utara, Kota Bontang, Kalimantan Timur 75325","Api-Api, Kec. Bontang Utara, Kota Bontang",KALIMANTAN TIMUR,75325.0,Indonesia,,,,0.1365916,117.4822105,https://maps.google.com/?cid=0x0:0x81df6a604c356be3,
restaurant,Kedai Kopi,SPACE CO-WORKING  CAFETARIA,"JL. Pangeran Suryanata RT. 11 No. 06 Kel, Bontang Baru, Kec. Bontang Utara, Kota Bontang, Kalimantan Timur 75311","Bontang Baru, Kec. Bontang Utara, Kota Bontang",KALIMANTAN TIMUR,75311.0,Indonesia,8115979998.0,,,0.1375774,117.4925861,https://maps.google.com/?cid=0x0:0xbc4832976610f37c,
restaurant,Kafe,Distrik Eat,"4FHH+5RJ, Jl. HM Ardans, Pisangan, Kec. Bontang Sel., Kota Bontang, Kalimantan Timur 75325","Jl. HM Ardans, Pisangan, Kec. Bontang Sel., Kota Bontang",KALIMANTAN TIMUR,75325.0,Indonesia,8978829023.0,,,0.1279504,117.47953,https://maps.google.com/?cid=0x0:0x103ac4b3edbd0302,
restaurant,Jepang,Ok Bento Bontang,"5FCG+6H6, Jl. Slamet Riyadi, Belimbing, Kec. Bontang Bar., Kota Bontang, Kalimantan Timur 75321","Jl. Slamet Riyadi, Belimbing, Kec. Bontang Bar., Kota Bontang",KALIMANTAN TIMUR,75321.0,Indonesia,81233535203.0,,,0.1705323,117.4763802,https://maps.google.com/?cid=0x0:0x5f59f2df5e2a6900,
restaurant,Kedai Kopi,SATU RASA cafe,"Jl. RE. Martadinata No.54, Lok Tuan, Kec. Bontang Utara, Kota Bontang, Kalimantan Timur 75321","Lok Tuan, Kec. Bontang Utara, Kota Bontang",KALIMANTAN TIMUR,75321.0,Indonesia,895344262226.0,,,0.1693474,117.4813119,https://maps.google.com/?cid=0x0:0x9684e6e86f30a203,
restaurant,Restoran,Warung Makan Bu Bariyah,"4CMX+M6C, Gn. Telihan, Kec. Bontang Bar., Kota Bontang, Kalimantan Timur 75321","Gn. Telihan, Kec. Bontang Bar., Kota Bontang",KALIMANTAN TIMUR,75321.0,Indonesia,81254132556.0,,,0.1341965,117.4480054,https://maps.google.com/?cid=0x0:0x44f48ef8e9f017b7,
restaurant,Komplek perumahan,Pujasera Camp 2000 Pama Bontang,"573W+Q37, Suka Damai, Kec. Tlk. Pandan, Kabupaten Kutai Timur, Kalimantan Timur 75324","Suka Damai, Kec. Tlk. Pandan, Kabupaten Kutai Timur",KALIMANTAN TIMUR,75324.0,Indonesia,85752876346.0,,,0.1544022,117.2951685,https://maps.google.com/?cid=0x0:0xf572cb29e2e734d7,
restaurant,restaurant,Kalimantan Timur 75324,"Kec. Bontang Sel., Kota Bontang, Kalimantan Timur","Kota Bontang, Kalimantan Timur",KALIMANTAN TIMUR,,Indonesia,,,,0.1495015,117.2911248,https://maps.google.com/?cid=0x0:0x38f97e9610099fa,
restaurant,Restoran,Wiwako Resto,"Jl. Poros Samarinda - Bontang No.KM, RW.7, Tlk. Pandan, Kec. Tlk. Pandan, Kabupaten Kutai Timur, Kalimantan Timur 75321","RW.7, Tlk. Pandan, Kec. Tlk. Pandan, Kabupaten Kutai Timur",KALIMANTAN TIMUR,75321.0,Indonesia,81346280726.0,,,0.1329553,117.4188471,https://maps.google.com/?cid=0x0:0x9624fbbb9ab81fa0,
restaurant,Indonesia,Cafe SingaPore Bontang,"Jl, Tj. Laut Indah, Kec. Bontang Sel., Kota Bontang, Kalimantan Timur 75325","Tj. Laut Indah, Kec. Bontang Sel., Kota Bontang",KALIMANTAN TIMUR,75325.0,Indonesia,,,,0.1113753,117.4952314,https://maps.google.com/?cid=0x0:0xbefeedde52770320,
restaurant,Restoran,Bukit Jodi Bontang,"3C7V+3WM, Bontang Lestari, Kec. Bontang Sel., Kota Bontang, Kalimantan Timur 75325","Bontang Lestari, Kec. Bontang Sel., Kota Bontang",KALIMANTAN TIMUR,75325.0,Indonesia,82148018955.0,,,0.0626299,117.4434585,https://maps.google.com/?cid=0x0:0x8f40940bc676d340,
restaurant,Bakso,Bakso solo,"2CXX+RJQ, Jl. Moech Roem, Bontang Lestari, Kec. Bontang Sel., Kota Bontang, Kalimantan Timur 75324","Jl. Moech Roem, Bontang Lestari, Kec. Bontang Sel., Kota Bontang",KALIMANTAN TIMUR,75324.0,Indonesia,85250969516.0,,,0.0495867,117.4491056,https://maps.google.com/?cid=0x0:0xd9e81cd323342adf,
restaurant,Restoran,TERRA Dining,"Jl. Awang Long No.53c, RT.09, Bontang Baru, Kec. Bontang Utara, Kota Bontang, Kalimantan Timur 75325","RT.09, Bontang Baru, Kec. Bontang Utara, Kota Bontang",KALIMANTAN TIMUR,75325.0,Indonesia,82150562200.0,,,0.1372264,117.4987729,https://maps.google.com/?cid=0x0:0x5fbd61d4b261d2b0,
restaurant,Sesuai untuk keluarga,Foodpedia Bontang,"Jl. Jend. Soedirman No.RT. 06, Tj. Laut, Kec. Bontang Sel., Kota Bontang, Kalimantan Timur 75312","Tj. Laut, Kec. Bontang Sel., Kota Bontang",KALIMANTAN TIMUR,75312.0,Indonesia,81258048141.0,,,0.1250929,117.482818,https://maps.google.com/?cid=0x0:0x227b5073897334b1,
restaurant,Restoran,RM MAS BRO BLITAR,"Bontang Lestari, Kec. Bontang Sel., Kota Bontang, Kalimantan Timur 75324","Kec. Bontang Sel., Kota Bontang",KALIMANTAN TIMUR,75324.0,Indonesia,85246845268.0,,,0.0454323,117.4446758,https://maps.google.com/?cid=0x0:0xec9f23834019e266,
restaurant,Restoran,Cafe  Resto Anjungan Indah,"4FGG+WV8, Jl. HM Ardans, Satimpo, Kec. Bontang Sel., Kota Bontang, Kalimantan Timur 75325","Jl. HM Ardans, Satimpo, Kec. Bontang Sel., Kota Bontang",KALIMANTAN TIMUR,75325.0,Indonesia,,,,0.1272981,117.4772175,https://maps.google.com/?cid=0x0:0x30715e6ac6c5c97f,
restaurant,Sulawesi Selatan,Coto Makassar Lestari Tanjung Laut,"4F9P+R6M, Tj. Laut, Kec. Bontang Sel., Kota Bontang, Kalimantan Timur 75325","Tj. Laut, Kec. Bontang Sel., Kota Bontang",KALIMANTAN TIMUR,75325.0,Indonesia,,,,0.1195854,117.4855519,https://maps.google.com/?cid=0x0:0xc80b079fbe91c92c,
restaurant,Brunch,Restoran Oemah Joglo Bontang (Pendopo Pak Rusnawi),"m keluar gerbang selamat datang, Jl. Poros Bontang - Sangatta No.Km. 7 (500, Tlk. Pandan, Kec. Tlk. Pandan, Kabupaten Kutai Timur, Kalimantan Timur 75321","Jl. Poros Bontang - Sangatta No.Km. 7 (500, Tlk. Pandan, Kec. Tlk. Pandan, Kabupaten Kutai Timur",KALIMANTAN TIMUR,75321.0,Indonesia,82157700074.0,,,0.1424899,117.437694,https://maps.google.com/?cid=0x0:0x3a4bca00687aa9d2,
restaurant,Restoran,WM Pondok Bambu,"Jl. Ir. Soekarno-Hatta No.13, Bontang Lestari, Bontang Selatan, Bontang Lestari, Kec. Bontang Sel., Kota Bontang, Kalimantan Timur 75325","Bontang Lestari, Bontang Selatan, Bontang Lestari, Kec. Bontang Sel., Kota Bontang",KALIMANTAN TIMUR,75325.0,Indonesia,82351002400.0,,,0.0763361,117.4542246,https://maps.google.com/?cid=0x0:0xe576bce8c0d5bae2,
restaurant,Sesuai untuk keluarga,MagSeven Steak  Grill,"Jl. MT. Haryono No.14, Api-Api, Kec. Bontang Utara, Kota Bontang, Kalimantan Timur 75325","Api-Api, Kec. Bontang Utara, Kota Bontang",KALIMANTAN TIMUR,75325.0,Indonesia,,,,0.1365916,117.4822105,https://maps.google.com/?cid=0x0:0x81df6a604c356be3,
restaurant,Restoran,Hulor bontang,"4FG9+9PX, Unnamed Road, Satimpo, Kec. Bontang Sel., Kota Bontang, Kalimantan Timur 75325","Unnamed Road, Satimpo, Kec. Bontang Sel., Kota Bontang",KALIMANTAN TIMUR,75325.0,Indonesia,,,,0.125991,117.4693561,https://maps.google.com/?cid=0x0:0x9841da8d344c53d5,
restaurant,Kafe,Distrik Eat,"4FHH+5RJ, Jl. HM Ardans, Pisangan, Kec. Bontang Sel., Kota Bontang, Kalimantan Timur 75325","Jl. HM Ardans, Pisangan, Kec. Bontang Sel., Kota Bontang",KALIMANTAN TIMUR,75325.0,Indonesia,8978829023.0,,,0.1279504,117.47953,https://maps.google.com/?cid=0x0:0x103ac4b3edbd0302,
restaurant,Kedai Kopi,Foresthree Coffee  Kitchen Bontang,"Jl. Pattimura No.148, RT.41, Api-Api, Kec. Bontang Utara, Kota Bontang, Kalimantan Timur 75311","RT.41, Api-Api, Kec. Bontang Utara, Kota Bontang",KALIMANTAN TIMUR,75311.0,Indonesia,82321689999.0,,,0.130281,117.495275,https://maps.google.com/?cid=0x0:0x961f77a42340f67c,
restaurant,Restoran,MPM Bontang,"Warung MPM, Jl. Ir. H. Juanda No.RT 6, Tj. Laut, Kec. Bontang Sel., Kota Bontang, Kalimantan Timur 75325","Jl. Ir. H. Juanda No.RT 6, Tj. Laut, Kec. Bontang Sel., Kota Bontang",KALIMANTAN TIMUR,75325.0,Indonesia,81320025003.0,,,0.1254528,117.4838088,https://maps.google.com/?cid=0x0:0x75f740c354e52e85,
restaurant,Rumah Makan,RM. Nusantara Food Padang Pisangan,"4FHH+32M, Jl. HM Ardans, Satimpo, Kec. Bontang Sel., Kota Bontang, Kalimantan Timur 75325","Jl. HM Ardans, Satimpo, Kec. Bontang Sel., Kota Bontang",KALIMANTAN TIMUR,75325.0,Indonesia,81254477194.0,,,0.1277411,117.4776398,https://maps.google.com/?cid=0x0:0xacf7a72f108e701d,
restaurant,Hidangan Laut,Rawa Indah Sea Food Court,"4FCV+3R3, Tj. Laut Indah, Kec. Bontang Sel., Kota Bontang, Kalimantan Timur 75325","Tj. Laut Indah, Kec. Bontang Sel., Kota Bontang",KALIMANTAN TIMUR,75325.0,Indonesia,81340643737.0,,,0.1201345,117.4945546,https://maps.google.com/?cid=0x0:0xea94d7ceefa2b47e,
restaurant,Rumah Kaca,Rumah Bpk Waluyo,"2CXV+QQR, Jl. Letjen Urip Sumoharjo, Bontang Lestari, Kec. Bontang Sel., Kota Bontang, Kalimantan Timur 75324","Jl. Letjen Urip Sumoharjo, Bontang Lestari, Kec. Bontang Sel., Kota Bontang",KALIMANTAN TIMUR,75324.0,Indonesia,,,,0.0494924,117.4443942,https://maps.google.com/?cid=0x0:0x14d64d247676058e,
restaurant,Kafe,DADU Cafe  Resto,"Jl. Jend. Achmad Yani, Tj. Laut, Kec. Bontang Sel., Kota Bontang, Kalimantan Timur 75324","Tj. Laut, Kec. Bontang Sel., Kota Bontang",KALIMANTAN TIMUR,75324.0,Indonesia,,,,0.128896,117.4845118,https://maps.google.com/?cid=0x0:0x1d6e466d1afd0ace,
restaurant,Restoran,Heartbond Coffee and Eatery,"Jl. Simon Tampubolon, HOP 4/147, Gn. Telihan, Kec. Bontang Bar., Kota Bontang, Kalimantan Timur 75383","HOP 4/147, Gn. Telihan, Kec. Bontang Bar., Kota Bontang",KALIMANTAN TIMUR,75383.0,Indonesia,81346418881.0,,,0.1304211,117.4642577,https://maps.google.com/?cid=0x0:0x5a495ee6f282fa7f,
restaurant,Restoran,Kedai Sedjenak,"Jl. HM Ardans No.12, Satimpo, Kec. Bontang Sel., Kota Bontang, Kalimantan Timur 75324","Satimpo, Kec. Bontang Sel., Kota Bontang",KALIMANTAN TIMUR,75324.0,Indonesia,81369853330.0,,,0.1270374,117.4727107,https://maps.google.com/?cid=0x0:0xedcb48656a6d6f56,
restaurant,Kafe,Num nums thaitea Bontang,"Jl. HM Ardans, Pisangan, Kec. Bontang Sel., Kota Bontang, Kalimantan Timur 75324","Pisangan, Kec. Bontang Sel., Kota Bontang",KALIMANTAN TIMUR,75324.0,Indonesia,81318237473.0,,,0.1272287,117.4742598,https://maps.google.com/?cid=0x0:0x3cb7ac115b18243e,
restaurant,Penginapan,Penginapan  Warung Kita bonles,"Jl. M. Roem No.RT. 03, Bontang Lestari, Kec. Bontang Sel., Kota Bontang, Kalimantan Timur","Kota Bontang, Kalimantan Timur",KALIMANTAN TIMUR,,Indonesia,82354966926.0,,,0.0658774,117.4432096,https://maps.google.com/?cid=0x0:0xf3632d2310184c86,
restaurant,Produsen Makanan Beku,Dapoer Al-zap,"Jl. ardan 4, Satimpo, Kec. Bontang Sel., Kota Bontang, Kalimantan Timur 75324","Satimpo, Kec. Bontang Sel., Kota Bontang",KALIMANTAN TIMUR,75324.0,Indonesia,,,,0.1282065,117.4751611,https://maps.google.com/?cid=0x0:0x353c906b18503ff2,
restaurant,Restoran,Kedai tikung,"3C9R+QG9, Bontang Lestari, Kec. Bontang Sel., Kota Bontang, Kalimantan Timur 75325","Bontang Lestari, Kec. Bontang Sel., Kota Bontang",KALIMANTAN TIMUR,75325.0,Indonesia,82155593067.0,,,0.0694117,117.441368,https://maps.google.com/?cid=0x0:0x6e4a0c23e7dd7dfb,
restaurant,Kedai Kopi,Cafe kahyangan,"Jl. HM Ardans No.15, RT.25, Satimpo, Kec. Bontang Sel., Kota Bontang, Kalimantan Timur 75324","RT.25, Satimpo, Kec. Bontang Sel., Kota Bontang",KALIMANTAN TIMUR,75324.0,Indonesia,81347387923.0,,,0.1280858,117.4787536,https://maps.google.com/?cid=0x0:0x528d722b2926546b,
restaurant,restaurant,Kalimantan Timur 75325,Kalimantan Timur,Kalimantan Timur,KALIMANTAN TIMUR,,Indonesia,,,,0.0830107,117.2440957,https://maps.google.com/?cid=0x0:0x26084c6c6cec55ca,
restaurant,Hidangan Laut,RM Sari Laut Mbak Zuly Bontang,"Jl. Brigjen Katamso No.25, Belimbing, Kec. Bontang Bar., Kota Bontang, Kalimantan Timur 75325","Belimbing, Kec. Bontang Bar., Kota Bontang",KALIMANTAN TIMUR,75325.0,Indonesia,82189040384.0,,,0.1374632,117.4667821,https://maps.google.com/?cid=0x0:0xd91717ec8a527a8d,
restaurant,Restoran,Magnificent Seven Resto,"Jl. Letnan Jenderal MT Haryono No.14, Api-Api, Kec. Bontang Utara, Kota Bontang, Kalimantan Timur 75325","Api-Api, Kec. Bontang Utara, Kota Bontang",KALIMANTAN TIMUR,75325.0,Indonesia,54828543.0,,,0.1365485,117.4821464,https://maps.google.com/?cid=0x0:0xe0f0216610fd0d23,
restaurant,Hidangan Laut,Rawa Indah Sea Food Court,"4FCV+3R3, Tj. Laut Indah, Kec. Bontang Sel., Kota Bontang, Kalimantan Timur 75325","Tj. Laut Indah, Kec. Bontang Sel., Kota Bontang",KALIMANTAN TIMUR,75325.0,Indonesia,81340643737.0,,,0.1201345,117.4945546,https://maps.google.com/?cid=0x0:0xea94d7ceefa2b47e,
restaurant,Indonesia,Cafe SingaPore Bontang,"Jl, Tj. Laut Indah, Kec. Bontang Sel., Kota Bontang, Kalimantan Timur 75325","Tj. Laut Indah, Kec. Bontang Sel., Kota Bontang",KALIMANTAN TIMUR,75325.0,Indonesia,,,,0.1113753,117.4952314,https://maps.google.com/?cid=0x0:0xbefeedde52770320,
restaurant,Restoran,Cafe  Resto Anjungan Indah,"4FGG+WV8, Jl. HM Ardans, Satimpo, Kec. Bontang Sel., Kota Bontang, Kalimantan Timur 75325","Jl. HM Ardans, Satimpo, Kec. Bontang Sel., Kota Bontang",KALIMANTAN TIMUR,75325.0,Indonesia,,,,0.1272981,117.4772175,https://maps.google.com/?cid=0x0:0x30715e6ac6c5c97f,
restaurant,Rumah Makan,RM. Nusantara Food Padang Pisangan,"4FHH+32M, Jl. HM Ardans, Satimpo, Kec. Bontang Sel., Kota Bontang, Kalimantan Timur 75325","Jl. HM Ardans, Satimpo, Kec. Bontang Sel., Kota Bontang",KALIMANTAN TIMUR,75325.0,Indonesia,81254477194.0,,,0.1277411,117.4776398,https://maps.google.com/?cid=0x0:0xacf7a72f108e701d,
restaurant,,Bontang Nusantara,"4FV6+XV, Belimbing, Kec. Bontang Bar., Kota Bontang, Kalimantan Timur","Kota Bontang, Kalimantan Timur",KALIMANTAN TIMUR,,Indonesia,81250615088.0,,,0.1449451,117.4621276,https://maps.google.com/?cid=0x0:0x2518159e9165935e,
restaurant,Sulawesi Selatan,Coto Daeng Makassar (Pisangan),"4FGG+RCF, Jl. HM Ardans, Satimpo, Kec. Bontang Sel., Kota Bontang, Kalimantan Timur 75325","Jl. HM Ardans, Satimpo, Kec. Bontang Sel., Kota Bontang",KALIMANTAN TIMUR,75325.0,Indonesia,,,,0.1270749,117.4760492,https://maps.google.com/?cid=0x0:0xc5c25145e00a79e0,
restaurant,Restoran,Hulor bontang,"4FG9+9PX, Unnamed Road, Satimpo, Kec. Bontang Sel., Kota Bontang, Kalimantan Timur 75325","Unnamed Road, Satimpo, Kec. Bontang Sel., Kota Bontang",KALIMANTAN TIMUR,75325.0,Indonesia,,,,0.125991,117.4693561,https://maps.google.com/?cid=0x0:0x9841da8d344c53d5,
restaurant,Nasi,Depot Selera Kita,"4FGM+XJ6, Jalan Jendral. A. Yani, Tanjung Laut, Bontang Selatan, Api-Api, Kec. Bontang Utara, Kota Bontang, Kalimantan Timur 75325","Jalan Jendral. A. Yani, Tanjung Laut, Bontang Selatan, Api-Api, Kec. Bontang Utara, Kota Bontang",KALIMANTAN TIMUR,75325.0,Indonesia,54827279.0,,,0.1274115,117.4840046,https://maps.google.com/?cid=0x0:0x3cd20ab515f1b10f,
restaurant,Restoran,MPM Bontang,"Warung MPM, Jl. Ir. H. Juanda No.RT 6, Tj. Laut, Kec. Bontang Sel., Kota Bontang, Kalimantan Timur 75325","Jl. Ir. H. Juanda No.RT 6, Tj. Laut, Kec. Bontang Sel., Kota Bontang",KALIMANTAN TIMUR,75325.0,Indonesia,81320025003.0,,,0.1254528,117.4838088,https://maps.google.com/?cid=0x0:0x75f740c354e52e85,
restaurant,Sulawesi Selatan,Coto Makassar Lestari Tanjung Laut,"4F9P+R6M, Tj. Laut, Kec. Bontang Sel., Kota Bontang, Kalimantan Timur 75325","Tj. Laut, Kec. Bontang Sel., Kota Bontang",KALIMANTAN TIMUR,75325.0,Indonesia,,,,0.1195854,117.4855519,https://maps.google.com/?cid=0x0:0xc80b079fbe91c92c,
restaurant,Ikan Bakar,Warung Fajar,"Jalan Awang Long, RT.17, Bontang Baru, Bontang Utara, Bontang Baru, Kec. Bontang Utara, Kota Bontang, Kalimantan Timur 75325","RT.17, Bontang Baru, Bontang Utara, Bontang Baru, Kec. Bontang Utara, Kota Bontang",KALIMANTAN TIMUR,75325.0,Indonesia,82191309613.0,,,0.1389429,117.490875,https://maps.google.com/?cid=0x0:0xf90490956f77c8f5,
restaurant,Hidangan Laut,Warung melati lamongan,"Jl. MT. Haryono No.03, Api-Api, Kec. Bontang Utara, Kota Bontang, Kalimantan Timur 75325","Api-Api, Kec. Bontang Utara, Kota Bontang",KALIMANTAN TIMUR,75325.0,Indonesia,85750259394.0,,,0.1363952,117.4874323,https://maps.google.com/?cid=0x0:0xa99a0e513481e94d,
restaurant,Kedai Kopi,The Bahagia Kaffee Haus,"Jl. Awang Long, Api-Api, Kec. Bontang Utara, Kota Bontang, Kalimantan Timur 75325","Api-Api, Kec. Bontang Utara, Kota Bontang",KALIMANTAN TIMUR,75325.0,Indonesia,89527698529.0,,,0.1357512,117.4883049,https://maps.google.com/?cid=0x0:0xd1612dd1720ac919,
restaurant,Rumah Makan,Saung Karedok Bandung,"Jl. HM Ardans, Satimpo, Kec. Bontang Sel., Kota Bontang, Kalimantan Timur 75325","Satimpo, Kec. Bontang Sel., Kota Bontang",KALIMANTAN TIMUR,75325.0,Indonesia,82155627360.0,,,0.1272945,117.4746921,https://maps.google.com/?cid=0x0:0xd37d8f15053c1203,
restaurant,Restoran,Bukit Jodi Bontang,"3C7V+3WM, Bontang Lestari, Kec. Bontang Sel., Kota Bontang, Kalimantan Timur 75325","Bontang Lestari, Kec. Bontang Sel., Kota Bontang",KALIMANTAN TIMUR,75325.0,Indonesia,82148018955.0,,,0.0626299,117.4434585,https://maps.google.com/?cid=0x0:0x8f40940bc676d340,
restaurant,Kafe,Distrik Eat,"4FHH+5RJ, Jl. HM Ardans, Pisangan, Kec. Bontang Sel., Kota Bontang, Kalimantan Timur 75325","Jl. HM Ardans, Pisangan, Kec. Bontang Sel., Kota Bontang",KALIMANTAN TIMUR,75325.0,Indonesia,8978829023.0,,,0.1279504,117.47953,https://maps.google.com/?cid=0x0:0x103ac4b3edbd0302,
restaurant,Restoran,Go Grill,"JL. Letjen Jl. MT. Haryono No.12, 90157, Gn. Elai, Kec. Bontang Utara, Kota Bontang, Kalimantan Timur 75325","90157, Gn. Elai, Kec. Bontang Utara, Kota Bontang",KALIMANTAN TIMUR,75325.0,Indonesia,82152263060.0,,,0.1350543,117.4797968,https://maps.google.com/?cid=0x0:0xa314ebead0f8d87b,
restaurant,Steak,Steaky Steak Bontang,"4FGH+X3R, Jl. HM Ardans, Satimpo, Kec. Bontang Sel., Kota Bontang, Kalimantan Timur 75325","Jl. HM Ardans, Satimpo, Kec. Bontang Sel., Kota Bontang",KALIMANTAN TIMUR,75325.0,Indonesia,,,,0.1274903,117.4776314,https://maps.google.com/?cid=0x0:0xf1b1ffa5772fce4,
restaurant,Dapur Umum,Caferesto keluarga rachmat,"4F6M+5M4, Berbas Pantai, Kec. Bontang Sel., Kota Bontang, Kalimantan Timur 75322","Berbas Pantai, Kec. Bontang Sel., Kota Bontang",KALIMANTAN TIMUR,75322.0,Indonesia,81350145544.0,,,0.1103786,117.4842064,https://maps.google.com/?cid=0x0:0x6844088ff312e345,
restaurant,Rumah Makan,Warung Ratu,"4FXC+8W6 Bar, Belimbing, Kec. Bontang Bar., Kota Bontang, Kalimantan Timur 75313","Belimbing, Kec. Bontang Bar., Kota Bontang",KALIMANTAN TIMUR,75313.0,Indonesia,81291719150.0,,,0.148283,117.4722661,https://maps.google.com/?cid=0x0:0x1f6b9a80afd28c2f,
restaurant,Kafe,Batavia Cafe,"4GP5+4C6, Bontang Kuala, Kec. Bontang Utara, Kota Bontang, Kalimantan Timur 75313","Bontang Kuala, Kec. Bontang Utara, Kota Bontang",KALIMANTAN TIMUR,75313.0,Indonesia,8115812939.0,,,0.135291,117.5085274,https://maps.google.com/?cid=0x0:0x44d6b431b422ce29,
restaurant,Sesuai untuk keluarga,MagSeven Steak  Grill,"Jl. MT. Haryono No.14, Api-Api, Kec. Bontang Utara, Kota Bontang, Kalimantan Timur 75325","Api-Api, Kec. Bontang Utara, Kota Bontang",KALIMANTAN TIMUR,75325.0,Indonesia,,,,0.1365916,117.4822105,https://maps.google.com/?cid=0x0:0x81df6a604c356be3,
restaurant,Hidangan Laut,Aneka Hidangan Laut,"4FCW+362, Tj. Laut Indah, Kec. Bontang Sel., Kota Bontang, Kalimantan Timur 75325","Tj. Laut Indah, Kec. Bontang Sel., Kota Bontang",KALIMANTAN TIMUR,75325.0,Indonesia,,,,0.1201431,117.495515,https://maps.google.com/?cid=0x0:0xa1a15a7ca670a952,
restaurant,Restoran,Warung Gaul,"2F9J+48J, Unnamed Road, Bontang Sel., Bontang Lestari, Bontang Selatan, Bontang City, East Kalimantan 75325","Unnamed Road, Bontang Sel., Bontang Lestari, Bontang Selatan, Bontang City",KALIMANTAN TIMUR,75325.0,Indonesia,85393338320.0,,,0.0178421,117.48078,https://maps.google.com/?cid=0x0:0xf83a11e31a88ff8,
restaurant,Restoran,Kedai tikung,"3C9R+QG9, Bontang Lestari, Kec. Bontang Sel., Kota Bontang, Kalimantan Timur 75325","Bontang Lestari, Kec. Bontang Sel., Kota Bontang",KALIMANTAN TIMUR,75325.0,Indonesia,82155593067.0,,,0.0694117,117.441368,https://maps.google.com/?cid=0x0:0x6e4a0c23e7dd7dfb,
restaurant,Kafe,Happiness cafe,"4FHH+6HJ, Jl. HM Ardans, Satimpo, Kec. Bontang Sel., Kota Bontang, Kalimantan Timur 75325","Jl. HM Ardans, Satimpo, Kec. Bontang Sel., Kota Bontang",KALIMANTAN TIMUR,75325.0,Indonesia,,,,0.1280826,117.4789116,https://maps.google.com/?cid=0x0:0x82e35d6b933f68af,
restaurant,restaurant,Kalimantan Timur 75311,"Gn. Elai, Kec. Bontang Utara, Kota Bontang, Kalimantan Timur","Kota Bontang, Kalimantan Timur",KALIMANTAN TIMUR,,Indonesia,,,,0.1444417,117.4887629,https://maps.google.com/?cid=0x0:0x33198cc450f8143a,
restaurant,Restoran,TERRA Dining,"Jl. Awang Long No.53c, RT.09, Bontang Baru, Kec. Bontang Utara, Kota Bontang, Kalimantan Timur 75325","RT.09, Bontang Baru, Kec. Bontang Utara, Kota Bontang",KALIMANTAN TIMUR,75325.0,Indonesia,82150562200.0,,,0.1372264,117.4987729,https://maps.google.com/?cid=0x0:0x5fbd61d4b261d2b0,
restaurant,Sesuai untuk keluarga,MagSeven Steak  Grill,"Jl. MT. Haryono No.14, Api-Api, Kec. Bontang Utara, Kota Bontang, Kalimantan Timur 75325","Api-Api, Kec. Bontang Utara, Kota Bontang",KALIMANTAN TIMUR,75325.0,Indonesia,,,,0.1365916,117.4822105,https://maps.google.com/?cid=0x0:0x81df6a604c356be3,
restaurant,Restoran,Cafe  Resto Anjungan Indah,"4FGG+WV8, Jl. HM Ardans, Satimpo, Kec. Bontang Sel., Kota Bontang, Kalimantan Timur 75325","Jl. HM Ardans, Satimpo, Kec. Bontang Sel., Kota Bontang",KALIMANTAN TIMUR,75325.0,Indonesia,,,,0.1272981,117.4772175,https://maps.google.com/?cid=0x0:0x30715e6ac6c5c97f,
restaurant,Kedai Kopi,Foresthree Coffee  Kitchen Bontang,"Jl. Pattimura No.148, RT.41, Api-Api, Kec. Bontang Utara, Kota Bontang, Kalimantan Timur 75311","RT.41, Api-Api, Kec. Bontang Utara, Kota Bontang",KALIMANTAN TIMUR,75311.0,Indonesia,82321689999.0,,,0.130281,117.495275,https://maps.google.com/?cid=0x0:0x961f77a42340f67c,
restaurant,Hidangan Laut,RM Sari Laut Mbak Zuly Bontang,"Jl. Brigjen Katamso No.25, Belimbing, Kec. Bontang Bar., Kota Bontang, Kalimantan Timur 75325","Belimbing, Kec. Bontang Bar., Kota Bontang",KALIMANTAN TIMUR,75325.0,Indonesia,82189040384.0,,,0.1374632,117.4667821,https://maps.google.com/?cid=0x0:0xd91717ec8a527a8d,
restaurant,Indonesia,Rumah Boga,"4FQ7+W7W, Jl. Brigjen Katamso, Belimbing, Kec. Bontang Bar., Kota Bontang, Kalimantan Timur 75325","Jl. Brigjen Katamso, Belimbing, Kec. Bontang Bar., Kota Bontang",KALIMANTAN TIMUR,75325.0,Indonesia,81250615099.0,,,0.1398714,117.4632103,https://maps.google.com/?cid=0x0:0xdaa4fe2d83c24456,
restaurant,Sate,Rumah Makan Prasaja I,"4FMR+X4C, Bontang Baru, Kec. Bontang Utara, Kota Bontang, Kalimantan Timur 75325","Bontang Baru, Kec. Bontang Utara, Kota Bontang",KALIMANTAN TIMUR,75325.0,Indonesia,54822355.0,,,0.1349466,117.490266,https://maps.google.com/?cid=0x0:0x8f044525a0b1ec59,
restaurant,Restoran,Warung Makan Nayla,"4FVQ+MR9, Jl. RA Kartini, Tj. Limau, Kec. Bontang Utara, Kota Bontang, Kalimantan Timur 75325","Jl. RA Kartini, Tj. Limau, Kec. Bontang Utara, Kota Bontang",KALIMANTAN TIMUR,75325.0,Indonesia,,,,0.1441739,117.4896212,https://maps.google.com/?cid=0x0:0x592e92ac75512bca,
restaurant,Sulawesi Selatan,Coto Makassar Depan Rudal,"Jl. Mulawarman No.160, Bontang Baru, Kec. Bontang Utara, Kota Bontang, Kalimantan Timur 75325","Bontang Baru, Kec. Bontang Utara, Kota Bontang",KALIMANTAN TIMUR,75325.0,Indonesia,,,,0.1448578,117.4901908,https://maps.google.com/?cid=0x0:0xe8bc0b8a5c50b80,
restaurant,Nasi Goreng,Rumah Makan OLIN,"Bontang Baru, Kec. Bontang Utara, Kota Bontang, Kalimantan Timur 75313","Kec. Bontang Utara, Kota Bontang",KALIMANTAN TIMUR,75313.0,Indonesia,81347444599.0,,,0.1334207,117.4945149,https://maps.google.com/?cid=0x0:0x41480031b17bf830,
restaurant,Rumah Makan,Warung Ratu,"4FXC+8W6 Bar, Belimbing, Kec. Bontang Bar., Kota Bontang, Kalimantan Timur 75313","Belimbing, Kec. Bontang Bar., Kota Bontang",KALIMANTAN TIMUR,75313.0,Indonesia,81291719150.0,,,0.148283,117.4722661,https://maps.google.com/?cid=0x0:0x1f6b9a80afd28c2f,
restaurant,Restoran,OMABOOSTER,"4FVQ+9MH, Jl. MH. Thamrin, Bontang Baru, Kec. Bontang Utara, Kota Bontang, Kalimantan Timur 75313","Jl. MH. Thamrin, Bontang Baru, Kec. Bontang Utara, Kota Bontang",KALIMANTAN TIMUR,75313.0,Indonesia,,,,0.1434465,117.4892423,https://maps.google.com/?cid=0x0:0x4c61c1a162e4124b,
restaurant,Kedai Kopi,The Bahagia Kaffee Haus,"Jl. Awang Long, Api-Api, Kec. Bontang Utara, Kota Bontang, Kalimantan Timur 75325","Api-Api, Kec. Bontang Utara, Kota Bontang",KALIMANTAN TIMUR,75325.0,Indonesia,89527698529.0,,,0.1357512,117.4883049,https://maps.google.com/?cid=0x0:0xd1612dd1720ac919,
restaurant,Kedai Kopi,MAAJU COFFEE SERVICE,"Samping JT, Jl. Cipto Mangunkusumo Jalan tembus SMK 1, Belimbing, Kec. Bontang Utara, Kota Bontang, Kalimantan Timur 75311","Jl. Cipto Mangunkusumo Jalan tembus SMK 1, Belimbing, Kec. Bontang Utara, Kota Bontang",KALIMANTAN TIMUR,75311.0,Indonesia,881082468989.0,,,0.1454525,117.4745515,https://maps.google.com/?cid=0x0:0xd8ecfe64b8c180cf,
restaurant,Indonesia,Rumah makan Gammi Bawis,"Jl. Piere Tandean, Bontang Baru, Kec. Bontang Utara, Kalimantan Timur 75325","Bontang Baru, Kec. Bontang Utara",KALIMANTAN TIMUR,75325.0,Indonesia,82323668855.0,,,0.1385154,117.5143538,https://maps.google.com/?cid=0x0:0x1d77306ee92cfdad,
restaurant,,Bontang Nusantara,"4FV6+XV, Belimbing, Kec. Bontang Bar., Kota Bontang, Kalimantan Timur","Kota Bontang, Kalimantan Timur",KALIMANTAN TIMUR,,Indonesia,81250615088.0,,,0.1449451,117.4621276,https://maps.google.com/?cid=0x0:0x2518159e9165935e,
restaurant,Indonesia,Cafe SingaPore Bontang,"Jl, Tj. Laut Indah, Kec. Bontang Sel., Kota Bontang, Kalimantan Timur 75325","Tj. Laut Indah, Kec. Bontang Sel., Kota Bontang",KALIMANTAN TIMUR,75325.0,Indonesia,,,,0.1113753,117.4952314,https://maps.google.com/?cid=0x0:0xbefeedde52770320,
restaurant,Toko Roti,Rotibakar maul,"Jl. MH. Thamrin, Gn. Elai, Kec. Bontang Utara, Kota Bontang, Kalimantan Timur 75311","Gn. Elai, Kec. Bontang Utara, Kota Bontang",KALIMANTAN TIMUR,75311.0,Indonesia,,,,0.1440101,117.4888022,https://maps.google.com/?cid=0x0:0x62893956dca519c0,
restaurant,Kedai Kopi,GOERNA Coffee Lounge,"Jl. Dewi Sartika, Bontang Baru, Kec. Bontang Utara, Kota Bontang, Kalimantan Timur 75313","Bontang Baru, Kec. Bontang Utara, Kota Bontang",KALIMANTAN TIMUR,75313.0,Indonesia,,,,0.140447,117.4957678,https://maps.google.com/?cid=0x0:0xdc6a015703cc696b,
restaurant,Ayam,Ayam Geprek JOSS,"4FVQ+6J3, Gn. Elai, Kec. Bontang Utara, Kota Bontang, Kalimantan Timur 75313","Gn. Elai, Kec. Bontang Utara, Kota Bontang",KALIMANTAN TIMUR,75313.0,Indonesia,85821023065.0,,,0.1430163,117.4890533,https://maps.google.com/?cid=0x0:0x7464df770b82b3fd,
restaurant,Kedai Kopi,UTTARA Fine Eats and Coffee,"Api-Api, Kec. Bontang Utara, Kota Bontang, Kalimantan Timur 75313","Kec. Bontang Utara, Kota Bontang",KALIMANTAN TIMUR,75313.0,Indonesia,82148252211.0,,,0.1305124,117.4936688,https://maps.google.com/?cid=0x0:0x2070309083fc0aa7,
restaurant,Komplek perumahan,Ambaara Heritage,"Jl. Mayor Jenderal DI Panjaitan No.57, Api-Api, Kec. Bontang Utara, Kota Bontang, Kalimantan Timur 75313","Api-Api, Kec. Bontang Utara, Kota Bontang",KALIMANTAN TIMUR,75313.0,Indonesia,89629979744.0,,,0.1336747,117.4947971,https://maps.google.com/?cid=0x0:0xe808e4994808130e,
restaurant,Kafe,New Cafe Samudra Bontang Kuala,"4GPC+25W, Unnamed Road,, Kota Bontang, Kalimantan Timur 75325","Unnamed Road,, Kota Bontang",KALIMANTAN TIMUR,75325.0,Indonesia,,,,0.1351014,117.5204455,https://maps.google.com/?cid=0x0:0x883c0d7ff8443acd,
restaurant,Makanan Siap Saji,DokterRasa Ricebox - Bontang Baru,"4FQR+FRV, Jl. Awang Long, Bontang Baru, Kec. Bontang Utara, Kota Bontang, Kalimantan Timur 75325","Jl. Awang Long, Bontang Baru, Kec. Bontang Utara, Kota Bontang",KALIMANTAN TIMUR,75325.0,Indonesia,89675944025.0,,,0.1387557,117.4922122,https://maps.google.com/?cid=0x0:0xa43dfa45abd952b5,
restaurant,Restoran,Warung Tresno,"4FPP+MPC, Api-Api, Kec. Bontang Utara, Kota Bontang, Kalimantan Timur 75313","Api-Api, Kec. Bontang Utara, Kota Bontang",KALIMANTAN TIMUR,75313.0,Indonesia,,,,0.1366815,117.4867649,https://maps.google.com/?cid=0x0:0xe402b3a639dbc0bd,
restaurant,Ikan Bakar,Rumah Makan Ampera Buyung,"Rt26 Jl. RE. Martadinata No.21, Lok Tuan, Kec. Bontang Utara, Kota Bontang, Kalimantan Timur 75321","Lok Tuan, Kec. Bontang Utara, Kota Bontang",KALIMANTAN TIMUR,75321.0,Indonesia,,,,0.168689,117.4826292,https://maps.google.com/?cid=0x0:0x3126bccc9f8541b5,
restaurant,Kedai Kopi,KELUAR MAIN CAFE,"Jl. Dewi Sartika No.RT 17, Bontang Kuala, Kec. Bontang Utara, Kota Bontang, Kalimantan Timur 75311","Bontang Kuala, Kec. Bontang Utara, Kota Bontang",KALIMANTAN TIMUR,75311.0,Indonesia,85250088124.0,,,0.1400773,117.498131,https://maps.google.com/?cid=0x0:0x685d61805e8be002,
restaurant,restaurant,Kalimantan Timur 75312,"Kec. Tlk. Pandan, Kabupaten Kutai Timur, Kalimantan Timur","Kabupaten Kutai Timur, Kalimantan Timur",KALIMANTAN TIMUR,,Indonesia,,,,0.2740898,117.4908738,https://maps.google.com/?cid=0x0:0x66ae207830c2242a,
restaurant,Restoran,TERRA Dining,"Jl. Awang Long No.53c, RT.09, Bontang Baru, Kec. Bontang Utara, Kota Bontang, Kalimantan Timur 75325","RT.09, Bontang Baru, Kec. Bontang Utara, Kota Bontang",KALIMANTAN TIMUR,75325.0,Indonesia,82150562200.0,,,0.1372264,117.4987729,https://maps.google.com/?cid=0x0:0x5fbd61d4b261d2b0,
restaurant,Ikan Bakar,Rumah Makan Prasmanan Budhe Sri,"4FPV+VFH, Bontang Baru, Kec. Bontang Utara, Kota Bontang, Kalimantan Timur 75325","Bontang Baru, Kec. Bontang Utara, Kota Bontang",KALIMANTAN TIMUR,75325.0,Indonesia,81256197753.0,,,0.1371865,117.493726,https://maps.google.com/?cid=0x0:0xc5fe941fde358fe3,
restaurant,Rumah Makan,Makan Enak,"5FC9+2J, Lok Tuan, Kec. Bontang Utara, Kota Bontang, Kalimantan Timur 75321","Lok Tuan, Kec. Bontang Utara, Kota Bontang",KALIMANTAN TIMUR,75321.0,Indonesia,87772477999.0,,,0.1701558,117.4690465,https://maps.google.com/?cid=0x0:0x9885ba2893254082,
restaurant,Hidangan Laut,RM Sari Laut Mbak Zuly Bontang,"Jl. Brigjen Katamso No.25, Belimbing, Kec. Bontang Bar., Kota Bontang, Kalimantan Timur 75325","Belimbing, Kec. Bontang Bar., Kota Bontang",KALIMANTAN TIMUR,75325.0,Indonesia,82189040384.0,,,0.1374632,117.4667821,https://maps.google.com/?cid=0x0:0xd91717ec8a527a8d,
restaurant,Indonesia,Rumah Makan Anjungan Indah,"4GR9+X2F, JL. Kapten Piere Tendean, Tanjung Laut, Bontang Utara, Kota Bontang, Kalimantan Timur 70231","JL. Kapten Piere Tendean, Tanjung Laut, Bontang Utara, Kota Bontang",KALIMANTAN TIMUR,70231.0,Indonesia,54826722.0,,,0.14245,117.5175382,https://maps.google.com/?cid=0x0:0x9549eb1f20a5ed5e,
restaurant,Nasi,Depot Selera Kita,"4FGM+XJ6, Jalan Jendral. A. Yani, Tanjung Laut, Bontang Selatan, Api-Api, Kec. Bontang Utara, Kota Bontang, Kalimantan Timur 75325","Jalan Jendral. A. Yani, Tanjung Laut, Bontang Selatan, Api-Api, Kec. Bontang Utara, Kota Bontang",KALIMANTAN TIMUR,75325.0,Indonesia,54827279.0,,,0.1274115,117.4840046,https://maps.google.com/?cid=0x0:0x3cd20ab515f1b10f,
restaurant,Ikan Bakar,Warung Fajar,"Jalan Awang Long, RT.17, Bontang Baru, Bontang Utara, Bontang Baru, Kec. Bontang Utara, Kota Bontang, Kalimantan Timur 75325","RT.17, Bontang Baru, Bontang Utara, Bontang Baru, Kec. Bontang Utara, Kota Bontang",KALIMANTAN TIMUR,75325.0,Indonesia,82191309613.0,,,0.1389429,117.490875,https://maps.google.com/?cid=0x0:0xf90490956f77c8f5,
restaurant,Hidangan Laut,Warung Melati 2,"Jl. Bhayangkara No.22, Gn. Elai, Kec. Bontang Utara, Kota Bontang, Kalimantan Timur 75325","Gn. Elai, Kec. Bontang Utara, Kota Bontang",KALIMANTAN TIMUR,75325.0,Indonesia,54821748.0,,,0.1332399,117.4770681,https://maps.google.com/?cid=0x0:0x355cbc1612c30e5e,
restaurant,Kafe,Distrik Eat,"4FHH+5RJ, Jl. HM Ardans, Pisangan, Kec. Bontang Sel., Kota Bontang, Kalimantan Timur 75325","Jl. HM Ardans, Pisangan, Kec. Bontang Sel., Kota Bontang",KALIMANTAN TIMUR,75325.0,Indonesia,8978829023.0,,,0.1279504,117.47953,https://maps.google.com/?cid=0x0:0x103ac4b3edbd0302,
restaurant,Rumah Makan,Dapur Cilelaki,"Jl. Tongkol No.6, Tj. Laut Indah, Kec. Bontang Sel., Kota Bontang, Kalimantan Timur 75322","Tj. Laut Indah, Kec. Bontang Sel., Kota Bontang",KALIMANTAN TIMUR,75322.0,Indonesia,8125304546.0,,,0.1232742,117.4931806,https://maps.google.com/?cid=0x0:0x172e60148d7484b8,
restaurant,Makanan Siap Saji,DokterRasa Ricebox - Bontang Baru,"4FQR+FRV, Jl. Awang Long, Bontang Baru, Kec. Bontang Utara, Kota Bontang, Kalimantan Timur 75325","Jl. Awang Long, Bontang Baru, Kec. Bontang Utara, Kota Bontang",KALIMANTAN TIMUR,75325.0,Indonesia,89675944025.0,,,0.1387557,117.4922122,https://maps.google.com/?cid=0x0:0xa43dfa45abd952b5,
restaurant,Rumah Makan,Warung Ratu,"4FXC+8W6 Bar, Belimbing, Kec. Bontang Bar., Kota Bontang, Kalimantan Timur 75313","Belimbing, Kec. Bontang Bar., Kota Bontang",KALIMANTAN TIMUR,75313.0,Indonesia,81291719150.0,,,0.148283,117.4722661,https://maps.google.com/?cid=0x0:0x1f6b9a80afd28c2f,
restaurant,Indonesia,Cafe SingaPore Bontang,"Jl, Tj. Laut Indah, Kec. Bontang Sel., Kota Bontang, Kalimantan Timur 75325","Tj. Laut Indah, Kec. Bontang Sel., Kota Bontang",KALIMANTAN TIMUR,75325.0,Indonesia,,,,0.1113753,117.4952314,https://maps.google.com/?cid=0x0:0xbefeedde52770320,
restaurant,Restoran,Rumah makan selerah nusantara 2,"Jl. Poros Bontang - Sangatta, Martadinata, Kec. Tlk. Pandan, Kota Bontang, Kalimantan Timur","Kota Bontang, Kalimantan Timur",KALIMANTAN TIMUR,,Indonesia,85754629363.0,,,0.2469578,117.4937314,https://maps.google.com/?cid=0x0:0xc01a7d70325eb326,
restaurant,,Bontang Nusantara,"4FV6+XV, Belimbing, Kec. Bontang Bar., Kota Bontang, Kalimantan Timur","Kota Bontang, Kalimantan Timur",KALIMANTAN TIMUR,,Indonesia,81250615088.0,,,0.1449451,117.4621276,https://maps.google.com/?cid=0x0:0x2518159e9165935e,
restaurant,Hidangan Laut,Rumah Makan Sari Laut,"JL Bhayangkara, RT.88, Api-Api, Kec. Bontang Utara, Kota Bontang, Kalimantan Timur 75313","RT.88, Api-Api, Kec. Bontang Utara, Kota Bontang",KALIMANTAN TIMUR,75313.0,Indonesia,54824909.0,,,0.137179,117.483995,https://maps.google.com/?cid=0x0:0x359607261f586598,
restaurant,Ikan Bakar,Rumah Makan Ampera Buyung,"Rt26 Jl. RE. Martadinata No.21, Lok Tuan, Kec. Bontang Utara, Kota Bontang, Kalimantan Timur 75321","Lok Tuan, Kec. Bontang Utara, Kota Bontang",KALIMANTAN TIMUR,75321.0,Indonesia,,,,0.168689,117.4826292,https://maps.google.com/?cid=0x0:0x3126bccc9f8541b5,
restaurant,Indonesia,Rumah Boga,"4FQ7+W7W, Jl. Brigjen Katamso, Belimbing, Kec. Bontang Bar., Kota Bontang, Kalimantan Timur 75325","Jl. Brigjen Katamso, Belimbing, Kec. Bontang Bar., Kota Bontang",KALIMANTAN TIMUR,75325.0,Indonesia,81250615099.0,,,0.1398714,117.4632103,https://maps.google.com/?cid=0x0:0xdaa4fe2d83c24456,
restaurant,Restoran,Warung Makan Podomoro,"4FPM+WQQ, Api-Api, Kec. Bontang Utara, Kota Bontang, Kalimantan Timur 75313","Api-Api, Kec. Bontang Utara, Kota Bontang",KALIMANTAN TIMUR,75313.0,Indonesia,,,,0.1373424,117.4844879,https://maps.google.com/?cid=0x0:0x6489670a7b381e94,
restaurant,Restoran,Hulor bontang,"4FG9+9PX, Unnamed Road, Satimpo, Kec. Bontang Sel., Kota Bontang, Kalimantan Timur 75325","Unnamed Road, Satimpo, Kec. Bontang Sel., Kota Bontang",KALIMANTAN TIMUR,75325.0,Indonesia,,,,0.125991,117.4693561,https://maps.google.com/?cid=0x0:0x9841da8d344c53d5,
restaurant,Restoran,MPM Bontang,"Warung MPM, Jl. Ir. H. Juanda No.RT 6, Tj. Laut, Kec. Bontang Sel., Kota Bontang, Kalimantan Timur 75325","Jl. Ir. H. Juanda No.RT 6, Tj. Laut, Kec. Bontang Sel., Kota Bontang",KALIMANTAN TIMUR,75325.0,Indonesia,81320025003.0,,,0.1254528,117.4838088,https://maps.google.com/?cid=0x0:0x75f740c354e52e85,
restaurant,Kedai Kopi,Foresthree Coffee  Kitchen Bontang,"Jl. Pattimura No.148, RT.41, Api-Api, Kec. Bontang Utara, Kota Bontang, Kalimantan Timur 75311","RT.41, Api-Api, Kec. Bontang Utara, Kota Bontang",KALIMANTAN TIMUR,75311.0,Indonesia,82321689999.0,,,0.130281,117.495275,https://maps.google.com/?cid=0x0:0x961f77a42340f67c,
restaurant,Kedai Kopi,UTTARA Fine Eats and Coffee,"Api-Api, Kec. Bontang Utara, Kota Bontang, Kalimantan Timur 75313","Kec. Bontang Utara, Kota Bontang",KALIMANTAN TIMUR,75313.0,Indonesia,82148252211.0,,,0.1305124,117.4936688,https://maps.google.com/?cid=0x0:0x2070309083fc0aa7,
restaurant,Kedai Kopi,The Bahagia Kaffee Haus,"Jl. Awang Long, Api-Api, Kec. Bontang Utara, Kota Bontang, Kalimantan Timur 75325","Api-Api, Kec. Bontang Utara, Kota Bontang",KALIMANTAN TIMUR,75325.0,Indonesia,89527698529.0,,,0.1357512,117.4883049,https://maps.google.com/?cid=0x0:0xd1612dd1720ac919,
restaurant,Dapur Umum,Rumah Makan CEMANGI,"Jl. Poros Bontang - Sangatta, Kandolo, Kec. Sangatta Utara, Kabupaten Kutai Timur, Kalimantan Timur","Kabupaten Kutai Timur, Kalimantan Timur",KALIMANTAN TIMUR,,Indonesia,,,,0.2705319,117.4728613,https://maps.google.com/?cid=0x0:0x3385d1ae9c22dbf4,
restaurant,Padang,Rumah Makan Ananda 2,"6FQH+WJR, Jl. Poros Bontang - Sangatta, Martadinata, Kec. Tlk. Pandan, Kabupaten Kutai Timur, Kalimantan Timur 75311","Jl. Poros Bontang - Sangatta, Martadinata, Kec. Tlk. Pandan, Kabupaten Kutai Timur",KALIMANTAN TIMUR,75311.0,Indonesia,,,,0.2398679,117.4790017,https://maps.google.com/?cid=0x0:0x4c8fa1ba81f5806d,
restaurant,Kedai Kopi,GOERNA Coffee Lounge,"Jl. Dewi Sartika, Bontang Baru, Kec. Bontang Utara, Kota Bontang, Kalimantan Timur 75313","Bontang Baru, Kec. Bontang Utara, Kota Bontang",KALIMANTAN TIMUR,75313.0,Indonesia,,,,0.140447,117.4957678,https://maps.google.com/?cid=0x0:0xdc6a015703cc696b,
restaurant,restaurant,Kec. Bontang Utara,"Kota Bontang, Kalimantan Timur","Kota Bontang, Kalimantan Timur",KALIMANTAN TIMUR,,Indonesia,,,,0.1342654,117.4918113,https://maps.google.com/?cid=0x0:0x8e264a38633f2806,
restaurant,Restoran,TERRA Dining,"Jl. Awang Long No.53c, RT.09, Bontang Baru, Kec. Bontang Utara, Kota Bontang, Kalimantan Timur 75325","RT.09, Bontang Baru, Kec. Bontang Utara, Kota Bontang",KALIMANTAN TIMUR,75325.0,Indonesia,82150562200.0,,,0.1372264,117.4987729,https://maps.google.com/?cid=0x0:0x5fbd61d4b261d2b0,
restaurant,Restoran,Magnificent Seven Resto,"Jl. Letnan Jenderal MT Haryono No.14, Api-Api, Kec. Bontang Utara, Kota Bontang, Kalimantan Timur 75325","Api-Api, Kec. Bontang Utara, Kota Bontang",KALIMANTAN TIMUR,75325.0,Indonesia,54828543.0,,,0.1365485,117.4821464,https://maps.google.com/?cid=0x0:0xe0f0216610fd0d23,
restaurant,Hidangan Laut,RM Sari Laut Mbak Zuly Bontang,"Jl. Brigjen Katamso No.25, Belimbing, Kec. Bontang Bar., Kota Bontang, Kalimantan Timur 75325","Belimbing, Kec. Bontang Bar., Kota Bontang",KALIMANTAN TIMUR,75325.0,Indonesia,82189040384.0,,,0.1374632,117.4667821,https://maps.google.com/?cid=0x0:0xd91717ec8a527a8d,
restaurant,Ikan Bakar,Warung Fajar,"Jalan Awang Long, RT.17, Bontang Baru, Bontang Utara, Bontang Baru, Kec. Bontang Utara, Kota Bontang, Kalimantan Timur 75325","RT.17, Bontang Baru, Bontang Utara, Bontang Baru, Kec. Bontang Utara, Kota Bontang",KALIMANTAN TIMUR,75325.0,Indonesia,82191309613.0,,,0.1389429,117.490875,https://maps.google.com/?cid=0x0:0xf90490956f77c8f5,
restaurant,Sesuai untuk keluarga,MagSeven Steak  Grill,"Jl. MT. Haryono No.14, Api-Api, Kec. Bontang Utara, Kota Bontang, Kalimantan Timur 75325","Api-Api, Kec. Bontang Utara, Kota Bontang",KALIMANTAN TIMUR,75325.0,Indonesia,,,,0.1365916,117.4822105,https://maps.google.com/?cid=0x0:0x81df6a604c356be3,
restaurant,Restoran,Bakoel penyetzz foodfighter,"4FPQ+6WR, Bontang Baru, Kec. Bontang Utara, Kota Bontang, Kalimantan Timur 75313","Bontang Baru, Kec. Bontang Utara, Kota Bontang",KALIMANTAN TIMUR,75313.0,Indonesia,81350755857.0,,,0.1356042,117.4897651,https://maps.google.com/?cid=0x0:0xf2ee705abd694b91,
restaurant,Jepang,Ichi Gatsu,"Jl. Jend. Achmad Yani No.56c, Api-Api, Kec. Bontang Utara, Kota Bontang, Kalimantan Timur 75325","Api-Api, Kec. Bontang Utara, Kota Bontang",KALIMANTAN TIMUR,75325.0,Indonesia,,,,0.1326001,117.4892859,https://maps.google.com/?cid=0x0:0xbcfebdcedaad50b1,
restaurant,Sulawesi Selatan,RESTORAN-Cotto MAKASAR Hj.Suharni,"4FJQ+Q2Q, Jl. Jend. Achmad Yani, Api-Api, Kec. Bontang Utara, Kota Bontang, Kalimantan Timur 75325","Jl. Jend. Achmad Yani, Api-Api, Kec. Bontang Utara, Kota Bontang",KALIMANTAN TIMUR,75325.0,Indonesia,81347782840.0,,,0.131958,117.4876245,https://maps.google.com/?cid=0x0:0x2c43545f344f2790,
restaurant,Restoran,Salby Chicken Smash Bontang,"4FMV+CJQ, Jl. Mayor Jenderal DI Panjaitan, Api-Api, Kec. Bontang Utara, Kota Bontang, Kalimantan Timur 75313","Jl. Mayor Jenderal DI Panjaitan, Api-Api, Kec. Bontang Utara, Kota Bontang",KALIMANTAN TIMUR,75313.0,Indonesia,,,,0.1335768,117.494098,https://maps.google.com/?cid=0x0:0x852faa2056820f98,
restaurant,Restoran,Kenyang By Milahelda,"4FMR+8GX, Jl. Jend. Achmad Yani, Api-Api, Kec. Bontang Utara, Kota Bontang, Kalimantan Timur 75313","Jl. Jend. Achmad Yani, Api-Api, Kec. Bontang Utara, Kota Bontang",KALIMANTAN TIMUR,75313.0,Indonesia,,,,0.1333519,117.4913479,https://maps.google.com/?cid=0x0:0x596fe42011a68c3a,
restaurant,Kafe,Kedai Hitam Putih Bontang (KHP),"no.43 75311, Jl. Awang Long, Bontang Baru, Kec. Bontang Utara, Kota Bontang, Kalimantan Timur 75313","Jl. Awang Long, Bontang Baru, Kec. Bontang Utara, Kota Bontang",KALIMANTAN TIMUR,75313.0,Indonesia,85222115821.0,,,0.1346018,117.499504,https://maps.google.com/?cid=0x0:0x7a53de386ca37e6b,
restaurant,Restoran,Cafe  Resto Anjungan Indah,"4FGG+WV8, Jl. HM Ardans, Satimpo, Kec. Bontang Sel., Kota Bontang, Kalimantan Timur 75325","Jl. HM Ardans, Satimpo, Kec. Bontang Sel., Kota Bontang",KALIMANTAN TIMUR,75325.0,Indonesia,,,,0.1272981,117.4772175,https://maps.google.com/?cid=0x0:0x30715e6ac6c5c97f,
restaurant,Kedai Kopi,Foresthree Coffee  Kitchen Bontang,"Jl. Pattimura No.148, RT.41, Api-Api, Kec. Bontang Utara, Kota Bontang, Kalimantan Timur 75311","RT.41, Api-Api, Kec. Bontang Utara, Kota Bontang",KALIMANTAN TIMUR,75311.0,Indonesia,82321689999.0,,,0.130281,117.495275,https://maps.google.com/?cid=0x0:0x961f77a42340f67c,
restaurant,Nasi,Depot Selera Kita,"4FGM+XJ6, Jalan Jendral. A. Yani, Tanjung Laut, Bontang Selatan, Api-Api, Kec. Bontang Utara, Kota Bontang, Kalimantan Timur 75325","Jalan Jendral. A. Yani, Tanjung Laut, Bontang Selatan, Api-Api, Kec. Bontang Utara, Kota Bontang",KALIMANTAN TIMUR,75325.0,Indonesia,54827279.0,,,0.1274115,117.4840046,https://maps.google.com/?cid=0x0:0x3cd20ab515f1b10f,
restaurant,Indonesia,Rumah Boga,"4FQ7+W7W, Jl. Brigjen Katamso, Belimbing, Kec. Bontang Bar., Kota Bontang, Kalimantan Timur 75325","Jl. Brigjen Katamso, Belimbing, Kec. Bontang Bar., Kota Bontang",KALIMANTAN TIMUR,75325.0,Indonesia,81250615099.0,,,0.1398714,117.4632103,https://maps.google.com/?cid=0x0:0xdaa4fe2d83c24456,
restaurant,Jawa Timur,Pecel Bu Emi,"4FMR+MGX, Jl. R. Suprapto, Api-Api, Kec. Bontang Utara, Kota Bontang, Kalimantan Timur 75325","Jl. R. Suprapto, Api-Api, Kec. Bontang Utara, Kota Bontang",KALIMANTAN TIMUR,75325.0,Indonesia,,,,0.1342295,117.4913716,https://maps.google.com/?cid=0x0:0x7f8fcdb12e39f90a,
restaurant,Sulawesi Selatan,Coto Makassar CS dep. Rudal,"Jl. MT. Haryono No.12, Api-Api, Kec. Bontang Utara, Kota Bontang, Kalimantan Timur 75325","Api-Api, Kec. Bontang Utara, Kota Bontang",KALIMANTAN TIMUR,75325.0,Indonesia,85333374333.0,,,0.13692,117.4859939,https://maps.google.com/?cid=0x0:0x61785e3f6b1373f3,
restaurant,Rumah Makan,Dapur Cilelaki,"Jl. Tongkol No.6, Tj. Laut Indah, Kec. Bontang Sel., Kota Bontang, Kalimantan Timur 75322","Tj. Laut Indah, Kec. Bontang Sel., Kota Bontang",KALIMANTAN TIMUR,75322.0,Indonesia,8125304546.0,,,0.1232742,117.4931806,https://maps.google.com/?cid=0x0:0x172e60148d7484b8,
restaurant,Kafe,Basement Cafe Bontang,"4FMH+QXM, Jl. MT. Haryono, Api-Api, Kec. Bontang Utara, Kota Bontang, Kalimantan Timur","Kota Bontang, Kalimantan Timur",KALIMANTAN TIMUR,,Indonesia,,,,0.134465,117.4799163,https://maps.google.com/?cid=0x0:0x3afd8ed9cd8497a5,
restaurant,Restoran,White Place,"Bontang Baru, Kec. Bontang Utara, Kota Bontang, Kalimantan Timur 75313","Kec. Bontang Utara, Kota Bontang",KALIMANTAN TIMUR,75313.0,Indonesia,82250861625.0,,,0.1390733,117.4944523,https://maps.google.com/?cid=0x0:0xc24912d75c8ba696,
restaurant,Kafe,Malaya Kopitiam,"Jl. Jend. Achmad Yani No.26, Api-Api, Kec. Bontang Utara, Kota Bontang, Kalimantan Timur 75325","Api-Api, Kec. Bontang Utara, Kota Bontang",KALIMANTAN TIMUR,75325.0,Indonesia,81384422881.0,,,0.1324694,117.4912164,https://maps.google.com/?cid=0x0:0xe93ce2e2b7d338ce,
restaurant,Ikan Bakar,Rumah Makan Prasmanan Budhe Sri,"4FPV+VFH, Bontang Baru, Kec. Bontang Utara, Kota Bontang, Kalimantan Timur 75325","Bontang Baru, Kec. Bontang Utara, Kota Bontang",KALIMANTAN TIMUR,75325.0,Indonesia,81256197753.0,,,0.1371865,117.493726,https://maps.google.com/?cid=0x0:0xc5fe941fde358fe3,
restaurant,,Bontang Nusantara,"4FV6+XV, Belimbing, Kec. Bontang Bar., Kota Bontang, Kalimantan Timur","Kota Bontang, Kalimantan Timur",KALIMANTAN TIMUR,,Indonesia,81250615088.0,,,0.1449451,117.4621276,https://maps.google.com/?cid=0x0:0x2518159e9165935e,
restaurant,Sesuai untuk keluarga,Rest Area Warung Bontang,"Jl. Pattimura, Api-Api, Kec. Bontang Utara, Kota Bontang, Kalimantan Timur 75313","Api-Api, Kec. Bontang Utara, Kota Bontang",KALIMANTAN TIMUR,75313.0,Indonesia,85389255879.0,,,0.1320497,117.4920231,https://maps.google.com/?cid=0x0:0xf490df03141ab486,
restaurant,Makanan Siap Saji,DokterRasa Ricebox - Bontang Baru,"4FQR+FRV, Jl. Awang Long, Bontang Baru, Kec. Bontang Utara, Kota Bontang, Kalimantan Timur 75325","Jl. Awang Long, Bontang Baru, Kec. Bontang Utara, Kota Bontang",KALIMANTAN TIMUR,75325.0,Indonesia,89675944025.0,,,0.1387557,117.4922122,https://maps.google.com/?cid=0x0:0xa43dfa45abd952b5,
restaurant,Kedai Kopi,UTTARA Fine Eats and Coffee,"Api-Api, Kec. Bontang Utara, Kota Bontang, Kalimantan Timur 75313","Kec. Bontang Utara, Kota Bontang",KALIMANTAN TIMUR,75313.0,Indonesia,82148252211.0,,,0.1305124,117.4936688,https://maps.google.com/?cid=0x0:0x2070309083fc0aa7,
restaurant,Kedai Kopi,SPACE CO-WORKING  CAFETARIA,"JL. Pangeran Suryanata RT. 11 No. 06 Kel, Bontang Baru, Kec. Bontang Utara, Kota Bontang, Kalimantan Timur 75311","Bontang Baru, Kec. Bontang Utara, Kota Bontang",KALIMANTAN TIMUR,75311.0,Indonesia,8115979998.0,,,0.1375774,117.4925861,https://maps.google.com/?cid=0x0:0xbc4832976610f37c,
cafe,cafe,Kalimantan Timur 75313,"Kota Bontang, Kalimantan Timur","Kota Bontang, Kalimantan Timur",KALIMANTAN TIMUR,,Indonesia,,,,0.1379123,117.493321,https://maps.google.com/?cid=0x0:0xc31ada602112700b,
cafe,Kedai Kopi,PEOPLE  COFFEE,"Kodim, Jl. Awang Long, Bontang Baru, Bontang Utara, Bontang City, East Kalimantan 75313","Jl. Awang Long, Bontang Baru, Bontang Utara, Bontang City",KALIMANTAN TIMUR,75313.0,Indonesia,81250391043.0,,,0.1387322,117.4914926,https://maps.google.com/?cid=0x0:0x51df805d4bf78eca,
cafe,Kedai Kopi,GOERNA Coffee Lounge,"Jl. Dewi Sartika, Bontang Baru, Kec. Bontang Utara, Kota Bontang, Kalimantan Timur 75313","Bontang Baru, Kec. Bontang Utara, Kota Bontang",KALIMANTAN TIMUR,75313.0,Indonesia,,,,0.140447,117.4957678,https://maps.google.com/?cid=0x0:0xdc6a015703cc696b,
cafe,Kafe,Kafe Kapal Bontang Kuala,"4GMC+GV9, Bontang Kuala, Kec. Bontang Utara, Kota Bontang, Kalimantan Timur 75325","Bontang Kuala, Kec. Bontang Utara, Kota Bontang",KALIMANTAN TIMUR,75325.0,Indonesia,81350030033.0,,,0.1337999,117.5222473,https://maps.google.com/?cid=0x0:0x42aa2b7c89c8d198,
cafe,Kafe,D'CAFE,"Jl. Bhayangkara, Gn. Elai, Kec. Bontang Utara, Kota Bontang, Kalimantan Timur 75325","Gn. Elai, Kec. Bontang Utara, Kota Bontang",KALIMANTAN TIMUR,75325.0,Indonesia,82292829399.0,,,0.1329855,117.4773142,https://maps.google.com/?cid=0x0:0xf042cfca710a2859,
cafe,Kafe,Klikcafe Bontang,"4FMQ+2PR, Jl. Jend. Achmad Yani, Api-Api, Kec. Bontang Sel., Kota Bontang, Kalimantan Timur 75325","Jl. Jend. Achmad Yani, Api-Api, Kec. Bontang Sel., Kota Bontang",KALIMANTAN TIMUR,75325.0,Indonesia,85228421999.0,,,0.1326153,117.4892766,https://maps.google.com/?cid=0x0:0xe5242ae6c1f19a75,
cafe,Kedai Kopi,Liter Coffee,"Jl. Jend. Achmad Yani, Api-Api, Kec. Bontang Utara, Kota Bontang, Kalimantan Timur 75313","Api-Api, Kec. Bontang Utara, Kota Bontang",KALIMANTAN TIMUR,75313.0,Indonesia,81255511995.0,,,0.1322088,117.4897633,https://maps.google.com/?cid=0x0:0x9a6e90fecf857cc3,
cafe,Kedai Kopi,KELUAR MAIN CAFE,"Jl. Dewi Sartika No.RT 17, Bontang Kuala, Kec. Bontang Utara, Kota Bontang, Kalimantan Timur 75311","Bontang Kuala, Kec. Bontang Utara, Kota Bontang",KALIMANTAN TIMUR,75311.0,Indonesia,85250088124.0,,,0.1400773,117.498131,https://maps.google.com/?cid=0x0:0x685d61805e8be002,
cafe,Restoran,TERRA Dining,"Jl. Awang Long No.53c, RT.09, Bontang Baru, Kec. Bontang Utara, Kota Bontang, Kalimantan Timur 75325","RT.09, Bontang Baru, Kec. Bontang Utara, Kota Bontang",KALIMANTAN TIMUR,75325.0,Indonesia,82150562200.0,,,0.1372264,117.4987729,https://maps.google.com/?cid=0x0:0x5fbd61d4b261d2b0,
cafe,Kafe,Jimbaran Cafe,"Jl. BATU SAHAS RT.20 KELURAHAN BONTANG KUALA, Kuala, Kec. Bontang Utara, Kota Bontang, Kalimantan Timur 75312","Kuala, Kec. Bontang Utara, Kota Bontang",KALIMANTAN TIMUR,75312.0,Indonesia,811599781.0,,,0.1343596,117.5219433,https://maps.google.com/?cid=0x0:0x3641fd9743e72596,
cafe,Kedai Kopi,Foresthree Coffee  Kitchen Bontang,"Jl. Pattimura No.148, RT.41, Api-Api, Kec. Bontang Utara, Kota Bontang, Kalimantan Timur 75311","RT.41, Api-Api, Kec. Bontang Utara, Kota Bontang",KALIMANTAN TIMUR,75311.0,Indonesia,82321689999.0,,,0.130281,117.495275,https://maps.google.com/?cid=0x0:0x961f77a42340f67c,
cafe,Kafe,Batavia Cafe,"4GP5+4C6, Bontang Kuala, Kec. Bontang Utara, Kota Bontang, Kalimantan Timur 75313","Bontang Kuala, Kec. Bontang Utara, Kota Bontang",KALIMANTAN TIMUR,75313.0,Indonesia,8115812939.0,,,0.135291,117.5085274,https://maps.google.com/?cid=0x0:0x44d6b431b422ce29,
cafe,Kafe,Garasi Sebelah,"Jl. Pangeran Suryanata, Bontang Baru, Kec. Bontang Utara, Kota Bontang, Kalimantan Timur 75313","Bontang Baru, Kec. Bontang Utara, Kota Bontang",KALIMANTAN TIMUR,75313.0,Indonesia,85393917171.0,,,0.1354893,117.492291,https://maps.google.com/?cid=0x0:0xb685161cb8da5834,
cafe,Kafe,DOLOE'S,"Jl. Aip II KS Tubun, Bontang Kuala, Kec. Bontang Utara, Kota Bontang, Kalimantan Timur 75313","Bontang Kuala, Kec. Bontang Utara, Kota Bontang",KALIMANTAN TIMUR,75313.0,Indonesia,82299557104.0,,,0.1262821,117.4995391,https://maps.google.com/?cid=0x0:0x89d82fe868a9eca2,
cafe,Kedai Kopi,Kafe Ngopi Mrene,"Jl. Brigjen Katamso No.12, Belimbing, Kec. Bontang Bar., Kota Bontang, Kalimantan Timur 75313","Belimbing, Kec. Bontang Bar., Kota Bontang",KALIMANTAN TIMUR,75313.0,Indonesia,81345942131.0,,,0.1359,117.4695143,https://maps.google.com/?cid=0x0:0xe3ea0ef49f7cff25,
cafe,Kedai Kopi,Taste coffee,"Jl. Pattimura, Api-Api, Kec. Bontang Utara, Kota Bontang, Kalimantan Timur 75313","Api-Api, Kec. Bontang Utara, Kota Bontang",KALIMANTAN TIMUR,75313.0,Indonesia,811532600.0,,,0.1315327,117.4997433,https://maps.google.com/?cid=0x0:0xe4c54530a3c36707,
cafe,Kedai Kopi,Malabar Coffee,"Jl. P. Suryanata No. 29, Bontang Baru, Bontang, Kota Bontang, Kalimantan Timur 75313","Bontang Baru, Bontang, Kota Bontang",KALIMANTAN TIMUR,75313.0,Indonesia,54827967.0,,,0.1357669,117.4920439,https://maps.google.com/?cid=0x0:0xe45aa370172bf1fe,
cafe,Restoran,Heartbond Coffee and Eatery,"Jl. Simon Tampubolon, HOP 4/147, Gn. Telihan, Kec. Bontang Bar., Kota Bontang, Kalimantan Timur 75383","HOP 4/147, Gn. Telihan, Kec. Bontang Bar., Kota Bontang",KALIMANTAN TIMUR,75383.0,Indonesia,81346418881.0,,,0.1304211,117.4642577,https://maps.google.com/?cid=0x0:0x5a495ee6f282fa7f,
cafe,Restoran,White Place,"Bontang Baru, Kec. Bontang Utara, Kota Bontang, Kalimantan Timur 75313","Kec. Bontang Utara, Kota Bontang",KALIMANTAN TIMUR,75313.0,Indonesia,82250861625.0,,,0.1390733,117.4944523,https://maps.google.com/?cid=0x0:0xc24912d75c8ba696,
cafe,Kafe,CC Funcook Cafe Karaoke keluarga,"4FMW+82V, Jl. Mayor Jenderal DI Panjaitan, Api-Api, Kec. Bontang Utara, Kota Bontang, Kalimantan Timur 75313","Jl. Mayor Jenderal DI Panjaitan, Api-Api, Kec. Bontang Utara, Kota Bontang",KALIMANTAN TIMUR,75313.0,Indonesia,85349287123.0,,,0.1333623,117.4950437,https://maps.google.com/?cid=0x0:0x99f68b4c4b1d3098,
cafe,Kedai Kopi,UTTARA Fine Eats and Coffee,"Api-Api, Kec. Bontang Utara, Kota Bontang, Kalimantan Timur 75313","Kec. Bontang Utara, Kota Bontang",KALIMANTAN TIMUR,75313.0,Indonesia,82148252211.0,,,0.1305124,117.4936688,https://maps.google.com/?cid=0x0:0x2070309083fc0aa7,
cafe,Kafe,Smile Cafe,"4FJP+GF7, Api-Api, Kec. Bontang Utara, Kota Bontang, Kalimantan Timur 75313","Api-Api, Kec. Bontang Utara, Kota Bontang",KALIMANTAN TIMUR,75313.0,Indonesia,81333337347.0,,,0.131291,117.4861578,https://maps.google.com/?cid=0x0:0xbb7a1fc4832f9992,
cafe,Restoran,Cafe Anjungan Bontang Koala,75313,,KALIMANTAN TIMUR,,Indonesia,,,,0.1408325,117.5166712,https://maps.google.com/?cid=0x0:0x211148179de094e5,
cafe,Kafe,ME TIME Coffee  Eatery,"Jl. Brigjen Katamso, Belimbing, Kec. Bontang Bar., Kota Bontang, Kalimantan Timur 75313","Belimbing, Kec. Bontang Bar., Kota Bontang",KALIMANTAN TIMUR,75313.0,Indonesia,82157600666.0,,,0.1387317,117.4636789,https://maps.google.com/?cid=0x0:0x6c8e963a37936e1b,
cafe,cafe,Kec. Bontang Bar.,"Kota Bontang, Kalimantan Timur","Kota Bontang, Kalimantan Timur",KALIMANTAN TIMUR,,Indonesia,,,,0.1372358,117.4548496,https://maps.google.com/?cid=0x0:0xdc6d300939175081,
cafe,Kafe,Klikcafe Bontang,"4FMQ+2PR, Jl. Jend. Achmad Yani, Api-Api, Kec. Bontang Sel., Kota Bontang, Kalimantan Timur 75325","Jl. Jend. Achmad Yani, Api-Api, Kec. Bontang Sel., Kota Bontang",KALIMANTAN TIMUR,75325.0,Indonesia,85228421999.0,,,0.1326153,117.4892766,https://maps.google.com/?cid=0x0:0xe5242ae6c1f19a75,
cafe,Kedai Kopi,Foresthree Coffee  Kitchen Bontang,"Jl. Pattimura No.148, RT.41, Api-Api, Kec. Bontang Utara, Kota Bontang, Kalimantan Timur 75311","RT.41, Api-Api, Kec. Bontang Utara, Kota Bontang",KALIMANTAN TIMUR,75311.0,Indonesia,82321689999.0,,,0.130281,117.495275,https://maps.google.com/?cid=0x0:0x961f77a42340f67c,
cafe,Restoran,Heartbond Coffee and Eatery,"Jl. Simon Tampubolon, HOP 4/147, Gn. Telihan, Kec. Bontang Bar., Kota Bontang, Kalimantan Timur 75383","HOP 4/147, Gn. Telihan, Kec. Bontang Bar., Kota Bontang",KALIMANTAN TIMUR,75383.0,Indonesia,81346418881.0,,,0.1304211,117.4642577,https://maps.google.com/?cid=0x0:0x5a495ee6f282fa7f,
cafe,Kedai Kopi,Liter Coffee,"Jl. Jend. Achmad Yani, Api-Api, Kec. Bontang Utara, Kota Bontang, Kalimantan Timur 75313","Api-Api, Kec. Bontang Utara, Kota Bontang",KALIMANTAN TIMUR,75313.0,Indonesia,81255511995.0,,,0.1322088,117.4897633,https://maps.google.com/?cid=0x0:0x9a6e90fecf857cc3,
cafe,Kafe,Basement Cafe Bontang,"4FMH+QXM, Jl. MT. Haryono, Api-Api, Kec. Bontang Utara, Kota Bontang, Kalimantan Timur","Kota Bontang, Kalimantan Timur",KALIMANTAN TIMUR,,Indonesia,,,,0.134465,117.4799163,https://maps.google.com/?cid=0x0:0x3afd8ed9cd8497a5,
cafe,Kedai Kopi,ANALOG KAFEIN,"Taman Posyandu Hop IV, Jl. Sungai Serayu, Gn. Elai, Kec. Bontang Utara, Kota Bontang, Kalimantan Timur 75325","Jl. Sungai Serayu, Gn. Elai, Kec. Bontang Utara, Kota Bontang",KALIMANTAN TIMUR,75325.0,Indonesia,82155203258.0,,,0.133646,117.4630582,https://maps.google.com/?cid=0x0:0xfc270d217352c80a,
cafe,Kafe,Kafe Kapal Bontang Kuala,"4GMC+GV9, Bontang Kuala, Kec. Bontang Utara, Kota Bontang, Kalimantan Timur 75325","Bontang Kuala, Kec. Bontang Utara, Kota Bontang",KALIMANTAN TIMUR,75325.0,Indonesia,81350030033.0,,,0.1337999,117.5222473,https://maps.google.com/?cid=0x0:0x42aa2b7c89c8d198,
cafe,Kafe,ME TIME Coffee  Eatery,"Jl. Brigjen Katamso, Belimbing, Kec. Bontang Bar., Kota Bontang, Kalimantan Timur 75313","Belimbing, Kec. Bontang Bar., Kota Bontang",KALIMANTAN TIMUR,75313.0,Indonesia,82157600666.0,,,0.1387317,117.4636789,https://maps.google.com/?cid=0x0:0x6c8e963a37936e1b,
cafe,cafe,Djoempa cafe and eatery,"4FV7+56F, Belimbing, Kec. Bontang Bar., Kota Bontang, Kalimantan Timur","Kota Bontang, Kalimantan Timur",KALIMANTAN TIMUR,,Indonesia,,,,0.1429448,117.4630409,https://maps.google.com/?cid=0x0:0x981350c40850cb09,
cafe,Kedai Kopi,Brosta Coffee,"Jl. S. Parman No.17, Belimbing, Kec. Bontang Bar., Kota Bontang, Kalimantan Timur 75321","Belimbing, Kec. Bontang Bar., Kota Bontang",KALIMANTAN TIMUR,75321.0,Indonesia,85250659773.0,,,0.1394088,117.4555461,https://maps.google.com/?cid=0x0:0xd75ca8bc751ae411,
cafe,Kafe,D'CAFE,"Jl. Bhayangkara, Gn. Elai, Kec. Bontang Utara, Kota Bontang, Kalimantan Timur 75325","Gn. Elai, Kec. Bontang Utara, Kota Bontang",KALIMANTAN TIMUR,75325.0,Indonesia,82292829399.0,,,0.1329855,117.4773142,https://maps.google.com/?cid=0x0:0xf042cfca710a2859,
cafe,Kedai Kopi,KELUAR MAIN CAFE,"Jl. Dewi Sartika No.RT 17, Bontang Kuala, Kec. Bontang Utara, Kota Bontang, Kalimantan Timur 75311","Bontang Kuala, Kec. Bontang Utara, Kota Bontang",KALIMANTAN TIMUR,75311.0,Indonesia,85250088124.0,,,0.1400773,117.498131,https://maps.google.com/?cid=0x0:0x685d61805e8be002,
cafe,Kedai Kopi,Taste coffee,"Jl. Pattimura, Api-Api, Kec. Bontang Utara, Kota Bontang, Kalimantan Timur 75313","Api-Api, Kec. Bontang Utara, Kota Bontang",KALIMANTAN TIMUR,75313.0,Indonesia,811532600.0,,,0.1315327,117.4997433,https://maps.google.com/?cid=0x0:0xe4c54530a3c36707,
cafe,Tempat Cukur Rambut,HOME Barber Cafe  Distro,"4FP6+6FJ, Jl. Sumatera, Kanaan, Kec. Bontang Bar., Kota Bontang, Kalimantan Timur 75321","Jl. Sumatera, Kanaan, Kec. Bontang Bar., Kota Bontang",KALIMANTAN TIMUR,75321.0,Indonesia,85246009420.0,,,0.1355922,117.4611296,https://maps.google.com/?cid=0x0:0xc537ff264f434622,
cafe,Kedai Kopi,Kafe Ngopi Mrene,"Jl. Brigjen Katamso No.12, Belimbing, Kec. Bontang Bar., Kota Bontang, Kalimantan Timur 75313","Belimbing, Kec. Bontang Bar., Kota Bontang",KALIMANTAN TIMUR,75313.0,Indonesia,81345942131.0,,,0.1359,117.4695143,https://maps.google.com/?cid=0x0:0xe3ea0ef49f7cff25,
cafe,Kafe,Kafe Bete Bontang,"4FM3+VWQ, Kanaan, Kec. Bontang Bar., Kota Bontang, Kalimantan Timur 75321","Kanaan, Kec. Bontang Bar., Kota Bontang",KALIMANTAN TIMUR,75321.0,Indonesia,,,,0.1347239,117.4548457,https://maps.google.com/?cid=0x0:0xeaa380f76260147f,
cafe,Kafe,BXT.Kopi,"Jl. Sungai Serayu No.59, Gn. Elai, Kec. Bontang Utara, Kota Bontang, Kalimantan Timur 75325","Gn. Elai, Kec. Bontang Utara, Kota Bontang",KALIMANTAN TIMUR,75325.0,Indonesia,82232727223.0,,,0.1332108,117.4623995,https://maps.google.com/?cid=0x0:0x6f2e7634a6dc377,
cafe,Kedai Kopi,UTTARA Fine Eats and Coffee,"Api-Api, Kec. Bontang Utara, Kota Bontang, Kalimantan Timur 75313","Kec. Bontang Utara, Kota Bontang",KALIMANTAN TIMUR,75313.0,Indonesia,82148252211.0,,,0.1305124,117.4936688,https://maps.google.com/?cid=0x0:0x2070309083fc0aa7,
cafe,Kedai Kopi,PEOPLE  COFFEE,"Kodim, Jl. Awang Long, Bontang Baru, Bontang Utara, Bontang City, East Kalimantan 75313","Jl. Awang Long, Bontang Baru, Bontang Utara, Bontang City",KALIMANTAN TIMUR,75313.0,Indonesia,81250391043.0,,,0.1387322,117.4914926,https://maps.google.com/?cid=0x0:0x51df805d4bf78eca,
cafe,Kafe,CakeBun Bontang,"4FR9+VFJ, Belimbing, Kec. Bontang Bar., Kota Bontang, Kalimantan Timur 75325","Belimbing, Kec. Bontang Bar., Kota Bontang",KALIMANTAN TIMUR,75325.0,Indonesia,85250256139.0,,,0.1422153,117.4686423,https://maps.google.com/?cid=0x0:0xdbcdf82ca63c3ceb,
cafe,Kedai Kopi,Sembilan,"BTN, PKT, Jl. Abdul Rauf blok B no 1, Belimbing, Kec. Bontang Bar., Kota Bontang, Kalimantan Timur 75313","PKT, Jl. Abdul Rauf blok B no 1, Belimbing, Kec. Bontang Bar., Kota Bontang",KALIMANTAN TIMUR,75313.0,Indonesia,89528489899.0,,,0.1401616,117.4685547,https://maps.google.com/?cid=0x0:0xe750e30507f2ee83,
cafe,Kedai Kopi,The Bahagia Kaffee Haus,"Jl. Awang Long, Api-Api, Kec. Bontang Utara, Kota Bontang, Kalimantan Timur 75325","Api-Api, Kec. Bontang Utara, Kota Bontang",KALIMANTAN TIMUR,75325.0,Indonesia,89527698529.0,,,0.1357512,117.4883049,https://maps.google.com/?cid=0x0:0xd1612dd1720ac919,
cafe,Kedai Kopi,   # ,"4FP8+VVG, Belimbing, Kec. Bontang Bar., Kota Bontang, Kalimantan Timur 75325","Belimbing, Kec. Bontang Bar., Kota Bontang",KALIMANTAN TIMUR,75325.0,Indonesia,85171517185.0,,,0.1370839,117.4669059,https://maps.google.com/?cid=0x0:0x3cc289fda9b2506b,
cafe,Kafe,Bears House Bontang,"BTN PKT, Jl. Cipto Mangunkusumo (setelah, Jl. Pipit, Belimbing, Kec. Bontang Bar., Kota Bontang, Kalimantan Timur 75325","Jl. Cipto Mangunkusumo (setelah, Jl. Pipit, Belimbing, Kec. Bontang Bar., Kota Bontang",KALIMANTAN TIMUR,75325.0,Indonesia,85247092933.0,,,0.145113,117.4746989,https://maps.google.com/?cid=0x0:0x33d8e9c889b5cd7c,
cafe,Kedai Kopi,Ngangeni Kopi Mbok Man Bontang,"Jl. Sumbawa No.64, Kanaan, Kec. Bontang Bar., Kota Bontang, Kalimantan Timur 75325","Kanaan, Kec. Bontang Bar., Kota Bontang",KALIMANTAN TIMUR,75325.0,Indonesia,81349879865.0,,,0.1366801,117.4614635,https://maps.google.com/?cid=0x0:0x581d768c7b49de6a,
cafe,cafe,Kalimantan Timur 75321,"Kec. Tlk. Pandan, Kabupaten Kutai Timur, Kalimantan Timur","Kabupaten Kutai Timur, Kalimantan Timur",KALIMANTAN TIMUR,,Indonesia,,,,0.1825802,117.4321452,https://maps.google.com/?cid=0x0:0x70eac15f80c6d3d5,
cafe,Pujasera,Pujasera Tahap 6 BSD,"5F4H+279, Gn. Elai, Kec. Bontang Utara, Kota Bontang, Kalimantan Timur 75321","Gn. Elai, Kec. Bontang Utara, Kota Bontang",KALIMANTAN TIMUR,75321.0,Indonesia,811591979.0,,,0.155031,117.4782442,https://maps.google.com/?cid=0x0:0x1d944385ee29a47d,
cafe,Kedai Kopi,Taste coffee,"Jl. Pattimura, Api-Api, Kec. Bontang Utara, Kota Bontang, Kalimantan Timur 75313","Api-Api, Kec. Bontang Utara, Kota Bontang",KALIMANTAN TIMUR,75313.0,Indonesia,811532600.0,,,0.1315327,117.4997433,https://maps.google.com/?cid=0x0:0xe4c54530a3c36707,
cafe,Tempat Cukur Rambut,HOME Barber Cafe  Distro,"4FP6+6FJ, Jl. Sumatera, Kanaan, Kec. Bontang Bar., Kota Bontang, Kalimantan Timur 75321","Jl. Sumatera, Kanaan, Kec. Bontang Bar., Kota Bontang",KALIMANTAN TIMUR,75321.0,Indonesia,85246009420.0,,,0.1355922,117.4611296,https://maps.google.com/?cid=0x0:0xc537ff264f434622,
cafe,Kedai Kopi,Bhatara Suku,"Satimpo, Kec. Bontang Sel., Kota Bontang, Kalimantan Timur 75321","Kec. Bontang Sel., Kota Bontang",KALIMANTAN TIMUR,75321.0,Indonesia,,,,0.1009163,117.4368228,https://maps.google.com/?cid=0x0:0xa5b456d855062828,
cafe,Kafe,Klikcafe Bontang,"4FMQ+2PR, Jl. Jend. Achmad Yani, Api-Api, Kec. Bontang Sel., Kota Bontang, Kalimantan Timur 75325","Jl. Jend. Achmad Yani, Api-Api, Kec. Bontang Sel., Kota Bontang",KALIMANTAN TIMUR,75325.0,Indonesia,85228421999.0,,,0.1326153,117.4892766,https://maps.google.com/?cid=0x0:0xe5242ae6c1f19a75,
cafe,Kedai Kopi,Friendzone coffee,"Jl. Slamet Riyadi No.6, RT.48, Lok Tuan, Kec. Bontang Utara, Kota Bontang, Kalimantan Timur 75321","RT.48, Lok Tuan, Kec. Bontang Utara, Kota Bontang",KALIMANTAN TIMUR,75321.0,Indonesia,,,,0.1708112,117.4731319,https://maps.google.com/?cid=0x0:0xfc5c194bad3c5fa0,
cafe,Kedai Kopi,Liter Coffee,"Jl. Jend. Achmad Yani, Api-Api, Kec. Bontang Utara, Kota Bontang, Kalimantan Timur 75313","Api-Api, Kec. Bontang Utara, Kota Bontang",KALIMANTAN TIMUR,75313.0,Indonesia,81255511995.0,,,0.1322088,117.4897633,https://maps.google.com/?cid=0x0:0x9a6e90fecf857cc3,
cafe,Kedai Kopi,SPACE CO-WORKING  CAFETARIA,"JL. Pangeran Suryanata RT. 11 No. 06 Kel, Bontang Baru, Kec. Bontang Utara, Kota Bontang, Kalimantan Timur 75311","Bontang Baru, Kec. Bontang Utara, Kota Bontang",KALIMANTAN TIMUR,75311.0,Indonesia,8115979998.0,,,0.1375774,117.4925861,https://maps.google.com/?cid=0x0:0xbc4832976610f37c,
cafe,Kafe,D'CAFE,"Jl. Bhayangkara, Gn. Elai, Kec. Bontang Utara, Kota Bontang, Kalimantan Timur 75325","Gn. Elai, Kec. Bontang Utara, Kota Bontang",KALIMANTAN TIMUR,75325.0,Indonesia,82292829399.0,,,0.1329855,117.4773142,https://maps.google.com/?cid=0x0:0xf042cfca710a2859,
cafe,Kafe,Malaya Kopitiam,"Jl. Jend. Achmad Yani No.26, Api-Api, Kec. Bontang Utara, Kota Bontang, Kalimantan Timur 75325","Api-Api, Kec. Bontang Utara, Kota Bontang",KALIMANTAN TIMUR,75325.0,Indonesia,81384422881.0,,,0.1324694,117.4912164,https://maps.google.com/?cid=0x0:0xe93ce2e2b7d338ce,
cafe,Kafe,Batavia Cafe,"4GP5+4C6, Bontang Kuala, Kec. Bontang Utara, Kota Bontang, Kalimantan Timur 75313","Bontang Kuala, Kec. Bontang Utara, Kota Bontang",KALIMANTAN TIMUR,75313.0,Indonesia,8115812939.0,,,0.135291,117.5085274,https://maps.google.com/?cid=0x0:0x44d6b431b422ce29,
cafe,Indonesia,Cafe SingaPore Bontang,"Jl, Tj. Laut Indah, Kec. Bontang Sel., Kota Bontang, Kalimantan Timur 75325","Tj. Laut Indah, Kec. Bontang Sel., Kota Bontang",KALIMANTAN TIMUR,75325.0,Indonesia,,,,0.1113753,117.4952314,https://maps.google.com/?cid=0x0:0xbefeedde52770320,
cafe,Kafe,Kafe Kapal Bontang Kuala,"4GMC+GV9, Bontang Kuala, Kec. Bontang Utara, Kota Bontang, Kalimantan Timur 75325","Bontang Kuala, Kec. Bontang Utara, Kota Bontang",KALIMANTAN TIMUR,75325.0,Indonesia,81350030033.0,,,0.1337999,117.5222473,https://maps.google.com/?cid=0x0:0x42aa2b7c89c8d198,
cafe,Kedai Kopi,Brosta Coffee,"Jl. S. Parman No.17, Belimbing, Kec. Bontang Bar., Kota Bontang, Kalimantan Timur 75321","Belimbing, Kec. Bontang Bar., Kota Bontang",KALIMANTAN TIMUR,75321.0,Indonesia,85250659773.0,,,0.1394088,117.4555461,https://maps.google.com/?cid=0x0:0xd75ca8bc751ae411,
cafe,Pujasera,Pujasera The Gading,"4FGM+P62, Tj. Laut, Kec. Bontang Sel., Kota Bontang, Kalimantan Timur","Kota Bontang, Kalimantan Timur",KALIMANTAN TIMUR,,Indonesia,,,,0.12677,117.4830251,https://maps.google.com/?cid=0x0:0x190616eefbc4fd6,
cafe,Kedai Kopi,KELUAR MAIN CAFE,"Jl. Dewi Sartika No.RT 17, Bontang Kuala, Kec. Bontang Utara, Kota Bontang, Kalimantan Timur 75311","Bontang Kuala, Kec. Bontang Utara, Kota Bontang",KALIMANTAN TIMUR,75311.0,Indonesia,85250088124.0,,,0.1400773,117.498131,https://maps.google.com/?cid=0x0:0x685d61805e8be002,
cafe,Kedai Kopi,Ngopi Coffee,"Halaman Cafe Planet Football, Jl. MH. Thamrin No.11, Kota Bontang, Kalimantan Timur 75311","Jl. MH. Thamrin No.11, Kota Bontang",KALIMANTAN TIMUR,75311.0,Indonesia,82157163586.0,,,0.1387948,117.489674,https://maps.google.com/?cid=0x0:0x304e02fa53a96894,
cafe,Kedai Kopi,The Bahagia Kaffee Haus,"Jl. Awang Long, Api-Api, Kec. Bontang Utara, Kota Bontang, Kalimantan Timur 75325","Api-Api, Kec. Bontang Utara, Kota Bontang",KALIMANTAN TIMUR,75325.0,Indonesia,89527698529.0,,,0.1357512,117.4883049,https://maps.google.com/?cid=0x0:0xd1612dd1720ac919,
cafe,Kedai Kopi,UTTARA Fine Eats and Coffee,"Api-Api, Kec. Bontang Utara, Kota Bontang, Kalimantan Timur 75313","Kec. Bontang Utara, Kota Bontang",KALIMANTAN TIMUR,75313.0,Indonesia,82148252211.0,,,0.1305124,117.4936688,https://maps.google.com/?cid=0x0:0x2070309083fc0aa7,
cafe,Kedai Kopi,LOG 21 Coffee Manual Brew,"5F99+VG6, Lok Tuan, Kec. Bontang Utara, Kota Bontang, Kalimantan Timur 75321","Lok Tuan, Kec. Bontang Utara, Kota Bontang",KALIMANTAN TIMUR,75321.0,Indonesia,5483501450.0,,,0.1696555,117.4687781,https://maps.google.com/?cid=0x0:0xb6bd17311b4e1fe1,
cafe,Kedai Kopi,IMAJI kopi 0.2,"Jl. HM Ardans No.48, Satimpo, Kec. Bontang Sel., Kota Bontang, Kalimantan Timur 75325","Satimpo, Kec. Bontang Sel., Kota Bontang",KALIMANTAN TIMUR,75325.0,Indonesia,8115411471.0,,,0.1277558,117.4776611,https://maps.google.com/?cid=0x0:0x1e7a4f7f2e162e33,
cafe,Kafe,Sengkang Kopi,"Jl. RE, Lok Tuan, Bontang Utara, Bontang City, East Kalimantan 75321","Lok Tuan, Bontang Utara, Bontang City",KALIMANTAN TIMUR,75321.0,Indonesia,81255008027.0,,,0.1707239,117.4793047,https://maps.google.com/?cid=0x0:0x4ee09a37ac5b6e2,
cafe,Kedai Kopi,KEDAI KOPI KAU,"5F8M+QPC, Jl. RE. Martadinata, RW.RT:26 NO:29, Lok Tuan, Kec. Bontang Utara, Kota Bontang, Kalimantan Timur 75321","Jl. RE. Martadinata, RW.RT:26 NO:29, Lok Tuan, Kec. Bontang Utara, Kota Bontang",KALIMANTAN TIMUR,75321.0,Indonesia,81256262225.0,,,0.1669451,117.4842802,https://maps.google.com/?cid=0x0:0x17229a48da4f1fea,
cafe,Tujuan Wisata,"Selambai, Lok Tuan, Bontang","5F7M+6FP, Lok Tuan, Kec. Bontang Utara, Kota Bontang, Kalimantan Timur 75321","Lok Tuan, Kec. Bontang Utara, Kota Bontang",KALIMANTAN TIMUR,75321.0,Indonesia,,,,0.1630997,117.4836964,https://maps.google.com/?cid=0x0:0x4d1ad0b598b3a878,
cafe,Kedai Kopi,Taste coffee,"Jl. Pattimura, Api-Api, Kec. Bontang Utara, Kota Bontang, Kalimantan Timur 75313","Api-Api, Kec. Bontang Utara, Kota Bontang",KALIMANTAN TIMUR,75313.0,Indonesia,811532600.0,,,0.1315327,117.4997433,https://maps.google.com/?cid=0x0:0xe4c54530a3c36707,
cafe,Indonesia,Cafe SingaPore Bontang,"Jl, Tj. Laut Indah, Kec. Bontang Sel., Kota Bontang, Kalimantan Timur 75325","Tj. Laut Indah, Kec. Bontang Sel., Kota Bontang",KALIMANTAN TIMUR,75325.0,Indonesia,,,,0.1113753,117.4952314,https://maps.google.com/?cid=0x0:0xbefeedde52770320,
cafe,cafe,Kalimantan Timur 75324,"Kec. Bontang Sel., Kota Bontang, Kalimantan Timur","Kota Bontang, Kalimantan Timur",KALIMANTAN TIMUR,,Indonesia,,,,0.1495015,117.2911248,https://maps.google.com/?cid=0x0:0x38f97e9610099fa,
cafe,Kedai Kopi,Foresthree Coffee  Kitchen Bontang,"Jl. Pattimura No.148, RT.41, Api-Api, Kec. Bontang Utara, Kota Bontang, Kalimantan Timur 75311","RT.41, Api-Api, Kec. Bontang Utara, Kota Bontang",KALIMANTAN TIMUR,75311.0,Indonesia,82321689999.0,,,0.130281,117.495275,https://maps.google.com/?cid=0x0:0x961f77a42340f67c,
cafe,Dapur Umum,Caferesto keluarga rachmat,"4F6M+5M4, Berbas Pantai, Kec. Bontang Sel., Kota Bontang, Kalimantan Timur 75322","Berbas Pantai, Kec. Bontang Sel., Kota Bontang",KALIMANTAN TIMUR,75322.0,Indonesia,81350145544.0,,,0.1103786,117.4842064,https://maps.google.com/?cid=0x0:0x6844088ff312e345,
cafe,Kedai Kopi,Bhatara Suku,"Satimpo, Kec. Bontang Sel., Kota Bontang, Kalimantan Timur 75321","Kec. Bontang Sel., Kota Bontang",KALIMANTAN TIMUR,75321.0,Indonesia,,,,0.1009163,117.4368228,https://maps.google.com/?cid=0x0:0xa5b456d855062828,
cafe,Kedai Kopi,KELUAR MAIN CAFE,"Jl. Dewi Sartika No.RT 17, Bontang Kuala, Kec. Bontang Utara, Kota Bontang, Kalimantan Timur 75311","Bontang Kuala, Kec. Bontang Utara, Kota Bontang",KALIMANTAN TIMUR,75311.0,Indonesia,85250088124.0,,,0.1400773,117.498131,https://maps.google.com/?cid=0x0:0x685d61805e8be002,
cafe,Restoran,Heartbond Coffee and Eatery,"Jl. Simon Tampubolon, HOP 4/147, Gn. Telihan, Kec. Bontang Bar., Kota Bontang, Kalimantan Timur 75383","HOP 4/147, Gn. Telihan, Kec. Bontang Bar., Kota Bontang",KALIMANTAN TIMUR,75383.0,Indonesia,81346418881.0,,,0.1304211,117.4642577,https://maps.google.com/?cid=0x0:0x5a495ee6f282fa7f,
cafe,Kafe,Klikcafe Bontang,"4FMQ+2PR, Jl. Jend. Achmad Yani, Api-Api, Kec. Bontang Sel., Kota Bontang, Kalimantan Timur 75325","Jl. Jend. Achmad Yani, Api-Api, Kec. Bontang Sel., Kota Bontang",KALIMANTAN TIMUR,75325.0,Indonesia,85228421999.0,,,0.1326153,117.4892766,https://maps.google.com/?cid=0x0:0xe5242ae6c1f19a75,
cafe,Restoran Amerika,Fore Coffee - Citimall Bontang,"4FCM+2R5, Tj. Laut, Kec. Bontang Sel., Kota Bontang, Kalimantan Timur 75325","Tj. Laut, Kec. Bontang Sel., Kota Bontang",KALIMANTAN TIMUR,75325.0,Indonesia,85389390965.0,,,0.1200059,117.484591,https://maps.google.com/?cid=0x0:0x34f9f04e2da1b389,
cafe,Kedai Kopi,Liter Coffee,"Jl. Jend. Achmad Yani, Api-Api, Kec. Bontang Utara, Kota Bontang, Kalimantan Timur 75313","Api-Api, Kec. Bontang Utara, Kota Bontang",KALIMANTAN TIMUR,75313.0,Indonesia,81255511995.0,,,0.1322088,117.4897633,https://maps.google.com/?cid=0x0:0x9a6e90fecf857cc3,
cafe,Komplek perumahan,Pujasera Camp 2000 Pama Bontang,"573W+Q37, Suka Damai, Kec. Tlk. Pandan, Kabupaten Kutai Timur, Kalimantan Timur 75324","Suka Damai, Kec. Tlk. Pandan, Kabupaten Kutai Timur",KALIMANTAN TIMUR,75324.0,Indonesia,85752876346.0,,,0.1544022,117.2951685,https://maps.google.com/?cid=0x0:0xf572cb29e2e734d7,
cafe,Tempat Cukur Rambut,HOME Barber Cafe  Distro,"4FP6+6FJ, Jl. Sumatera, Kanaan, Kec. Bontang Bar., Kota Bontang, Kalimantan Timur 75321","Jl. Sumatera, Kanaan, Kec. Bontang Bar., Kota Bontang",KALIMANTAN TIMUR,75321.0,Indonesia,85246009420.0,,,0.1355922,117.4611296,https://maps.google.com/?cid=0x0:0xc537ff264f434622,
cafe,Kafe,D'CAFE,"Jl. Bhayangkara, Gn. Elai, Kec. Bontang Utara, Kota Bontang, Kalimantan Timur 75325","Gn. Elai, Kec. Bontang Utara, Kota Bontang",KALIMANTAN TIMUR,75325.0,Indonesia,82292829399.0,,,0.1329855,117.4773142,https://maps.google.com/?cid=0x0:0xf042cfca710a2859,
cafe,Kedai Kopi,SPACE CO-WORKING  CAFETARIA,"JL. Pangeran Suryanata RT. 11 No. 06 Kel, Bontang Baru, Kec. Bontang Utara, Kota Bontang, Kalimantan Timur 75311","Bontang Baru, Kec. Bontang Utara, Kota Bontang",KALIMANTAN TIMUR,75311.0,Indonesia,8115979998.0,,,0.1375774,117.4925861,https://maps.google.com/?cid=0x0:0xbc4832976610f37c,
cafe,Pujasera,Pujasera The Gading,"4FGM+P62, Tj. Laut, Kec. Bontang Sel., Kota Bontang, Kalimantan Timur","Kota Bontang, Kalimantan Timur",KALIMANTAN TIMUR,,Indonesia,,,,0.12677,117.4830251,https://maps.google.com/?cid=0x0:0x190616eefbc4fd6,
cafe,Kafe,Gamers Cafe 21,"4FFW+R9C, Tj. Laut Indah, Kec. Bontang Sel., Kota Bontang, Kalimantan Timur 75313","Tj. Laut Indah, Kec. Bontang Sel., Kota Bontang",KALIMANTAN TIMUR,75313.0,Indonesia,85348846886.0,,,0.1245636,117.4958957,https://maps.google.com/?cid=0x0:0xe8b5afa73ed89ebd,
cafe,Kedai Kopi,Brosta Coffee,"Jl. S. Parman No.17, Belimbing, Kec. Bontang Bar., Kota Bontang, Kalimantan Timur 75321","Belimbing, Kec. Bontang Bar., Kota Bontang",KALIMANTAN TIMUR,75321.0,Indonesia,85250659773.0,,,0.1394088,117.4555461,https://maps.google.com/?cid=0x0:0xd75ca8bc751ae411,
cafe,Kedai Kopi,UTTARA Fine Eats and Coffee,"Api-Api, Kec. Bontang Utara, Kota Bontang, Kalimantan Timur 75313","Kec. Bontang Utara, Kota Bontang",KALIMANTAN TIMUR,75313.0,Indonesia,82148252211.0,,,0.1305124,117.4936688,https://maps.google.com/?cid=0x0:0x2070309083fc0aa7,
cafe,Kafe,DOLOE'S,"Jl. Aip II KS Tubun, Bontang Kuala, Kec. Bontang Utara, Kota Bontang, Kalimantan Timur 75313","Bontang Kuala, Kec. Bontang Utara, Kota Bontang",KALIMANTAN TIMUR,75313.0,Indonesia,82299557104.0,,,0.1262821,117.4995391,https://maps.google.com/?cid=0x0:0x89d82fe868a9eca2,
cafe,Kedai Kopi,Cafe kahyangan,"Jl. HM Ardans No.15, RT.25, Satimpo, Kec. Bontang Sel., Kota Bontang, Kalimantan Timur 75324","RT.25, Satimpo, Kec. Bontang Sel., Kota Bontang",KALIMANTAN TIMUR,75324.0,Indonesia,81347387923.0,,,0.1280858,117.4787536,https://maps.google.com/?cid=0x0:0x528d722b2926546b,
cafe,Kafe,Distrik Eat,"4FHH+5RJ, Jl. HM Ardans, Pisangan, Kec. Bontang Sel., Kota Bontang, Kalimantan Timur 75325","Jl. HM Ardans, Pisangan, Kec. Bontang Sel., Kota Bontang",KALIMANTAN TIMUR,75325.0,Indonesia,8978829023.0,,,0.1279504,117.47953,https://maps.google.com/?cid=0x0:0x103ac4b3edbd0302,
cafe,Kafe,Num nums thaitea Bontang,"Jl. HM Ardans, Pisangan, Kec. Bontang Sel., Kota Bontang, Kalimantan Timur 75324","Pisangan, Kec. Bontang Sel., Kota Bontang",KALIMANTAN TIMUR,75324.0,Indonesia,81318237473.0,,,0.1272287,117.4742598,https://maps.google.com/?cid=0x0:0x3cb7ac115b18243e,
cafe,Kafe,DADU Cafe  Resto,"Jl. Jend. Achmad Yani, Tj. Laut, Kec. Bontang Sel., Kota Bontang, Kalimantan Timur 75324","Tj. Laut, Kec. Bontang Sel., Kota Bontang",KALIMANTAN TIMUR,75324.0,Indonesia,,,,0.128896,117.4845118,https://maps.google.com/?cid=0x0:0x1d6e466d1afd0ace,
cafe,Kafe,Batavia Cafe,"4GP5+4C6, Bontang Kuala, Kec. Bontang Utara, Kota Bontang, Kalimantan Timur 75313","Bontang Kuala, Kec. Bontang Utara, Kota Bontang",KALIMANTAN TIMUR,75313.0,Indonesia,8115812939.0,,,0.135291,117.5085274,https://maps.google.com/?cid=0x0:0x44d6b431b422ce29,
cafe,Kafe,INSTAN KOPI DAN SAKHIS,"Jl. Bekapai PC 5 No.108A, Satimpo, Kec. Bontang Sel., Kota Bontang, Kalimantan Timur 75324","Satimpo, Kec. Bontang Sel., Kota Bontang",KALIMANTAN TIMUR,75324.0,Indonesia,,,,0.1219415,117.4654708,https://maps.google.com/?cid=0x0:0xc93fb11a1fbbbf85,
cafe,Toko,Toko Kembar,"3F46+J4F, Unnamed Road, Bontang Lestari, Bontang Selatan, Bontang City, East Kalimantan 75324","Unnamed Road, Bontang Lestari, Bontang Selatan, Bontang City",KALIMANTAN TIMUR,75324.0,Indonesia,,,,0.0565517,117.4602915,https://maps.google.com/?cid=0x0:0xd8224ef95eef0841,
cafe,Kedai Kopi,Selaras Homey Coffee,"Jalan Sorong, Satimpo, Kec. Bontang Sel., Kota Bontang, Kalimantan Timur 75324","Satimpo, Kec. Bontang Sel., Kota Bontang",KALIMANTAN TIMUR,75324.0,Indonesia,81232303822.0,,,0.1127147,117.4485458,https://maps.google.com/?cid=0x0:0x9209cc5e79823128,
cafe,Kedai Kopi,IMAJI kopi 0.2,"Jl. HM Ardans No.48, Satimpo, Kec. Bontang Sel., Kota Bontang, Kalimantan Timur 75325","Satimpo, Kec. Bontang Sel., Kota Bontang",KALIMANTAN TIMUR,75325.0,Indonesia,8115411471.0,,,0.1277558,117.4776611,https://maps.google.com/?cid=0x0:0x1e7a4f7f2e162e33,
cafe,cafe,Kalimantan Timur 75325,Kalimantan Timur,Kalimantan Timur,KALIMANTAN TIMUR,,Indonesia,,,,0.0830107,117.2440957,https://maps.google.com/?cid=0x0:0x26084c6c6cec55ca,
cafe,Indonesia,Cafe SingaPore Bontang,"Jl, Tj. Laut Indah, Kec. Bontang Sel., Kota Bontang, Kalimantan Timur 75325","Tj. Laut Indah, Kec. Bontang Sel., Kota Bontang",KALIMANTAN TIMUR,75325.0,Indonesia,,,,0.1113753,117.4952314,https://maps.google.com/?cid=0x0:0xbefeedde52770320,
cafe,Kafe,Kafe Kapal Bontang Kuala,"4GMC+GV9, Bontang Kuala, Kec. Bontang Utara, Kota Bontang, Kalimantan Timur 75325","Bontang Kuala, Kec. Bontang Utara, Kota Bontang",KALIMANTAN TIMUR,75325.0,Indonesia,81350030033.0,,,0.1337999,117.5222473,https://maps.google.com/?cid=0x0:0x42aa2b7c89c8d198,
cafe,Kafe,New Cafe Samudra Bontang Kuala,"4GPC+25W, Unnamed Road,, Kota Bontang, Kalimantan Timur 75325","Unnamed Road,, Kota Bontang",KALIMANTAN TIMUR,75325.0,Indonesia,,,,0.1351014,117.5204455,https://maps.google.com/?cid=0x0:0x883c0d7ff8443acd,
cafe,Kafe,Klikcafe Bontang,"4FMQ+2PR, Jl. Jend. Achmad Yani, Api-Api, Kec. Bontang Sel., Kota Bontang, Kalimantan Timur 75325","Jl. Jend. Achmad Yani, Api-Api, Kec. Bontang Sel., Kota Bontang",KALIMANTAN TIMUR,75325.0,Indonesia,85228421999.0,,,0.1326153,117.4892766,https://maps.google.com/?cid=0x0:0xe5242ae6c1f19a75,
cafe,Kafe,D'CAFE,"Jl. Bhayangkara, Gn. Elai, Kec. Bontang Utara, Kota Bontang, Kalimantan Timur 75325","Gn. Elai, Kec. Bontang Utara, Kota Bontang",KALIMANTAN TIMUR,75325.0,Indonesia,82292829399.0,,,0.1329855,117.4773142,https://maps.google.com/?cid=0x0:0xf042cfca710a2859,
cafe,Kedai Kopi,Liter Coffee,"Jl. Jend. Achmad Yani, Api-Api, Kec. Bontang Utara, Kota Bontang, Kalimantan Timur 75313","Api-Api, Kec. Bontang Utara, Kota Bontang",KALIMANTAN TIMUR,75313.0,Indonesia,81255511995.0,,,0.1322088,117.4897633,https://maps.google.com/?cid=0x0:0x9a6e90fecf857cc3,
cafe,Kedai Kopi,The Bahagia Kaffee Haus,"Jl. Awang Long, Api-Api, Kec. Bontang Utara, Kota Bontang, Kalimantan Timur 75325","Api-Api, Kec. Bontang Utara, Kota Bontang",KALIMANTAN TIMUR,75325.0,Indonesia,89527698529.0,,,0.1357512,117.4883049,https://maps.google.com/?cid=0x0:0xd1612dd1720ac919,
cafe,Kedai Kopi,UTTARA Fine Eats and Coffee,"Api-Api, Kec. Bontang Utara, Kota Bontang, Kalimantan Timur 75313","Kec. Bontang Utara, Kota Bontang",KALIMANTAN TIMUR,75313.0,Indonesia,82148252211.0,,,0.1305124,117.4936688,https://maps.google.com/?cid=0x0:0x2070309083fc0aa7,
cafe,Restoran,Heartbond Coffee and Eatery,"Jl. Simon Tampubolon, HOP 4/147, Gn. Telihan, Kec. Bontang Bar., Kota Bontang, Kalimantan Timur 75383","HOP 4/147, Gn. Telihan, Kec. Bontang Bar., Kota Bontang",KALIMANTAN TIMUR,75383.0,Indonesia,81346418881.0,,,0.1304211,117.4642577,https://maps.google.com/?cid=0x0:0x5a495ee6f282fa7f,
cafe,Kedai Kopi,Classical Cafe,"Jl. Ir. H. Juanda, Tj. Laut, Kec. Bontang Sel., Kota Bontang, Kalimantan Timur 75325","Tj. Laut, Kec. Bontang Sel., Kota Bontang",KALIMANTAN TIMUR,75325.0,Indonesia,81354683839.0,,,0.1256966,117.4847171,https://maps.google.com/?cid=0x0:0x7687caaf591a06cc,
cafe,Kafe,Malaya Kopitiam,"Jl. Jend. Achmad Yani No.26, Api-Api, Kec. Bontang Utara, Kota Bontang, Kalimantan Timur 75325","Api-Api, Kec. Bontang Utara, Kota Bontang",KALIMANTAN TIMUR,75325.0,Indonesia,81384422881.0,,,0.1324694,117.4912164,https://maps.google.com/?cid=0x0:0xe93ce2e2b7d338ce,
cafe,Restoran Amerika,Fore Coffee - Citimall Bontang,"4FCM+2R5, Tj. Laut, Kec. Bontang Sel., Kota Bontang, Kalimantan Timur 75325","Tj. Laut, Kec. Bontang Sel., Kota Bontang",KALIMANTAN TIMUR,75325.0,Indonesia,85389390965.0,,,0.1200059,117.484591,https://maps.google.com/?cid=0x0:0x34f9f04e2da1b389,
cafe,Kafe,Distrik Eat,"4FHH+5RJ, Jl. HM Ardans, Pisangan, Kec. Bontang Sel., Kota Bontang, Kalimantan Timur 75325","Jl. HM Ardans, Pisangan, Kec. Bontang Sel., Kota Bontang",KALIMANTAN TIMUR,75325.0,Indonesia,8978829023.0,,,0.1279504,117.47953,https://maps.google.com/?cid=0x0:0x103ac4b3edbd0302,
cafe,Restoran,TERRA Dining,"Jl. Awang Long No.53c, RT.09, Bontang Baru, Kec. Bontang Utara, Kota Bontang, Kalimantan Timur 75325","RT.09, Bontang Baru, Kec. Bontang Utara, Kota Bontang",KALIMANTAN TIMUR,75325.0,Indonesia,82150562200.0,,,0.1372264,117.4987729,https://maps.google.com/?cid=0x0:0x5fbd61d4b261d2b0,
cafe,Kafe,Batavia Cafe,"4GP5+4C6, Bontang Kuala, Kec. Bontang Utara, Kota Bontang, Kalimantan Timur 75313","Bontang Kuala, Kec. Bontang Utara, Kota Bontang",KALIMANTAN TIMUR,75313.0,Indonesia,8115812939.0,,,0.135291,117.5085274,https://maps.google.com/?cid=0x0:0x44d6b431b422ce29,
cafe,Kedai Kopi,Cafe D'Surya,"4FCW+GJF, Tj. Laut Indah, Kec. Bontang Sel., Kota Bontang, Kalimantan Timur 75325","Tj. Laut Indah, Kec. Bontang Sel., Kota Bontang",KALIMANTAN TIMUR,75325.0,Indonesia,,,,0.1213007,117.4965441,https://maps.google.com/?cid=0x0:0x8e00858fb9dafb19,
cafe,Kedai Kopi,SPACE CO-WORKING  CAFETARIA,"JL. Pangeran Suryanata RT. 11 No. 06 Kel, Bontang Baru, Kec. Bontang Utara, Kota Bontang, Kalimantan Timur 75311","Bontang Baru, Kec. Bontang Utara, Kota Bontang",KALIMANTAN TIMUR,75311.0,Indonesia,8115979998.0,,,0.1375774,117.4925861,https://maps.google.com/?cid=0x0:0xbc4832976610f37c,
cafe,Kafe,Jimbaran Cafe,"Jl. BATU SAHAS RT.20 KELURAHAN BONTANG KUALA, Kuala, Kec. Bontang Utara, Kota Bontang, Kalimantan Timur 75312","Kuala, Kec. Bontang Utara, Kota Bontang",KALIMANTAN TIMUR,75312.0,Indonesia,811599781.0,,,0.1343596,117.5219433,https://maps.google.com/?cid=0x0:0x3641fd9743e72596,
cafe,Kedai Kopi,IMAJI kopi 0.2,"Jl. HM Ardans No.48, Satimpo, Kec. Bontang Sel., Kota Bontang, Kalimantan Timur 75325","Satimpo, Kec. Bontang Sel., Kota Bontang",KALIMANTAN TIMUR,75325.0,Indonesia,8115411471.0,,,0.1277558,117.4776611,https://maps.google.com/?cid=0x0:0x1e7a4f7f2e162e33,
cafe,Kedai Kopi,Foresthree Coffee  Kitchen Bontang,"Jl. Pattimura No.148, RT.41, Api-Api, Kec. Bontang Utara, Kota Bontang, Kalimantan Timur 75311","RT.41, Api-Api, Kec. Bontang Utara, Kota Bontang",KALIMANTAN TIMUR,75311.0,Indonesia,82321689999.0,,,0.130281,117.495275,https://maps.google.com/?cid=0x0:0x961f77a42340f67c,
cafe,Kedai Kopi,Brosta Coffee,"Jl. S. Parman No.17, Belimbing, Kec. Bontang Bar., Kota Bontang, Kalimantan Timur 75321","Belimbing, Kec. Bontang Bar., Kota Bontang",KALIMANTAN TIMUR,75321.0,Indonesia,85250659773.0,,,0.1394088,117.4555461,https://maps.google.com/?cid=0x0:0xd75ca8bc751ae411,
cafe,Dapur Umum,Caferesto keluarga rachmat,"4F6M+5M4, Berbas Pantai, Kec. Bontang Sel., Kota Bontang, Kalimantan Timur 75322","Berbas Pantai, Kec. Bontang Sel., Kota Bontang",KALIMANTAN TIMUR,75322.0,Indonesia,81350145544.0,,,0.1103786,117.4842064,https://maps.google.com/?cid=0x0:0x6844088ff312e345,
cafe,Tempat Cukur Rambut,HOME Barber Cafe  Distro,"4FP6+6FJ, Jl. Sumatera, Kanaan, Kec. Bontang Bar., Kota Bontang, Kalimantan Timur 75321","Jl. Sumatera, Kanaan, Kec. Bontang Bar., Kota Bontang",KALIMANTAN TIMUR,75321.0,Indonesia,85246009420.0,,,0.1355922,117.4611296,https://maps.google.com/?cid=0x0:0xc537ff264f434622,
cafe,Kafe,Garasi ChanZa,"jl. Durian2, Gg.Brokoli11, Rt.20 No.48B Kel.Gn Elai Kec. utara., Satimpo, Kec. Bontang Sel., Kota Bontang, Kalimantan Timur 75325","Gg.Brokoli11, Rt.20 No.48B Kel.Gn Elai Kec. utara., Satimpo, Kec. Bontang Sel., Kota Bontang",KALIMANTAN TIMUR,75325.0,Indonesia,85391389198.0,,,0.1303384,117.4731327,https://maps.google.com/?cid=0x0:0x1176bd8602f7dc19,
cafe,Kafe,Happiness cafe,"4FHH+6HJ, Jl. HM Ardans, Satimpo, Kec. Bontang Sel., Kota Bontang, Kalimantan Timur 75325","Jl. HM Ardans, Satimpo, Kec. Bontang Sel., Kota Bontang",KALIMANTAN TIMUR,75325.0,Indonesia,,,,0.1280826,117.4789116,https://maps.google.com/?cid=0x0:0x82e35d6b933f68af,
cafe,Kafe,Fress N CAFE,"4F8V+FRC, Jl. Sultan Syahrir, Tj. Laut Indah, Kec. Bontang Sel., Kota Bontang, Kalimantan Timur 75325","Jl. Sultan Syahrir, Tj. Laut Indah, Kec. Bontang Sel., Kota Bontang",KALIMANTAN TIMUR,75325.0,Indonesia,,,,0.1161948,117.494519,https://maps.google.com/?cid=0x0:0x6137e7466f7029b,
cafe,cafe,Kalimantan Timur 75311,"Gn. Elai, Kec. Bontang Utara, Kota Bontang, Kalimantan Timur","Kota Bontang, Kalimantan Timur",KALIMANTAN TIMUR,,Indonesia,,,,0.1444417,117.4887629,https://maps.google.com/?cid=0x0:0x33198cc450f8143a,
cafe,Kedai Kopi,KELUAR MAIN CAFE,"Jl. Dewi Sartika No.RT 17, Bontang Kuala, Kec. Bontang Utara, Kota Bontang, Kalimantan Timur 75311","Bontang Kuala, Kec. Bontang Utara, Kota Bontang",KALIMANTAN TIMUR,75311.0,Indonesia,85250088124.0,,,0.1400773,117.498131,https://maps.google.com/?cid=0x0:0x685d61805e8be002,
cafe,Kafe,D'CAFE,"Jl. Bhayangkara, Gn. Elai, Kec. Bontang Utara, Kota Bontang, Kalimantan Timur 75325","Gn. Elai, Kec. Bontang Utara, Kota Bontang",KALIMANTAN TIMUR,75325.0,Indonesia,82292829399.0,,,0.1329855,117.4773142,https://maps.google.com/?cid=0x0:0xf042cfca710a2859,
cafe,Kedai Kopi,Ngopi Coffee,"Halaman Cafe Planet Football, Jl. MH. Thamrin No.11, Kota Bontang, Kalimantan Timur 75311","Jl. MH. Thamrin No.11, Kota Bontang",KALIMANTAN TIMUR,75311.0,Indonesia,82157163586.0,,,0.1387948,117.489674,https://maps.google.com/?cid=0x0:0x304e02fa53a96894,
cafe,Kafe,Klikcafe Bontang,"4FMQ+2PR, Jl. Jend. Achmad Yani, Api-Api, Kec. Bontang Sel., Kota Bontang, Kalimantan Timur 75325","Jl. Jend. Achmad Yani, Api-Api, Kec. Bontang Sel., Kota Bontang",KALIMANTAN TIMUR,75325.0,Indonesia,85228421999.0,,,0.1326153,117.4892766,https://maps.google.com/?cid=0x0:0xe5242ae6c1f19a75,
cafe,Kedai Kopi,PEOPLE  COFFEE,"Kodim, Jl. Awang Long, Bontang Baru, Bontang Utara, Bontang City, East Kalimantan 75313","Jl. Awang Long, Bontang Baru, Bontang Utara, Bontang City",KALIMANTAN TIMUR,75313.0,Indonesia,81250391043.0,,,0.1387322,117.4914926,https://maps.google.com/?cid=0x0:0x51df805d4bf78eca,
cafe,Kedai Kopi,GOERNA Coffee Lounge,"Jl. Dewi Sartika, Bontang Baru, Kec. Bontang Utara, Kota Bontang, Kalimantan Timur 75313","Bontang Baru, Kec. Bontang Utara, Kota Bontang",KALIMANTAN TIMUR,75313.0,Indonesia,,,,0.140447,117.4957678,https://maps.google.com/?cid=0x0:0xdc6a015703cc696b,
cafe,Kafe,Kedai Hitam Putih Bontang (KHP),"no.43 75311, Jl. Awang Long, Bontang Baru, Kec. Bontang Utara, Kota Bontang, Kalimantan Timur 75313","Jl. Awang Long, Bontang Baru, Kec. Bontang Utara, Kota Bontang",KALIMANTAN TIMUR,75313.0,Indonesia,85222115821.0,,,0.1346018,117.499504,https://maps.google.com/?cid=0x0:0x7a53de386ca37e6b,
cafe,Restoran,TERRA Dining,"Jl. Awang Long No.53c, RT.09, Bontang Baru, Kec. Bontang Utara, Kota Bontang, Kalimantan Timur 75325","RT.09, Bontang Baru, Kec. Bontang Utara, Kota Bontang",KALIMANTAN TIMUR,75325.0,Indonesia,82150562200.0,,,0.1372264,117.4987729,https://maps.google.com/?cid=0x0:0x5fbd61d4b261d2b0,
cafe,Kedai Kopi,Liter Coffee,"Jl. Jend. Achmad Yani, Api-Api, Kec. Bontang Utara, Kota Bontang, Kalimantan Timur 75313","Api-Api, Kec. Bontang Utara, Kota Bontang",KALIMANTAN TIMUR,75313.0,Indonesia,81255511995.0,,,0.1322088,117.4897633,https://maps.google.com/?cid=0x0:0x9a6e90fecf857cc3,
cafe,Kafe,Batavia Cafe,"4GP5+4C6, Bontang Kuala, Kec. Bontang Utara, Kota Bontang, Kalimantan Timur 75313","Bontang Kuala, Kec. Bontang Utara, Kota Bontang",KALIMANTAN TIMUR,75313.0,Indonesia,8115812939.0,,,0.135291,117.5085274,https://maps.google.com/?cid=0x0:0x44d6b431b422ce29,
cafe,Kedai Kopi,Foresthree Coffee  Kitchen Bontang,"Jl. Pattimura No.148, RT.41, Api-Api, Kec. Bontang Utara, Kota Bontang, Kalimantan Timur 75311","RT.41, Api-Api, Kec. Bontang Utara, Kota Bontang",KALIMANTAN TIMUR,75311.0,Indonesia,82321689999.0,,,0.130281,117.495275,https://maps.google.com/?cid=0x0:0x961f77a42340f67c,
cafe,Kedai Kopi,Malabar Coffee,"Jl. P. Suryanata No. 29, Bontang Baru, Bontang, Kota Bontang, Kalimantan Timur 75313","Bontang Baru, Bontang, Kota Bontang",KALIMANTAN TIMUR,75313.0,Indonesia,54827967.0,,,0.1357669,117.4920439,https://maps.google.com/?cid=0x0:0xe45aa370172bf1fe,
cafe,Kedai Kopi,UTTARA Fine Eats and Coffee,"Api-Api, Kec. Bontang Utara, Kota Bontang, Kalimantan Timur 75313","Kec. Bontang Utara, Kota Bontang",KALIMANTAN TIMUR,75313.0,Indonesia,82148252211.0,,,0.1305124,117.4936688,https://maps.google.com/?cid=0x0:0x2070309083fc0aa7,
cafe,Sesuai untuk keluarga,MagSeven Steak  Grill,"Jl. MT. Haryono No.14, Api-Api, Kec. Bontang Utara, Kota Bontang, Kalimantan Timur 75325","Api-Api, Kec. Bontang Utara, Kota Bontang",KALIMANTAN TIMUR,75325.0,Indonesia,,,,0.1365916,117.4822105,https://maps.google.com/?cid=0x0:0x81df6a604c356be3,
cafe,Kedai Kopi,Warkop dopo,"Jl. RA Kartini, Bontang Baru, Kec. Bontang Utara, Kota Bontang, Kalimantan Timur 75325","Bontang Baru, Kec. Bontang Utara, Kota Bontang",KALIMANTAN TIMUR,75325.0,Indonesia,82352470992.0,,,0.1437926,117.4893391,https://maps.google.com/?cid=0x0:0x871fbf60d3d5eba1,
cafe,Kedai Kopi,Pesona Coffe,"4FVQ+7MM, Jl. MH. Thamrin, Bontang Baru, Kec. Bontang Utara, Kota Bontang, Kalimantan Timur 75325","Jl. MH. Thamrin, Bontang Baru, Kec. Bontang Utara, Kota Bontang",KALIMANTAN TIMUR,75325.0,Indonesia,82225615240.0,,,0.1432192,117.48918,https://maps.google.com/?cid=0x0:0x7c65aca1f2359784,
cafe,Kafe,New Cafe Samudra Bontang Kuala,"4GPC+25W, Unnamed Road,, Kota Bontang, Kalimantan Timur 75325","Unnamed Road,, Kota Bontang",KALIMANTAN TIMUR,75325.0,Indonesia,,,,0.1351014,117.5204455,https://maps.google.com/?cid=0x0:0x883c0d7ff8443acd,
cafe,Kedai Kopi,Efek Rumah Kopi,"Jl. Awang Long No.53, Bontang Baru, Kec. Bontang Utara, Kota Bontang, Kalimantan Timur 75325","Bontang Baru, Kec. Bontang Utara, Kota Bontang",KALIMANTAN TIMUR,75325.0,Indonesia,,,,0.138035,117.4987463,https://maps.google.com/?cid=0x0:0x5fcaedb6a3efb35e,
cafe,Kedai Kopi,Cafe kahyangan,"Jl. HM Ardans No.15, RT.25, Satimpo, Kec. Bontang Sel., Kota Bontang, Kalimantan Timur 75324","RT.25, Satimpo, Kec. Bontang Sel., Kota Bontang",KALIMANTAN TIMUR,75324.0,Indonesia,81347387923.0,,,0.1280858,117.4787536,https://maps.google.com/?cid=0x0:0x528d722b2926546b,
cafe,Kedai Kopi,MAAJU COFFEE SERVICE,"Samping JT, Jl. Cipto Mangunkusumo Jalan tembus SMK 1, Belimbing, Kec. Bontang Utara, Kota Bontang, Kalimantan Timur 75311","Jl. Cipto Mangunkusumo Jalan tembus SMK 1, Belimbing, Kec. Bontang Utara, Kota Bontang",KALIMANTAN TIMUR,75311.0,Indonesia,881082468989.0,,,0.1454525,117.4745515,https://maps.google.com/?cid=0x0:0xd8ecfe64b8c180cf,
cafe,Restoran,SINGGAH Coffee and Eatry,"Jl. Imam Bonjol, Satimpo, Kec. Bontang Utara, Kota Bontang, Kalimantan Timur 75325","Satimpo, Kec. Bontang Utara, Kota Bontang",KALIMANTAN TIMUR,75325.0,Indonesia,82154158451.0,,,0.1292809,117.4822335,https://maps.google.com/?cid=0x0:0x87cf7082e3b5ef0d,
cafe,Kafe,Kedai KPK BONTANG,"Jl. Jend. Achmad Yani No.23, Api-Api, Kec. Bontang Utara, Kota Bontang, Kalimantan Timur 75325","Api-Api, Kec. Bontang Utara, Kota Bontang",KALIMANTAN TIMUR,75325.0,Indonesia,81253388477.0,,,0.1312134,117.4856943,https://maps.google.com/?cid=0x0:0xfb65b7599c1508b0,
cafe,Kafe,Smile Cafe,"4FJP+GF7, Api-Api, Kec. Bontang Utara, Kota Bontang, Kalimantan Timur 75313","Api-Api, Kec. Bontang Utara, Kota Bontang",KALIMANTAN TIMUR,75313.0,Indonesia,81333337347.0,,,0.131291,117.4861578,https://maps.google.com/?cid=0x0:0xbb7a1fc4832f9992,
cafe,Kedai Kopi,KOPIESTIQOMAH,"Jl. Jend. Achmad Yani No.6, Api-Api, Kec. Bontang Utara, Kota Bontang, Kalimantan Timur 75311","Api-Api, Kec. Bontang Utara, Kota Bontang",KALIMANTAN TIMUR,75311.0,Indonesia,8115555967.0,,,0.1287614,117.4847648,https://maps.google.com/?cid=0x0:0x4faee2479f509f57,
cafe,Kedai Kopi,The Bahagia Kaffee Haus,"Jl. Awang Long, Api-Api, Kec. Bontang Utara, Kota Bontang, Kalimantan Timur 75325","Api-Api, Kec. Bontang Utara, Kota Bontang",KALIMANTAN TIMUR,75325.0,Indonesia,89527698529.0,,,0.1357512,117.4883049,https://maps.google.com/?cid=0x0:0xd1612dd1720ac919,
cafe,Kedai Kopi,Taste coffee,"Jl. Pattimura, Api-Api, Kec. Bontang Utara, Kota Bontang, Kalimantan Timur 75313","Api-Api, Kec. Bontang Utara, Kota Bontang",KALIMANTAN TIMUR,75313.0,Indonesia,811532600.0,,,0.1315327,117.4997433,https://maps.google.com/?cid=0x0:0xe4c54530a3c36707,
cafe,Restoran,Heartbond Coffee and Eatery,"Jl. Simon Tampubolon, HOP 4/147, Gn. Telihan, Kec. Bontang Bar., Kota Bontang, Kalimantan Timur 75383","HOP 4/147, Gn. Telihan, Kec. Bontang Bar., Kota Bontang",KALIMANTAN TIMUR,75383.0,Indonesia,81346418881.0,,,0.1304211,117.4642577,https://maps.google.com/?cid=0x0:0x5a495ee6f282fa7f,
cafe,cafe,Kalimantan Timur 75312,"Kec. Tlk. Pandan, Kabupaten Kutai Timur, Kalimantan Timur","Kabupaten Kutai Timur, Kalimantan Timur",KALIMANTAN TIMUR,,Indonesia,,,,0.2740898,117.4908738,https://maps.google.com/?cid=0x0:0x66ae207830c2242a,
cafe,Kafe,Jimbaran Cafe,"Jl. BATU SAHAS RT.20 KELURAHAN BONTANG KUALA, Kuala, Kec. Bontang Utara, Kota Bontang, Kalimantan Timur 75312","Kuala, Kec. Bontang Utara, Kota Bontang",KALIMANTAN TIMUR,75312.0,Indonesia,811599781.0,,,0.1343596,117.5219433,https://maps.google.com/?cid=0x0:0x3641fd9743e72596,
cafe,Kafe,D'CAFE,"Jl. Bhayangkara, Gn. Elai, Kec. Bontang Utara, Kota Bontang, Kalimantan Timur 75325","Gn. Elai, Kec. Bontang Utara, Kota Bontang",KALIMANTAN TIMUR,75325.0,Indonesia,82292829399.0,,,0.1329855,117.4773142,https://maps.google.com/?cid=0x0:0xf042cfca710a2859,
cafe,Kedai Kopi,KELUAR MAIN CAFE,"Jl. Dewi Sartika No.RT 17, Bontang Kuala, Kec. Bontang Utara, Kota Bontang, Kalimantan Timur 75311","Bontang Kuala, Kec. Bontang Utara, Kota Bontang",KALIMANTAN TIMUR,75311.0,Indonesia,85250088124.0,,,0.1400773,117.498131,https://maps.google.com/?cid=0x0:0x685d61805e8be002,
cafe,Restoran,TERRA Dining,"Jl. Awang Long No.53c, RT.09, Bontang Baru, Kec. Bontang Utara, Kota Bontang, Kalimantan Timur 75325","RT.09, Bontang Baru, Kec. Bontang Utara, Kota Bontang",KALIMANTAN TIMUR,75325.0,Indonesia,82150562200.0,,,0.1372264,117.4987729,https://maps.google.com/?cid=0x0:0x5fbd61d4b261d2b0,
cafe,Kedai Kopi,ANALOG KAFEIN,"Taman Posyandu Hop IV, Jl. Sungai Serayu, Gn. Elai, Kec. Bontang Utara, Kota Bontang, Kalimantan Timur 75325","Jl. Sungai Serayu, Gn. Elai, Kec. Bontang Utara, Kota Bontang",KALIMANTAN TIMUR,75325.0,Indonesia,82155203258.0,,,0.133646,117.4630582,https://maps.google.com/?cid=0x0:0xfc270d217352c80a,
cafe,Kafe,Kangen Ngopi Bontang,"Jl. Piere Tandean No.28, Kec. Bontang Utara, Kota Bontang, Kalimantan Timur 75325","Kec. Bontang Utara, Kota Bontang",KALIMANTAN TIMUR,75325.0,Indonesia,,,,0.1341584,117.503975,https://maps.google.com/?cid=0x0:0x5f7c403182b6a37d,
cafe,Kedai Kopi,PEOPLE  COFFEE,"Kodim, Jl. Awang Long, Bontang Baru, Bontang Utara, Bontang City, East Kalimantan 75313","Jl. Awang Long, Bontang Baru, Bontang Utara, Bontang City",KALIMANTAN TIMUR,75313.0,Indonesia,81250391043.0,,,0.1387322,117.4914926,https://maps.google.com/?cid=0x0:0x51df805d4bf78eca,
cafe,Kedai Kopi,GOERNA Coffee Lounge,"Jl. Dewi Sartika, Bontang Baru, Kec. Bontang Utara, Kota Bontang, Kalimantan Timur 75313","Bontang Baru, Kec. Bontang Utara, Kota Bontang",KALIMANTAN TIMUR,75313.0,Indonesia,,,,0.140447,117.4957678,https://maps.google.com/?cid=0x0:0xdc6a015703cc696b,
cafe,Kedai Kopi,Etnisch Coffee,"Jl. Parikesit, Bontang Baru, Kec. Bontang Utara, Kota Bontang, Kalimantan Timur 75231","Bontang Baru, Kec. Bontang Utara, Kota Bontang",KALIMANTAN TIMUR,75231.0,Indonesia,81265945844.0,,,0.1374378,117.4936701,https://maps.google.com/?cid=0x0:0xc5eb49f28d17419b,
cafe,Kedai Kopi,Kafe Ngopi Mrene,"Jl. Brigjen Katamso No.12, Belimbing, Kec. Bontang Bar., Kota Bontang, Kalimantan Timur 75313","Belimbing, Kec. Bontang Bar., Kota Bontang",KALIMANTAN TIMUR,75313.0,Indonesia,81345942131.0,,,0.1359,117.4695143,https://maps.google.com/?cid=0x0:0xe3ea0ef49f7cff25,
cafe,Kedai Kopi,Ngopi Coffee,"Halaman Cafe Planet Football, Jl. MH. Thamrin No.11, Kota Bontang, Kalimantan Timur 75311","Jl. MH. Thamrin No.11, Kota Bontang",KALIMANTAN TIMUR,75311.0,Indonesia,82157163586.0,,,0.1387948,117.489674,https://maps.google.com/?cid=0x0:0x304e02fa53a96894,
cafe,Kedai Kopi,Malabar Coffee,"Jl. P. Suryanata No. 29, Bontang Baru, Bontang, Kota Bontang, Kalimantan Timur 75313","Bontang Baru, Bontang, Kota Bontang",KALIMANTAN TIMUR,75313.0,Indonesia,54827967.0,,,0.1357669,117.4920439,https://maps.google.com/?cid=0x0:0xe45aa370172bf1fe,
cafe,Kafe,Kedai Hitam Putih Bontang (KHP),"no.43 75311, Jl. Awang Long, Bontang Baru, Kec. Bontang Utara, Kota Bontang, Kalimantan Timur 75313","Jl. Awang Long, Bontang Baru, Kec. Bontang Utara, Kota Bontang",KALIMANTAN TIMUR,75313.0,Indonesia,85222115821.0,,,0.1346018,117.499504,https://maps.google.com/?cid=0x0:0x7a53de386ca37e6b,
cafe,Kafe,Klikcafe Bontang,"4FMQ+2PR, Jl. Jend. Achmad Yani, Api-Api, Kec. Bontang Sel., Kota Bontang, Kalimantan Timur 75325","Jl. Jend. Achmad Yani, Api-Api, Kec. Bontang Sel., Kota Bontang",KALIMANTAN TIMUR,75325.0,Indonesia,85228421999.0,,,0.1326153,117.4892766,https://maps.google.com/?cid=0x0:0xe5242ae6c1f19a75,
cafe,Kafe,Cafe Mutiara,75313,,KALIMANTAN TIMUR,,Indonesia,,,,0.1415238,117.5183144,https://maps.google.com/?cid=0x0:0xf1acb64a0fee6b06,
cafe,Dapur Umum,Queen cafe,"5FR9+9HV, Jl. Tari Dewa-Dewa, Guntung, Kec. Bontang Utara, Kota Bontang, Kalimantan Timur 75321","Jl. Tari Dewa-Dewa, Guntung, Kec. Bontang Utara, Kota Bontang",KALIMANTAN TIMUR,75321.0,Indonesia,,,,0.1909912,117.4689361,https://maps.google.com/?cid=0x0:0xcac3b388713ac31,
cafe,Sesuai untuk keluarga,MagSeven Steak  Grill,"Jl. MT. Haryono No.14, Api-Api, Kec. Bontang Utara, Kota Bontang, Kalimantan Timur 75325","Api-Api, Kec. Bontang Utara, Kota Bontang",KALIMANTAN TIMUR,75325.0,Indonesia,,,,0.1365916,117.4822105,https://maps.google.com/?cid=0x0:0x81df6a604c356be3,
cafe,Kedai Kopi,The Bahagia Kaffee Haus,"Jl. Awang Long, Api-Api, Kec. Bontang Utara, Kota Bontang, Kalimantan Timur 75325","Api-Api, Kec. Bontang Utara, Kota Bontang",KALIMANTAN TIMUR,75325.0,Indonesia,89527698529.0,,,0.1357512,117.4883049,https://maps.google.com/?cid=0x0:0xd1612dd1720ac919,
cafe,Kedai Kopi,Warkop dopo,"Jl. RA Kartini, Bontang Baru, Kec. Bontang Utara, Kota Bontang, Kalimantan Timur 75325","Bontang Baru, Kec. Bontang Utara, Kota Bontang",KALIMANTAN TIMUR,75325.0,Indonesia,82352470992.0,,,0.1437926,117.4893391,https://maps.google.com/?cid=0x0:0x871fbf60d3d5eba1,
cafe,Kafe,KEDAI KPK 2,"Jl. Tari Jepen No.1, Guntung, Kec. Bontang Utara, Kota Bontang, Kalimantan Timur 75321","Guntung, Kec. Bontang Utara, Kota Bontang",KALIMANTAN TIMUR,75321.0,Indonesia,85250097083.0,,,0.1923658,117.4768734,https://maps.google.com/?cid=0x0:0x4f3f41a4a7d1989f,
cafe,Kedai Kopi,ATTIC coffee  eatery,"warung ratu, perumahan BTN, Jl. Cipto Mangunkusumo lantai 2, Belimbing, Kec. Bontang Bar., Kota Bontang, Kalimantan Timur 75333","perumahan BTN, Jl. Cipto Mangunkusumo lantai 2, Belimbing, Kec. Bontang Bar., Kota Bontang",KALIMANTAN TIMUR,75333.0,Indonesia,81348580040.0,,,0.1482693,117.472238,https://maps.google.com/?cid=0x0:0x8b664933554cb6c8,
cafe,Kedai Kopi,MAAJU COFFEE SERVICE,"Samping JT, Jl. Cipto Mangunkusumo Jalan tembus SMK 1, Belimbing, Kec. Bontang Utara, Kota Bontang, Kalimantan Timur 75311","Jl. Cipto Mangunkusumo Jalan tembus SMK 1, Belimbing, Kec. Bontang Utara, Kota Bontang",KALIMANTAN TIMUR,75311.0,Indonesia,881082468989.0,,,0.1454525,117.4745515,https://maps.google.com/?cid=0x0:0xd8ecfe64b8c180cf,
cafe,cafe,Kec. Bontang Utara,"Kota Bontang, Kalimantan Timur","Kota Bontang, Kalimantan Timur",KALIMANTAN TIMUR,,Indonesia,,,,0.1342654,117.4918113,https://maps.google.com/?cid=0x0:0x8e264a38633f2806,
cafe,Kedai Kopi,KELUAR MAIN CAFE,"Jl. Dewi Sartika No.RT 17, Bontang Kuala, Kec. Bontang Utara, Kota Bontang, Kalimantan Timur 75311","Bontang Kuala, Kec. Bontang Utara, Kota Bontang",KALIMANTAN TIMUR,75311.0,Indonesia,85250088124.0,,,0.1400773,117.498131,https://maps.google.com/?cid=0x0:0x685d61805e8be002,
cafe,Kafe,D'CAFE,"Jl. Bhayangkara, Gn. Elai, Kec. Bontang Utara, Kota Bontang, Kalimantan Timur 75325","Gn. Elai, Kec. Bontang Utara, Kota Bontang",KALIMANTAN TIMUR,75325.0,Indonesia,82292829399.0,,,0.1329855,117.4773142,https://maps.google.com/?cid=0x0:0xf042cfca710a2859,
cafe,Kedai Kopi,GOERNA Coffee Lounge,"Jl. Dewi Sartika, Bontang Baru, Kec. Bontang Utara, Kota Bontang, Kalimantan Timur 75313","Bontang Baru, Kec. Bontang Utara, Kota Bontang",KALIMANTAN TIMUR,75313.0,Indonesia,,,,0.140447,117.4957678,https://maps.google.com/?cid=0x0:0xdc6a015703cc696b,
cafe,Kedai Kopi,PEOPLE  COFFEE,"Kodim, Jl. Awang Long, Bontang Baru, Bontang Utara, Bontang City, East Kalimantan 75313","Jl. Awang Long, Bontang Baru, Bontang Utara, Bontang City",KALIMANTAN TIMUR,75313.0,Indonesia,81250391043.0,,,0.1387322,117.4914926,https://maps.google.com/?cid=0x0:0x51df805d4bf78eca,
cafe,Kafe,Garasi Sebelah,"Jl. Pangeran Suryanata, Bontang Baru, Kec. Bontang Utara, Kota Bontang, Kalimantan Timur 75313","Bontang Baru, Kec. Bontang Utara, Kota Bontang",KALIMANTAN TIMUR,75313.0,Indonesia,85393917171.0,,,0.1354893,117.492291,https://maps.google.com/?cid=0x0:0xb685161cb8da5834,
cafe,Kafe,Klikcafe Bontang,"4FMQ+2PR, Jl. Jend. Achmad Yani, Api-Api, Kec. Bontang Sel., Kota Bontang, Kalimantan Timur 75325","Jl. Jend. Achmad Yani, Api-Api, Kec. Bontang Sel., Kota Bontang",KALIMANTAN TIMUR,75325.0,Indonesia,85228421999.0,,,0.1326153,117.4892766,https://maps.google.com/?cid=0x0:0xe5242ae6c1f19a75,
cafe,Restoran,TERRA Dining,"Jl. Awang Long No.53c, RT.09, Bontang Baru, Kec. Bontang Utara, Kota Bontang, Kalimantan Timur 75325","RT.09, Bontang Baru, Kec. Bontang Utara, Kota Bontang",KALIMANTAN TIMUR,75325.0,Indonesia,82150562200.0,,,0.1372264,117.4987729,https://maps.google.com/?cid=0x0:0x5fbd61d4b261d2b0,
cafe,Kafe,DOLOE'S,"Jl. Aip II KS Tubun, Bontang Kuala, Kec. Bontang Utara, Kota Bontang, Kalimantan Timur 75313","Bontang Kuala, Kec. Bontang Utara, Kota Bontang",KALIMANTAN TIMUR,75313.0,Indonesia,82299557104.0,,,0.1262821,117.4995391,https://maps.google.com/?cid=0x0:0x89d82fe868a9eca2,
cafe,Restoran,SINGGAH Coffee and Eatry,"Jl. Imam Bonjol, Satimpo, Kec. Bontang Utara, Kota Bontang, Kalimantan Timur 75325","Satimpo, Kec. Bontang Utara, Kota Bontang",KALIMANTAN TIMUR,75325.0,Indonesia,82154158451.0,,,0.1292809,117.4822335,https://maps.google.com/?cid=0x0:0x87cf7082e3b5ef0d,
cafe,Kafe,Malaya Kopitiam,"Jl. Jend. Achmad Yani No.26, Api-Api, Kec. Bontang Utara, Kota Bontang, Kalimantan Timur 75325","Api-Api, Kec. Bontang Utara, Kota Bontang",KALIMANTAN TIMUR,75325.0,Indonesia,81384422881.0,,,0.1324694,117.4912164,https://maps.google.com/?cid=0x0:0xe93ce2e2b7d338ce,
cafe,Kedai Kopi,Liter Coffee,"Jl. Jend. Achmad Yani, Api-Api, Kec. Bontang Utara, Kota Bontang, Kalimantan Timur 75313","Api-Api, Kec. Bontang Utara, Kota Bontang",KALIMANTAN TIMUR,75313.0,Indonesia,81255511995.0,,,0.1322088,117.4897633,https://maps.google.com/?cid=0x0:0x9a6e90fecf857cc3,
cafe,Kafe,Jimbaran Cafe,"Jl. BATU SAHAS RT.20 KELURAHAN BONTANG KUALA, Kuala, Kec. Bontang Utara, Kota Bontang, Kalimantan Timur 75312","Kuala, Kec. Bontang Utara, Kota Bontang",KALIMANTAN TIMUR,75312.0,Indonesia,811599781.0,,,0.1343596,117.5219433,https://maps.google.com/?cid=0x0:0x3641fd9743e72596,
cafe,Kedai Kopi,Esteh Indonesia Bontang,"Jl. MT. Haryono No.118, Api-Api, Kec. Bontang Utara, Kota Bontang, Kalimantan Timur","Kota Bontang, Kalimantan Timur",KALIMANTAN TIMUR,,Indonesia,89518500199.0,,,0.1354504,117.4808672,https://maps.google.com/?cid=0x0:0x93dd5bda49224e3e,
cafe,Kedai Kopi,Ngopi Coffee,"Halaman Cafe Planet Football, Jl. MH. Thamrin No.11, Kota Bontang, Kalimantan Timur 75311","Jl. MH. Thamrin No.11, Kota Bontang",KALIMANTAN TIMUR,75311.0,Indonesia,82157163586.0,,,0.1387948,117.489674,https://maps.google.com/?cid=0x0:0x304e02fa53a96894,
cafe,Kedai Kopi,Foresthree Coffee  Kitchen Bontang,"Jl. Pattimura No.148, RT.41, Api-Api, Kec. Bontang Utara, Kota Bontang, Kalimantan Timur 75311","RT.41, Api-Api, Kec. Bontang Utara, Kota Bontang",KALIMANTAN TIMUR,75311.0,Indonesia,82321689999.0,,,0.130281,117.495275,https://maps.google.com/?cid=0x0:0x961f77a42340f67c,
cafe,Kafe,Kedai Kamecho Bontang,"Jl. Sulawesi KCY No.11, Api-Api, Kec. Bontang Utara, Kota Bontang, Kalimantan Timur 75325","Api-Api, Kec. Bontang Utara, Kota Bontang",KALIMANTAN TIMUR,75325.0,Indonesia,83153538506.0,,,0.1284332,117.4891102,https://maps.google.com/?cid=0x0:0xe98ead3310a995d6,
cafe,Kedai Kopi,Bawa Pulang Coffee,"Jl. Pattimura, Api-Api, Kec. Bontang Utara, Kota Bontang, Kalimantan Timur 75311","Api-Api, Kec. Bontang Utara, Kota Bontang",KALIMANTAN TIMUR,75311.0,Indonesia,82251321432.0,,,0.1307435,117.496397,https://maps.google.com/?cid=0x0:0x3a5d773fb959e9e0,
cafe,Restoran,Heartbond Coffee and Eatery,"Jl. Simon Tampubolon, HOP 4/147, Gn. Telihan, Kec. Bontang Bar., Kota Bontang, Kalimantan Timur 75383","HOP 4/147, Gn. Telihan, Kec. Bontang Bar., Kota Bontang",KALIMANTAN TIMUR,75383.0,Indonesia,81346418881.0,,,0.1304211,117.4642577,https://maps.google.com/?cid=0x0:0x5a495ee6f282fa7f,
cafe,Tempat Cukur Rambut,HOME Barber Cafe  Distro,"4FP6+6FJ, Jl. Sumatera, Kanaan, Kec. Bontang Bar., Kota Bontang, Kalimantan Timur 75321","Jl. Sumatera, Kanaan, Kec. Bontang Bar., Kota Bontang",KALIMANTAN TIMUR,75321.0,Indonesia,85246009420.0,,,0.1355922,117.4611296,https://maps.google.com/?cid=0x0:0xc537ff264f434622,
cafe,Restoran Amerika,Fore Coffee - Citimall Bontang,"4FCM+2R5, Tj. Laut, Kec. Bontang Sel., Kota Bontang, Kalimantan Timur 75325","Tj. Laut, Kec. Bontang Sel., Kota Bontang",KALIMANTAN TIMUR,75325.0,Indonesia,85389390965.0,,,0.1200059,117.484591,https://maps.google.com/?cid=0x0:0x34f9f04e2da1b389,
cafe,Kedai Kopi,UTTARA Fine Eats and Coffee,"Api-Api, Kec. Bontang Utara, Kota Bontang, Kalimantan Timur 75313","Kec. Bontang Utara, Kota Bontang",KALIMANTAN TIMUR,75313.0,Indonesia,82148252211.0,,,0.1305124,117.4936688,https://maps.google.com/?cid=0x0:0x2070309083fc0aa7,
cafe,Kafe,Teras Kuala,"Jl. Piere Tandean No.28, Kec. Bontang Utara, Kota Bontang, Kalimantan Timur 75325","Kec. Bontang Utara, Kota Bontang",KALIMANTAN TIMUR,75325.0,Indonesia,82140885243.0,,,0.1347718,117.5031814,https://maps.google.com/?cid=0x0:0x468e3f21372b461a,
cafe,Kafe,Sumber Djaya Coffee,"Jl. Mayor Jenderal DI Panjaitan No.4, Api-Api, Kec. Bontang Utara, Kota Bontang, Kalimantan Timur 75311","Api-Api, Kec. Bontang Utara, Kota Bontang",KALIMANTAN TIMUR,75311.0,Indonesia,,,,0.1339136,117.4927091,https://maps.google.com/?cid=0x0:0x8c54a1c947febd8e,
cafe,Kedai Kopi,Etnisch Coffee,"Jl. Parikesit, Bontang Baru, Kec. Bontang Utara, Kota Bontang, Kalimantan Timur 75231","Bontang Baru, Kec. Bontang Utara, Kota Bontang",KALIMANTAN TIMUR,75231.0,Indonesia,81265945844.0,,,0.1374378,117.4936701,https://maps.google.com/?cid=0x0:0xc5eb49f28d17419b,
cafe,Kafe,Basement Cafe Bontang,"4FMH+QXM, Jl. MT. Haryono, Api-Api, Kec. Bontang Utara, Kota Bontang, Kalimantan Timur","Kota Bontang, Kalimantan Timur",KALIMANTAN TIMUR,,Indonesia,,,,0.134465,117.4799163,https://maps.google.com/?cid=0x0:0x3afd8ed9cd8497a5,
