Category,Real Category,Business Name,Address,City,State,Postal Code,Country,Phone,Email,Website,Latitude,Longitude,Map Link,Details Link
toko bangunan,toko bangunan,Kalimantan Timur 75313,"Kota Bontang, Kalimantan Timur","Kota Bontang, Kalimantan Timur",KALIMANTAN TIMUR,,Indonesia,,,,0.1379123,117.493321,https://maps.google.com/?cid=0x0:0xc31ada602112700b,
toko bangunan,Toko Bahan Bangunan,Toko Material Bangunan Bone Raya,"4FMQ+2MM, Jl. Jend. Achmad Yani, Api-Api, Kec. Bontang Utara, Kota Bontang, Kalimantan Timur 75325","Jl. Jend. Achmad Yani, Api-Api, Kec. Bontang Utara, Kota Bontang",KALIMANTAN TIMUR,75325.0,Indonesia,87784554231.0,,,0.1325981,117.489157,https://maps.google.com/?cid=0x0:0xfc11f304da32c892,
toko bangunan,Toko Bahan Bangunan,Toko Adillah Bangunan,"4FCV+W4F, Jl. Ir. H. Juanda, Tj. Laut Indah, Kec. Bontang Sel., Kota Bontang, Kalimantan Timur 75325","Jl. Ir. H. Juanda, Tj. Laut Indah, Kec. Bontang Sel., Kota Bontang",KALIMANTAN TIMUR,75325.0,Indonesia,81225533972.0,,,0.1223141,117.4927981,https://maps.google.com/?cid=0x0:0x7b5a38c6980dccca,
toko bangunan,Toko Swalayan,Toko Berlian Jaya,"4FPC+929, Jl. Brigjen Katamso, Belimbing, Kec. Bontang Bar., Kota Bontang, Kalimantan Timur 75325","Jl. Brigjen Katamso, Belimbing, Kec. Bontang Bar., Kota Bontang",KALIMANTAN TIMUR,75325.0,Indonesia,82174733975.0,,,0.1359215,117.4701206,https://maps.google.com/?cid=0x0:0x956d2931ccb18d88,
toko bangunan,Toko Bahan Bangunan,Anjas Jaya Bangunan,"4FJW+9V6, Jl. Pattimura, Api-Api, Kec. Bontang Utara, Kota Bontang, Kalimantan Timur 75313","Jl. Pattimura, Api-Api, Kec. Bontang Utara, Kota Bontang",KALIMANTAN TIMUR,75313.0,Indonesia,83114785308.0,,,0.1309056,117.4971478,https://maps.google.com/?cid=0x0:0xf0139d59d2da1565,
toko bangunan,Toko Bahan Bangunan,Toko Bangunan Hikmah Jaya,"Jl Ciptomangunkusumo K28, Komplek BTN PKT, 75313, Belimbing, Kec. Bontang Bar., Kota Bontang, Kalimantan Timur 75325","Komplek BTN PKT,",KALIMANTAN TIMUR,75313.0,Indonesia,83114785308.0,,,0.145588,117.4744558,https://maps.google.com/?cid=0x0:0x4e4323954ced27bb,
toko bangunan,Pemasok Bahan Bangunan,Toko Bangunan Sinar Sanjaya,"Bar., Kanaan, Kec. Bontang Bar., Kota Bontang, Kalimantan Timur 75321","Kanaan, Kec. Bontang Bar., Kota Bontang",KALIMANTAN TIMUR,75321.0,Indonesia,81818202362.0,,,0.141098,117.4512106,https://maps.google.com/?cid=0x0:0x73bc47e972b63da8,
toko bangunan,Toko Bahan Bangunan,Toko bangunan Sinar Utama Bontang,"4FWF+HH4, Belimbing, Kec. Bontang Bar., Kota Bontang, Kalimantan Timur 75313","Belimbing, Kec. Bontang Bar., Kota Bontang",KALIMANTAN TIMUR,75313.0,Indonesia,82127713040.0,,,0.1463828,117.4739511,https://maps.google.com/?cid=0x0:0x8e4d632c2efa9d69,
toko bangunan,Toko Perlengkapan Rumah,UD Mega HMT (jual material Bangunan),"Jl. HM Ardans No.15a, Satimpo, Kec. Bontang Sel., Kota Bontang, Kalimantan Timur 75325","Satimpo, Kec. Bontang Sel., Kota Bontang",KALIMANTAN TIMUR,75325.0,Indonesia,85609323117.0,,,0.1279161,117.4787435,https://maps.google.com/?cid=0x0:0xec62e9c005866721,
toko bangunan,Toko Bahan Bangunan,Toko Bangunan kembang mekar,"Jl. Aip II KS Tubun No.45, Tj. Laut Indah, Kec. Bontang Sel., Kota Bontang, Kalimantan Timur 75325","Tj. Laut Indah, Kec. Bontang Sel., Kota Bontang",KALIMANTAN TIMUR,75325.0,Indonesia,82227713040.0,,,0.1204223,117.495892,https://maps.google.com/?cid=0x0:0xd4b46857cb2e77fa,
toko bangunan,Toko Bahan Bangunan,Toko Material Bangunan Subur,"Jl. Imam Bonjol No.34, Satimpo, Kec. Bontang Sel., Kota Bontang, Kalimantan Timur 75325","Satimpo, Kec. Bontang Sel., Kota Bontang",KALIMANTAN TIMUR,75325.0,Indonesia,85169981293.0,,,0.1292125,117.4797344,https://maps.google.com/?cid=0x0:0xce940fe7107d6e70,
toko bangunan,Toko Bahan Bangunan,Toko GHINA BERKAH ABADI,"Jl. MH. Thamrin No.06, RT.02, Bontang Baru, Kec. Bontang Utara, Kota Bontang, Kalimantan Timur 75313","RT.02, Bontang Baru, Kec. Bontang Utara, Kota Bontang",KALIMANTAN TIMUR,75313.0,Indonesia,82227713040.0,,,0.1378498,117.4891904,https://maps.google.com/?cid=0x0:0xa963b97e64c603eb,
toko bangunan,Toko Bahan Bangunan,Rian Bangunan,"Jl. Ir. H. Juanda No.66, Tj. Laut, Kec. Bontang Sel., Kota Bontang, Kalimantan Timur 75325","Tj. Laut, Kec. Bontang Sel., Kota Bontang",KALIMANTAN TIMUR,75325.0,Indonesia,82227713040.0,,,0.1250338,117.4861032,https://maps.google.com/?cid=0x0:0x1f195c348db2a808,
toko bangunan,Toko Bahan Bangunan,Toko Bangunan cahaya Baru 2,"Jl. Imam Bonjol No.15, Gn. Elai, Kec. Bontang Utara, Kota Bontang, Kalimantan Timur 75325","Gn. Elai, Kec. Bontang Utara, Kota Bontang",KALIMANTAN TIMUR,75325.0,Indonesia,85179569934.0,,,0.1323332,117.479699,https://maps.google.com/?cid=0x0:0xd21aa7ff1aab5871,
toko bangunan,Toko Bahan Bangunan,TOKO BANGUNAN FAEYZA JAYA,"4FRQ+GQ5, Jl. MH. Thamrin, Bontang Baru, Kec. Bontang Utara, Kota Bontang, Kalimantan Timur 75313","Jl. MH. Thamrin, Bontang Baru, Kec. Bontang Utara, Kota Bontang",KALIMANTAN TIMUR,75313.0,Indonesia,82227713040.0,,,0.141251,117.4894714,https://maps.google.com/?cid=0x0:0xdd8d0d5f5883cc08,
toko bangunan,Toko Alat-Alat,Berkat Raya Sejahtera CTL,"Jl. Sam Ratulangi No.79, Tj. Laut, Kec. Bontang Sel., Kota Bontang, Kalimantan Timur 75321","Tj. Laut, Kec. Bontang Sel., Kota Bontang",KALIMANTAN TIMUR,75321.0,Indonesia,85169995912.0,,,0.1181048,117.4934372,https://maps.google.com/?cid=0x0:0x4a0c260c9243a663,
toko bangunan,Toko Bahan Bangunan,TOKO BANGUNAN CAHAYA BARU,"4F8J+2H2, Jl. Sultan Hasanudin, Berbas Tengah, Kec. Bontang Sel., Kota Bontang, Kalimantan Timur 75323","Jl. Sultan Hasanudin, Berbas Tengah, Kec. Bontang Sel., Kota Bontang",KALIMANTAN TIMUR,75323.0,Indonesia,85179569934.0,,,0.1150237,117.4813954,https://maps.google.com/?cid=0x0:0x72c17ac468460940,
toko bangunan,Toko Bahan Bangunan,Toko Setia Abadi,"4FFW+4V4, Tj. Laut Indah, Kec. Bontang Sel., Kota Bontang, Kalimantan Timur 75313","Tj. Laut Indah, Kec. Bontang Sel., Kota Bontang",KALIMANTAN TIMUR,75313.0,Indonesia,,,,0.1227655,117.4972008,https://maps.google.com/?cid=0x0:0x7524eafc6f9b72a8,
toko bangunan,Toko Bahan Bangunan,Santosa,"4FJH+CVR, Jl. Imam Bonjol, Satimpo, Kec. Bontang Sel., Kota Bontang, Kalimantan Timur 75325","Jl. Imam Bonjol, Satimpo, Kec. Bontang Sel., Kota Bontang",KALIMANTAN TIMUR,75325.0,Indonesia,82173389240.0,,,0.1311177,117.4796442,https://maps.google.com/?cid=0x0:0x8a57247338fa3ed6,
toko bangunan,Toko Tegel,Megah Jaya Keramik,"Pesan Antar, Jl. Pattimura, Api-Api, Kec. Bontang Utara, Kota Bontang, Kalimantan Timur 75325","Jl. Pattimura, Api-Api, Kec. Bontang Utara, Kota Bontang",KALIMANTAN TIMUR,75325.0,Indonesia,85768717059.0,,,0.1302901,117.4936001,https://maps.google.com/?cid=0x0:0x27e544344641d218,
toko bangunan,Toko Alat-Alat,Sukole Jaya. PT,"JL. Hop V No.350, Bontang Baru, Kec. Bontang Utara, Kota Bontang, Kalimantan Timur 75313","Bontang Baru, Kec. Bontang Utara, Kota Bontang",KALIMANTAN TIMUR,75313.0,Indonesia,54826156.0,,,0.133552,117.499466,https://maps.google.com/?cid=0x0:0xaea6f608c7e01ef4,
toko bangunan,Toko,SUMBER URIP BATAKO,"Jl pierre tendean No.rt 19, Bontang Kuala, 75313",,KALIMANTAN TIMUR,,Indonesia,82227713040.0,,,0.1336694,117.5058613,https://maps.google.com/?cid=0x0:0x3807c7620e0f811e,
toko bangunan,Toko Bahan Bangunan,TB. MAKMUR JAYA KANAAN,"Gn. Telihan, Kec. Bontang Bar., Kota Bontang, Kalimantan Timur 75321","Kec. Bontang Bar., Kota Bontang",KALIMANTAN TIMUR,75321.0,Indonesia,82227713040.0,,,0.1325254,117.4477234,https://maps.google.com/?cid=0x0:0xd7efea59c6355348,
toko bangunan,Pemasok Bahan Bangunan,Toko Bangunan Sinar Sanjaya,"Bar., Kanaan, Kec. Bontang Bar., Kota Bontang, Kalimantan Timur 75321","Kanaan, Kec. Bontang Bar., Kota Bontang",KALIMANTAN TIMUR,75321.0,Indonesia,81818202362.0,,,0.141098,117.4512106,https://maps.google.com/?cid=0x0:0x73bc47e972b63da8,
toko bangunan,toko bangunan,Kec. Bontang Bar.,"Kota Bontang, Kalimantan Timur","Kota Bontang, Kalimantan Timur",KALIMANTAN TIMUR,,Indonesia,,,,0.1372358,117.4548496,https://maps.google.com/?cid=0x0:0xdc6d300939175081,
toko bangunan,Toko Bahan Bangunan,Toko Bangunan Hikmah Jaya,"Jl Ciptomangunkusumo K28, Komplek BTN PKT, 75313, Belimbing, Kec. Bontang Bar., Kota Bontang, Kalimantan Timur 75325","Komplek BTN PKT,",KALIMANTAN TIMUR,75313.0,Indonesia,83114785308.0,,,0.145588,117.4744558,https://maps.google.com/?cid=0x0:0x4e4323954ced27bb,
toko bangunan,Toko Bahan Bangunan,Toko Bangunan Rusdi,"Jl. Pipa Sidrap, Belimbing, Kec. Bontang Bar., Kota Bontang, Kalimantan Timur 75314","Belimbing, Kec. Bontang Bar., Kota Bontang",KALIMANTAN TIMUR,75314.0,Indonesia,82227713040.0,,,0.1729039,117.4621638,https://maps.google.com/?cid=0x0:0x59d5f4d3d0db3ac0,
toko bangunan,Toko Bahan Bangunan,Toko Material Bangunan Bone Raya,"4FMQ+2MM, Jl. Jend. Achmad Yani, Api-Api, Kec. Bontang Utara, Kota Bontang, Kalimantan Timur 75325","Jl. Jend. Achmad Yani, Api-Api, Kec. Bontang Utara, Kota Bontang",KALIMANTAN TIMUR,75325.0,Indonesia,87784554231.0,,,0.1325981,117.489157,https://maps.google.com/?cid=0x0:0xfc11f304da32c892,
toko bangunan,Toko Bahan Bangunan,Toko bangunan Renaldi jaya bontang,"Jl. Soekarno Hatta No.12, Kanaan, Kec. Bontang Bar., Kota Bontang, Kalimantan Timur 75321","Kanaan, Kec. Bontang Bar., Kota Bontang",KALIMANTAN TIMUR,75321.0,Indonesia,82227713040.0,,,0.1406227,117.4497134,https://maps.google.com/?cid=0x0:0x2afbaa22e37f71fd,
toko bangunan,Toko Bahan Bangunan,Toko Bangunan Mulya Jaya,"5F99+VJX, Jl. Slamet Riyadi, Lok Tuan, Kec. Bontang Utara, Kota Bontang, Kalimantan Timur 75321","Jl. Slamet Riyadi, Lok Tuan, Kec. Bontang Utara, Kota Bontang",KALIMANTAN TIMUR,75321.0,Indonesia,82227713040.0,,,0.169732,117.4691092,https://maps.google.com/?cid=0x0:0xee13230713e4cf97,
toko bangunan,Toko Perlengkapan Rumah,toko barokah jaya,"4CFV+5G5, jl.ir soekarno hatta, Gn. Telihan, Kec. Bontang Bar., Kota Bontang, Kalimantan Timur 75321","jl.ir soekarno hatta, Gn. Telihan, Kec. Bontang Bar., Kota Bontang",KALIMANTAN TIMUR,75321.0,Indonesia,85169995912.0,,,0.122896,117.4438503,https://maps.google.com/?cid=0x0:0x97236098b8201ce7,
toko bangunan,Toko Bahan Bangunan,Toko bangunan Sinar Utama Bontang,"4FWF+HH4, Belimbing, Kec. Bontang Bar., Kota Bontang, Kalimantan Timur 75313","Belimbing, Kec. Bontang Bar., Kota Bontang",KALIMANTAN TIMUR,75313.0,Indonesia,82127713040.0,,,0.1463828,117.4739511,https://maps.google.com/?cid=0x0:0x8e4d632c2efa9d69,
toko bangunan,Toko Bahan Bangunan,Toko bangunan nur cahaya,"4FP2+CP5, Jl. Pontianak IV, Gn. Telihan, Kec. Bontang Bar., Kota Bontang, Kalimantan Timur 75321","Jl. Pontianak IV, Gn. Telihan, Kec. Bontang Bar., Kota Bontang",KALIMANTAN TIMUR,75321.0,Indonesia,85169995912.0,,,0.1360003,117.4518614,https://maps.google.com/?cid=0x0:0xadd7c5b9dc0aae7e,
toko bangunan,Toko Bahan Bangunan,Sumber Rejeki,"5FC9+3J7, Lok Tuan, Kec. Bontang Utara, Kota Bontang, Kalimantan Timur 75321","Lok Tuan, Kec. Bontang Utara, Kota Bontang",KALIMANTAN TIMUR,75321.0,Indonesia,82227713040.0,,,0.1701583,117.4690505,https://maps.google.com/?cid=0x0:0x6f5ec9209f915abe,
toko bangunan,Toko Perlengkapan Rumah,UD Mega HMT (jual material Bangunan),"Jl. HM Ardans No.15a, Satimpo, Kec. Bontang Sel., Kota Bontang, Kalimantan Timur 75325","Satimpo, Kec. Bontang Sel., Kota Bontang",KALIMANTAN TIMUR,75325.0,Indonesia,85609323117.0,,,0.1279161,117.4787435,https://maps.google.com/?cid=0x0:0xec62e9c005866721,
toko bangunan,Toko Perlengkapan Rumah,Toko WAHYU,"5FCG+7QX, Jl. Slamet Riyadi, Lok Tuan, Kec. Bontang Utara, Kota Bontang, Kalimantan Timur 75321","Jl. Slamet Riyadi, Lok Tuan, Kec. Bontang Utara, Kota Bontang",KALIMANTAN TIMUR,75321.0,Indonesia,81253053010.0,,,0.1707488,117.4769879,https://maps.google.com/?cid=0x0:0xa4b517485d369540,
toko bangunan,Toko Bahan Bangunan,Toko Adillah Bangunan,"4FCV+W4F, Jl. Ir. H. Juanda, Tj. Laut Indah, Kec. Bontang Sel., Kota Bontang, Kalimantan Timur 75325","Jl. Ir. H. Juanda, Tj. Laut Indah, Kec. Bontang Sel., Kota Bontang",KALIMANTAN TIMUR,75325.0,Indonesia,81225533972.0,,,0.1223141,117.4927981,https://maps.google.com/?cid=0x0:0x7b5a38c6980dccca,
toko bangunan,Toko Bahan Bangunan,Toko Bangunan cahaya Baru 2,"Jl. Imam Bonjol No.15, Gn. Elai, Kec. Bontang Utara, Kota Bontang, Kalimantan Timur 75325","Gn. Elai, Kec. Bontang Utara, Kota Bontang",KALIMANTAN TIMUR,75325.0,Indonesia,85179569934.0,,,0.1323332,117.479699,https://maps.google.com/?cid=0x0:0xd21aa7ff1aab5871,
toko bangunan,Toko Bahan Bangunan,Toko Material Bangunan Subur,"Jl. Imam Bonjol No.34, Satimpo, Kec. Bontang Sel., Kota Bontang, Kalimantan Timur 75325","Satimpo, Kec. Bontang Sel., Kota Bontang",KALIMANTAN TIMUR,75325.0,Indonesia,85169981293.0,,,0.1292125,117.4797344,https://maps.google.com/?cid=0x0:0xce940fe7107d6e70,
toko bangunan,Toko Bahan Bangunan,Toko Bangunan Gemilang,"4FPV+Q24, Bontang Baru, Kec. Bontang Utara, Kota Bontang, Kalimantan Timur 75325","Bontang Baru, Kec. Bontang Utara, Kota Bontang",KALIMANTAN TIMUR,75325.0,Indonesia,83114785308.0,,,0.136896,117.4925752,https://maps.google.com/?cid=0x0:0xe070b212c7ab1d6b,
toko bangunan,Toko Bahan Bangunan,Anjas Jaya Bangunan,"4FJW+9V6, Jl. Pattimura, Api-Api, Kec. Bontang Utara, Kota Bontang, Kalimantan Timur 75313","Jl. Pattimura, Api-Api, Kec. Bontang Utara, Kota Bontang",KALIMANTAN TIMUR,75313.0,Indonesia,83114785308.0,,,0.1309056,117.4971478,https://maps.google.com/?cid=0x0:0xf0139d59d2da1565,
toko bangunan,Toko Bahan Bangunan,Depo Bangunan,"Jl. HM Ardans No.6, Satimpo, Kec. Bontang Sel., Kota Bontang, Kalimantan Timur 75325","Satimpo, Kec. Bontang Sel., Kota Bontang",KALIMANTAN TIMUR,75325.0,Indonesia,82278420443.0,,,0.1274809,117.4736477,https://maps.google.com/?cid=0x0:0x6402782f8bd52313,
toko bangunan,Toko Bahan Bangunan,Toko Bangunan Rinaldi,"Jl. Soekarno Hatta No.11, Kanaan, Kec. Bontang Bar., Kota Bontang, Kalimantan Timur 75321","Kanaan, Kec. Bontang Bar., Kota Bontang",KALIMANTAN TIMUR,75321.0,Indonesia,82227713040.0,,,0.1359029,117.4486825,https://maps.google.com/?cid=0x0:0x3f3fd11013252e2,
toko bangunan,Toko Bahan Bangunan,WAWAN JAYA ORNAMEN BETON GRC profil DAN GIPSUM Jln. PIPA,"Jl. Pipa Sidrap, Guntung, Kec. Bontang Utara, Kabupaten Kutai Timur, Kalimantan Timur 75321","Guntung, Kec. Bontang Utara, Kabupaten Kutai Timur",KALIMANTAN TIMUR,75321.0,Indonesia,85169995912.0,,,0.1776042,117.4680083,https://maps.google.com/?cid=0x0:0x372c6d324ffee170,
toko bangunan,Toko Perlengkapan Rumah,jual material bangunan,"4FMJ+84P, Gg. Alkindy, Api-Api, Kec. Bontang Utara, Kota Bontang, Kalimantan Timur 75325","Gg. Alkindy, Api-Api, Kec. Bontang Utara, Kota Bontang",KALIMANTAN TIMUR,75325.0,Indonesia,82227713040.0,,,0.1333439,117.4803421,https://maps.google.com/?cid=0x0:0xa34d5fa6c9c1cdbe,
toko bangunan,Toko Alat Listrik,Toko Sumber Baru,"Jl. Brigjen Katamso No.4, Belimbing, Kec. Bontang Bar., Kota Bontang, Kalimantan Timur 75325","Belimbing, Kec. Bontang Bar., Kota Bontang",KALIMANTAN TIMUR,75325.0,Indonesia,82173389240.0,,,0.138516,117.4641029,https://maps.google.com/?cid=0x0:0xb1e7994bb2bbd6f8,
toko bangunan,Toko Bahan Bangunan,Toko Bangun Kencana / NYX Bontang,"Jl. Soekarno Hatta No.16, Gn. Telihan, Kec. Bontang Bar., Kota Bontang, Kalimantan Timur 75321","Gn. Telihan, Kec. Bontang Bar., Kota Bontang",KALIMANTAN TIMUR,75321.0,Indonesia,85169995912.0,,,0.1401173,117.4489406,https://maps.google.com/?cid=0x0:0x3b2112e72fbb6fa,
toko bangunan,toko bangunan,Kalimantan Timur 75321,"Kec. Tlk. Pandan, Kabupaten Kutai Timur, Kalimantan Timur","Kabupaten Kutai Timur, Kalimantan Timur",KALIMANTAN TIMUR,,Indonesia,,,,0.1825802,117.4321452,https://maps.google.com/?cid=0x0:0x70eac15f80c6d3d5,
toko bangunan,Toko Bahan Bangunan,Toko Material Bangunan Bone Raya,"4FMQ+2MM, Jl. Jend. Achmad Yani, Api-Api, Kec. Bontang Utara, Kota Bontang, Kalimantan Timur 75325","Jl. Jend. Achmad Yani, Api-Api, Kec. Bontang Utara, Kota Bontang",KALIMANTAN TIMUR,75325.0,Indonesia,87784554231.0,,,0.1325981,117.489157,https://maps.google.com/?cid=0x0:0xfc11f304da32c892,
toko bangunan,Toko Perlengkapan Rumah,UD Mega HMT (jual material Bangunan),"Jl. HM Ardans No.15a, Satimpo, Kec. Bontang Sel., Kota Bontang, Kalimantan Timur 75325","Satimpo, Kec. Bontang Sel., Kota Bontang",KALIMANTAN TIMUR,75325.0,Indonesia,85609323117.0,,,0.1279161,117.4787435,https://maps.google.com/?cid=0x0:0xec62e9c005866721,
toko bangunan,Toko Bahan Bangunan,Toko bangunan Renaldi jaya bontang,"Jl. Soekarno Hatta No.12, Kanaan, Kec. Bontang Bar., Kota Bontang, Kalimantan Timur 75321","Kanaan, Kec. Bontang Bar., Kota Bontang",KALIMANTAN TIMUR,75321.0,Indonesia,82227713040.0,,,0.1406227,117.4497134,https://maps.google.com/?cid=0x0:0x2afbaa22e37f71fd,
toko bangunan,Pemasok Bahan Bangunan,Toko Bangunan Sinar Sanjaya,"Bar., Kanaan, Kec. Bontang Bar., Kota Bontang, Kalimantan Timur 75321","Kanaan, Kec. Bontang Bar., Kota Bontang",KALIMANTAN TIMUR,75321.0,Indonesia,81818202362.0,,,0.141098,117.4512106,https://maps.google.com/?cid=0x0:0x73bc47e972b63da8,
toko bangunan,,UD. Jaya Abadi,"Jalan R.E Martadinata RT.08 No. 112, Lok Tuan, Kec. Bontang Utara, Kota Bontang, Kalimantan Timur 75321","Lok Tuan, Kec. Bontang Utara, Kota Bontang",KALIMANTAN TIMUR,75321.0,Indonesia,83114785308.0,,,0.1669023,117.4839646,https://maps.google.com/?cid=0x0:0x74d29a148d2c2b6f,
toko bangunan,Toko Bahan Bangunan,Toko Material Bangunan Subur,"Jl. Imam Bonjol No.34, Satimpo, Kec. Bontang Sel., Kota Bontang, Kalimantan Timur 75325","Satimpo, Kec. Bontang Sel., Kota Bontang",KALIMANTAN TIMUR,75325.0,Indonesia,85169981293.0,,,0.1292125,117.4797344,https://maps.google.com/?cid=0x0:0xce940fe7107d6e70,
toko bangunan,Toko Bahan Bangunan,Toko Adillah Bangunan,"4FCV+W4F, Jl. Ir. H. Juanda, Tj. Laut Indah, Kec. Bontang Sel., Kota Bontang, Kalimantan Timur 75325","Jl. Ir. H. Juanda, Tj. Laut Indah, Kec. Bontang Sel., Kota Bontang",KALIMANTAN TIMUR,75325.0,Indonesia,81225533972.0,,,0.1223141,117.4927981,https://maps.google.com/?cid=0x0:0x7b5a38c6980dccca,
toko bangunan,Toko Bahan Bangunan,TOKO BANGUNAN CAHAYA BARU,"4F8J+2H2, Jl. Sultan Hasanudin, Berbas Tengah, Kec. Bontang Sel., Kota Bontang, Kalimantan Timur 75323","Jl. Sultan Hasanudin, Berbas Tengah, Kec. Bontang Sel., Kota Bontang",KALIMANTAN TIMUR,75323.0,Indonesia,85179569934.0,,,0.1150237,117.4813954,https://maps.google.com/?cid=0x0:0x72c17ac468460940,
toko bangunan,Toko Bahan Bangunan,Anjas Jaya Bangunan,"4FJW+9V6, Jl. Pattimura, Api-Api, Kec. Bontang Utara, Kota Bontang, Kalimantan Timur 75313","Jl. Pattimura, Api-Api, Kec. Bontang Utara, Kota Bontang",KALIMANTAN TIMUR,75313.0,Indonesia,83114785308.0,,,0.1309056,117.4971478,https://maps.google.com/?cid=0x0:0xf0139d59d2da1565,
toko bangunan,Toko Bahan Bangunan,Toko Bangunan Rusdi,"Jl. Pipa Sidrap, Belimbing, Kec. Bontang Bar., Kota Bontang, Kalimantan Timur 75314","Belimbing, Kec. Bontang Bar., Kota Bontang",KALIMANTAN TIMUR,75314.0,Indonesia,82227713040.0,,,0.1729039,117.4621638,https://maps.google.com/?cid=0x0:0x59d5f4d3d0db3ac0,
toko bangunan,Toko,Toko Bangunan Sejati,"5C2J+MF6, Jl. Poros Bontang - Sangatta, Tlk. Pandan, Kec. Tlk. Pandan, Kabupaten Kutai Timur, Kalimantan Timur 75321","Jl. Poros Bontang - Sangatta, Tlk. Pandan, Kec. Tlk. Pandan, Kabupaten Kutai Timur",KALIMANTAN TIMUR,75321.0,Indonesia,81350063292.0,,,0.1516557,117.4311376,https://maps.google.com/?cid=0x0:0xd700a7ca9fb8d807,
toko bangunan,Toko Perlengkapan Rumah,Toko WAHYU,"5FCG+7QX, Jl. Slamet Riyadi, Lok Tuan, Kec. Bontang Utara, Kota Bontang, Kalimantan Timur 75321","Jl. Slamet Riyadi, Lok Tuan, Kec. Bontang Utara, Kota Bontang",KALIMANTAN TIMUR,75321.0,Indonesia,81253053010.0,,,0.1707488,117.4769879,https://maps.google.com/?cid=0x0:0xa4b517485d369540,
toko bangunan,Toko Bahan Bangunan,Sumber Rejeki,"5FC9+3J7, Lok Tuan, Kec. Bontang Utara, Kota Bontang, Kalimantan Timur 75321","Lok Tuan, Kec. Bontang Utara, Kota Bontang",KALIMANTAN TIMUR,75321.0,Indonesia,82227713040.0,,,0.1701583,117.4690505,https://maps.google.com/?cid=0x0:0x6f5ec9209f915abe,
toko bangunan,Toko Bahan Bangunan,Toko Bangunan Hikmah Jaya,"Jl Ciptomangunkusumo K28, Komplek BTN PKT, 75313, Belimbing, Kec. Bontang Bar., Kota Bontang, Kalimantan Timur 75325","Komplek BTN PKT,",KALIMANTAN TIMUR,75313.0,Indonesia,83114785308.0,,,0.145588,117.4744558,https://maps.google.com/?cid=0x0:0x4e4323954ced27bb,
toko bangunan,Toko Bahan Bangunan,Aida Jaya,"Jalan.Karya Bakti No.18, Bontang Lestari, Kec. Bontang Sel., Kota Bontang, Kalimantan Timur 75325","Bontang Lestari, Kec. Bontang Sel., Kota Bontang",KALIMANTAN TIMUR,75325.0,Indonesia,82246409958.0,,,0.0753733,117.4554406,https://maps.google.com/?cid=0x0:0xc6690b22fe26628c,
toko bangunan,Toko Bahan Bangunan,U.D. Damai Abadi,"4F9H+4FH, Berbas Tengah, Kec. Bontang Sel., Kota Bontang, Kalimantan Timur 75325","Berbas Tengah, Kec. Bontang Sel., Kota Bontang",KALIMANTAN TIMUR,75325.0,Indonesia,82227713040.0,,,0.1178035,117.4787232,https://maps.google.com/?cid=0x0:0xd49b4b4c03e2b43e,
toko bangunan,Toko Bahan Bangunan,Santosa,"4FJH+CVR, Jl. Imam Bonjol, Satimpo, Kec. Bontang Sel., Kota Bontang, Kalimantan Timur 75325","Jl. Imam Bonjol, Satimpo, Kec. Bontang Sel., Kota Bontang",KALIMANTAN TIMUR,75325.0,Indonesia,82173389240.0,,,0.1311177,117.4796442,https://maps.google.com/?cid=0x0:0x8a57247338fa3ed6,
toko bangunan,Toko Bahan Bangunan,Toko bangunan nur cahaya,"4FP2+CP5, Jl. Pontianak IV, Gn. Telihan, Kec. Bontang Bar., Kota Bontang, Kalimantan Timur 75321","Jl. Pontianak IV, Gn. Telihan, Kec. Bontang Bar., Kota Bontang",KALIMANTAN TIMUR,75321.0,Indonesia,85169995912.0,,,0.1360003,117.4518614,https://maps.google.com/?cid=0x0:0xadd7c5b9dc0aae7e,
toko bangunan,Toko Perlengkapan Rumah,toko barokah jaya,"4CFV+5G5, jl.ir soekarno hatta, Gn. Telihan, Kec. Bontang Bar., Kota Bontang, Kalimantan Timur 75321","jl.ir soekarno hatta, Gn. Telihan, Kec. Bontang Bar., Kota Bontang",KALIMANTAN TIMUR,75321.0,Indonesia,85169995912.0,,,0.122896,117.4438503,https://maps.google.com/?cid=0x0:0x97236098b8201ce7,
toko bangunan,Toko Swalayan,Toko Berlian Jaya,"4FPC+929, Jl. Brigjen Katamso, Belimbing, Kec. Bontang Bar., Kota Bontang, Kalimantan Timur 75325","Jl. Brigjen Katamso, Belimbing, Kec. Bontang Bar., Kota Bontang",KALIMANTAN TIMUR,75325.0,Indonesia,82174733975.0,,,0.1359215,117.4701206,https://maps.google.com/?cid=0x0:0x956d2931ccb18d88,
toko bangunan,Toko Bahan Bangunan,Toko Bangunan Mulya Jaya,"5F99+VJX, Jl. Slamet Riyadi, Lok Tuan, Kec. Bontang Utara, Kota Bontang, Kalimantan Timur 75321","Jl. Slamet Riyadi, Lok Tuan, Kec. Bontang Utara, Kota Bontang",KALIMANTAN TIMUR,75321.0,Indonesia,82227713040.0,,,0.169732,117.4691092,https://maps.google.com/?cid=0x0:0xee13230713e4cf97,
toko bangunan,Toko Bahan Bangunan,Toko Bangunan Rinaldi,"Jl. Soekarno Hatta No.11, Kanaan, Kec. Bontang Bar., Kota Bontang, Kalimantan Timur 75321","Kanaan, Kec. Bontang Bar., Kota Bontang",KALIMANTAN TIMUR,75321.0,Indonesia,82227713040.0,,,0.1359029,117.4486825,https://maps.google.com/?cid=0x0:0x3f3fd11013252e2,
toko bangunan,toko bangunan,Kalimantan Timur 75324,"Kec. Bontang Sel., Kota Bontang, Kalimantan Timur","Kota Bontang, Kalimantan Timur",KALIMANTAN TIMUR,,Indonesia,,,,0.1495015,117.2911248,https://maps.google.com/?cid=0x0:0x38f97e9610099fa,
toko bangunan,Toko Bahan Bangunan,Toko Asy diva,"2CXX+V5G, Bontang Lestari, Kec. Bontang Sel., Kota Bontang, Kalimantan Timur 75324","Bontang Lestari, Kec. Bontang Sel., Kota Bontang",KALIMANTAN TIMUR,75324.0,Indonesia,,,,0.0496803,117.4479598,https://maps.google.com/?cid=0x0:0x96a0f1675cb04432,
toko bangunan,Toko Bahan Bangunan,Aida Jaya,"Jalan.Karya Bakti No.18, Bontang Lestari, Kec. Bontang Sel., Kota Bontang, Kalimantan Timur 75325","Bontang Lestari, Kec. Bontang Sel., Kota Bontang",KALIMANTAN TIMUR,75325.0,Indonesia,82246409958.0,,,0.0753733,117.4554406,https://maps.google.com/?cid=0x0:0xc6690b22fe26628c,
toko bangunan,Toko Perlengkapan Rumah,UD Mega HMT (jual material Bangunan),"Jl. HM Ardans No.15a, Satimpo, Kec. Bontang Sel., Kota Bontang, Kalimantan Timur 75325","Satimpo, Kec. Bontang Sel., Kota Bontang",KALIMANTAN TIMUR,75325.0,Indonesia,85609323117.0,,,0.1279161,117.4787435,https://maps.google.com/?cid=0x0:0xec62e9c005866721,
toko bangunan,Pemasok Bahan Bangunan,Toko Bangunan Sinar Sanjaya,"Bar., Kanaan, Kec. Bontang Bar., Kota Bontang, Kalimantan Timur 75321","Kanaan, Kec. Bontang Bar., Kota Bontang",KALIMANTAN TIMUR,75321.0,Indonesia,81818202362.0,,,0.141098,117.4512106,https://maps.google.com/?cid=0x0:0x73bc47e972b63da8,
toko bangunan,Toko Bahan Bangunan,Toko Material Bangunan Bone Raya,"4FMQ+2MM, Jl. Jend. Achmad Yani, Api-Api, Kec. Bontang Utara, Kota Bontang, Kalimantan Timur 75325","Jl. Jend. Achmad Yani, Api-Api, Kec. Bontang Utara, Kota Bontang",KALIMANTAN TIMUR,75325.0,Indonesia,87784554231.0,,,0.1325981,117.489157,https://maps.google.com/?cid=0x0:0xfc11f304da32c892,
toko bangunan,Toko Bahan Bangunan,Toko Material Bangunan Subur,"Jl. Imam Bonjol No.34, Satimpo, Kec. Bontang Sel., Kota Bontang, Kalimantan Timur 75325","Satimpo, Kec. Bontang Sel., Kota Bontang",KALIMANTAN TIMUR,75325.0,Indonesia,85169981293.0,,,0.1292125,117.4797344,https://maps.google.com/?cid=0x0:0xce940fe7107d6e70,
toko bangunan,Toko,Toko Bangunan Sejati,"5C2J+MF6, Jl. Poros Bontang - Sangatta, Tlk. Pandan, Kec. Tlk. Pandan, Kabupaten Kutai Timur, Kalimantan Timur 75321","Jl. Poros Bontang - Sangatta, Tlk. Pandan, Kec. Tlk. Pandan, Kabupaten Kutai Timur",KALIMANTAN TIMUR,75321.0,Indonesia,81350063292.0,,,0.1516557,117.4311376,https://maps.google.com/?cid=0x0:0xd700a7ca9fb8d807,
toko bangunan,Toko Bahan Bangunan,Santosa,"4FJH+CVR, Jl. Imam Bonjol, Satimpo, Kec. Bontang Sel., Kota Bontang, Kalimantan Timur 75325","Jl. Imam Bonjol, Satimpo, Kec. Bontang Sel., Kota Bontang",KALIMANTAN TIMUR,75325.0,Indonesia,82173389240.0,,,0.1311177,117.4796442,https://maps.google.com/?cid=0x0:0x8a57247338fa3ed6,
toko bangunan,Toko Bahan Bangunan,TOKO BANGUNAN CAHAYA BARU,"4F8J+2H2, Jl. Sultan Hasanudin, Berbas Tengah, Kec. Bontang Sel., Kota Bontang, Kalimantan Timur 75323","Jl. Sultan Hasanudin, Berbas Tengah, Kec. Bontang Sel., Kota Bontang",KALIMANTAN TIMUR,75323.0,Indonesia,85179569934.0,,,0.1150237,117.4813954,https://maps.google.com/?cid=0x0:0x72c17ac468460940,
toko bangunan,Toko Bahan Bangunan,Toko Bangunan Hikmah Jaya,"Jl Ciptomangunkusumo K28, Komplek BTN PKT, 75313, Belimbing, Kec. Bontang Bar., Kota Bontang, Kalimantan Timur 75325","Komplek BTN PKT,",KALIMANTAN TIMUR,75313.0,Indonesia,83114785308.0,,,0.145588,117.4744558,https://maps.google.com/?cid=0x0:0x4e4323954ced27bb,
toko bangunan,Toko Bahan Bangunan,Toko Bangunan Gemilang,"4FPV+Q24, Bontang Baru, Kec. Bontang Utara, Kota Bontang, Kalimantan Timur 75325","Bontang Baru, Kec. Bontang Utara, Kota Bontang",KALIMANTAN TIMUR,75325.0,Indonesia,83114785308.0,,,0.136896,117.4925752,https://maps.google.com/?cid=0x0:0xe070b212c7ab1d6b,
toko bangunan,Toko Bahan Bangunan,Toko Bangunan Rusdi,"Jl. Pipa Sidrap, Belimbing, Kec. Bontang Bar., Kota Bontang, Kalimantan Timur 75314","Belimbing, Kec. Bontang Bar., Kota Bontang",KALIMANTAN TIMUR,75314.0,Indonesia,82227713040.0,,,0.1729039,117.4621638,https://maps.google.com/?cid=0x0:0x59d5f4d3d0db3ac0,
toko bangunan,Toko Bahan Bangunan,Anjas Jaya Bangunan,"4FJW+9V6, Jl. Pattimura, Api-Api, Kec. Bontang Utara, Kota Bontang, Kalimantan Timur 75313","Jl. Pattimura, Api-Api, Kec. Bontang Utara, Kota Bontang",KALIMANTAN TIMUR,75313.0,Indonesia,83114785308.0,,,0.1309056,117.4971478,https://maps.google.com/?cid=0x0:0xf0139d59d2da1565,
toko bangunan,Toko Bahan Bangunan,Toko Bangunan Fadli,"4F6M+68W, Jl. Sultan Hasanudin, Berbas Pantai, Kec. Bontang Sel., Kota Bontang, Kalimantan Timur 75325","Jl. Sultan Hasanudin, Berbas Pantai, Kec. Bontang Sel., Kota Bontang",KALIMANTAN TIMUR,75325.0,Indonesia,83114785308.0,,,0.1106239,117.483322,https://maps.google.com/?cid=0x0:0x6d856a8335ce42c7,
toko bangunan,Toko Bahan Bangunan,Toko bangunan Renaldi jaya bontang,"Jl. Soekarno Hatta No.12, Kanaan, Kec. Bontang Bar., Kota Bontang, Kalimantan Timur 75321","Kanaan, Kec. Bontang Bar., Kota Bontang",KALIMANTAN TIMUR,75321.0,Indonesia,82227713040.0,,,0.1406227,117.4497134,https://maps.google.com/?cid=0x0:0x2afbaa22e37f71fd,
toko bangunan,Toko Bahan Bangunan,Toko Setia Abadi,"4FFW+4V4, Tj. Laut Indah, Kec. Bontang Sel., Kota Bontang, Kalimantan Timur 75313","Tj. Laut Indah, Kec. Bontang Sel., Kota Bontang",KALIMANTAN TIMUR,75313.0,Indonesia,,,,0.1227655,117.4972008,https://maps.google.com/?cid=0x0:0x7524eafc6f9b72a8,
toko bangunan,Toko Bahan Bangunan,Toko Bangunan kembang mekar,"Jl. Aip II KS Tubun No.45, Tj. Laut Indah, Kec. Bontang Sel., Kota Bontang, Kalimantan Timur 75325","Tj. Laut Indah, Kec. Bontang Sel., Kota Bontang",KALIMANTAN TIMUR,75325.0,Indonesia,82227713040.0,,,0.1204223,117.495892,https://maps.google.com/?cid=0x0:0xd4b46857cb2e77fa,
toko bangunan,,UD. Jaya Abadi,"Jalan R.E Martadinata RT.08 No. 112, Lok Tuan, Kec. Bontang Utara, Kota Bontang, Kalimantan Timur 75321","Lok Tuan, Kec. Bontang Utara, Kota Bontang",KALIMANTAN TIMUR,75321.0,Indonesia,83114785308.0,,,0.1669023,117.4839646,https://maps.google.com/?cid=0x0:0x74d29a148d2c2b6f,
toko bangunan,Toko Bahan Bangunan,Multi Karya. CV,"JL. Ki Hajar Dewantara, No. 9 RT. 016, Berebas Tengah, Bontang Selatan, Berbas Tengah, Kec. Bontang Sel., Kota Bontang, Kalimantan Timur 75323","No. 9 RT. 016, Berebas Tengah, Bontang Selatan, Berbas Tengah, Kec. Bontang Sel., Kota Bontang",KALIMANTAN TIMUR,75323.0,Indonesia,54822842.0,,,0.117202,117.48024,https://maps.google.com/?cid=0x0:0x7bfb4e9a9cd8ff9,
toko bangunan,Toko Bahan Bangunan,Depo Bangunan,"Jl. HM Ardans No.6, Satimpo, Kec. Bontang Sel., Kota Bontang, Kalimantan Timur 75325","Satimpo, Kec. Bontang Sel., Kota Bontang",KALIMANTAN TIMUR,75325.0,Indonesia,82278420443.0,,,0.1274809,117.4736477,https://maps.google.com/?cid=0x0:0x6402782f8bd52313,
toko bangunan,Toko Bahan Bangunan,TB.Restu Damai,"Jl. Sultan Hasanudin No.37 rt.005, Berbas Pantai, Kec. Bontang Sel., Kota Bontang, Kalimantan Timur 75325","Berbas Pantai, Kec. Bontang Sel., Kota Bontang",KALIMANTAN TIMUR,75325.0,Indonesia,85169995912.0,,,0.1107912,117.483034,https://maps.google.com/?cid=0x0:0xb1d4b08816d1403b,
toko bangunan,Toko Bahan Bangunan,Manunggal Jaya,"2FQ3+8R5, Jl. Letjen Urip Sumoharjo, Bontang Lestari, Kec. Bontang Sel., Kota Bontang, Kalimantan Timur","Kota Bontang, Kalimantan Timur",KALIMANTAN TIMUR,,Indonesia,,,,0.038251,117.45461,https://maps.google.com/?cid=0x0:0x7075d4648719ce60,
toko bangunan,Toko Bahan Bangunan,Toko Adillah Bangunan,"4FCV+W4F, Jl. Ir. H. Juanda, Tj. Laut Indah, Kec. Bontang Sel., Kota Bontang, Kalimantan Timur 75325","Jl. Ir. H. Juanda, Tj. Laut Indah, Kec. Bontang Sel., Kota Bontang",KALIMANTAN TIMUR,75325.0,Indonesia,81225533972.0,,,0.1223141,117.4927981,https://maps.google.com/?cid=0x0:0x7b5a38c6980dccca,
toko bangunan,toko bangunan,Kalimantan Timur 75325,Kalimantan Timur,Kalimantan Timur,KALIMANTAN TIMUR,,Indonesia,,,,0.0830107,117.2440957,https://maps.google.com/?cid=0x0:0x26084c6c6cec55ca,
toko bangunan,Pemasok Bahan Bangunan,Toko Bangunan Sinar Sanjaya,"Bar., Kanaan, Kec. Bontang Bar., Kota Bontang, Kalimantan Timur 75321","Kanaan, Kec. Bontang Bar., Kota Bontang",KALIMANTAN TIMUR,75321.0,Indonesia,81818202362.0,,,0.141098,117.4512106,https://maps.google.com/?cid=0x0:0x73bc47e972b63da8,
toko bangunan,Toko Bahan Bangunan,Toko Material Bangunan Bone Raya,"4FMQ+2MM, Jl. Jend. Achmad Yani, Api-Api, Kec. Bontang Utara, Kota Bontang, Kalimantan Timur 75325","Jl. Jend. Achmad Yani, Api-Api, Kec. Bontang Utara, Kota Bontang",KALIMANTAN TIMUR,75325.0,Indonesia,87784554231.0,,,0.1325981,117.489157,https://maps.google.com/?cid=0x0:0xfc11f304da32c892,
toko bangunan,Toko Bahan Bangunan,Toko Material Bangunan Subur,"Jl. Imam Bonjol No.34, Satimpo, Kec. Bontang Sel., Kota Bontang, Kalimantan Timur 75325","Satimpo, Kec. Bontang Sel., Kota Bontang",KALIMANTAN TIMUR,75325.0,Indonesia,85169981293.0,,,0.1292125,117.4797344,https://maps.google.com/?cid=0x0:0xce940fe7107d6e70,
toko bangunan,Toko Bahan Bangunan,Toko Bangunan Fadli,"4F6M+68W, Jl. Sultan Hasanudin, Berbas Pantai, Kec. Bontang Sel., Kota Bontang, Kalimantan Timur 75325","Jl. Sultan Hasanudin, Berbas Pantai, Kec. Bontang Sel., Kota Bontang",KALIMANTAN TIMUR,75325.0,Indonesia,83114785308.0,,,0.1106239,117.483322,https://maps.google.com/?cid=0x0:0x6d856a8335ce42c7,
toko bangunan,Toko Bahan Bangunan,Toko Bangunan Gemilang,"4FPV+Q24, Bontang Baru, Kec. Bontang Utara, Kota Bontang, Kalimantan Timur 75325","Bontang Baru, Kec. Bontang Utara, Kota Bontang",KALIMANTAN TIMUR,75325.0,Indonesia,83114785308.0,,,0.136896,117.4925752,https://maps.google.com/?cid=0x0:0xe070b212c7ab1d6b,
toko bangunan,Toko Bahan Bangunan,Aida Jaya,"Jalan.Karya Bakti No.18, Bontang Lestari, Kec. Bontang Sel., Kota Bontang, Kalimantan Timur 75325","Bontang Lestari, Kec. Bontang Sel., Kota Bontang",KALIMANTAN TIMUR,75325.0,Indonesia,82246409958.0,,,0.0753733,117.4554406,https://maps.google.com/?cid=0x0:0xc6690b22fe26628c,
toko bangunan,Toko Bahan Bangunan,TB.Restu Damai,"Jl. Sultan Hasanudin No.37 rt.005, Berbas Pantai, Kec. Bontang Sel., Kota Bontang, Kalimantan Timur 75325","Berbas Pantai, Kec. Bontang Sel., Kota Bontang",KALIMANTAN TIMUR,75325.0,Indonesia,85169995912.0,,,0.1107912,117.483034,https://maps.google.com/?cid=0x0:0xb1d4b08816d1403b,
toko bangunan,Toko Bahan Bangunan,U.D. Damai Abadi,"4F9H+4FH, Berbas Tengah, Kec. Bontang Sel., Kota Bontang, Kalimantan Timur 75325","Berbas Tengah, Kec. Bontang Sel., Kota Bontang",KALIMANTAN TIMUR,75325.0,Indonesia,82227713040.0,,,0.1178035,117.4787232,https://maps.google.com/?cid=0x0:0xd49b4b4c03e2b43e,
toko bangunan,Toko Bahan Bangunan,TOKO BANGUNAN CAHAYA BARU,"4F8J+2H2, Jl. Sultan Hasanudin, Berbas Tengah, Kec. Bontang Sel., Kota Bontang, Kalimantan Timur 75323","Jl. Sultan Hasanudin, Berbas Tengah, Kec. Bontang Sel., Kota Bontang",KALIMANTAN TIMUR,75323.0,Indonesia,85179569934.0,,,0.1150237,117.4813954,https://maps.google.com/?cid=0x0:0x72c17ac468460940,
toko bangunan,Toko Bahan Bangunan,Toko Bangunan Hikmah Jaya,"Jl Ciptomangunkusumo K28, Komplek BTN PKT, 75313, Belimbing, Kec. Bontang Bar., Kota Bontang, Kalimantan Timur 75325","Komplek BTN PKT,",KALIMANTAN TIMUR,75313.0,Indonesia,83114785308.0,,,0.145588,117.4744558,https://maps.google.com/?cid=0x0:0x4e4323954ced27bb,
toko bangunan,Toko Bahan Bangunan,Santosa,"4FJH+CVR, Jl. Imam Bonjol, Satimpo, Kec. Bontang Sel., Kota Bontang, Kalimantan Timur 75325","Jl. Imam Bonjol, Satimpo, Kec. Bontang Sel., Kota Bontang",KALIMANTAN TIMUR,75325.0,Indonesia,82173389240.0,,,0.1311177,117.4796442,https://maps.google.com/?cid=0x0:0x8a57247338fa3ed6,
toko bangunan,Toko Bahan Bangunan,Rian Bangunan,"Jl. Ir. H. Juanda No.66, Tj. Laut, Kec. Bontang Sel., Kota Bontang, Kalimantan Timur 75325","Tj. Laut, Kec. Bontang Sel., Kota Bontang",KALIMANTAN TIMUR,75325.0,Indonesia,82227713040.0,,,0.1250338,117.4861032,https://maps.google.com/?cid=0x0:0x1f195c348db2a808,
toko bangunan,Toko Bahan Bangunan,Toko Bangunan kembang mekar,"Jl. Aip II KS Tubun No.45, Tj. Laut Indah, Kec. Bontang Sel., Kota Bontang, Kalimantan Timur 75325","Tj. Laut Indah, Kec. Bontang Sel., Kota Bontang",KALIMANTAN TIMUR,75325.0,Indonesia,82227713040.0,,,0.1204223,117.495892,https://maps.google.com/?cid=0x0:0xd4b46857cb2e77fa,
toko bangunan,Toko Bahan Bangunan,Depo Bangunan,"Jl. HM Ardans No.6, Satimpo, Kec. Bontang Sel., Kota Bontang, Kalimantan Timur 75325","Satimpo, Kec. Bontang Sel., Kota Bontang",KALIMANTAN TIMUR,75325.0,Indonesia,82278420443.0,,,0.1274809,117.4736477,https://maps.google.com/?cid=0x0:0x6402782f8bd52313,
toko bangunan,Toko Bahan Bangunan,Anjas Jaya Bangunan,"4FJW+9V6, Jl. Pattimura, Api-Api, Kec. Bontang Utara, Kota Bontang, Kalimantan Timur 75313","Jl. Pattimura, Api-Api, Kec. Bontang Utara, Kota Bontang",KALIMANTAN TIMUR,75313.0,Indonesia,83114785308.0,,,0.1309056,117.4971478,https://maps.google.com/?cid=0x0:0xf0139d59d2da1565,
toko bangunan,Toko Bahan Bangunan,Toko Bangunan cahaya Baru 2,"Jl. Imam Bonjol No.15, Gn. Elai, Kec. Bontang Utara, Kota Bontang, Kalimantan Timur 75325","Gn. Elai, Kec. Bontang Utara, Kota Bontang",KALIMANTAN TIMUR,75325.0,Indonesia,85179569934.0,,,0.1323332,117.479699,https://maps.google.com/?cid=0x0:0xd21aa7ff1aab5871,
toko bangunan,Toko Swalayan,Toko Berlian Jaya,"4FPC+929, Jl. Brigjen Katamso, Belimbing, Kec. Bontang Bar., Kota Bontang, Kalimantan Timur 75325","Jl. Brigjen Katamso, Belimbing, Kec. Bontang Bar., Kota Bontang",KALIMANTAN TIMUR,75325.0,Indonesia,82174733975.0,,,0.1359215,117.4701206,https://maps.google.com/?cid=0x0:0x956d2931ccb18d88,
toko bangunan,Toko Bahan Bangunan,Toko Sumber Rejeki,"Jl. WR Soepratman, Berbas Tengah, BERBAS, Kota Bontang, Kalimantan Timur 75325","Berbas Tengah, BERBAS, Kota Bontang",KALIMANTAN TIMUR,75325.0,Indonesia,85169995912.0,,,0.1163531,117.4820708,https://maps.google.com/?cid=0x0:0x92b4bf309f7d6f9f,
toko bangunan,Toko Bahan Bangunan,TOKO KURNIA GRUP,"4F9Q+9H2, Jl. Sultan Syahrir, Tj. Laut Indah, Kec. Bontang Sel., Kota Bontang, Kalimantan Timur 75325","Jl. Sultan Syahrir, Tj. Laut Indah, Kec. Bontang Sel., Kota Bontang",KALIMANTAN TIMUR,75325.0,Indonesia,82171547539.0,,,0.1183789,117.4889061,https://maps.google.com/?cid=0x0:0x542748fb0f8c9b2f,
toko bangunan,Toko Perlengkapan Rumah,toko barokah jaya,"4CFV+5G5, jl.ir soekarno hatta, Gn. Telihan, Kec. Bontang Bar., Kota Bontang, Kalimantan Timur 75321","jl.ir soekarno hatta, Gn. Telihan, Kec. Bontang Bar., Kota Bontang",KALIMANTAN TIMUR,75321.0,Indonesia,85169995912.0,,,0.122896,117.4438503,https://maps.google.com/?cid=0x0:0x97236098b8201ce7,
toko bangunan,toko bangunan,Kalimantan Timur 75311,"Gn. Elai, Kec. Bontang Utara, Kota Bontang, Kalimantan Timur","Kota Bontang, Kalimantan Timur",KALIMANTAN TIMUR,,Indonesia,,,,0.1444417,117.4887629,https://maps.google.com/?cid=0x0:0x33198cc450f8143a,
toko bangunan,Toko Bahan Bangunan,Toko Material Bangunan Bone Raya,"4FMQ+2MM, Jl. Jend. Achmad Yani, Api-Api, Kec. Bontang Utara, Kota Bontang, Kalimantan Timur 75325","Jl. Jend. Achmad Yani, Api-Api, Kec. Bontang Utara, Kota Bontang",KALIMANTAN TIMUR,75325.0,Indonesia,87784554231.0,,,0.1325981,117.489157,https://maps.google.com/?cid=0x0:0xfc11f304da32c892,
toko bangunan,Pemasok Bahan Bangunan,Toko Bangunan Sinar Sanjaya,"Bar., Kanaan, Kec. Bontang Bar., Kota Bontang, Kalimantan Timur 75321","Kanaan, Kec. Bontang Bar., Kota Bontang",KALIMANTAN TIMUR,75321.0,Indonesia,81818202362.0,,,0.141098,117.4512106,https://maps.google.com/?cid=0x0:0x73bc47e972b63da8,
toko bangunan,Toko Bahan Bangunan,Toko Adillah Bangunan,"4FCV+W4F, Jl. Ir. H. Juanda, Tj. Laut Indah, Kec. Bontang Sel., Kota Bontang, Kalimantan Timur 75325","Jl. Ir. H. Juanda, Tj. Laut Indah, Kec. Bontang Sel., Kota Bontang",KALIMANTAN TIMUR,75325.0,Indonesia,81225533972.0,,,0.1223141,117.4927981,https://maps.google.com/?cid=0x0:0x7b5a38c6980dccca,
toko bangunan,Toko Bahan Bangunan,TOKO BANGUNAN CAHAYA BARU,"4F8J+2H2, Jl. Sultan Hasanudin, Berbas Tengah, Kec. Bontang Sel., Kota Bontang, Kalimantan Timur 75323","Jl. Sultan Hasanudin, Berbas Tengah, Kec. Bontang Sel., Kota Bontang",KALIMANTAN TIMUR,75323.0,Indonesia,85179569934.0,,,0.1150237,117.4813954,https://maps.google.com/?cid=0x0:0x72c17ac468460940,
toko bangunan,Toko Perlengkapan Rumah,UD Mega HMT (jual material Bangunan),"Jl. HM Ardans No.15a, Satimpo, Kec. Bontang Sel., Kota Bontang, Kalimantan Timur 75325","Satimpo, Kec. Bontang Sel., Kota Bontang",KALIMANTAN TIMUR,75325.0,Indonesia,85609323117.0,,,0.1279161,117.4787435,https://maps.google.com/?cid=0x0:0xec62e9c005866721,
toko bangunan,Toko Bahan Bangunan,Toko Bangunan cahaya Baru 2,"Jl. Imam Bonjol No.15, Gn. Elai, Kec. Bontang Utara, Kota Bontang, Kalimantan Timur 75325","Gn. Elai, Kec. Bontang Utara, Kota Bontang",KALIMANTAN TIMUR,75325.0,Indonesia,85179569934.0,,,0.1323332,117.479699,https://maps.google.com/?cid=0x0:0xd21aa7ff1aab5871,
toko bangunan,Toko Bahan Bangunan,Toko bangunan Sinar Utama Bontang,"4FWF+HH4, Belimbing, Kec. Bontang Bar., Kota Bontang, Kalimantan Timur 75313","Belimbing, Kec. Bontang Bar., Kota Bontang",KALIMANTAN TIMUR,75313.0,Indonesia,82127713040.0,,,0.1463828,117.4739511,https://maps.google.com/?cid=0x0:0x8e4d632c2efa9d69,
toko bangunan,Toko Swalayan,Toko Berlian Jaya,"4FPC+929, Jl. Brigjen Katamso, Belimbing, Kec. Bontang Bar., Kota Bontang, Kalimantan Timur 75325","Jl. Brigjen Katamso, Belimbing, Kec. Bontang Bar., Kota Bontang",KALIMANTAN TIMUR,75325.0,Indonesia,82174733975.0,,,0.1359215,117.4701206,https://maps.google.com/?cid=0x0:0x956d2931ccb18d88,
toko bangunan,Toko Perlengkapan Rumah,jual material bangunan,"4FMJ+84P, Gg. Alkindy, Api-Api, Kec. Bontang Utara, Kota Bontang, Kalimantan Timur 75325","Gg. Alkindy, Api-Api, Kec. Bontang Utara, Kota Bontang",KALIMANTAN TIMUR,75325.0,Indonesia,82227713040.0,,,0.1333439,117.4803421,https://maps.google.com/?cid=0x0:0xa34d5fa6c9c1cdbe,
toko bangunan,Toko Bahan Bangunan,Toko Bangunan Bontang Baru,"Jl. R. Suprapto No.11, RT.14, Api-Api, Kec. Bontang Utara, Kota Bontang, Kalimantan Timur 75325","RT.14, Api-Api, Kec. Bontang Utara, Kota Bontang",KALIMANTAN TIMUR,75325.0,Indonesia,82227713040.0,,,0.1348401,117.4900193,https://maps.google.com/?cid=0x0:0xf01d95f01c35482e,
toko bangunan,Toko Bahan Bangunan,Toko Material Bangunan Subur,"Jl. Imam Bonjol No.34, Satimpo, Kec. Bontang Sel., Kota Bontang, Kalimantan Timur 75325","Satimpo, Kec. Bontang Sel., Kota Bontang",KALIMANTAN TIMUR,75325.0,Indonesia,85169981293.0,,,0.1292125,117.4797344,https://maps.google.com/?cid=0x0:0xce940fe7107d6e70,
toko bangunan,Toko Bahan Bangunan,Toko bangunan Renaldi jaya bontang,"Jl. Soekarno Hatta No.12, Kanaan, Kec. Bontang Bar., Kota Bontang, Kalimantan Timur 75321","Kanaan, Kec. Bontang Bar., Kota Bontang",KALIMANTAN TIMUR,75321.0,Indonesia,82227713040.0,,,0.1406227,117.4497134,https://maps.google.com/?cid=0x0:0x2afbaa22e37f71fd,
toko bangunan,Toko Tegel,Megah Jaya Keramik,"Pesan Antar, Jl. Pattimura, Api-Api, Kec. Bontang Utara, Kota Bontang, Kalimantan Timur 75325","Jl. Pattimura, Api-Api, Kec. Bontang Utara, Kota Bontang",KALIMANTAN TIMUR,75325.0,Indonesia,85768717059.0,,,0.1302901,117.4936001,https://maps.google.com/?cid=0x0:0x27e544344641d218,
toko bangunan,Toko Bahan Bangunan,Toko Bangunan Rusdi,"Jl. Pipa Sidrap, Belimbing, Kec. Bontang Bar., Kota Bontang, Kalimantan Timur 75314","Belimbing, Kec. Bontang Bar., Kota Bontang",KALIMANTAN TIMUR,75314.0,Indonesia,82227713040.0,,,0.1729039,117.4621638,https://maps.google.com/?cid=0x0:0x59d5f4d3d0db3ac0,
toko bangunan,Toko Bahan Bangunan,Depo Bangunan,"Jl. HM Ardans No.6, Satimpo, Kec. Bontang Sel., Kota Bontang, Kalimantan Timur 75325","Satimpo, Kec. Bontang Sel., Kota Bontang",KALIMANTAN TIMUR,75325.0,Indonesia,82278420443.0,,,0.1274809,117.4736477,https://maps.google.com/?cid=0x0:0x6402782f8bd52313,
toko bangunan,Toko Bahan Bangunan,Toko bangunan nur cahaya,"4FP2+CP5, Jl. Pontianak IV, Gn. Telihan, Kec. Bontang Bar., Kota Bontang, Kalimantan Timur 75321","Jl. Pontianak IV, Gn. Telihan, Kec. Bontang Bar., Kota Bontang",KALIMANTAN TIMUR,75321.0,Indonesia,85169995912.0,,,0.1360003,117.4518614,https://maps.google.com/?cid=0x0:0xadd7c5b9dc0aae7e,
toko bangunan,Toko Bahan Bangunan,TB.Restu Damai,"Jl. Sultan Hasanudin No.37 rt.005, Berbas Pantai, Kec. Bontang Sel., Kota Bontang, Kalimantan Timur 75325","Berbas Pantai, Kec. Bontang Sel., Kota Bontang",KALIMANTAN TIMUR,75325.0,Indonesia,85169995912.0,,,0.1107912,117.483034,https://maps.google.com/?cid=0x0:0xb1d4b08816d1403b,
toko bangunan,Toko Bahan Bangunan,CV. Corona Sakti,"4FGM+H4H, Tj. Laut, Kec. Bontang Sel., Kota Bontang, Kalimantan Timur 75325","Tj. Laut, Kec. Bontang Sel., Kota Bontang",KALIMANTAN TIMUR,75325.0,Indonesia,87784554231.0,,,0.1264404,117.4828702,https://maps.google.com/?cid=0x0:0x6631f1ee4be68572,
toko bangunan,Pasar bahan bangunan,Toko Berkat Raya Baru,"4FMR+MRX, Bontang Baru, Kec. Bontang Utara, Kota Bontang, Kalimantan Timur 75313","Bontang Baru, Kec. Bontang Utara, Kota Bontang",KALIMANTAN TIMUR,75313.0,Indonesia,82159682985.0,,,0.1342451,117.492119,https://maps.google.com/?cid=0x0:0xc77f7e005f165c17,
toko bangunan,Toko Bahan Bangunan,Toko Bangunan Hikmah Jaya,"Jl Ciptomangunkusumo K28, Komplek BTN PKT, 75313, Belimbing, Kec. Bontang Bar., Kota Bontang, Kalimantan Timur 75325","Komplek BTN PKT,",KALIMANTAN TIMUR,75313.0,Indonesia,83114785308.0,,,0.145588,117.4744558,https://maps.google.com/?cid=0x0:0x4e4323954ced27bb,
toko bangunan,Toko Bahan Bangunan,Toko Bangunan Mulya Jaya,"5F99+VJX, Jl. Slamet Riyadi, Lok Tuan, Kec. Bontang Utara, Kota Bontang, Kalimantan Timur 75321","Jl. Slamet Riyadi, Lok Tuan, Kec. Bontang Utara, Kota Bontang",KALIMANTAN TIMUR,75321.0,Indonesia,82227713040.0,,,0.169732,117.4691092,https://maps.google.com/?cid=0x0:0xee13230713e4cf97,
toko bangunan,Toko Bahan Bangunan,Anjas Jaya Bangunan,"4FJW+9V6, Jl. Pattimura, Api-Api, Kec. Bontang Utara, Kota Bontang, Kalimantan Timur 75313","Jl. Pattimura, Api-Api, Kec. Bontang Utara, Kota Bontang",KALIMANTAN TIMUR,75313.0,Indonesia,83114785308.0,,,0.1309056,117.4971478,https://maps.google.com/?cid=0x0:0xf0139d59d2da1565,
toko bangunan,toko bangunan,Kalimantan Timur 75312,"Kec. Tlk. Pandan, Kabupaten Kutai Timur, Kalimantan Timur","Kabupaten Kutai Timur, Kalimantan Timur",KALIMANTAN TIMUR,,Indonesia,,,,0.2740898,117.4908738,https://maps.google.com/?cid=0x0:0x66ae207830c2242a,
toko bangunan,Toko Bahan Bangunan,Toko Adillah Bangunan,"4FCV+W4F, Jl. Ir. H. Juanda, Tj. Laut Indah, Kec. Bontang Sel., Kota Bontang, Kalimantan Timur 75325","Jl. Ir. H. Juanda, Tj. Laut Indah, Kec. Bontang Sel., Kota Bontang",KALIMANTAN TIMUR,75325.0,Indonesia,81225533972.0,,,0.1223141,117.4927981,https://maps.google.com/?cid=0x0:0x7b5a38c6980dccca,
toko bangunan,Toko Bahan Bangunan,Toko Bangunan Gemilang,"4FPV+Q24, Bontang Baru, Kec. Bontang Utara, Kota Bontang, Kalimantan Timur 75325","Bontang Baru, Kec. Bontang Utara, Kota Bontang",KALIMANTAN TIMUR,75325.0,Indonesia,83114785308.0,,,0.136896,117.4925752,https://maps.google.com/?cid=0x0:0xe070b212c7ab1d6b,
toko bangunan,Pemasok Bahan Bangunan,Toko Bangunan Sinar Sanjaya,"Bar., Kanaan, Kec. Bontang Bar., Kota Bontang, Kalimantan Timur 75321","Kanaan, Kec. Bontang Bar., Kota Bontang",KALIMANTAN TIMUR,75321.0,Indonesia,81818202362.0,,,0.141098,117.4512106,https://maps.google.com/?cid=0x0:0x73bc47e972b63da8,
toko bangunan,Toko Bahan Bangunan,Toko Bangunan Hikmah Jaya,"Jl Ciptomangunkusumo K28, Komplek BTN PKT, 75313, Belimbing, Kec. Bontang Bar., Kota Bontang, Kalimantan Timur 75325","Komplek BTN PKT,",KALIMANTAN TIMUR,75313.0,Indonesia,83114785308.0,,,0.145588,117.4744558,https://maps.google.com/?cid=0x0:0x4e4323954ced27bb,
toko bangunan,Toko Bahan Bangunan,Toko Bangunan cahaya Baru 2,"Jl. Imam Bonjol No.15, Gn. Elai, Kec. Bontang Utara, Kota Bontang, Kalimantan Timur 75325","Gn. Elai, Kec. Bontang Utara, Kota Bontang",KALIMANTAN TIMUR,75325.0,Indonesia,85179569934.0,,,0.1323332,117.479699,https://maps.google.com/?cid=0x0:0xd21aa7ff1aab5871,
toko bangunan,Toko Perlengkapan Rumah,UD Mega HMT (jual material Bangunan),"Jl. HM Ardans No.15a, Satimpo, Kec. Bontang Sel., Kota Bontang, Kalimantan Timur 75325","Satimpo, Kec. Bontang Sel., Kota Bontang",KALIMANTAN TIMUR,75325.0,Indonesia,85609323117.0,,,0.1279161,117.4787435,https://maps.google.com/?cid=0x0:0xec62e9c005866721,
toko bangunan,Toko Bahan Bangunan,TOKO BANGUNAN CAHAYA BARU,"4F8J+2H2, Jl. Sultan Hasanudin, Berbas Tengah, Kec. Bontang Sel., Kota Bontang, Kalimantan Timur 75323","Jl. Sultan Hasanudin, Berbas Tengah, Kec. Bontang Sel., Kota Bontang",KALIMANTAN TIMUR,75323.0,Indonesia,85179569934.0,,,0.1150237,117.4813954,https://maps.google.com/?cid=0x0:0x72c17ac468460940,
toko bangunan,Toko Bahan Bangunan,Depo Bangunan,"Jl. HM Ardans No.6, Satimpo, Kec. Bontang Sel., Kota Bontang, Kalimantan Timur 75325","Satimpo, Kec. Bontang Sel., Kota Bontang",KALIMANTAN TIMUR,75325.0,Indonesia,82278420443.0,,,0.1274809,117.4736477,https://maps.google.com/?cid=0x0:0x6402782f8bd52313,
toko bangunan,Toko Bahan Bangunan,Toko bangunan Renaldi jaya bontang,"Jl. Soekarno Hatta No.12, Kanaan, Kec. Bontang Bar., Kota Bontang, Kalimantan Timur 75321","Kanaan, Kec. Bontang Bar., Kota Bontang",KALIMANTAN TIMUR,75321.0,Indonesia,82227713040.0,,,0.1406227,117.4497134,https://maps.google.com/?cid=0x0:0x2afbaa22e37f71fd,
toko bangunan,Toko Bahan Bangunan,Toko Bangunan Rusdi,"Jl. Pipa Sidrap, Belimbing, Kec. Bontang Bar., Kota Bontang, Kalimantan Timur 75314","Belimbing, Kec. Bontang Bar., Kota Bontang",KALIMANTAN TIMUR,75314.0,Indonesia,82227713040.0,,,0.1729039,117.4621638,https://maps.google.com/?cid=0x0:0x59d5f4d3d0db3ac0,
toko bangunan,Toko Bahan Bangunan,Toko Material Bangunan Subur,"Jl. Imam Bonjol No.34, Satimpo, Kec. Bontang Sel., Kota Bontang, Kalimantan Timur 75325","Satimpo, Kec. Bontang Sel., Kota Bontang",KALIMANTAN TIMUR,75325.0,Indonesia,85169981293.0,,,0.1292125,117.4797344,https://maps.google.com/?cid=0x0:0xce940fe7107d6e70,
toko bangunan,Toko Bahan Bangunan,Toko Bangunan Bontang Baru,"Jl. R. Suprapto No.11, RT.14, Api-Api, Kec. Bontang Utara, Kota Bontang, Kalimantan Timur 75325","RT.14, Api-Api, Kec. Bontang Utara, Kota Bontang",KALIMANTAN TIMUR,75325.0,Indonesia,82227713040.0,,,0.1348401,117.4900193,https://maps.google.com/?cid=0x0:0xf01d95f01c35482e,
toko bangunan,Toko Bahan Bangunan,Toko Bangunan Fadli,"4F6M+68W, Jl. Sultan Hasanudin, Berbas Pantai, Kec. Bontang Sel., Kota Bontang, Kalimantan Timur 75325","Jl. Sultan Hasanudin, Berbas Pantai, Kec. Bontang Sel., Kota Bontang",KALIMANTAN TIMUR,75325.0,Indonesia,83114785308.0,,,0.1106239,117.483322,https://maps.google.com/?cid=0x0:0x6d856a8335ce42c7,
toko bangunan,Toko Swalayan,Toko Berlian Jaya,"4FPC+929, Jl. Brigjen Katamso, Belimbing, Kec. Bontang Bar., Kota Bontang, Kalimantan Timur 75325","Jl. Brigjen Katamso, Belimbing, Kec. Bontang Bar., Kota Bontang",KALIMANTAN TIMUR,75325.0,Indonesia,82174733975.0,,,0.1359215,117.4701206,https://maps.google.com/?cid=0x0:0x956d2931ccb18d88,
toko bangunan,Toko Perlengkapan Rumah,jual material bangunan,"4FMJ+84P, Gg. Alkindy, Api-Api, Kec. Bontang Utara, Kota Bontang, Kalimantan Timur 75325","Gg. Alkindy, Api-Api, Kec. Bontang Utara, Kota Bontang",KALIMANTAN TIMUR,75325.0,Indonesia,82227713040.0,,,0.1333439,117.4803421,https://maps.google.com/?cid=0x0:0xa34d5fa6c9c1cdbe,
toko bangunan,Toko Bahan Bangunan,Toko Bangunan kembang mekar,"Jl. Aip II KS Tubun No.45, Tj. Laut Indah, Kec. Bontang Sel., Kota Bontang, Kalimantan Timur 75325","Tj. Laut Indah, Kec. Bontang Sel., Kota Bontang",KALIMANTAN TIMUR,75325.0,Indonesia,82227713040.0,,,0.1204223,117.495892,https://maps.google.com/?cid=0x0:0xd4b46857cb2e77fa,
toko bangunan,Toko Perlengkapan Rumah,Toko subur jaya makmur,"7FQH+QPF, Jl. Ahmad Yani, Kandolo, Kec. Tlk. Pandan, Kabupaten Kutai Timur, Kalimantan Timur 75314","Jl. Ahmad Yani, Kandolo, Kec. Tlk. Pandan, Kabupaten Kutai Timur",KALIMANTAN TIMUR,75314.0,Indonesia,82131265555.0,,,0.289438,117.479295,https://maps.google.com/?cid=0x0:0x8bf5bfdf9469f164,
toko bangunan,Toko Bahan Bangunan,Toko Bangunan Pelangi,"6FQG+8FR, Martadinata, Kec. Tlk. Pandan, Kabupaten Kutai Timur, Kalimantan Timur 75311","Martadinata, Kec. Tlk. Pandan, Kabupaten Kutai Timur",KALIMANTAN TIMUR,75311.0,Indonesia,85166900649.0,,,0.2383682,117.4761532,https://maps.google.com/?cid=0x0:0x67d15ef07cacb5e9,
toko bangunan,Toko Bahan Bangunan,Toko bangunan nur cahaya,"4FP2+CP5, Jl. Pontianak IV, Gn. Telihan, Kec. Bontang Bar., Kota Bontang, Kalimantan Timur 75321","Jl. Pontianak IV, Gn. Telihan, Kec. Bontang Bar., Kota Bontang",KALIMANTAN TIMUR,75321.0,Indonesia,85169995912.0,,,0.1360003,117.4518614,https://maps.google.com/?cid=0x0:0xadd7c5b9dc0aae7e,
toko bangunan,Toko Perlengkapan Rumah,Toko WAHYU,"5FCG+7QX, Jl. Slamet Riyadi, Lok Tuan, Kec. Bontang Utara, Kota Bontang, Kalimantan Timur 75321","Jl. Slamet Riyadi, Lok Tuan, Kec. Bontang Utara, Kota Bontang",KALIMANTAN TIMUR,75321.0,Indonesia,81253053010.0,,,0.1707488,117.4769879,https://maps.google.com/?cid=0x0:0xa4b517485d369540,
toko bangunan,,UD. Jaya Abadi,"Jalan R.E Martadinata RT.08 No. 112, Lok Tuan, Kec. Bontang Utara, Kota Bontang, Kalimantan Timur 75321","Lok Tuan, Kec. Bontang Utara, Kota Bontang",KALIMANTAN TIMUR,75321.0,Indonesia,83114785308.0,,,0.1669023,117.4839646,https://maps.google.com/?cid=0x0:0x74d29a148d2c2b6f,
toko bangunan,Toko Bahan Bangunan,Anjas Jaya Bangunan,"4FJW+9V6, Jl. Pattimura, Api-Api, Kec. Bontang Utara, Kota Bontang, Kalimantan Timur 75313","Jl. Pattimura, Api-Api, Kec. Bontang Utara, Kota Bontang",KALIMANTAN TIMUR,75313.0,Indonesia,83114785308.0,,,0.1309056,117.4971478,https://maps.google.com/?cid=0x0:0xf0139d59d2da1565,
toko bangunan,Toko Bahan Bangunan,Sumber Rejeki,"5FC9+3J7, Lok Tuan, Kec. Bontang Utara, Kota Bontang, Kalimantan Timur 75321","Lok Tuan, Kec. Bontang Utara, Kota Bontang",KALIMANTAN TIMUR,75321.0,Indonesia,82227713040.0,,,0.1701583,117.4690505,https://maps.google.com/?cid=0x0:0x6f5ec9209f915abe,
toko bangunan,Toko Bahan Bangunan,Toko Bangunan Mulya Jaya,"5F99+VJX, Jl. Slamet Riyadi, Lok Tuan, Kec. Bontang Utara, Kota Bontang, Kalimantan Timur 75321","Jl. Slamet Riyadi, Lok Tuan, Kec. Bontang Utara, Kota Bontang",KALIMANTAN TIMUR,75321.0,Indonesia,82227713040.0,,,0.169732,117.4691092,https://maps.google.com/?cid=0x0:0xee13230713e4cf97,
toko bangunan,Toko Bahan Bangunan,Toko GHINA BERKAH ABADI,"Jl. MH. Thamrin No.06, RT.02, Bontang Baru, Kec. Bontang Utara, Kota Bontang, Kalimantan Timur 75313","RT.02, Bontang Baru, Kec. Bontang Utara, Kota Bontang",KALIMANTAN TIMUR,75313.0,Indonesia,82227713040.0,,,0.1378498,117.4891904,https://maps.google.com/?cid=0x0:0xa963b97e64c603eb,
toko bangunan,Toko Bahan Bangunan,TOKO BANGUNAN FAEYZA JAYA,"4FRQ+GQ5, Jl. MH. Thamrin, Bontang Baru, Kec. Bontang Utara, Kota Bontang, Kalimantan Timur 75313","Jl. MH. Thamrin, Bontang Baru, Kec. Bontang Utara, Kota Bontang",KALIMANTAN TIMUR,75313.0,Indonesia,82227713040.0,,,0.141251,117.4894714,https://maps.google.com/?cid=0x0:0xdd8d0d5f5883cc08,
toko bangunan,Toko Bahan Bangunan,toko bangunan sumber rejeki,"Jl. Tari Enggang No.rt.15, Guntung, Kec. Bontang Utara, Kota Bontang, Kalimantan Timur 75321","Guntung, Kec. Bontang Utara, Kota Bontang",KALIMANTAN TIMUR,75321.0,Indonesia,82227713040.0,,,0.1977153,117.4756078,https://maps.google.com/?cid=0x0:0x517c35612317ba0b,
toko bangunan,Toko Tegel,Megah Jaya Keramik,"Pesan Antar, Jl. Pattimura, Api-Api, Kec. Bontang Utara, Kota Bontang, Kalimantan Timur 75325","Jl. Pattimura, Api-Api, Kec. Bontang Utara, Kota Bontang",KALIMANTAN TIMUR,75325.0,Indonesia,85768717059.0,,,0.1302901,117.4936001,https://maps.google.com/?cid=0x0:0x27e544344641d218,
toko bangunan,toko bangunan,Kec. Bontang Utara,"Kota Bontang, Kalimantan Timur","Kota Bontang, Kalimantan Timur",KALIMANTAN TIMUR,,Indonesia,,,,0.1342654,117.4918113,https://maps.google.com/?cid=0x0:0x8e264a38633f2806,
toko bangunan,Toko Bahan Bangunan,Toko Adillah Bangunan,"4FCV+W4F, Jl. Ir. H. Juanda, Tj. Laut Indah, Kec. Bontang Sel., Kota Bontang, Kalimantan Timur 75325","Jl. Ir. H. Juanda, Tj. Laut Indah, Kec. Bontang Sel., Kota Bontang",KALIMANTAN TIMUR,75325.0,Indonesia,81225533972.0,,,0.1223141,117.4927981,https://maps.google.com/?cid=0x0:0x7b5a38c6980dccca,
toko bangunan,Toko Bahan Bangunan,Toko Material Bangunan Bone Raya,"4FMQ+2MM, Jl. Jend. Achmad Yani, Api-Api, Kec. Bontang Utara, Kota Bontang, Kalimantan Timur 75325","Jl. Jend. Achmad Yani, Api-Api, Kec. Bontang Utara, Kota Bontang",KALIMANTAN TIMUR,75325.0,Indonesia,87784554231.0,,,0.1325981,117.489157,https://maps.google.com/?cid=0x0:0xfc11f304da32c892,
toko bangunan,Toko Perlengkapan Rumah,Toko WAHYU,"5FCG+7QX, Jl. Slamet Riyadi, Lok Tuan, Kec. Bontang Utara, Kota Bontang, Kalimantan Timur 75321","Jl. Slamet Riyadi, Lok Tuan, Kec. Bontang Utara, Kota Bontang",KALIMANTAN TIMUR,75321.0,Indonesia,81253053010.0,,,0.1707488,117.4769879,https://maps.google.com/?cid=0x0:0xa4b517485d369540,
toko bangunan,Pemasok Bahan Bangunan,Toko Bangunan Sinar Sanjaya,"Bar., Kanaan, Kec. Bontang Bar., Kota Bontang, Kalimantan Timur 75321","Kanaan, Kec. Bontang Bar., Kota Bontang",KALIMANTAN TIMUR,75321.0,Indonesia,81818202362.0,,,0.141098,117.4512106,https://maps.google.com/?cid=0x0:0x73bc47e972b63da8,
toko bangunan,Toko Bahan Bangunan,TOKO BANGUNAN CAHAYA BARU,"4F8J+2H2, Jl. Sultan Hasanudin, Berbas Tengah, Kec. Bontang Sel., Kota Bontang, Kalimantan Timur 75323","Jl. Sultan Hasanudin, Berbas Tengah, Kec. Bontang Sel., Kota Bontang",KALIMANTAN TIMUR,75323.0,Indonesia,85179569934.0,,,0.1150237,117.4813954,https://maps.google.com/?cid=0x0:0x72c17ac468460940,
toko bangunan,Toko Bahan Bangunan,Anjas Jaya Bangunan,"4FJW+9V6, Jl. Pattimura, Api-Api, Kec. Bontang Utara, Kota Bontang, Kalimantan Timur 75313","Jl. Pattimura, Api-Api, Kec. Bontang Utara, Kota Bontang",KALIMANTAN TIMUR,75313.0,Indonesia,83114785308.0,,,0.1309056,117.4971478,https://maps.google.com/?cid=0x0:0xf0139d59d2da1565,
toko bangunan,Toko Bahan Bangunan,Toko Bangunan cahaya Baru 2,"Jl. Imam Bonjol No.15, Gn. Elai, Kec. Bontang Utara, Kota Bontang, Kalimantan Timur 75325","Gn. Elai, Kec. Bontang Utara, Kota Bontang",KALIMANTAN TIMUR,75325.0,Indonesia,85179569934.0,,,0.1323332,117.479699,https://maps.google.com/?cid=0x0:0xd21aa7ff1aab5871,
toko bangunan,Toko Perlengkapan Rumah,UD Mega HMT (jual material Bangunan),"Jl. HM Ardans No.15a, Satimpo, Kec. Bontang Sel., Kota Bontang, Kalimantan Timur 75325","Satimpo, Kec. Bontang Sel., Kota Bontang",KALIMANTAN TIMUR,75325.0,Indonesia,85609323117.0,,,0.1279161,117.4787435,https://maps.google.com/?cid=0x0:0xec62e9c005866721,
toko bangunan,Toko Bahan Bangunan,Toko Bangunan Rusdi,"Jl. Pipa Sidrap, Belimbing, Kec. Bontang Bar., Kota Bontang, Kalimantan Timur 75314","Belimbing, Kec. Bontang Bar., Kota Bontang",KALIMANTAN TIMUR,75314.0,Indonesia,82227713040.0,,,0.1729039,117.4621638,https://maps.google.com/?cid=0x0:0x59d5f4d3d0db3ac0,
toko bangunan,Toko Bahan Bangunan,Sumber Rejeki,"5FC9+3J7, Lok Tuan, Kec. Bontang Utara, Kota Bontang, Kalimantan Timur 75321","Lok Tuan, Kec. Bontang Utara, Kota Bontang",KALIMANTAN TIMUR,75321.0,Indonesia,82227713040.0,,,0.1701583,117.4690505,https://maps.google.com/?cid=0x0:0x6f5ec9209f915abe,
toko bangunan,,UD. Jaya Abadi,"Jalan R.E Martadinata RT.08 No. 112, Lok Tuan, Kec. Bontang Utara, Kota Bontang, Kalimantan Timur 75321","Lok Tuan, Kec. Bontang Utara, Kota Bontang",KALIMANTAN TIMUR,75321.0,Indonesia,83114785308.0,,,0.1669023,117.4839646,https://maps.google.com/?cid=0x0:0x74d29a148d2c2b6f,
toko bangunan,Toko Bahan Bangunan,Toko Bangunan Hikmah Jaya,"Jl Ciptomangunkusumo K28, Komplek BTN PKT, 75313, Belimbing, Kec. Bontang Bar., Kota Bontang, Kalimantan Timur 75325","Komplek BTN PKT,",KALIMANTAN TIMUR,75313.0,Indonesia,83114785308.0,,,0.145588,117.4744558,https://maps.google.com/?cid=0x0:0x4e4323954ced27bb,
toko bangunan,Toko Bahan Bangunan,toko bangunan sumber rejeki,"Jl. Tari Enggang No.rt.15, Guntung, Kec. Bontang Utara, Kota Bontang, Kalimantan Timur 75321","Guntung, Kec. Bontang Utara, Kota Bontang",KALIMANTAN TIMUR,75321.0,Indonesia,82227713040.0,,,0.1977153,117.4756078,https://maps.google.com/?cid=0x0:0x517c35612317ba0b,
toko bangunan,Toko Bahan Bangunan,Toko Bangunan Mulya Jaya,"5F99+VJX, Jl. Slamet Riyadi, Lok Tuan, Kec. Bontang Utara, Kota Bontang, Kalimantan Timur 75321","Jl. Slamet Riyadi, Lok Tuan, Kec. Bontang Utara, Kota Bontang",KALIMANTAN TIMUR,75321.0,Indonesia,82227713040.0,,,0.169732,117.4691092,https://maps.google.com/?cid=0x0:0xee13230713e4cf97,
toko bangunan,Toko Bahan Bangunan,Toko Material Bangunan Subur,"Jl. Imam Bonjol No.34, Satimpo, Kec. Bontang Sel., Kota Bontang, Kalimantan Timur 75325","Satimpo, Kec. Bontang Sel., Kota Bontang",KALIMANTAN TIMUR,75325.0,Indonesia,85169981293.0,,,0.1292125,117.4797344,https://maps.google.com/?cid=0x0:0xce940fe7107d6e70,
toko bangunan,Toko Bahan Bangunan,TOKO BANGUNAN FAEYZA JAYA,"4FRQ+GQ5, Jl. MH. Thamrin, Bontang Baru, Kec. Bontang Utara, Kota Bontang, Kalimantan Timur 75313","Jl. MH. Thamrin, Bontang Baru, Kec. Bontang Utara, Kota Bontang",KALIMANTAN TIMUR,75313.0,Indonesia,82227713040.0,,,0.141251,117.4894714,https://maps.google.com/?cid=0x0:0xdd8d0d5f5883cc08,
toko bangunan,Toko Bahan Bangunan,Toko GHINA BERKAH ABADI,"Jl. MH. Thamrin No.06, RT.02, Bontang Baru, Kec. Bontang Utara, Kota Bontang, Kalimantan Timur 75313","RT.02, Bontang Baru, Kec. Bontang Utara, Kota Bontang",KALIMANTAN TIMUR,75313.0,Indonesia,82227713040.0,,,0.1378498,117.4891904,https://maps.google.com/?cid=0x0:0xa963b97e64c603eb,
toko bangunan,Toko Bahan Bangunan,Toko Bangunan kembang mekar,"Jl. Aip II KS Tubun No.45, Tj. Laut Indah, Kec. Bontang Sel., Kota Bontang, Kalimantan Timur 75325","Tj. Laut Indah, Kec. Bontang Sel., Kota Bontang",KALIMANTAN TIMUR,75325.0,Indonesia,82227713040.0,,,0.1204223,117.495892,https://maps.google.com/?cid=0x0:0xd4b46857cb2e77fa,
toko bangunan,Toko Tegel,Megah Jaya Keramik,"Pesan Antar, Jl. Pattimura, Api-Api, Kec. Bontang Utara, Kota Bontang, Kalimantan Timur 75325","Jl. Pattimura, Api-Api, Kec. Bontang Utara, Kota Bontang",KALIMANTAN TIMUR,75325.0,Indonesia,85768717059.0,,,0.1302901,117.4936001,https://maps.google.com/?cid=0x0:0x27e544344641d218,
toko bangunan,Toko Swalayan,Toko Berlian Jaya,"4FPC+929, Jl. Brigjen Katamso, Belimbing, Kec. Bontang Bar., Kota Bontang, Kalimantan Timur 75325","Jl. Brigjen Katamso, Belimbing, Kec. Bontang Bar., Kota Bontang",KALIMANTAN TIMUR,75325.0,Indonesia,82174733975.0,,,0.1359215,117.4701206,https://maps.google.com/?cid=0x0:0x956d2931ccb18d88,
toko bangunan,Toko Bahan Bangunan,Tb HMT Akbar,"4FHJ+PV9, Jl. Imam Bonjol, Api-Api, Kec. Bontang Utara, Kota Bontang, Kalimantan Timur 75325","Jl. Imam Bonjol, Api-Api, Kec. Bontang Utara, Kota Bontang",KALIMANTAN TIMUR,75325.0,Indonesia,85169995912.0,,,0.1293121,117.4828535,https://maps.google.com/?cid=0x0:0x7f9493e082dce9f2,
toko bangunan,Toko Alat-Alat,Sukole Jaya. PT,"JL. Hop V No.350, Bontang Baru, Kec. Bontang Utara, Kota Bontang, Kalimantan Timur 75313","Bontang Baru, Kec. Bontang Utara, Kota Bontang",KALIMANTAN TIMUR,75313.0,Indonesia,54826156.0,,,0.133552,117.499466,https://maps.google.com/?cid=0x0:0xaea6f608c7e01ef4,
hardware store,hardware store,Kalimantan Timur 75313,"Kota Bontang, Kalimantan Timur","Kota Bontang, Kalimantan Timur",KALIMANTAN TIMUR,,Indonesia,,,,0.1379123,117.493321,https://maps.google.com/?cid=0x0:0xc31ada602112700b,
hardware store,Toko Perlengkapan Rumah,MR.DIY Ruko Bontang,"Ruko Jl. Brigjen Katamso, Belimbing, Kec. Bontang Bar., Kota Bontang, Kalimantan Timur 75325","Belimbing, Kec. Bontang Bar., Kota Bontang",KALIMANTAN TIMUR,75325.0,Indonesia,2130022789.0,,,0.1395257,117.463342,https://maps.google.com/?cid=0x0:0xee54b81b7f1943d4,
hardware store,Toko Perlengkapan Rumah,UD Mega HMT (jual material Bangunan),"Jl. HM Ardans No.15a, Satimpo, Kec. Bontang Sel., Kota Bontang, Kalimantan Timur 75325","Satimpo, Kec. Bontang Sel., Kota Bontang",KALIMANTAN TIMUR,75325.0,Indonesia,85609323117.0,,,0.1279161,117.4787435,https://maps.google.com/?cid=0x0:0xec62e9c005866721,
hardware store,Toko Bahan Bangunan,Toko Adillah Bangunan,"4FCV+W4F, Jl. Ir. H. Juanda, Tj. Laut Indah, Kec. Bontang Sel., Kota Bontang, Kalimantan Timur 75325","Jl. Ir. H. Juanda, Tj. Laut Indah, Kec. Bontang Sel., Kota Bontang",KALIMANTAN TIMUR,75325.0,Indonesia,81225533972.0,,,0.1223141,117.4927981,https://maps.google.com/?cid=0x0:0x7b5a38c6980dccca,
hardware store,Toko Perkakas,JAYA HARDWARE,"Jl. Zamrut No.1 no 17, Berbas Tengah, Kec. Bontang Sel., Kota Bontang, Kalimantan Timur 75325","Berbas Tengah, Kec. Bontang Sel., Kota Bontang",KALIMANTAN TIMUR,75325.0,Indonesia,85250325896.0,,,0.1168641,117.4761906,https://maps.google.com/?cid=0x0:0xa54066d0aea7a39c,
hardware store,Toko Bahan Bangunan,Toko Material Bangunan Bone Raya,"4FMQ+2MM, Jl. Jend. Achmad Yani, Api-Api, Kec. Bontang Utara, Kota Bontang, Kalimantan Timur 75325","Jl. Jend. Achmad Yani, Api-Api, Kec. Bontang Utara, Kota Bontang",KALIMANTAN TIMUR,75325.0,Indonesia,87784554231.0,,,0.1325981,117.489157,https://maps.google.com/?cid=0x0:0xfc11f304da32c892,
hardware store,Toko Elektronik,AZKO Citimall Bontang,"Citimall, Jl. Jend. Soedirman, Tj. Laut, Kec. Bontang Sel., Kota Bontang, Kalimantan Timur 75321","Jl. Jend. Soedirman, Tj. Laut, Kec. Bontang Sel., Kota Bontang",KALIMANTAN TIMUR,75321.0,Indonesia,81241163811.0,,,0.12034,117.4848629,https://maps.google.com/?cid=0x0:0x860458663647ed62,
hardware store,hardware store,Arema gypsum jaya profil,"simpang lampu merah, Jl. Brigjen Katamso jalan tembus Bontang, Belimbing, Kec. Bontang Bar., Kota Bontang, Kalimantan Timur 75313","Jl. Brigjen Katamso jalan tembus Bontang, Belimbing, Kec. Bontang Bar., Kota Bontang",KALIMANTAN TIMUR,75313.0,Indonesia,8125335125.0,,,0.1359484,117.4719801,https://maps.google.com/?cid=0x0:0x9b0434669268fd93,
hardware store,Toko Alat Listrik,Indo Tehnik,"Jl. Jend. Achmad Yani No.20, RT.4, Tj. Laut, Kec. Bontang Sel., Kota Bontang, Kalimantan Timur 75321","RT.4, Tj. Laut, Kec. Bontang Sel., Kota Bontang",KALIMANTAN TIMUR,75321.0,Indonesia,81352660972.0,,,0.1269052,117.4831519,https://maps.google.com/?cid=0x0:0xe439053b2286908e,
hardware store,Pemasok Bahan Bangunan,Toko Bangunan Sinar Sanjaya,"Bar., Kanaan, Kec. Bontang Bar., Kota Bontang, Kalimantan Timur 75321","Kanaan, Kec. Bontang Bar., Kota Bontang",KALIMANTAN TIMUR,75321.0,Indonesia,81818202362.0,,,0.141098,117.4512106,https://maps.google.com/?cid=0x0:0x73bc47e972b63da8,
hardware store,Toko Perlengkapan Rumah,MR.DIY,"Jl. Mayor Jenderal DI Panjaitan No.51, RT.026/000, Api-Api, Kec. Bontang Utara, Kota Bontang, Kalimantan Timur 75311","RT.026/000, Api-Api, Kec. Bontang Utara, Kota Bontang",KALIMANTAN TIMUR,75311.0,Indonesia,,,,0.1333061,117.4951835,https://maps.google.com/?cid=0x0:0xcc27a53c799566b,
hardware store,Toko Perkakas,KAWAN LAMA SOLUTION BONTANG,"Jl. Brigjen Katamso No.12, Belimbing, Kec. Bontang Bar., Kota Bontang, Kalimantan Timur 75325","Belimbing, Kec. Bontang Bar., Kota Bontang",KALIMANTAN TIMUR,75325.0,Indonesia,8115814490.0,,,0.1359033,117.4684026,https://maps.google.com/?cid=0x0:0x560a6478023c5d4d,
hardware store,Toko Alat Tulis Kantor,Anugrah Terang Toko ATK Dan Digital Printing,"Jl. Bhayangkara, Gn. Elai, Kec. Bontang Utara, Kota Bontang, Kalimantan Timur 75325","Gn. Elai, Kec. Bontang Utara, Kota Bontang",KALIMANTAN TIMUR,75325.0,Indonesia,82157009222.0,,,0.1354628,117.4748881,https://maps.google.com/?cid=0x0:0x5832dba6144a759d,
hardware store,Pemasok Peralatan Industri,Krisbow Toko,"Jl. Bhayangkara No.16-D, Belimbing, Kec. Bontang Bar., Kota Bontang, Kalimantan Timur 75325","Belimbing, Kec. Bontang Bar., Kota Bontang",KALIMANTAN TIMUR,75325.0,Indonesia,54829938.0,,,0.1360089,117.471181,https://maps.google.com/?cid=0x0:0x7d060a9e0ed5ddb5,
hardware store,Toko Mebel,BAITII HOUSEWARE perabot mainan  florist,"Jl. Jend. Achmad Yani, Api-Api, Kec. Bontang Utara, Kota Bontang, Kalimantan Timur 75325","Api-Api, Kec. Bontang Utara, Kota Bontang",KALIMANTAN TIMUR,75325.0,Indonesia,82220090101.0,,,0.1323934,117.4878139,https://maps.google.com/?cid=0x0:0x49e670e5e16b364d,
hardware store,Toko Swalayan,Toko Berlian Jaya,"4FPC+929, Jl. Brigjen Katamso, Belimbing, Kec. Bontang Bar., Kota Bontang, Kalimantan Timur 75325","Jl. Brigjen Katamso, Belimbing, Kec. Bontang Bar., Kota Bontang",KALIMANTAN TIMUR,75325.0,Indonesia,82174733975.0,,,0.1359215,117.4701206,https://maps.google.com/?cid=0x0:0x956d2931ccb18d88,
hardware store,Toko Bahan Bangunan,U.D. Damai Abadi,"4F9H+4FH, Berbas Tengah, Kec. Bontang Sel., Kota Bontang, Kalimantan Timur 75325","Berbas Tengah, Kec. Bontang Sel., Kota Bontang",KALIMANTAN TIMUR,75325.0,Indonesia,82227713040.0,,,0.1178035,117.4787232,https://maps.google.com/?cid=0x0:0xd49b4b4c03e2b43e,
hardware store,Toko Tegel,Megah Jaya Keramik,"Pesan Antar, Jl. Pattimura, Api-Api, Kec. Bontang Utara, Kota Bontang, Kalimantan Timur 75325","Jl. Pattimura, Api-Api, Kec. Bontang Utara, Kota Bontang",KALIMANTAN TIMUR,75325.0,Indonesia,85768717059.0,,,0.1302901,117.4936001,https://maps.google.com/?cid=0x0:0x27e544344641d218,
hardware store,Toko Bahan Bangunan,Santosa,"4FJH+CVR, Jl. Imam Bonjol, Satimpo, Kec. Bontang Sel., Kota Bontang, Kalimantan Timur 75325","Jl. Imam Bonjol, Satimpo, Kec. Bontang Sel., Kota Bontang",KALIMANTAN TIMUR,75325.0,Indonesia,82173389240.0,,,0.1311177,117.4796442,https://maps.google.com/?cid=0x0:0x8a57247338fa3ed6,
hardware store,Pasar bahan bangunan,Toko Berkat Raya Baru,"4FMR+MRX, Bontang Baru, Kec. Bontang Utara, Kota Bontang, Kalimantan Timur 75313","Bontang Baru, Kec. Bontang Utara, Kota Bontang",KALIMANTAN TIMUR,75313.0,Indonesia,82159682985.0,,,0.1342451,117.492119,https://maps.google.com/?cid=0x0:0xc77f7e005f165c17,
hardware store,Toko Elektronik,Perdana Elektronik Bontang,"Jl. Jend. Achmad Yani No.12, Tj. Laut, Kec. Bontang Sel., Kota Bontang, Kalimantan Timur 75321","Tj. Laut, Kec. Bontang Sel., Kota Bontang",KALIMANTAN TIMUR,75321.0,Indonesia,81333851111.0,,,0.1286585,117.4843293,https://maps.google.com/?cid=0x0:0xf90804670302bf2,
hardware store,Toko Bahan Bangunan,Toko Bangunan Gemilang,"4FPV+Q24, Bontang Baru, Kec. Bontang Utara, Kota Bontang, Kalimantan Timur 75325","Bontang Baru, Kec. Bontang Utara, Kota Bontang",KALIMANTAN TIMUR,75325.0,Indonesia,83114785308.0,,,0.136896,117.4925752,https://maps.google.com/?cid=0x0:0xe070b212c7ab1d6b,
hardware store,Toko Bahan Bangunan,CV. Corona Sakti,"4FGM+H4H, Tj. Laut, Kec. Bontang Sel., Kota Bontang, Kalimantan Timur 75325","Tj. Laut, Kec. Bontang Sel., Kota Bontang",KALIMANTAN TIMUR,75325.0,Indonesia,87784554231.0,,,0.1264404,117.4828702,https://maps.google.com/?cid=0x0:0x6631f1ee4be68572,
hardware store,hardware store,Kec. Bontang Bar.,"Kota Bontang, Kalimantan Timur","Kota Bontang, Kalimantan Timur",KALIMANTAN TIMUR,,Indonesia,,,,0.1372358,117.4548496,https://maps.google.com/?cid=0x0:0xdc6d300939175081,
hardware store,Pemasok Bahan Bangunan,Toko Bangunan Sinar Sanjaya,"Bar., Kanaan, Kec. Bontang Bar., Kota Bontang, Kalimantan Timur 75321","Kanaan, Kec. Bontang Bar., Kota Bontang",KALIMANTAN TIMUR,75321.0,Indonesia,81818202362.0,,,0.141098,117.4512106,https://maps.google.com/?cid=0x0:0x73bc47e972b63da8,
hardware store,Toko Perkakas,JAYA HARDWARE,"Jl. Zamrut No.1 no 17, Berbas Tengah, Kec. Bontang Sel., Kota Bontang, Kalimantan Timur 75325","Berbas Tengah, Kec. Bontang Sel., Kota Bontang",KALIMANTAN TIMUR,75325.0,Indonesia,85250325896.0,,,0.1168641,117.4761906,https://maps.google.com/?cid=0x0:0xa54066d0aea7a39c,
hardware store,Toko Perlengkapan Rumah,UD Mega HMT (jual material Bangunan),"Jl. HM Ardans No.15a, Satimpo, Kec. Bontang Sel., Kota Bontang, Kalimantan Timur 75325","Satimpo, Kec. Bontang Sel., Kota Bontang",KALIMANTAN TIMUR,75325.0,Indonesia,85609323117.0,,,0.1279161,117.4787435,https://maps.google.com/?cid=0x0:0xec62e9c005866721,
hardware store,Toko Bahan Bangunan,Toko bangunan Renaldi jaya bontang,"Jl. Soekarno Hatta No.12, Kanaan, Kec. Bontang Bar., Kota Bontang, Kalimantan Timur 75321","Kanaan, Kec. Bontang Bar., Kota Bontang",KALIMANTAN TIMUR,75321.0,Indonesia,82227713040.0,,,0.1406227,117.4497134,https://maps.google.com/?cid=0x0:0x2afbaa22e37f71fd,
hardware store,hardware store,Arema gypsum jaya profil,"simpang lampu merah, Jl. Brigjen Katamso jalan tembus Bontang, Belimbing, Kec. Bontang Bar., Kota Bontang, Kalimantan Timur 75313","Jl. Brigjen Katamso jalan tembus Bontang, Belimbing, Kec. Bontang Bar., Kota Bontang",KALIMANTAN TIMUR,75313.0,Indonesia,8125335125.0,,,0.1359484,117.4719801,https://maps.google.com/?cid=0x0:0x9b0434669268fd93,
hardware store,Toko Perkakas,KAWAN LAMA SOLUTION BONTANG,"Jl. Brigjen Katamso No.12, Belimbing, Kec. Bontang Bar., Kota Bontang, Kalimantan Timur 75325","Belimbing, Kec. Bontang Bar., Kota Bontang",KALIMANTAN TIMUR,75325.0,Indonesia,8115814490.0,,,0.1359033,117.4684026,https://maps.google.com/?cid=0x0:0x560a6478023c5d4d,
hardware store,Toko Perlengkapan Rumah,Berkat Raya Sejahtera,"Jl. Slamet Riyadi no. R1 RT 50, Lok Tuan, Kec. Bontang Utara, Kota Bontang, Kalimantan Timur 75315","Lok Tuan, Kec. Bontang Utara, Kota Bontang",KALIMANTAN TIMUR,75315.0,Indonesia,8115555598.0,,,0.1701585,117.4688888,https://maps.google.com/?cid=0x0:0x2f99c149cc249b1d,
hardware store,Toko Alat Musik,Bontang Guitar Shop,"Jl. Tarakan, RT.18/RW.No.9, Kanaan, Kec. Bontang Bar., Kota Bontang, Kalimantan Timur 75383","RT.18/RW.No.9, Kanaan, Kec. Bontang Bar., Kota Bontang",KALIMANTAN TIMUR,75383.0,Indonesia,85248802084.0,,,0.1338634,117.456924,https://maps.google.com/?cid=0x0:0xdc3d92f2a88ab129,
hardware store,Toko Bahan Bangunan,Toko Material Bangunan Bone Raya,"4FMQ+2MM, Jl. Jend. Achmad Yani, Api-Api, Kec. Bontang Utara, Kota Bontang, Kalimantan Timur 75325","Jl. Jend. Achmad Yani, Api-Api, Kec. Bontang Utara, Kota Bontang",KALIMANTAN TIMUR,75325.0,Indonesia,87784554231.0,,,0.1325981,117.489157,https://maps.google.com/?cid=0x0:0xfc11f304da32c892,
hardware store,Toko Swalayan,Toko Berlian Jaya,"4FPC+929, Jl. Brigjen Katamso, Belimbing, Kec. Bontang Bar., Kota Bontang, Kalimantan Timur 75325","Jl. Brigjen Katamso, Belimbing, Kec. Bontang Bar., Kota Bontang",KALIMANTAN TIMUR,75325.0,Indonesia,82174733975.0,,,0.1359215,117.4701206,https://maps.google.com/?cid=0x0:0x956d2931ccb18d88,
hardware store,Toko Bahan Bangunan,Toko Adillah Bangunan,"4FCV+W4F, Jl. Ir. H. Juanda, Tj. Laut Indah, Kec. Bontang Sel., Kota Bontang, Kalimantan Timur 75325","Jl. Ir. H. Juanda, Tj. Laut Indah, Kec. Bontang Sel., Kota Bontang",KALIMANTAN TIMUR,75325.0,Indonesia,81225533972.0,,,0.1223141,117.4927981,https://maps.google.com/?cid=0x0:0x7b5a38c6980dccca,
hardware store,Toko Perlengkapan Rumah,MR.DIY,"Jl. Slamet Riyadi, Lok Tuan, Kec. Bontang Utara, Kota Bontang, Kalimantan Timur 75321","Lok Tuan, Kec. Bontang Utara, Kota Bontang",KALIMANTAN TIMUR,75321.0,Indonesia,,,,0.170183,117.469193,https://maps.google.com/?cid=0x0:0xff5640747ac4b804,
hardware store,Toko Alat Tulis Kantor,Anugrah Terang Toko ATK Dan Digital Printing,"Jl. Bhayangkara, Gn. Elai, Kec. Bontang Utara, Kota Bontang, Kalimantan Timur 75325","Gn. Elai, Kec. Bontang Utara, Kota Bontang",KALIMANTAN TIMUR,75325.0,Indonesia,82157009222.0,,,0.1354628,117.4748881,https://maps.google.com/?cid=0x0:0x5832dba6144a759d,
hardware store,Toko Bahan Bangunan,Toko SIKA BONTANG,"Jl. Cipto Mangunkusumo, RT.23, Lok Tuan, Kec. Bontang Utara, Kota Bontang, Kalimantan Timur 75311","RT.23, Lok Tuan, Kec. Bontang Utara, Kota Bontang",KALIMANTAN TIMUR,75311.0,Indonesia,85386888769.0,,,0.1640224,117.4671102,https://maps.google.com/?cid=0x0:0x790a178e931d4fbc,
hardware store,Pemasok Peralatan Industri,Krisbow Toko,"Jl. Bhayangkara No.16-D, Belimbing, Kec. Bontang Bar., Kota Bontang, Kalimantan Timur 75325","Belimbing, Kec. Bontang Bar., Kota Bontang",KALIMANTAN TIMUR,75325.0,Indonesia,54829938.0,,,0.1360089,117.471181,https://maps.google.com/?cid=0x0:0x7d060a9e0ed5ddb5,
hardware store,Toko Perlengkapan Rumah,Jasa Titip Kaltim,"4FV9+G65, Jl. Semboja, Belimbing, Kec. Bontang Bar., Kota Bontang, Kalimantan Timur 75325","Jl. Semboja, Belimbing, Kec. Bontang Bar., Kota Bontang",KALIMANTAN TIMUR,75325.0,Indonesia,85250504147.0,,,0.1437703,117.4681243,https://maps.google.com/?cid=0x0:0x1dd2a37227c0c9af,
hardware store,Toko Bahan Bangunan,U.D. Damai Abadi,"4F9H+4FH, Berbas Tengah, Kec. Bontang Sel., Kota Bontang, Kalimantan Timur 75325","Berbas Tengah, Kec. Bontang Sel., Kota Bontang",KALIMANTAN TIMUR,75325.0,Indonesia,82227713040.0,,,0.1178035,117.4787232,https://maps.google.com/?cid=0x0:0xd49b4b4c03e2b43e,
hardware store,Pemasok peralatan keselamatan,Berkat Safety,"4FMH+72C, Gn. Elai, Kec. Bontang Utara, Kota Bontang, Kalimantan Timur 75325","Gn. Elai, Kec. Bontang Utara, Kota Bontang",KALIMANTAN TIMUR,75325.0,Indonesia,817174573.0,,,0.1331848,117.4775187,https://maps.google.com/?cid=0x0:0x9711a2cef48dfaeb,
hardware store,Kontraktor Umum,CV. Karyo Utomo,"Perum Griya Temputu Indah, Jln. Kapal induk III No.12 A, RT.52, Lok Tuan, Kec. Bontang Utara, Kota Bontang, Kalimantan Timur 75321","Jln. Kapal induk III No.12 A, RT.52, Lok Tuan, Kec. Bontang Utara, Kota Bontang",KALIMANTAN TIMUR,75321.0,Indonesia,82255290359.0,,,0.1757006,117.4701314,https://maps.google.com/?cid=0x0:0x8ae7634cb53d0b34,
hardware store,Toko Bahan Bangunan,TB. IMAN HMT,"Samping Indomaret, Jl. HM Ardans, Satimpo, Kec. Bontang Sel., Kota Bontang, Kalimantan Timur 75325","Jl. HM Ardans, Satimpo, Kec. Bontang Sel., Kota Bontang",KALIMANTAN TIMUR,75325.0,Indonesia,85386574474.0,,,0.1271052,117.4761227,https://maps.google.com/?cid=0x0:0xc6c8ba1d1eae2341,
hardware store,Toko Alat Listrik,Indo Tehnik,"Jl. Jend. Achmad Yani No.20, RT.4, Tj. Laut, Kec. Bontang Sel., Kota Bontang, Kalimantan Timur 75321","RT.4, Tj. Laut, Kec. Bontang Sel., Kota Bontang",KALIMANTAN TIMUR,75321.0,Indonesia,81352660972.0,,,0.1269052,117.4831519,https://maps.google.com/?cid=0x0:0xe439053b2286908e,
hardware store,Toko Bahan Bangunan,Toko Bangunan Rinaldi,"Jl. Soekarno Hatta No.11, Kanaan, Kec. Bontang Bar., Kota Bontang, Kalimantan Timur 75321","Kanaan, Kec. Bontang Bar., Kota Bontang",KALIMANTAN TIMUR,75321.0,Indonesia,82227713040.0,,,0.1359029,117.4486825,https://maps.google.com/?cid=0x0:0x3f3fd11013252e2,
hardware store,hardware store,Kalimantan Timur 75321,"Kec. Tlk. Pandan, Kabupaten Kutai Timur, Kalimantan Timur","Kabupaten Kutai Timur, Kalimantan Timur",KALIMANTAN TIMUR,,Indonesia,,,,0.1825802,117.4321452,https://maps.google.com/?cid=0x0:0x70eac15f80c6d3d5,
hardware store,Pemasok Bahan Bangunan,Toko Bangunan Sinar Sanjaya,"Bar., Kanaan, Kec. Bontang Bar., Kota Bontang, Kalimantan Timur 75321","Kanaan, Kec. Bontang Bar., Kota Bontang",KALIMANTAN TIMUR,75321.0,Indonesia,81818202362.0,,,0.141098,117.4512106,https://maps.google.com/?cid=0x0:0x73bc47e972b63da8,
hardware store,Toko Perkakas,JAYA HARDWARE,"Jl. Zamrut No.1 no 17, Berbas Tengah, Kec. Bontang Sel., Kota Bontang, Kalimantan Timur 75325","Berbas Tengah, Kec. Bontang Sel., Kota Bontang",KALIMANTAN TIMUR,75325.0,Indonesia,85250325896.0,,,0.1168641,117.4761906,https://maps.google.com/?cid=0x0:0xa54066d0aea7a39c,
hardware store,Toko Bahan Bangunan,Toko bangunan Renaldi jaya bontang,"Jl. Soekarno Hatta No.12, Kanaan, Kec. Bontang Bar., Kota Bontang, Kalimantan Timur 75321","Kanaan, Kec. Bontang Bar., Kota Bontang",KALIMANTAN TIMUR,75321.0,Indonesia,82227713040.0,,,0.1406227,117.4497134,https://maps.google.com/?cid=0x0:0x2afbaa22e37f71fd,
hardware store,Toko Perlengkapan Rumah,MR.DIY Ruko Bontang,"Ruko Jl. Brigjen Katamso, Belimbing, Kec. Bontang Bar., Kota Bontang, Kalimantan Timur 75325","Belimbing, Kec. Bontang Bar., Kota Bontang",KALIMANTAN TIMUR,75325.0,Indonesia,2130022789.0,,,0.1395257,117.463342,https://maps.google.com/?cid=0x0:0xee54b81b7f1943d4,
hardware store,Toko Elektronik,AZKO Citimall Bontang,"Citimall, Jl. Jend. Soedirman, Tj. Laut, Kec. Bontang Sel., Kota Bontang, Kalimantan Timur 75321","Jl. Jend. Soedirman, Tj. Laut, Kec. Bontang Sel., Kota Bontang",KALIMANTAN TIMUR,75321.0,Indonesia,81241163811.0,,,0.12034,117.4848629,https://maps.google.com/?cid=0x0:0x860458663647ed62,
hardware store,Toko Alat Listrik,Indo Tehnik,"Jl. Jend. Achmad Yani No.20, RT.4, Tj. Laut, Kec. Bontang Sel., Kota Bontang, Kalimantan Timur 75321","RT.4, Tj. Laut, Kec. Bontang Sel., Kota Bontang",KALIMANTAN TIMUR,75321.0,Indonesia,81352660972.0,,,0.1269052,117.4831519,https://maps.google.com/?cid=0x0:0xe439053b2286908e,
hardware store,Toko Perkakas,KAWAN LAMA SOLUTION BONTANG,"Jl. Brigjen Katamso No.12, Belimbing, Kec. Bontang Bar., Kota Bontang, Kalimantan Timur 75325","Belimbing, Kec. Bontang Bar., Kota Bontang",KALIMANTAN TIMUR,75325.0,Indonesia,8115814490.0,,,0.1359033,117.4684026,https://maps.google.com/?cid=0x0:0x560a6478023c5d4d,
hardware store,Toko Alat-Alat,Berkat Raya Sejahtera CTL,"Jl. Sam Ratulangi No.79, Tj. Laut, Kec. Bontang Sel., Kota Bontang, Kalimantan Timur 75321","Tj. Laut, Kec. Bontang Sel., Kota Bontang",KALIMANTAN TIMUR,75321.0,Indonesia,85169995912.0,,,0.1181048,117.4934372,https://maps.google.com/?cid=0x0:0x4a0c260c9243a663,
hardware store,Toko Bahan Bangunan,U.D. Damai Abadi,"4F9H+4FH, Berbas Tengah, Kec. Bontang Sel., Kota Bontang, Kalimantan Timur 75325","Berbas Tengah, Kec. Bontang Sel., Kota Bontang",KALIMANTAN TIMUR,75325.0,Indonesia,82227713040.0,,,0.1178035,117.4787232,https://maps.google.com/?cid=0x0:0xd49b4b4c03e2b43e,
hardware store,,UD. Jaya Abadi,"Jalan R.E Martadinata RT.08 No. 112, Lok Tuan, Kec. Bontang Utara, Kota Bontang, Kalimantan Timur 75321","Lok Tuan, Kec. Bontang Utara, Kota Bontang",KALIMANTAN TIMUR,75321.0,Indonesia,83114785308.0,,,0.1669023,117.4839646,https://maps.google.com/?cid=0x0:0x74d29a148d2c2b6f,
hardware store,Toko Perlengkapan Rumah,MR.DIY,"Jl. Slamet Riyadi, Lok Tuan, Kec. Bontang Utara, Kota Bontang, Kalimantan Timur 75321","Lok Tuan, Kec. Bontang Utara, Kota Bontang",KALIMANTAN TIMUR,75321.0,Indonesia,,,,0.170183,117.469193,https://maps.google.com/?cid=0x0:0xff5640747ac4b804,
hardware store,hardware store,Arema gypsum jaya profil,"simpang lampu merah, Jl. Brigjen Katamso jalan tembus Bontang, Belimbing, Kec. Bontang Bar., Kota Bontang, Kalimantan Timur 75313","Jl. Brigjen Katamso jalan tembus Bontang, Belimbing, Kec. Bontang Bar., Kota Bontang",KALIMANTAN TIMUR,75313.0,Indonesia,8125335125.0,,,0.1359484,117.4719801,https://maps.google.com/?cid=0x0:0x9b0434669268fd93,
hardware store,Toko Bahan Bangunan,Toko Adillah Bangunan,"4FCV+W4F, Jl. Ir. H. Juanda, Tj. Laut Indah, Kec. Bontang Sel., Kota Bontang, Kalimantan Timur 75325","Jl. Ir. H. Juanda, Tj. Laut Indah, Kec. Bontang Sel., Kota Bontang",KALIMANTAN TIMUR,75325.0,Indonesia,81225533972.0,,,0.1223141,117.4927981,https://maps.google.com/?cid=0x0:0x7b5a38c6980dccca,
hardware store,Toko Perlengkapan Rumah,MR.DIY,"Jl. Mayor Jenderal DI Panjaitan No.51, RT.026/000, Api-Api, Kec. Bontang Utara, Kota Bontang, Kalimantan Timur 75311","RT.026/000, Api-Api, Kec. Bontang Utara, Kota Bontang",KALIMANTAN TIMUR,75311.0,Indonesia,,,,0.1333061,117.4951835,https://maps.google.com/?cid=0x0:0xcc27a53c799566b,
hardware store,Toko Bahan Bangunan,Santosa,"4FJH+CVR, Jl. Imam Bonjol, Satimpo, Kec. Bontang Sel., Kota Bontang, Kalimantan Timur 75325","Jl. Imam Bonjol, Satimpo, Kec. Bontang Sel., Kota Bontang",KALIMANTAN TIMUR,75325.0,Indonesia,82173389240.0,,,0.1311177,117.4796442,https://maps.google.com/?cid=0x0:0x8a57247338fa3ed6,
hardware store,Toko Bahan Bangunan,TB.Restu Damai,"Jl. Sultan Hasanudin No.37 rt.005, Berbas Pantai, Kec. Bontang Sel., Kota Bontang, Kalimantan Timur 75325","Berbas Pantai, Kec. Bontang Sel., Kota Bontang",KALIMANTAN TIMUR,75325.0,Indonesia,85169995912.0,,,0.1107912,117.483034,https://maps.google.com/?cid=0x0:0xb1d4b08816d1403b,
hardware store,Pemasok Peralatan Industri,Krisbow Toko,"Jl. Bhayangkara No.16-D, Belimbing, Kec. Bontang Bar., Kota Bontang, Kalimantan Timur 75325","Belimbing, Kec. Bontang Bar., Kota Bontang",KALIMANTAN TIMUR,75325.0,Indonesia,54829938.0,,,0.1360089,117.471181,https://maps.google.com/?cid=0x0:0x7d060a9e0ed5ddb5,
hardware store,Toko Alat Tulis Kantor,Anugrah Terang Toko ATK Dan Digital Printing,"Jl. Bhayangkara, Gn. Elai, Kec. Bontang Utara, Kota Bontang, Kalimantan Timur 75325","Gn. Elai, Kec. Bontang Utara, Kota Bontang",KALIMANTAN TIMUR,75325.0,Indonesia,82157009222.0,,,0.1354628,117.4748881,https://maps.google.com/?cid=0x0:0x5832dba6144a759d,
hardware store,Kontraktor Umum,CV. Karyo Utomo,"Perum Griya Temputu Indah, Jln. Kapal induk III No.12 A, RT.52, Lok Tuan, Kec. Bontang Utara, Kota Bontang, Kalimantan Timur 75321","Jln. Kapal induk III No.12 A, RT.52, Lok Tuan, Kec. Bontang Utara, Kota Bontang",KALIMANTAN TIMUR,75321.0,Indonesia,82255290359.0,,,0.1757006,117.4701314,https://maps.google.com/?cid=0x0:0x8ae7634cb53d0b34,
hardware store,Toko Perlengkapan Rumah,Berkat Raya Sejahtera,"Jl. Slamet Riyadi no. R1 RT 50, Lok Tuan, Kec. Bontang Utara, Kota Bontang, Kalimantan Timur 75315","Lok Tuan, Kec. Bontang Utara, Kota Bontang",KALIMANTAN TIMUR,75315.0,Indonesia,8115555598.0,,,0.1701585,117.4688888,https://maps.google.com/?cid=0x0:0x2f99c149cc249b1d,
hardware store,Toko Mebel,BAITII HOUSEWARE perabot mainan  florist,"Jl. Jend. Achmad Yani, Api-Api, Kec. Bontang Utara, Kota Bontang, Kalimantan Timur 75325","Api-Api, Kec. Bontang Utara, Kota Bontang",KALIMANTAN TIMUR,75325.0,Indonesia,82220090101.0,,,0.1323934,117.4878139,https://maps.google.com/?cid=0x0:0x49e670e5e16b364d,
hardware store,Toko Bahan Bangunan,TB. IMAN HMT,"Samping Indomaret, Jl. HM Ardans, Satimpo, Kec. Bontang Sel., Kota Bontang, Kalimantan Timur 75325","Jl. HM Ardans, Satimpo, Kec. Bontang Sel., Kota Bontang",KALIMANTAN TIMUR,75325.0,Indonesia,85386574474.0,,,0.1271052,117.4761227,https://maps.google.com/?cid=0x0:0xc6c8ba1d1eae2341,
hardware store,Toko Bahan Bangunan,Toko SIKA BONTANG,"Jl. Cipto Mangunkusumo, RT.23, Lok Tuan, Kec. Bontang Utara, Kota Bontang, Kalimantan Timur 75311","RT.23, Lok Tuan, Kec. Bontang Utara, Kota Bontang",KALIMANTAN TIMUR,75311.0,Indonesia,85386888769.0,,,0.1640224,117.4671102,https://maps.google.com/?cid=0x0:0x790a178e931d4fbc,
hardware store,Pemasok Bahan Bangunan,Toko Bangunan Sinar Sanjaya,"Bar., Kanaan, Kec. Bontang Bar., Kota Bontang, Kalimantan Timur 75321","Kanaan, Kec. Bontang Bar., Kota Bontang",KALIMANTAN TIMUR,75321.0,Indonesia,81818202362.0,,,0.141098,117.4512106,https://maps.google.com/?cid=0x0:0x73bc47e972b63da8,
hardware store,hardware store,Kalimantan Timur 75324,"Kec. Bontang Sel., Kota Bontang, Kalimantan Timur","Kota Bontang, Kalimantan Timur",KALIMANTAN TIMUR,,Indonesia,,,,0.1495015,117.2911248,https://maps.google.com/?cid=0x0:0x38f97e9610099fa,
hardware store,Toko Perkakas,JAYA HARDWARE,"Jl. Zamrut No.1 no 17, Berbas Tengah, Kec. Bontang Sel., Kota Bontang, Kalimantan Timur 75325","Berbas Tengah, Kec. Bontang Sel., Kota Bontang",KALIMANTAN TIMUR,75325.0,Indonesia,85250325896.0,,,0.1168641,117.4761906,https://maps.google.com/?cid=0x0:0xa54066d0aea7a39c,
hardware store,Toko Perlengkapan Rumah,MR.DIY Ruko Bontang,"Ruko Jl. Brigjen Katamso, Belimbing, Kec. Bontang Bar., Kota Bontang, Kalimantan Timur 75325","Belimbing, Kec. Bontang Bar., Kota Bontang",KALIMANTAN TIMUR,75325.0,Indonesia,2130022789.0,,,0.1395257,117.463342,https://maps.google.com/?cid=0x0:0xee54b81b7f1943d4,
hardware store,Toko Elektronik,AZKO Citimall Bontang,"Citimall, Jl. Jend. Soedirman, Tj. Laut, Kec. Bontang Sel., Kota Bontang, Kalimantan Timur 75321","Jl. Jend. Soedirman, Tj. Laut, Kec. Bontang Sel., Kota Bontang",KALIMANTAN TIMUR,75321.0,Indonesia,81241163811.0,,,0.12034,117.4848629,https://maps.google.com/?cid=0x0:0x860458663647ed62,
hardware store,Toko Alat-Alat,Berkat Raya Sejahtera CTL,"Jl. Sam Ratulangi No.79, Tj. Laut, Kec. Bontang Sel., Kota Bontang, Kalimantan Timur 75321","Tj. Laut, Kec. Bontang Sel., Kota Bontang",KALIMANTAN TIMUR,75321.0,Indonesia,85169995912.0,,,0.1181048,117.4934372,https://maps.google.com/?cid=0x0:0x4a0c260c9243a663,
hardware store,Toko Bahan Bangunan,Toko Adillah Bangunan,"4FCV+W4F, Jl. Ir. H. Juanda, Tj. Laut Indah, Kec. Bontang Sel., Kota Bontang, Kalimantan Timur 75325","Jl. Ir. H. Juanda, Tj. Laut Indah, Kec. Bontang Sel., Kota Bontang",KALIMANTAN TIMUR,75325.0,Indonesia,81225533972.0,,,0.1223141,117.4927981,https://maps.google.com/?cid=0x0:0x7b5a38c6980dccca,
hardware store,Toko Bahan Bangunan,Toko bangunan Renaldi jaya bontang,"Jl. Soekarno Hatta No.12, Kanaan, Kec. Bontang Bar., Kota Bontang, Kalimantan Timur 75321","Kanaan, Kec. Bontang Bar., Kota Bontang",KALIMANTAN TIMUR,75321.0,Indonesia,82227713040.0,,,0.1406227,117.4497134,https://maps.google.com/?cid=0x0:0x2afbaa22e37f71fd,
hardware store,Toko Alat Listrik,Indo Tehnik,"Jl. Jend. Achmad Yani No.20, RT.4, Tj. Laut, Kec. Bontang Sel., Kota Bontang, Kalimantan Timur 75321","RT.4, Tj. Laut, Kec. Bontang Sel., Kota Bontang",KALIMANTAN TIMUR,75321.0,Indonesia,81352660972.0,,,0.1269052,117.4831519,https://maps.google.com/?cid=0x0:0xe439053b2286908e,
hardware store,Toko Bahan Bangunan,U.D. Damai Abadi,"4F9H+4FH, Berbas Tengah, Kec. Bontang Sel., Kota Bontang, Kalimantan Timur 75325","Berbas Tengah, Kec. Bontang Sel., Kota Bontang",KALIMANTAN TIMUR,75325.0,Indonesia,82227713040.0,,,0.1178035,117.4787232,https://maps.google.com/?cid=0x0:0xd49b4b4c03e2b43e,
hardware store,Pemasok Peralatan Industri,Krisbow Toko,"Jl. Bhayangkara No.16-D, Belimbing, Kec. Bontang Bar., Kota Bontang, Kalimantan Timur 75325","Belimbing, Kec. Bontang Bar., Kota Bontang",KALIMANTAN TIMUR,75325.0,Indonesia,54829938.0,,,0.1360089,117.471181,https://maps.google.com/?cid=0x0:0x7d060a9e0ed5ddb5,
hardware store,Toko Perkakas,KAWAN LAMA SOLUTION BONTANG,"Jl. Brigjen Katamso No.12, Belimbing, Kec. Bontang Bar., Kota Bontang, Kalimantan Timur 75325","Belimbing, Kec. Bontang Bar., Kota Bontang",KALIMANTAN TIMUR,75325.0,Indonesia,8115814490.0,,,0.1359033,117.4684026,https://maps.google.com/?cid=0x0:0x560a6478023c5d4d,
hardware store,Toko Bahan Bangunan,Santosa,"4FJH+CVR, Jl. Imam Bonjol, Satimpo, Kec. Bontang Sel., Kota Bontang, Kalimantan Timur 75325","Jl. Imam Bonjol, Satimpo, Kec. Bontang Sel., Kota Bontang",KALIMANTAN TIMUR,75325.0,Indonesia,82173389240.0,,,0.1311177,117.4796442,https://maps.google.com/?cid=0x0:0x8a57247338fa3ed6,
hardware store,,UD. Jaya Abadi,"Jalan R.E Martadinata RT.08 No. 112, Lok Tuan, Kec. Bontang Utara, Kota Bontang, Kalimantan Timur 75321","Lok Tuan, Kec. Bontang Utara, Kota Bontang",KALIMANTAN TIMUR,75321.0,Indonesia,83114785308.0,,,0.1669023,117.4839646,https://maps.google.com/?cid=0x0:0x74d29a148d2c2b6f,
hardware store,Toko Bahan Bangunan,TB.Restu Damai,"Jl. Sultan Hasanudin No.37 rt.005, Berbas Pantai, Kec. Bontang Sel., Kota Bontang, Kalimantan Timur 75325","Berbas Pantai, Kec. Bontang Sel., Kota Bontang",KALIMANTAN TIMUR,75325.0,Indonesia,85169995912.0,,,0.1107912,117.483034,https://maps.google.com/?cid=0x0:0xb1d4b08816d1403b,
hardware store,hardware store,Arema gypsum jaya profil,"simpang lampu merah, Jl. Brigjen Katamso jalan tembus Bontang, Belimbing, Kec. Bontang Bar., Kota Bontang, Kalimantan Timur 75313","Jl. Brigjen Katamso jalan tembus Bontang, Belimbing, Kec. Bontang Bar., Kota Bontang",KALIMANTAN TIMUR,75313.0,Indonesia,8125335125.0,,,0.1359484,117.4719801,https://maps.google.com/?cid=0x0:0x9b0434669268fd93,
hardware store,Toko Perlengkapan Rumah,MR.DIY,"Jl. Mayor Jenderal DI Panjaitan No.51, RT.026/000, Api-Api, Kec. Bontang Utara, Kota Bontang, Kalimantan Timur 75311","RT.026/000, Api-Api, Kec. Bontang Utara, Kota Bontang",KALIMANTAN TIMUR,75311.0,Indonesia,,,,0.1333061,117.4951835,https://maps.google.com/?cid=0x0:0xcc27a53c799566b,
hardware store,Pusat Perbelanjaan,Citimall Bontang,"4FCM+4R5, Tj. Laut, Kec. Bontang Sel., Kota Bontang, Kalimantan Timur","Kota Bontang, Kalimantan Timur",KALIMANTAN TIMUR,,Indonesia,,,,0.1202565,117.484601,https://maps.google.com/?cid=0x0:0xc28230aefa7705a9,
hardware store,Toko Perlengkapan Rumah,Jasa Titip Kaltim,"4FV9+G65, Jl. Semboja, Belimbing, Kec. Bontang Bar., Kota Bontang, Kalimantan Timur 75325","Jl. Semboja, Belimbing, Kec. Bontang Bar., Kota Bontang",KALIMANTAN TIMUR,75325.0,Indonesia,85250504147.0,,,0.1437703,117.4681243,https://maps.google.com/?cid=0x0:0x1dd2a37227c0c9af,
hardware store,Toko Perlengkapan Rumah,MR.DIY,"Jl. Slamet Riyadi, Lok Tuan, Kec. Bontang Utara, Kota Bontang, Kalimantan Timur 75321","Lok Tuan, Kec. Bontang Utara, Kota Bontang",KALIMANTAN TIMUR,75321.0,Indonesia,,,,0.170183,117.469193,https://maps.google.com/?cid=0x0:0xff5640747ac4b804,
hardware store,Toko Bahan Bangunan,Toko SIKA BONTANG,"Jl. Cipto Mangunkusumo, RT.23, Lok Tuan, Kec. Bontang Utara, Kota Bontang, Kalimantan Timur 75311","RT.23, Lok Tuan, Kec. Bontang Utara, Kota Bontang",KALIMANTAN TIMUR,75311.0,Indonesia,85386888769.0,,,0.1640224,117.4671102,https://maps.google.com/?cid=0x0:0x790a178e931d4fbc,
hardware store,Toko Bahan Bangunan,TB. IMAN HMT,"Samping Indomaret, Jl. HM Ardans, Satimpo, Kec. Bontang Sel., Kota Bontang, Kalimantan Timur 75325","Jl. HM Ardans, Satimpo, Kec. Bontang Sel., Kota Bontang",KALIMANTAN TIMUR,75325.0,Indonesia,85386574474.0,,,0.1271052,117.4761227,https://maps.google.com/?cid=0x0:0xc6c8ba1d1eae2341,
hardware store,hardware store,Kalimantan Timur 75325,Kalimantan Timur,Kalimantan Timur,KALIMANTAN TIMUR,,Indonesia,,,,0.0830107,117.2440957,https://maps.google.com/?cid=0x0:0x26084c6c6cec55ca,
hardware store,Toko Perkakas,JAYA HARDWARE,"Jl. Zamrut No.1 no 17, Berbas Tengah, Kec. Bontang Sel., Kota Bontang, Kalimantan Timur 75325","Berbas Tengah, Kec. Bontang Sel., Kota Bontang",KALIMANTAN TIMUR,75325.0,Indonesia,85250325896.0,,,0.1168641,117.4761906,https://maps.google.com/?cid=0x0:0xa54066d0aea7a39c,
hardware store,Toko Perlengkapan Rumah,UD Mega HMT (jual material Bangunan),"Jl. HM Ardans No.15a, Satimpo, Kec. Bontang Sel., Kota Bontang, Kalimantan Timur 75325","Satimpo, Kec. Bontang Sel., Kota Bontang",KALIMANTAN TIMUR,75325.0,Indonesia,85609323117.0,,,0.1279161,117.4787435,https://maps.google.com/?cid=0x0:0xec62e9c005866721,
hardware store,Pemasok Bahan Bangunan,Toko Bangunan Sinar Sanjaya,"Bar., Kanaan, Kec. Bontang Bar., Kota Bontang, Kalimantan Timur 75321","Kanaan, Kec. Bontang Bar., Kota Bontang",KALIMANTAN TIMUR,75321.0,Indonesia,81818202362.0,,,0.141098,117.4512106,https://maps.google.com/?cid=0x0:0x73bc47e972b63da8,
hardware store,Toko Alat-Alat,Berkat Raya Sejahtera CTL,"Jl. Sam Ratulangi No.79, Tj. Laut, Kec. Bontang Sel., Kota Bontang, Kalimantan Timur 75321","Tj. Laut, Kec. Bontang Sel., Kota Bontang",KALIMANTAN TIMUR,75321.0,Indonesia,85169995912.0,,,0.1181048,117.4934372,https://maps.google.com/?cid=0x0:0x4a0c260c9243a663,
hardware store,Toko Elektronik,AZKO Citimall Bontang,"Citimall, Jl. Jend. Soedirman, Tj. Laut, Kec. Bontang Sel., Kota Bontang, Kalimantan Timur 75321","Jl. Jend. Soedirman, Tj. Laut, Kec. Bontang Sel., Kota Bontang",KALIMANTAN TIMUR,75321.0,Indonesia,81241163811.0,,,0.12034,117.4848629,https://maps.google.com/?cid=0x0:0x860458663647ed62,
hardware store,Toko Alat Listrik,Indo Tehnik,"Jl. Jend. Achmad Yani No.20, RT.4, Tj. Laut, Kec. Bontang Sel., Kota Bontang, Kalimantan Timur 75321","RT.4, Tj. Laut, Kec. Bontang Sel., Kota Bontang",KALIMANTAN TIMUR,75321.0,Indonesia,81352660972.0,,,0.1269052,117.4831519,https://maps.google.com/?cid=0x0:0xe439053b2286908e,
hardware store,Toko Bahan Bangunan,Toko Adillah Bangunan,"4FCV+W4F, Jl. Ir. H. Juanda, Tj. Laut Indah, Kec. Bontang Sel., Kota Bontang, Kalimantan Timur 75325","Jl. Ir. H. Juanda, Tj. Laut Indah, Kec. Bontang Sel., Kota Bontang",KALIMANTAN TIMUR,75325.0,Indonesia,81225533972.0,,,0.1223141,117.4927981,https://maps.google.com/?cid=0x0:0x7b5a38c6980dccca,
hardware store,Toko Perkakas,KAWAN LAMA SOLUTION BONTANG,"Jl. Brigjen Katamso No.12, Belimbing, Kec. Bontang Bar., Kota Bontang, Kalimantan Timur 75325","Belimbing, Kec. Bontang Bar., Kota Bontang",KALIMANTAN TIMUR,75325.0,Indonesia,8115814490.0,,,0.1359033,117.4684026,https://maps.google.com/?cid=0x0:0x560a6478023c5d4d,
hardware store,Toko Bahan Bangunan,U.D. Damai Abadi,"4F9H+4FH, Berbas Tengah, Kec. Bontang Sel., Kota Bontang, Kalimantan Timur 75325","Berbas Tengah, Kec. Bontang Sel., Kota Bontang",KALIMANTAN TIMUR,75325.0,Indonesia,82227713040.0,,,0.1178035,117.4787232,https://maps.google.com/?cid=0x0:0xd49b4b4c03e2b43e,
hardware store,Toko Bahan Bangunan,Toko bangunan Renaldi jaya bontang,"Jl. Soekarno Hatta No.12, Kanaan, Kec. Bontang Bar., Kota Bontang, Kalimantan Timur 75321","Kanaan, Kec. Bontang Bar., Kota Bontang",KALIMANTAN TIMUR,75321.0,Indonesia,82227713040.0,,,0.1406227,117.4497134,https://maps.google.com/?cid=0x0:0x2afbaa22e37f71fd,
hardware store,Pemasok Peralatan Industri,Krisbow Toko,"Jl. Bhayangkara No.16-D, Belimbing, Kec. Bontang Bar., Kota Bontang, Kalimantan Timur 75325","Belimbing, Kec. Bontang Bar., Kota Bontang",KALIMANTAN TIMUR,75325.0,Indonesia,54829938.0,,,0.1360089,117.471181,https://maps.google.com/?cid=0x0:0x7d060a9e0ed5ddb5,
hardware store,Toko Bahan Bangunan,TB.Restu Damai,"Jl. Sultan Hasanudin No.37 rt.005, Berbas Pantai, Kec. Bontang Sel., Kota Bontang, Kalimantan Timur 75325","Berbas Pantai, Kec. Bontang Sel., Kota Bontang",KALIMANTAN TIMUR,75325.0,Indonesia,85169995912.0,,,0.1107912,117.483034,https://maps.google.com/?cid=0x0:0xb1d4b08816d1403b,
hardware store,Toko Alat Tulis Kantor,Anugrah Terang Toko ATK Dan Digital Printing,"Jl. Bhayangkara, Gn. Elai, Kec. Bontang Utara, Kota Bontang, Kalimantan Timur 75325","Gn. Elai, Kec. Bontang Utara, Kota Bontang",KALIMANTAN TIMUR,75325.0,Indonesia,82157009222.0,,,0.1354628,117.4748881,https://maps.google.com/?cid=0x0:0x5832dba6144a759d,
hardware store,hardware store,Arema gypsum jaya profil,"simpang lampu merah, Jl. Brigjen Katamso jalan tembus Bontang, Belimbing, Kec. Bontang Bar., Kota Bontang, Kalimantan Timur 75313","Jl. Brigjen Katamso jalan tembus Bontang, Belimbing, Kec. Bontang Bar., Kota Bontang",KALIMANTAN TIMUR,75313.0,Indonesia,8125335125.0,,,0.1359484,117.4719801,https://maps.google.com/?cid=0x0:0x9b0434669268fd93,
hardware store,Toko Bahan Bangunan,Santosa,"4FJH+CVR, Jl. Imam Bonjol, Satimpo, Kec. Bontang Sel., Kota Bontang, Kalimantan Timur 75325","Jl. Imam Bonjol, Satimpo, Kec. Bontang Sel., Kota Bontang",KALIMANTAN TIMUR,75325.0,Indonesia,82173389240.0,,,0.1311177,117.4796442,https://maps.google.com/?cid=0x0:0x8a57247338fa3ed6,
hardware store,Toko Mebel,BAITII HOUSEWARE perabot mainan  florist,"Jl. Jend. Achmad Yani, Api-Api, Kec. Bontang Utara, Kota Bontang, Kalimantan Timur 75325","Api-Api, Kec. Bontang Utara, Kota Bontang",KALIMANTAN TIMUR,75325.0,Indonesia,82220090101.0,,,0.1323934,117.4878139,https://maps.google.com/?cid=0x0:0x49e670e5e16b364d,
hardware store,Toko Bahan Bangunan,TB. IMAN HMT,"Samping Indomaret, Jl. HM Ardans, Satimpo, Kec. Bontang Sel., Kota Bontang, Kalimantan Timur 75325","Jl. HM Ardans, Satimpo, Kec. Bontang Sel., Kota Bontang",KALIMANTAN TIMUR,75325.0,Indonesia,85386574474.0,,,0.1271052,117.4761227,https://maps.google.com/?cid=0x0:0xc6c8ba1d1eae2341,
hardware store,Pusat Perbelanjaan,Citimall Bontang,"4FCM+4R5, Tj. Laut, Kec. Bontang Sel., Kota Bontang, Kalimantan Timur","Kota Bontang, Kalimantan Timur",KALIMANTAN TIMUR,,Indonesia,,,,0.1202565,117.484601,https://maps.google.com/?cid=0x0:0xc28230aefa7705a9,
hardware store,Toko Ponsel,Service Handphone Software  Hardware Bst Cell,"4FFP+XQ7, Jl. Ir. H. Juanda, Tj. Laut, Kec. Bontang Sel., Kota Bontang, Kalimantan Timur 75325","Jl. Ir. H. Juanda, Tj. Laut, Kec. Bontang Sel., Kota Bontang",KALIMANTAN TIMUR,75325.0,Indonesia,,,,0.1249164,117.4869346,https://maps.google.com/?cid=0x0:0xf6a733dec76606de,
hardware store,Toko Bahan Bangunan,Toko Material Bangunan Bone Raya,"4FMQ+2MM, Jl. Jend. Achmad Yani, Api-Api, Kec. Bontang Utara, Kota Bontang, Kalimantan Timur 75325","Jl. Jend. Achmad Yani, Api-Api, Kec. Bontang Utara, Kota Bontang",KALIMANTAN TIMUR,75325.0,Indonesia,87784554231.0,,,0.1325981,117.489157,https://maps.google.com/?cid=0x0:0xfc11f304da32c892,
hardware store,Toko Bahan Bangunan,CV. Corona Sakti,"4FGM+H4H, Tj. Laut, Kec. Bontang Sel., Kota Bontang, Kalimantan Timur 75325","Tj. Laut, Kec. Bontang Sel., Kota Bontang",KALIMANTAN TIMUR,75325.0,Indonesia,87784554231.0,,,0.1264404,117.4828702,https://maps.google.com/?cid=0x0:0x6631f1ee4be68572,
hardware store,Toko Perlengkapan Rumah,MR.DIY,"Jl. Mayor Jenderal DI Panjaitan No.51, RT.026/000, Api-Api, Kec. Bontang Utara, Kota Bontang, Kalimantan Timur 75311","RT.026/000, Api-Api, Kec. Bontang Utara, Kota Bontang",KALIMANTAN TIMUR,75311.0,Indonesia,,,,0.1333061,117.4951835,https://maps.google.com/?cid=0x0:0xcc27a53c799566b,
hardware store,hardware store,Kalimantan Timur 75311,"Gn. Elai, Kec. Bontang Utara, Kota Bontang, Kalimantan Timur","Kota Bontang, Kalimantan Timur",KALIMANTAN TIMUR,,Indonesia,,,,0.1444417,117.4887629,https://maps.google.com/?cid=0x0:0x33198cc450f8143a,
hardware store,Toko Perlengkapan Rumah,MR.DIY,"Jl. Mayor Jenderal DI Panjaitan No.51, RT.026/000, Api-Api, Kec. Bontang Utara, Kota Bontang, Kalimantan Timur 75311","RT.026/000, Api-Api, Kec. Bontang Utara, Kota Bontang",KALIMANTAN TIMUR,75311.0,Indonesia,,,,0.1333061,117.4951835,https://maps.google.com/?cid=0x0:0xcc27a53c799566b,
hardware store,Toko Perlengkapan Rumah,UD Mega HMT (jual material Bangunan),"Jl. HM Ardans No.15a, Satimpo, Kec. Bontang Sel., Kota Bontang, Kalimantan Timur 75325","Satimpo, Kec. Bontang Sel., Kota Bontang",KALIMANTAN TIMUR,75325.0,Indonesia,85609323117.0,,,0.1279161,117.4787435,https://maps.google.com/?cid=0x0:0xec62e9c005866721,
hardware store,Toko Perlengkapan Rumah,MR.DIY Ruko Bontang,"Ruko Jl. Brigjen Katamso, Belimbing, Kec. Bontang Bar., Kota Bontang, Kalimantan Timur 75325","Belimbing, Kec. Bontang Bar., Kota Bontang",KALIMANTAN TIMUR,75325.0,Indonesia,2130022789.0,,,0.1395257,117.463342,https://maps.google.com/?cid=0x0:0xee54b81b7f1943d4,
hardware store,Toko Bahan Bangunan,Toko Adillah Bangunan,"4FCV+W4F, Jl. Ir. H. Juanda, Tj. Laut Indah, Kec. Bontang Sel., Kota Bontang, Kalimantan Timur 75325","Jl. Ir. H. Juanda, Tj. Laut Indah, Kec. Bontang Sel., Kota Bontang",KALIMANTAN TIMUR,75325.0,Indonesia,81225533972.0,,,0.1223141,117.4927981,https://maps.google.com/?cid=0x0:0x7b5a38c6980dccca,
hardware store,Toko Perlengkapan Rumah,Berkat Raya Sejahtera,"Jl. Slamet Riyadi no. R1 RT 50, Lok Tuan, Kec. Bontang Utara, Kota Bontang, Kalimantan Timur 75315","Lok Tuan, Kec. Bontang Utara, Kota Bontang",KALIMANTAN TIMUR,75315.0,Indonesia,8115555598.0,,,0.1701585,117.4688888,https://maps.google.com/?cid=0x0:0x2f99c149cc249b1d,
hardware store,Toko Bahan Bangunan,Toko Material Bangunan Bone Raya,"4FMQ+2MM, Jl. Jend. Achmad Yani, Api-Api, Kec. Bontang Utara, Kota Bontang, Kalimantan Timur 75325","Jl. Jend. Achmad Yani, Api-Api, Kec. Bontang Utara, Kota Bontang",KALIMANTAN TIMUR,75325.0,Indonesia,87784554231.0,,,0.1325981,117.489157,https://maps.google.com/?cid=0x0:0xfc11f304da32c892,
hardware store,Toko Perkakas,KAWAN LAMA SOLUTION BONTANG,"Jl. Brigjen Katamso No.12, Belimbing, Kec. Bontang Bar., Kota Bontang, Kalimantan Timur 75325","Belimbing, Kec. Bontang Bar., Kota Bontang",KALIMANTAN TIMUR,75325.0,Indonesia,8115814490.0,,,0.1359033,117.4684026,https://maps.google.com/?cid=0x0:0x560a6478023c5d4d,
hardware store,Toko Mebel,BAITII HOUSEWARE perabot mainan  florist,"Jl. Jend. Achmad Yani, Api-Api, Kec. Bontang Utara, Kota Bontang, Kalimantan Timur 75325","Api-Api, Kec. Bontang Utara, Kota Bontang",KALIMANTAN TIMUR,75325.0,Indonesia,82220090101.0,,,0.1323934,117.4878139,https://maps.google.com/?cid=0x0:0x49e670e5e16b364d,
hardware store,Pemasok Peralatan Industri,Krisbow Toko,"Jl. Bhayangkara No.16-D, Belimbing, Kec. Bontang Bar., Kota Bontang, Kalimantan Timur 75325","Belimbing, Kec. Bontang Bar., Kota Bontang",KALIMANTAN TIMUR,75325.0,Indonesia,54829938.0,,,0.1360089,117.471181,https://maps.google.com/?cid=0x0:0x7d060a9e0ed5ddb5,
hardware store,Pasar bahan bangunan,Toko Berkat Raya Baru,"4FMR+MRX, Bontang Baru, Kec. Bontang Utara, Kota Bontang, Kalimantan Timur 75313","Bontang Baru, Kec. Bontang Utara, Kota Bontang",KALIMANTAN TIMUR,75313.0,Indonesia,82159682985.0,,,0.1342451,117.492119,https://maps.google.com/?cid=0x0:0xc77f7e005f165c17,
hardware store,Pemasok peralatan keselamatan,Berkat Safety,"4FMH+72C, Gn. Elai, Kec. Bontang Utara, Kota Bontang, Kalimantan Timur 75325","Gn. Elai, Kec. Bontang Utara, Kota Bontang",KALIMANTAN TIMUR,75325.0,Indonesia,817174573.0,,,0.1331848,117.4775187,https://maps.google.com/?cid=0x0:0x9711a2cef48dfaeb,
hardware store,Toko Swalayan,Toko Berlian Jaya,"4FPC+929, Jl. Brigjen Katamso, Belimbing, Kec. Bontang Bar., Kota Bontang, Kalimantan Timur 75325","Jl. Brigjen Katamso, Belimbing, Kec. Bontang Bar., Kota Bontang",KALIMANTAN TIMUR,75325.0,Indonesia,82174733975.0,,,0.1359215,117.4701206,https://maps.google.com/?cid=0x0:0x956d2931ccb18d88,
hardware store,Toko Elektronik,Perdana Elektronik Bontang,"Jl. Jend. Achmad Yani No.12, Tj. Laut, Kec. Bontang Sel., Kota Bontang, Kalimantan Timur 75321","Tj. Laut, Kec. Bontang Sel., Kota Bontang",KALIMANTAN TIMUR,75321.0,Indonesia,81333851111.0,,,0.1286585,117.4843293,https://maps.google.com/?cid=0x0:0xf90804670302bf2,
hardware store,Toko Bahan Bangunan,CV. Corona Sakti,"4FGM+H4H, Tj. Laut, Kec. Bontang Sel., Kota Bontang, Kalimantan Timur 75325","Tj. Laut, Kec. Bontang Sel., Kota Bontang",KALIMANTAN TIMUR,75325.0,Indonesia,87784554231.0,,,0.1264404,117.4828702,https://maps.google.com/?cid=0x0:0x6631f1ee4be68572,
hardware store,Toko Bahan Bangunan,Sejahtera Toko,"Jl. Jend. Achmad Yani No.37, RT.011, Api-Api, Kec. Bontang Utara, Kota Bontang, Kalimantan Timur 75313","RT.011, Api-Api, Kec. Bontang Utara, Kota Bontang",KALIMANTAN TIMUR,75313.0,Indonesia,54821913.0,,,0.132546,117.487748,https://maps.google.com/?cid=0x0:0xcab99b8739ec2913,
hardware store,Toko Bahan Bangunan,Toko Bangunan Gemilang,"4FPV+Q24, Bontang Baru, Kec. Bontang Utara, Kota Bontang, Kalimantan Timur 75325","Bontang Baru, Kec. Bontang Utara, Kota Bontang",KALIMANTAN TIMUR,75325.0,Indonesia,83114785308.0,,,0.136896,117.4925752,https://maps.google.com/?cid=0x0:0xe070b212c7ab1d6b,
hardware store,,UD. Jaya Abadi,"Jalan R.E Martadinata RT.08 No. 112, Lok Tuan, Kec. Bontang Utara, Kota Bontang, Kalimantan Timur 75321","Lok Tuan, Kec. Bontang Utara, Kota Bontang",KALIMANTAN TIMUR,75321.0,Indonesia,83114785308.0,,,0.1669023,117.4839646,https://maps.google.com/?cid=0x0:0x74d29a148d2c2b6f,
hardware store,Toko Bahan Bangunan,Toko SIKA BONTANG,"Jl. Cipto Mangunkusumo, RT.23, Lok Tuan, Kec. Bontang Utara, Kota Bontang, Kalimantan Timur 75311","RT.23, Lok Tuan, Kec. Bontang Utara, Kota Bontang",KALIMANTAN TIMUR,75311.0,Indonesia,85386888769.0,,,0.1640224,117.4671102,https://maps.google.com/?cid=0x0:0x790a178e931d4fbc,
hardware store,Toko Sepeda,All Bike Shop,"jl mh thamrin tj limau, Bontang Baru, Kec. Bontang Utara, Kota Bontang, Kalimantan Timur 75313","Bontang Baru, Kec. Bontang Utara, Kota Bontang",KALIMANTAN TIMUR,75313.0,Indonesia,81367805201.0,,,0.1416397,117.489644,https://maps.google.com/?cid=0x0:0xea5ee23792e6ca45,
hardware store,Toko Alat Tulis Kantor,Anugrah Terang Toko ATK Dan Digital Printing,"Jl. Bhayangkara, Gn. Elai, Kec. Bontang Utara, Kota Bontang, Kalimantan Timur 75325","Gn. Elai, Kec. Bontang Utara, Kota Bontang",KALIMANTAN TIMUR,75325.0,Indonesia,82157009222.0,,,0.1354628,117.4748881,https://maps.google.com/?cid=0x0:0x5832dba6144a759d,
hardware store,Toko Buku >>u0026 Alat Sekolah,Toko Buku Aziz Bontang,"4FMR+454, Jl. Jend. Achmad Yani, Api-Api, Kec. Bontang Utara, Kota Bontang, Kalimantan Timur 75325","Jl. Jend. Achmad Yani, Api-Api, Kec. Bontang Utara, Kota Bontang",KALIMANTAN TIMUR,75325.0,Indonesia,81350188986.0,,,0.1327722,117.4904555,https://maps.google.com/?cid=0x0:0xc00b54f6b93fb8e6,
hardware store,Toko Perlengkapan Rumah,MR.DIY,"Jl. Slamet Riyadi, Lok Tuan, Kec. Bontang Utara, Kota Bontang, Kalimantan Timur 75321","Lok Tuan, Kec. Bontang Utara, Kota Bontang",KALIMANTAN TIMUR,75321.0,Indonesia,,,,0.170183,117.469193,https://maps.google.com/?cid=0x0:0xff5640747ac4b804,
hardware store,Toko Tegel,Megah Jaya Keramik,"Pesan Antar, Jl. Pattimura, Api-Api, Kec. Bontang Utara, Kota Bontang, Kalimantan Timur 75325","Jl. Pattimura, Api-Api, Kec. Bontang Utara, Kota Bontang",KALIMANTAN TIMUR,75325.0,Indonesia,85768717059.0,,,0.1302901,117.4936001,https://maps.google.com/?cid=0x0:0x27e544344641d218,
hardware store,Toko Alat Tulis Kantor,Toko Cahaya Izza,"4FMJ+X3M, Jl. MT. Haryono, Gn. Elai, Kec. Bontang Utara, Kota Bontang, Kalimantan Timur 75325","Jl. MT. Haryono, Gn. Elai, Kec. Bontang Utara, Kota Bontang",KALIMANTAN TIMUR,75325.0,Indonesia,8115805915.0,,,0.1349539,117.4801868,https://maps.google.com/?cid=0x0:0x484e822f3bf384db,
hardware store,Toko Ponsel,Bintangcell1 Bontang,"4FMR+35M, Jl. Jend. Achmad Yani, Api-Api, Kec. Bontang Utara, Kota Bontang, Kalimantan Timur 75325","Jl. Jend. Achmad Yani, Api-Api, Kec. Bontang Utara, Kota Bontang",KALIMANTAN TIMUR,75325.0,Indonesia,83843746499.0,,,0.1327013,117.4904259,https://maps.google.com/?cid=0x0:0xac9ae070576aa39e,
hardware store,Toko Bahan Bangunan,TB.Restu Damai,"Jl. Sultan Hasanudin No.37 rt.005, Berbas Pantai, Kec. Bontang Sel., Kota Bontang, Kalimantan Timur 75325","Berbas Pantai, Kec. Bontang Sel., Kota Bontang",KALIMANTAN TIMUR,75325.0,Indonesia,85169995912.0,,,0.1107912,117.483034,https://maps.google.com/?cid=0x0:0xb1d4b08816d1403b,
hardware store,Toko Bahan Bangunan,Toko bangunan Sinar Utama Bontang,"4FWF+HH4, Belimbing, Kec. Bontang Bar., Kota Bontang, Kalimantan Timur 75313","Belimbing, Kec. Bontang Bar., Kota Bontang",KALIMANTAN TIMUR,75313.0,Indonesia,82127713040.0,,,0.1463828,117.4739511,https://maps.google.com/?cid=0x0:0x8e4d632c2efa9d69,
hardware store,hardware store,Kalimantan Timur 75312,"Kec. Tlk. Pandan, Kabupaten Kutai Timur, Kalimantan Timur","Kabupaten Kutai Timur, Kalimantan Timur",KALIMANTAN TIMUR,,Indonesia,,,,0.2740898,117.4908738,https://maps.google.com/?cid=0x0:0x66ae207830c2242a,
hardware store,Pemasok Bahan Bangunan,Toko Bangunan Sinar Sanjaya,"Bar., Kanaan, Kec. Bontang Bar., Kota Bontang, Kalimantan Timur 75321","Kanaan, Kec. Bontang Bar., Kota Bontang",KALIMANTAN TIMUR,75321.0,Indonesia,81818202362.0,,,0.141098,117.4512106,https://maps.google.com/?cid=0x0:0x73bc47e972b63da8,
hardware store,Toko Bahan Bangunan,Toko Adillah Bangunan,"4FCV+W4F, Jl. Ir. H. Juanda, Tj. Laut Indah, Kec. Bontang Sel., Kota Bontang, Kalimantan Timur 75325","Jl. Ir. H. Juanda, Tj. Laut Indah, Kec. Bontang Sel., Kota Bontang",KALIMANTAN TIMUR,75325.0,Indonesia,81225533972.0,,,0.1223141,117.4927981,https://maps.google.com/?cid=0x0:0x7b5a38c6980dccca,
hardware store,Toko Perlengkapan Rumah,MR.DIY,"Jl. Mayor Jenderal DI Panjaitan No.51, RT.026/000, Api-Api, Kec. Bontang Utara, Kota Bontang, Kalimantan Timur 75311","RT.026/000, Api-Api, Kec. Bontang Utara, Kota Bontang",KALIMANTAN TIMUR,75311.0,Indonesia,,,,0.1333061,117.4951835,https://maps.google.com/?cid=0x0:0xcc27a53c799566b,
hardware store,Toko Perlengkapan Rumah,MR.DIY Ruko Bontang,"Ruko Jl. Brigjen Katamso, Belimbing, Kec. Bontang Bar., Kota Bontang, Kalimantan Timur 75325","Belimbing, Kec. Bontang Bar., Kota Bontang",KALIMANTAN TIMUR,75325.0,Indonesia,2130022789.0,,,0.1395257,117.463342,https://maps.google.com/?cid=0x0:0xee54b81b7f1943d4,
hardware store,Pemasok Peralatan Industri,Krisbow Toko,"Jl. Bhayangkara No.16-D, Belimbing, Kec. Bontang Bar., Kota Bontang, Kalimantan Timur 75325","Belimbing, Kec. Bontang Bar., Kota Bontang",KALIMANTAN TIMUR,75325.0,Indonesia,54829938.0,,,0.1360089,117.471181,https://maps.google.com/?cid=0x0:0x7d060a9e0ed5ddb5,
hardware store,Toko Perkakas,KAWAN LAMA SOLUTION BONTANG,"Jl. Brigjen Katamso No.12, Belimbing, Kec. Bontang Bar., Kota Bontang, Kalimantan Timur 75325","Belimbing, Kec. Bontang Bar., Kota Bontang",KALIMANTAN TIMUR,75325.0,Indonesia,8115814490.0,,,0.1359033,117.4684026,https://maps.google.com/?cid=0x0:0x560a6478023c5d4d,
hardware store,Toko Bahan Bangunan,Toko Material Bangunan Bone Raya,"4FMQ+2MM, Jl. Jend. Achmad Yani, Api-Api, Kec. Bontang Utara, Kota Bontang, Kalimantan Timur 75325","Jl. Jend. Achmad Yani, Api-Api, Kec. Bontang Utara, Kota Bontang",KALIMANTAN TIMUR,75325.0,Indonesia,87784554231.0,,,0.1325981,117.489157,https://maps.google.com/?cid=0x0:0xfc11f304da32c892,
hardware store,Toko Elektronik,AZKO Citimall Bontang,"Citimall, Jl. Jend. Soedirman, Tj. Laut, Kec. Bontang Sel., Kota Bontang, Kalimantan Timur 75321","Jl. Jend. Soedirman, Tj. Laut, Kec. Bontang Sel., Kota Bontang",KALIMANTAN TIMUR,75321.0,Indonesia,81241163811.0,,,0.12034,117.4848629,https://maps.google.com/?cid=0x0:0x860458663647ed62,
hardware store,Toko Perlengkapan Rumah,Berkat Raya Sejahtera,"Jl. Slamet Riyadi no. R1 RT 50, Lok Tuan, Kec. Bontang Utara, Kota Bontang, Kalimantan Timur 75315","Lok Tuan, Kec. Bontang Utara, Kota Bontang",KALIMANTAN TIMUR,75315.0,Indonesia,8115555598.0,,,0.1701585,117.4688888,https://maps.google.com/?cid=0x0:0x2f99c149cc249b1d,
hardware store,Toko Bahan Bangunan,Toko Bangunan Gemilang,"4FPV+Q24, Bontang Baru, Kec. Bontang Utara, Kota Bontang, Kalimantan Timur 75325","Bontang Baru, Kec. Bontang Utara, Kota Bontang",KALIMANTAN TIMUR,75325.0,Indonesia,83114785308.0,,,0.136896,117.4925752,https://maps.google.com/?cid=0x0:0xe070b212c7ab1d6b,
hardware store,hardware store,Kec. Bontang Utara,"Kota Bontang, Kalimantan Timur","Kota Bontang, Kalimantan Timur",KALIMANTAN TIMUR,,Indonesia,,,,0.1342654,117.4918113,https://maps.google.com/?cid=0x0:0x8e264a38633f2806,
hardware store,Toko Perkakas,JAYA HARDWARE,"Jl. Zamrut No.1 no 17, Berbas Tengah, Kec. Bontang Sel., Kota Bontang, Kalimantan Timur 75325","Berbas Tengah, Kec. Bontang Sel., Kota Bontang",KALIMANTAN TIMUR,75325.0,Indonesia,85250325896.0,,,0.1168641,117.4761906,https://maps.google.com/?cid=0x0:0xa54066d0aea7a39c,
hardware store,Pemasok Bahan Bangunan,Toko Bangunan Sinar Sanjaya,"Bar., Kanaan, Kec. Bontang Bar., Kota Bontang, Kalimantan Timur 75321","Kanaan, Kec. Bontang Bar., Kota Bontang",KALIMANTAN TIMUR,75321.0,Indonesia,81818202362.0,,,0.141098,117.4512106,https://maps.google.com/?cid=0x0:0x73bc47e972b63da8,
hardware store,Toko Alat-Alat,Berkat Raya Sejahtera CTL,"Jl. Sam Ratulangi No.79, Tj. Laut, Kec. Bontang Sel., Kota Bontang, Kalimantan Timur 75321","Tj. Laut, Kec. Bontang Sel., Kota Bontang",KALIMANTAN TIMUR,75321.0,Indonesia,85169995912.0,,,0.1181048,117.4934372,https://maps.google.com/?cid=0x0:0x4a0c260c9243a663,
hardware store,Toko Perlengkapan Rumah,MR.DIY Ruko Bontang,"Ruko Jl. Brigjen Katamso, Belimbing, Kec. Bontang Bar., Kota Bontang, Kalimantan Timur 75325","Belimbing, Kec. Bontang Bar., Kota Bontang",KALIMANTAN TIMUR,75325.0,Indonesia,2130022789.0,,,0.1395257,117.463342,https://maps.google.com/?cid=0x0:0xee54b81b7f1943d4,
hardware store,Toko Bahan Bangunan,Toko Material Bangunan Bone Raya,"4FMQ+2MM, Jl. Jend. Achmad Yani, Api-Api, Kec. Bontang Utara, Kota Bontang, Kalimantan Timur 75325","Jl. Jend. Achmad Yani, Api-Api, Kec. Bontang Utara, Kota Bontang",KALIMANTAN TIMUR,75325.0,Indonesia,87784554231.0,,,0.1325981,117.489157,https://maps.google.com/?cid=0x0:0xfc11f304da32c892,
hardware store,Toko Elektronik,AZKO Citimall Bontang,"Citimall, Jl. Jend. Soedirman, Tj. Laut, Kec. Bontang Sel., Kota Bontang, Kalimantan Timur 75321","Jl. Jend. Soedirman, Tj. Laut, Kec. Bontang Sel., Kota Bontang",KALIMANTAN TIMUR,75321.0,Indonesia,81241163811.0,,,0.12034,117.4848629,https://maps.google.com/?cid=0x0:0x860458663647ed62,
hardware store,Toko Bahan Bangunan,Toko Adillah Bangunan,"4FCV+W4F, Jl. Ir. H. Juanda, Tj. Laut Indah, Kec. Bontang Sel., Kota Bontang, Kalimantan Timur 75325","Jl. Ir. H. Juanda, Tj. Laut Indah, Kec. Bontang Sel., Kota Bontang",KALIMANTAN TIMUR,75325.0,Indonesia,81225533972.0,,,0.1223141,117.4927981,https://maps.google.com/?cid=0x0:0x7b5a38c6980dccca,
hardware store,Toko Perlengkapan Rumah,MR.DIY,"Jl. Mayor Jenderal DI Panjaitan No.51, RT.026/000, Api-Api, Kec. Bontang Utara, Kota Bontang, Kalimantan Timur 75311","RT.026/000, Api-Api, Kec. Bontang Utara, Kota Bontang",KALIMANTAN TIMUR,75311.0,Indonesia,,,,0.1333061,117.4951835,https://maps.google.com/?cid=0x0:0xcc27a53c799566b,
hardware store,Toko Alat Listrik,Indo Tehnik,"Jl. Jend. Achmad Yani No.20, RT.4, Tj. Laut, Kec. Bontang Sel., Kota Bontang, Kalimantan Timur 75321","RT.4, Tj. Laut, Kec. Bontang Sel., Kota Bontang",KALIMANTAN TIMUR,75321.0,Indonesia,81352660972.0,,,0.1269052,117.4831519,https://maps.google.com/?cid=0x0:0xe439053b2286908e,
hardware store,Toko Perlengkapan Rumah,MR.DIY,"Jl. Slamet Riyadi, Lok Tuan, Kec. Bontang Utara, Kota Bontang, Kalimantan Timur 75321","Lok Tuan, Kec. Bontang Utara, Kota Bontang",KALIMANTAN TIMUR,75321.0,Indonesia,,,,0.170183,117.469193,https://maps.google.com/?cid=0x0:0xff5640747ac4b804,
hardware store,Toko Bahan Bangunan,Toko bangunan Renaldi jaya bontang,"Jl. Soekarno Hatta No.12, Kanaan, Kec. Bontang Bar., Kota Bontang, Kalimantan Timur 75321","Kanaan, Kec. Bontang Bar., Kota Bontang",KALIMANTAN TIMUR,75321.0,Indonesia,82227713040.0,,,0.1406227,117.4497134,https://maps.google.com/?cid=0x0:0x2afbaa22e37f71fd,
hardware store,Toko Perkakas,KAWAN LAMA SOLUTION BONTANG,"Jl. Brigjen Katamso No.12, Belimbing, Kec. Bontang Bar., Kota Bontang, Kalimantan Timur 75325","Belimbing, Kec. Bontang Bar., Kota Bontang",KALIMANTAN TIMUR,75325.0,Indonesia,8115814490.0,,,0.1359033,117.4684026,https://maps.google.com/?cid=0x0:0x560a6478023c5d4d,
hardware store,Toko Bahan Bangunan,U.D. Damai Abadi,"4F9H+4FH, Berbas Tengah, Kec. Bontang Sel., Kota Bontang, Kalimantan Timur 75325","Berbas Tengah, Kec. Bontang Sel., Kota Bontang",KALIMANTAN TIMUR,75325.0,Indonesia,82227713040.0,,,0.1178035,117.4787232,https://maps.google.com/?cid=0x0:0xd49b4b4c03e2b43e,
hardware store,,UD. Jaya Abadi,"Jalan R.E Martadinata RT.08 No. 112, Lok Tuan, Kec. Bontang Utara, Kota Bontang, Kalimantan Timur 75321","Lok Tuan, Kec. Bontang Utara, Kota Bontang",KALIMANTAN TIMUR,75321.0,Indonesia,83114785308.0,,,0.1669023,117.4839646,https://maps.google.com/?cid=0x0:0x74d29a148d2c2b6f,
hardware store,Toko Alat Tulis Kantor,Anugrah Terang Toko ATK Dan Digital Printing,"Jl. Bhayangkara, Gn. Elai, Kec. Bontang Utara, Kota Bontang, Kalimantan Timur 75325","Gn. Elai, Kec. Bontang Utara, Kota Bontang",KALIMANTAN TIMUR,75325.0,Indonesia,82157009222.0,,,0.1354628,117.4748881,https://maps.google.com/?cid=0x0:0x5832dba6144a759d,
hardware store,Toko Bahan Bangunan,Toko SIKA BONTANG,"Jl. Cipto Mangunkusumo, RT.23, Lok Tuan, Kec. Bontang Utara, Kota Bontang, Kalimantan Timur 75311","RT.23, Lok Tuan, Kec. Bontang Utara, Kota Bontang",KALIMANTAN TIMUR,75311.0,Indonesia,85386888769.0,,,0.1640224,117.4671102,https://maps.google.com/?cid=0x0:0x790a178e931d4fbc,
hardware store,Pemasok Peralatan Industri,Krisbow Toko,"Jl. Bhayangkara No.16-D, Belimbing, Kec. Bontang Bar., Kota Bontang, Kalimantan Timur 75325","Belimbing, Kec. Bontang Bar., Kota Bontang",KALIMANTAN TIMUR,75325.0,Indonesia,54829938.0,,,0.1360089,117.471181,https://maps.google.com/?cid=0x0:0x7d060a9e0ed5ddb5,
hardware store,hardware store,Arema gypsum jaya profil,"simpang lampu merah, Jl. Brigjen Katamso jalan tembus Bontang, Belimbing, Kec. Bontang Bar., Kota Bontang, Kalimantan Timur 75313","Jl. Brigjen Katamso jalan tembus Bontang, Belimbing, Kec. Bontang Bar., Kota Bontang",KALIMANTAN TIMUR,75313.0,Indonesia,8125335125.0,,,0.1359484,117.4719801,https://maps.google.com/?cid=0x0:0x9b0434669268fd93,
hardware store,Toko Mebel,BAITII HOUSEWARE perabot mainan  florist,"Jl. Jend. Achmad Yani, Api-Api, Kec. Bontang Utara, Kota Bontang, Kalimantan Timur 75325","Api-Api, Kec. Bontang Utara, Kota Bontang",KALIMANTAN TIMUR,75325.0,Indonesia,82220090101.0,,,0.1323934,117.4878139,https://maps.google.com/?cid=0x0:0x49e670e5e16b364d,
hardware store,Toko Bahan Bangunan,Toko Bangunan Gemilang,"4FPV+Q24, Bontang Baru, Kec. Bontang Utara, Kota Bontang, Kalimantan Timur 75325","Bontang Baru, Kec. Bontang Utara, Kota Bontang",KALIMANTAN TIMUR,75325.0,Indonesia,83114785308.0,,,0.136896,117.4925752,https://maps.google.com/?cid=0x0:0xe070b212c7ab1d6b,
hardware store,Kontraktor Umum,CV. Karyo Utomo,"Perum Griya Temputu Indah, Jln. Kapal induk III No.12 A, RT.52, Lok Tuan, Kec. Bontang Utara, Kota Bontang, Kalimantan Timur 75321","Jln. Kapal induk III No.12 A, RT.52, Lok Tuan, Kec. Bontang Utara, Kota Bontang",KALIMANTAN TIMUR,75321.0,Indonesia,82255290359.0,,,0.1757006,117.4701314,https://maps.google.com/?cid=0x0:0x8ae7634cb53d0b34,
