Category,Real Category,Business Name,Address,City,State,Postal Code,Country,Phone,Email,Website,Latitude,Longitude,Map Link,Details Link
mall,mall,Kalimantan Timur 75313,"Kota Bontang, Kalimantan Timur","Kota Bontang, Kalimantan Timur",KALIMANTAN TIMUR,,Indonesia,,,,0.1379123,117.493321,https://maps.google.com/?cid=0x0:0xc31ada602112700b,
mall,Pusat Perbelanjaan,RAMAYANA Bontang,"Jl. MH. Thamrin, Bontang Baru, Kec. Bontang Utara, Kota Bontang, Kalimantan Timur 75325","Bontang Baru, Kec. Bontang Utara, Kota Bontang",KALIMANTAN TIMUR,75325.0,Indonesia,8118332180.0,,,0.1364468,117.4887367,https://maps.google.com/?cid=0x0:0xeb7f34515ee30b00,
mall,Pusat Perbelanjaan,Citimall Bontang,"4FCM+4R5, Tj. Laut, Kec. Bontang Sel., Kota Bontang, Kalimantan Timur","Kota Bontang, Kalimantan Timur",KALIMANTAN TIMUR,,Indonesia,,,,0.1202565,117.484601,https://maps.google.com/?cid=0x0:0xc28230aefa7705a9,
mall,Pusat Perbelanjaan,CC,"Api-Api, Kec. Bontang Utara, Kota Bontang, Kalimantan Timur 75313","Kec. Bontang Utara, Kota Bontang",KALIMANTAN TIMUR,75313.0,Indonesia,85349287123.0,,,0.1332669,117.4949944,https://maps.google.com/?cid=0x0:0xdba1c27b0eba15b7,
mall,Pusat Perbelanjaan,Bontang Plaza,"Jl. Brigjen Katamso No.10, Belimbing, Kec. Bontang Bar., Kota Bontang, Kalimantan Timur 75325","Belimbing, Kec. Bontang Bar., Kota Bontang",KALIMANTAN TIMUR,75325.0,Indonesia,5485102198.0,,,0.1406034,117.4624008,https://maps.google.com/?cid=0x0:0xa8b8d943d6a0ee6c,
mall,Pusat Perbelanjaan,KL Cosmetics,"Jl. Kelinci JJ.1 RT. 18 BTN PKT, Belimbing, Kec. Bontang Bar., Kota Bontang, Kalimantan Timur 75313","Belimbing, Kec. Bontang Bar., Kota Bontang",KALIMANTAN TIMUR,75313.0,Indonesia,85787512619.0,,,0.145562,117.467987,https://maps.google.com/?cid=0x0:0xe7eb3ec4b12b6bdc,
mall,Toko Mainan,Lego House bxt,"Jl. Enggang blok iii no.C1, Belimbing, Kec. Bontang Bar., Kota Bontang, Kalimantan Timur 75313","Belimbing, Kec. Bontang Bar., Kota Bontang",KALIMANTAN TIMUR,75313.0,Indonesia,82230600851.0,,,0.1444101,117.4739622,https://maps.google.com/?cid=0x0:0x6743632aab73f02f,
mall,Pasar bahan bangunan,Toko Berkat Raya Baru,"4FMR+MRX, Bontang Baru, Kec. Bontang Utara, Kota Bontang, Kalimantan Timur 75313","Bontang Baru, Kec. Bontang Utara, Kota Bontang",KALIMANTAN TIMUR,75313.0,Indonesia,82159682985.0,,,0.1342451,117.492119,https://maps.google.com/?cid=0x0:0xc77f7e005f165c17,
mall,Pusat Perbelanjaan,Reseller SR12 Bontang,"Jl. Brigjen Katamso Jl. Cendrawasih No.07, RT.45, Belimbing, Kec. Bontang Bar., Kota Bontang, Kalimantan Timur 75325","RT.45, Belimbing, Kec. Bontang Bar., Kota Bontang",KALIMANTAN TIMUR,75325.0,Indonesia,82397500782.0,,,0.1386332,117.4666326,https://maps.google.com/?cid=0x0:0x5d402db7c92c3a2b,
mall,Toko Kaos,3SECOND FAMILY STORE FASHION BONTANG,"4FJP+GJC, Jl. Jend. Achmad Yani, Gunung Sari, Kec. Bontang Utara, Kota Bontang, Kalimantan Timur 75313","Jl. Jend. Achmad Yani, Gunung Sari, Kec. Bontang Utara, Kota Bontang",KALIMANTAN TIMUR,75313.0,Indonesia,83844464324.0,,,0.1313554,117.4865312,https://maps.google.com/?cid=0x0:0x80cae52184b154e7,
mall,Toko bahan makanan,Bee Mart,"4FWF+GHQ, Jl. Cipto Mangunkusumo, Belimbing, Kec. Bontang Bar., Kota Bontang, Kalimantan Timur 75325","Jl. Cipto Mangunkusumo, Belimbing, Kec. Bontang Bar., Kota Bontang",KALIMANTAN TIMUR,75325.0,Indonesia,54824536.0,,,0.1463314,117.4739886,https://maps.google.com/?cid=0x0:0xc6f5da59868b016e,
mall,Toko Suku Cadang Mobil,Bursa Barang Bontang,"Jl. Lombok No.01, Api-Api, Kec. Bontang Utara, Kota Bontang, Kalimantan Timur 75325","Api-Api, Kec. Bontang Utara, Kota Bontang",KALIMANTAN TIMUR,75325.0,Indonesia,,,,0.1283785,117.4885547,https://maps.google.com/?cid=0x0:0x7fabd49dfbd19ac,
mall,Pusat Perbelanjaan,Mira mart,"4FPJ+799, Jl. MT. Haryono, Api-Api, Kec. Bontang Utara, Kota Bontang, Kalimantan Timur 75325","Jl. MT. Haryono, Api-Api, Kec. Bontang Utara, Kota Bontang",KALIMANTAN TIMUR,75325.0,Indonesia,,,,0.1356517,117.4809811,https://maps.google.com/?cid=0x0:0xaf3c2c6d961f6a01,
mall,Toko,Jejak Langit Outdoor Bontang,"Jl. Bhayangkara No.28, Gn. Elai, Kec. Bontang Utara, Kota Bontang, Kalimantan Timur 75325","Gn. Elai, Kec. Bontang Utara, Kota Bontang",KALIMANTAN TIMUR,75325.0,Indonesia,,,,0.1332663,117.476992,https://maps.google.com/?cid=0x0:0x78018d28230d55dd,
mall,Toko Aksesori Ponsel,GG CASE BONTANG 2,"4FMR+HJ6, Jl. Jend. Achmad Yani, Bontang Baru, Kec. Bontang Utara, Kota Bontang, Kalimantan Timur","Kota Bontang, Kalimantan Timur",KALIMANTAN TIMUR,,Indonesia,82255005320.0,,,0.1339232,117.4915279,https://maps.google.com/?cid=0x0:0xdb85c8423df617aa,
mall,Toko bahan makanan,Koka Mart,"4FV7+74W, Belimbing, Kec. Bontang Bar., Kota Bontang, Kalimantan Timur 75321","Belimbing, Kec. Bontang Bar., Kota Bontang",KALIMANTAN TIMUR,75321.0,Indonesia,82256699090.0,,,0.1432334,117.4628149,https://maps.google.com/?cid=0x0:0x46e69f9f49038628,
mall,Toko Bahan Bangunan,Toko Bangunan Hikmah Jaya,"Jl Ciptomangunkusumo K28, Komplek BTN PKT, 75313, Belimbing, Kec. Bontang Bar., Kota Bontang, Kalimantan Timur 75325","Komplek BTN PKT,",KALIMANTAN TIMUR,75313.0,Indonesia,83114785308.0,,,0.145588,117.4744558,https://maps.google.com/?cid=0x0:0x4e4323954ced27bb,
mall,Toko Buah dan Sayuran,Watermelon Bontang,"4FWF+HG8, Jl. Cipto Mangunkusumo, Gn. Elai, Kec. Bontang Utara, Kota Bontang, Kalimantan Timur 75313","Jl. Cipto Mangunkusumo, Gn. Elai, Kec. Bontang Utara, Kota Bontang",KALIMANTAN TIMUR,75313.0,Indonesia,,,,0.1464226,117.4738126,https://maps.google.com/?cid=0x0:0x5a83f0e1f32f62f3,
mall,Pusat Perbelanjaan,APB Bontang,"Api-Api, Kec. Bontang Utara, Kota Bontang, Kalimantan Timur 75313","Kec. Bontang Utara, Kota Bontang",KALIMANTAN TIMUR,75313.0,Indonesia,81350045824.0,,,0.126171,117.4994477,https://maps.google.com/?cid=0x0:0xfb7104706f567c55,
mall,Pusat Perbelanjaan,Moreskin NASA Bontang,"4FHQ+RC5, Api-Api, Kec. Bontang Utara, Kota Bontang, Kalimantan Timur 75313","Api-Api, Kec. Bontang Utara, Kota Bontang",KALIMANTAN TIMUR,75313.0,Indonesia,85652103852.0,,,0.1295065,117.4886187,https://maps.google.com/?cid=0x0:0xd8a1a281145d2c07,
mall,Toko Swalayan,Toko Samaria,"Jl. MH. Thamrin, Bontang Baru, Kec. Bontang Utara, Kota Bontang, Kalimantan Timur 75325","Bontang Baru, Kec. Bontang Utara, Kota Bontang",KALIMANTAN TIMUR,75325.0,Indonesia,8115599456.0,,,0.1416473,117.4894244,https://maps.google.com/?cid=0x0:0xeca7ddbf44359293,
mall,Toko Mainan,ZEA EDU TOYS,"Jl. Brigjen Katamso No.06, Belimbing, Kec. Bontang Bar., Kota Bontang, Kalimantan Timur 75325","Belimbing, Kec. Bontang Bar., Kota Bontang",KALIMANTAN TIMUR,75325.0,Indonesia,82324003434.0,,,0.135441,117.4687634,https://maps.google.com/?cid=0x0:0xda379fcf52303ecc,
mall,Toko Suvenir,Borneos.co | #1 Marketplace UMKM Bontang,"Jl. Alamanda, Belimbing, Kec. Bontang Bar., Kota Bontang, Kalimantan Timur 75321","Belimbing, Kec. Bontang Bar., Kota Bontang",KALIMANTAN TIMUR,75321.0,Indonesia,8115475113.0,,,0.1428431,117.4630262,https://maps.google.com/?cid=0x0:0xb671c45a94ea8dd,
mall,Toko Pakaian,"IVONE Grosir Gamis, BTN KCY","4FJR+5GQ, BTN KCY, Api-Api, Bontang Utara, Bontang City, East Kalimantan 75313","BTN KCY, Api-Api, Bontang Utara, Bontang City",KALIMANTAN TIMUR,75313.0,Indonesia,,,,0.1304509,117.4913691,https://maps.google.com/?cid=0x0:0x48f39faa4cb27688,
mall,mall,Kec. Bontang Bar.,"Kota Bontang, Kalimantan Timur","Kota Bontang, Kalimantan Timur",KALIMANTAN TIMUR,,Indonesia,,,,0.1372358,117.4548496,https://maps.google.com/?cid=0x0:0xdc6d300939175081,
mall,Pusat Perbelanjaan,Citimall Bontang,"4FCM+4R5, Tj. Laut, Kec. Bontang Sel., Kota Bontang, Kalimantan Timur","Kota Bontang, Kalimantan Timur",KALIMANTAN TIMUR,,Indonesia,,,,0.1202565,117.484601,https://maps.google.com/?cid=0x0:0xc28230aefa7705a9,
mall,Toko,BonTieShop (BTS),"Gang Jati 7 No. 05 RT. 21, Satimpo, Kec. Bontang Sel., Kota Bontang, Kalimantan Timur 75325","Satimpo, Kec. Bontang Sel., Kota Bontang",KALIMANTAN TIMUR,75325.0,Indonesia,,,,0.1280705,117.4646855,https://maps.google.com/?cid=0x0:0xf6fc84ff56dde775,
mall,Toko bahan makanan,Koka Mart,"4FV7+74W, Belimbing, Kec. Bontang Bar., Kota Bontang, Kalimantan Timur 75321","Belimbing, Kec. Bontang Bar., Kota Bontang",KALIMANTAN TIMUR,75321.0,Indonesia,82256699090.0,,,0.1432334,117.4628149,https://maps.google.com/?cid=0x0:0x46e69f9f49038628,
mall,Terminal Bus,Terminal Bontang,"4FQ4+M48, Kanaan, Kec. Bontang Bar., Kota Bontang, Kalimantan Timur 75321","Kanaan, Kec. Bontang Bar., Kota Bontang",KALIMANTAN TIMUR,75321.0,Indonesia,,,,0.1391562,117.4553225,https://maps.google.com/?cid=0x0:0x3a27b83c910c4627,
mall,Pusat Perbelanjaan,Bontang Plaza,"Jl. Brigjen Katamso No.10, Belimbing, Kec. Bontang Bar., Kota Bontang, Kalimantan Timur 75325","Belimbing, Kec. Bontang Bar., Kota Bontang",KALIMANTAN TIMUR,75325.0,Indonesia,5485102198.0,,,0.1406034,117.4624008,https://maps.google.com/?cid=0x0:0xa8b8d943d6a0ee6c,
mall,Pusat Perbelanjaan,Reseller SR12 Bontang,"Jl. Brigjen Katamso Jl. Cendrawasih No.07, RT.45, Belimbing, Kec. Bontang Bar., Kota Bontang, Kalimantan Timur 75325","RT.45, Belimbing, Kec. Bontang Bar., Kota Bontang",KALIMANTAN TIMUR,75325.0,Indonesia,82397500782.0,,,0.1386332,117.4666326,https://maps.google.com/?cid=0x0:0x5d402db7c92c3a2b,
mall,Toko Mainan,ZEA EDU TOYS,"Jl. Brigjen Katamso No.06, Belimbing, Kec. Bontang Bar., Kota Bontang, Kalimantan Timur 75325","Belimbing, Kec. Bontang Bar., Kota Bontang",KALIMANTAN TIMUR,75325.0,Indonesia,82324003434.0,,,0.135441,117.4687634,https://maps.google.com/?cid=0x0:0xda379fcf52303ecc,
mall,Toko Mainan,Lego House bxt,"Jl. Enggang blok iii no.C1, Belimbing, Kec. Bontang Bar., Kota Bontang, Kalimantan Timur 75313","Belimbing, Kec. Bontang Bar., Kota Bontang",KALIMANTAN TIMUR,75313.0,Indonesia,82230600851.0,,,0.1444101,117.4739622,https://maps.google.com/?cid=0x0:0x6743632aab73f02f,
mall,Toko Suvenir,Borneos.co | #1 Marketplace UMKM Bontang,"Jl. Alamanda, Belimbing, Kec. Bontang Bar., Kota Bontang, Kalimantan Timur 75321","Belimbing, Kec. Bontang Bar., Kota Bontang",KALIMANTAN TIMUR,75321.0,Indonesia,8115475113.0,,,0.1428431,117.4630262,https://maps.google.com/?cid=0x0:0xb671c45a94ea8dd,
mall,Toko bahan makanan,Bee Mart,"4FWF+GHQ, Jl. Cipto Mangunkusumo, Belimbing, Kec. Bontang Bar., Kota Bontang, Kalimantan Timur 75325","Jl. Cipto Mangunkusumo, Belimbing, Kec. Bontang Bar., Kota Bontang",KALIMANTAN TIMUR,75325.0,Indonesia,54824536.0,,,0.1463314,117.4739886,https://maps.google.com/?cid=0x0:0xc6f5da59868b016e,
mall,Toko,Jejak Langit Outdoor Bontang,"Jl. Bhayangkara No.28, Gn. Elai, Kec. Bontang Utara, Kota Bontang, Kalimantan Timur 75325","Gn. Elai, Kec. Bontang Utara, Kota Bontang",KALIMANTAN TIMUR,75325.0,Indonesia,,,,0.1332663,117.476992,https://maps.google.com/?cid=0x0:0x78018d28230d55dd,
mall,Toko Kosmetik,Cosmetics Room Id,"Jl. Gn. Ciremai No.7, Gn. Elai, Kec. Bontang Utara, Kota Bontang, Kalimantan Timur 75325","Gn. Elai, Kec. Bontang Utara, Kota Bontang",KALIMANTAN TIMUR,75325.0,Indonesia,,,,0.1507639,117.477511,https://maps.google.com/?cid=0x0:0x7172895b3ca87e03,
mall,Pusat Perbelanjaan,Nasa Bontang,"4CPX+PR4, Gn. Telihan, Kec. Bontang Bar., Kota Bontang, Kalimantan Timur 75321","Gn. Telihan, Kec. Bontang Bar., Kota Bontang",KALIMANTAN TIMUR,75321.0,Indonesia,85257335401.0,,,0.1367724,117.4495749,https://maps.google.com/?cid=0x0:0x5a8e3c40757ded1a,
mall,Pusat Perbelanjaan,Bilqis Brand Matahari,"4FQ5+PW6, Jl. Balikpapan, Belakang Dana, Kec. Bontang Bar., Kota Bontang, Kalimantan Timur 75321","Jl. Balikpapan, Belakang Dana, Kec. Bontang Bar., Kota Bontang",KALIMANTAN TIMUR,75321.0,Indonesia,82244969537.0,,,0.1392962,117.4597665,https://maps.google.com/?cid=0x0:0xda8a0240add8d779,
mall,Pusat Perbelanjaan,Derocopy,"Jl. Gajah, Belimbing, Kec. Bontang Bar., Kota Bontang, Kalimantan Timur 75325","Belimbing, Kec. Bontang Bar., Kota Bontang",KALIMANTAN TIMUR,75325.0,Indonesia,85245033011.0,,,0.1451423,117.4710978,https://maps.google.com/?cid=0x0:0x6cdcd18547590900,
mall,Toko Pakaian Olahraga,Bontang Sport,"Jalan Brigjen katamso, mall Bontang Plaza Lt 2 Sebelah Mahkota Sepatu, Belimbing, Bontang Barat, Bontang City, East Kalimantan 75321","mall Bontang Plaza Lt 2 Sebelah Mahkota Sepatu, Belimbing, Bontang Barat, Bontang City",KALIMANTAN TIMUR,75321.0,Indonesia,82352788788.0,,,0.1401502,117.4628266,https://maps.google.com/?cid=0x0:0x3aea2303f2bc781c,
mall,Toko Bahan Bangunan,Toko Bangunan Hikmah Jaya,"Jl Ciptomangunkusumo K28, Komplek BTN PKT, 75313, Belimbing, Kec. Bontang Bar., Kota Bontang, Kalimantan Timur 75325","Komplek BTN PKT,",KALIMANTAN TIMUR,75313.0,Indonesia,83114785308.0,,,0.145588,117.4744558,https://maps.google.com/?cid=0x0:0x4e4323954ced27bb,
mall,Developer Rumah Hunian Khusus,BTN PKT Bontang,"4FVF+835, Jl. Srigunting, Belimbing, Bontang Barat, Bontang City, East Kalimantan 75325","Jl. Srigunting, Belimbing, Bontang Barat, Bontang City",KALIMANTAN TIMUR,75325.0,Indonesia,85252210109.0,,,0.143257,117.4727401,https://maps.google.com/?cid=0x0:0x3cc9b85d85f2bc2d,
mall,Panggung,Gedung Pendopo Town Center PT Badak Bontang,"4F88+93W, Jl. Kutai Raya, Satimpo, Kec. Bontang Sel., Kota Bontang, Kalimantan Timur 75325","Jl. Kutai Raya, Satimpo, Kec. Bontang Sel., Kota Bontang",KALIMANTAN TIMUR,75325.0,Indonesia,,,,0.1159796,117.4652111,https://maps.google.com/?cid=0x0:0xf5c22989f59c7a3c,
mall,Pusat Perbelanjaan,Matahari Citimall Bontang,"Jl. Jend. Soedirman No.RT.024, Tj. Laut, Kec. Bontang Sel., Kota Bontang, Kalimantan Timur 75325","Tj. Laut, Kec. Bontang Sel., Kota Bontang",KALIMANTAN TIMUR,75325.0,Indonesia,81119688039.0,,,0.1200759,117.4844229,https://maps.google.com/?cid=0x0:0xe7837f4e5bd9a9df,
mall,Warnet,Warnet Pelangi,"Jl. Brigjen Katamso No.15, Belimbing, Kec. Bontang Bar., Kota Bontang, Kalimantan Timur 75325","Belimbing, Kec. Bontang Bar., Kota Bontang",KALIMANTAN TIMUR,75325.0,Indonesia,,,,0.1358349,117.4685972,https://maps.google.com/?cid=0x0:0xac38c79a56577b1,
mall,Layanan Transportasi,Dendy Tour  Travel,"Jl. S. Parman No.27, Belimbing, Kec. Bontang Bar., Kota Bontang, Kalimantan Timur 75321","Belimbing, Kec. Bontang Bar., Kota Bontang",KALIMANTAN TIMUR,75321.0,Indonesia,85249980905.0,,,0.1404244,117.4578126,https://maps.google.com/?cid=0x0:0xaf08e41fbaa29a89,
mall,Pusat Perbelanjaan,Nayz My Minime Bontang Zea Baby Food,"BTN PKT, Jl. Menjangan No.8 Blok O3, Belimbing, Kec. Bontang Bar., Kota Bontang, Kalimantan Timur 75325","Jl. Menjangan No.8 Blok O3, Belimbing, Kec. Bontang Bar., Kota Bontang",KALIMANTAN TIMUR,75325.0,Indonesia,,,,0.1471961,117.4728386,https://maps.google.com/?cid=0x0:0xbde80e2c603c555e,
mall,,Bumbu ana,"4CQX+9MX, Kanaan, Kec. Bontang Bar., Kota Bontang, Kalimantan Timur 75321","Kanaan, Kec. Bontang Bar., Kota Bontang",KALIMANTAN TIMUR,75321.0,Indonesia,81253902930.0,,,0.1384854,117.4492205,https://maps.google.com/?cid=0x0:0xaa4184287083fcd2,
mall,mall,Kalimantan Timur 75321,"Kec. Tlk. Pandan, Kabupaten Kutai Timur, Kalimantan Timur","Kabupaten Kutai Timur, Kalimantan Timur",KALIMANTAN TIMUR,,Indonesia,,,,0.1825802,117.4321452,https://maps.google.com/?cid=0x0:0x70eac15f80c6d3d5,
mall,Pusat Perbelanjaan,Citimall Bontang,"4FCM+4R5, Tj. Laut, Kec. Bontang Sel., Kota Bontang, Kalimantan Timur","Kota Bontang, Kalimantan Timur",KALIMANTAN TIMUR,,Indonesia,,,,0.1202565,117.484601,https://maps.google.com/?cid=0x0:0xc28230aefa7705a9,
mall,Pusat Perbelanjaan,Bontang Plaza,"Jl. Brigjen Katamso No.10, Belimbing, Kec. Bontang Bar., Kota Bontang, Kalimantan Timur 75325","Belimbing, Kec. Bontang Bar., Kota Bontang",KALIMANTAN TIMUR,75325.0,Indonesia,5485102198.0,,,0.1406034,117.4624008,https://maps.google.com/?cid=0x0:0xa8b8d943d6a0ee6c,
mall,Toko,BonTieShop (BTS),"Gang Jati 7 No. 05 RT. 21, Satimpo, Kec. Bontang Sel., Kota Bontang, Kalimantan Timur 75325","Satimpo, Kec. Bontang Sel., Kota Bontang",KALIMANTAN TIMUR,75325.0,Indonesia,,,,0.1280705,117.4646855,https://maps.google.com/?cid=0x0:0xf6fc84ff56dde775,
mall,Toko,Jejak Langit Outdoor Bontang,"Jl. Bhayangkara No.28, Gn. Elai, Kec. Bontang Utara, Kota Bontang, Kalimantan Timur 75325","Gn. Elai, Kec. Bontang Utara, Kota Bontang",KALIMANTAN TIMUR,75325.0,Indonesia,,,,0.1332663,117.476992,https://maps.google.com/?cid=0x0:0x78018d28230d55dd,
mall,Pusat Perbelanjaan,RAMAYANA Bontang,"Jl. MH. Thamrin, Bontang Baru, Kec. Bontang Utara, Kota Bontang, Kalimantan Timur 75325","Bontang Baru, Kec. Bontang Utara, Kota Bontang",KALIMANTAN TIMUR,75325.0,Indonesia,8118332180.0,,,0.1364468,117.4887367,https://maps.google.com/?cid=0x0:0xeb7f34515ee30b00,
mall,Pusat Perbelanjaan,Mira mart,"4FPJ+799, Jl. MT. Haryono, Api-Api, Kec. Bontang Utara, Kota Bontang, Kalimantan Timur 75325","Jl. MT. Haryono, Api-Api, Kec. Bontang Utara, Kota Bontang",KALIMANTAN TIMUR,75325.0,Indonesia,,,,0.1356517,117.4809811,https://maps.google.com/?cid=0x0:0xaf3c2c6d961f6a01,
mall,Toko bahan makanan,Koka Mart,"4FV7+74W, Belimbing, Kec. Bontang Bar., Kota Bontang, Kalimantan Timur 75321","Belimbing, Kec. Bontang Bar., Kota Bontang",KALIMANTAN TIMUR,75321.0,Indonesia,82256699090.0,,,0.1432334,117.4628149,https://maps.google.com/?cid=0x0:0x46e69f9f49038628,
mall,Toko Suvenir,Ido Niaga,"4F6M+989, Jl. Pangeran Antasari, Berbas Pantai, Kec. Bontang Sel., Kota Bontang, Kalimantan Timur 75325","Jl. Pangeran Antasari, Berbas Pantai, Kec. Bontang Sel., Kota Bontang",KALIMANTAN TIMUR,75325.0,Indonesia,82152370299.0,,,0.1109079,117.4833553,https://maps.google.com/?cid=0x0:0x98b36bfb3e6b6f77,
mall,Pusat Perbelanjaan,Selvi ratu nasa bontang,"4FGH+VP8, Jl. HM Ardans, Satimpo, Kec. Bontang Sel., Kota Bontang, Kalimantan Timur 75325","Jl. HM Ardans, Satimpo, Kec. Bontang Sel., Kota Bontang",KALIMANTAN TIMUR,75325.0,Indonesia,82353266601.0,,,0.1271715,117.4793139,https://maps.google.com/?cid=0x0:0x7425a8bbb865b0cb,
mall,Toko Suvenir,Borneos.co | #1 Marketplace UMKM Bontang,"Jl. Alamanda, Belimbing, Kec. Bontang Bar., Kota Bontang, Kalimantan Timur 75321","Belimbing, Kec. Bontang Bar., Kota Bontang",KALIMANTAN TIMUR,75321.0,Indonesia,8115475113.0,,,0.1428431,117.4630262,https://maps.google.com/?cid=0x0:0xb671c45a94ea8dd,
mall,Pusat Perbelanjaan,Beautymask Bontang,"Jl. Raden Patah No.176 RT.02, Berbas Tengah, Berbas, Kota Bontang, Kalimantan Timur 75322","Berbas Tengah, Berbas, Kota Bontang",KALIMANTAN TIMUR,75322.0,Indonesia,895339926449.0,,,0.1126378,117.4798497,https://maps.google.com/?cid=0x0:0xfde9ea4f680f0d5d,
mall,Pusat Perbelanjaan,KL Cosmetics,"Jl. Kelinci JJ.1 RT. 18 BTN PKT, Belimbing, Kec. Bontang Bar., Kota Bontang, Kalimantan Timur 75313","Belimbing, Kec. Bontang Bar., Kota Bontang",KALIMANTAN TIMUR,75313.0,Indonesia,85787512619.0,,,0.145562,117.467987,https://maps.google.com/?cid=0x0:0xe7eb3ec4b12b6bdc,
mall,Pusat Perbelanjaan,CC,"Api-Api, Kec. Bontang Utara, Kota Bontang, Kalimantan Timur 75313","Kec. Bontang Utara, Kota Bontang",KALIMANTAN TIMUR,75313.0,Indonesia,85349287123.0,,,0.1332669,117.4949944,https://maps.google.com/?cid=0x0:0xdba1c27b0eba15b7,
mall,Pusat Perbelanjaan,Nasa Bontang,"4CPX+PR4, Gn. Telihan, Kec. Bontang Bar., Kota Bontang, Kalimantan Timur 75321","Gn. Telihan, Kec. Bontang Bar., Kota Bontang",KALIMANTAN TIMUR,75321.0,Indonesia,85257335401.0,,,0.1367724,117.4495749,https://maps.google.com/?cid=0x0:0x5a8e3c40757ded1a,
mall,Pasar,Pasar tradisional Bontang lestari,"3CFX+2QJ, Bontang Lestari, Kec. Bontang Sel., Kota Bontang, Kalimantan Timur 75325","Bontang Lestari, Kec. Bontang Sel., Kota Bontang",KALIMANTAN TIMUR,75325.0,Indonesia,,,,0.0725755,117.4493975,https://maps.google.com/?cid=0x0:0x1887904600916235,
mall,Pusat Perbelanjaan,Bilqis Brand Matahari,"4FQ5+PW6, Jl. Balikpapan, Belakang Dana, Kec. Bontang Bar., Kota Bontang, Kalimantan Timur 75321","Jl. Balikpapan, Belakang Dana, Kec. Bontang Bar., Kota Bontang",KALIMANTAN TIMUR,75321.0,Indonesia,82244969537.0,,,0.1392962,117.4597665,https://maps.google.com/?cid=0x0:0xda8a0240add8d779,
mall,Pusat Perbelanjaan,Reseller SR12 Bontang,"Jl. Brigjen Katamso Jl. Cendrawasih No.07, RT.45, Belimbing, Kec. Bontang Bar., Kota Bontang, Kalimantan Timur 75325","RT.45, Belimbing, Kec. Bontang Bar., Kota Bontang",KALIMANTAN TIMUR,75325.0,Indonesia,82397500782.0,,,0.1386332,117.4666326,https://maps.google.com/?cid=0x0:0x5d402db7c92c3a2b,
mall,Asosiasi/organisasi,Binaan Pupuk Kaltim - Toga Mak Rifah,"Jl. Tari Jepen No.1, Guntung, Kec. Bontang Utara, Kota Bontang, Kalimantan Timur 75321","Guntung, Kec. Bontang Utara, Kota Bontang",KALIMANTAN TIMUR,75321.0,Indonesia,,,,0.1920658,117.4773992,https://maps.google.com/?cid=0x0:0x5ae878269045b0ac,
mall,Toko Aksesori Ponsel,GG CASE BONTANG 2,"4FMR+HJ6, Jl. Jend. Achmad Yani, Bontang Baru, Kec. Bontang Utara, Kota Bontang, Kalimantan Timur","Kota Bontang, Kalimantan Timur",KALIMANTAN TIMUR,,Indonesia,82255005320.0,,,0.1339232,117.4915279,https://maps.google.com/?cid=0x0:0xdb85c8423df617aa,
mall,Toko Swalayan,Toko Samaria,"Jl. MH. Thamrin, Bontang Baru, Kec. Bontang Utara, Kota Bontang, Kalimantan Timur 75325","Bontang Baru, Kec. Bontang Utara, Kota Bontang",KALIMANTAN TIMUR,75325.0,Indonesia,8115599456.0,,,0.1416473,117.4894244,https://maps.google.com/?cid=0x0:0xeca7ddbf44359293,
mall,Minimarket,Pamandiri Mart,"4FHJ+HP9, Tj. Laut, Kec. Bontang Sel., Kota Bontang, Kalimantan Timur 75325","Tj. Laut, Kec. Bontang Sel., Kota Bontang",KALIMANTAN TIMUR,75325.0,Indonesia,81350847420.0,,,0.1289102,117.4818574,https://maps.google.com/?cid=0x0:0x73cd3b9d5c1c1468,
mall,Toko Kosmetik,Cosmetics Room Id,"Jl. Gn. Ciremai No.7, Gn. Elai, Kec. Bontang Utara, Kota Bontang, Kalimantan Timur 75325","Gn. Elai, Kec. Bontang Utara, Kota Bontang",KALIMANTAN TIMUR,75325.0,Indonesia,,,,0.1507639,117.477511,https://maps.google.com/?cid=0x0:0x7172895b3ca87e03,
mall,mall,Kalimantan Timur 75324,"Kec. Bontang Sel., Kota Bontang, Kalimantan Timur","Kota Bontang, Kalimantan Timur",KALIMANTAN TIMUR,,Indonesia,,,,0.1495015,117.2911248,https://maps.google.com/?cid=0x0:0x38f97e9610099fa,
mall,Pusat Perbelanjaan,Citimall Bontang,"4FCM+4R5, Tj. Laut, Kec. Bontang Sel., Kota Bontang, Kalimantan Timur","Kota Bontang, Kalimantan Timur",KALIMANTAN TIMUR,,Indonesia,,,,0.1202565,117.484601,https://maps.google.com/?cid=0x0:0xc28230aefa7705a9,
mall,Pusat Perbelanjaan,Bontang Plaza,"Jl. Brigjen Katamso No.10, Belimbing, Kec. Bontang Bar., Kota Bontang, Kalimantan Timur 75325","Belimbing, Kec. Bontang Bar., Kota Bontang",KALIMANTAN TIMUR,75325.0,Indonesia,5485102198.0,,,0.1406034,117.4624008,https://maps.google.com/?cid=0x0:0xa8b8d943d6a0ee6c,
mall,Pusat Perbelanjaan,Matahari Citimall Bontang,"Jl. Jend. Soedirman No.RT.024, Tj. Laut, Kec. Bontang Sel., Kota Bontang, Kalimantan Timur 75325","Tj. Laut, Kec. Bontang Sel., Kota Bontang",KALIMANTAN TIMUR,75325.0,Indonesia,81119688039.0,,,0.1200759,117.4844229,https://maps.google.com/?cid=0x0:0xe7837f4e5bd9a9df,
mall,Toko,Toko Fatimah,"2FX2+9P7, Jl. Linmas 2, Bontang Lestari, Kec. Bontang Sel., Kota Bontang, Kalimantan Timur 75324","Jl. Linmas 2, Bontang Lestari, Kec. Bontang Sel., Kota Bontang",KALIMANTAN TIMUR,75324.0,Indonesia,,,,0.0484171,117.4518099,https://maps.google.com/?cid=0x0:0x237afb222963ecc8,
mall,Toko,TOKO YOSIDA,"Bontang Lestari, Kec. Bontang Sel., Kota Bontang, Kalimantan Timur 75325","Kec. Bontang Sel., Kota Bontang",KALIMANTAN TIMUR,75325.0,Indonesia,82158101010.0,,,0.0699267,117.4407789,https://maps.google.com/?cid=0x0:0x91904106ef066167,
mall,Toko Suvenir,Ido Niaga,"4F6M+989, Jl. Pangeran Antasari, Berbas Pantai, Kec. Bontang Sel., Kota Bontang, Kalimantan Timur 75325","Jl. Pangeran Antasari, Berbas Pantai, Kec. Bontang Sel., Kota Bontang",KALIMANTAN TIMUR,75325.0,Indonesia,82152370299.0,,,0.1109079,117.4833553,https://maps.google.com/?cid=0x0:0x98b36bfb3e6b6f77,
mall,Pasar,Pasar tradisional Bontang lestari,"3CFX+2QJ, Bontang Lestari, Kec. Bontang Sel., Kota Bontang, Kalimantan Timur 75325","Bontang Lestari, Kec. Bontang Sel., Kota Bontang",KALIMANTAN TIMUR,75325.0,Indonesia,,,,0.0725755,117.4493975,https://maps.google.com/?cid=0x0:0x1887904600916235,
mall,Toko,BonTieShop (BTS),"Gang Jati 7 No. 05 RT. 21, Satimpo, Kec. Bontang Sel., Kota Bontang, Kalimantan Timur 75325","Satimpo, Kec. Bontang Sel., Kota Bontang",KALIMANTAN TIMUR,75325.0,Indonesia,,,,0.1280705,117.4646855,https://maps.google.com/?cid=0x0:0xf6fc84ff56dde775,
mall,Kantor Pemerintah,Kantor Walikota Bontang,"3C9V+QJ5, Jl. Moeh Roem, Bontang Lestari, Kec. Bontang Sel., Kota Bontang, Kalimantan Timur 75325","Jl. Moeh Roem, Bontang Lestari, Kec. Bontang Sel., Kota Bontang",KALIMANTAN TIMUR,75325.0,Indonesia,,,,0.0693849,117.4441224,https://maps.google.com/?cid=0x0:0xf5a8af288e6d30a8,
mall,Pusat Perbelanjaan,Selvi ratu nasa bontang,"4FGH+VP8, Jl. HM Ardans, Satimpo, Kec. Bontang Sel., Kota Bontang, Kalimantan Timur 75325","Jl. HM Ardans, Satimpo, Kec. Bontang Sel., Kota Bontang",KALIMANTAN TIMUR,75325.0,Indonesia,82353266601.0,,,0.1271715,117.4793139,https://maps.google.com/?cid=0x0:0x7425a8bbb865b0cb,
mall,Pusat Perbelanjaan,RAMAYANA Bontang,"Jl. MH. Thamrin, Bontang Baru, Kec. Bontang Utara, Kota Bontang, Kalimantan Timur 75325","Bontang Baru, Kec. Bontang Utara, Kota Bontang",KALIMANTAN TIMUR,75325.0,Indonesia,8118332180.0,,,0.1364468,117.4887367,https://maps.google.com/?cid=0x0:0xeb7f34515ee30b00,
mall,Toko Percetakan,Mahkota Grafika,"4F5P+V56, Berbas Pantai, Kec. Bontang Sel., Kota Bontang, Kalimantan Timur 75322","Berbas Pantai, Kec. Bontang Sel., Kota Bontang",KALIMANTAN TIMUR,75322.0,Indonesia,8125509501.0,,,0.1096659,117.4853985,https://maps.google.com/?cid=0x0:0x8038944d68077e21,
mall,Toko Suku Cadang Mobil,Bursa Barang Bontang,"Jl. Lombok No.01, Api-Api, Kec. Bontang Utara, Kota Bontang, Kalimantan Timur 75325","Api-Api, Kec. Bontang Utara, Kota Bontang",KALIMANTAN TIMUR,75325.0,Indonesia,,,,0.1283785,117.4885547,https://maps.google.com/?cid=0x0:0x7fabd49dfbd19ac,
mall,,TOKO MEGA COLLECTION,"Jl. Sultan Hasanudin, Berbas Pantai, Kec. Bontang Sel., Kota Bontang, Kalimantan Timur 75322","Berbas Pantai, Kec. Bontang Sel., Kota Bontang",KALIMANTAN TIMUR,75322.0,Indonesia,85250770752.0,,,0.1124178,117.4814154,https://maps.google.com/?cid=0x0:0xec1bbb9ff592e2e3,
mall,mall,Kota Bontang,Kalimantan Timur,"Kota Bontang, Kalimantan Timur",KALIMANTAN TIMUR,,Indonesia,,,,0.0496978,117.4321452,https://maps.google.com/?cid=0x0:0x136ad5a5a0efe376,
mall,Pusat Perbelanjaan,Reseller SR12 Bontang,"Jl. Brigjen Katamso Jl. Cendrawasih No.07, RT.45, Belimbing, Kec. Bontang Bar., Kota Bontang, Kalimantan Timur 75325","RT.45, Belimbing, Kec. Bontang Bar., Kota Bontang",KALIMANTAN TIMUR,75325.0,Indonesia,82397500782.0,,,0.1386332,117.4666326,https://maps.google.com/?cid=0x0:0x5d402db7c92c3a2b,
mall,Pusat Perbelanjaan,KL Cosmetics,"Jl. Kelinci JJ.1 RT. 18 BTN PKT, Belimbing, Kec. Bontang Bar., Kota Bontang, Kalimantan Timur 75313","Belimbing, Kec. Bontang Bar., Kota Bontang",KALIMANTAN TIMUR,75313.0,Indonesia,85787512619.0,,,0.145562,117.467987,https://maps.google.com/?cid=0x0:0xe7eb3ec4b12b6bdc,
mall,Kantor Pemerintah,Mal Pelayanan Publik,"4FCW+529, Jl. Ir. H. Juanda, Tj. Laut Indah, Kec. Bontang Sel., Kota Bontang, Kalimantan Timur 75325","Jl. Ir. H. Juanda, Tj. Laut Indah, Kec. Bontang Sel., Kota Bontang",KALIMANTAN TIMUR,75325.0,Indonesia,,,,0.1205667,117.495202,https://maps.google.com/?cid=0x0:0xa79cfb9ef77fcd40,
mall,Minimarket,Pamandiri Mart,"4FHJ+HP9, Tj. Laut, Kec. Bontang Sel., Kota Bontang, Kalimantan Timur 75325","Tj. Laut, Kec. Bontang Sel., Kota Bontang",KALIMANTAN TIMUR,75325.0,Indonesia,81350847420.0,,,0.1289102,117.4818574,https://maps.google.com/?cid=0x0:0x73cd3b9d5c1c1468,
mall,Komplek perumahan,Better Living in Malahing,"4G7H+XVW, Jl. Selat Karimata, Tj. Laut, Kec. Bontang Sel., Kota Bontang, Kalimantan Timur 75325","Jl. Selat Karimata, Tj. Laut, Kec. Bontang Sel., Kota Bontang",KALIMANTAN TIMUR,75325.0,Indonesia,,,,0.1149963,117.5297025,https://maps.google.com/?cid=0x0:0x7e3afee8cea5ac4b,
mall,Toko Aksesori Ponsel,Garskin Bontang,"Jl. Sultan Hasanudin, Berbas Pantai, Kec. Bontang Sel., Kota Bontang, Kalimantan Timur 75322","Berbas Pantai, Kec. Bontang Sel., Kota Bontang",KALIMANTAN TIMUR,75322.0,Indonesia,85248747777.0,,,0.1110173,117.4816685,https://maps.google.com/?cid=0x0:0xbd057688e0a99ecf,
mall,Pusat Perbelanjaan,CITIMALL BONTANG XXI,"4FCM+6XQ, Tj. Laut, Kec. Bontang Sel., Kota Bontang, Kalimantan Timur","Kota Bontang, Kalimantan Timur",KALIMANTAN TIMUR,,Indonesia,5483510001.0,,,0.120584,117.4849713,https://maps.google.com/?cid=0x0:0x4f0d8d4e5409415,
mall,Toko,Jejak Langit Outdoor Bontang,"Jl. Bhayangkara No.28, Gn. Elai, Kec. Bontang Utara, Kota Bontang, Kalimantan Timur 75325","Gn. Elai, Kec. Bontang Utara, Kota Bontang",KALIMANTAN TIMUR,75325.0,Indonesia,,,,0.1332663,117.476992,https://maps.google.com/?cid=0x0:0x78018d28230d55dd,
mall,,Feeyyshop,"Tj. Laut Indah, Kec. Bontang Sel., Kota Bontang, Kalimantan Timur 75325","Kec. Bontang Sel., Kota Bontang",KALIMANTAN TIMUR,75325.0,Indonesia,,,,0.1155054,117.4903421,https://maps.google.com/?cid=0x0:0x593f8ba026b4a0f7,
mall,Toko Suvenir,Borneos.co | #1 Marketplace UMKM Bontang,"Jl. Alamanda, Belimbing, Kec. Bontang Bar., Kota Bontang, Kalimantan Timur 75321","Belimbing, Kec. Bontang Bar., Kota Bontang",KALIMANTAN TIMUR,75321.0,Indonesia,8115475113.0,,,0.1428431,117.4630262,https://maps.google.com/?cid=0x0:0xb671c45a94ea8dd,
mall,mall,Kalimantan Timur 75325,Kalimantan Timur,Kalimantan Timur,KALIMANTAN TIMUR,,Indonesia,,,,0.0830107,117.2440957,https://maps.google.com/?cid=0x0:0x26084c6c6cec55ca,
mall,Pusat Perbelanjaan,Citimall Bontang,"4FCM+4R5, Tj. Laut, Kec. Bontang Sel., Kota Bontang, Kalimantan Timur","Kota Bontang, Kalimantan Timur",KALIMANTAN TIMUR,,Indonesia,,,,0.1202565,117.484601,https://maps.google.com/?cid=0x0:0xc28230aefa7705a9,
mall,Pusat Perbelanjaan,Bontang Plaza,"Jl. Brigjen Katamso No.10, Belimbing, Kec. Bontang Bar., Kota Bontang, Kalimantan Timur 75325","Belimbing, Kec. Bontang Bar., Kota Bontang",KALIMANTAN TIMUR,75325.0,Indonesia,5485102198.0,,,0.1406034,117.4624008,https://maps.google.com/?cid=0x0:0xa8b8d943d6a0ee6c,
mall,Toko Suvenir,Ido Niaga,"4F6M+989, Jl. Pangeran Antasari, Berbas Pantai, Kec. Bontang Sel., Kota Bontang, Kalimantan Timur 75325","Jl. Pangeran Antasari, Berbas Pantai, Kec. Bontang Sel., Kota Bontang",KALIMANTAN TIMUR,75325.0,Indonesia,82152370299.0,,,0.1109079,117.4833553,https://maps.google.com/?cid=0x0:0x98b36bfb3e6b6f77,
mall,Pusat Perbelanjaan,RAMAYANA Bontang,"Jl. MH. Thamrin, Bontang Baru, Kec. Bontang Utara, Kota Bontang, Kalimantan Timur 75325","Bontang Baru, Kec. Bontang Utara, Kota Bontang",KALIMANTAN TIMUR,75325.0,Indonesia,8118332180.0,,,0.1364468,117.4887367,https://maps.google.com/?cid=0x0:0xeb7f34515ee30b00,
mall,Toko,BonTieShop (BTS),"Gang Jati 7 No. 05 RT. 21, Satimpo, Kec. Bontang Sel., Kota Bontang, Kalimantan Timur 75325","Satimpo, Kec. Bontang Sel., Kota Bontang",KALIMANTAN TIMUR,75325.0,Indonesia,,,,0.1280705,117.4646855,https://maps.google.com/?cid=0x0:0xf6fc84ff56dde775,
mall,Toko,Jejak Langit Outdoor Bontang,"Jl. Bhayangkara No.28, Gn. Elai, Kec. Bontang Utara, Kota Bontang, Kalimantan Timur 75325","Gn. Elai, Kec. Bontang Utara, Kota Bontang",KALIMANTAN TIMUR,75325.0,Indonesia,,,,0.1332663,117.476992,https://maps.google.com/?cid=0x0:0x78018d28230d55dd,
mall,Komplek perumahan,Better Living in Malahing,"4G7H+XVW, Jl. Selat Karimata, Tj. Laut, Kec. Bontang Sel., Kota Bontang, Kalimantan Timur 75325","Jl. Selat Karimata, Tj. Laut, Kec. Bontang Sel., Kota Bontang",KALIMANTAN TIMUR,75325.0,Indonesia,,,,0.1149963,117.5297025,https://maps.google.com/?cid=0x0:0x7e3afee8cea5ac4b,
mall,Pusat Perbelanjaan,Selvi ratu nasa bontang,"4FGH+VP8, Jl. HM Ardans, Satimpo, Kec. Bontang Sel., Kota Bontang, Kalimantan Timur 75325","Jl. HM Ardans, Satimpo, Kec. Bontang Sel., Kota Bontang",KALIMANTAN TIMUR,75325.0,Indonesia,82353266601.0,,,0.1271715,117.4793139,https://maps.google.com/?cid=0x0:0x7425a8bbb865b0cb,
mall,Minimarket,Pamandiri Mart,"4FHJ+HP9, Tj. Laut, Kec. Bontang Sel., Kota Bontang, Kalimantan Timur 75325","Tj. Laut, Kec. Bontang Sel., Kota Bontang",KALIMANTAN TIMUR,75325.0,Indonesia,81350847420.0,,,0.1289102,117.4818574,https://maps.google.com/?cid=0x0:0x73cd3b9d5c1c1468,
mall,Toko,TOKO YOSIDA,"Bontang Lestari, Kec. Bontang Sel., Kota Bontang, Kalimantan Timur 75325","Kec. Bontang Sel., Kota Bontang",KALIMANTAN TIMUR,75325.0,Indonesia,82158101010.0,,,0.0699267,117.4407789,https://maps.google.com/?cid=0x0:0x91904106ef066167,
mall,Toko Suku Cadang Mobil,Bursa Barang Bontang,"Jl. Lombok No.01, Api-Api, Kec. Bontang Utara, Kota Bontang, Kalimantan Timur 75325","Api-Api, Kec. Bontang Utara, Kota Bontang",KALIMANTAN TIMUR,75325.0,Indonesia,,,,0.1283785,117.4885547,https://maps.google.com/?cid=0x0:0x7fabd49dfbd19ac,
mall,Pusat Perbelanjaan,Reseller SR12 Bontang,"Jl. Brigjen Katamso Jl. Cendrawasih No.07, RT.45, Belimbing, Kec. Bontang Bar., Kota Bontang, Kalimantan Timur 75325","RT.45, Belimbing, Kec. Bontang Bar., Kota Bontang",KALIMANTAN TIMUR,75325.0,Indonesia,82397500782.0,,,0.1386332,117.4666326,https://maps.google.com/?cid=0x0:0x5d402db7c92c3a2b,
mall,Toko Herbal,ELYN HWI KHATULISTIWA,"Jl. Selat Malaka No.08, RT.21/RW.08, Tj. Laut, Kec. Bontang Sel., Kota Bontang, Kalimantan Timur 75325","RT.21/RW.08, Tj. Laut, Kec. Bontang Sel., Kota Bontang",KALIMANTAN TIMUR,75325.0,Indonesia,82255551535.0,,,0.1197629,117.4813134,https://maps.google.com/?cid=0x0:0x2ec7afd654f00f09,
mall,Pusat Perbelanjaan,Beautymask Bontang,"Jl. Raden Patah No.176 RT.02, Berbas Tengah, Berbas, Kota Bontang, Kalimantan Timur 75322","Berbas Tengah, Berbas, Kota Bontang",KALIMANTAN TIMUR,75322.0,Indonesia,895339926449.0,,,0.1126378,117.4798497,https://maps.google.com/?cid=0x0:0xfde9ea4f680f0d5d,
mall,Pusat Perbelanjaan,CC,"Api-Api, Kec. Bontang Utara, Kota Bontang, Kalimantan Timur 75313","Kec. Bontang Utara, Kota Bontang",KALIMANTAN TIMUR,75313.0,Indonesia,85349287123.0,,,0.1332669,117.4949944,https://maps.google.com/?cid=0x0:0xdba1c27b0eba15b7,
mall,Pasar,Pasar tradisional Bontang lestari,"3CFX+2QJ, Bontang Lestari, Kec. Bontang Sel., Kota Bontang, Kalimantan Timur 75325","Bontang Lestari, Kec. Bontang Sel., Kota Bontang",KALIMANTAN TIMUR,75325.0,Indonesia,,,,0.0725755,117.4493975,https://maps.google.com/?cid=0x0:0x1887904600916235,
mall,Toko Cat,PT. Distrindo Pratama Sejahtera,"Jl. Selat Selayar, Tj. Laut, Kec. Bontang Sel., Kota Bontang, Kalimantan Timur 75325","Tj. Laut, Kec. Bontang Sel., Kota Bontang",KALIMANTAN TIMUR,75325.0,Indonesia,81253426789.0,,,0.1230959,117.4823089,https://maps.google.com/?cid=0x0:0xa76d8496279bab69,
mall,Kantor Pemerintah,Mal Pelayanan Publik,"4FCW+529, Jl. Ir. H. Juanda, Tj. Laut Indah, Kec. Bontang Sel., Kota Bontang, Kalimantan Timur 75325","Jl. Ir. H. Juanda, Tj. Laut Indah, Kec. Bontang Sel., Kota Bontang",KALIMANTAN TIMUR,75325.0,Indonesia,,,,0.1205667,117.495202,https://maps.google.com/?cid=0x0:0xa79cfb9ef77fcd40,
mall,Toko,Ipehmart,"Jl. Sultan Syahrir No.4, Tj. Laut Indah, Kec. Bontang Sel., Kota Bontang, Kalimantan Timur 75325","Tj. Laut Indah, Kec. Bontang Sel., Kota Bontang",KALIMANTAN TIMUR,75325.0,Indonesia,85332276208.0,,,0.1187009,117.4875878,https://maps.google.com/?cid=0x0:0x34e47db9fcb8b075,
mall,Toko Mainan,ZEA EDU TOYS,"Jl. Brigjen Katamso No.06, Belimbing, Kec. Bontang Bar., Kota Bontang, Kalimantan Timur 75325","Belimbing, Kec. Bontang Bar., Kota Bontang",KALIMANTAN TIMUR,75325.0,Indonesia,82324003434.0,,,0.135441,117.4687634,https://maps.google.com/?cid=0x0:0xda379fcf52303ecc,
mall,Pusat Perbelanjaan,Business Center Of Putra Bangsa,"4GJ2+H65, Jl. Aip II KS Tubun, Api-Api, Kec. Bontang Utara, Kota Bontang, Kalimantan Timur 75325","Jl. Aip II KS Tubun, Api-Api, Kec. Bontang Utara, Kota Bontang",KALIMANTAN TIMUR,75325.0,Indonesia,54828044.0,,,0.1313802,117.5005938,https://maps.google.com/?cid=0x0:0x2a8ac46a5e19fdee,
mall,Pasar,PASAR TAMAN RAWA INDAH KOTA BONTANG,"Jl. Ir. H. Juanda, Tj. Laut Indah, Kec. Bontang Sel., Kota Bontang, Kalimantan Timur 75325","Tj. Laut Indah, Kec. Bontang Sel., Kota Bontang",KALIMANTAN TIMUR,75325.0,Indonesia,,,,0.120179,117.4951835,https://maps.google.com/?cid=0x0:0xd1dd484710d41661,
mall,Pusat Perbelanjaan,CITIMALL BONTANG XXI,"4FCM+6XQ, Tj. Laut, Kec. Bontang Sel., Kota Bontang, Kalimantan Timur","Kota Bontang, Kalimantan Timur",KALIMANTAN TIMUR,,Indonesia,5483510001.0,,,0.120584,117.4849713,https://maps.google.com/?cid=0x0:0x4f0d8d4e5409415,
mall,mall,Kalimantan Timur 75311,"Gn. Elai, Kec. Bontang Utara, Kota Bontang, Kalimantan Timur","Kota Bontang, Kalimantan Timur",KALIMANTAN TIMUR,,Indonesia,,,,0.1444417,117.4887629,https://maps.google.com/?cid=0x0:0x33198cc450f8143a,
mall,Pusat Perbelanjaan,Citimall Bontang,"4FCM+4R5, Tj. Laut, Kec. Bontang Sel., Kota Bontang, Kalimantan Timur","Kota Bontang, Kalimantan Timur",KALIMANTAN TIMUR,,Indonesia,,,,0.1202565,117.484601,https://maps.google.com/?cid=0x0:0xc28230aefa7705a9,
mall,Pusat Perbelanjaan,Bontang Plaza,"Jl. Brigjen Katamso No.10, Belimbing, Kec. Bontang Bar., Kota Bontang, Kalimantan Timur 75325","Belimbing, Kec. Bontang Bar., Kota Bontang",KALIMANTAN TIMUR,75325.0,Indonesia,5485102198.0,,,0.1406034,117.4624008,https://maps.google.com/?cid=0x0:0xa8b8d943d6a0ee6c,
mall,Kantor Pemerintah,Mal Pelayanan Publik,"4FCW+529, Jl. Ir. H. Juanda, Tj. Laut Indah, Kec. Bontang Sel., Kota Bontang, Kalimantan Timur 75325","Jl. Ir. H. Juanda, Tj. Laut Indah, Kec. Bontang Sel., Kota Bontang",KALIMANTAN TIMUR,75325.0,Indonesia,,,,0.1205667,117.495202,https://maps.google.com/?cid=0x0:0xa79cfb9ef77fcd40,
mall,Pusat Perbelanjaan,APB Bontang,"Api-Api, Kec. Bontang Utara, Kota Bontang, Kalimantan Timur 75313","Kec. Bontang Utara, Kota Bontang",KALIMANTAN TIMUR,75313.0,Indonesia,81350045824.0,,,0.126171,117.4994477,https://maps.google.com/?cid=0x0:0xfb7104706f567c55,
mall,Pasar,PASAR TAMAN RAWA INDAH KOTA BONTANG,"Jl. Ir. H. Juanda, Tj. Laut Indah, Kec. Bontang Sel., Kota Bontang, Kalimantan Timur 75325","Tj. Laut Indah, Kec. Bontang Sel., Kota Bontang",KALIMANTAN TIMUR,75325.0,Indonesia,,,,0.120179,117.4951835,https://maps.google.com/?cid=0x0:0xd1dd484710d41661,
mall,Minimarket,Kaca5 Mart - BSD,"Jl. Gn. Dempo No.02, Gn. Elai, Kec. Bontang Utara, Kota Bontang, Kalimantan Timur 75311","Gn. Elai, Kec. Bontang Utara, Kota Bontang",KALIMANTAN TIMUR,75311.0,Indonesia,89507921104.0,,,0.150847,117.4779311,https://maps.google.com/?cid=0x0:0xa4e6cff72ba63400,
mall,Bubble Tea,GUARDIAN - Citimall Bontang,"Citimall Bontang, Jl. Jend. Soedirman, Tj. Laut, Kec. Bontang Sel., Kota Bontang, Kalimantan Timur 75325","Jl. Jend. Soedirman, Tj. Laut, Kec. Bontang Sel., Kota Bontang",KALIMANTAN TIMUR,75325.0,Indonesia,,,,0.1200293,117.4847063,https://maps.google.com/?cid=0x0:0xa2dbf172db4c7e8c,
mall,Terminal Bus,Terminal Bontang,"4FQ4+M48, Kanaan, Kec. Bontang Bar., Kota Bontang, Kalimantan Timur 75321","Kanaan, Kec. Bontang Bar., Kota Bontang",KALIMANTAN TIMUR,75321.0,Indonesia,,,,0.1391562,117.4553225,https://maps.google.com/?cid=0x0:0x3a27b83c910c4627,
mall,,Shorum Ud Dika Motor,"Jl. M.H. Thamrin No.rt 02 nomor 04, Gn. Elai, Kec. Bontang Utara, Kota Jakarta Pusat, Daerah Khusus Ibukota Jakarta","Kota Jakarta Pusat, Daerah Khusus Ibukota Jakarta",KALIMANTAN TIMUR,,Indonesia,82152382112.0,,,0.1443293,117.488802,https://maps.google.com/?cid=0x0:0x2d8714935598003e,
mall,Toko Swalayan,Fara Snack | Pusat Aneka Cemilan dan Oleh-oleh Khas Bontang,"Jl. R. Suprapto, Api-Api, Kec. Bontang Utara, Kota Bontang, Kalimantan Timur 75325","Api-Api, Kec. Bontang Utara, Kota Bontang",KALIMANTAN TIMUR,75325.0,Indonesia,82158100436.0,,,0.1348497,117.4904315,https://maps.google.com/?cid=0x0:0xf0089bc6ee76e99b,
mall,Kafe,Kaca5 Mart,"Jl. Mulawarman No.77, Bontang Baru, Kec. Bontang Utara, Kota Bontang, Kalimantan Timur 75325","Bontang Baru, Kec. Bontang Utara, Kota Bontang",KALIMANTAN TIMUR,75325.0,Indonesia,82255771750.0,,,0.1422569,117.4954063,https://maps.google.com/?cid=0x0:0xe3c1881eb96c4283,
mall,Kantor Pemerintah,Kantor Walikota Bontang,"3C9V+QJ5, Jl. Moeh Roem, Bontang Lestari, Kec. Bontang Sel., Kota Bontang, Kalimantan Timur 75325","Jl. Moeh Roem, Bontang Lestari, Kec. Bontang Sel., Kota Bontang",KALIMANTAN TIMUR,75325.0,Indonesia,,,,0.0693849,117.4441224,https://maps.google.com/?cid=0x0:0xf5a8af288e6d30a8,
mall,Brunch,Griyo Dhahar Kaca5,"Jl. Mulawarman, Salebba, Bontang Baru, Kota Bontang, Kalimantan Timur 75313","Salebba, Bontang Baru, Kota Bontang",KALIMANTAN TIMUR,75313.0,Indonesia,82116677330.0,,,0.1427305,117.4955588,https://maps.google.com/?cid=0x0:0xefd3efb79704601a,
mall,Toko Bunga,Florist.btg,"jalan selat selayar RT19 No15, Kota Bontang, Kalimantan Timur 75321",Kota Bontang,KALIMANTAN TIMUR,75321.0,Indonesia,85696323690.0,,,0.1224219,117.4803733,https://maps.google.com/?cid=0x0:0xc0d8da57c15191ac,
mall,Pusat Perbelanjaan,RAMAYANA Bontang,"Jl. MH. Thamrin, Bontang Baru, Kec. Bontang Utara, Kota Bontang, Kalimantan Timur 75325","Bontang Baru, Kec. Bontang Utara, Kota Bontang",KALIMANTAN TIMUR,75325.0,Indonesia,8118332180.0,,,0.1364468,117.4887367,https://maps.google.com/?cid=0x0:0xeb7f34515ee30b00,
mall,mall,Hotel Raodah 2 Bontang,"Jl. MT. Haryono, Api-Api, Kec. Bontang Utara, Kota Bontang, Kalimantan Timur 75325","Api-Api, Kec. Bontang Utara, Kota Bontang",KALIMANTAN TIMUR,75325.0,Indonesia,54828261.0,,,0.1358009,117.4813696,https://maps.google.com/?cid=0x0:0x2f077e275f694095,
mall,mall,Hotel Gembira,"Jl. Hayam Wuruk No.7-9, Kampung Baru, Berbas Tengah, Kec. Bontang Sel., Kota Bontang, Kalimantan Timur 75313","Kampung Baru, Berbas Tengah, Kec. Bontang Sel., Kota Bontang",KALIMANTAN TIMUR,75313.0,Indonesia,54826145.0,,,0.1169033,117.4799093,https://maps.google.com/?cid=0x0:0x479c6feb43b88e31,
mall,mall,Grand Raodah Hotel,"Jl. Letjend Jl. R. Suprapto No.1, Api-Api, Kec. Bontang Utara, Kota Bontang, Kalimantan Timur 75311","Api-Api, Kec. Bontang Utara, Kota Bontang",KALIMANTAN TIMUR,75311.0,Indonesia,54821180.0,,,0.1350198,117.4893525,https://maps.google.com/?cid=0x0:0xc23095180837725d,
mall,mall,Hotel Bintang Sintuk,"5F6F+2C6, Komp. Kawasan Lapangan Golf Sintuk PKT Jl. Urea, Lok Tuan, Kec. Bontang Utara, Kota Bontang, Kalimantan Timur 75313","Komp. Kawasan Lapangan Golf Sintuk PKT Jl. Urea, Lok Tuan, Kec. Bontang Utara, Kota Bontang",KALIMANTAN TIMUR,75313.0,Indonesia,54826268.0,,,0.160026,117.473509,https://maps.google.com/?cid=0x0:0xd8836872ea3fba6f,
mall,mall,Hotel Grand Mutiara,"Jl. Arif Rahman Hakim No.KM. 3, Belimbing, Kota Bontang, Kalimantan Timur 75313","Belimbing, Kota Bontang",KALIMANTAN TIMUR,75313.0,Indonesia,54841988.0,,,0.1688223,117.4590919,https://maps.google.com/?cid=0x0:0x3937ef5771ae78e4,
mall,mall,Hotel Andika bontang,"4F8H+JW9, Berbas Tengah, Kec. Bontang Sel., Kota Bontang, Kalimantan Timur 75325","Berbas Tengah, Kec. Bontang Sel., Kota Bontang",KALIMANTAN TIMUR,75325.0,Indonesia,,,,0.1165348,117.479854,https://maps.google.com/?cid=0x0:0x149e8f375ced935b,
mall,mall,Akbar Hotel,"JL. Imam Bonjol, No. 65, Gunung Sari, Tj. Laut, Kec. Bontang Sel., Kota Bontang, Kalimantan Timur 75311","No. 65, Gunung Sari, Tj. Laut, Kec. Bontang Sel., Kota Bontang",KALIMANTAN TIMUR,75311.0,Indonesia,54827679.0,,,0.1293884,117.4835703,https://maps.google.com/?cid=0x0:0xdb040fce5326c002,
mall,mall,Omah Ijo Guest House Bontang,"Jl. Mulawarman No.27, Bontang Baru, Kec. Bontang Utara, Kota Bontang, Kalimantan Timur 75325","Bontang Baru, Kec. Bontang Utara, Kota Bontang",KALIMANTAN TIMUR,75325.0,Indonesia,81348303716.0,,,0.1420922,117.4954397,https://maps.google.com/?cid=0x0:0xb5fc42efefee370b,
mall,mall,Okra Leaf Guest House Syariah,"Jl. Mayor Jenderal DI Panjaitan, RT.27/RW.No. 04, Api-Api, Kec. Bontang Utara, Kota Bontang, Kalimantan Timur 75313","RT.27/RW.No. 04, Api-Api, Kec. Bontang Utara, Kota Bontang",KALIMANTAN TIMUR,75313.0,Indonesia,54821236.0,,,0.1329936,117.4994554,https://maps.google.com/?cid=0x0:0x26fc241b5573849a,
mall,Tujuan Wisata,Bontang Mangrove Park,"Jl. Cut Nyak Dien, Bontang Baru, Kec. Bontang Utara, Kota Bontang, Kalimantan Timur 75313","Bontang Baru, Kec. Bontang Utara, Kota Bontang",KALIMANTAN TIMUR,75313.0,Indonesia,8125391268.0,,,0.1456522,117.4975567,https://maps.google.com/?cid=0x0:0xff4fab38c0736c9,
mall,mall,Hotel Borneo,"Jl. Sultan Hasanudin No.8, Berbas Tengah, Kec. Bontang Sel., Kota Bontang, Kalimantan Timur 75322","Berbas Tengah, Kec. Bontang Sel., Kota Bontang",KALIMANTAN TIMUR,75322.0,Indonesia,81347275099.0,,,0.1137832,117.4814495,https://maps.google.com/?cid=0x0:0xd34545e0716b21bc,
mall,Taman bermain,Happy Time Bontang,"Jl. Jend. Soedirman, Tj. Laut, Kec. Bontang Sel., Kota Bontang, Kalimantan Timur 75325","Tj. Laut, Kec. Bontang Sel., Kota Bontang",KALIMANTAN TIMUR,75325.0,Indonesia,85712232861.0,,,0.1206447,117.4849492,https://maps.google.com/?cid=0x0:0x1265c2320fb95417,
mall,Kantor Pemerintah,Dinas Penanaman Modal dan Pelayanan Terpadu Satu Pintu Kota Bontang,"4FQW+J57, Jl. Awang Long, Bontang Baru, Kec. Bontang Utara, Kota Bontang, Kalimantan Timur 75313","Jl. Awang Long, Bontang Baru, Kec. Bontang Utara, Kota Bontang",KALIMANTAN TIMUR,75313.0,Indonesia,54820598.0,,,0.1390281,117.4954319,https://maps.google.com/?cid=0x0:0x1c7d8e3e5440001e,
mall,mall,Kalimantan Timur 75312,"Kec. Tlk. Pandan, Kabupaten Kutai Timur, Kalimantan Timur","Kabupaten Kutai Timur, Kalimantan Timur",KALIMANTAN TIMUR,,Indonesia,,,,0.2740898,117.4908738,https://maps.google.com/?cid=0x0:0x66ae207830c2242a,
mall,Pusat Perbelanjaan,Citimall Bontang,"4FCM+4R5, Tj. Laut, Kec. Bontang Sel., Kota Bontang, Kalimantan Timur","Kota Bontang, Kalimantan Timur",KALIMANTAN TIMUR,,Indonesia,,,,0.1202565,117.484601,https://maps.google.com/?cid=0x0:0xc28230aefa7705a9,
mall,Pusat Perbelanjaan,Bontang Plaza,"Jl. Brigjen Katamso No.10, Belimbing, Kec. Bontang Bar., Kota Bontang, Kalimantan Timur 75325","Belimbing, Kec. Bontang Bar., Kota Bontang",KALIMANTAN TIMUR,75325.0,Indonesia,5485102198.0,,,0.1406034,117.4624008,https://maps.google.com/?cid=0x0:0xa8b8d943d6a0ee6c,
mall,Pusat Perbelanjaan,Matahari Citimall Bontang,"Jl. Jend. Soedirman No.RT.024, Tj. Laut, Kec. Bontang Sel., Kota Bontang, Kalimantan Timur 75325","Tj. Laut, Kec. Bontang Sel., Kota Bontang",KALIMANTAN TIMUR,75325.0,Indonesia,81119688039.0,,,0.1200759,117.4844229,https://maps.google.com/?cid=0x0:0xe7837f4e5bd9a9df,
mall,Toko Aksesori Pakaian,MINISO -CITIMALL BONTANG,"4FCM+2QJ, Jl. Jend. Soedirman, Tj. Laut, Kec. Bontang Sel., Kota Bontang, Kalimantan Timur 75325","Jl. Jend. Soedirman, Tj. Laut, Kec. Bontang Sel., Kota Bontang",KALIMANTAN TIMUR,75325.0,Indonesia,83141897227.0,,,0.1200861,117.484398,https://maps.google.com/?cid=0x0:0xfe67b30fa4e27cc0,
mall,Toko bahan makanan,Teluk Pandan Dates Palm Farm,"7F9F+HGM, Jl. Ahmad Yani, Kandolo, Kec. Tlk. Pandan, Kabupaten Kutai Timur, Kalimantan Timur 75312","Jl. Ahmad Yani, Kandolo, Kec. Tlk. Pandan, Kabupaten Kutai Timur",KALIMANTAN TIMUR,75312.0,Indonesia,,,,0.268956,117.473789,https://maps.google.com/?cid=0x0:0xe8965cd23934f9a0,
mall,Toko Aksesori Ponsel,GG CASE BONTANG 2,"4FMR+HJ6, Jl. Jend. Achmad Yani, Bontang Baru, Kec. Bontang Utara, Kota Bontang, Kalimantan Timur","Kota Bontang, Kalimantan Timur",KALIMANTAN TIMUR,,Indonesia,82255005320.0,,,0.1339232,117.4915279,https://maps.google.com/?cid=0x0:0xdb85c8423df617aa,
mall,Pusat Perbelanjaan,CC,"Api-Api, Kec. Bontang Utara, Kota Bontang, Kalimantan Timur 75313","Kec. Bontang Utara, Kota Bontang",KALIMANTAN TIMUR,75313.0,Indonesia,85349287123.0,,,0.1332669,117.4949944,https://maps.google.com/?cid=0x0:0xdba1c27b0eba15b7,
mall,Toko,Toko BOOM,"4FPH+5MJ, Gn. Elai, Kec. Bontang Utara, Kota Bontang, Kalimantan Timur 75325","Gn. Elai, Kec. Bontang Utara, Kota Bontang",KALIMANTAN TIMUR,75325.0,Indonesia,,,,0.13547,117.479152,https://maps.google.com/?cid=0x0:0xf52c6350dead80a5,
mall,Pusat Perbelanjaan,APB Bontang,"Api-Api, Kec. Bontang Utara, Kota Bontang, Kalimantan Timur 75313","Kec. Bontang Utara, Kota Bontang",KALIMANTAN TIMUR,75313.0,Indonesia,81350045824.0,,,0.126171,117.4994477,https://maps.google.com/?cid=0x0:0xfb7104706f567c55,
mall,Pusat Perbelanjaan,Beautymask Bontang,"Jl. Raden Patah No.176 RT.02, Berbas Tengah, Berbas, Kota Bontang, Kalimantan Timur 75322","Berbas Tengah, Berbas, Kota Bontang",KALIMANTAN TIMUR,75322.0,Indonesia,895339926449.0,,,0.1126378,117.4798497,https://maps.google.com/?cid=0x0:0xfde9ea4f680f0d5d,
mall,Kantor Pemerintah,Mal Pelayanan Publik,"4FCW+529, Jl. Ir. H. Juanda, Tj. Laut Indah, Kec. Bontang Sel., Kota Bontang, Kalimantan Timur 75325","Jl. Ir. H. Juanda, Tj. Laut Indah, Kec. Bontang Sel., Kota Bontang",KALIMANTAN TIMUR,75325.0,Indonesia,,,,0.1205667,117.495202,https://maps.google.com/?cid=0x0:0xa79cfb9ef77fcd40,
mall,Pusat Perbelanjaan,CITIMALL BONTANG XXI,"4FCM+6XQ, Tj. Laut, Kec. Bontang Sel., Kota Bontang, Kalimantan Timur","Kota Bontang, Kalimantan Timur",KALIMANTAN TIMUR,,Indonesia,5483510001.0,,,0.120584,117.4849713,https://maps.google.com/?cid=0x0:0x4f0d8d4e5409415,
mall,Toko,Toko Faiz Bontang,"Gang Atletik No.16, Api-Api, Bontang Utara, Bontang City, East Kalimantan 75325","Api-Api, Bontang Utara, Bontang City",KALIMANTAN TIMUR,75325.0,Indonesia,,,,0.1285461,117.4961115,https://maps.google.com/?cid=0x0:0xaa0e5693dd94cee4,
mall,Toko Pertanian,Toko Pertanian Berkah Tani,"Jl. Poros Bontang - Sangatta, Martadinata, Kec. Tlk. Pandan, Kabupaten Kutai Timur, Kalimantan Timur 75311","Martadinata, Kec. Tlk. Pandan, Kabupaten Kutai Timur",KALIMANTAN TIMUR,75311.0,Indonesia,,,,0.2442218,117.4827188,https://maps.google.com/?cid=0x0:0xff8ce62c4c0c06de,
mall,Kafe,Kaca5 Mart,"Jl. Mulawarman No.77, Bontang Baru, Kec. Bontang Utara, Kota Bontang, Kalimantan Timur 75325","Bontang Baru, Kec. Bontang Utara, Kota Bontang",KALIMANTAN TIMUR,75325.0,Indonesia,82255771750.0,,,0.1422569,117.4954063,https://maps.google.com/?cid=0x0:0xe3c1881eb96c4283,
mall,Terminal Bus,Terminal Bontang,"4FQ4+M48, Kanaan, Kec. Bontang Bar., Kota Bontang, Kalimantan Timur 75321","Kanaan, Kec. Bontang Bar., Kota Bontang",KALIMANTAN TIMUR,75321.0,Indonesia,,,,0.1391562,117.4553225,https://maps.google.com/?cid=0x0:0x3a27b83c910c4627,
mall,mall,Null,"4FPR+VW8, Jl. Pangeran Suryanta, Bontang Baru, Kec. Bontang Utara, Kota Bontang, Kalimantan Timur 75325","Jl. Pangeran Suryanta, Bontang Baru, Kec. Bontang Utara, Kota Bontang",KALIMANTAN TIMUR,75325.0,Indonesia,89694481034.0,,,0.1372611,117.4923692,https://maps.google.com/?cid=0x0:0x1a7bf73b98161850,
mall,Toko Perhiasan,Toko perak Aqila,"Jl. Kakap Putih 1, Tj. Laut Indah, Kec. Bontang Sel., Kota Bontang, Kalimantan Timur 75325","Tj. Laut Indah, Kec. Bontang Sel., Kota Bontang",KALIMANTAN TIMUR,75325.0,Indonesia,,,,0.120775,117.495305,https://maps.google.com/?cid=0x0:0xc5cd349d45564b37,
mall,mall,Kec. Bontang Utara,"Kota Bontang, Kalimantan Timur","Kota Bontang, Kalimantan Timur",KALIMANTAN TIMUR,,Indonesia,,,,0.1342654,117.4918113,https://maps.google.com/?cid=0x0:0x8e264a38633f2806,
mall,Pusat Perbelanjaan,Citimall Bontang,"4FCM+4R5, Tj. Laut, Kec. Bontang Sel., Kota Bontang, Kalimantan Timur","Kota Bontang, Kalimantan Timur",KALIMANTAN TIMUR,,Indonesia,,,,0.1202565,117.484601,https://maps.google.com/?cid=0x0:0xc28230aefa7705a9,
mall,Pusat Perbelanjaan,Bontang Plaza,"Jl. Brigjen Katamso No.10, Belimbing, Kec. Bontang Bar., Kota Bontang, Kalimantan Timur 75325","Belimbing, Kec. Bontang Bar., Kota Bontang",KALIMANTAN TIMUR,75325.0,Indonesia,5485102198.0,,,0.1406034,117.4624008,https://maps.google.com/?cid=0x0:0xa8b8d943d6a0ee6c,
mall,Pusat Perbelanjaan,RAMAYANA Bontang,"Jl. MH. Thamrin, Bontang Baru, Kec. Bontang Utara, Kota Bontang, Kalimantan Timur 75325","Bontang Baru, Kec. Bontang Utara, Kota Bontang",KALIMANTAN TIMUR,75325.0,Indonesia,8118332180.0,,,0.1364468,117.4887367,https://maps.google.com/?cid=0x0:0xeb7f34515ee30b00,
mall,Pusat Perbelanjaan,Mira mart,"4FPJ+799, Jl. MT. Haryono, Api-Api, Kec. Bontang Utara, Kota Bontang, Kalimantan Timur 75325","Jl. MT. Haryono, Api-Api, Kec. Bontang Utara, Kota Bontang",KALIMANTAN TIMUR,75325.0,Indonesia,,,,0.1356517,117.4809811,https://maps.google.com/?cid=0x0:0xaf3c2c6d961f6a01,
mall,Pusat Perbelanjaan,CC,"Api-Api, Kec. Bontang Utara, Kota Bontang, Kalimantan Timur 75313","Kec. Bontang Utara, Kota Bontang",KALIMANTAN TIMUR,75313.0,Indonesia,85349287123.0,,,0.1332669,117.4949944,https://maps.google.com/?cid=0x0:0xdba1c27b0eba15b7,
mall,Toko,Jejak Langit Outdoor Bontang,"Jl. Bhayangkara No.28, Gn. Elai, Kec. Bontang Utara, Kota Bontang, Kalimantan Timur 75325","Gn. Elai, Kec. Bontang Utara, Kota Bontang",KALIMANTAN TIMUR,75325.0,Indonesia,,,,0.1332663,117.476992,https://maps.google.com/?cid=0x0:0x78018d28230d55dd,
mall,Toko Aksesori Ponsel,GG CASE BONTANG 2,"4FMR+HJ6, Jl. Jend. Achmad Yani, Bontang Baru, Kec. Bontang Utara, Kota Bontang, Kalimantan Timur","Kota Bontang, Kalimantan Timur",KALIMANTAN TIMUR,,Indonesia,82255005320.0,,,0.1339232,117.4915279,https://maps.google.com/?cid=0x0:0xdb85c8423df617aa,
mall,Pasar bahan bangunan,Toko Berkat Raya Baru,"4FMR+MRX, Bontang Baru, Kec. Bontang Utara, Kota Bontang, Kalimantan Timur 75313","Bontang Baru, Kec. Bontang Utara, Kota Bontang",KALIMANTAN TIMUR,75313.0,Indonesia,82159682985.0,,,0.1342451,117.492119,https://maps.google.com/?cid=0x0:0xc77f7e005f165c17,
mall,Toko Suku Cadang Mobil,Bursa Barang Bontang,"Jl. Lombok No.01, Api-Api, Kec. Bontang Utara, Kota Bontang, Kalimantan Timur 75325","Api-Api, Kec. Bontang Utara, Kota Bontang",KALIMANTAN TIMUR,75325.0,Indonesia,,,,0.1283785,117.4885547,https://maps.google.com/?cid=0x0:0x7fabd49dfbd19ac,
mall,Pusat Perbelanjaan,KL Cosmetics,"Jl. Kelinci JJ.1 RT. 18 BTN PKT, Belimbing, Kec. Bontang Bar., Kota Bontang, Kalimantan Timur 75313","Belimbing, Kec. Bontang Bar., Kota Bontang",KALIMANTAN TIMUR,75313.0,Indonesia,85787512619.0,,,0.145562,117.467987,https://maps.google.com/?cid=0x0:0xe7eb3ec4b12b6bdc,
mall,Pusat Perbelanjaan,Rbistore,"Rt.01, Jl. MH. Thamrin No.18, Gn. Elai, Kec. Bontang Utara, Kota Bontang, Kalimantan Timur 75311","Jl. MH. Thamrin No.18, Gn. Elai, Kec. Bontang Utara, Kota Bontang",KALIMANTAN TIMUR,75311.0,Indonesia,,,,0.1490121,117.4894663,https://maps.google.com/?cid=0x0:0xf5cd8fcf18db54c9,
mall,Pusat Perbelanjaan,NDfashion,"4FMV+H64, Jl. Mayor Jenderal DI Panjaitan, Api-Api, Kec. Bontang Utara, Kota Bontang, Kalimantan Timur 75325","Jl. Mayor Jenderal DI Panjaitan, Api-Api, Kec. Bontang Utara, Kota Bontang",KALIMANTAN TIMUR,75325.0,Indonesia,89630557338.0,,,0.1338929,117.4930696,https://maps.google.com/?cid=0x0:0xfd5bf4ae74f16076,
mall,Asosiasi/organisasi,Binaan Pupuk Kaltim - Toga Mak Rifah,"Jl. Tari Jepen No.1, Guntung, Kec. Bontang Utara, Kota Bontang, Kalimantan Timur 75321","Guntung, Kec. Bontang Utara, Kota Bontang",KALIMANTAN TIMUR,75321.0,Indonesia,,,,0.1920658,117.4773992,https://maps.google.com/?cid=0x0:0x5ae878269045b0ac,
mall,Minimarket,Pamandiri Mart,"4FHJ+HP9, Tj. Laut, Kec. Bontang Sel., Kota Bontang, Kalimantan Timur 75325","Tj. Laut, Kec. Bontang Sel., Kota Bontang",KALIMANTAN TIMUR,75325.0,Indonesia,81350847420.0,,,0.1289102,117.4818574,https://maps.google.com/?cid=0x0:0x73cd3b9d5c1c1468,
mall,Toko Swalayan,Toko Samaria,"Jl. MH. Thamrin, Bontang Baru, Kec. Bontang Utara, Kota Bontang, Kalimantan Timur 75325","Bontang Baru, Kec. Bontang Utara, Kota Bontang",KALIMANTAN TIMUR,75325.0,Indonesia,8115599456.0,,,0.1416473,117.4894244,https://maps.google.com/?cid=0x0:0xeca7ddbf44359293,
mall,Toko,BonTieShop (BTS),"Gang Jati 7 No. 05 RT. 21, Satimpo, Kec. Bontang Sel., Kota Bontang, Kalimantan Timur 75325","Satimpo, Kec. Bontang Sel., Kota Bontang",KALIMANTAN TIMUR,75325.0,Indonesia,,,,0.1280705,117.4646855,https://maps.google.com/?cid=0x0:0xf6fc84ff56dde775,
mall,Toko Kosmetik,Cosmetics Room Id,"Jl. Gn. Ciremai No.7, Gn. Elai, Kec. Bontang Utara, Kota Bontang, Kalimantan Timur 75325","Gn. Elai, Kec. Bontang Utara, Kota Bontang",KALIMANTAN TIMUR,75325.0,Indonesia,,,,0.1507639,117.477511,https://maps.google.com/?cid=0x0:0x7172895b3ca87e03,
mall,Toko Buah dan Sayuran,Watermelon Bontang,"4FWF+HG8, Jl. Cipto Mangunkusumo, Gn. Elai, Kec. Bontang Utara, Kota Bontang, Kalimantan Timur 75313","Jl. Cipto Mangunkusumo, Gn. Elai, Kec. Bontang Utara, Kota Bontang",KALIMANTAN TIMUR,75313.0,Indonesia,,,,0.1464226,117.4738126,https://maps.google.com/?cid=0x0:0x5a83f0e1f32f62f3,
mall,Toko Pakaian,"IVONE Grosir Gamis, BTN KCY","4FJR+5GQ, BTN KCY, Api-Api, Bontang Utara, Bontang City, East Kalimantan 75313","BTN KCY, Api-Api, Bontang Utara, Bontang City",KALIMANTAN TIMUR,75313.0,Indonesia,,,,0.1304509,117.4913691,https://maps.google.com/?cid=0x0:0x48f39faa4cb27688,
mall,mall,TOKO KELUARGA RACHMAT,"Jl. Jend. Achmad Yani, Api-Api, Kec. Bontang Utara, Kota Bontang, Kalimantan Timur 75325","Api-Api, Kec. Bontang Utara, Kota Bontang",KALIMANTAN TIMUR,75325.0,Indonesia,81257723939.0,,,0.1324185,117.4878634,https://maps.google.com/?cid=0x0:0xbfe87293d2f46c59,
mall,Toko Seafood,LELEK CUPANG,"5FC9+QJ6, Jl. Kapal Pesiar sebrang smp 5, RT.51/RW.NO 17, Lok Tuan, Kec. Bontang Utara, Kota Bontang, Kalimantan Timur 75321","Jl. Kapal Pesiar sebrang smp 5, RT.51/RW.NO 17, Lok Tuan, Kec. Bontang Utara, Kota Bontang",KALIMANTAN TIMUR,75321.0,Indonesia,81213052852.0,,,0.1719124,117.4690286,https://maps.google.com/?cid=0x0:0x2c7753060da269fc,
mall,Toko,Toko Rahmah,"5FRG+4C5, Guntung, Kec. Bontang Utara, Kota Bontang, Kalimantan Timur 75321","Guntung, Kec. Bontang Utara, Kota Bontang",KALIMANTAN TIMUR,75321.0,Indonesia,,,,0.1902544,117.4761166,https://maps.google.com/?cid=0x0:0xa77b33ace7641b49,
mall,Toko Kaos,3SECOND FAMILY STORE FASHION BONTANG,"4FJP+GJC, Jl. Jend. Achmad Yani, Gunung Sari, Kec. Bontang Utara, Kota Bontang, Kalimantan Timur 75313","Jl. Jend. Achmad Yani, Gunung Sari, Kec. Bontang Utara, Kota Bontang",KALIMANTAN TIMUR,75313.0,Indonesia,83844464324.0,,,0.1313554,117.4865312,https://maps.google.com/?cid=0x0:0x80cae52184b154e7,
mall,Toko,Toko Andi Alya jaya,"jl. Kapt piare tandean No.Rt. 19, Kec. Bontang Utara, Kota Bontang, Kalimantan Timur 75313","Kec. Bontang Utara, Kota Bontang",KALIMANTAN TIMUR,75313.0,Indonesia,,,,0.1335022,117.5059329,https://maps.google.com/?cid=0x0:0x57bbfbbb02934c03,
supermarket,supermarket,Kalimantan Timur 75313,"Kota Bontang, Kalimantan Timur","Kota Bontang, Kalimantan Timur",KALIMANTAN TIMUR,,Indonesia,,,,0.1379123,117.493321,https://maps.google.com/?cid=0x0:0xc31ada602112700b,
supermarket,Toko Swalayan,Menjangan Mart,"Belimbing, Kec. Bontang Bar., Kota Bontang, Kalimantan Timur 75325","Kec. Bontang Bar., Kota Bontang",KALIMANTAN TIMUR,75325.0,Indonesia,,,,0.1469335,117.4711581,https://maps.google.com/?cid=0x0:0xfd0a55ba44938779,
supermarket,Minimarket,Eramart Swalayan Bontang 1,"Jl. Mayor Jenderal DI Panjaitan, Api-Api, Kec. Bontang Utara, Kota Bontang, Kalimantan Timur 75313","Api-Api, Kec. Bontang Utara, Kota Bontang",KALIMANTAN TIMUR,75313.0,Indonesia,82110115000.0,,,0.1333728,117.4948756,https://maps.google.com/?cid=0x0:0xf31879ddd78ff72b,
supermarket,Minimarket,Eramart Swalayan Bontang 2,"Jl. Brigjen Katamso No.15, Belimbing, Kec. Bontang Bar., Kota Bontang, Kalimantan Timur 75325","Belimbing, Kec. Bontang Bar., Kota Bontang",KALIMANTAN TIMUR,75325.0,Indonesia,82110115000.0,,,0.1358348,117.4685972,https://maps.google.com/?cid=0x0:0xd603c4dd89fb9605,
supermarket,Minimarket,Gunung Emas Swalayan,"Jl. R. Suprapto No.10 kel, Bontang Baru, Kec. Bontang Utara, Kota Bontang, Kalimantan Timur 75311","Bontang Baru, Kec. Bontang Utara, Kota Bontang",KALIMANTAN TIMUR,75311.0,Indonesia,81217705076.0,,,0.1353079,117.488886,https://maps.google.com/?cid=0x0:0x201b8939d6a6987e,
supermarket,Pusat Perbelanjaan,BC Mart,"4FWF+GHG, Jl. Cipto Mangunkusumo, Belimbing, Kec. Bontang Bar., Kota Bontang, Kalimantan Timur 75325","Jl. Cipto Mangunkusumo, Belimbing, Kec. Bontang Bar., Kota Bontang",KALIMANTAN TIMUR,75325.0,Indonesia,,,,0.1463096,117.473956,https://maps.google.com/?cid=0x0:0x5723767cfe44930d,
supermarket,Supermarket Diskon,Hendra Mart (Imam Bonjol),"Jl. Imam Bonjol No.4, RT.004, Api-Api, Kec. Bontang Utara, Kota Bontang, Kalimantan Timur 75325","RT.004, Api-Api, Kec. Bontang Utara, Kota Bontang",KALIMANTAN TIMUR,75325.0,Indonesia,81347294046.0,,,0.128879,117.481754,https://maps.google.com/?cid=0x0:0x187ed6367db5691c,
supermarket,Toko Swalayan,Onedos Mart,"Blok SS, Jl. Gajah No.09 BTN, Belimbing, Kec. Bontang Bar., Kota Bontang, Kalimantan Timur 75313","Jl. Gajah No.09 BTN, Belimbing, Kec. Bontang Bar., Kota Bontang",KALIMANTAN TIMUR,75313.0,Indonesia,81257213774.0,,,0.1449853,117.4704656,https://maps.google.com/?cid=0x0:0x2a79851102a89c4,
supermarket,Minimarket,Tanjung Laut Mart Swalayan,"Tj. Laut Indah, Kec. Bontang Sel., Kota Bontang, Kalimantan Timur 75325","Kec. Bontang Sel., Kota Bontang",KALIMANTAN TIMUR,75325.0,Indonesia,82110115000.0,,,0.118343,117.4885993,https://maps.google.com/?cid=0x0:0x862587d60f011aee,
supermarket,Minimarket,Ta-Nia MART,"Jl. Manggis No.12 Blok H4, Belimbing, Kec. Bontang Bar., Kota Bontang, Kalimantan Timur 75325","Belimbing, Kec. Bontang Bar., Kota Bontang",KALIMANTAN TIMUR,75325.0,Indonesia,81350503888.0,,,0.1484974,117.4698561,https://maps.google.com/?cid=0x0:0xf684b41be76b7dda,
supermarket,Supermarket Diskon,HENDRA MART,"Jl. S. Parman No.KM 06 No.09, Kanaan, Kec. Bontang Bar., Kota Bontang, Kalimantan Timur 75383","Kanaan, Kec. Bontang Bar., Kota Bontang",KALIMANTAN TIMUR,75383.0,Indonesia,81347294046.0,,,0.1404075,117.4604358,https://maps.google.com/?cid=0x0:0x547f145c5b3bf3c4,
supermarket,Toko bahan makanan,Harvest Fresh Mart,"4FQ7+V3M, Kanaan, Kec. Bontang Bar., Kota Bontang, Kalimantan Timur 75321","Kanaan, Kec. Bontang Bar., Kota Bontang",KALIMANTAN TIMUR,75321.0,Indonesia,8115422114.0,,,0.1397006,117.4626609,https://maps.google.com/?cid=0x0:0x8cdd6d69c0d8275f,
supermarket,Toko bahan makanan,Toko Karya Sakti 2,"4FJP+VV6, Jl. Jend. Achmad Yani, Api-Api, Kec. Bontang Utara, Kota Bontang, Kalimantan Timur 75325","Jl. Jend. Achmad Yani, Api-Api, Kec. Bontang Utara, Kota Bontang",KALIMANTAN TIMUR,75325.0,Indonesia,82357673974.0,,,0.1321709,117.4871447,https://maps.google.com/?cid=0x0:0xbce192e905bbf7fa,
supermarket,Toko Bahan Bangunan,Berlian Jaya Mart,"Jl. HM Ardans, Satimpo, Kec. Bontang Sel., Kota Bontang, Kalimantan Timur 75324","Satimpo, Kec. Bontang Sel., Kota Bontang",KALIMANTAN TIMUR,75324.0,Indonesia,82231415912.0,,,0.1270169,117.4725801,https://maps.google.com/?cid=0x0:0x1fb01a3ca1802592,
supermarket,Pusat Perbelanjaan,Alva Jaya,"Jl. AIP 2 KS Tubun, Gang Bersama 2 No. 12, RT 32, Api-Api, Bontang Utara, Api-Api, Kec. Bontang Utara, Kota Bontang, Kalimantan Timur 75313","Gang Bersama 2 No. 12, RT 32, Api-Api, Bontang Utara, Api-Api, Kec. Bontang Utara, Kota Bontang",KALIMANTAN TIMUR,75313.0,Indonesia,5485116889.0,,,0.1315596,117.4993187,https://maps.google.com/?cid=0x0:0xf709555ac923d431,
supermarket,Toko bahan makanan,Koka Mart,"4FV7+74W, Belimbing, Kec. Bontang Bar., Kota Bontang, Kalimantan Timur 75321","Belimbing, Kec. Bontang Bar., Kota Bontang",KALIMANTAN TIMUR,75321.0,Indonesia,82256699090.0,,,0.1432334,117.4628149,https://maps.google.com/?cid=0x0:0x46e69f9f49038628,
supermarket,Toko,Toko YUKY's,"Jl. Ahmad Yani No.009, Tanjung Laut, Bontang Selatan, Tj. Laut, Kec. Bontang Sel., Kota Bontang, Kalimantan Timur 75325","Tanjung Laut, Bontang Selatan, Tj. Laut, Kec. Bontang Sel., Kota Bontang",KALIMANTAN TIMUR,75325.0,Indonesia,81257200069.0,,,0.1288815,117.4845202,https://maps.google.com/?cid=0x0:0xbc6394297b0b9d23,
supermarket,Minimarket,212 Mart Bontang,"4FHJ+GJM, Jl. Imam Bonjol, Api-Api, Kec. Bontang Utara, Kota Bontang, Kalimantan Timur 75325","Jl. Imam Bonjol, Api-Api, Kec. Bontang Utara, Kota Bontang",KALIMANTAN TIMUR,75325.0,Indonesia,,,,0.1288409,117.4815532,https://maps.google.com/?cid=0x0:0x312a754c338d66e,
supermarket,Toko Swalayan,Toko Neni,"4FWQ+9M6, Gn. Elai, Kec. Bontang Utara, Kota Bontang, Kalimantan Timur 75313","Gn. Elai, Kec. Bontang Utara, Kota Bontang",KALIMANTAN TIMUR,75313.0,Indonesia,,,,0.1459177,117.4891455,https://maps.google.com/?cid=0x0:0xd9973b99c395a71c,
supermarket,Toko Swalayan,TOKO SUNGKONO,"4FCV+2P4, Tj. Laut Indah, Kec. Bontang Sel., Kota Bontang, Kalimantan Timur 75325","Tj. Laut Indah, Kec. Bontang Sel., Kota Bontang",KALIMANTAN TIMUR,75325.0,Indonesia,,,,0.1200157,117.494328,https://maps.google.com/?cid=0x0:0x862cc95ea9f6b492,
supermarket,Toko Swalayan,Toko Zhafira,"4GM2+4HP, Bontang Kuala, Kec. Bontang Utara, Kota Bontang, Kalimantan Timur 75313","Bontang Kuala, Kec. Bontang Utara, Kota Bontang",KALIMANTAN TIMUR,75313.0,Indonesia,,,,0.132837,117.5014461,https://maps.google.com/?cid=0x0:0xa829a60e10c96fae,
supermarket,Toko Swalayan,Toko Agung,"4FMV+J56, Bontang Baru, Kec. Bontang Utara, Kota Bontang, Kalimantan Timur 75313","Bontang Baru, Kec. Bontang Utara, Kota Bontang",KALIMANTAN TIMUR,75313.0,Indonesia,,,,0.1340445,117.492906,https://maps.google.com/?cid=0x0:0x2c7a3b89ef9ca547,
supermarket,Toko Swalayan,TOKO BERKAH,"Jl. Simon Tampubolon HOP 4, Kanaan, Kec. Bontang Bar., Kota Bontang, Kalimantan Timur 75325","Kanaan, Kec. Bontang Bar., Kota Bontang",KALIMANTAN TIMUR,75325.0,Indonesia,,,,0.1323399,117.4628546,https://maps.google.com/?cid=0x0:0x2d12baf7883bbd78,
supermarket,supermarket,Kec. Bontang Bar.,"Kota Bontang, Kalimantan Timur","Kota Bontang, Kalimantan Timur",KALIMANTAN TIMUR,,Indonesia,,,,0.1372358,117.4548496,https://maps.google.com/?cid=0x0:0xdc6d300939175081,
supermarket,Toko Swalayan,Menjangan Mart,"Belimbing, Kec. Bontang Bar., Kota Bontang, Kalimantan Timur 75325","Kec. Bontang Bar., Kota Bontang",KALIMANTAN TIMUR,75325.0,Indonesia,,,,0.1469335,117.4711581,https://maps.google.com/?cid=0x0:0xfd0a55ba44938779,
supermarket,Supermarket Diskon,HENDRA MART,"Jl. S. Parman No.KM 06 No.09, Kanaan, Kec. Bontang Bar., Kota Bontang, Kalimantan Timur 75383","Kanaan, Kec. Bontang Bar., Kota Bontang",KALIMANTAN TIMUR,75383.0,Indonesia,81347294046.0,,,0.1404075,117.4604358,https://maps.google.com/?cid=0x0:0x547f145c5b3bf3c4,
supermarket,Toko Swalayan,Bonar Mart,"Jl. Pontianak No.98, RT.24, Gn. Telihan, Kec. Bontang Bar., Kota Bontang, Kalimantan Timur 75321","RT.24, Gn. Telihan, Kec. Bontang Bar., Kota Bontang",KALIMANTAN TIMUR,75321.0,Indonesia,,,,0.1361471,117.4538874,https://maps.google.com/?cid=0x0:0xde16943b72b405a5,
supermarket,Toko Swalayan,TOKO BERKAH,"Jl. Simon Tampubolon HOP 4, Kanaan, Kec. Bontang Bar., Kota Bontang, Kalimantan Timur 75325","Kanaan, Kec. Bontang Bar., Kota Bontang",KALIMANTAN TIMUR,75325.0,Indonesia,,,,0.1323399,117.4628546,https://maps.google.com/?cid=0x0:0x2d12baf7883bbd78,
supermarket,Toko umum,El Mart,"4FP3+6WG, Jl. Asmawarman, Gn. Telihan, Kec. Bontang Bar., Kota Bontang, Kalimantan Timur 75321","Jl. Asmawarman, Gn. Telihan, Kec. Bontang Bar., Kota Bontang",KALIMANTAN TIMUR,75321.0,Indonesia,,,,0.1355741,117.4548303,https://maps.google.com/?cid=0x0:0x5435bed72142bfc,
supermarket,Toko,Toko TIGA PUTRA SEJAHTERA,"Jl. Simon Tampubolon No.kel, Gn. Elai, Kec. Bontang Utara, Kota Bontang, Kalimantan Timur 75311","Gn. Elai, Kec. Bontang Utara, Kota Bontang",KALIMANTAN TIMUR,75311.0,Indonesia,,,,0.135078,117.4623009,https://maps.google.com/?cid=0x0:0xb6b91f8832bd2592,
supermarket,Toko bahan makanan,Harvest Fresh Mart,"4FQ7+V3M, Kanaan, Kec. Bontang Bar., Kota Bontang, Kalimantan Timur 75321","Kanaan, Kec. Bontang Bar., Kota Bontang",KALIMANTAN TIMUR,75321.0,Indonesia,8115422114.0,,,0.1397006,117.4626609,https://maps.google.com/?cid=0x0:0x8cdd6d69c0d8275f,
supermarket,Otoritas Perumahan,Pesona Mart,"Perumahan Pesona Bukit Sintuk, Belimbing, Bontang Barat, Bontang City, East Kalimantan 75321","Belimbing, Bontang Barat, Bontang City",KALIMANTAN TIMUR,75321.0,Indonesia,82254002726.0,,,0.1650336,117.4661561,https://maps.google.com/?cid=0x0:0x51d4ebd307c0e410,
supermarket,Toko Suvenir,Oleh Oleh Kota Bontang GUS FAQIH,"4FR6+3VV, Jl. S. Parman, Kanaan, Kec. Bontang Bar., Kota Bontang, Kalimantan Timur 75321","Jl. S. Parman, Kanaan, Kec. Bontang Bar., Kota Bontang",KALIMANTAN TIMUR,75321.0,Indonesia,82251121197.0,,,0.1402282,117.4621581,https://maps.google.com/?cid=0x0:0xb081bccc0a6ec966,
supermarket,Pusat Perbelanjaan,BC Mart,"4FWF+GHG, Jl. Cipto Mangunkusumo, Belimbing, Kec. Bontang Bar., Kota Bontang, Kalimantan Timur 75325","Jl. Cipto Mangunkusumo, Belimbing, Kec. Bontang Bar., Kota Bontang",KALIMANTAN TIMUR,75325.0,Indonesia,,,,0.1463096,117.473956,https://maps.google.com/?cid=0x0:0x5723767cfe44930d,
supermarket,Minimarket,Ta-Nia MART,"Jl. Manggis No.12 Blok H4, Belimbing, Kec. Bontang Bar., Kota Bontang, Kalimantan Timur 75325","Belimbing, Kec. Bontang Bar., Kota Bontang",KALIMANTAN TIMUR,75325.0,Indonesia,81350503888.0,,,0.1484974,117.4698561,https://maps.google.com/?cid=0x0:0xf684b41be76b7dda,
supermarket,Supermarket Diskon,Mekar Mart,"Jalan Pupuk Raya, Kavling 3, RT 50, Lok Tuan, Kec. Bontang Utara, Kota Bontang, Kalimantan Timur 75314","Kavling 3, RT 50, Lok Tuan, Kec. Bontang Utara, Kota Bontang",KALIMANTAN TIMUR,75314.0,Indonesia,85345738822.0,,,0.1705447,117.4677246,https://maps.google.com/?cid=0x0:0x98cc971d87835bbe,
supermarket,Toko bahan makanan,Agen Galon Le Mineral Toko Juna Alya Mart,"HOP, Jl. Simon Tampubolon No.22, RT.22/RW.4, Gunung Elai, Bontang Utara, Bontang City, East Kalimantan 75324","Jl. Simon Tampubolon No.22, RT.22/RW.4, Gunung Elai, Bontang Utara, Bontang City",KALIMANTAN TIMUR,75324.0,Indonesia,81347813939.0,,,0.1324859,117.4628816,https://maps.google.com/?cid=0x0:0x24c27f5b6b6212f6,
supermarket,Toko bahan makanan,Toko Gelora,"Jl. Tarakan No.26 RT 22, Kanaan, Kec. Bontang Bar., Kota Bontang, Kalimantan Timur 75321","Kanaan, Kec. Bontang Bar., Kota Bontang",KALIMANTAN TIMUR,75321.0,Indonesia,81350332772.0,,,0.1352946,117.4555891,https://maps.google.com/?cid=0x0:0x28427dddfadc2272,
supermarket,Toko bahan makanan,Koka Mart,"4FV7+74W, Belimbing, Kec. Bontang Bar., Kota Bontang, Kalimantan Timur 75321","Belimbing, Kec. Bontang Bar., Kota Bontang",KALIMANTAN TIMUR,75321.0,Indonesia,82256699090.0,,,0.1432334,117.4628149,https://maps.google.com/?cid=0x0:0x46e69f9f49038628,
supermarket,Toko Bahan Bangunan,Berlian Jaya Mart,"Jl. HM Ardans, Satimpo, Kec. Bontang Sel., Kota Bontang, Kalimantan Timur 75324","Satimpo, Kec. Bontang Sel., Kota Bontang",KALIMANTAN TIMUR,75324.0,Indonesia,82231415912.0,,,0.1270169,117.4725801,https://maps.google.com/?cid=0x0:0x1fb01a3ca1802592,
supermarket,Minimarket,Eramart Swalayan Bontang 1,"Jl. Mayor Jenderal DI Panjaitan, Api-Api, Kec. Bontang Utara, Kota Bontang, Kalimantan Timur 75313","Api-Api, Kec. Bontang Utara, Kota Bontang",KALIMANTAN TIMUR,75313.0,Indonesia,82110115000.0,,,0.1333728,117.4948756,https://maps.google.com/?cid=0x0:0xf31879ddd78ff72b,
supermarket,Toko bahan makanan,Agave Mart,"4CJX+G23, Jl. Soekarno Hatta, Kanaan, Kec. Bontang Bar., Kota Bontang, Kalimantan Timur 75321","Jl. Soekarno Hatta, Kanaan, Kec. Bontang Bar., Kota Bontang",KALIMANTAN TIMUR,75321.0,Indonesia,,,,0.1312618,117.4475598,https://maps.google.com/?cid=0x0:0xb77ea6a08904e223,
supermarket,Toko bahan makanan,Toko Nur Fitriani,"Jl. Brigjen Katamso No.19 Rt.45, Belimbing, Kec. Bontang Bar., Kota Bontang, Kalimantan Timur 75325","Belimbing, Kec. Bontang Bar., Kota Bontang",KALIMANTAN TIMUR,75325.0,Indonesia,,,,0.1378084,117.4652476,https://maps.google.com/?cid=0x0:0x82a13003c1369940,
supermarket,Supermarket Diskon,Hendra Mart (Imam Bonjol),"Jl. Imam Bonjol No.4, RT.004, Api-Api, Kec. Bontang Utara, Kota Bontang, Kalimantan Timur 75325","RT.004, Api-Api, Kec. Bontang Utara, Kota Bontang",KALIMANTAN TIMUR,75325.0,Indonesia,81347294046.0,,,0.128879,117.481754,https://maps.google.com/?cid=0x0:0x187ed6367db5691c,
supermarket,Toko Swalayan,Onedos Mart,"Blok SS, Jl. Gajah No.09 BTN, Belimbing, Kec. Bontang Bar., Kota Bontang, Kalimantan Timur 75313","Jl. Gajah No.09 BTN, Belimbing, Kec. Bontang Bar., Kota Bontang",KALIMANTAN TIMUR,75313.0,Indonesia,81257213774.0,,,0.1449853,117.4704656,https://maps.google.com/?cid=0x0:0x2a79851102a89c4,
supermarket,Toko Swalayan,Anugrah Karya Mandiri,"JL. Pupuk Raya, No. 20 Rt. 50, Pesona Bukit Sintuk Blok G-6, Belimbing, Kec. Bontang Bar., Kota Bontang, Kalimantan Timur 75321","No. 20 Rt. 50, Pesona Bukit Sintuk Blok G-6, Belimbing, Kec. Bontang Bar., Kota Bontang",KALIMANTAN TIMUR,75321.0,Indonesia,5483042032.0,,,0.174699,117.4680345,https://maps.google.com/?cid=0x0:0x1b9abd6dd7c6a1d4,
supermarket,Toko Kue,Rumah Produksi ASCAKE,"Jl. Manggis No.20, Belimbing, Kec. Bontang Bar., Kota Bontang, Kalimantan Timur 75325","Belimbing, Kec. Bontang Bar., Kota Bontang",KALIMANTAN TIMUR,75325.0,Indonesia,82254443444.0,,,0.1487451,117.4705923,https://maps.google.com/?cid=0x0:0xd3a974430f614c65,
supermarket,supermarket,DP Minimart  Shop,"4CHW+FPX, Jl. Soekarno Hatta, RT.01/RW.00, Gn. Telihan, Kec. Bontang Bar., Kota Bontang, Kalimantan Timur 75383","Jl. Soekarno Hatta, RT.01/RW.00, Gn. Telihan, Kec. Bontang Bar., Kota Bontang",KALIMANTAN TIMUR,75383.0,Indonesia,,,,0.1287499,117.4468592,https://maps.google.com/?cid=0x0:0x25410d9f185f3ae1,
supermarket,supermarket,Kalimantan Timur 75321,"Kec. Tlk. Pandan, Kabupaten Kutai Timur, Kalimantan Timur","Kabupaten Kutai Timur, Kalimantan Timur",KALIMANTAN TIMUR,,Indonesia,,,,0.1825802,117.4321452,https://maps.google.com/?cid=0x0:0x70eac15f80c6d3d5,
supermarket,Minimarket,Eramart Swalayan Bontang 1,"Jl. Mayor Jenderal DI Panjaitan, Api-Api, Kec. Bontang Utara, Kota Bontang, Kalimantan Timur 75313","Api-Api, Kec. Bontang Utara, Kota Bontang",KALIMANTAN TIMUR,75313.0,Indonesia,82110115000.0,,,0.1333728,117.4948756,https://maps.google.com/?cid=0x0:0xf31879ddd78ff72b,
supermarket,Minimarket,Tanjung Laut Mart Swalayan,"Tj. Laut Indah, Kec. Bontang Sel., Kota Bontang, Kalimantan Timur 75325","Kec. Bontang Sel., Kota Bontang",KALIMANTAN TIMUR,75325.0,Indonesia,82110115000.0,,,0.118343,117.4885993,https://maps.google.com/?cid=0x0:0x862587d60f011aee,
supermarket,Toko bahan makanan,Harvest Fresh Mart,"4FQ7+V3M, Kanaan, Kec. Bontang Bar., Kota Bontang, Kalimantan Timur 75321","Kanaan, Kec. Bontang Bar., Kota Bontang",KALIMANTAN TIMUR,75321.0,Indonesia,8115422114.0,,,0.1397006,117.4626609,https://maps.google.com/?cid=0x0:0x8cdd6d69c0d8275f,
supermarket,Otoritas Perumahan,Pesona Mart,"Perumahan Pesona Bukit Sintuk, Belimbing, Bontang Barat, Bontang City, East Kalimantan 75321","Belimbing, Bontang Barat, Bontang City",KALIMANTAN TIMUR,75321.0,Indonesia,82254002726.0,,,0.1650336,117.4661561,https://maps.google.com/?cid=0x0:0x51d4ebd307c0e410,
supermarket,Minimarket,Suryah Mart Swalayan,"Jl. Jend. Achmad Yani No.66, Api-Api, Kec. Bontang Utara, Kota Bontang, Kalimantan Timur 75313","Api-Api, Kec. Bontang Utara, Kota Bontang",KALIMANTAN TIMUR,75313.0,Indonesia,82110115000.0,,,0.1322711,117.490663,https://maps.google.com/?cid=0x0:0xb9e4094c71d5eb07,
supermarket,Minimarket,Eramart Swalayan Bontang 2,"Jl. Brigjen Katamso No.15, Belimbing, Kec. Bontang Bar., Kota Bontang, Kalimantan Timur 75325","Belimbing, Kec. Bontang Bar., Kota Bontang",KALIMANTAN TIMUR,75325.0,Indonesia,82110115000.0,,,0.1358348,117.4685972,https://maps.google.com/?cid=0x0:0xd603c4dd89fb9605,
supermarket,Toko Swalayan,Bonar Mart,"Jl. Pontianak No.98, RT.24, Gn. Telihan, Kec. Bontang Bar., Kota Bontang, Kalimantan Timur 75321","RT.24, Gn. Telihan, Kec. Bontang Bar., Kota Bontang",KALIMANTAN TIMUR,75321.0,Indonesia,,,,0.1361471,117.4538874,https://maps.google.com/?cid=0x0:0xde16943b72b405a5,
supermarket,Pujasera,Tojasera PT Badak NGL,"4F87+F86, Satimpo, Kec. Bontang Sel., Kota Bontang, Kalimantan Timur 75325","Satimpo, Kec. Bontang Sel., Kota Bontang",KALIMANTAN TIMUR,75325.0,Indonesia,,,,0.1161516,117.4632662,https://maps.google.com/?cid=0x0:0xfeb07c55fc686bb,
supermarket,Toko,Toko TIGA PUTRA SEJAHTERA,"Jl. Simon Tampubolon No.kel, Gn. Elai, Kec. Bontang Utara, Kota Bontang, Kalimantan Timur 75311","Gn. Elai, Kec. Bontang Utara, Kota Bontang",KALIMANTAN TIMUR,75311.0,Indonesia,,,,0.135078,117.4623009,https://maps.google.com/?cid=0x0:0xb6b91f8832bd2592,
supermarket,Toko Bahan Bangunan,Berlian Jaya Mart,"Jl. HM Ardans, Satimpo, Kec. Bontang Sel., Kota Bontang, Kalimantan Timur 75324","Satimpo, Kec. Bontang Sel., Kota Bontang",KALIMANTAN TIMUR,75324.0,Indonesia,82231415912.0,,,0.1270169,117.4725801,https://maps.google.com/?cid=0x0:0x1fb01a3ca1802592,
supermarket,Minimarket,Gunung Emas Swalayan,"Jl. R. Suprapto No.10 kel, Bontang Baru, Kec. Bontang Utara, Kota Bontang, Kalimantan Timur 75311","Bontang Baru, Kec. Bontang Utara, Kota Bontang",KALIMANTAN TIMUR,75311.0,Indonesia,81217705076.0,,,0.1353079,117.488886,https://maps.google.com/?cid=0x0:0x201b8939d6a6987e,
supermarket,,Toko Surabaya Lok Tuan Bontang,"5F9J+RHW, Lok Tuan, Kec. Bontang Utara, Kota Bontang, Kalimantan Timur 75321","Lok Tuan, Kec. Bontang Utara, Kota Bontang",KALIMANTAN TIMUR,75321.0,Indonesia,,,,0.1696008,117.481442,https://maps.google.com/?cid=0x0:0x1515d0d8016efc97,
supermarket,Toko bahan makanan,E-warong Loktuan Sejahtera,"5FCJ+W4J, Lok Tuan, Kec. Bontang Utara, Kota Bontang, Kalimantan Timur 75321","Lok Tuan, Kec. Bontang Utara, Kota Bontang",KALIMANTAN TIMUR,75321.0,Indonesia,,,,0.1723302,117.4802739,https://maps.google.com/?cid=0x0:0xc2567cee4aa93dcd,
supermarket,Toko Buah dan Sayuran,Wfresh,"5F9H+Q4R, Lok Tuan, Kec. Bontang Utara, Kota Bontang, Kalimantan Timur 75321","Lok Tuan, Kec. Bontang Utara, Kota Bontang",KALIMANTAN TIMUR,75321.0,Indonesia,,,,0.1694871,117.4777718,https://maps.google.com/?cid=0x0:0x2a9363cdef211238,
supermarket,Toko bahan makanan,Agen Galon Le Mineral Toko Juna Alya Mart,"HOP, Jl. Simon Tampubolon No.22, RT.22/RW.4, Gunung Elai, Bontang Utara, Bontang City, East Kalimantan 75324","Jl. Simon Tampubolon No.22, RT.22/RW.4, Gunung Elai, Bontang Utara, Bontang City",KALIMANTAN TIMUR,75324.0,Indonesia,81347813939.0,,,0.1324859,117.4628816,https://maps.google.com/?cid=0x0:0x24c27f5b6b6212f6,
supermarket,Minimarket,Ta-Nia MART,"Jl. Manggis No.12 Blok H4, Belimbing, Kec. Bontang Bar., Kota Bontang, Kalimantan Timur 75325","Belimbing, Kec. Bontang Bar., Kota Bontang",KALIMANTAN TIMUR,75325.0,Indonesia,81350503888.0,,,0.1484974,117.4698561,https://maps.google.com/?cid=0x0:0xf684b41be76b7dda,
supermarket,Toko bahan makanan,Koka Mart,"4FV7+74W, Belimbing, Kec. Bontang Bar., Kota Bontang, Kalimantan Timur 75321","Belimbing, Kec. Bontang Bar., Kota Bontang",KALIMANTAN TIMUR,75321.0,Indonesia,82256699090.0,,,0.1432334,117.4628149,https://maps.google.com/?cid=0x0:0x46e69f9f49038628,
supermarket,Toko bahan makanan,Diana Mart,"Jl. Slamet Riyadi No.25, Lok Tuan, Kec. Bontang Utara, Kota Bontang, Kalimantan Timur 75321","Lok Tuan, Kec. Bontang Utara, Kota Bontang",KALIMANTAN TIMUR,75321.0,Indonesia,,,,0.1706867,117.476494,https://maps.google.com/?cid=0x0:0x18c4f7b860fa1138,
supermarket,Supermarket Diskon,Hendra Mart (Imam Bonjol),"Jl. Imam Bonjol No.4, RT.004, Api-Api, Kec. Bontang Utara, Kota Bontang, Kalimantan Timur 75325","RT.004, Api-Api, Kec. Bontang Utara, Kota Bontang",KALIMANTAN TIMUR,75325.0,Indonesia,81347294046.0,,,0.128879,117.481754,https://maps.google.com/?cid=0x0:0x187ed6367db5691c,
supermarket,Toko Swalayan,TOKO BERKAH,"Jl. Simon Tampubolon HOP 4, Kanaan, Kec. Bontang Bar., Kota Bontang, Kalimantan Timur 75325","Kanaan, Kec. Bontang Bar., Kota Bontang",KALIMANTAN TIMUR,75325.0,Indonesia,,,,0.1323399,117.4628546,https://maps.google.com/?cid=0x0:0x2d12baf7883bbd78,
supermarket,Toko,Toko YUKY's,"Jl. Ahmad Yani No.009, Tanjung Laut, Bontang Selatan, Tj. Laut, Kec. Bontang Sel., Kota Bontang, Kalimantan Timur 75325","Tanjung Laut, Bontang Selatan, Tj. Laut, Kec. Bontang Sel., Kota Bontang",KALIMANTAN TIMUR,75325.0,Indonesia,81257200069.0,,,0.1288815,117.4845202,https://maps.google.com/?cid=0x0:0xbc6394297b0b9d23,
supermarket,Minimarket,Tanjung Laut Mart Swalayan,"Tj. Laut Indah, Kec. Bontang Sel., Kota Bontang, Kalimantan Timur 75325","Kec. Bontang Sel., Kota Bontang",KALIMANTAN TIMUR,75325.0,Indonesia,82110115000.0,,,0.118343,117.4885993,https://maps.google.com/?cid=0x0:0x862587d60f011aee,
supermarket,supermarket,Kalimantan Timur 75324,"Kec. Bontang Sel., Kota Bontang, Kalimantan Timur","Kota Bontang, Kalimantan Timur",KALIMANTAN TIMUR,,Indonesia,,,,0.1495015,117.2911248,https://maps.google.com/?cid=0x0:0x38f97e9610099fa,
supermarket,Minimarket,Eramart Swalayan Bontang 1,"Jl. Mayor Jenderal DI Panjaitan, Api-Api, Kec. Bontang Utara, Kota Bontang, Kalimantan Timur 75313","Api-Api, Kec. Bontang Utara, Kota Bontang",KALIMANTAN TIMUR,75313.0,Indonesia,82110115000.0,,,0.1333728,117.4948756,https://maps.google.com/?cid=0x0:0xf31879ddd78ff72b,
supermarket,Toko Swalayan,Menjangan Mart,"Belimbing, Kec. Bontang Bar., Kota Bontang, Kalimantan Timur 75325","Kec. Bontang Bar., Kota Bontang",KALIMANTAN TIMUR,75325.0,Indonesia,,,,0.1469335,117.4711581,https://maps.google.com/?cid=0x0:0xfd0a55ba44938779,
supermarket,Toko Bahan Bangunan,Berlian Jaya Mart,"Jl. HM Ardans, Satimpo, Kec. Bontang Sel., Kota Bontang, Kalimantan Timur 75324","Satimpo, Kec. Bontang Sel., Kota Bontang",KALIMANTAN TIMUR,75324.0,Indonesia,82231415912.0,,,0.1270169,117.4725801,https://maps.google.com/?cid=0x0:0x1fb01a3ca1802592,
supermarket,Minimarket,Eramart Swalayan Bontang 2,"Jl. Brigjen Katamso No.15, Belimbing, Kec. Bontang Bar., Kota Bontang, Kalimantan Timur 75325","Belimbing, Kec. Bontang Bar., Kota Bontang",KALIMANTAN TIMUR,75325.0,Indonesia,82110115000.0,,,0.1358348,117.4685972,https://maps.google.com/?cid=0x0:0xd603c4dd89fb9605,
supermarket,Minimarket,Suryah Mart Swalayan,"Jl. Jend. Achmad Yani No.66, Api-Api, Kec. Bontang Utara, Kota Bontang, Kalimantan Timur 75313","Api-Api, Kec. Bontang Utara, Kota Bontang",KALIMANTAN TIMUR,75313.0,Indonesia,82110115000.0,,,0.1322711,117.490663,https://maps.google.com/?cid=0x0:0xb9e4094c71d5eb07,
supermarket,Toko,Toko TIGA PUTRA SEJAHTERA,"Jl. Simon Tampubolon No.kel, Gn. Elai, Kec. Bontang Utara, Kota Bontang, Kalimantan Timur 75311","Gn. Elai, Kec. Bontang Utara, Kota Bontang",KALIMANTAN TIMUR,75311.0,Indonesia,,,,0.135078,117.4623009,https://maps.google.com/?cid=0x0:0xb6b91f8832bd2592,
supermarket,Toko bahan makanan,Harvest Fresh Mart,"4FQ7+V3M, Kanaan, Kec. Bontang Bar., Kota Bontang, Kalimantan Timur 75321","Kanaan, Kec. Bontang Bar., Kota Bontang",KALIMANTAN TIMUR,75321.0,Indonesia,8115422114.0,,,0.1397006,117.4626609,https://maps.google.com/?cid=0x0:0x8cdd6d69c0d8275f,
supermarket,Toko Swalayan,Bonar Mart,"Jl. Pontianak No.98, RT.24, Gn. Telihan, Kec. Bontang Bar., Kota Bontang, Kalimantan Timur 75321","RT.24, Gn. Telihan, Kec. Bontang Bar., Kota Bontang",KALIMANTAN TIMUR,75321.0,Indonesia,,,,0.1361471,117.4538874,https://maps.google.com/?cid=0x0:0xde16943b72b405a5,
supermarket,Toko Swalayan,Tunas Abadi,"JL. Sutan Syahrir Gang Haji Sape, No. 24 RT. 06, Tj. Laut Indah, Kec. Bontang Sel., Kota Bontang, Kalimantan Timur 75325","No. 24 RT. 06, Tj. Laut Indah, Kec. Bontang Sel., Kota Bontang",KALIMANTAN TIMUR,75325.0,Indonesia,54821592.0,,,0.1184284,117.4892883,https://maps.google.com/?cid=0x0:0x775ada0a54d996a0,
supermarket,Toko Swalayan,TOKO BERKAH,"Jl. Simon Tampubolon HOP 4, Kanaan, Kec. Bontang Bar., Kota Bontang, Kalimantan Timur 75325","Kanaan, Kec. Bontang Bar., Kota Bontang",KALIMANTAN TIMUR,75325.0,Indonesia,,,,0.1323399,117.4628546,https://maps.google.com/?cid=0x0:0x2d12baf7883bbd78,
supermarket,Minimarket,Gunung Emas Swalayan,"Jl. R. Suprapto No.10 kel, Bontang Baru, Kec. Bontang Utara, Kota Bontang, Kalimantan Timur 75311","Bontang Baru, Kec. Bontang Utara, Kota Bontang",KALIMANTAN TIMUR,75311.0,Indonesia,81217705076.0,,,0.1353079,117.488886,https://maps.google.com/?cid=0x0:0x201b8939d6a6987e,
supermarket,Pujasera,Tojasera PT Badak NGL,"4F87+F86, Satimpo, Kec. Bontang Sel., Kota Bontang, Kalimantan Timur 75325","Satimpo, Kec. Bontang Sel., Kota Bontang",KALIMANTAN TIMUR,75325.0,Indonesia,,,,0.1161516,117.4632662,https://maps.google.com/?cid=0x0:0xfeb07c55fc686bb,
supermarket,Toko,Toko YUKY's,"Jl. Ahmad Yani No.009, Tanjung Laut, Bontang Selatan, Tj. Laut, Kec. Bontang Sel., Kota Bontang, Kalimantan Timur 75325","Tanjung Laut, Bontang Selatan, Tj. Laut, Kec. Bontang Sel., Kota Bontang",KALIMANTAN TIMUR,75325.0,Indonesia,81257200069.0,,,0.1288815,117.4845202,https://maps.google.com/?cid=0x0:0xbc6394297b0b9d23,
supermarket,Supermarket Diskon,Mekar Mart,"Jalan Pupuk Raya, Kavling 3, RT 50, Lok Tuan, Kec. Bontang Utara, Kota Bontang, Kalimantan Timur 75314","Kavling 3, RT 50, Lok Tuan, Kec. Bontang Utara, Kota Bontang",KALIMANTAN TIMUR,75314.0,Indonesia,85345738822.0,,,0.1705447,117.4677246,https://maps.google.com/?cid=0x0:0x98cc971d87835bbe,
supermarket,Supermarket Diskon,Hendra Mart (Imam Bonjol),"Jl. Imam Bonjol No.4, RT.004, Api-Api, Kec. Bontang Utara, Kota Bontang, Kalimantan Timur 75325","RT.004, Api-Api, Kec. Bontang Utara, Kota Bontang",KALIMANTAN TIMUR,75325.0,Indonesia,81347294046.0,,,0.128879,117.481754,https://maps.google.com/?cid=0x0:0x187ed6367db5691c,
supermarket,Otoritas Perumahan,Pesona Mart,"Perumahan Pesona Bukit Sintuk, Belimbing, Bontang Barat, Bontang City, East Kalimantan 75321","Belimbing, Bontang Barat, Bontang City",KALIMANTAN TIMUR,75321.0,Indonesia,82254002726.0,,,0.1650336,117.4661561,https://maps.google.com/?cid=0x0:0x51d4ebd307c0e410,
supermarket,Toko Swalayan,TOKO SUNGKONO,"4FCV+2P4, Tj. Laut Indah, Kec. Bontang Sel., Kota Bontang, Kalimantan Timur 75325","Tj. Laut Indah, Kec. Bontang Sel., Kota Bontang",KALIMANTAN TIMUR,75325.0,Indonesia,,,,0.1200157,117.494328,https://maps.google.com/?cid=0x0:0x862cc95ea9f6b492,
supermarket,Toko bahan makanan,Agen Galon Le Mineral Toko Pisang Mas,"4FHF+383, Satimpo, Kec. Bontang Sel., Kota Bontang, Kalimantan Timur 75325","Satimpo, Kec. Bontang Sel., Kota Bontang",KALIMANTAN TIMUR,75325.0,Indonesia,,,,0.1276312,117.4733006,https://maps.google.com/?cid=0x0:0xf924cac1693c13b8,
supermarket,Toko,Toko Lisa,"Jl. Sultan Hasanudin No.3, Berbas Pantai, Kec. Bontang Sel., Kota Bontang, Kalimantan Timur 75322","Berbas Pantai, Kec. Bontang Sel., Kota Bontang",KALIMANTAN TIMUR,75322.0,Indonesia,,,,0.113944,117.4813294,https://maps.google.com/?cid=0x0:0xeca3fef2df13674b,
supermarket,Supermarket Diskon,HENDRA MART,"Jl. S. Parman No.KM 06 No.09, Kanaan, Kec. Bontang Bar., Kota Bontang, Kalimantan Timur 75383","Kanaan, Kec. Bontang Bar., Kota Bontang",KALIMANTAN TIMUR,75383.0,Indonesia,81347294046.0,,,0.1404075,117.4604358,https://maps.google.com/?cid=0x0:0x547f145c5b3bf3c4,
supermarket,Minimarket,Tanjung Laut Mart Swalayan,"Tj. Laut Indah, Kec. Bontang Sel., Kota Bontang, Kalimantan Timur 75325","Kec. Bontang Sel., Kota Bontang",KALIMANTAN TIMUR,75325.0,Indonesia,82110115000.0,,,0.118343,117.4885993,https://maps.google.com/?cid=0x0:0x862587d60f011aee,
supermarket,supermarket,Kalimantan Timur 75325,Kalimantan Timur,Kalimantan Timur,KALIMANTAN TIMUR,,Indonesia,,,,0.0830107,117.2440957,https://maps.google.com/?cid=0x0:0x26084c6c6cec55ca,
supermarket,Toko Swalayan,Menjangan Mart,"Belimbing, Kec. Bontang Bar., Kota Bontang, Kalimantan Timur 75325","Kec. Bontang Bar., Kota Bontang",KALIMANTAN TIMUR,75325.0,Indonesia,,,,0.1469335,117.4711581,https://maps.google.com/?cid=0x0:0xfd0a55ba44938779,
supermarket,Minimarket,Eramart Swalayan Bontang 1,"Jl. Mayor Jenderal DI Panjaitan, Api-Api, Kec. Bontang Utara, Kota Bontang, Kalimantan Timur 75313","Api-Api, Kec. Bontang Utara, Kota Bontang",KALIMANTAN TIMUR,75313.0,Indonesia,82110115000.0,,,0.1333728,117.4948756,https://maps.google.com/?cid=0x0:0xf31879ddd78ff72b,
supermarket,Supermarket Diskon,Hendra Mart (Imam Bonjol),"Jl. Imam Bonjol No.4, RT.004, Api-Api, Kec. Bontang Utara, Kota Bontang, Kalimantan Timur 75325","RT.004, Api-Api, Kec. Bontang Utara, Kota Bontang",KALIMANTAN TIMUR,75325.0,Indonesia,81347294046.0,,,0.128879,117.481754,https://maps.google.com/?cid=0x0:0x187ed6367db5691c,
supermarket,Toko Bahan Bangunan,Berlian Jaya Mart,"Jl. HM Ardans, Satimpo, Kec. Bontang Sel., Kota Bontang, Kalimantan Timur 75324","Satimpo, Kec. Bontang Sel., Kota Bontang",KALIMANTAN TIMUR,75324.0,Indonesia,82231415912.0,,,0.1270169,117.4725801,https://maps.google.com/?cid=0x0:0x1fb01a3ca1802592,
supermarket,Toko Swalayan,TOKO BERKAH,"Jl. Simon Tampubolon HOP 4, Kanaan, Kec. Bontang Bar., Kota Bontang, Kalimantan Timur 75325","Kanaan, Kec. Bontang Bar., Kota Bontang",KALIMANTAN TIMUR,75325.0,Indonesia,,,,0.1323399,117.4628546,https://maps.google.com/?cid=0x0:0x2d12baf7883bbd78,
supermarket,Pujasera,Tojasera PT Badak NGL,"4F87+F86, Satimpo, Kec. Bontang Sel., Kota Bontang, Kalimantan Timur 75325","Satimpo, Kec. Bontang Sel., Kota Bontang",KALIMANTAN TIMUR,75325.0,Indonesia,,,,0.1161516,117.4632662,https://maps.google.com/?cid=0x0:0xfeb07c55fc686bb,
supermarket,Toko,Toko YUKY's,"Jl. Ahmad Yani No.009, Tanjung Laut, Bontang Selatan, Tj. Laut, Kec. Bontang Sel., Kota Bontang, Kalimantan Timur 75325","Tanjung Laut, Bontang Selatan, Tj. Laut, Kec. Bontang Sel., Kota Bontang",KALIMANTAN TIMUR,75325.0,Indonesia,81257200069.0,,,0.1288815,117.4845202,https://maps.google.com/?cid=0x0:0xbc6394297b0b9d23,
supermarket,Minimarket,Suryah Mart Swalayan,"Jl. Jend. Achmad Yani No.66, Api-Api, Kec. Bontang Utara, Kota Bontang, Kalimantan Timur 75313","Api-Api, Kec. Bontang Utara, Kota Bontang",KALIMANTAN TIMUR,75313.0,Indonesia,82110115000.0,,,0.1322711,117.490663,https://maps.google.com/?cid=0x0:0xb9e4094c71d5eb07,
supermarket,Toko,Toko TIGA PUTRA SEJAHTERA,"Jl. Simon Tampubolon No.kel, Gn. Elai, Kec. Bontang Utara, Kota Bontang, Kalimantan Timur 75311","Gn. Elai, Kec. Bontang Utara, Kota Bontang",KALIMANTAN TIMUR,75311.0,Indonesia,,,,0.135078,117.4623009,https://maps.google.com/?cid=0x0:0xb6b91f8832bd2592,
supermarket,Minimarket,Ta-Nia MART,"Jl. Manggis No.12 Blok H4, Belimbing, Kec. Bontang Bar., Kota Bontang, Kalimantan Timur 75325","Belimbing, Kec. Bontang Bar., Kota Bontang",KALIMANTAN TIMUR,75325.0,Indonesia,81350503888.0,,,0.1484974,117.4698561,https://maps.google.com/?cid=0x0:0xf684b41be76b7dda,
supermarket,Toko bahan makanan,Harvest Fresh Mart,"4FQ7+V3M, Kanaan, Kec. Bontang Bar., Kota Bontang, Kalimantan Timur 75321","Kanaan, Kec. Bontang Bar., Kota Bontang",KALIMANTAN TIMUR,75321.0,Indonesia,8115422114.0,,,0.1397006,117.4626609,https://maps.google.com/?cid=0x0:0x8cdd6d69c0d8275f,
supermarket,Toko bahan makanan,Toko Karya Sakti 2,"4FJP+VV6, Jl. Jend. Achmad Yani, Api-Api, Kec. Bontang Utara, Kota Bontang, Kalimantan Timur 75325","Jl. Jend. Achmad Yani, Api-Api, Kec. Bontang Utara, Kota Bontang",KALIMANTAN TIMUR,75325.0,Indonesia,82357673974.0,,,0.1321709,117.4871447,https://maps.google.com/?cid=0x0:0xbce192e905bbf7fa,
supermarket,Toko Swalayan,Tunas Abadi,"JL. Sutan Syahrir Gang Haji Sape, No. 24 RT. 06, Tj. Laut Indah, Kec. Bontang Sel., Kota Bontang, Kalimantan Timur 75325","No. 24 RT. 06, Tj. Laut Indah, Kec. Bontang Sel., Kota Bontang",KALIMANTAN TIMUR,75325.0,Indonesia,54821592.0,,,0.1184284,117.4892883,https://maps.google.com/?cid=0x0:0x775ada0a54d996a0,
supermarket,Minimarket,Gunung Emas Swalayan,"Jl. R. Suprapto No.10 kel, Bontang Baru, Kec. Bontang Utara, Kota Bontang, Kalimantan Timur 75311","Bontang Baru, Kec. Bontang Utara, Kota Bontang",KALIMANTAN TIMUR,75311.0,Indonesia,81217705076.0,,,0.1353079,117.488886,https://maps.google.com/?cid=0x0:0x201b8939d6a6987e,
supermarket,Toko bahan makanan,Agen Galon Le Mineral Toko Pisang Mas,"4FHF+383, Satimpo, Kec. Bontang Sel., Kota Bontang, Kalimantan Timur 75325","Satimpo, Kec. Bontang Sel., Kota Bontang",KALIMANTAN TIMUR,75325.0,Indonesia,,,,0.1276312,117.4733006,https://maps.google.com/?cid=0x0:0xf924cac1693c13b8,
supermarket,Toko bahan makanan,Agen Galon Le Mineral Toko Juna Alya Mart,"HOP, Jl. Simon Tampubolon No.22, RT.22/RW.4, Gunung Elai, Bontang Utara, Bontang City, East Kalimantan 75324","Jl. Simon Tampubolon No.22, RT.22/RW.4, Gunung Elai, Bontang Utara, Bontang City",KALIMANTAN TIMUR,75324.0,Indonesia,81347813939.0,,,0.1324859,117.4628816,https://maps.google.com/?cid=0x0:0x24c27f5b6b6212f6,
supermarket,Toko Swalayan,TOKO SUNGKONO,"4FCV+2P4, Tj. Laut Indah, Kec. Bontang Sel., Kota Bontang, Kalimantan Timur 75325","Tj. Laut Indah, Kec. Bontang Sel., Kota Bontang",KALIMANTAN TIMUR,75325.0,Indonesia,,,,0.1200157,117.494328,https://maps.google.com/?cid=0x0:0x862cc95ea9f6b492,
supermarket,Toko bahan makanan,Toko Blessing Mart,"Jl. Palembang No.kel, Gn. Telihan, Kec. Bontang Bar., Kota Bontang, Kalimantan Timur 75325","Gn. Telihan, Kec. Bontang Bar., Kota Bontang",KALIMANTAN TIMUR,75325.0,Indonesia,,,,0.1334907,117.4591517,https://maps.google.com/?cid=0x0:0x7947550335c4aa64,
supermarket,Supermarket Diskon,HENDRA MART,"Jl. S. Parman No.KM 06 No.09, Kanaan, Kec. Bontang Bar., Kota Bontang, Kalimantan Timur 75383","Kanaan, Kec. Bontang Bar., Kota Bontang",KALIMANTAN TIMUR,75383.0,Indonesia,81347294046.0,,,0.1404075,117.4604358,https://maps.google.com/?cid=0x0:0x547f145c5b3bf3c4,
supermarket,Toko,Risky sentosa,"Jl. HM Ardans No.15, Satimpo, Kec. Bontang Sel., Kota Bontang, Kalimantan Timur 75325","Satimpo, Kec. Bontang Sel., Kota Bontang",KALIMANTAN TIMUR,75325.0,Indonesia,,,,0.128093,117.4790313,https://maps.google.com/?cid=0x0:0xe0260391102d89d6,
supermarket,Toko,Toko Lisa,"Jl. Sultan Hasanudin No.3, Berbas Pantai, Kec. Bontang Sel., Kota Bontang, Kalimantan Timur 75322","Berbas Pantai, Kec. Bontang Sel., Kota Bontang",KALIMANTAN TIMUR,75322.0,Indonesia,,,,0.113944,117.4813294,https://maps.google.com/?cid=0x0:0xeca3fef2df13674b,
supermarket,supermarket,Bontang,"Kota Bontang, Kalimantan Timur","Kota Bontang, Kalimantan Timur",KALIMANTAN TIMUR,,Indonesia,,,,0.120863,117.4800445,https://maps.google.com/?cid=0x0:0xd0b2a55f85356781,
supermarket,Minimarket,Eramart Swalayan Bontang 1,"Jl. Mayor Jenderal DI Panjaitan, Api-Api, Kec. Bontang Utara, Kota Bontang, Kalimantan Timur 75313","Api-Api, Kec. Bontang Utara, Kota Bontang",KALIMANTAN TIMUR,75313.0,Indonesia,82110115000.0,,,0.1333728,117.4948756,https://maps.google.com/?cid=0x0:0xf31879ddd78ff72b,
supermarket,Minimarket,Gunung Emas Swalayan,"Jl. R. Suprapto No.10 kel, Bontang Baru, Kec. Bontang Utara, Kota Bontang, Kalimantan Timur 75311","Bontang Baru, Kec. Bontang Utara, Kota Bontang",KALIMANTAN TIMUR,75311.0,Indonesia,81217705076.0,,,0.1353079,117.488886,https://maps.google.com/?cid=0x0:0x201b8939d6a6987e,
supermarket,Supermarket Diskon,Hendra Mart (Imam Bonjol),"Jl. Imam Bonjol No.4, RT.004, Api-Api, Kec. Bontang Utara, Kota Bontang, Kalimantan Timur 75325","RT.004, Api-Api, Kec. Bontang Utara, Kota Bontang",KALIMANTAN TIMUR,75325.0,Indonesia,81347294046.0,,,0.128879,117.481754,https://maps.google.com/?cid=0x0:0x187ed6367db5691c,
supermarket,Minimarket,Suryah Mart Swalayan,"Jl. Jend. Achmad Yani No.66, Api-Api, Kec. Bontang Utara, Kota Bontang, Kalimantan Timur 75313","Api-Api, Kec. Bontang Utara, Kota Bontang",KALIMANTAN TIMUR,75313.0,Indonesia,82110115000.0,,,0.1322711,117.490663,https://maps.google.com/?cid=0x0:0xb9e4094c71d5eb07,
supermarket,Minimarket,Ta-Nia MART,"Jl. Manggis No.12 Blok H4, Belimbing, Kec. Bontang Bar., Kota Bontang, Kalimantan Timur 75325","Belimbing, Kec. Bontang Bar., Kota Bontang",KALIMANTAN TIMUR,75325.0,Indonesia,81350503888.0,,,0.1484974,117.4698561,https://maps.google.com/?cid=0x0:0xf684b41be76b7dda,
supermarket,Pusat Perbelanjaan,RAMAYANA Bontang,"Jl. MH. Thamrin, Bontang Baru, Kec. Bontang Utara, Kota Bontang, Kalimantan Timur 75325","Bontang Baru, Kec. Bontang Utara, Kota Bontang",KALIMANTAN TIMUR,75325.0,Indonesia,8118332180.0,,,0.1364468,117.4887367,https://maps.google.com/?cid=0x0:0xeb7f34515ee30b00,
supermarket,Supermarket Diskon,Mekar Mart,"Jalan Pupuk Raya, Kavling 3, RT 50, Lok Tuan, Kec. Bontang Utara, Kota Bontang, Kalimantan Timur 75314","Kavling 3, RT 50, Lok Tuan, Kec. Bontang Utara, Kota Bontang",KALIMANTAN TIMUR,75314.0,Indonesia,85345738822.0,,,0.1705447,117.4677246,https://maps.google.com/?cid=0x0:0x98cc971d87835bbe,
supermarket,Supermarket Diskon,HENDRA MART,"Jl. S. Parman No.KM 06 No.09, Kanaan, Kec. Bontang Bar., Kota Bontang, Kalimantan Timur 75383","Kanaan, Kec. Bontang Bar., Kota Bontang",KALIMANTAN TIMUR,75383.0,Indonesia,81347294046.0,,,0.1404075,117.4604358,https://maps.google.com/?cid=0x0:0x547f145c5b3bf3c4,
supermarket,Minimarket,Eramart Swalayan Bontang 2,"Jl. Brigjen Katamso No.15, Belimbing, Kec. Bontang Bar., Kota Bontang, Kalimantan Timur 75325","Belimbing, Kec. Bontang Bar., Kota Bontang",KALIMANTAN TIMUR,75325.0,Indonesia,82110115000.0,,,0.1358348,117.4685972,https://maps.google.com/?cid=0x0:0xd603c4dd89fb9605,
supermarket,Toko,Toko Bu Dewi,"4FPJ+V57, Gn. Elai, Kec. Bontang Utara, Kota Bontang, Kalimantan Timur 75313","Gn. Elai, Kec. Bontang Utara, Kota Bontang",KALIMANTAN TIMUR,75313.0,Indonesia,,,,0.1371543,117.4804196,https://maps.google.com/?cid=0x0:0xe427612c3bfeb761,
supermarket,Toko Swalayan,Toko Samaria,"Jl. MH. Thamrin, Bontang Baru, Kec. Bontang Utara, Kota Bontang, Kalimantan Timur 75325","Bontang Baru, Kec. Bontang Utara, Kota Bontang",KALIMANTAN TIMUR,75325.0,Indonesia,8115599456.0,,,0.1416473,117.4894244,https://maps.google.com/?cid=0x0:0xeca7ddbf44359293,
supermarket,Grosir Beras,Toko Cakrawala Bontang,"4FFV+226, Jl. Ir. H. Juanda No.14, Tj. Laut Indah, Kec. Bontang Sel., Kota Bontang, Kalimantan Timur 75325","Jl. Ir. H. Juanda No.14, Tj. Laut Indah, Kec. Bontang Sel., Kota Bontang",KALIMANTAN TIMUR,75325.0,Indonesia,81346416660.0,,,0.1225218,117.4925267,https://maps.google.com/?cid=0x0:0x5615da555291e4aa,
supermarket,Toko Buah Kering,Toko Dua Putri,"4FPQ+6HW, Jl. R. Suprapto, Bontang Baru, Kec. Bontang Utara, Kota Bontang, Kalimantan Timur 75325","Jl. R. Suprapto, Bontang Baru, Kec. Bontang Utara, Kota Bontang",KALIMANTAN TIMUR,75325.0,Indonesia,85387214076.0,,,0.1356057,117.4889441,https://maps.google.com/?cid=0x0:0xf9f551e41e0c3071,
supermarket,ATM,Mandiri ATM Gunung Mas Supermarket,"Jl. R. Suprapto, Bontang Baru, Kec. Bontang Utara, Kota Bontang, Kalimantan Timur 75313","Bontang Baru, Kec. Bontang Utara, Kota Bontang",KALIMANTAN TIMUR,75313.0,Indonesia,2152997777.0,,,0.1353115,117.4890115,https://maps.google.com/?cid=0x0:0x934610dac9bc684,
supermarket,Toko Ikan,Toko ikan Griyo Ulam (Belakang Hotel Raodah 1),"Gg. Panahan 1 kel No.202, Api-Api, Kec. Bontang Utara, Kota Bontang, Kalimantan Timur 75325","Api-Api, Kec. Bontang Utara, Kota Bontang",KALIMANTAN TIMUR,75325.0,Indonesia,81350901195.0,,,0.1340257,117.4889868,https://maps.google.com/?cid=0x0:0xbe1145d921eb1c9a,
supermarket,Toko makanan beku,Loka Mart,"Jl. Mayor Jenderal DI Panjaitan, Api-Api, Kec. Bontang Utara, Kota Bontang, Kalimantan Timur 75313","Api-Api, Kec. Bontang Utara, Kota Bontang",KALIMANTAN TIMUR,75313.0,Indonesia,82324566402.0,,,0.1332176,117.4954234,https://maps.google.com/?cid=0x0:0x376431c4c481975c,
supermarket,Kafe,Kaca5 Mart,"Jl. Mulawarman No.77, Bontang Baru, Kec. Bontang Utara, Kota Bontang, Kalimantan Timur 75325","Bontang Baru, Kec. Bontang Utara, Kota Bontang",KALIMANTAN TIMUR,75325.0,Indonesia,82255771750.0,,,0.1422569,117.4954063,https://maps.google.com/?cid=0x0:0xe3c1881eb96c4283,
supermarket,Toko bahan makanan,Toko Diah,"Jl. S. Parman No.22, Gn. Telihan, Kec. Bontang Bar., Kota Bontang, Kalimantan Timur 75322","Gn. Telihan, Kec. Bontang Bar., Kota Bontang",KALIMANTAN TIMUR,75322.0,Indonesia,,,,0.1401154,117.4526092,https://maps.google.com/?cid=0x0:0x8209a63bc7646b02,
supermarket,Toko,Toko TIGA PUTRA SEJAHTERA,"Jl. Simon Tampubolon No.kel, Gn. Elai, Kec. Bontang Utara, Kota Bontang, Kalimantan Timur 75311","Gn. Elai, Kec. Bontang Utara, Kota Bontang",KALIMANTAN TIMUR,75311.0,Indonesia,,,,0.135078,117.4623009,https://maps.google.com/?cid=0x0:0xb6b91f8832bd2592,
supermarket,supermarket,Kalimantan Timur 75311,"Gn. Elai, Kec. Bontang Utara, Kota Bontang, Kalimantan Timur","Kota Bontang, Kalimantan Timur",KALIMANTAN TIMUR,,Indonesia,,,,0.1444417,117.4887629,https://maps.google.com/?cid=0x0:0x33198cc450f8143a,
supermarket,Toko Swalayan,Toko Neni,"4FWQ+9M6, Gn. Elai, Kec. Bontang Utara, Kota Bontang, Kalimantan Timur 75313","Gn. Elai, Kec. Bontang Utara, Kota Bontang",KALIMANTAN TIMUR,75313.0,Indonesia,,,,0.1459177,117.4891455,https://maps.google.com/?cid=0x0:0xd9973b99c395a71c,
supermarket,Toko bahan makanan,Toko Karya Sakti 2,"4FJP+VV6, Jl. Jend. Achmad Yani, Api-Api, Kec. Bontang Utara, Kota Bontang, Kalimantan Timur 75325","Jl. Jend. Achmad Yani, Api-Api, Kec. Bontang Utara, Kota Bontang",KALIMANTAN TIMUR,75325.0,Indonesia,82357673974.0,,,0.1321709,117.4871447,https://maps.google.com/?cid=0x0:0xbce192e905bbf7fa,
supermarket,Toko bahan makanan,Toko Ady,"Gg. Tomat 4 No.02, Gn. Elai, Kec. Bontang Utara, Kota Bontang, Kalimantan Timur 75311","Gn. Elai, Kec. Bontang Utara, Kota Bontang",KALIMANTAN TIMUR,75311.0,Indonesia,82259644684.0,,,0.130305,117.4775008,https://maps.google.com/?cid=0x0:0x5138c516711c941c,
supermarket,Minimarket,Alfamidi Awang Long,"4FQR+FMX, Bontang Baru, Kec. Bontang Utara, Kota Bontang, Kalimantan Timur 75313","Bontang Baru, Kec. Bontang Utara, Kota Bontang",KALIMANTAN TIMUR,75313.0,Indonesia,,,,0.1387479,117.4917191,https://maps.google.com/?cid=0x0:0xbefb1787b5267966,
supermarket,Toko bahan makanan,Diana Mart,"Jl. Slamet Riyadi No.25, Lok Tuan, Kec. Bontang Utara, Kota Bontang, Kalimantan Timur 75321","Lok Tuan, Kec. Bontang Utara, Kota Bontang",KALIMANTAN TIMUR,75321.0,Indonesia,,,,0.1706867,117.476494,https://maps.google.com/?cid=0x0:0x18c4f7b860fa1138,
supermarket,Pemasok kantong plastik,Kya kemasan,"4FRQ+XMM, Jl. MH. Thamrin, Bontang Baru, Kec. Bontang Utara, Kota Bontang, Kalimantan Timur 75313","Jl. MH. Thamrin, Bontang Baru, Kec. Bontang Utara, Kota Bontang",KALIMANTAN TIMUR,75313.0,Indonesia,81347804421.0,,,0.1424542,117.48917,https://maps.google.com/?cid=0x0:0x993b27cc8ff0f96f,
supermarket,Toko,Toko Yunita,"Jl. MH. Thamrin, Gn. Elai, Kec. Bontang Utara, Kota Bontang, Kalimantan Timur 75313","Gn. Elai, Kec. Bontang Utara, Kota Bontang",KALIMANTAN TIMUR,75313.0,Indonesia,,,,0.1486995,117.4905087,https://maps.google.com/?cid=0x0:0x89c63c177fa51c6f,
supermarket,Toko Swalayan,Toko Aqmarina,"4FPX+6GQ, Jl. Awang Long, Bontang Baru, Kec. Bontang Utara, Kota Bontang, Kalimantan Timur 75325","Jl. Awang Long, Bontang Baru, Kec. Bontang Utara, Kota Bontang",KALIMANTAN TIMUR,75325.0,Indonesia,,,,0.1355983,117.4988749,https://maps.google.com/?cid=0x0:0xb6e7217432a424d,
supermarket,supermarket,Kalimantan Timur 75312,"Kec. Tlk. Pandan, Kabupaten Kutai Timur, Kalimantan Timur","Kabupaten Kutai Timur, Kalimantan Timur",KALIMANTAN TIMUR,,Indonesia,,,,0.2740898,117.4908738,https://maps.google.com/?cid=0x0:0x66ae207830c2242a,
supermarket,Minimarket,Gunung Emas Swalayan,"Jl. R. Suprapto No.10 kel, Bontang Baru, Kec. Bontang Utara, Kota Bontang, Kalimantan Timur 75311","Bontang Baru, Kec. Bontang Utara, Kota Bontang",KALIMANTAN TIMUR,75311.0,Indonesia,81217705076.0,,,0.1353079,117.488886,https://maps.google.com/?cid=0x0:0x201b8939d6a6987e,
supermarket,Minimarket,Eramart Swalayan Bontang 1,"Jl. Mayor Jenderal DI Panjaitan, Api-Api, Kec. Bontang Utara, Kota Bontang, Kalimantan Timur 75313","Api-Api, Kec. Bontang Utara, Kota Bontang",KALIMANTAN TIMUR,75313.0,Indonesia,82110115000.0,,,0.1333728,117.4948756,https://maps.google.com/?cid=0x0:0xf31879ddd78ff72b,
supermarket,Minimarket,Suryah Mart Swalayan,"Jl. Jend. Achmad Yani No.66, Api-Api, Kec. Bontang Utara, Kota Bontang, Kalimantan Timur 75313","Api-Api, Kec. Bontang Utara, Kota Bontang",KALIMANTAN TIMUR,75313.0,Indonesia,82110115000.0,,,0.1322711,117.490663,https://maps.google.com/?cid=0x0:0xb9e4094c71d5eb07,
supermarket,Minimarket,Eramart Swalayan Bontang 2,"Jl. Brigjen Katamso No.15, Belimbing, Kec. Bontang Bar., Kota Bontang, Kalimantan Timur 75325","Belimbing, Kec. Bontang Bar., Kota Bontang",KALIMANTAN TIMUR,75325.0,Indonesia,82110115000.0,,,0.1358348,117.4685972,https://maps.google.com/?cid=0x0:0xd603c4dd89fb9605,
supermarket,Toko Swalayan,Menjangan Mart,"Belimbing, Kec. Bontang Bar., Kota Bontang, Kalimantan Timur 75325","Kec. Bontang Bar., Kota Bontang",KALIMANTAN TIMUR,75325.0,Indonesia,,,,0.1469335,117.4711581,https://maps.google.com/?cid=0x0:0xfd0a55ba44938779,
supermarket,Supermarket Diskon,Mekar Mart,"Jalan Pupuk Raya, Kavling 3, RT 50, Lok Tuan, Kec. Bontang Utara, Kota Bontang, Kalimantan Timur 75314","Kavling 3, RT 50, Lok Tuan, Kec. Bontang Utara, Kota Bontang",KALIMANTAN TIMUR,75314.0,Indonesia,85345738822.0,,,0.1705447,117.4677246,https://maps.google.com/?cid=0x0:0x98cc971d87835bbe,
supermarket,Supermarket Diskon,Hendra Mart (Imam Bonjol),"Jl. Imam Bonjol No.4, RT.004, Api-Api, Kec. Bontang Utara, Kota Bontang, Kalimantan Timur 75325","RT.004, Api-Api, Kec. Bontang Utara, Kota Bontang",KALIMANTAN TIMUR,75325.0,Indonesia,81347294046.0,,,0.128879,117.481754,https://maps.google.com/?cid=0x0:0x187ed6367db5691c,
supermarket,Supermarket Diskon,HENDRA MART,"Jl. S. Parman No.KM 06 No.09, Kanaan, Kec. Bontang Bar., Kota Bontang, Kalimantan Timur 75383","Kanaan, Kec. Bontang Bar., Kota Bontang",KALIMANTAN TIMUR,75383.0,Indonesia,81347294046.0,,,0.1404075,117.4604358,https://maps.google.com/?cid=0x0:0x547f145c5b3bf3c4,
supermarket,Toko bahan makanan,Toko Karya Sakti 2,"4FJP+VV6, Jl. Jend. Achmad Yani, Api-Api, Kec. Bontang Utara, Kota Bontang, Kalimantan Timur 75325","Jl. Jend. Achmad Yani, Api-Api, Kec. Bontang Utara, Kota Bontang",KALIMANTAN TIMUR,75325.0,Indonesia,82357673974.0,,,0.1321709,117.4871447,https://maps.google.com/?cid=0x0:0xbce192e905bbf7fa,
supermarket,Toko bahan makanan,Harvest Fresh Mart,"4FQ7+V3M, Kanaan, Kec. Bontang Bar., Kota Bontang, Kalimantan Timur 75321","Kanaan, Kec. Bontang Bar., Kota Bontang",KALIMANTAN TIMUR,75321.0,Indonesia,8115422114.0,,,0.1397006,117.4626609,https://maps.google.com/?cid=0x0:0x8cdd6d69c0d8275f,
supermarket,Toko Swalayan,Abdullah,"Jl. Kapal Layar No.22, Lok Tuan, Kec. Bontang Utara, Kota Bontang, Kalimantan Timur 75321","Lok Tuan, Kec. Bontang Utara, Kota Bontang",KALIMANTAN TIMUR,75321.0,Indonesia,,,,0.1655394,117.4699469,https://maps.google.com/?cid=0x0:0x2ec4769f4ab8cc43,
supermarket,Minimarket,Ta-Nia MART,"Jl. Manggis No.12 Blok H4, Belimbing, Kec. Bontang Bar., Kota Bontang, Kalimantan Timur 75325","Belimbing, Kec. Bontang Bar., Kota Bontang",KALIMANTAN TIMUR,75325.0,Indonesia,81350503888.0,,,0.1484974,117.4698561,https://maps.google.com/?cid=0x0:0xf684b41be76b7dda,
supermarket,Toko,Toko YUKY's,"Jl. Ahmad Yani No.009, Tanjung Laut, Bontang Selatan, Tj. Laut, Kec. Bontang Sel., Kota Bontang, Kalimantan Timur 75325","Tanjung Laut, Bontang Selatan, Tj. Laut, Kec. Bontang Sel., Kota Bontang",KALIMANTAN TIMUR,75325.0,Indonesia,81257200069.0,,,0.1288815,117.4845202,https://maps.google.com/?cid=0x0:0xbc6394297b0b9d23,
supermarket,Toko Swalayan,Near Mart,"Jl. RE. Martadinata No.RT.03, Lok Tuan, Kec. Bontang Utara, Kota Bontang, Kalimantan Timur 75324","Lok Tuan, Kec. Bontang Utara, Kota Bontang",KALIMANTAN TIMUR,75324.0,Indonesia,81222225012.0,,,0.1646257,117.4831643,https://maps.google.com/?cid=0x0:0x7fded7a639016a95,
supermarket,Toko bahan makanan,Cendana,"Jl. Pattimura Gg. Atletik 5 No.RT. 27, Api-Api, Kec. Bontang Utara, Kota Bontang, Kalimantan Timur 75325","Api-Api, Kec. Bontang Utara, Kota Bontang",KALIMANTAN TIMUR,75325.0,Indonesia,5485124737.0,,,0.1282357,117.4959579,https://maps.google.com/?cid=0x0:0x6340381ebf0a219c,
supermarket,Minimarket,Toko Rezky,"Jl. Mayor Jenderal DI Panjaitan, Bontang Baru, Kec. Bontang Utara, Kota Bontang, Kalimantan Timur 75325","Bontang Baru, Kec. Bontang Utara, Kota Bontang",KALIMANTAN TIMUR,75325.0,Indonesia,81253461875.0,,,0.1339779,117.493148,https://maps.google.com/?cid=0x0:0x79402b1869159bc4,
supermarket,Toko Swalayan,Uwais,"4FXR+CH5, Jl. Otista, Gn. Elai, Kec. Bontang Utara, Kota Bontang, Kalimantan Timur 75325","Jl. Otista, Gn. Elai, Kec. Bontang Utara, Kota Bontang",KALIMANTAN TIMUR,75325.0,Indonesia,,,,0.1485096,117.4914721,https://maps.google.com/?cid=0x0:0xb2418617fa5b9b9c,
supermarket,Toko Swalayan,Toko Samaria,"Jl. MH. Thamrin, Bontang Baru, Kec. Bontang Utara, Kota Bontang, Kalimantan Timur 75325","Bontang Baru, Kec. Bontang Utara, Kota Bontang",KALIMANTAN TIMUR,75325.0,Indonesia,8115599456.0,,,0.1416473,117.4894244,https://maps.google.com/?cid=0x0:0xeca7ddbf44359293,
supermarket,Grosir Beras,Toko Cakrawala Bontang,"4FFV+226, Jl. Ir. H. Juanda No.14, Tj. Laut Indah, Kec. Bontang Sel., Kota Bontang, Kalimantan Timur 75325","Jl. Ir. H. Juanda No.14, Tj. Laut Indah, Kec. Bontang Sel., Kota Bontang",KALIMANTAN TIMUR,75325.0,Indonesia,81346416660.0,,,0.1225218,117.4925267,https://maps.google.com/?cid=0x0:0x5615da555291e4aa,
supermarket,Toko Swalayan,Toko Zhafira,"4GM2+4HP, Bontang Kuala, Kec. Bontang Utara, Kota Bontang, Kalimantan Timur 75313","Bontang Kuala, Kec. Bontang Utara, Kota Bontang",KALIMANTAN TIMUR,75313.0,Indonesia,,,,0.132837,117.5014461,https://maps.google.com/?cid=0x0:0xa829a60e10c96fae,
supermarket,Toko umum,El Mart,"4FP3+6WG, Jl. Asmawarman, Gn. Telihan, Kec. Bontang Bar., Kota Bontang, Kalimantan Timur 75321","Jl. Asmawarman, Gn. Telihan, Kec. Bontang Bar., Kota Bontang",KALIMANTAN TIMUR,75321.0,Indonesia,,,,0.1355741,117.4548303,https://maps.google.com/?cid=0x0:0x5435bed72142bfc,
supermarket,Toko Swalayan,TOKO BERKAH,"Jl. Simon Tampubolon HOP 4, Kanaan, Kec. Bontang Bar., Kota Bontang, Kalimantan Timur 75325","Kanaan, Kec. Bontang Bar., Kota Bontang",KALIMANTAN TIMUR,75325.0,Indonesia,,,,0.1323399,117.4628546,https://maps.google.com/?cid=0x0:0x2d12baf7883bbd78,
supermarket,Toko bahan makanan,Sandi Mart,"4FJX+GPQ, Api-Api, Kec. Bontang Utara, Kota Bontang, Kalimantan Timur 75325","Api-Api, Kec. Bontang Utara, Kota Bontang",KALIMANTAN TIMUR,75325.0,Indonesia,,,,0.1311334,117.4994066,https://maps.google.com/?cid=0x0:0xd01022f7558f5b82,
supermarket,Toko,Toko Bu Dewi,"4FPJ+V57, Gn. Elai, Kec. Bontang Utara, Kota Bontang, Kalimantan Timur 75313","Gn. Elai, Kec. Bontang Utara, Kota Bontang",KALIMANTAN TIMUR,75313.0,Indonesia,,,,0.1371543,117.4804196,https://maps.google.com/?cid=0x0:0xe427612c3bfeb761,
supermarket,Toko Swalayan,Toko Karya Sakti,"4FPG+522, Gn. Elai, Kec. Bontang Utara, Kota Bontang, Kalimantan Timur 75325","Gn. Elai, Kec. Bontang Utara, Kota Bontang",KALIMANTAN TIMUR,75325.0,Indonesia,,,,0.1353817,117.4750153,https://maps.google.com/?cid=0x0:0x66fde534ef663a3e,
supermarket,Toko bahan makanan,Toko Diah,"Jl. S. Parman No.22, Gn. Telihan, Kec. Bontang Bar., Kota Bontang, Kalimantan Timur 75322","Gn. Telihan, Kec. Bontang Bar., Kota Bontang",KALIMANTAN TIMUR,75322.0,Indonesia,,,,0.1401154,117.4526092,https://maps.google.com/?cid=0x0:0x8209a63bc7646b02,
supermarket,Toko Buah Kering,Toko Dua Putri,"4FPQ+6HW, Jl. R. Suprapto, Bontang Baru, Kec. Bontang Utara, Kota Bontang, Kalimantan Timur 75325","Jl. R. Suprapto, Bontang Baru, Kec. Bontang Utara, Kota Bontang",KALIMANTAN TIMUR,75325.0,Indonesia,85387214076.0,,,0.1356057,117.4889441,https://maps.google.com/?cid=0x0:0xf9f551e41e0c3071,
supermarket,Toko makanan beku,Loka Mart,"Jl. Mayor Jenderal DI Panjaitan, Api-Api, Kec. Bontang Utara, Kota Bontang, Kalimantan Timur 75313","Api-Api, Kec. Bontang Utara, Kota Bontang",KALIMANTAN TIMUR,75313.0,Indonesia,82324566402.0,,,0.1332176,117.4954234,https://maps.google.com/?cid=0x0:0x376431c4c481975c,
supermarket,Minimarket,Eramart Swalayan Bontang 1,"Jl. Mayor Jenderal DI Panjaitan, Api-Api, Kec. Bontang Utara, Kota Bontang, Kalimantan Timur 75313","Api-Api, Kec. Bontang Utara, Kota Bontang",KALIMANTAN TIMUR,75313.0,Indonesia,82110115000.0,,,0.1333728,117.4948756,https://maps.google.com/?cid=0x0:0xf31879ddd78ff72b,
supermarket,supermarket,Kec. Bontang Utara,"Kota Bontang, Kalimantan Timur","Kota Bontang, Kalimantan Timur",KALIMANTAN TIMUR,,Indonesia,,,,0.1342654,117.4918113,https://maps.google.com/?cid=0x0:0x8e264a38633f2806,
supermarket,Minimarket,Gunung Emas Swalayan,"Jl. R. Suprapto No.10 kel, Bontang Baru, Kec. Bontang Utara, Kota Bontang, Kalimantan Timur 75311","Bontang Baru, Kec. Bontang Utara, Kota Bontang",KALIMANTAN TIMUR,75311.0,Indonesia,81217705076.0,,,0.1353079,117.488886,https://maps.google.com/?cid=0x0:0x201b8939d6a6987e,
supermarket,Minimarket,Tanjung Laut Mart Swalayan,"Tj. Laut Indah, Kec. Bontang Sel., Kota Bontang, Kalimantan Timur 75325","Kec. Bontang Sel., Kota Bontang",KALIMANTAN TIMUR,75325.0,Indonesia,82110115000.0,,,0.118343,117.4885993,https://maps.google.com/?cid=0x0:0x862587d60f011aee,
supermarket,Toko Swalayan,Menjangan Mart,"Belimbing, Kec. Bontang Bar., Kota Bontang, Kalimantan Timur 75325","Kec. Bontang Bar., Kota Bontang",KALIMANTAN TIMUR,75325.0,Indonesia,,,,0.1469335,117.4711581,https://maps.google.com/?cid=0x0:0xfd0a55ba44938779,
supermarket,Minimarket,Suryah Mart Swalayan,"Jl. Jend. Achmad Yani No.66, Api-Api, Kec. Bontang Utara, Kota Bontang, Kalimantan Timur 75313","Api-Api, Kec. Bontang Utara, Kota Bontang",KALIMANTAN TIMUR,75313.0,Indonesia,82110115000.0,,,0.1322711,117.490663,https://maps.google.com/?cid=0x0:0xb9e4094c71d5eb07,
supermarket,Supermarket Diskon,Hendra Mart (Imam Bonjol),"Jl. Imam Bonjol No.4, RT.004, Api-Api, Kec. Bontang Utara, Kota Bontang, Kalimantan Timur 75325","RT.004, Api-Api, Kec. Bontang Utara, Kota Bontang",KALIMANTAN TIMUR,75325.0,Indonesia,81347294046.0,,,0.128879,117.481754,https://maps.google.com/?cid=0x0:0x187ed6367db5691c,
supermarket,Minimarket,Eramart Swalayan Bontang 2,"Jl. Brigjen Katamso No.15, Belimbing, Kec. Bontang Bar., Kota Bontang, Kalimantan Timur 75325","Belimbing, Kec. Bontang Bar., Kota Bontang",KALIMANTAN TIMUR,75325.0,Indonesia,82110115000.0,,,0.1358348,117.4685972,https://maps.google.com/?cid=0x0:0xd603c4dd89fb9605,
supermarket,Toko bahan makanan,Diana Mart,"Jl. Slamet Riyadi No.25, Lok Tuan, Kec. Bontang Utara, Kota Bontang, Kalimantan Timur 75321","Lok Tuan, Kec. Bontang Utara, Kota Bontang",KALIMANTAN TIMUR,75321.0,Indonesia,,,,0.1706867,117.476494,https://maps.google.com/?cid=0x0:0x18c4f7b860fa1138,
supermarket,Toko bahan makanan,Agen Galon Le Mineral Toko Juna Alya Mart,"HOP, Jl. Simon Tampubolon No.22, RT.22/RW.4, Gunung Elai, Bontang Utara, Bontang City, East Kalimantan 75324","Jl. Simon Tampubolon No.22, RT.22/RW.4, Gunung Elai, Bontang Utara, Bontang City",KALIMANTAN TIMUR,75324.0,Indonesia,81347813939.0,,,0.1324859,117.4628816,https://maps.google.com/?cid=0x0:0x24c27f5b6b6212f6,
supermarket,Toko bahan makanan,Harvest Fresh Mart,"4FQ7+V3M, Kanaan, Kec. Bontang Bar., Kota Bontang, Kalimantan Timur 75321","Kanaan, Kec. Bontang Bar., Kota Bontang",KALIMANTAN TIMUR,75321.0,Indonesia,8115422114.0,,,0.1397006,117.4626609,https://maps.google.com/?cid=0x0:0x8cdd6d69c0d8275f,
supermarket,Toko bahan makanan,Toko Karya Sakti 2,"4FJP+VV6, Jl. Jend. Achmad Yani, Api-Api, Kec. Bontang Utara, Kota Bontang, Kalimantan Timur 75325","Jl. Jend. Achmad Yani, Api-Api, Kec. Bontang Utara, Kota Bontang",KALIMANTAN TIMUR,75325.0,Indonesia,82357673974.0,,,0.1321709,117.4871447,https://maps.google.com/?cid=0x0:0xbce192e905bbf7fa,
supermarket,Toko Bahan Bangunan,Berlian Jaya Mart,"Jl. HM Ardans, Satimpo, Kec. Bontang Sel., Kota Bontang, Kalimantan Timur 75324","Satimpo, Kec. Bontang Sel., Kota Bontang",KALIMANTAN TIMUR,75324.0,Indonesia,82231415912.0,,,0.1270169,117.4725801,https://maps.google.com/?cid=0x0:0x1fb01a3ca1802592,
supermarket,Toko,Toko TIGA PUTRA SEJAHTERA,"Jl. Simon Tampubolon No.kel, Gn. Elai, Kec. Bontang Utara, Kota Bontang, Kalimantan Timur 75311","Gn. Elai, Kec. Bontang Utara, Kota Bontang",KALIMANTAN TIMUR,75311.0,Indonesia,,,,0.135078,117.4623009,https://maps.google.com/?cid=0x0:0xb6b91f8832bd2592,
supermarket,Toko Buah dan Sayuran,Wfresh,"5F9H+Q4R, Lok Tuan, Kec. Bontang Utara, Kota Bontang, Kalimantan Timur 75321","Lok Tuan, Kec. Bontang Utara, Kota Bontang",KALIMANTAN TIMUR,75321.0,Indonesia,,,,0.1694871,117.4777718,https://maps.google.com/?cid=0x0:0x2a9363cdef211238,
supermarket,Supermarket Diskon,HENDRA MART,"Jl. S. Parman No.KM 06 No.09, Kanaan, Kec. Bontang Bar., Kota Bontang, Kalimantan Timur 75383","Kanaan, Kec. Bontang Bar., Kota Bontang",KALIMANTAN TIMUR,75383.0,Indonesia,81347294046.0,,,0.1404075,117.4604358,https://maps.google.com/?cid=0x0:0x547f145c5b3bf3c4,
supermarket,Toko,Toko YUKY's,"Jl. Ahmad Yani No.009, Tanjung Laut, Bontang Selatan, Tj. Laut, Kec. Bontang Sel., Kota Bontang, Kalimantan Timur 75325","Tanjung Laut, Bontang Selatan, Tj. Laut, Kec. Bontang Sel., Kota Bontang",KALIMANTAN TIMUR,75325.0,Indonesia,81257200069.0,,,0.1288815,117.4845202,https://maps.google.com/?cid=0x0:0xbc6394297b0b9d23,
supermarket,Minimarket,Ta-Nia MART,"Jl. Manggis No.12 Blok H4, Belimbing, Kec. Bontang Bar., Kota Bontang, Kalimantan Timur 75325","Belimbing, Kec. Bontang Bar., Kota Bontang",KALIMANTAN TIMUR,75325.0,Indonesia,81350503888.0,,,0.1484974,117.4698561,https://maps.google.com/?cid=0x0:0xf684b41be76b7dda,
supermarket,Toko Swalayan,Abdullah,"Jl. Kapal Layar No.22, Lok Tuan, Kec. Bontang Utara, Kota Bontang, Kalimantan Timur 75321","Lok Tuan, Kec. Bontang Utara, Kota Bontang",KALIMANTAN TIMUR,75321.0,Indonesia,,,,0.1655394,117.4699469,https://maps.google.com/?cid=0x0:0x2ec4769f4ab8cc43,
supermarket,Toko bahan makanan,Agen Galon Le Mineral Toko Pisang Mas,"4FHF+383, Satimpo, Kec. Bontang Sel., Kota Bontang, Kalimantan Timur 75325","Satimpo, Kec. Bontang Sel., Kota Bontang",KALIMANTAN TIMUR,75325.0,Indonesia,,,,0.1276312,117.4733006,https://maps.google.com/?cid=0x0:0xf924cac1693c13b8,
supermarket,Toko Swalayan,Ilugi Benawa Putra,"JL. Imam Bonjol, RT. 07, Perumahan Bontang Permai Blok B No.04, Api-Api, Kec. Bontang Utara, Kota Bontang, Kalimantan Timur 75325","RT. 07, Perumahan Bontang Permai Blok B No.04, Api-Api, Kec. Bontang Utara, Kota Bontang",KALIMANTAN TIMUR,75325.0,Indonesia,54823159.0,,,0.1295332,117.4831261,https://maps.google.com/?cid=0x0:0x8acdcfacbc32874a,
supermarket,,Toko Surabaya Lok Tuan Bontang,"5F9J+RHW, Lok Tuan, Kec. Bontang Utara, Kota Bontang, Kalimantan Timur 75321","Lok Tuan, Kec. Bontang Utara, Kota Bontang",KALIMANTAN TIMUR,75321.0,Indonesia,,,,0.1696008,117.481442,https://maps.google.com/?cid=0x0:0x1515d0d8016efc97,
supermarket,Toko bahan makanan,E-warong Loktuan Sejahtera,"5FCJ+W4J, Lok Tuan, Kec. Bontang Utara, Kota Bontang, Kalimantan Timur 75321","Lok Tuan, Kec. Bontang Utara, Kota Bontang",KALIMANTAN TIMUR,75321.0,Indonesia,,,,0.1723302,117.4802739,https://maps.google.com/?cid=0x0:0xc2567cee4aa93dcd,
