Category,Real Category,Business Name,Address,City,State,Postal Code,Country,Phone,Email,Website,Latitude,Longitude,Map Link,Details Link
komplek housing,komplek housing,Kalimantan Timur 75313,"Kota Bontang, Kalimantan Timur","Kota Bontang, Kalimantan Timur",KALIMANTAN TIMUR,,Indonesia,,,,0.1379123,117.493321,https://maps.google.com/?cid=0x0:0xc31ada602112700b,
komplek housing,Komplek perumahan,Home Bontang,"BTN PKT, Jl. M Efendi No.N/03, Belimbing, Bontang Barat, Bontang City, East Kalimantan","Kota Bontang, Kalimantan Timur",KALIMANTAN TIMUR,,Indonesia,,,,0.1417596,117.4739362,https://maps.google.com/?cid=0x0:0x5b0139c9f0b2ddaa,
komplek housing,Komplek perumahan,Alika's home,"Jl. Awang Long Gg. 2 No.RT.19, Bontang Baru, Kec. Bontang Utara, Kota Bontang, Kalimantan Timur 75325","Bontang Baru, Kec. Bontang Utara, Kota Bontang",KALIMANTAN TIMUR,75325.0,Indonesia,,,,0.1379534,117.4916802,https://maps.google.com/?cid=0x0:0x87f96adafd513dd9,
komplek housing,Pembangunan Perumahan,Siko home,"4FVW+9V8, Jl. Cut Nyak Dien, Bontang Baru, Kec. Bontang Utara, Kota Bontang, Kalimantan Timur 75313","Jl. Cut Nyak Dien, Bontang Baru, Kec. Bontang Utara, Kota Bontang",KALIMANTAN TIMUR,75313.0,Indonesia,,,,0.1434129,117.497213,https://maps.google.com/?cid=0x0:0x32cf786ccc5f629b,
komplek housing,komplek housing,Asha Isha,"4FVW+H9J, Jl. Mulawarman, Bontang Baru, Kec. Bontang Utara, Kota Bontang, Kalimantan Timur 75313","Jl. Mulawarman, Bontang Baru, Kec. Bontang Utara, Kota Bontang",KALIMANTAN TIMUR,75313.0,Indonesia,,,,0.1439513,117.4958855,https://maps.google.com/?cid=0x0:0x3a1e0c07b087079a,
komplek housing,Pembangunan Perumahan,Khabib Homes,"Jl. Gamelan No.53, Bontang Baru, Kec. Bontang Utara, Kota Bontang, Kalimantan Timur 75325","Bontang Baru, Kec. Bontang Utara, Kota Bontang",KALIMANTAN TIMUR,75325.0,Indonesia,,,,0.1380528,117.4905248,https://maps.google.com/?cid=0x0:0xf0c6ce33fa97f322,
komplek housing,Komplek perumahan,Home,"Jl. MH. Thamrin No.77, Bontang Baru, Kec. Bontang Utara, Kota Bontang, Kalimantan Timur 75313","Bontang Baru, Kec. Bontang Utara, Kota Bontang",KALIMANTAN TIMUR,75313.0,Indonesia,,,,0.1428825,117.4925121,https://maps.google.com/?cid=0x0:0x9407630832b89445,
komplek housing,Otoritas Perumahan,Bolana Daus,"4FVW+H8P, Jl. Mulawarman, Api-Api, Kec. Bontang Utara, Kota Bontang, Kalimantan Timur 75313","Jl. Mulawarman, Api-Api, Kec. Bontang Utara, Kota Bontang",KALIMANTAN TIMUR,75313.0,Indonesia,85299994044.0,,,0.1439687,117.4958309,https://maps.google.com/?cid=0x0:0xe9d3293879215a44,
komplek housing,Komplek perumahan,Queen House,"Jl. Mulawarman Gg. Angklung No.49, Bontang Baru, Kec. Bontang Utara, Kota Bontang, Kalimantan Timur 75313","Bontang Baru, Kec. Bontang Utara, Kota Bontang",KALIMANTAN TIMUR,75313.0,Indonesia,,,,0.1400062,117.4935438,https://maps.google.com/?cid=0x0:0x8618eb79fbe820cd,
komplek housing,Komplek perumahan,Perumahan Asri Blok C No.7C,"Jl. Gendang 5 No.RT.21 BLOK C, Bontang Baru, Kec. Bontang Utara, Kota Bontang, Kalimantan Timur","Kota Bontang, Kalimantan Timur",KALIMANTAN TIMUR,,Indonesia,,,,0.1418183,117.4929636,https://maps.google.com/?cid=0x0:0xc2eaad8c4f77b44b,
komplek housing,Perumahan,Momy Nontje's,"Jl. Durian No.33, RT.29, Belimbing, Kec. Bontang Bar., Kota Bontang, Kalimantan Timur 75313","RT.29, Belimbing, Kec. Bontang Bar., Kota Bontang",KALIMANTAN TIMUR,75313.0,Indonesia,8125807833.0,,,0.147587,117.4708943,https://maps.google.com/?cid=0x0:0x135f064ad5baaec3,
komplek housing,Komplek perumahan,Ghistina land,"Jl. Mulawarman, Bontang Baru, Kec. Bontang Utara, Kota Bontang, Kalimantan Timur 75313","Bontang Baru, Kec. Bontang Utara, Kota Bontang",KALIMANTAN TIMUR,75313.0,Indonesia,,,,0.1449252,117.4917917,https://maps.google.com/?cid=0x0:0xbd79b023d5d906f4,
komplek housing,Perhimpunan Pengembang Perumahan,IrDa Home RT 23 No. 28,"4FMQ+VXX, Jl. R. Suprapto, Api-Api, Kec. Bontang Utara, Kota Bontang, Kalimantan Timur 75313","Jl. R. Suprapto, Api-Api, Kec. Bontang Utara, Kota Bontang",KALIMANTAN TIMUR,75313.0,Indonesia,,,,0.1346615,117.4899596,https://maps.google.com/?cid=0x0:0xa4db518a74703a95,
komplek housing,Komplek perumahan,Mamaku,"Gg. Piano 1 No.26b, RT.04, Bontang Baru, Kec. Bontang Utara, Kota Bontang, Kalimantan Timur 75313","RT.04, Bontang Baru, Kec. Bontang Utara, Kota Bontang",KALIMANTAN TIMUR,75313.0,Indonesia,,,,0.1345209,117.493282,https://maps.google.com/?cid=0x0:0x388b5d13d0cead7f,
komplek housing,Toko bahan makanan,Dita house,"4FWF+2MF, Jl. Pipit, Belimbing, Kec. Bontang Bar., Kota Bontang, Kalimantan Timur 75313","Jl. Pipit, Belimbing, Kec. Bontang Bar., Kota Bontang",KALIMANTAN TIMUR,75313.0,Indonesia,,,,0.1450522,117.4741583,https://maps.google.com/?cid=0x0:0x441c7645d153a08f,
komplek housing,Komplek perumahan,Home Minche food,"4FMP+WVM, Api-Api, Kec. Bontang Utara, Kota Bontang, Kalimantan Timur 75313","Api-Api, Kec. Bontang Utara, Kota Bontang",KALIMANTAN TIMUR,75313.0,Indonesia,,,,0.1348476,117.4871653,https://maps.google.com/?cid=0x0:0xafd02fe75fc1a3cb,
komplek housing,Komplek perumahan,Tanah Haji Nuar Zebra,"4FJW+GW8, Gg. Atletik 11, Bontang Baru, Kec. Bontang Utara, Kota Bontang, Kalimantan Timur 75313","Gg. Atletik 11, Bontang Baru, Kec. Bontang Utara, Kota Bontang",KALIMANTAN TIMUR,75313.0,Indonesia,,,,0.1312964,117.4973282,https://maps.google.com/?cid=0x0:0xae67eb5e5e17fc34,
komplek housing,Komplek perumahan,Jalan Banteng,"4FVF+FCG, BASRI HOME, Perum BTN PKT, Belimbing, Kec. Bontang Bar., Kota Bontang, Kalimantan Timur 75313","BASRI HOME, Perum BTN PKT, Belimbing, Kec. Bontang Bar., Kota Bontang",KALIMANTAN TIMUR,75313.0,Indonesia,,,,0.1436858,117.4735786,https://maps.google.com/?cid=0x0:0xbed2711e496bdd69,
komplek housing,Pembangunan Perumahan,C9 perum Green Pesona Permai,"4FMP+M7M, Api-Api, Kec. Bontang Utara, Kota Bontang, Kalimantan Timur 75313","Api-Api, Kec. Bontang Utara, Kota Bontang",KALIMANTAN TIMUR,75313.0,Indonesia,,,,0.1342186,117.4856873,https://maps.google.com/?cid=0x0:0x7251bfac7b706893,
komplek housing,Komplek perumahan,Adit fathan,"Jl. Semangka No.26, Belimbing, Kec. Bontang Bar., Kota Bontang, Kalimantan Timur 75313","Belimbing, Kec. Bontang Bar., Kota Bontang",KALIMANTAN TIMUR,75313.0,Indonesia,,,,0.1472002,117.4704714,https://maps.google.com/?cid=0x0:0x5488793abee995ff,
komplek housing,Komplek perumahan,Tempat Jual Beli Iphone Bontang,"4FV9+3H3, Belimbing, Kec. Bontang Bar., Kota Bontang, Kalimantan Timur","Kota Bontang, Kalimantan Timur",KALIMANTAN TIMUR,,Indonesia,81273643406.0,,,0.1426471,117.4689275,https://maps.google.com/?cid=0x0:0x1f5ccb3aded63f34,
komplek housing,,I Love Bontang Kuala,"4GQ7+CXC, Jl. Piere Tandean, Bontang Kuala, Kota Bontang, Kalimantan Timur 75313","Jl. Piere Tandean, Bontang Kuala, Kota Bontang",KALIMANTAN TIMUR,75313.0,Indonesia,,,,0.1385544,117.5149041,https://maps.google.com/?cid=0x0:0x253a9f67fb3879a4,
komplek housing,Komplek perumahan,Rumah Sandi,"4FW9+5V6 OO 03 BTN PKT, Jl. Anoa, Belimbing, Bontang Barat, Bontang City, East Kalimantan 75313","Jl. Anoa, Belimbing, Bontang Barat, Bontang City",KALIMANTAN TIMUR,75313.0,Indonesia,,,,0.1454245,117.4696391,https://maps.google.com/?cid=0x0:0x8be05c33aa47904e,
komplek housing,Komplek perumahan,Perumahan Citra Khatulistiwa,"4GJ2+HGM, Jl. Aip II KS Tubun langlang Gg. breksi, RT.008/RW.No.42, Bontang Kuala, Kec. Bontang Utara, Kota Bontang, Kalimantan Timur 75325","Jl. Aip II KS Tubun langlang Gg. breksi, RT.008/RW.No.42, Bontang Kuala, Kec. Bontang Utara, Kota Bontang",KALIMANTAN TIMUR,75325.0,Indonesia,85280001613.0,,,0.1314546,117.5012837,https://maps.google.com/?cid=0x0:0x6dc5e8860ce5e29e,
komplek housing,Komplek perumahan,Perumahan Qhistina No. 7,"4FVR+RMG, Jl. Mulawarman, Perumahan Qhistina, Bontang Baru, Kec. Bontang Utara, Kota Bontang, Kalimantan Timur 75313","Jl. Mulawarman, Perumahan Qhistina, Bontang Baru, Kec. Bontang Utara, Kota Bontang",KALIMANTAN TIMUR,75313.0,Indonesia,,,,0.1445694,117.4917009,https://maps.google.com/?cid=0x0:0x5b6ffd63eee20cf8,
komplek housing,Komplek perumahan,Rumah,"Jl. Anggrek No.a-24, Belimbing, Kec. Bontang Bar., Kota Bontang, Kalimantan Timur 75325","Belimbing, Kec. Bontang Bar., Kota Bontang",KALIMANTAN TIMUR,75325.0,Indonesia,,,,0.1409134,117.4697282,https://maps.google.com/?cid=0x0:0x1eb7e8c43566ca7a,
komplek housing,komplek housing,Kec. Bontang Bar.,"Kota Bontang, Kalimantan Timur","Kota Bontang, Kalimantan Timur",KALIMANTAN TIMUR,,Indonesia,,,,0.1372358,117.4548496,https://maps.google.com/?cid=0x0:0xdc6d300939175081,
komplek housing,Lembaga Agama,Majelis HCD,"Jl. Selat Gaspor 1 No.28, RT.34, Tj. Laut, Kec. Bontang Sel., Kota Bontang, Kalimantan Timur 75325","RT.34, Tj. Laut, Kec. Bontang Sel., Kota Bontang",KALIMANTAN TIMUR,75325.0,Indonesia,,,,0.1244115,117.4889655,https://maps.google.com/?cid=0x0:0x3944442a768dccb7,
komplek housing,Komplek perumahan,HM Dom 24 A,"5F2G+GGR, Jl. Gn. Burangrang, Gn. Elai, Kec. Bontang Utara, Kota Bontang, Kalimantan Timur 75313","Jl. Gn. Burangrang, Gn. Elai, Kec. Bontang Utara, Kota Bontang",KALIMANTAN TIMUR,75313.0,Indonesia,,,,0.1513524,117.4762654,https://maps.google.com/?cid=0x0:0x4df0688f53823ea8,
komplek housing,komplek housing,Kec. Bontang Bar.,"Kota Bontang, Kalimantan Timur","Kota Bontang, Kalimantan Timur",KALIMANTAN TIMUR,,Indonesia,,,,0.1372358,117.4548496,https://maps.google.com/?cid=0x0:0xdc6d300939175081,
komplek housing,Komplek perumahan,Home,"BTN PKT, Jl. Anggrek No.A17, Belimbing, Bontang Barat, Bontang City, East Kalimantan 75325","Jl. Anggrek No.A17, Belimbing, Bontang Barat, Bontang City",KALIMANTAN TIMUR,75325.0,Indonesia,,,,0.1409694,117.4699898,https://maps.google.com/?cid=0x0:0x4bfc99e1ad3aab31,
komplek housing,Komplek perumahan,Tempat Jual Beli Iphone Bontang,"4FV9+3H3, Belimbing, Kec. Bontang Bar., Kota Bontang, Kalimantan Timur","Kota Bontang, Kalimantan Timur",KALIMANTAN TIMUR,,Indonesia,81273643406.0,,,0.1426471,117.4689275,https://maps.google.com/?cid=0x0:0x1f5ccb3aded63f34,
komplek housing,Komplek perumahan,Perumahan HOP 4 PT Badak NGL,"4FJ7+X85, Jl. Simon Tampubolon, Gn. Elai, Kec. Bontang Utara, Kota Bontang, Kalimantan Timur 75325","Jl. Simon Tampubolon, Gn. Elai, Kec. Bontang Utara, Kota Bontang",KALIMANTAN TIMUR,75325.0,Indonesia,,,,0.132393,117.463349,https://maps.google.com/?cid=0x0:0x7d2ee76355f06b90,
komplek housing,Komplek perumahan,Hibiscus3,"Jl. Kembang Sepatu No.3, Belimbing, Kec. Bontang Bar., Kota Bontang, Kalimantan Timur 75321","Belimbing, Kec. Bontang Bar., Kota Bontang",KALIMANTAN TIMUR,75321.0,Indonesia,,,,0.1519814,117.4595181,https://maps.google.com/?cid=0x0:0x780a6a8b826b36b5,
komplek housing,Komplek perumahan,Lily 9,"5F24+3VM, Belimbing, Kec. Bontang Bar., Kota Bontang, Kalimantan Timur","Kota Bontang, Kalimantan Timur",KALIMANTAN TIMUR,,Indonesia,,,,0.1502136,117.4571759,https://maps.google.com/?cid=0x0:0x4ad9825e20a07b25,
komplek housing,Otoritas Perumahan,Perumahan Badak LNG PC 6B 17A,"PC, Jl. Gn. Rinjani No.17A 6B, Satimpo, Kec. Bontang Sel., Kota Bontang, Kalimantan Timur 75325","Jl. Gn. Rinjani No.17A 6B, Satimpo, Kec. Bontang Sel., Kota Bontang",KALIMANTAN TIMUR,75325.0,Indonesia,,,,0.1197044,117.4689987,https://maps.google.com/?cid=0x0:0xeedbbe7c3fdb4f0a,
komplek housing,Komplek perumahan,PC 6C 80D,"4FF7+W6W, Jl. A.R. Hakim, Satimpo, Kec. Bontang Sel., Kota Bontang, Kalimantan Timur 75325","Jl. A.R. Hakim, Satimpo, Kec. Bontang Sel., Kota Bontang",KALIMANTAN TIMUR,75325.0,Indonesia,,,,0.1248624,117.4630925,https://maps.google.com/?cid=0x0:0xeb986a8be4d5dd9f,
komplek housing,Komplek perumahan,Trief,"Jl. Matahari No.09, Belimbing, Kec. Bontang Bar., Kota Bontang, Kalimantan Timur 75321","Belimbing, Kec. Bontang Bar., Kota Bontang",KALIMANTAN TIMUR,75321.0,Indonesia,,,,0.1491457,117.4625826,https://maps.google.com/?cid=0x0:0x40fa7e6a8cc99c55,
komplek housing,Komplek perumahan,Home Bontang,"BTN PKT, Jl. M Efendi No.N/03, Belimbing, Bontang Barat, Bontang City, East Kalimantan","Kota Bontang, Kalimantan Timur",KALIMANTAN TIMUR,,Indonesia,,,,0.1417596,117.4739362,https://maps.google.com/?cid=0x0:0x5b0139c9f0b2ddaa,
komplek housing,Komplek perumahan,Vhee,"Jl. Semarang No.156, Gn. Telihan, Kec. Bontang Bar., Kota Bontang, Kalimantan Timur 75321","Gn. Telihan, Kec. Bontang Bar., Kota Bontang",KALIMANTAN TIMUR,75321.0,Indonesia,,,,0.1382376,117.4530339,https://maps.google.com/?cid=0x0:0x14ea20e950cbf260,
komplek housing,Pembangunan Perumahan,MABES (ABANG JAGO LUNDAYEH),"4CJX+V7Q, Gn. Telihan, Kec. Bontang Bar., Kota Bontang, Kalimantan Timur","Kota Bontang, Kalimantan Timur",KALIMANTAN TIMUR,,Indonesia,,,,0.1322107,117.4482398,https://maps.google.com/?cid=0x0:0xa5812132fc37fd89,
komplek housing,Komplek perumahan,PC PKT Jalan kenanga,"4FW4+VX6 PC PKT, Jl. Kenanga, Belimbing, Kec. Bontang Bar., Kota Bontang, Kalimantan Timur 75321","Jl. Kenanga, Belimbing, Kec. Bontang Bar., Kota Bontang",KALIMANTAN TIMUR,75321.0,Indonesia,,,,0.1471706,117.4573952,https://maps.google.com/?cid=0x0:0x723dfcbeaf3f4af1,
komplek housing,Komplek perumahan,RH House,"Perumahan Disnaker, Jl. Damai No.29 Blok B, RT.30, Gn. Telihan, Kec. Bontang Bar., Kota Bontang, Kalimantan Timur","Kota Bontang, Kalimantan Timur",KALIMANTAN TIMUR,,Indonesia,,,,0.1337427,117.4609963,https://maps.google.com/?cid=0x0:0xe2942239e346bd29,
komplek housing,Perumahan,Rumah BTN,"Hub_Cs_BTN.(0858)_5220_1554, Jl. Bekantan No.23, Belimbing, Kec. Bontang Bar., Kota Bontang, Kalimantan Timur 75325","Jl. Bekantan No.23, Belimbing, Kec. Bontang Bar., Kota Bontang",KALIMANTAN TIMUR,75325.0,Indonesia,,,,0.1459676,117.4718959,https://maps.google.com/?cid=0x0:0xe70430691f0baa32,
komplek housing,Pembangunan Perumahan,Rumah Akhdan,"Jl. Kaca Piring No.2, Belimbing, Kec. Bontang Bar., Kota Bontang, Kalimantan Timur 75321","Belimbing, Kec. Bontang Bar., Kota Bontang",KALIMANTAN TIMUR,75321.0,Indonesia,,,,0.1517112,117.45893,https://maps.google.com/?cid=0x0:0x71217ab711cc4271,
komplek housing,Komplek perumahan,Home,"PC VI PKT, Jl. Melati No.30, Belimbing, Bontang Barat, Bontang City, East Kalimantan 75321","Jl. Melati No.30, Belimbing, Bontang Barat, Bontang City",KALIMANTAN TIMUR,75321.0,Indonesia,,,,0.1482469,117.4636335,https://maps.google.com/?cid=0x0:0x92e9fe87fd542715,
komplek housing,Komplek perumahan,PC 6C-140C Komplek PT Badak NGL,"4FC9+G5P, Jl. Bengkirai, Satimpo, Kec. Bontang Sel., Kota Bontang, Kalimantan Timur 75325","Jl. Bengkirai, Satimpo, Kec. Bontang Sel., Kota Bontang",KALIMANTAN TIMUR,75325.0,Indonesia,,,,0.1213458,117.4679649,https://maps.google.com/?cid=0x0:0x9680a812e278a094,
komplek housing,komplek housing,Lutri,"Jl. Pontianak I No.44a, Gn. Telihan, Kec. Bontang Bar., Kota Bontang, Kalimantan Timur 75321","Gn. Telihan, Kec. Bontang Bar., Kota Bontang",KALIMANTAN TIMUR,75321.0,Indonesia,,,,0.1336092,117.4531947,https://maps.google.com/?cid=0x0:0x16632d1614b9ece,
komplek housing,Pembangunan Perumahan,P BD.,"Jl. Kalimantan Hop 5 No.156, RT.05, Gn. Telihan, Kec. Bontang Bar., Kota Bontang, Kalimantan Timur 75383","RT.05, Gn. Telihan, Kec. Bontang Bar., Kota Bontang",KALIMANTAN TIMUR,75383.0,Indonesia,,,,0.1381764,117.4633016,https://maps.google.com/?cid=0x0:0xb2094f96e57ad93b,
komplek housing,Perhimpunan Pengembang Perumahan,Rumah Bp Evlan Samban,"Jl. Pongtiku No.3, RT.01/RW.no, 24a, Kanaan, Kec. Bontang Bar., Kota Bontang, Kalimantan Timur 75321","RT.01/RW.no, 24a, Kanaan, Kec. Bontang Bar., Kota Bontang",KALIMANTAN TIMUR,75321.0,Indonesia,,,,0.1347348,117.458564,https://maps.google.com/?cid=0x0:0x615f3dfe2bb9f2a8,
komplek housing,Komplek perumahan,Purple House,"Jl. Denpasar No.6, Kanaan, Kec. Bontang Bar., Kota Bontang, Kalimantan Timur 75383","Kanaan, Kec. Bontang Bar., Kota Bontang",KALIMANTAN TIMUR,75383.0,Indonesia,,,,0.138608,117.461328,https://maps.google.com/?cid=0x0:0x512bcaec6f27d740,
komplek housing,komplek housing,Kalimantan Timur 75321,"Kec. Tlk. Pandan, Kabupaten Kutai Timur, Kalimantan Timur","Kabupaten Kutai Timur, Kalimantan Timur",KALIMANTAN TIMUR,,Indonesia,,,,0.1825802,117.4321452,https://maps.google.com/?cid=0x0:0x70eac15f80c6d3d5,
komplek housing,Komplek perumahan,Sakura 17,"PC 6 PKT, Jl. Sakura No.17, Belimbing, Bontang Barat, Bontang City, East Kalimantan 75321","Jl. Sakura No.17, Belimbing, Bontang Barat, Bontang City",KALIMANTAN TIMUR,75321.0,Indonesia,,,,0.1471582,117.4666898,https://maps.google.com/?cid=0x0:0x3c2cb70cc3d5eedc,
komplek housing,Komplek perumahan,Home,"PC VI PKT, Jl. Melati No.30, Belimbing, Bontang Barat, Bontang City, East Kalimantan 75321","Jl. Melati No.30, Belimbing, Bontang Barat, Bontang City",KALIMANTAN TIMUR,75321.0,Indonesia,,,,0.1482469,117.4636335,https://maps.google.com/?cid=0x0:0x92e9fe87fd542715,
komplek housing,komplek housing,Kampung Rawa Lok Tuan,"5F8M+H8J, Gg. Padaelo, Lok Tuan, Kec. Bontang Utara, Kota Bontang, Kalimantan Timur 75321","Gg. Padaelo, Lok Tuan, Kec. Bontang Utara, Kota Bontang",KALIMANTAN TIMUR,75321.0,Indonesia,,,,0.166452,117.4832624,https://maps.google.com/?cid=0x0:0x55b7bc08f9387bd5,
komplek housing,Komplek perumahan,Wahida Home,"5F93+6F5, Belimbing, Kec. Bontang Bar., Kota Bontang, Kalimantan Timur 75321","Belimbing, Kec. Bontang Bar., Kota Bontang",KALIMANTAN TIMUR,75321.0,Indonesia,,,,0.1676636,117.4534158,https://maps.google.com/?cid=0x0:0x2a03d4586f55d9d6,
komplek housing,Komplek perumahan,Perumahan HOP,"Perumahan HOP 1, Jl. Mahoni No.89, RT.19, Satimpo, Bontang Selatan, Bontang City, East Kalimantan 75325","Jl. Mahoni No.89, RT.19, Satimpo, Bontang Selatan, Bontang City",KALIMANTAN TIMUR,75325.0,Indonesia,,,,0.1281216,117.4700998,https://maps.google.com/?cid=0x0:0x662eda7483489954,
komplek housing,,Belakang Housing/Belakang Equator,"5FQF+787 I (Belakang Housing/Belakang Equator, Jl. Tari Dewa-Dewa, Guntung, Kec. Bontang Utara, Kota Bontang, Kalimantan Timur 75321","Jl. Tari Dewa-Dewa, Guntung, Kec. Bontang Utara, Kota Bontang",KALIMANTAN TIMUR,75321.0,Indonesia,,,,0.1881635,117.4733007,https://maps.google.com/?cid=0x0:0x42a3478c29cc5ae,
komplek housing,Komplek perumahan,PC PKT Jalan kenanga,"4FW4+VX6 PC PKT, Jl. Kenanga, Belimbing, Kec. Bontang Bar., Kota Bontang, Kalimantan Timur 75321","Jl. Kenanga, Belimbing, Kec. Bontang Bar., Kota Bontang",KALIMANTAN TIMUR,75321.0,Indonesia,,,,0.1471706,117.4573952,https://maps.google.com/?cid=0x0:0x723dfcbeaf3f4af1,
komplek housing,Komplek perumahan,Rumah Gianna,"Jl. Kapal Tanker I No.10, Lok Tuan, Kec. Bontang Utara, Kota Bontang, Kalimantan Timur 75321","Lok Tuan, Kec. Bontang Utara, Kota Bontang",KALIMANTAN TIMUR,75321.0,Indonesia,,,,0.1738592,117.4684997,https://maps.google.com/?cid=0x0:0xd6408ba31c948ade,
komplek housing,komplek housing,Zahra HOME,"PC PKT, Jl. Gladiol No.59, Belimbing, Kec. Bontang Bar., Kota Bontang, Kalimantan Timur 75321","Jl. Gladiol No.59, Belimbing, Kec. Bontang Bar., Kota Bontang",KALIMANTAN TIMUR,75321.0,Indonesia,,,,0.1471706,117.4573952,https://maps.google.com/?cid=0x0:0x5b9d38def90ffc8,
komplek housing,komplek housing,Home familli hartono,"Jl. Kapal Pinisi 1 No.28, Lok Tuan, Kec. Bontang Utara, Kota Bontang, Kalimantan Timur 75321","Lok Tuan, Kec. Bontang Utara, Kota Bontang",KALIMANTAN TIMUR,75321.0,Indonesia,,,,0.1739094,117.4730089,https://maps.google.com/?cid=0x0:0x13c1647d6afd6bf4,
komplek housing,komplek housing,Rey's House,"5F89+GWX, Lok Tuan, Kec. Bontang Utara, Kota Bontang, Kalimantan Timur 75321","Lok Tuan, Kec. Bontang Utara, Kota Bontang",KALIMANTAN TIMUR,75321.0,Indonesia,,,,0.1663648,117.469854,https://maps.google.com/?cid=0x0:0xffb2053cedf8ef83,
komplek housing,komplek housing,Rumah,"Jl. Kapal Layar No.1, Lok Tuan, Kec. Bontang Utara, Kota Bontang, Kalimantan Timur 75321","Lok Tuan, Kec. Bontang Utara, Kota Bontang",KALIMANTAN TIMUR,75321.0,Indonesia,,,,0.1651468,117.4698379,https://maps.google.com/?cid=0x0:0xca51febfc1573344,
komplek housing,Komplek perumahan,Tama House,"No.1 no. 78, Jl. Kapal Feri, Lok Tuan, Kec. Bontang Utara, Kota Bontang, Kalimantan Timur 75321","Jl. Kapal Feri, Lok Tuan, Kec. Bontang Utara, Kota Bontang",KALIMANTAN TIMUR,75321.0,Indonesia,,,,0.16519,117.4833129,https://maps.google.com/?cid=0x0:0xe371290aa7e997d2,
komplek housing,Komplek perumahan,HomeKal,"5F7M+VHX, Unnamed Road, Lok Tuan, Kec. Bontang Utara, Kota Bontang, Kalimantan Timur 75321","Unnamed Road, Lok Tuan, Kec. Bontang Utara, Kota Bontang",KALIMANTAN TIMUR,75321.0,Indonesia,,,,0.164727,117.4839879,https://maps.google.com/?cid=0x0:0x87ef902616a4f382,
komplek housing,Komplek perumahan,Kei's Home,"PC PKT, Jl. Kemuning No.20, Belimbing, Kec. Bontang Bar., Kota Bontang, Kalimantan Timur 75321","Jl. Kemuning No.20, Belimbing, Kec. Bontang Bar., Kota Bontang",KALIMANTAN TIMUR,75321.0,Indonesia,,,,0.1443999,117.4595024,https://maps.google.com/?cid=0x0:0x792f28cba1f2839c,
komplek housing,Komplek perumahan,Kemuning 5 House,"Jl. Kemuning No.5, Belimbing, Kec. Bontang Bar., Kota Bontang, Kalimantan Timur 75321","Belimbing, Kec. Bontang Bar., Kota Bontang",KALIMANTAN TIMUR,75321.0,Indonesia,,,,0.1468109,117.4584811,https://maps.google.com/?cid=0x0:0x670d98ff07947d7,
komplek housing,Pembangunan Perumahan,Nihat Nishad’s House,"Jl. Manggar No.01, Belimbing, Kec. Bontang Bar., Kota Bontang, Kalimantan Timur 75321","Belimbing, Kec. Bontang Bar., Kota Bontang",KALIMANTAN TIMUR,75321.0,Indonesia,,,,0.1526691,117.4602414,https://maps.google.com/?cid=0x0:0x1ec61faba9cda41d,
komplek housing,komplek housing,Kec. Bontang Sel.,"Kota Bontang, Kalimantan Timur","Kota Bontang, Kalimantan Timur",KALIMANTAN TIMUR,,Indonesia,,,,0.1171356,117.4791563,https://maps.google.com/?cid=0x0:0x2bfd00a039b77869,
komplek housing,Komplek perumahan,Perumahan Guru,"5F8J+RCF, Gg. Kedondong, Lok Tuan, Kec. Bontang Utara, Kota Bontang, Kalimantan Timur 75321","Gg. Kedondong, Lok Tuan, Kec. Bontang Utara, Kota Bontang",KALIMANTAN TIMUR,75321.0,Indonesia,,,,0.1670684,117.4810718,https://maps.google.com/?cid=0x0:0x9cb1fb0f076009e3,
komplek housing,Komplek perumahan,Home,"Komplek Perum. PT Badak NGL, PC 6C Milenium No. 157A, Satimpo, Bontang Selatan, East Kalimantan 75321","PC 6C Milenium No. 157A, Satimpo, Bontang Selatan",KALIMANTAN TIMUR,75321.0,Indonesia,,,,0.1211442,117.4710821,https://maps.google.com/?cid=0x0:0xe05f2faeb88afb0f,
komplek housing,Komplek perumahan,QQ home,"4FQ4+GCM, Jl. Balikpapan 1, Kanaan, Kec. Bontang Bar., Kota Bontang, Kalimantan Timur 75321","Jl. Balikpapan 1, Kanaan, Kec. Bontang Bar., Kota Bontang",KALIMANTAN TIMUR,75321.0,Indonesia,,,,0.1389196,117.4560081,https://maps.google.com/?cid=0x0:0xef842ecf13063b5d,
komplek housing,Perhimpunan Pengembang Perumahan,PC 3 No 86,"PT Badak NGL, Jl. Batam No.86, Satimpo, Bontang Selatan, Bontang City, East Kalimantan 75321","Jl. Batam No.86, Satimpo, Bontang Selatan, Bontang City",KALIMANTAN TIMUR,75321.0,Indonesia,,,,0.1151995,117.4541276,https://maps.google.com/?cid=0x0:0xd4279c65a221cedd,
komplek housing,Perhimpunan Pengembang Perumahan,home,"4FJ3+XVF, Jl. Asmawarman, Kanaan, Kec. Bontang Bar., Kota Bontang, Kalimantan Timur 75321","Jl. Asmawarman, Kanaan, Kec. Bontang Bar., Kota Bontang",KALIMANTAN TIMUR,75321.0,Indonesia,,,,0.1326471,117.4544009,https://maps.google.com/?cid=0x0:0x65d46ad7dd60a62a,
komplek housing,Komplek perumahan,Syakara's Crib,"kompleks PT Badak NGL, Jl.tarakan 1 no.116 PC.4, Satimpo, Bontang Selatan, Bontang City, East Kalimantan 75321","Jl.tarakan 1 no.116 PC.4, Satimpo, Bontang Selatan, Bontang City",KALIMANTAN TIMUR,75321.0,Indonesia,,,,0.112044,117.45299,https://maps.google.com/?cid=0x0:0x16d28159203f86ac,
komplek housing,Komplek perumahan,Rumah,"Jl. Melati No.6, Belimbing, Kec. Bontang Bar., Kota Bontang, Kalimantan Timur 75321","Belimbing, Kec. Bontang Bar., Kota Bontang",KALIMANTAN TIMUR,75321.0,Indonesia,,,,0.1413652,117.4691285,https://maps.google.com/?cid=0x0:0x5c86c75a440b28b8,
komplek housing,Komplek perumahan,Rumah,"Jl. Selat Selayar No.5, Tj. Laut, Kec. Bontang Sel., Kota Bontang, Kalimantan Timur 75321","Tj. Laut, Kec. Bontang Sel., Kota Bontang",KALIMANTAN TIMUR,75321.0,Indonesia,,,,0.1237405,117.4801418,https://maps.google.com/?cid=0x0:0xc6e8a308a06c0f42,
komplek housing,Komplek perumahan,Ambe' rara',"Jln flobamora No.7, Gn. Telihan, Kec. Bontang Bar., Kota Bontang, Kalimantan Timur 75321","Gn. Telihan, Kec. Bontang Bar., Kota Bontang",KALIMANTAN TIMUR,75321.0,Indonesia,,,,0.121746,117.444747,https://maps.google.com/?cid=0x0:0x16d7adc5fcd20ae2,
komplek housing,Perhimpunan Pengembang Perumahan,ephink ghitza adit,"4FJ4+52C, Jl. Damai, Gn. Telihan, Kec. Bontang Bar., Kota Bontang, Kalimantan Timur 75321","Jl. Damai, Gn. Telihan, Kec. Bontang Bar., Kota Bontang",KALIMANTAN TIMUR,75321.0,Indonesia,,,,0.130429,117.4550177,https://maps.google.com/?cid=0x0:0x62d037cba2e9dd68,
komplek housing,komplek housing,Kalimantan Timur 75324,"Kec. Bontang Sel., Kota Bontang, Kalimantan Timur","Kota Bontang, Kalimantan Timur",KALIMANTAN TIMUR,,Indonesia,,,,0.1495015,117.2911248,https://maps.google.com/?cid=0x0:0x38f97e9610099fa,
komplek housing,Komplek perumahan,Home,"4FGJ+JMM, Tj. Laut, Kec. Bontang Sel., Kota Bontang, Kalimantan Timur","Kota Bontang, Kalimantan Timur",KALIMANTAN TIMUR,,Indonesia,,,,0.1265933,117.4816785,https://maps.google.com/?cid=0x0:0xd63b7b787c941dc6,
komplek housing,Komplek perumahan,PC6C Komplek Perumahan PT.Badak NGL,"4FG9+8JQ, Unnamed Road, Satimpo, Bontang Selatan, Bontang City, East Kalimantan 75325","Unnamed Road, Satimpo, Bontang Selatan, Bontang City",KALIMANTAN TIMUR,75325.0,Indonesia,,,,0.1258459,117.4691143,https://maps.google.com/?cid=0x0:0xeb65940fdff82b34,
komplek housing,Perusahaan Pertambangan,Perumahan Bumi Persada Indah (PAMA),"Unnamed Road, Bontang Sel., 75325, Bontang Lestari, Kec. Bontang Sel., Kota Bontang, Kalimantan Timur 75325","Bontang Sel.,",KALIMANTAN TIMUR,75325.0,Indonesia,,,,0.0677576,117.4607328,https://maps.google.com/?cid=0x0:0x594a27dc8b3a270c,
komplek housing,Otoritas Perumahan,PC 4 / 232,"4F54+VP5, Jl. Plaju 2, Satimpo, Kec. Bontang Sel., Kota Bontang, Kalimantan Timur 75325","Jl. Plaju 2, Satimpo, Kec. Bontang Sel., Kota Bontang",KALIMANTAN TIMUR,75325.0,Indonesia,,,,0.109629,117.4568534,https://maps.google.com/?cid=0x0:0x18e693638ea6d25e,
komplek housing,Komplek perumahan,pc 6c 26a,"pc 6c 26a, Satimpo, Bontang Selatan, Bontang City, East Kalimantan 75325","Satimpo, Bontang Selatan, Bontang City",KALIMANTAN TIMUR,75325.0,Indonesia,,,,0.119639,117.4677067,https://maps.google.com/?cid=0x0:0x7d70313ea3449fbf,
komplek housing,Komplek perumahan,PC 6C/135B,"4FG9+Q55, Satimpo, Kec. Bontang Sel., Kota Bontang, Kalimantan Timur 75325","Satimpo, Kec. Bontang Sel., Kota Bontang",KALIMANTAN TIMUR,75325.0,Indonesia,,,,0.1270367,117.4682078,https://maps.google.com/?cid=0x0:0xcb23014a90fc1d3a,
komplek housing,Komplek perumahan,PC 6C 80D,"4FF7+W6W, Jl. A.R. Hakim, Satimpo, Kec. Bontang Sel., Kota Bontang, Kalimantan Timur 75325","Jl. A.R. Hakim, Satimpo, Kec. Bontang Sel., Kota Bontang",KALIMANTAN TIMUR,75325.0,Indonesia,,,,0.1248624,117.4630925,https://maps.google.com/?cid=0x0:0xeb986a8be4d5dd9f,
komplek housing,Komplek perumahan,Yoga House,"Jl. Selat Bali No.19b, Tj. Laut, Kec. Bontang Sel., Kota Bontang, Kalimantan Timur 75325","Tj. Laut, Kec. Bontang Sel., Kota Bontang",KALIMANTAN TIMUR,75325.0,Indonesia,,,,0.125233,117.4814579,https://maps.google.com/?cid=0x0:0xec26f07e36069c55,
komplek housing,komplek housing,rumah pak udirman,"Jl.Satya Lencana 2, RT.10, Bontang Lestari, Kec. Bontang Sel.","Kota Bontang, Kalimantan Timur",KALIMANTAN TIMUR,,Indonesia,,,,0.0496978,117.4321452,https://maps.google.com/?cid=0x0:0xbd79a51e7d47f948,
komplek housing,Komplek perumahan,PC 6C-140C Komplek PT Badak NGL,"4FC9+G5P, Jl. Bengkirai, Satimpo, Kec. Bontang Sel., Kota Bontang, Kalimantan Timur 75325","Jl. Bengkirai, Satimpo, Kec. Bontang Sel., Kota Bontang",KALIMANTAN TIMUR,75325.0,Indonesia,,,,0.1213458,117.4679649,https://maps.google.com/?cid=0x0:0x9680a812e278a094,
komplek housing,Pembangunan Perumahan,Nihat Nishad’s House,"Jl. Manggar No.01, Belimbing, Kec. Bontang Bar., Kota Bontang, Kalimantan Timur 75321","Belimbing, Kec. Bontang Bar., Kota Bontang",KALIMANTAN TIMUR,75321.0,Indonesia,,,,0.1526691,117.4602414,https://maps.google.com/?cid=0x0:0x1ec61faba9cda41d,
komplek housing,Komplek perumahan,Wahida Home,"5F93+6F5, Belimbing, Kec. Bontang Bar., Kota Bontang, Kalimantan Timur 75321","Belimbing, Kec. Bontang Bar., Kota Bontang",KALIMANTAN TIMUR,75321.0,Indonesia,,,,0.1676636,117.4534158,https://maps.google.com/?cid=0x0:0x2a03d4586f55d9d6,
komplek housing,Komplek perumahan,PC 6C/102C,"4FG8+79M, Jl. A.R. Hakim Gg. Jati, Satimpo, Kec. Bontang Sel., Kota Bontang, Kalimantan Timur 75325","Jl. A.R. Hakim Gg. Jati, Satimpo, Kec. Bontang Sel., Kota Bontang",KALIMANTAN TIMUR,75325.0,Indonesia,,,,0.1257148,117.4659289,https://maps.google.com/?cid=0x0:0xa9d7a44c8f321c25,
komplek housing,Komplek perumahan,Yahya's House,"4FFQ+P7M, Jl. Selat Gaspor 1, Tj. Laut, Kec. Bontang Sel., Kota Bontang, Kalimantan Timur 75325","Jl. Selat Gaspor 1, Tj. Laut, Kec. Bontang Sel., Kota Bontang",KALIMANTAN TIMUR,75325.0,Indonesia,,,,0.124326,117.4881695,https://maps.google.com/?cid=0x0:0x5139531ab63a69e9,
komplek housing,Perhimpunan Pengembang Perumahan,Perumahan Griya Sentosa,"Jl. Gambas No.14, Satimpo, Kec. Bontang Sel., Kota Bontang, Kalimantan Timur 75325","Satimpo, Kec. Bontang Sel., Kota Bontang",KALIMANTAN TIMUR,75325.0,Indonesia,,,,0.1312173,117.4711116,https://maps.google.com/?cid=0x0:0x5e02285fc6808e6b,
komplek housing,Kantor Perusahaan,segendis,"2FX2+X25, Bontang Lestari, Kec. Bontang Sel., Kota Bontang, Kalimantan Timur 75324","Bontang Lestari, Kec. Bontang Sel., Kota Bontang",KALIMANTAN TIMUR,75324.0,Indonesia,,,,0.0502979,117.4496236,https://maps.google.com/?cid=0x0:0x16566bb48174206,
komplek housing,Pembangunan Perumahan,Bambang Jenggot,"PC 6C 119D, Satimpo, Kec. Bontang Sel., Kota Bontang, Kalimantan Timur 75324","Satimpo, Kec. Bontang Sel., Kota Bontang",KALIMANTAN TIMUR,75324.0,Indonesia,8125100022.0,,,0.1264193,117.4698162,https://maps.google.com/?cid=0x0:0x6206fab5adb202a9,
komplek housing,Komplek perumahan,"Eko Purnomo,ST","4FC7+JFX, Satimpo, Kec. Bontang Sel., Kota Bontang, Kalimantan Timur 75325","Satimpo, Kec. Bontang Sel., Kota Bontang",KALIMANTAN TIMUR,75325.0,Indonesia,,,,0.1216243,117.4637423,https://maps.google.com/?cid=0x0:0xb73695fbb8b5ab48,
komplek housing,Pembangunan Perumahan,Perumahan Griya 9D,"Jl. Cumi-Cumi No.2a No.9d, Tanjung Laut Indah, Bontang Selatan, Bontang City, East Kalimantan 75325","Tanjung Laut Indah, Bontang Selatan, Bontang City",KALIMANTAN TIMUR,75325.0,Indonesia,85156325526.0,,,0.1161068,117.4877573,https://maps.google.com/?cid=0x0:0xecac8062bef6238d,
komplek housing,Pembangunan Perumahan,PC 6 Millenium 162 A Kompleks PT Badak NGL,"PC 6 Millenium, Kompleks PT Badak 162 A, Satimpo, Kec. Bontang Sel., Kota Bontang, Kalimantan Timur","Kota Bontang, Kalimantan Timur",KALIMANTAN TIMUR,,Indonesia,,,,0.1156175,117.4721466,https://maps.google.com/?cid=0x0:0xafa8c0a8c5acb4a7,
komplek housing,Komplek perumahan,Saiful. Hudha,"3F85+XX3, Bontang Lestari, Kec. Bontang Sel., Kota Bontang, Kalimantan Timur 75325","Bontang Lestari, Kec. Bontang Sel., Kota Bontang",KALIMANTAN TIMUR,75325.0,Indonesia,,,,0.0669167,117.4600462,https://maps.google.com/?cid=0x0:0xe9a98df46bac4054,
komplek housing,Pembangunan Perumahan,Perumahan Hop 3 PT Badak NGL Jalan Danau Jempang,"Jl. Danau Jempang No.8051, Satimpo, Kec. Bontang Sel., Kota Bontang, Kalimantan Timur 75325","Satimpo, Kec. Bontang Sel., Kota Bontang",KALIMANTAN TIMUR,75325.0,Indonesia,,,,0.1243482,117.4682863,https://maps.google.com/?cid=0x0:0x5a17b19b3e6ec6c5,
komplek housing,Komplek perumahan,Perum Korpri Bontang,"Jl. Letjen Urip Sumoharjo, Bontang Lestari, Kec. Bontang Sel., Kota Bontang, Kalimantan Timur 75325","Bontang Lestari, Kec. Bontang Sel., Kota Bontang",KALIMANTAN TIMUR,75325.0,Indonesia,,,,0.0374741,117.4574927,https://maps.google.com/?cid=0x0:0x1bdd43bb437a42f4,
komplek housing,Otoritas Perumahan,Perumahan Badak LNG PC 6B 17A,"PC, Jl. Gn. Rinjani No.17A 6B, Satimpo, Kec. Bontang Sel., Kota Bontang, Kalimantan Timur 75325","Jl. Gn. Rinjani No.17A 6B, Satimpo, Kec. Bontang Sel., Kota Bontang",KALIMANTAN TIMUR,75325.0,Indonesia,,,,0.1197044,117.4689987,https://maps.google.com/?cid=0x0:0xeedbbe7c3fdb4f0a,
komplek housing,Toko umum,Rumah heri,"2FX2+6VQ, Jl. Linmas 2, Bontang Lestari, Kec. Bontang Sel., Kota Bontang, Kalimantan Timur 75324","Jl. Linmas 2, Bontang Lestari, Kec. Bontang Sel., Kota Bontang",KALIMANTAN TIMUR,75324.0,Indonesia,,,,0.0480913,117.4522445,https://maps.google.com/?cid=0x0:0x84f7607de8c57a3f,
komplek housing,komplek housing,Kec. Bontang Sel.,"Kota Bontang, Kalimantan Timur","Kota Bontang, Kalimantan Timur",KALIMANTAN TIMUR,,Indonesia,,,,0.1171356,117.4791563,https://maps.google.com/?cid=0x0:0x2bfd00a039b77869,
komplek housing,komplek housing,Marwin atau Pandi,"2FQ5+74W, Bontang Lestari, Kec. Bontang Sel., Kota Bontang, Kalimantan Timur 75325","Bontang Lestari, Kec. Bontang Sel., Kota Bontang",KALIMANTAN TIMUR,75325.0,Indonesia,,,,0.0381826,117.4575299,https://maps.google.com/?cid=0x0:0xe6dec1265a1dc560,
komplek housing,Komplek perumahan,Perumahan HOP 4 PT Badak NGL,"4FJ7+X85, Jl. Simon Tampubolon, Gn. Elai, Kec. Bontang Utara, Kota Bontang, Kalimantan Timur 75325","Jl. Simon Tampubolon, Gn. Elai, Kec. Bontang Utara, Kota Bontang",KALIMANTAN TIMUR,75325.0,Indonesia,,,,0.132393,117.463349,https://maps.google.com/?cid=0x0:0x7d2ee76355f06b90,
komplek housing,Komplek perumahan,PC6C Komplek Perumahan PT.Badak NGL,"4FG9+8JQ, Unnamed Road, Satimpo, Bontang Selatan, Bontang City, East Kalimantan 75325","Unnamed Road, Satimpo, Bontang Selatan, Bontang City",KALIMANTAN TIMUR,75325.0,Indonesia,,,,0.1258459,117.4691143,https://maps.google.com/?cid=0x0:0xeb65940fdff82b34,
komplek housing,komplek housing,Kalimantan Timur 75325,Kalimantan Timur,Kalimantan Timur,KALIMANTAN TIMUR,,Indonesia,,,,0.0830107,117.2440957,https://maps.google.com/?cid=0x0:0x26084c6c6cec55ca,
komplek housing,Perhimpunan Pengembang Perumahan,Perumahan Griya Sentosa,"Jl. Gambas No.14, Satimpo, Kec. Bontang Sel., Kota Bontang, Kalimantan Timur 75325","Satimpo, Kec. Bontang Sel., Kota Bontang",KALIMANTAN TIMUR,75325.0,Indonesia,,,,0.1312173,117.4711116,https://maps.google.com/?cid=0x0:0x5e02285fc6808e6b,
komplek housing,Otoritas Perumahan,Perumahan Badak LNG PC 6B 17A,"PC, Jl. Gn. Rinjani No.17A 6B, Satimpo, Kec. Bontang Sel., Kota Bontang, Kalimantan Timur 75325","Jl. Gn. Rinjani No.17A 6B, Satimpo, Kec. Bontang Sel., Kota Bontang",KALIMANTAN TIMUR,75325.0,Indonesia,,,,0.1197044,117.4689987,https://maps.google.com/?cid=0x0:0xeedbbe7c3fdb4f0a,
komplek housing,Komplek perumahan,Perumahan HOP 4 PT Badak NGL,"4FJ7+X85, Jl. Simon Tampubolon, Gn. Elai, Kec. Bontang Utara, Kota Bontang, Kalimantan Timur 75325","Jl. Simon Tampubolon, Gn. Elai, Kec. Bontang Utara, Kota Bontang",KALIMANTAN TIMUR,75325.0,Indonesia,,,,0.132393,117.463349,https://maps.google.com/?cid=0x0:0x7d2ee76355f06b90,
komplek housing,Pembangunan Perumahan,Perumahan Griya 9D,"Jl. Cumi-Cumi No.2a No.9d, Tanjung Laut Indah, Bontang Selatan, Bontang City, East Kalimantan 75325","Tanjung Laut Indah, Bontang Selatan, Bontang City",KALIMANTAN TIMUR,75325.0,Indonesia,85156325526.0,,,0.1161068,117.4877573,https://maps.google.com/?cid=0x0:0xecac8062bef6238d,
komplek housing,Komplek perumahan,Perumahan Citra Khatulistiwa,"4GJ2+HGM, Jl. Aip II KS Tubun langlang Gg. breksi, RT.008/RW.No.42, Bontang Kuala, Kec. Bontang Utara, Kota Bontang, Kalimantan Timur 75325","Jl. Aip II KS Tubun langlang Gg. breksi, RT.008/RW.No.42, Bontang Kuala, Kec. Bontang Utara, Kota Bontang",KALIMANTAN TIMUR,75325.0,Indonesia,85280001613.0,,,0.1314546,117.5012837,https://maps.google.com/?cid=0x0:0x6dc5e8860ce5e29e,
komplek housing,Komplek perumahan,Yoga House,"Jl. Selat Bali No.19b, Tj. Laut, Kec. Bontang Sel., Kota Bontang, Kalimantan Timur 75325","Tj. Laut, Kec. Bontang Sel., Kota Bontang",KALIMANTAN TIMUR,75325.0,Indonesia,,,,0.125233,117.4814579,https://maps.google.com/?cid=0x0:0xec26f07e36069c55,
komplek housing,Komplek perumahan,PC 6C 80D,"4FF7+W6W, Jl. A.R. Hakim, Satimpo, Kec. Bontang Sel., Kota Bontang, Kalimantan Timur 75325","Jl. A.R. Hakim, Satimpo, Kec. Bontang Sel., Kota Bontang",KALIMANTAN TIMUR,75325.0,Indonesia,,,,0.1248624,117.4630925,https://maps.google.com/?cid=0x0:0xeb986a8be4d5dd9f,
komplek housing,Pembangunan Perumahan,Perumahan HOP 5 PT Badak NGL,"4FP7+JCR, Jl. Simon Tampubolon, Kanaan, Kec. Bontang Bar., Kota Bontang, Kalimantan Timur 75325","Jl. Simon Tampubolon, Kanaan, Kec. Bontang Bar., Kota Bontang",KALIMANTAN TIMUR,75325.0,Indonesia,,,,0.1366058,117.4635029,https://maps.google.com/?cid=0x0:0xbdc074eef3ef8ff7,
komplek housing,Pembangunan Perumahan,Perumahan Hop 3 PT Badak NGL Jalan Danau Jempang,"Jl. Danau Jempang No.8051, Satimpo, Kec. Bontang Sel., Kota Bontang, Kalimantan Timur 75325","Satimpo, Kec. Bontang Sel., Kota Bontang",KALIMANTAN TIMUR,75325.0,Indonesia,,,,0.1243482,117.4682863,https://maps.google.com/?cid=0x0:0x5a17b19b3e6ec6c5,
komplek housing,komplek housing,rmh nela,"4FCR+PQP, Jl. Haruan, Tj. Laut Indah, Kec. Bontang Sel., Kota Bontang, Kalimantan Timur 75325","Jl. Haruan, Tj. Laut Indah, Kec. Bontang Sel., Kota Bontang",KALIMANTAN TIMUR,75325.0,Indonesia,,,,0.1217901,117.4919143,https://maps.google.com/?cid=0x0:0xb78ed48f360320c,
komplek housing,Komplek perumahan,pc 6c 26a,"pc 6c 26a, Satimpo, Bontang Selatan, Bontang City, East Kalimantan 75325","Satimpo, Bontang Selatan, Bontang City",KALIMANTAN TIMUR,75325.0,Indonesia,,,,0.119639,117.4677067,https://maps.google.com/?cid=0x0:0x7d70313ea3449fbf,
komplek housing,Komplek perumahan,Home,"BTN PKT, Jl. Anggrek No.A17, Belimbing, Bontang Barat, Bontang City, East Kalimantan 75325","Jl. Anggrek No.A17, Belimbing, Bontang Barat, Bontang City",KALIMANTAN TIMUR,75325.0,Indonesia,,,,0.1409694,117.4699898,https://maps.google.com/?cid=0x0:0x4bfc99e1ad3aab31,
komplek housing,Komplek perumahan,PC 6C-140C Komplek PT Badak NGL,"4FC9+G5P, Jl. Bengkirai, Satimpo, Kec. Bontang Sel., Kota Bontang, Kalimantan Timur 75325","Jl. Bengkirai, Satimpo, Kec. Bontang Sel., Kota Bontang",KALIMANTAN TIMUR,75325.0,Indonesia,,,,0.1213458,117.4679649,https://maps.google.com/?cid=0x0:0x9680a812e278a094,
komplek housing,Komplek perumahan,Perumahan pt badak PC 6,"4FG9+Q55, Satimpo, Kec. Bontang Sel., Kota Bontang, Kalimantan Timur 75325","Satimpo, Kec. Bontang Sel., Kota Bontang",KALIMANTAN TIMUR,75325.0,Indonesia,,,,0.1268835,117.4679966,https://maps.google.com/?cid=0x0:0xa8061ea18d942896,
komplek housing,Komplek perumahan,PC 6C/135B,"4FG9+Q55, Satimpo, Kec. Bontang Sel., Kota Bontang, Kalimantan Timur 75325","Satimpo, Kec. Bontang Sel., Kota Bontang",KALIMANTAN TIMUR,75325.0,Indonesia,,,,0.1270367,117.4682078,https://maps.google.com/?cid=0x0:0xcb23014a90fc1d3a,
komplek housing,Pembangunan Perumahan,perumahan,"PC, Jl. Sukun Raya Gg. 6 C No.105 C, Satimpo, Kec. Bontang Sel., Kota Bontang, Kalimantan Timur 75325","Jl. Sukun Raya Gg. 6 C No.105 C, Satimpo, Kec. Bontang Sel., Kota Bontang",KALIMANTAN TIMUR,75325.0,Indonesia,,,,0.1260195,117.4651062,https://maps.google.com/?cid=0x0:0xb3fa2245270bc5c6,
komplek housing,Komplek perumahan,Perumahan GTS,"Jl. Labu Kuning No.1, Gn. Elai, Kec. Bontang Utara, Kota Bontang, Kalimantan Timur 75325","Gn. Elai, Kec. Bontang Utara, Kota Bontang",KALIMANTAN TIMUR,75325.0,Indonesia,,,,0.1314199,117.466348,https://maps.google.com/?cid=0x0:0xd6af79cf21f60cfb,
komplek housing,Komplek perumahan,Mh,"Tarakan VII PC-4 No.142, Satimpo, Bontang Selatan, Bontang City, East Kalimantan 75325","Satimpo, Bontang Selatan, Bontang City",KALIMANTAN TIMUR,75325.0,Indonesia,,,,0.1105252,117.4543844,https://maps.google.com/?cid=0x0:0x728b87579fac0b2,
komplek housing,Komplek perumahan,Yahya's House,"4FFQ+P7M, Jl. Selat Gaspor 1, Tj. Laut, Kec. Bontang Sel., Kota Bontang, Kalimantan Timur 75325","Jl. Selat Gaspor 1, Tj. Laut, Kec. Bontang Sel., Kota Bontang",KALIMANTAN TIMUR,75325.0,Indonesia,,,,0.124326,117.4881695,https://maps.google.com/?cid=0x0:0x5139531ab63a69e9,
komplek housing,Komplek perumahan,Perumahan Surya Indah,"Jl. Cumi-Cumi No.2a, Tj. Laut Indah, Kec. Bontang Sel., Kota Bontang, Kalimantan Timur 75325","Tj. Laut Indah, Kec. Bontang Sel., Kota Bontang",KALIMANTAN TIMUR,75325.0,Indonesia,,,,0.1156346,117.4883254,https://maps.google.com/?cid=0x0:0x65f58a6c2d343103,
komplek housing,komplek housing,Kec. Bontang Sel.,"Kota Bontang, Kalimantan Timur","Kota Bontang, Kalimantan Timur",KALIMANTAN TIMUR,,Indonesia,,,,0.1171356,117.4791563,https://maps.google.com/?cid=0x0:0x2bfd00a039b77869,
komplek housing,Pembangunan Perumahan,Exva Home,"Gg. Cumi-Cumi 2A No.09B, Tanjung Laut Indah, Bontang Selatan, Bontang City, East Kalimantan 75325","Tanjung Laut Indah, Bontang Selatan, Bontang City",KALIMANTAN TIMUR,75325.0,Indonesia,,,,0.1161489,117.4877232,https://maps.google.com/?cid=0x0:0x20182b5eddd73bb2,
komplek housing,Lembaga Agama,Majelis HCD,"Jl. Selat Gaspor 1 No.28, RT.34, Tj. Laut, Kec. Bontang Sel., Kota Bontang, Kalimantan Timur 75325","RT.34, Tj. Laut, Kec. Bontang Sel., Kota Bontang",KALIMANTAN TIMUR,75325.0,Indonesia,,,,0.1244115,117.4889655,https://maps.google.com/?cid=0x0:0x3944442a768dccb7,
komplek housing,Komplek perumahan,"Eko Purnomo,ST","4FC7+JFX, Satimpo, Kec. Bontang Sel., Kota Bontang, Kalimantan Timur 75325","Satimpo, Kec. Bontang Sel., Kota Bontang",KALIMANTAN TIMUR,75325.0,Indonesia,,,,0.1216243,117.4637423,https://maps.google.com/?cid=0x0:0xb73695fbb8b5ab48,
komplek housing,Toko Pakaian,Alexi store,"Jl. Cumi-Cumi No.2a, Tj. Laut Indah, Kec. Bontang Sel., Kota Bontang, Kalimantan Timur 75325","Tj. Laut Indah, Kec. Bontang Sel., Kota Bontang",KALIMANTAN TIMUR,75325.0,Indonesia,,,,0.1152672,117.4887262,https://maps.google.com/?cid=0x0:0xf740d58943812edb,
komplek housing,Komplek perumahan,Home syafa,"Jl. Gendang No.82, Bontang Baru, Kec. Bontang Utara, Kota Bontang, Kalimantan Timur 75313","Bontang Baru, Kec. Bontang Utara, Kota Bontang",KALIMANTAN TIMUR,75313.0,Indonesia,,,,0.1438516,117.4902887,https://maps.google.com/?cid=0x0:0x4843138efa006afb,
komplek housing,Komplek perumahan,Qhistina 37,"4FVQ+MV9, Jl. RA Kartini, Bontang Baru, Kec. Bontang Utara, Kota Bontang, Kalimantan Timur 75313","Jl. RA Kartini, Bontang Baru, Kec. Bontang Utara, Kota Bontang",KALIMANTAN TIMUR,75313.0,Indonesia,,,,0.1441567,117.4897363,https://maps.google.com/?cid=0x0:0xc34aa492d5c942a5,
komplek housing,komplek housing,Kalimantan Timur 75311,"Gn. Elai, Kec. Bontang Utara, Kota Bontang, Kalimantan Timur","Kota Bontang, Kalimantan Timur",KALIMANTAN TIMUR,,Indonesia,,,,0.1444417,117.4887629,https://maps.google.com/?cid=0x0:0x33198cc450f8143a,
komplek housing,Komplek perumahan,Kcy,"4FGQ+FQC, Jl. Mawar III, Api-Api, Kec. Bontang Utara, Kota Bontang, Kalimantan Timur 75325","Jl. Mawar III, Api-Api, Kec. Bontang Utara, Kota Bontang",KALIMANTAN TIMUR,75325.0,Indonesia,,,,0.1261859,117.4893769,https://maps.google.com/?cid=0x0:0xa9e42ce864887a73,
komplek housing,Perumahan,Rumah BTN,"Hub_Cs_BTN.(0858)_5220_1554, Jl. Bekantan No.23, Belimbing, Kec. Bontang Bar., Kota Bontang, Kalimantan Timur 75325","Jl. Bekantan No.23, Belimbing, Kec. Bontang Bar., Kota Bontang",KALIMANTAN TIMUR,75325.0,Indonesia,,,,0.1459676,117.4718959,https://maps.google.com/?cid=0x0:0xe70430691f0baa32,
komplek housing,komplek housing,Kec. Bontang Utara,"Kota Bontang, Kalimantan Timur","Kota Bontang, Kalimantan Timur",KALIMANTAN TIMUR,,Indonesia,,,,0.1342654,117.4918113,https://maps.google.com/?cid=0x0:0x8e264a38633f2806,
komplek housing,Komplek perumahan,Perumahan HOP 4 PT Badak NGL,"4FJ7+X85, Jl. Simon Tampubolon, Gn. Elai, Kec. Bontang Utara, Kota Bontang, Kalimantan Timur 75325","Jl. Simon Tampubolon, Gn. Elai, Kec. Bontang Utara, Kota Bontang",KALIMANTAN TIMUR,75325.0,Indonesia,,,,0.132393,117.463349,https://maps.google.com/?cid=0x0:0x7d2ee76355f06b90,
komplek housing,Komplek perumahan,DLDY LAND,"Rt.01 Jl. MH. Thamrin No.41kel, RT.04, Gn. Elai, Kec. Bontang Utara, Kota Bontang, Kalimantan Timur 75311","RT.04, Gn. Elai, Kec. Bontang Utara, Kota Bontang",KALIMANTAN TIMUR,75311.0,Indonesia,,,,0.1479026,117.4897584,https://maps.google.com/?cid=0x0:0xeecf811171bd77a1,
komplek housing,Komplek perumahan,Denny Wahyudi,"Jl. Ternate HOP 6 No.050, Gunung Elai, Bontang Utara, Bontang City, East Kalimantan 75311","Gunung Elai, Bontang Utara, Bontang City",KALIMANTAN TIMUR,75311.0,Indonesia,,,,0.1359829,117.4645239,https://maps.google.com/?cid=0x0:0x6cdf3f827c2bba39,
komplek housing,Hostel,ELZHI KOST BONTANG,"Jalan Banjar Hop 6 No.139, RT.22, Gn. Elai, Kec. Bontang Utara, Kota Bontang, Kalimantan Timur 75311","RT.22, Gn. Elai, Kec. Bontang Utara, Kota Bontang",KALIMANTAN TIMUR,75311.0,Indonesia,85246045994.0,,,0.1365042,117.4640405,https://maps.google.com/?cid=0x0:0x9add40497109ec6f,
komplek housing,Komplek perumahan,Ummu shofiya salamah,"Jl. Imam Bonjol No.20, RT.04, Api-Api, Kec. Bontang Utara, Kota Bontang, Kalimantan Timur 75311","RT.04, Api-Api, Kec. Bontang Utara, Kota Bontang",KALIMANTAN TIMUR,75311.0,Indonesia,,,,0.130358,117.482875,https://maps.google.com/?cid=0x0:0x4109076828c6c0e9,
komplek housing,Komplek perumahan,Rumah Pribadi,"Jl. Mayor Jenderal DI Panjaitan Gg. Atletik 11 No.41, RT.26, Api-Api, Kec. Bontang Utara, Kota Bontang, Kalimantan Timur 75311","RT.26, Api-Api, Kec. Bontang Utara, Kota Bontang",KALIMANTAN TIMUR,75311.0,Indonesia,,,,0.1318074,117.4954053,https://maps.google.com/?cid=0x0:0x477490fa81826ce0,
komplek housing,komplek housing,Gubug Sumardi Syawal,"Jl. Majapahit II No.100, Gn. Elai, Kec. Bontang Utara, Kota Bontang, Kalimantan Timur 75311","Gn. Elai, Kec. Bontang Utara, Kota Bontang",KALIMANTAN TIMUR,75311.0,Indonesia,81254005294.0,,,0.1361118,117.4661897,https://maps.google.com/?cid=0x0:0x513772922363fa17,
komplek housing,Komplek perumahan,Rumah Om Sarwono,"Gg. Tomat 1 No.18, Gn. Elai, Kec. Bontang Utara, Kota Bontang, Kalimantan Timur 75311","Gn. Elai, Kec. Bontang Utara, Kota Bontang",KALIMANTAN TIMUR,75311.0,Indonesia,,,,0.1313632,117.4782273,https://maps.google.com/?cid=0x0:0xc16f50ccc9f5bcb2,
komplek housing,Komplek perumahan,Keluarga Juni,"4FMX+QJF, Gg. Piano 12, Bontang Baru, Kec. Bontang Utara, Kota Bontang, Kalimantan Timur 75311","Gg. Piano 12, Bontang Baru, Kec. Bontang Utara, Kota Bontang",KALIMANTAN TIMUR,75311.0,Indonesia,,,,0.1345012,117.4991269,https://maps.google.com/?cid=0x0:0x1a28726e701e9661,
komplek housing,Komplek perumahan,Gang Kulintang III,"4FQW+W59, Jl. Dewi Sartika Gg. Kulintang III, Bontang Baru, Kec. Bontang Utara, Kota Bontang, Kalimantan Timur 75311","Jl. Dewi Sartika Gg. Kulintang III, Bontang Baru, Kec. Bontang Utara, Kota Bontang",KALIMANTAN TIMUR,75311.0,Indonesia,,,,0.139786,117.4954995,https://maps.google.com/?cid=0x0:0xe1df5bc5126434bc,
komplek housing,Jasa Konstruksi dan Bangunan,Kaltim Cipta Yasa. PT,"JL. Amonia, No. 01, Bontang Baru, Komplek Perumahan PKT 011, Bontang Baru, Kec. Bontang Utara, Kota Bontang, Kalimantan Timur 75311","No. 01, Bontang Baru, Komplek Perumahan PKT 011, Bontang Baru, Kec. Bontang Utara, Kota Bontang",KALIMANTAN TIMUR,75311.0,Indonesia,54841225.0,,,0.1420958,117.4941738,https://maps.google.com/?cid=0x0:0x30671c05069a889c,
komplek housing,komplek housing,Loktuan,"5F8M+CHP, Jl. Kapal Feri, RT.08/RW.no 77, Lok Tuan, Kec. Bontang Utara, Kota Bontang, Kalimantan Timur 75321","Jl. Kapal Feri, RT.08/RW.no 77, Lok Tuan, Kec. Bontang Utara, Kota Bontang",KALIMANTAN TIMUR,75321.0,Indonesia,,,,0.1660895,117.4839658,https://maps.google.com/?cid=0x0:0x4b2fdecebc52183b,
komplek housing,Apartemen sewa liburan,Rumah Kost,"4FGR+J3F, Tj. Laut, Kec. Bontang Sel., Kota Bontang, Kalimantan Timur 75325","Tj. Laut, Kec. Bontang Sel., Kota Bontang",KALIMANTAN TIMUR,75325.0,Indonesia,,,,0.1265512,117.490163,https://maps.google.com/?cid=0x0:0x334cae3346c1b2da,
komplek housing,Perumahan,Kontrakan,"Jl. Tennis Gang Milik Bersama 2 No.27D, RT.37, Api-Api, Kec. Bontang Utara, Kota Bontang, Kalimantan Timur","Kota Bontang, Kalimantan Timur",KALIMANTAN TIMUR,,Indonesia,,,,0.1338497,117.4820203,https://maps.google.com/?cid=0x0:0xc633ac3a9da75902,
komplek housing,komplek housing,Kec. Bontang Utara,"Kota Bontang, Kalimantan Timur","Kota Bontang, Kalimantan Timur",KALIMANTAN TIMUR,,Indonesia,,,,0.1342654,117.4918113,https://maps.google.com/?cid=0x0:0x8e264a38633f2806,
komplek housing,Komplek perumahan,A.25,"Perum bontang permai Jl. Catur VII No.25 blok A, Api-Api, Kec. Bontang Utara, Kota Bontang, Kalimantan Timur 75312","Api-Api, Kec. Bontang Utara, Kota Bontang",KALIMANTAN TIMUR,75312.0,Indonesia,,,,0.1322384,117.4844391,https://maps.google.com/?cid=0x0:0x231b2b52e3d3ff60,
komplek housing,komplek housing,Loktuan,"5F8M+CHP, Jl. Kapal Feri, RT.08/RW.no 77, Lok Tuan, Kec. Bontang Utara, Kota Bontang, Kalimantan Timur 75321","Jl. Kapal Feri, RT.08/RW.no 77, Lok Tuan, Kec. Bontang Utara, Kota Bontang",KALIMANTAN TIMUR,75321.0,Indonesia,,,,0.1660895,117.4839658,https://maps.google.com/?cid=0x0:0x4b2fdecebc52183b,
komplek housing,Komplek perumahan,GEKAR ELITE CEES,"Jl. Kapt. Piere Tandean Gg. Batu Sahasa II No.33, Kota Bontang, Kalimantan Timur 75312",Kota Bontang,KALIMANTAN TIMUR,75312.0,Indonesia,,,,0.1376394,117.5168902,https://maps.google.com/?cid=0x0:0xb120e3076ae31c39,
komplek housing,Komplek perumahan,Perumahan HOP 4 PT Badak NGL,"4FJ7+X85, Jl. Simon Tampubolon, Gn. Elai, Kec. Bontang Utara, Kota Bontang, Kalimantan Timur 75325","Jl. Simon Tampubolon, Gn. Elai, Kec. Bontang Utara, Kota Bontang",KALIMANTAN TIMUR,75325.0,Indonesia,,,,0.132393,117.463349,https://maps.google.com/?cid=0x0:0x7d2ee76355f06b90,
komplek housing,komplek housing,Kec. Bontang Utara,"Kota Bontang, Kalimantan Timur","Kota Bontang, Kalimantan Timur",KALIMANTAN TIMUR,,Indonesia,,,,0.1342654,117.4918113,https://maps.google.com/?cid=0x0:0x8e264a38633f2806,
komplek housing,Pembangunan Perumahan,Khabib Homes,"Jl. Gamelan No.53, Bontang Baru, Kec. Bontang Utara, Kota Bontang, Kalimantan Timur 75325","Bontang Baru, Kec. Bontang Utara, Kota Bontang",KALIMANTAN TIMUR,75325.0,Indonesia,,,,0.1380528,117.4905248,https://maps.google.com/?cid=0x0:0xf0c6ce33fa97f322,
komplek housing,Komplek perumahan,Perumahan Qhistina No. 7,"4FVR+RMG, Jl. Mulawarman, Perumahan Qhistina, Bontang Baru, Kec. Bontang Utara, Kota Bontang, Kalimantan Timur 75313","Jl. Mulawarman, Perumahan Qhistina, Bontang Baru, Kec. Bontang Utara, Kota Bontang",KALIMANTAN TIMUR,75313.0,Indonesia,,,,0.1445694,117.4917009,https://maps.google.com/?cid=0x0:0x5b6ffd63eee20cf8,
komplek housing,Komplek perumahan,Perumahan Asri Blok C No.7C,"Jl. Gendang 5 No.RT.21 BLOK C, Bontang Baru, Kec. Bontang Utara, Kota Bontang, Kalimantan Timur","Kota Bontang, Kalimantan Timur",KALIMANTAN TIMUR,,Indonesia,,,,0.1418183,117.4929636,https://maps.google.com/?cid=0x0:0xc2eaad8c4f77b44b,
komplek housing,Komplek perumahan,Perumahan Citra Khatulistiwa,"4GJ2+HGM, Jl. Aip II KS Tubun langlang Gg. breksi, RT.008/RW.No.42, Bontang Kuala, Kec. Bontang Utara, Kota Bontang, Kalimantan Timur 75325","Jl. Aip II KS Tubun langlang Gg. breksi, RT.008/RW.No.42, Bontang Kuala, Kec. Bontang Utara, Kota Bontang",KALIMANTAN TIMUR,75325.0,Indonesia,85280001613.0,,,0.1314546,117.5012837,https://maps.google.com/?cid=0x0:0x6dc5e8860ce5e29e,
komplek housing,Lembaga Agama,Majelis HCD,"Jl. Selat Gaspor 1 No.28, RT.34, Tj. Laut, Kec. Bontang Sel., Kota Bontang, Kalimantan Timur 75325","RT.34, Tj. Laut, Kec. Bontang Sel., Kota Bontang",KALIMANTAN TIMUR,75325.0,Indonesia,,,,0.1244115,117.4889655,https://maps.google.com/?cid=0x0:0x3944442a768dccb7,
komplek housing,Perhimpunan Pengembang Perumahan,IrDa Home RT 23 No. 28,"4FMQ+VXX, Jl. R. Suprapto, Api-Api, Kec. Bontang Utara, Kota Bontang, Kalimantan Timur 75313","Jl. R. Suprapto, Api-Api, Kec. Bontang Utara, Kota Bontang",KALIMANTAN TIMUR,75313.0,Indonesia,,,,0.1346615,117.4899596,https://maps.google.com/?cid=0x0:0xa4db518a74703a95,
komplek housing,Komplek perumahan,Queen House,"Jl. Mulawarman Gg. Angklung No.49, Bontang Baru, Kec. Bontang Utara, Kota Bontang, Kalimantan Timur 75313","Bontang Baru, Kec. Bontang Utara, Kota Bontang",KALIMANTAN TIMUR,75313.0,Indonesia,,,,0.1400062,117.4935438,https://maps.google.com/?cid=0x0:0x8618eb79fbe820cd,
komplek housing,Komplek perumahan,Rahma home,"4FHP+643, Api-Api, Kec. Bontang Utara, Kota Bontang, Kalimantan Timur 75325","Api-Api, Kec. Bontang Utara, Kota Bontang",KALIMANTAN TIMUR,75325.0,Indonesia,,,,0.1280005,117.4852951,https://maps.google.com/?cid=0x0:0x5b1f8f7a1fcbe2f,
komplek housing,Komplek perumahan,Home,"4FGJ+JMM, Tj. Laut, Kec. Bontang Sel., Kota Bontang, Kalimantan Timur","Kota Bontang, Kalimantan Timur",KALIMANTAN TIMUR,,Indonesia,,,,0.1265933,117.4816785,https://maps.google.com/?cid=0x0:0xd63b7b787c941dc6,
komplek housing,Komplek perumahan,DLDY LAND,"Rt.01 Jl. MH. Thamrin No.41kel, RT.04, Gn. Elai, Kec. Bontang Utara, Kota Bontang, Kalimantan Timur 75311","RT.04, Gn. Elai, Kec. Bontang Utara, Kota Bontang",KALIMANTAN TIMUR,75311.0,Indonesia,,,,0.1479026,117.4897584,https://maps.google.com/?cid=0x0:0xeecf811171bd77a1,
komplek housing,Komplek perumahan,Ghistina land,"Jl. Mulawarman, Bontang Baru, Kec. Bontang Utara, Kota Bontang, Kalimantan Timur 75313","Bontang Baru, Kec. Bontang Utara, Kota Bontang",KALIMANTAN TIMUR,75313.0,Indonesia,,,,0.1449252,117.4917917,https://maps.google.com/?cid=0x0:0xbd79b023d5d906f4,
komplek housing,Komplek perumahan,Yahya's House,"4FFQ+P7M, Jl. Selat Gaspor 1, Tj. Laut, Kec. Bontang Sel., Kota Bontang, Kalimantan Timur 75325","Jl. Selat Gaspor 1, Tj. Laut, Kec. Bontang Sel., Kota Bontang",KALIMANTAN TIMUR,75325.0,Indonesia,,,,0.124326,117.4881695,https://maps.google.com/?cid=0x0:0x5139531ab63a69e9,
komplek housing,Pembangunan Perumahan,Zul House,"Jl. Mulawarman No.38, RT.28, Bontang Baru, Kec. Bontang Utara, Kota Bontang, Kalimantan Timur 75313","RT.28, Bontang Baru, Kec. Bontang Utara, Kota Bontang",KALIMANTAN TIMUR,75313.0,Indonesia,82154146920.0,,,0.1403505,117.4947761,https://maps.google.com/?cid=0x0:0x23dbc06776dae42d,
komplek housing,komplek housing,KheyFiChel'S Home sweet home,"4GG2+9H3, Jl. Kejora, Gg. Wakaf 3 No.67B, Bontang Kuala, Kec. Bontang Utara, Kota Bontang, Kalimantan Timur 75325","Jl. Kejora, Gg. Wakaf 3 No.67B, Bontang Kuala, Kec. Bontang Utara, Kota Bontang",KALIMANTAN TIMUR,75325.0,Indonesia,,,,0.1259144,117.5014469,https://maps.google.com/?cid=0x0:0x715729266b5630c,
komplek housing,komplek housing,Asha Isha,"4FVW+H9J, Jl. Mulawarman, Bontang Baru, Kec. Bontang Utara, Kota Bontang, Kalimantan Timur 75313","Jl. Mulawarman, Bontang Baru, Kec. Bontang Utara, Kota Bontang",KALIMANTAN TIMUR,75313.0,Indonesia,,,,0.1439513,117.4958855,https://maps.google.com/?cid=0x0:0x3a1e0c07b087079a,
komplek housing,Komplek perumahan,SHO House,"4FJM+VM9, Jl. Catur VII, Api-Api, Kec. Bontang Utara, Kota Bontang, Kalimantan Timur 75325","Jl. Catur VII, Api-Api, Kec. Bontang Utara, Kota Bontang",KALIMANTAN TIMUR,75325.0,Indonesia,,,,0.1321557,117.4842489,https://maps.google.com/?cid=0x0:0x3c9c34a6103e80d6,
komplek housing,Komplek perumahan,Iwan Malabo Home,"4FGQ+GF5, Jl. Jawa, Api-Api, Kec. Bontang Utara, Kota Bontang, Kalimantan Timur 75325","Jl. Jawa, Api-Api, Kec. Bontang Utara, Kota Bontang",KALIMANTAN TIMUR,75325.0,Indonesia,,,,0.1263234,117.4887135,https://maps.google.com/?cid=0x0:0xdd0f738a423be819,
komplek housing,Komplek perumahan,Home,"Jl. MH. Thamrin No.77, Bontang Baru, Kec. Bontang Utara, Kota Bontang, Kalimantan Timur 75313","Bontang Baru, Kec. Bontang Utara, Kota Bontang",KALIMANTAN TIMUR,75313.0,Indonesia,,,,0.1428825,117.4925121,https://maps.google.com/?cid=0x0:0x9407630832b89445,
komplek housing,Komplek perumahan,Rumah Intan Khairunnisa,"Jln. Banteng no. 30 BTN PKT Belimbing Bontang Barat Kalimantan timur 75314, Belimbing, Bontang Barat, Bontang City, East Kalimantan 75313","Belimbing, Bontang Barat, Bontang City",KALIMANTAN TIMUR,75313.0,Indonesia,,,,0.1467446,117.4729235,https://maps.google.com/?cid=0x0:0xed33745a64a18d74,
komplek housing,komplek housing,Loktuan,"5F8M+CHP, Jl. Kapal Feri, RT.08/RW.no 77, Lok Tuan, Kec. Bontang Utara, Kota Bontang, Kalimantan Timur 75321","Jl. Kapal Feri, RT.08/RW.no 77, Lok Tuan, Kec. Bontang Utara, Kota Bontang",KALIMANTAN TIMUR,75321.0,Indonesia,,,,0.1660895,117.4839658,https://maps.google.com/?cid=0x0:0x4b2fdecebc52183b,
komplek housing,Perumahan,Kontrakan,"Jl. Tennis Gang Milik Bersama 2 No.27D, RT.37, Api-Api, Kec. Bontang Utara, Kota Bontang, Kalimantan Timur","Kota Bontang, Kalimantan Timur",KALIMANTAN TIMUR,,Indonesia,,,,0.1338497,117.4820203,https://maps.google.com/?cid=0x0:0xc633ac3a9da75902,
perumahan,perumahan,Kalimantan Timur 75313,"Kota Bontang, Kalimantan Timur","Kota Bontang, Kalimantan Timur",KALIMANTAN TIMUR,,Indonesia,,,,0.1379123,117.493321,https://maps.google.com/?cid=0x0:0xc31ada602112700b,
perumahan,Kompleks Townhouse,"Perumahan Agroland, Salebba","4FVR+RX3, Bontang Baru, Kec. Bontang Utara, Kota Bontang, Kalimantan Timur 75313","Bontang Baru, Kec. Bontang Utara, Kota Bontang",KALIMANTAN TIMUR,75313.0,Indonesia,85250223075.0,,,0.1445129,117.4924091,https://maps.google.com/?cid=0x0:0xe753ac2b4f0e38c7,
perumahan,Komplek perumahan,Rumah Sandi,"4FW9+5V6 OO 03 BTN PKT, Jl. Anoa, Belimbing, Bontang Barat, Bontang City, East Kalimantan 75313","Jl. Anoa, Belimbing, Bontang Barat, Bontang City",KALIMANTAN TIMUR,75313.0,Indonesia,,,,0.1454245,117.4696391,https://maps.google.com/?cid=0x0:0x8be05c33aa47904e,
perumahan,Pembangunan Perumahan,Perumahan Green Park Salebba,"Jl. Cut Nyak Dien, Bontang Baru, Kec. Bontang Utara, Kota Bontang, Kalimantan Timur 75325","Bontang Baru, Kec. Bontang Utara, Kota Bontang",KALIMANTAN TIMUR,75325.0,Indonesia,82154545320.0,,,0.1417786,117.4967679,https://maps.google.com/?cid=0x0:0xbf746b0126884e4a,
perumahan,Komplek perumahan,Mamaku,"Gg. Piano 1 No.26b, RT.04, Bontang Baru, Kec. Bontang Utara, Kota Bontang, Kalimantan Timur 75313","RT.04, Bontang Baru, Kec. Bontang Utara, Kota Bontang",KALIMANTAN TIMUR,75313.0,Indonesia,,,,0.1345209,117.493282,https://maps.google.com/?cid=0x0:0x388b5d13d0cead7f,
perumahan,Komplek perumahan,Perumahan Asri Blok C No.7C,"Jl. Gendang 5 No.RT.21 BLOK C, Bontang Baru, Kec. Bontang Utara, Kota Bontang, Kalimantan Timur","Kota Bontang, Kalimantan Timur",KALIMANTAN TIMUR,,Indonesia,,,,0.1418183,117.4929636,https://maps.google.com/?cid=0x0:0xc2eaad8c4f77b44b,
perumahan,Otoritas Perumahan,Bolana Daus,"4FVW+H8P, Jl. Mulawarman, Api-Api, Kec. Bontang Utara, Kota Bontang, Kalimantan Timur 75313","Jl. Mulawarman, Api-Api, Kec. Bontang Utara, Kota Bontang",KALIMANTAN TIMUR,75313.0,Indonesia,85299994044.0,,,0.1439687,117.4958309,https://maps.google.com/?cid=0x0:0xe9d3293879215a44,
perumahan,Komplek perumahan,Rumah fadil,"4FMR+PW2, Bontang Baru, Kec. Bontang Utara, Kota Bontang, Kalimantan Timur 75313","Bontang Baru, Kec. Bontang Utara, Kota Bontang",KALIMANTAN TIMUR,75313.0,Indonesia,,,,0.1342697,117.492269,https://maps.google.com/?cid=0x0:0xbef639d26f085ddd,
perumahan,Komplek perumahan,Mukhlis,"Jl. Enggang No.1b, Belimbing, Kec. Bontang Bar., Kota Bontang, Kalimantan Timur 75313","Belimbing, Kec. Bontang Bar., Kota Bontang",KALIMANTAN TIMUR,75313.0,Indonesia,,,,0.1444302,117.4737694,https://maps.google.com/?cid=0x0:0xccb054ba85f78bf4,
perumahan,Pembangunan Perumahan,Siko home,"4FVW+9V8, Jl. Cut Nyak Dien, Bontang Baru, Kec. Bontang Utara, Kota Bontang, Kalimantan Timur 75313","Jl. Cut Nyak Dien, Bontang Baru, Kec. Bontang Utara, Kota Bontang",KALIMANTAN TIMUR,75313.0,Indonesia,,,,0.1434129,117.497213,https://maps.google.com/?cid=0x0:0x32cf786ccc5f629b,
perumahan,Komplek perumahan,Jalan Banteng,"4FVF+FCG, BASRI HOME, Perum BTN PKT, Belimbing, Kec. Bontang Bar., Kota Bontang, Kalimantan Timur 75313","BASRI HOME, Perum BTN PKT, Belimbing, Kec. Bontang Bar., Kota Bontang",KALIMANTAN TIMUR,75313.0,Indonesia,,,,0.1436858,117.4735786,https://maps.google.com/?cid=0x0:0xbed2711e496bdd69,
perumahan,Komplek perumahan,tempat ael,"4FQV+H23, Bontang Baru, Kec. Bontang Utara, Kota Bontang, Kalimantan Timur 75313","Bontang Baru, Kec. Bontang Utara, Kota Bontang",KALIMANTAN TIMUR,75313.0,Indonesia,,,,0.1388804,117.4925392,https://maps.google.com/?cid=0x0:0x2fd85dde962cd22c,
perumahan,Pembangunan Perumahan,C9 perum Green Pesona Permai,"4FMP+M7M, Api-Api, Kec. Bontang Utara, Kota Bontang, Kalimantan Timur 75313","Api-Api, Kec. Bontang Utara, Kota Bontang",KALIMANTAN TIMUR,75313.0,Indonesia,,,,0.1342186,117.4856873,https://maps.google.com/?cid=0x0:0x7251bfac7b706893,
perumahan,Otoritas Perumahan,Perumahan Bukit Sekatup Damai,"Jl. Gn. Welirang No.02, Gn. Elai, Kec. Bontang Utara, Kota Bontang, Kalimantan Timur 75313","Gn. Elai, Kec. Bontang Utara, Kota Bontang",KALIMANTAN TIMUR,75313.0,Indonesia,,,,0.1507067,117.4771968,https://maps.google.com/?cid=0x0:0x66d26ef4f4ed337c,
perumahan,Komplek perumahan,Kantor dan Perumahan Villa R4,"Bontang Baru, Kec. Bontang Utara, Kota Bontang, Kalimantan Timur 75325","Kec. Bontang Utara, Kota Bontang",KALIMANTAN TIMUR,75325.0,Indonesia,85190910153.0,,,0.1383489,117.4986037,https://maps.google.com/?cid=0x0:0xf895bb3b609c60d8,
perumahan,Komplek perumahan,Rumah Saya,"4FRW+WFV, Bontang Baru, Kec. Bontang Utara, Kota Bontang, Kalimantan Timur 75313","Bontang Baru, Kec. Bontang Utara, Kota Bontang",KALIMANTAN TIMUR,75313.0,Indonesia,,,,0.1423671,117.4961668,https://maps.google.com/?cid=0x0:0xcca3f75231f0884f,
perumahan,Perumahan,Rumah BTN,"Hub_Cs_BTN.(0858)_5220_1554, Jl. Bekantan No.23, Belimbing, Kec. Bontang Bar., Kota Bontang, Kalimantan Timur 75325","Jl. Bekantan No.23, Belimbing, Kec. Bontang Bar., Kota Bontang",KALIMANTAN TIMUR,75325.0,Indonesia,,,,0.1459676,117.4718959,https://maps.google.com/?cid=0x0:0xe70430691f0baa32,
perumahan,Pembangunan Perumahan,Perumahan Bukit Sekatup Damai,"Jl. Gn. Rinjani No.20, Gn. Elai, Kec. Bontang Utara, Kota Bontang, Kalimantan Timur 75325","Gn. Elai, Kec. Bontang Utara, Kota Bontang",KALIMANTAN TIMUR,75325.0,Indonesia,,,,0.1473244,117.4737746,https://maps.google.com/?cid=0x0:0xc671dbcdfd25389a,
perumahan,Komplek perumahan,BTN PKT JL.SEMANGKA NO 15,"Jl. Semangka No.16 Blok T3, Belimbing, Kec. Bontang Bar., Kota Bontang, Kalimantan Timur 75313","Belimbing, Kec. Bontang Bar., Kota Bontang",KALIMANTAN TIMUR,75313.0,Indonesia,,,,0.1480294,117.4702105,https://maps.google.com/?cid=0x0:0xe6ef24acb1a67ab,
perumahan,Developer Rumah Hunian Khusus,BTN PKT Bontang,"4FVF+835, Jl. Srigunting, Belimbing, Bontang Barat, Bontang City, East Kalimantan 75325","Jl. Srigunting, Belimbing, Bontang Barat, Bontang City",KALIMANTAN TIMUR,75325.0,Indonesia,85252210109.0,,,0.143257,117.4727401,https://maps.google.com/?cid=0x0:0x3cc9b85d85f2bc2d,
perumahan,Perumahan,Momy Nontje's,"Jl. Durian No.33, RT.29, Belimbing, Kec. Bontang Bar., Kota Bontang, Kalimantan Timur 75313","RT.29, Belimbing, Kec. Bontang Bar., Kota Bontang",KALIMANTAN TIMUR,75313.0,Indonesia,8125807833.0,,,0.147587,117.4708943,https://maps.google.com/?cid=0x0:0x135f064ad5baaec3,
perumahan,Pembangunan Perumahan,"Jalan Komodo BTN PKT, Belimbing, Bontang","4FV9+RR4, Belimbing, Kec. Bontang Bar., Kota Bontang, Kalimantan Timur","Kota Bontang, Kalimantan Timur",KALIMANTAN TIMUR,,Indonesia,,,,0.1445179,117.4695818,https://maps.google.com/?cid=0x0:0xc3fa3a906f68d5cf,
perumahan,Perhimpunan Pengembang Perumahan,Rumah pak kalim (walet),"Gg. Selancar 7J, Api-Api, Kec. Bontang Utara, Kota Bontang, Kalimantan Timur 75313","Api-Api, Kec. Bontang Utara, Kota Bontang",KALIMANTAN TIMUR,75313.0,Indonesia,,,,0.1337445,117.4846236,https://maps.google.com/?cid=0x0:0x18349870b1265848,
perumahan,Komplek perumahan,Ghistina land,"Jl. Mulawarman, Bontang Baru, Kec. Bontang Utara, Kota Bontang, Kalimantan Timur 75313","Bontang Baru, Kec. Bontang Utara, Kota Bontang",KALIMANTAN TIMUR,75313.0,Indonesia,,,,0.1449252,117.4917917,https://maps.google.com/?cid=0x0:0xbd79b023d5d906f4,
perumahan,Perhimpunan Pengembang Perumahan,rumah hendra,"jl.mangga blok SSS No.07Belimbing, Belimbing, Kec. Bontang Bar., Kota Bontang, Kalimantan Timur 75313","Belimbing, Kec. Bontang Bar., Kota Bontang",KALIMANTAN TIMUR,75313.0,Indonesia,8125539538.0,,,0.1472767,117.4707568,https://maps.google.com/?cid=0x0:0xf7eee150a6693a4,
perumahan,Perumahan,Anto ornamen bontang,"Gg. Selancar, Api-Api, Kec. Bontang Utara, Kota Bontang, Kalimantan Timur 75313","Api-Api, Kec. Bontang Utara, Kota Bontang",KALIMANTAN TIMUR,75313.0,Indonesia,85649732364.0,,,0.1351919,117.4855819,https://maps.google.com/?cid=0x0:0x28409fe89d3fe24c,
perumahan,perumahan,Kec. Bontang Bar.,"Kota Bontang, Kalimantan Timur","Kota Bontang, Kalimantan Timur",KALIMANTAN TIMUR,,Indonesia,,,,0.1372358,117.4548496,https://maps.google.com/?cid=0x0:0xdc6d300939175081,
perumahan,Dinas Tenaga Kerja,Perum Disnaker,"Jl. Sungai Mahakam No.123, Kanaan, Kec. Bontang Bar., Kota Bontang, Kalimantan Timur 75325","Kanaan, Kec. Bontang Bar., Kota Bontang",KALIMANTAN TIMUR,75325.0,Indonesia,,,,0.1338193,117.4610249,https://maps.google.com/?cid=0x0:0xf29f474bf3b02ce6,
perumahan,Komplek perumahan,Sakura 17,"PC 6 PKT, Jl. Sakura No.17, Belimbing, Bontang Barat, Bontang City, East Kalimantan 75321","Jl. Sakura No.17, Belimbing, Bontang Barat, Bontang City",KALIMANTAN TIMUR,75321.0,Indonesia,,,,0.1471582,117.4666898,https://maps.google.com/?cid=0x0:0x3c2cb70cc3d5eedc,
perumahan,Komplek perumahan,Perumahan HOP 4 PT Badak NGL,"4FJ7+X85, Jl. Simon Tampubolon, Gn. Elai, Kec. Bontang Utara, Kota Bontang, Kalimantan Timur 75325","Jl. Simon Tampubolon, Gn. Elai, Kec. Bontang Utara, Kota Bontang",KALIMANTAN TIMUR,75325.0,Indonesia,,,,0.132393,117.463349,https://maps.google.com/?cid=0x0:0x7d2ee76355f06b90,
perumahan,Komplek perumahan,Lily 9,"5F24+3VM, Belimbing, Kec. Bontang Bar., Kota Bontang, Kalimantan Timur","Kota Bontang, Kalimantan Timur",KALIMANTAN TIMUR,,Indonesia,,,,0.1502136,117.4571759,https://maps.google.com/?cid=0x0:0x4ad9825e20a07b25,
perumahan,Pembangunan Perumahan,Perumahan HOP 5 PT.Badak LNG,"Jl. Bali HOP 5 No.39, Gn. Telihan, Kec. Bontang Bar., Kota Bontang, Kalimantan Timur 75321","Gn. Telihan, Kec. Bontang Bar., Kota Bontang",KALIMANTAN TIMUR,75321.0,Indonesia,,,,0.1367109,117.4607675,https://maps.google.com/?cid=0x0:0xdf878a1c4efacfc3,
perumahan,Komplek perumahan,Rumah Arifin,"Jl. Kacer No.4, RT.37, Belimbing, Kec. Bontang Bar., Kota Bontang, Kalimantan Timur 75325","RT.37, Belimbing, Kec. Bontang Bar., Kota Bontang",KALIMANTAN TIMUR,75325.0,Indonesia,,,,0.1431578,117.4740999,https://maps.google.com/?cid=0x0:0xece3a5955e9b280f,
perumahan,Kantor Pemerintah,Lelang sedekah,"Jl. Pontianak IV RT. 24 Kelurahan No.79, Gn. Telihan, Kec. Bontang Bar., Kota Bontang, Kalimantan Timur 75332","Gn. Telihan, Kec. Bontang Bar., Kota Bontang",KALIMANTAN TIMUR,75332.0,Indonesia,81345937085.0,,,0.1358335,117.4521222,https://maps.google.com/?cid=0x0:0x33103b7310d1a886,
perumahan,Pembangunan Perumahan,Kanaan,"4FM5+VCW, Kanaan, Kec. Bontang Bar., Kota Bontang, Kalimantan Timur 75321","Kanaan, Kec. Bontang Bar., Kota Bontang",KALIMANTAN TIMUR,75321.0,Indonesia,,,,0.1347347,117.4585639,https://maps.google.com/?cid=0x0:0x7497004259b0fb9b,
perumahan,Komplek perumahan,Hibiscus3,"Jl. Kembang Sepatu No.3, Belimbing, Kec. Bontang Bar., Kota Bontang, Kalimantan Timur 75321","Belimbing, Kec. Bontang Bar., Kota Bontang",KALIMANTAN TIMUR,75321.0,Indonesia,,,,0.1519814,117.4595181,https://maps.google.com/?cid=0x0:0x780a6a8b826b36b5,
perumahan,Perumahan,Rumah BTN,"Hub_Cs_BTN.(0858)_5220_1554, Jl. Bekantan No.23, Belimbing, Kec. Bontang Bar., Kota Bontang, Kalimantan Timur 75325","Jl. Bekantan No.23, Belimbing, Kec. Bontang Bar., Kota Bontang",KALIMANTAN TIMUR,75325.0,Indonesia,,,,0.1459676,117.4718959,https://maps.google.com/?cid=0x0:0xe70430691f0baa32,
perumahan,Perhimpunan Pengembang Perumahan,Rumah Bp Evlan Samban,"Jl. Pongtiku No.3, RT.01/RW.no, 24a, Kanaan, Kec. Bontang Bar., Kota Bontang, Kalimantan Timur 75321","RT.01/RW.no, 24a, Kanaan, Kec. Bontang Bar., Kota Bontang",KALIMANTAN TIMUR,75321.0,Indonesia,,,,0.1347348,117.458564,https://maps.google.com/?cid=0x0:0x615f3dfe2bb9f2a8,
perumahan,Komplek perumahan,PC 6C 80D,"4FF7+W6W, Jl. A.R. Hakim, Satimpo, Kec. Bontang Sel., Kota Bontang, Kalimantan Timur 75325","Jl. A.R. Hakim, Satimpo, Kec. Bontang Sel., Kota Bontang",KALIMANTAN TIMUR,75325.0,Indonesia,,,,0.1248624,117.4630925,https://maps.google.com/?cid=0x0:0xeb986a8be4d5dd9f,
perumahan,Komplek perumahan,PC PKT Jalan kenanga,"4FW4+VX6 PC PKT, Jl. Kenanga, Belimbing, Kec. Bontang Bar., Kota Bontang, Kalimantan Timur 75321","Jl. Kenanga, Belimbing, Kec. Bontang Bar., Kota Bontang",KALIMANTAN TIMUR,75321.0,Indonesia,,,,0.1471706,117.4573952,https://maps.google.com/?cid=0x0:0x723dfcbeaf3f4af1,
perumahan,Komplek perumahan,Tempat Jual Beli Iphone Bontang,"4FV9+3H3, Belimbing, Kec. Bontang Bar., Kota Bontang, Kalimantan Timur","Kota Bontang, Kalimantan Timur",KALIMANTAN TIMUR,,Indonesia,81273643406.0,,,0.1426471,117.4689275,https://maps.google.com/?cid=0x0:0x1f5ccb3aded63f34,
perumahan,perumahan,Lutri,"Jl. Pontianak I No.44a, Gn. Telihan, Kec. Bontang Bar., Kota Bontang, Kalimantan Timur 75321","Gn. Telihan, Kec. Bontang Bar., Kota Bontang",KALIMANTAN TIMUR,75321.0,Indonesia,,,,0.1336092,117.4531947,https://maps.google.com/?cid=0x0:0x16632d1614b9ece,
perumahan,Komplek perumahan,Rumah Kornelius dan Marta,"4FQ6+G4R, Jl. Denpasar, RT.17/RW.No 21, Gn. Telihan, Kec. Bontang Bar., Kota Bontang, Kalimantan Timur 75321","Jl. Denpasar, RT.17/RW.No 21, Gn. Telihan, Kec. Bontang Bar., Kota Bontang",KALIMANTAN TIMUR,75321.0,Indonesia,,,,0.1388691,117.4602591,https://maps.google.com/?cid=0x0:0x228200a8c84b9ec6,
perumahan,Komplek perumahan,Perumahan GTS,"Jl. Labu Kuning No.1, Gn. Elai, Kec. Bontang Utara, Kota Bontang, Kalimantan Timur 75325","Gn. Elai, Kec. Bontang Utara, Kota Bontang",KALIMANTAN TIMUR,75325.0,Indonesia,,,,0.1314199,117.466348,https://maps.google.com/?cid=0x0:0xd6af79cf21f60cfb,
perumahan,Komplek perumahan,Rumah Sandi,"4FW9+5V6 OO 03 BTN PKT, Jl. Anoa, Belimbing, Bontang Barat, Bontang City, East Kalimantan 75313","Jl. Anoa, Belimbing, Bontang Barat, Bontang City",KALIMANTAN TIMUR,75313.0,Indonesia,,,,0.1454245,117.4696391,https://maps.google.com/?cid=0x0:0x8be05c33aa47904e,
perumahan,Pembangunan Perumahan,"Jalan Komodo BTN PKT, Belimbing, Bontang","4FV9+RR4, Belimbing, Kec. Bontang Bar., Kota Bontang, Kalimantan Timur","Kota Bontang, Kalimantan Timur",KALIMANTAN TIMUR,,Indonesia,,,,0.1445179,117.4695818,https://maps.google.com/?cid=0x0:0xc3fa3a906f68d5cf,
perumahan,Komplek perumahan,Kemuning 5 House,"Jl. Kemuning No.5, Belimbing, Kec. Bontang Bar., Kota Bontang, Kalimantan Timur 75321","Belimbing, Kec. Bontang Bar., Kota Bontang",KALIMANTAN TIMUR,75321.0,Indonesia,,,,0.1468109,117.4584811,https://maps.google.com/?cid=0x0:0x670d98ff07947d7,
perumahan,Komplek perumahan,Pak Van,"Jl. Simon Tampubolon No.149, Kanaan, Kec. Bontang Bar., Kota Bontang, Kalimantan Timur 75325","Kanaan, Kec. Bontang Bar., Kota Bontang",KALIMANTAN TIMUR,75325.0,Indonesia,,,,0.136002,117.4639281,https://maps.google.com/?cid=0x0:0xc821f2f0432f87d8,
perumahan,Komplek perumahan,Jalan pongtiku,"4FM5+VCW, Kanaan, Kec. Bontang Bar., Kota Bontang, Kalimantan Timur 75321","Kanaan, Kec. Bontang Bar., Kota Bontang",KALIMANTAN TIMUR,75321.0,Indonesia,,,,0.1347347,117.4585639,https://maps.google.com/?cid=0x0:0x7080ef8d9ce212a8,
perumahan,Komplek perumahan,Jl. Perjuangan,"4FM5+VCW, Jl. Perjuangan, Kanaan, Bontang Barat, Bontang City, East Kalimantan 75321","Jl. Perjuangan, Kanaan, Bontang Barat, Bontang City",KALIMANTAN TIMUR,75321.0,Indonesia,,,,0.1347347,117.4585639,https://maps.google.com/?cid=0x0:0x96cade7942e8b03c,
perumahan,Komplek perumahan,Rumah Nindy,"4CVX+VG9, Belimbing, Kec. Bontang Bar., Kota Bontang, Kalimantan Timur 75321","Belimbing, Kec. Bontang Bar., Kota Bontang",KALIMANTAN TIMUR,75321.0,Indonesia,,,,0.1446618,117.4488491,https://maps.google.com/?cid=0x0:0xa9e9e303b0daff58,
perumahan,Komplek perumahan,Country Wood Telihan,"4FQ3+C9H, Jl. Semarang, Kanaan, Kec. Bontang Bar., Kota Bontang, Kalimantan Timur 75321","Jl. Semarang, Kanaan, Kec. Bontang Bar., Kota Bontang",KALIMANTAN TIMUR,75321.0,Indonesia,,,,0.1385628,117.4534876,https://maps.google.com/?cid=0x0:0xb69e6502bcb1f7af,
perumahan,Komplek perumahan,Rumah,"Jl. Anggrek No.a-24, Belimbing, Kec. Bontang Bar., Kota Bontang, Kalimantan Timur 75325","Belimbing, Kec. Bontang Bar., Kota Bontang",KALIMANTAN TIMUR,75325.0,Indonesia,,,,0.1409134,117.4697282,https://maps.google.com/?cid=0x0:0x1eb7e8c43566ca7a,
perumahan,Komplek perumahan,Sakura 17,"PC 6 PKT, Jl. Sakura No.17, Belimbing, Bontang Barat, Bontang City, East Kalimantan 75321","Jl. Sakura No.17, Belimbing, Bontang Barat, Bontang City",KALIMANTAN TIMUR,75321.0,Indonesia,,,,0.1471582,117.4666898,https://maps.google.com/?cid=0x0:0x3c2cb70cc3d5eedc,
perumahan,Komplek perumahan,Rumah Syakilla,"5F8H+PWX, Jl. Kapal Selam 3, Lok Tuan, Kec. Bontang Utara, Kota Bontang, Kalimantan Timur 75321","Jl. Kapal Selam 3, Lok Tuan, Kec. Bontang Utara, Kota Bontang",KALIMANTAN TIMUR,75321.0,Indonesia,,,,0.166865,117.4798542,https://maps.google.com/?cid=0x0:0x3ac9c714bd7bce2a,
perumahan,Komplek perumahan,Rumah Gianna,"Jl. Kapal Tanker I No.10, Lok Tuan, Kec. Bontang Utara, Kota Bontang, Kalimantan Timur 75321","Lok Tuan, Kec. Bontang Utara, Kota Bontang",KALIMANTAN TIMUR,75321.0,Indonesia,,,,0.1738592,117.4684997,https://maps.google.com/?cid=0x0:0xd6408ba31c948ade,
perumahan,perumahan,Kalimantan Timur 75321,"Kec. Tlk. Pandan, Kabupaten Kutai Timur, Kalimantan Timur","Kabupaten Kutai Timur, Kalimantan Timur",KALIMANTAN TIMUR,,Indonesia,,,,0.1825802,117.4321452,https://maps.google.com/?cid=0x0:0x70eac15f80c6d3d5,
perumahan,Komplek perumahan,PC PKT Jalan kenanga,"4FW4+VX6 PC PKT, Jl. Kenanga, Belimbing, Kec. Bontang Bar., Kota Bontang, Kalimantan Timur 75321","Jl. Kenanga, Belimbing, Kec. Bontang Bar., Kota Bontang",KALIMANTAN TIMUR,75321.0,Indonesia,,,,0.1471706,117.4573952,https://maps.google.com/?cid=0x0:0x723dfcbeaf3f4af1,
perumahan,Perhimpunan Pengembang Perumahan,PC 3 No 86,"PT Badak NGL, Jl. Batam No.86, Satimpo, Bontang Selatan, Bontang City, East Kalimantan 75321","Jl. Batam No.86, Satimpo, Bontang Selatan, Bontang City",KALIMANTAN TIMUR,75321.0,Indonesia,,,,0.1151995,117.4541276,https://maps.google.com/?cid=0x0:0xd4279c65a221cedd,
perumahan,perumahan,Rumah,"PC VI PKT, Jl. Melati No.6, Belimbing, Bontang Barat, Bontang City, East Kalimantan 75321","Jl. Melati No.6, Belimbing, Bontang Barat, Bontang City",KALIMANTAN TIMUR,75321.0,Indonesia,,,,0.1472203,117.4627864,https://maps.google.com/?cid=0x0:0x83c3790c02c17950,
perumahan,Otoritas Perumahan,Rumah Budiono Sri lestari,"Perum Pesona Sintuk Vanycluster blok A_1, Belimbing, Kec. Bontang Bar., Kota Bontang, Kalimantan Timur 75321","Belimbing, Kec. Bontang Bar., Kota Bontang",KALIMANTAN TIMUR,75321.0,Indonesia,,,,0.167066,117.4651288,https://maps.google.com/?cid=0x0:0x59c6bef6b34a7663,
perumahan,Pembangunan Perumahan,Perum Damai Lestari Indah KM. 3,"Kilometer 3, Kelurahan Belimbing, Belimbing, Bontang Barat, Bontang City, East Kalimantan 75321","Kelurahan Belimbing, Belimbing, Bontang Barat, Bontang City",KALIMANTAN TIMUR,75321.0,Indonesia,81250409693.0,,,0.1672783,117.4605166,https://maps.google.com/?cid=0x0:0x7cab1a83cf748abe,
perumahan,Pembangunan Perumahan,Perumahan HOP 5 PT.Badak LNG,"Jl. Bali HOP 5 No.39, Gn. Telihan, Kec. Bontang Bar., Kota Bontang, Kalimantan Timur 75321","Gn. Telihan, Kec. Bontang Bar., Kota Bontang",KALIMANTAN TIMUR,75321.0,Indonesia,,,,0.1367109,117.4607675,https://maps.google.com/?cid=0x0:0xdf878a1c4efacfc3,
perumahan,Perhimpunan Pengembang Perumahan,Rumah risda,"5FVF+P22, Guntung, Kec. Bontang Utara, Kota Bontang, Kalimantan Timur 75321","Guntung, Kec. Bontang Utara, Kota Bontang",KALIMANTAN TIMUR,75321.0,Indonesia,,,,0.1945775,117.4733181,https://maps.google.com/?cid=0x0:0x832e3a3e1e444c36,
perumahan,Komplek perumahan,Pesona Bukit Sintuk,"Pesona Bukit Sintuk, Mandiri Regency 3, Belimbing, Kec. Bontang Bar., Kota Bontang, Kalimantan Timur 75321","Mandiri Regency 3, Belimbing, Kec. Bontang Bar., Kota Bontang",KALIMANTAN TIMUR,75321.0,Indonesia,,,,0.1665562,117.4657274,https://maps.google.com/?cid=0x0:0xe3a6af39f3e7e059,
perumahan,Komplek perumahan,Perum temputu,"Jl. Kapala Niaga I No.3b, Lok Tuan, Kec. Bontang Utara, Kota Bontang, Kalimantan Timur","Kota Bontang, Kalimantan Timur",KALIMANTAN TIMUR,,Indonesia,,,,0.1725338,117.4684459,https://maps.google.com/?cid=0x0:0x2f0ce55f9a450162,
perumahan,Komplek perumahan,Adi Kusnandi home,"Jl. Kapal Pinisi 1 Gg. 5 No.28, RT.47, Lok Tuan, Kec. Bontang Utara, Kota Bontang, Kalimantan Timur 75321","RT.47, Lok Tuan, Kec. Bontang Utara, Kota Bontang",KALIMANTAN TIMUR,75321.0,Indonesia,,,,0.1724574,117.4730507,https://maps.google.com/?cid=0x0:0xbaf1a5c97cc0abf5,
perumahan,Komplek perumahan,Rumah Afdol,"Jl. Arif Rahman Hakim No.34, Belimbing, Kec. Bontang Bar., Kota Bontang, Kalimantan Timur 75321","Belimbing, Kec. Bontang Bar., Kota Bontang",KALIMANTAN TIMUR,75321.0,Indonesia,,,,0.1674187,117.4557607,https://maps.google.com/?cid=0x0:0x310728157c05698f,
perumahan,Komplek perumahan,Prima Prabu,"Jl. Kapal Tanker IV No.16, Lok Tuan, Kec. Bontang Utara, Kota Bontang, Kalimantan Timur 75321","Lok Tuan, Kec. Bontang Utara, Kota Bontang",KALIMANTAN TIMUR,75321.0,Indonesia,,,,0.1739547,117.4702922,https://maps.google.com/?cid=0x0:0x4e31de9499fec43c,
perumahan,Pembangunan Perumahan,Harmony Green Village,"Jl. Kapal Layar No.9 Blok S, Lok Tuan, Kec. Bontang Utara, Kota Bontang, Kalimantan Timur 75321","Lok Tuan, Kec. Bontang Utara, Kota Bontang",KALIMANTAN TIMUR,75321.0,Indonesia,,,,0.1653325,117.470199,https://maps.google.com/?cid=0x0:0x9a90f7373acb90a0,
perumahan,Komplek perumahan,Rumah Nindy,"4CVX+VG9, Belimbing, Kec. Bontang Bar., Kota Bontang, Kalimantan Timur 75321","Belimbing, Kec. Bontang Bar., Kota Bontang",KALIMANTAN TIMUR,75321.0,Indonesia,,,,0.1446618,117.4488491,https://maps.google.com/?cid=0x0:0xa9e9e303b0daff58,
perumahan,Gedung Apartemen,Rumah,"4FGJ+24P, Jl. Selat Bali, RT.07/RW.no. 44a, gn. Sari, Kec. Bontang Sel., Kota Bontang, Kalimantan Timur 75321","Jl. Selat Bali, RT.07/RW.no. 44a, gn. Sari, Kec. Bontang Sel., Kota Bontang",KALIMANTAN TIMUR,75321.0,Indonesia,,,,0.1250751,117.4803219,https://maps.google.com/?cid=0x0:0x928eaf14c7e783dd,
perumahan,Komplek perumahan,rumah saya,"Jl. Kapal Layar 5 RT:23 kampung mandar No.46, Lok Tuan, Kec. Bontang Utara, Kota Bontang, Kalimantan Timur 75321","Lok Tuan, Kec. Bontang Utara, Kota Bontang",KALIMANTAN TIMUR,75321.0,Indonesia,,,,0.1661732,117.476597,https://maps.google.com/?cid=0x0:0x88b99908bf0c77bc,
perumahan,perumahan,Kampung Rawa Lok Tuan,"5F8M+H8J, Gg. Padaelo, Lok Tuan, Kec. Bontang Utara, Kota Bontang, Kalimantan Timur 75321","Gg. Padaelo, Lok Tuan, Kec. Bontang Utara, Kota Bontang",KALIMANTAN TIMUR,75321.0,Indonesia,,,,0.166452,117.4832624,https://maps.google.com/?cid=0x0:0x55b7bc08f9387bd5,
perumahan,Perhimpunan Pengembang Perumahan,Perumahan Griya Sentosa,"Jl. Gambas No.14, Satimpo, Kec. Bontang Sel., Kota Bontang, Kalimantan Timur 75325","Satimpo, Kec. Bontang Sel., Kota Bontang",KALIMANTAN TIMUR,75325.0,Indonesia,,,,0.1312173,117.4711116,https://maps.google.com/?cid=0x0:0x5e02285fc6808e6b,
perumahan,Otoritas Perumahan,Perumahan Badak LNG PC 6B 17A,"PC, Jl. Gn. Rinjani No.17A 6B, Satimpo, Kec. Bontang Sel., Kota Bontang, Kalimantan Timur 75325","Jl. Gn. Rinjani No.17A 6B, Satimpo, Kec. Bontang Sel., Kota Bontang",KALIMANTAN TIMUR,75325.0,Indonesia,,,,0.1197044,117.4689987,https://maps.google.com/?cid=0x0:0xeedbbe7c3fdb4f0a,
perumahan,Pembangunan Perumahan,Perumahan Hop 3 PT Badak NGL Jalan Danau Jempang,"Jl. Danau Jempang No.8051, Satimpo, Kec. Bontang Sel., Kota Bontang, Kalimantan Timur 75325","Satimpo, Kec. Bontang Sel., Kota Bontang",KALIMANTAN TIMUR,75325.0,Indonesia,,,,0.1243482,117.4682863,https://maps.google.com/?cid=0x0:0x5a17b19b3e6ec6c5,
perumahan,Perhimpunan Pengembang Perumahan,Rumah Bp Evlan Samban,"Jl. Pongtiku No.3, RT.01/RW.no, 24a, Kanaan, Kec. Bontang Bar., Kota Bontang, Kalimantan Timur 75321","RT.01/RW.no, 24a, Kanaan, Kec. Bontang Bar., Kota Bontang",KALIMANTAN TIMUR,75321.0,Indonesia,,,,0.1347348,117.458564,https://maps.google.com/?cid=0x0:0x615f3dfe2bb9f2a8,
perumahan,Komplek perumahan,Syakara's Crib,"kompleks PT Badak NGL, Jl.tarakan 1 no.116 PC.4, Satimpo, Bontang Selatan, Bontang City, East Kalimantan 75321","Jl.tarakan 1 no.116 PC.4, Satimpo, Bontang Selatan, Bontang City",KALIMANTAN TIMUR,75321.0,Indonesia,,,,0.112044,117.45299,https://maps.google.com/?cid=0x0:0x16d28159203f86ac,
perumahan,,Belakang Housing/Belakang Equator,"5FQF+787 I (Belakang Housing/Belakang Equator, Jl. Tari Dewa-Dewa, Guntung, Kec. Bontang Utara, Kota Bontang, Kalimantan Timur 75321","Jl. Tari Dewa-Dewa, Guntung, Kec. Bontang Utara, Kota Bontang",KALIMANTAN TIMUR,75321.0,Indonesia,,,,0.1881635,117.4733007,https://maps.google.com/?cid=0x0:0x42a3478c29cc5ae,
perumahan,Pembangunan Perumahan,Hasibuan home,"4FCM+99G, Jl. Jend. Soedirman, Tj. Laut, Kec. Bontang Sel., Kota Bontang, Kalimantan Timur 75321","Jl. Jend. Soedirman, Tj. Laut, Kec. Bontang Sel., Kota Bontang",KALIMANTAN TIMUR,75321.0,Indonesia,85246757676.0,,,0.1209486,117.483444,https://maps.google.com/?cid=0x0:0x2d855af974825f8f,
perumahan,Komplek perumahan,Bebas,"4F8J+R6M, Berbas Tengah, Kec. Bontang Sel., Kota Bontang, Kalimantan Timur 75325","Berbas Tengah, Kec. Bontang Sel., Kota Bontang",KALIMANTAN TIMUR,75325.0,Indonesia,,,,0.1170924,117.480548,https://maps.google.com/?cid=0x0:0x1f0a8688a36bf868,
perumahan,perumahan,Kalimantan Timur 75324,"Kec. Bontang Sel., Kota Bontang, Kalimantan Timur","Kota Bontang, Kalimantan Timur",KALIMANTAN TIMUR,,Indonesia,,,,0.1495015,117.2911248,https://maps.google.com/?cid=0x0:0x38f97e9610099fa,
perumahan,Komplek perumahan,Perumahan HOP 4 PT Badak NGL,"4FJ7+X85, Jl. Simon Tampubolon, Gn. Elai, Kec. Bontang Utara, Kota Bontang, Kalimantan Timur 75325","Jl. Simon Tampubolon, Gn. Elai, Kec. Bontang Utara, Kota Bontang",KALIMANTAN TIMUR,75325.0,Indonesia,,,,0.132393,117.463349,https://maps.google.com/?cid=0x0:0x7d2ee76355f06b90,
perumahan,Komplek perumahan,Perum Korpri Bontang,"Jl. Letjen Urip Sumoharjo, Bontang Lestari, Kec. Bontang Sel., Kota Bontang, Kalimantan Timur 75325","Bontang Lestari, Kec. Bontang Sel., Kota Bontang",KALIMANTAN TIMUR,75325.0,Indonesia,,,,0.0374741,117.4574927,https://maps.google.com/?cid=0x0:0x1bdd43bb437a42f4,
perumahan,Komplek perumahan,Nyerakat Kiri,"Jl. Letjen Urip Sumoharjo No.RT.08, Bontang Lestari, Kec. Bontang Sel., Kota Bontang, Kalimantan Timur 75324","Bontang Lestari, Kec. Bontang Sel., Kota Bontang",KALIMANTAN TIMUR,75324.0,Indonesia,,,,0.0414911,117.4445668,https://maps.google.com/?cid=0x0:0x7b7db947ac89cea,
perumahan,Komplek perumahan,Perumahan Sekambing,"3F85+PQF, Jl. Kalimaya, Bontang Lestari, Kec. Bontang Sel., Kota Bontang, Kalimantan Timur 75325","Jl. Kalimaya, Bontang Lestari, Kec. Bontang Sel., Kota Bontang",KALIMANTAN TIMUR,75325.0,Indonesia,51258160575.0,,,0.0668239,117.4594355,https://maps.google.com/?cid=0x0:0x45468698ed0ec1f,
perumahan,Komplek perumahan,Karya sejahtera,"2CHG+J2, Bontang Lestari, Kec. Bontang Sel., Kota Bontang, Kalimantan Timur 75325","Bontang Lestari, Kec. Bontang Sel., Kota Bontang",KALIMANTAN TIMUR,75325.0,Indonesia,81242706541.0,,,0.0290689,117.4250632,https://maps.google.com/?cid=0x0:0xdfae0cec4da35918,
perumahan,Perhimpunan Pengembang Perumahan,Perumahan Griya Sentosa,"Jl. Gambas No.14, Satimpo, Kec. Bontang Sel., Kota Bontang, Kalimantan Timur 75325","Satimpo, Kec. Bontang Sel., Kota Bontang",KALIMANTAN TIMUR,75325.0,Indonesia,,,,0.1312173,117.4711116,https://maps.google.com/?cid=0x0:0x5e02285fc6808e6b,
perumahan,Komplek perumahan,pc 6c 26a,"pc 6c 26a, Satimpo, Bontang Selatan, Bontang City, East Kalimantan 75325","Satimpo, Bontang Selatan, Bontang City",KALIMANTAN TIMUR,75325.0,Indonesia,,,,0.119639,117.4677067,https://maps.google.com/?cid=0x0:0x7d70313ea3449fbf,
perumahan,Otoritas Perumahan,PC 4 / 232,"4F54+VP5, Jl. Plaju 2, Satimpo, Kec. Bontang Sel., Kota Bontang, Kalimantan Timur 75325","Jl. Plaju 2, Satimpo, Kec. Bontang Sel., Kota Bontang",KALIMANTAN TIMUR,75325.0,Indonesia,,,,0.109629,117.4568534,https://maps.google.com/?cid=0x0:0x18e693638ea6d25e,
perumahan,Komplek perumahan,Perumahan Pc 4,"4F65+74G, Satimpo, Kec. Bontang Sel., Kota Bontang, Kalimantan Timur 75325","Satimpo, Kec. Bontang Sel., Kota Bontang",KALIMANTAN TIMUR,75325.0,Indonesia,,,,0.1106874,117.4578395,https://maps.google.com/?cid=0x0:0xf29d6317f5636794,
perumahan,Komplek perumahan,PC 6C 80D,"4FF7+W6W, Jl. A.R. Hakim, Satimpo, Kec. Bontang Sel., Kota Bontang, Kalimantan Timur 75325","Jl. A.R. Hakim, Satimpo, Kec. Bontang Sel., Kota Bontang",KALIMANTAN TIMUR,75325.0,Indonesia,,,,0.1248624,117.4630925,https://maps.google.com/?cid=0x0:0xeb986a8be4d5dd9f,
perumahan,Pembangunan Perumahan,Perumahan Griya 9D,"Jl. Cumi-Cumi No.2a No.9d, Tanjung Laut Indah, Bontang Selatan, Bontang City, East Kalimantan 75325","Tanjung Laut Indah, Bontang Selatan, Bontang City",KALIMANTAN TIMUR,75325.0,Indonesia,85156325526.0,,,0.1161068,117.4877573,https://maps.google.com/?cid=0x0:0xecac8062bef6238d,
perumahan,Komplek perumahan,PC6C Komplek Perumahan PT.Badak NGL,"4FG9+8JQ, Unnamed Road, Satimpo, Bontang Selatan, Bontang City, East Kalimantan 75325","Unnamed Road, Satimpo, Bontang Selatan, Bontang City",KALIMANTAN TIMUR,75325.0,Indonesia,,,,0.1258459,117.4691143,https://maps.google.com/?cid=0x0:0xeb65940fdff82b34,
perumahan,Toko umum,Rumah heri,"2FX2+6VQ, Jl. Linmas 2, Bontang Lestari, Kec. Bontang Sel., Kota Bontang, Kalimantan Timur 75324","Jl. Linmas 2, Bontang Lestari, Kec. Bontang Sel., Kota Bontang",KALIMANTAN TIMUR,75324.0,Indonesia,,,,0.0480913,117.4522445,https://maps.google.com/?cid=0x0:0x84f7607de8c57a3f,
perumahan,Kantor Perusahaan,segendis,"2FX2+X25, Bontang Lestari, Kec. Bontang Sel., Kota Bontang, Kalimantan Timur 75324","Bontang Lestari, Kec. Bontang Sel., Kota Bontang",KALIMANTAN TIMUR,75324.0,Indonesia,,,,0.0502979,117.4496236,https://maps.google.com/?cid=0x0:0x16566bb48174206,
perumahan,perumahan,rumah pak udirman,"Jl.Satya Lencana 2, RT.10, Bontang Lestari, Kec. Bontang Sel.","Kota Bontang, Kalimantan Timur",KALIMANTAN TIMUR,,Indonesia,,,,0.0496978,117.4321452,https://maps.google.com/?cid=0x0:0xbd79a51e7d47f948,
perumahan,Pembangunan Perumahan,Rio Dewi,"Jl. Linmas 2 No.12, RT.08, Bontang Lestari, Kec. Bontang Sel., Kota Bontang, Kalimantan Timur 75324","RT.08, Bontang Lestari, Kec. Bontang Sel., Kota Bontang",KALIMANTAN TIMUR,75324.0,Indonesia,,,,0.0474493,117.4490149,https://maps.google.com/?cid=0x0:0x2e8c5f005e978288,
perumahan,Komplek perumahan,PC 6C/135B,"4FG9+Q55, Satimpo, Kec. Bontang Sel., Kota Bontang, Kalimantan Timur 75325","Satimpo, Kec. Bontang Sel., Kota Bontang",KALIMANTAN TIMUR,75325.0,Indonesia,,,,0.1270367,117.4682078,https://maps.google.com/?cid=0x0:0xcb23014a90fc1d3a,
perumahan,Komplek perumahan,Rumah Azka SLA,"4FCR+5JJ, Gg. Lele, Tj. Laut Indah, Kec. Bontang Sel., Kota Bontang, Kalimantan Timur 75325","Gg. Lele, Tj. Laut Indah, Kec. Bontang Sel., Kota Bontang",KALIMANTAN TIMUR,75325.0,Indonesia,,,,0.1204728,117.4915058,https://maps.google.com/?cid=0x0:0xa1571ff4593ece88,
perumahan,Komplek perumahan,PC06/107B Perumahan PT Badak,"4FG8+CQJ, Satimpo, Kec. Bontang Sel., Kota Bontang, Kalimantan Timur 75325","Satimpo, Kec. Bontang Sel., Kota Bontang",KALIMANTAN TIMUR,75325.0,Indonesia,,,,0.1260899,117.4669904,https://maps.google.com/?cid=0x0:0x96c97f67a0a93a2c,
perumahan,Pembangunan Perumahan,Bizbi.Garage,"4F86+W2, Satimpo, Kec. Bontang Sel., Kota Bontang, Kalimantan Timur","Kota Bontang, Kalimantan Timur",KALIMANTAN TIMUR,,Indonesia,,,,0.1172349,117.4600663,https://maps.google.com/?cid=0x0:0x824e23dd0d526270,
perumahan,Pembangunan Perumahan,Perumahan Hop 3 PT Badak NGL Jalan Danau Jempang,"Jl. Danau Jempang No.8051, Satimpo, Kec. Bontang Sel., Kota Bontang, Kalimantan Timur 75325","Satimpo, Kec. Bontang Sel., Kota Bontang",KALIMANTAN TIMUR,75325.0,Indonesia,,,,0.1243482,117.4682863,https://maps.google.com/?cid=0x0:0x5a17b19b3e6ec6c5,
perumahan,Perumahan,Rumah budi susilo perum. Korpri,"2FP5+W7H, Bontang Lestari, Kec. Bontang Sel., Kota Bontang, Kalimantan Timur 75325","Bontang Lestari, Kec. Bontang Sel., Kota Bontang",KALIMANTAN TIMUR,75325.0,Indonesia,,,,0.036823,117.4574656,https://maps.google.com/?cid=0x0:0x23dde45c318ec7c6,
perumahan,Komplek perumahan,"Eko Purnomo,ST","4FC7+JFX, Satimpo, Kec. Bontang Sel., Kota Bontang, Kalimantan Timur 75325","Satimpo, Kec. Bontang Sel., Kota Bontang",KALIMANTAN TIMUR,75325.0,Indonesia,,,,0.1216243,117.4637423,https://maps.google.com/?cid=0x0:0xb73695fbb8b5ab48,
perumahan,Pembangunan Perumahan,Bambang Jenggot,"PC 6C 119D, Satimpo, Kec. Bontang Sel., Kota Bontang, Kalimantan Timur 75324","Satimpo, Kec. Bontang Sel., Kota Bontang",KALIMANTAN TIMUR,75324.0,Indonesia,8125100022.0,,,0.1264193,117.4698162,https://maps.google.com/?cid=0x0:0x6206fab5adb202a9,
perumahan,perumahan,Rumah Geo,"4F7G+CPH, Gg. Zamrud 13, RT.61, RW No.28, Berbas Tengah, Kec. Bontang Sel., Kota Bontang, Kalimantan Timur 75324","Gg. Zamrud 13, RT.61, RW No.28, Berbas Tengah, Kec. Bontang Sel., Kota Bontang",KALIMANTAN TIMUR,75324.0,Indonesia,,,,0.1136084,117.4770978,https://maps.google.com/?cid=0x0:0xb03a81058f9e60f9,
perumahan,perumahan,Kalimantan Timur 75325,Kalimantan Timur,Kalimantan Timur,KALIMANTAN TIMUR,,Indonesia,,,,0.0830107,117.2440957,https://maps.google.com/?cid=0x0:0x26084c6c6cec55ca,
perumahan,Komplek perumahan,Perumahan HOP 4 PT Badak NGL,"4FJ7+X85, Jl. Simon Tampubolon, Gn. Elai, Kec. Bontang Utara, Kota Bontang, Kalimantan Timur 75325","Jl. Simon Tampubolon, Gn. Elai, Kec. Bontang Utara, Kota Bontang",KALIMANTAN TIMUR,75325.0,Indonesia,,,,0.132393,117.463349,https://maps.google.com/?cid=0x0:0x7d2ee76355f06b90,
perumahan,Komplek perumahan,PC6C Komplek Perumahan PT.Badak NGL,"4FG9+8JQ, Unnamed Road, Satimpo, Bontang Selatan, Bontang City, East Kalimantan 75325","Unnamed Road, Satimpo, Bontang Selatan, Bontang City",KALIMANTAN TIMUR,75325.0,Indonesia,,,,0.1258459,117.4691143,https://maps.google.com/?cid=0x0:0xeb65940fdff82b34,
perumahan,Perhimpunan Pengembang Perumahan,Perumahan Griya Sentosa,"Jl. Gambas No.14, Satimpo, Kec. Bontang Sel., Kota Bontang, Kalimantan Timur 75325","Satimpo, Kec. Bontang Sel., Kota Bontang",KALIMANTAN TIMUR,75325.0,Indonesia,,,,0.1312173,117.4711116,https://maps.google.com/?cid=0x0:0x5e02285fc6808e6b,
perumahan,Pembangunan Perumahan,Perumahan Griya 9D,"Jl. Cumi-Cumi No.2a No.9d, Tanjung Laut Indah, Bontang Selatan, Bontang City, East Kalimantan 75325","Tanjung Laut Indah, Bontang Selatan, Bontang City",KALIMANTAN TIMUR,75325.0,Indonesia,85156325526.0,,,0.1161068,117.4877573,https://maps.google.com/?cid=0x0:0xecac8062bef6238d,
perumahan,Perusahaan Pertambangan,Perumahan Bumi Persada Indah (PAMA),"Unnamed Road, Bontang Sel., 75325, Bontang Lestari, Kec. Bontang Sel., Kota Bontang, Kalimantan Timur 75325","Bontang Sel.,",KALIMANTAN TIMUR,75325.0,Indonesia,,,,0.0677576,117.4607328,https://maps.google.com/?cid=0x0:0x594a27dc8b3a270c,
perumahan,Komplek perumahan,Perum HOP 6 PTB,"Jl. Simon Tampubolon No.145, Gn. Elai, Kec. Bontang Utara, Kota Bontang, Kalimantan Timur 75325","Gn. Elai, Kec. Bontang Utara, Kota Bontang",KALIMANTAN TIMUR,75325.0,Indonesia,,,,0.1360794,117.4651082,https://maps.google.com/?cid=0x0:0xa0c0c76246409609,
perumahan,Komplek perumahan,PC 6C-140C Komplek PT Badak NGL,"4FC9+G5P, Jl. Bengkirai, Satimpo, Kec. Bontang Sel., Kota Bontang, Kalimantan Timur 75325","Jl. Bengkirai, Satimpo, Kec. Bontang Sel., Kota Bontang",KALIMANTAN TIMUR,75325.0,Indonesia,,,,0.1213458,117.4679649,https://maps.google.com/?cid=0x0:0x9680a812e278a094,
perumahan,Komplek perumahan,PC06/107B Perumahan PT Badak,"4FG8+CQJ, Satimpo, Kec. Bontang Sel., Kota Bontang, Kalimantan Timur 75325","Satimpo, Kec. Bontang Sel., Kota Bontang",KALIMANTAN TIMUR,75325.0,Indonesia,,,,0.1260899,117.4669904,https://maps.google.com/?cid=0x0:0x96c97f67a0a93a2c,
perumahan,Komplek perumahan,Perumahan Citra Khatulistiwa,"4GJ2+HGM, Jl. Aip II KS Tubun langlang Gg. breksi, RT.008/RW.No.42, Bontang Kuala, Kec. Bontang Utara, Kota Bontang, Kalimantan Timur 75325","Jl. Aip II KS Tubun langlang Gg. breksi, RT.008/RW.No.42, Bontang Kuala, Kec. Bontang Utara, Kota Bontang",KALIMANTAN TIMUR,75325.0,Indonesia,85280001613.0,,,0.1314546,117.5012837,https://maps.google.com/?cid=0x0:0x6dc5e8860ce5e29e,
perumahan,Komplek perumahan,Karya sejahtera,"2CHG+J2, Bontang Lestari, Kec. Bontang Sel., Kota Bontang, Kalimantan Timur 75325","Bontang Lestari, Kec. Bontang Sel., Kota Bontang",KALIMANTAN TIMUR,75325.0,Indonesia,81242706541.0,,,0.0290689,117.4250632,https://maps.google.com/?cid=0x0:0xdfae0cec4da35918,
perumahan,Komplek perumahan,pc 6c 26a,"pc 6c 26a, Satimpo, Bontang Selatan, Bontang City, East Kalimantan 75325","Satimpo, Bontang Selatan, Bontang City",KALIMANTAN TIMUR,75325.0,Indonesia,,,,0.119639,117.4677067,https://maps.google.com/?cid=0x0:0x7d70313ea3449fbf,
perumahan,Komplek perumahan,Perumahan Sekambing,"3F85+PQF, Jl. Kalimaya, Bontang Lestari, Kec. Bontang Sel., Kota Bontang, Kalimantan Timur 75325","Jl. Kalimaya, Bontang Lestari, Kec. Bontang Sel., Kota Bontang",KALIMANTAN TIMUR,75325.0,Indonesia,51258160575.0,,,0.0668239,117.4594355,https://maps.google.com/?cid=0x0:0x45468698ed0ec1f,
perumahan,Komplek perumahan,PC 6C 80D,"4FF7+W6W, Jl. A.R. Hakim, Satimpo, Kec. Bontang Sel., Kota Bontang, Kalimantan Timur 75325","Jl. A.R. Hakim, Satimpo, Kec. Bontang Sel., Kota Bontang",KALIMANTAN TIMUR,75325.0,Indonesia,,,,0.1248624,117.4630925,https://maps.google.com/?cid=0x0:0xeb986a8be4d5dd9f,
perumahan,Otoritas Perumahan,Perumahan Green Pesona Permai,"Api-Api, Kec. Bontang Utara, Kota Bontang, Kalimantan Timur 75325","Kec. Bontang Utara, Kota Bontang",KALIMANTAN TIMUR,75325.0,Indonesia,,,,0.1345243,117.4852218,https://maps.google.com/?cid=0x0:0xfede64ad8236fee8,
perumahan,Pembangunan Perumahan,Perumahan Bukit Sekatup Damai,"Jl. Gn. Rinjani No.20, Gn. Elai, Kec. Bontang Utara, Kota Bontang, Kalimantan Timur 75325","Gn. Elai, Kec. Bontang Utara, Kota Bontang",KALIMANTAN TIMUR,75325.0,Indonesia,,,,0.1473244,117.4737746,https://maps.google.com/?cid=0x0:0xc671dbcdfd25389a,
perumahan,Otoritas Perumahan,Perumahan Royal Saleba,"4FQW+X23, Bontang Baru, Kec. Bontang Utara, Kota Bontang, Kalimantan Timur 75313","Bontang Baru, Kec. Bontang Utara, Kota Bontang",KALIMANTAN TIMUR,75313.0,Indonesia,,,,0.1398781,117.4950596,https://maps.google.com/?cid=0x0:0x10d2cacb0b7d65c2,
perumahan,Otoritas Perumahan,Perumahan Badak LNG PC 6B 17A,"PC, Jl. Gn. Rinjani No.17A 6B, Satimpo, Kec. Bontang Sel., Kota Bontang, Kalimantan Timur 75325","Jl. Gn. Rinjani No.17A 6B, Satimpo, Kec. Bontang Sel., Kota Bontang",KALIMANTAN TIMUR,75325.0,Indonesia,,,,0.1197044,117.4689987,https://maps.google.com/?cid=0x0:0xeedbbe7c3fdb4f0a,
perumahan,Komplek perumahan,Rumah pagar batu hijau,"Jl. Selat Alor 1 No.25, Tj. Laut, Kec. Bontang Sel., Kota Bontang, Kalimantan Timur 75325","Tj. Laut, Kec. Bontang Sel., Kota Bontang",KALIMANTAN TIMUR,75325.0,Indonesia,,,,0.1240062,117.4908986,https://maps.google.com/?cid=0x0:0xf8ce0beea3543f9f,
perumahan,Komplek perumahan,"Eko Purnomo,ST","4FC7+JFX, Satimpo, Kec. Bontang Sel., Kota Bontang, Kalimantan Timur 75325","Satimpo, Kec. Bontang Sel., Kota Bontang",KALIMANTAN TIMUR,75325.0,Indonesia,,,,0.1216243,117.4637423,https://maps.google.com/?cid=0x0:0xb73695fbb8b5ab48,
perumahan,Komplek perumahan,Perumahan Badak,"Jl. Gn. Rinjani No.126, Satimpo, Kec. Bontang Sel., Kota Bontang, Kalimantan Timur 75325","Satimpo, Kec. Bontang Sel., Kota Bontang",KALIMANTAN TIMUR,75325.0,Indonesia,,,,0.1201595,117.4700716,https://maps.google.com/?cid=0x0:0xa3a1bfa7864f2f00,
perumahan,Komplek perumahan,Rumah Azka SLA,"4FCR+5JJ, Gg. Lele, Tj. Laut Indah, Kec. Bontang Sel., Kota Bontang, Kalimantan Timur 75325","Gg. Lele, Tj. Laut Indah, Kec. Bontang Sel., Kota Bontang",KALIMANTAN TIMUR,75325.0,Indonesia,,,,0.1204728,117.4915058,https://maps.google.com/?cid=0x0:0xa1571ff4593ece88,
perumahan,Komplek perumahan,Perumahan Surya Indah,"Jl. Cumi-Cumi No.2a, Tj. Laut Indah, Kec. Bontang Sel., Kota Bontang, Kalimantan Timur 75325","Tj. Laut Indah, Kec. Bontang Sel., Kota Bontang",KALIMANTAN TIMUR,75325.0,Indonesia,,,,0.1156346,117.4883254,https://maps.google.com/?cid=0x0:0x65f58a6c2d343103,
perumahan,Pembangunan Perumahan,Exva Home,"Gg. Cumi-Cumi 2A No.09B, Tanjung Laut Indah, Bontang Selatan, Bontang City, East Kalimantan 75325","Tanjung Laut Indah, Bontang Selatan, Bontang City",KALIMANTAN TIMUR,75325.0,Indonesia,,,,0.1161489,117.4877232,https://maps.google.com/?cid=0x0:0x20182b5eddd73bb2,
perumahan,Komplek perumahan,Yoga House,"Jl. Selat Bali No.19b, Tj. Laut, Kec. Bontang Sel., Kota Bontang, Kalimantan Timur 75325","Tj. Laut, Kec. Bontang Sel., Kota Bontang",KALIMANTAN TIMUR,75325.0,Indonesia,,,,0.125233,117.4814579,https://maps.google.com/?cid=0x0:0xec26f07e36069c55,
perumahan,perumahan,Kalimantan Timur 75311,"Gn. Elai, Kec. Bontang Utara, Kota Bontang, Kalimantan Timur","Kota Bontang, Kalimantan Timur",KALIMANTAN TIMUR,,Indonesia,,,,0.1444417,117.4887629,https://maps.google.com/?cid=0x0:0x33198cc450f8143a,
perumahan,Komplek perumahan,Home syafa,"Jl. Gendang No.82, Bontang Baru, Kec. Bontang Utara, Kota Bontang, Kalimantan Timur 75313","Bontang Baru, Kec. Bontang Utara, Kota Bontang",KALIMANTAN TIMUR,75313.0,Indonesia,,,,0.1438516,117.4902887,https://maps.google.com/?cid=0x0:0x4843138efa006afb,
perumahan,Developer Rumah Hunian Khusus,BTN PKT Bontang,"4FVF+835, Jl. Srigunting, Belimbing, Bontang Barat, Bontang City, East Kalimantan 75325","Jl. Srigunting, Belimbing, Bontang Barat, Bontang City",KALIMANTAN TIMUR,75325.0,Indonesia,85252210109.0,,,0.143257,117.4727401,https://maps.google.com/?cid=0x0:0x3cc9b85d85f2bc2d,
perumahan,Komplek perumahan,Perum temputu,"Jl. Kapala Niaga I No.3b, Lok Tuan, Kec. Bontang Utara, Kota Bontang, Kalimantan Timur","Kota Bontang, Kalimantan Timur",KALIMANTAN TIMUR,,Indonesia,,,,0.1725338,117.4684459,https://maps.google.com/?cid=0x0:0x2f0ce55f9a450162,
perumahan,Masjid,Masjid Fathul Khoir - Perumahan BSD Bontang,"Perumahan BSD, Jl. Gn. Merapi No.1, Gunung Elai, Bontang Utara, Bontang City, East Kalimantan 75313","Jl. Gn. Merapi No.1, Gunung Elai, Bontang Utara, Bontang City",KALIMANTAN TIMUR,75313.0,Indonesia,,,,0.1496587,117.4756335,https://maps.google.com/?cid=0x0:0xd3a60144cfaa1697,
perumahan,Komplek perumahan,Kcy,"4FGQ+FQC, Jl. Mawar III, Api-Api, Kec. Bontang Utara, Kota Bontang, Kalimantan Timur 75325","Jl. Mawar III, Api-Api, Kec. Bontang Utara, Kota Bontang",KALIMANTAN TIMUR,75325.0,Indonesia,,,,0.1261859,117.4893769,https://maps.google.com/?cid=0x0:0xa9e42ce864887a73,
perumahan,Komplek perumahan,Donelley Indonesia. PT,"JL. Kom L Yos Sudarso 2, Bontang Baru, Kec. Bontang Utara, Kota Bontang, Kalimantan Timur 75313","Bontang Baru, Kec. Bontang Utara, Kota Bontang",KALIMANTAN TIMUR,75313.0,Indonesia,5483036117.0,,,0.1356781,117.4985623,https://maps.google.com/?cid=0x0:0xbb35ebed3491c7e1,
perumahan,Gedung Apartemen,Rumah,"Jl. Keladi No.18, Rt03, Kec. Bontang Utara, Kota Bontang, Kalimantan Timur 75313","Rt03, Kec. Bontang Utara, Kota Bontang",KALIMANTAN TIMUR,75313.0,Indonesia,,,,0.1432148,117.4884195,https://maps.google.com/?cid=0x0:0x1656b061444e091,
perumahan,Perumahan,Rumah BTN,"Hub_Cs_BTN.(0858)_5220_1554, Jl. Bekantan No.23, Belimbing, Kec. Bontang Bar., Kota Bontang, Kalimantan Timur 75325","Jl. Bekantan No.23, Belimbing, Kec. Bontang Bar., Kota Bontang",KALIMANTAN TIMUR,75325.0,Indonesia,,,,0.1459676,117.4718959,https://maps.google.com/?cid=0x0:0xe70430691f0baa32,
perumahan,Perumahan,Kontrakan,"Jl. Tennis Gang Milik Bersama 2 No.27D, RT.37, Api-Api, Kec. Bontang Utara, Kota Bontang, Kalimantan Timur","Kota Bontang, Kalimantan Timur",KALIMANTAN TIMUR,,Indonesia,,,,0.1338497,117.4820203,https://maps.google.com/?cid=0x0:0xc633ac3a9da75902,
perumahan,perumahan,Kalimantan Timur 75312,"Kec. Tlk. Pandan, Kabupaten Kutai Timur, Kalimantan Timur","Kabupaten Kutai Timur, Kalimantan Timur",KALIMANTAN TIMUR,,Indonesia,,,,0.2740898,117.4908738,https://maps.google.com/?cid=0x0:0x66ae207830c2242a,
perumahan,Pembangunan Perumahan,Maisah,"6FMC+59Q, Jl. Provinsi Samarinda - Sangata, Martadinata, Kec. Tlk. Pandan, Kabupaten Kutai Timur, Kalimantan Timur 75311","Jl. Provinsi Samarinda - Sangata, Martadinata, Kec. Tlk. Pandan, Kabupaten Kutai Timur",KALIMANTAN TIMUR,75311.0,Indonesia,,,,0.232964,117.4709792,https://maps.google.com/?cid=0x0:0x954a2d94f8746eca,
perumahan,perumahan,Home Malla,"6FQH+WJR, Jl. Poros Bontang - Sangatta, Martadinata, Kec. Tlk. Pandan, Kabupaten Kutai Timur, Kalimantan Timur 75311","Jl. Poros Bontang - Sangatta, Martadinata, Kec. Tlk. Pandan, Kabupaten Kutai Timur",KALIMANTAN TIMUR,75311.0,Indonesia,,,,0.2407413,117.4796434,https://maps.google.com/?cid=0x0:0x5e8f95fa8c02fbda,
perumahan,perumahan,Rumah kafka khalif,"7FJG+6W, Kandolo, Kec. Tlk. Pandan, Kabupaten Kutai Timur, Kalimantan Timur","Kabupaten Kutai Timur, Kalimantan Timur",KALIMANTAN TIMUR,,Indonesia,,,,0.2806139,117.4772941,https://maps.google.com/?cid=0x0:0x103940f1781bc4c2,
perumahan,Komplek perumahan,Hariyadi ( tanah plus kandang ayam ),"6FQG+8FR, Martadinata, Kec. Tlk. Pandan, Kabupaten Kutai Timur, Kalimantan Timur 75311","Martadinata, Kec. Tlk. Pandan, Kabupaten Kutai Timur",KALIMANTAN TIMUR,75311.0,Indonesia,,,,0.2382328,117.4753626,https://maps.google.com/?cid=0x0:0xd40ce4540420e8e3,
perumahan,Padang,Rumah Makan Ananda 2,"6FQH+WJR, Jl. Poros Bontang - Sangatta, Martadinata, Kec. Tlk. Pandan, Kabupaten Kutai Timur, Kalimantan Timur 75311","Jl. Poros Bontang - Sangatta, Martadinata, Kec. Tlk. Pandan, Kabupaten Kutai Timur",KALIMANTAN TIMUR,75311.0,Indonesia,,,,0.2398679,117.4790017,https://maps.google.com/?cid=0x0:0x4c8fa1ba81f5806d,
perumahan,perumahan,Rumah Mama sardin,"7F6G+RG6, Jl. Poros Bontang - Sangatta, Martadinata, Kec. Tlk. Pandan, Kabupaten Kutai Timur, Kalimantan Timur","Kabupaten Kutai Timur, Kalimantan Timur",KALIMANTAN TIMUR,,Indonesia,,,,0.2620344,117.4762803,https://maps.google.com/?cid=0x0:0x7295f034863e9267,
perumahan,Perumahan,Kontrakan,"Jl. Tennis Gang Milik Bersama 2 No.27D, RT.37, Api-Api, Kec. Bontang Utara, Kota Bontang, Kalimantan Timur","Kota Bontang, Kalimantan Timur",KALIMANTAN TIMUR,,Indonesia,,,,0.1338497,117.4820203,https://maps.google.com/?cid=0x0:0xc633ac3a9da75902,
perumahan,Pembangunan Perumahan,Pondok Ruddin,"7F8M+FJ, Kandolo, Kec. Tlk. Pandan, Kabupaten Kutai Timur, Kalimantan Timur","Kabupaten Kutai Timur, Kalimantan Timur",KALIMANTAN TIMUR,,Indonesia,,,,0.2661593,117.4840707,https://maps.google.com/?cid=0x0:0x714f95952d89f1eb,
perumahan,Toko Suku Cadang Mobil,Bursa Barang Bontang,"Jl. Lombok No.01, Api-Api, Kec. Bontang Utara, Kota Bontang, Kalimantan Timur 75325","Api-Api, Kec. Bontang Utara, Kota Bontang",KALIMANTAN TIMUR,75325.0,Indonesia,,,,0.1283785,117.4885547,https://maps.google.com/?cid=0x0:0x7fabd49dfbd19ac,
perumahan,Dapur Umum,Rumah Makan CEMANGI,"Jl. Poros Bontang - Sangatta, Kandolo, Kec. Sangatta Utara, Kabupaten Kutai Timur, Kalimantan Timur","Kabupaten Kutai Timur, Kalimantan Timur",KALIMANTAN TIMUR,,Indonesia,,,,0.2705319,117.4728613,https://maps.google.com/?cid=0x0:0x3385d1ae9c22dbf4,
perumahan,Restoran,Rumah makan selerah nusantara 2,"Jl. Poros Bontang - Sangatta, Martadinata, Kec. Tlk. Pandan, Kota Bontang, Kalimantan Timur","Kota Bontang, Kalimantan Timur",KALIMANTAN TIMUR,,Indonesia,85754629363.0,,,0.2469578,117.4937314,https://maps.google.com/?cid=0x0:0xc01a7d70325eb326,
perumahan,Komplek perumahan,Harman house 2,"7FCP+W2Q, Kandolo, Kec. Tlk. Pandan, Kabupaten Kutai Timur, Kalimantan Timur 75312","Kandolo, Kec. Tlk. Pandan, Kabupaten Kutai Timur",KALIMANTAN TIMUR,75312.0,Indonesia,82157172827.0,,,0.272332,117.4851158,https://maps.google.com/?cid=0x0:0xd7d4c748a205b9f3,
perumahan,Rumah Makan,Rumah Makan selera nusantara,"6FQF+3Q5, Martadinata, Kec. Tlk. Pandan, Kabupaten Kutai Timur, Kalimantan Timur 75311","Martadinata, Kec. Tlk. Pandan, Kabupaten Kutai Timur",KALIMANTAN TIMUR,75311.0,Indonesia,,,,0.2376333,117.4744688,https://maps.google.com/?cid=0x0:0x86a11475af356508,
perumahan,Toko Bahan Bangunan,Toko Bangunan Pelangi,"6FQG+8FR, Martadinata, Kec. Tlk. Pandan, Kabupaten Kutai Timur, Kalimantan Timur 75311","Martadinata, Kec. Tlk. Pandan, Kabupaten Kutai Timur",KALIMANTAN TIMUR,75311.0,Indonesia,85166900649.0,,,0.2383682,117.4761532,https://maps.google.com/?cid=0x0:0x67d15ef07cacb5e9,
perumahan,perumahan,Hotel Bintang Sintuk,"5F6F+2C6, Komp. Kawasan Lapangan Golf Sintuk PKT Jl. Urea, Lok Tuan, Kec. Bontang Utara, Kota Bontang, Kalimantan Timur 75313","Komp. Kawasan Lapangan Golf Sintuk PKT Jl. Urea, Lok Tuan, Kec. Bontang Utara, Kota Bontang",KALIMANTAN TIMUR,75313.0,Indonesia,54826268.0,,,0.160026,117.473509,https://maps.google.com/?cid=0x0:0xd8836872ea3fba6f,
perumahan,perumahan,,,,KALIMANTAN TIMUR,,Indonesia,,,,,,https://maps.google.com/?cid=0x0:0xd8836872ea3fba6f%7C/g/1tlqmhqz%7Cen-ID,
perumahan,perumahan,Grand Equator Hotel,"Jl. Pupuk Raya No.1, Guntung, Kec. Bontang Utara, Kota Bontang, Kalimantan Timur 75313","Guntung, Kec. Bontang Utara, Kota Bontang",KALIMANTAN TIMUR,75313.0,Indonesia,82350906060.0,,,0.1858178,117.4757408,https://maps.google.com/?cid=0x0:0xd604b84a9ad7dd59,
perumahan,perumahan,cloverleaf homestay,"Jl. Gendang 4 No.23 RT. 22, Bontang Baru, Kec. Bontang Utara, Kota Bontang, Kalimantan Timur 75311","Bontang Baru, Kec. Bontang Utara, Kota Bontang",KALIMANTAN TIMUR,75311.0,Indonesia,811555669.0,,,0.1423688,117.4906996,https://maps.google.com/?cid=0x0:0x29b2db1b6496ca1b,
perumahan,perumahan,AlasDjati Guest House,"Jl. Bulutangkis Perumahan Casa Derica No.1, Api-Api, Kec. Bontang Utara, Kota Bontang, Kalimantan Timur 75313","Api-Api, Kec. Bontang Utara, Kota Bontang",KALIMANTAN TIMUR,75313.0,Indonesia,81150500800.0,,,0.1318179,117.4824447,https://maps.google.com/?cid=0x0:0x33229a1c7c263072,
perumahan,Tujuan Wisata,Bontang Mangrove Park,"Jl. Cut Nyak Dien, Bontang Baru, Kec. Bontang Utara, Kota Bontang, Kalimantan Timur 75313","Bontang Baru, Kec. Bontang Utara, Kota Bontang",KALIMANTAN TIMUR,75313.0,Indonesia,8125391268.0,,,0.1456522,117.4975567,https://maps.google.com/?cid=0x0:0xff4fab38c0736c9,
perumahan,Restoran,Rumah Makan Ananda 1,"6FWP+HPR, Jl. Ahmad Yani, Martadinata, Kec. Tlk. Pandan, Kabupaten Kutai Timur, Kalimantan Timur 75311","Jl. Ahmad Yani, Martadinata, Kec. Tlk. Pandan, Kabupaten Kutai Timur",KALIMANTAN TIMUR,75311.0,Indonesia,,,,0.2464989,117.4867761,https://maps.google.com/?cid=0x0:0xe4fdae9f929fab71,
perumahan,Toko Bahan Bangunan,Toko nur,"7F5M+CP9, Jl. Ahmad Yani, Martadinata, Kec. Tlk. Pandan, Kabupaten Kutai Timur, Kalimantan Timur 75312","Jl. Ahmad Yani, Martadinata, Kec. Tlk. Pandan, Kabupaten Kutai Timur",KALIMANTAN TIMUR,75312.0,Indonesia,,,,0.2585371,117.4843544,https://maps.google.com/?cid=0x0:0x58c486675aeaccc6,
perumahan,Brunch,Rumah Makan D'liwet,"7F8F+2R6, Kandolo, Kec. Tlk. Pandan, Kabupaten Kutai Timur, Kalimantan Timur 75312","Kandolo, Kec. Tlk. Pandan, Kabupaten Kutai Timur",KALIMANTAN TIMUR,75312.0,Indonesia,8125419674.0,,,0.2650369,117.4745277,https://maps.google.com/?cid=0x0:0x7b9fbfead3cb1e84,
perumahan,Komplek perumahan,Perumahan HOP 4 PT Badak NGL,"4FJ7+X85, Jl. Simon Tampubolon, Gn. Elai, Kec. Bontang Utara, Kota Bontang, Kalimantan Timur 75325","Jl. Simon Tampubolon, Gn. Elai, Kec. Bontang Utara, Kota Bontang",KALIMANTAN TIMUR,75325.0,Indonesia,,,,0.132393,117.463349,https://maps.google.com/?cid=0x0:0x7d2ee76355f06b90,
perumahan,Otoritas Perumahan,Perumahan Green Pesona Permai,"Api-Api, Kec. Bontang Utara, Kota Bontang, Kalimantan Timur 75325","Kec. Bontang Utara, Kota Bontang",KALIMANTAN TIMUR,75325.0,Indonesia,,,,0.1345243,117.4852218,https://maps.google.com/?cid=0x0:0xfede64ad8236fee8,
perumahan,Komplek perumahan,PC6C Komplek Perumahan PT.Badak NGL,"4FG9+8JQ, Unnamed Road, Satimpo, Bontang Selatan, Bontang City, East Kalimantan 75325","Unnamed Road, Satimpo, Bontang Selatan, Bontang City",KALIMANTAN TIMUR,75325.0,Indonesia,,,,0.1258459,117.4691143,https://maps.google.com/?cid=0x0:0xeb65940fdff82b34,
perumahan,Pembangunan Perumahan,Perumahan HOP 5 PT Badak NGL,"4FP7+JCR, Jl. Simon Tampubolon, Kanaan, Kec. Bontang Bar., Kota Bontang, Kalimantan Timur 75325","Jl. Simon Tampubolon, Kanaan, Kec. Bontang Bar., Kota Bontang",KALIMANTAN TIMUR,75325.0,Indonesia,,,,0.1366058,117.4635029,https://maps.google.com/?cid=0x0:0xbdc074eef3ef8ff7,
perumahan,Komplek perumahan,Perumahan HOP,"Perumahan HOP 1, Jl. Mahoni No.89, RT.19, Satimpo, Bontang Selatan, Bontang City, East Kalimantan 75325","Jl. Mahoni No.89, RT.19, Satimpo, Bontang Selatan, Bontang City",KALIMANTAN TIMUR,75325.0,Indonesia,,,,0.1281216,117.4700998,https://maps.google.com/?cid=0x0:0x662eda7483489954,
perumahan,perumahan,Kec. Bontang Utara,"Kota Bontang, Kalimantan Timur","Kota Bontang, Kalimantan Timur",KALIMANTAN TIMUR,,Indonesia,,,,0.1342654,117.4918113,https://maps.google.com/?cid=0x0:0x8e264a38633f2806,
perumahan,Komplek perumahan,Perumahan HOP 4 PT Badak NGL,"4FJ7+X85, Jl. Simon Tampubolon, Gn. Elai, Kec. Bontang Utara, Kota Bontang, Kalimantan Timur 75325","Jl. Simon Tampubolon, Gn. Elai, Kec. Bontang Utara, Kota Bontang",KALIMANTAN TIMUR,75325.0,Indonesia,,,,0.132393,117.463349,https://maps.google.com/?cid=0x0:0x7d2ee76355f06b90,
perumahan,Otoritas Perumahan,Perumahan Green Pesona Permai,"Api-Api, Kec. Bontang Utara, Kota Bontang, Kalimantan Timur 75325","Kec. Bontang Utara, Kota Bontang",KALIMANTAN TIMUR,75325.0,Indonesia,,,,0.1345243,117.4852218,https://maps.google.com/?cid=0x0:0xfede64ad8236fee8,
perumahan,Pembangunan Perumahan,Kalimantan timur,"4FQX+FFC, Bontang Baru, Kec. Bontang Utara, Kota Bontang, Kalimantan Timur 75325","Bontang Baru, Kec. Bontang Utara, Kota Bontang",KALIMANTAN TIMUR,75325.0,Indonesia,,,,0.1386875,117.4986406,https://maps.google.com/?cid=0x0:0xb1de35792fdd439a,
perumahan,Pembangunan Perumahan,Perumahan Green Park Salebba,"Jl. Cut Nyak Dien, Bontang Baru, Kec. Bontang Utara, Kota Bontang, Kalimantan Timur 75325","Bontang Baru, Kec. Bontang Utara, Kota Bontang",KALIMANTAN TIMUR,75325.0,Indonesia,82154545320.0,,,0.1417786,117.4967679,https://maps.google.com/?cid=0x0:0xbf746b0126884e4a,
perumahan,Pembangunan Perumahan,Perumahan Bukit Sekatup Damai,"Jl. Gn. Rinjani No.20, Gn. Elai, Kec. Bontang Utara, Kota Bontang, Kalimantan Timur 75325","Gn. Elai, Kec. Bontang Utara, Kota Bontang",KALIMANTAN TIMUR,75325.0,Indonesia,,,,0.1473244,117.4737746,https://maps.google.com/?cid=0x0:0xc671dbcdfd25389a,
perumahan,Komplek perumahan,Pisangan,"4FJC+9FP, Jl.Gambas, Pisangan, RT.20/RW.No. 1, Gn. Elai, Kec. Bontang Utara, Kota Bontang, Kalimantan Timur 75325","Jl.Gambas, Pisangan, RT.20/RW.No. 1, Gn. Elai, Kec. Bontang Utara, Kota Bontang",KALIMANTAN TIMUR,75325.0,Indonesia,,,,0.1309685,117.4712066,https://maps.google.com/?cid=0x0:0x54e0d88a87c4c310,
perumahan,Pembangunan Perumahan,Perumahan Pt Badak LNG,"4FJ7+4QX, Gn. Elai, Kec. Bontang Utara, Kota Bontang, Kalimantan Timur 75325","Gn. Elai, Kec. Bontang Utara, Kota Bontang",KALIMANTAN TIMUR,75325.0,Indonesia,85250662277.0,,,0.1303502,117.4644809,https://maps.google.com/?cid=0x0:0xfe07e84f4d115532,
perumahan,Masjid,Masjid Fathul Khoir - Perumahan BSD Bontang,"Perumahan BSD, Jl. Gn. Merapi No.1, Gunung Elai, Bontang Utara, Bontang City, East Kalimantan 75313","Jl. Gn. Merapi No.1, Gunung Elai, Bontang Utara, Bontang City",KALIMANTAN TIMUR,75313.0,Indonesia,,,,0.1496587,117.4756335,https://maps.google.com/?cid=0x0:0xd3a60144cfaa1697,
perumahan,Rumah Kayu,Bontang,"Gang Atletik No.22, Api-Api, Bontang Utara, Bontang City, East Kalimantan 75313","Api-Api, Bontang Utara, Bontang City",KALIMANTAN TIMUR,75313.0,Indonesia,,,,0.130258,117.4947847,https://maps.google.com/?cid=0x0:0xc859a81517aafe9e,
perumahan,Komplek perumahan,Donelley Indonesia. PT,"JL. Kom L Yos Sudarso 2, Bontang Baru, Kec. Bontang Utara, Kota Bontang, Kalimantan Timur 75313","Bontang Baru, Kec. Bontang Utara, Kota Bontang",KALIMANTAN TIMUR,75313.0,Indonesia,5483036117.0,,,0.1356781,117.4985623,https://maps.google.com/?cid=0x0:0xbb35ebed3491c7e1,
perumahan,Komplek perumahan,Kantor dan Perumahan Villa R4,"Bontang Baru, Kec. Bontang Utara, Kota Bontang, Kalimantan Timur 75325","Kec. Bontang Utara, Kota Bontang",KALIMANTAN TIMUR,75325.0,Indonesia,85190910153.0,,,0.1383489,117.4986037,https://maps.google.com/?cid=0x0:0xf895bb3b609c60d8,
perumahan,Kompleks Townhouse,"Perumahan Agroland, Salebba","4FVR+RX3, Bontang Baru, Kec. Bontang Utara, Kota Bontang, Kalimantan Timur 75313","Bontang Baru, Kec. Bontang Utara, Kota Bontang",KALIMANTAN TIMUR,75313.0,Indonesia,85250223075.0,,,0.1445129,117.4924091,https://maps.google.com/?cid=0x0:0xe753ac2b4f0e38c7,
perumahan,Pembangunan Perumahan,Khabib Homes,"Jl. Gamelan No.53, Bontang Baru, Kec. Bontang Utara, Kota Bontang, Kalimantan Timur 75325","Bontang Baru, Kec. Bontang Utara, Kota Bontang",KALIMANTAN TIMUR,75325.0,Indonesia,,,,0.1380528,117.4905248,https://maps.google.com/?cid=0x0:0xf0c6ce33fa97f322,
perumahan,Perhimpunan Pengembang Perumahan,Rumah pak kalim (walet),"Gg. Selancar 7J, Api-Api, Kec. Bontang Utara, Kota Bontang, Kalimantan Timur 75313","Api-Api, Kec. Bontang Utara, Kota Bontang",KALIMANTAN TIMUR,75313.0,Indonesia,,,,0.1337445,117.4846236,https://maps.google.com/?cid=0x0:0x18349870b1265848,
perumahan,Komplek perumahan,Rumah fadil,"4FMR+PW2, Bontang Baru, Kec. Bontang Utara, Kota Bontang, Kalimantan Timur 75313","Bontang Baru, Kec. Bontang Utara, Kota Bontang",KALIMANTAN TIMUR,75313.0,Indonesia,,,,0.1342697,117.492269,https://maps.google.com/?cid=0x0:0xbef639d26f085ddd,
perumahan,Komplek perumahan,Rumah Veri Zunaidi,"4FGP+F8C, Jl. Ir. H. Juanda, Tj. Laut, Kec. Bontang Utara, Kota Bontang, Kalimantan Timur 75325","Jl. Ir. H. Juanda, Tj. Laut, Kec. Bontang Utara, Kota Bontang",KALIMANTAN TIMUR,75325.0,Indonesia,,,,0.126198,117.4857708,https://maps.google.com/?cid=0x0:0x7e33d21a92b7de24,
perumahan,Komplek perumahan,Alika's home,"Jl. Awang Long Gg. 2 No.RT.19, Bontang Baru, Kec. Bontang Utara, Kota Bontang, Kalimantan Timur 75325","Bontang Baru, Kec. Bontang Utara, Kota Bontang",KALIMANTAN TIMUR,75325.0,Indonesia,,,,0.1379534,117.4916802,https://maps.google.com/?cid=0x0:0x87f96adafd513dd9,
perumahan,Otoritas Perumahan,Perumahan Bukit Sekatup Damai,"Jl. Gn. Welirang No.02, Gn. Elai, Kec. Bontang Utara, Kota Bontang, Kalimantan Timur 75313","Gn. Elai, Kec. Bontang Utara, Kota Bontang",KALIMANTAN TIMUR,75313.0,Indonesia,,,,0.1507067,117.4771968,https://maps.google.com/?cid=0x0:0x66d26ef4f4ed337c,
perumahan,Komplek perumahan,Perumahan Guru,"5F8J+RCF, Gg. Kedondong, Lok Tuan, Kec. Bontang Utara, Kota Bontang, Kalimantan Timur 75321","Gg. Kedondong, Lok Tuan, Kec. Bontang Utara, Kota Bontang",KALIMANTAN TIMUR,75321.0,Indonesia,,,,0.1670684,117.4810718,https://maps.google.com/?cid=0x0:0x9cb1fb0f076009e3,
perumahan,Komplek perumahan,Rumah Saya,"4FRW+WFV, Bontang Baru, Kec. Bontang Utara, Kota Bontang, Kalimantan Timur 75313","Bontang Baru, Kec. Bontang Utara, Kota Bontang",KALIMANTAN TIMUR,75313.0,Indonesia,,,,0.1423671,117.4961668,https://maps.google.com/?cid=0x0:0xcca3f75231f0884f,
perumahan,Perumahan,murti,"4FJJ+QMP, Jl. Bulutangkis 3, Api-Api, Kec. Bontang Utara, Kota Bontang, Kalimantan Timur 75325","Jl. Bulutangkis 3, Api-Api, Kec. Bontang Utara, Kota Bontang",KALIMANTAN TIMUR,75325.0,Indonesia,,,,0.1319515,117.4817009,https://maps.google.com/?cid=0x0:0x52041e449eab6f12,
perumahan,Otoritas Perumahan,P4D,"4FPP+952, Api-Api, Kec. Bontang Utara, Kota Bontang, Kalimantan Timur 75313","Api-Api, Kec. Bontang Utara, Kota Bontang",KALIMANTAN TIMUR,75313.0,Indonesia,,,,0.1355731,117.4854782,https://maps.google.com/?cid=0x0:0x89af902cb4b43c01,
perumahan,Komplek perumahan,Perumahan Asri Blok C No.7C,"Jl. Gendang 5 No.RT.21 BLOK C, Bontang Baru, Kec. Bontang Utara, Kota Bontang, Kalimantan Timur","Kota Bontang, Kalimantan Timur",KALIMANTAN TIMUR,,Indonesia,,,,0.1418183,117.4929636,https://maps.google.com/?cid=0x0:0xc2eaad8c4f77b44b,
perumahan,Komplek perumahan,Perumahan Citra Khatulistiwa,"4GJ2+HGM, Jl. Aip II KS Tubun langlang Gg. breksi, RT.008/RW.No.42, Bontang Kuala, Kec. Bontang Utara, Kota Bontang, Kalimantan Timur 75325","Jl. Aip II KS Tubun langlang Gg. breksi, RT.008/RW.No.42, Bontang Kuala, Kec. Bontang Utara, Kota Bontang",KALIMANTAN TIMUR,75325.0,Indonesia,85280001613.0,,,0.1314546,117.5012837,https://maps.google.com/?cid=0x0:0x6dc5e8860ce5e29e,
perumahan,Perumahan,Perum Griya Salebba Sejahtera,"4FRX+Q9W, Jl. Krikil 4A, Bontang Kuala, Kec. Bontang Utara, Kota Bontang, Kalimantan Timur 75325","Jl. Krikil 4A, Bontang Kuala, Kec. Bontang Utara, Kota Bontang",KALIMANTAN TIMUR,75325.0,Indonesia,85246713544.0,,,0.1419955,117.498453,https://maps.google.com/?cid=0x0:0x36cf7bb148646091,
perumahan,Perhimpunan Pengembang Perumahan,IrDa Home RT 23 No. 28,"4FMQ+VXX, Jl. R. Suprapto, Api-Api, Kec. Bontang Utara, Kota Bontang, Kalimantan Timur 75313","Jl. R. Suprapto, Api-Api, Kec. Bontang Utara, Kota Bontang",KALIMANTAN TIMUR,75313.0,Indonesia,,,,0.1346615,117.4899596,https://maps.google.com/?cid=0x0:0xa4db518a74703a95,
perumahan,Komplek perumahan,HM Dom 24 A,"5F2G+GGR, Jl. Gn. Burangrang, Gn. Elai, Kec. Bontang Utara, Kota Bontang, Kalimantan Timur 75313","Jl. Gn. Burangrang, Gn. Elai, Kec. Bontang Utara, Kota Bontang",KALIMANTAN TIMUR,75313.0,Indonesia,,,,0.1513524,117.4762654,https://maps.google.com/?cid=0x0:0x4df0688f53823ea8,
perumahan,Komplek perumahan,Perum temputu,"Jl. Kapala Niaga I No.3b, Lok Tuan, Kec. Bontang Utara, Kota Bontang, Kalimantan Timur","Kota Bontang, Kalimantan Timur",KALIMANTAN TIMUR,,Indonesia,,,,0.1725338,117.4684459,https://maps.google.com/?cid=0x0:0x2f0ce55f9a450162,
