Category,Real Category,Business Name,Address,City,State,Postal Code,Country,Phone,Email,Website,Latitude,Longitude,Map Link,Details Link
hotel,hotel,Papua 98768,"Kabupaten Intan Jaya, Papua","Kabupaten Intan Jaya, Papua",PAPUA,,Indonesia,,,,-36.382.021,1.369.028.375,https://maps.google.com/?cid=0x0:0x902010d7989d7c6c,
hotel,hotel,Hotel Sahid Papua,"Jl. Klp. 2 No.18, Entrop, Distrik Jayapura Selatan, Kota Jayapura, Papua 99221","Entrop, Distrik Jayapura Selatan, Kota Jayapura",PAPUA,99221.0,Indonesia,811481167.0,,,-25.661.461,1.406.996.539,https://maps.google.com/?cid=0x0:0x9c8a2fd141b3aa33,
hotel,hotel,,,,PAPUA,,Indonesia,,,,,,https://maps.google.com/?cid=0x0:0x9c8a2fd141b3aa33%7C/g/11b73kkp76%7Cen-ID,
hotel,hotel,SIP Azana Hotel Jayapura,"Jl. Ahmad Yani No.50, Gurabesi, Kec. Jayapura Utara, Kota Jayapura, Papua 99221","Gurabesi, Kec. Jayapura Utara, Kota Jayapura",PAPUA,99221.0,Indonesia,82197886688.0,,,-25.436.754,1.407.014.241,https://maps.google.com/?cid=0x0:0xc311c59465e76f9e,
hotel,hotel,Rimba Papua Hotel,"Jl. Kwamki Narama No. 1, Kwamki, Kec. Mimika Baru, Kabupaten Mimika, Papua 99971","Kwamki, Kec. Mimika Baru, Kabupaten Mimika",PAPUA,99971.0,Indonesia,901494949.0,,,-45.151.124,136.884.599,https://maps.google.com/?cid=0x0:0xa65056700db32492,
hotel,hotel,SAMUMAMBO HOTEL,"jl. cenderawasih belakang manna bakerei, Kwamki, Kec. Mimika Baru, Kabupaten Mimika, Papua 99910","Kwamki, Kec. Mimika Baru, Kabupaten Mimika",PAPUA,99910.0,Indonesia,81344090664.0,,,-45.424.836,1.368.797.497,https://maps.google.com/?cid=0x0:0xcb5241de257efb93,
hotel,hotel,HOTEL Timika Indah Papua,"Jl. Jend. Ahmad Yani, Kwamki, Kec. Mimika Baru, Kabupaten Mimika, Papua 99910","Kwamki, Kec. Mimika Baru, Kabupaten Mimika",PAPUA,99910.0,Indonesia,8114900888.0,,,-45.450.918,1.368.950.181,https://maps.google.com/?cid=0x0:0x678db0783377d5c6,
hotel,hotel,Jaya Hotel,"CVJP+XV2, Jl. Raya Sp1, Inauga, Kec. Mimika Baru, Kabupaten Mimika, Papua 99971","Jl. Raya Sp1, Inauga, Kec. Mimika Baru, Kabupaten Mimika",PAPUA,99971.0,Indonesia,87777677405.0,,,-45.676.146,1.368.871.472,https://maps.google.com/?cid=0x0:0x854e1f8dfba40a6c,
hotel,hotel,Penginapan Paparisa Amungsa,"Koperapoka, Kec. Mimika Baru, Kabupaten Mimika, Papua 99971","Kec. Mimika Baru, Kabupaten Mimika",PAPUA,99971.0,Indonesia,81343206383.0,,,-45.385.795,1.368.755.667,https://maps.google.com/?cid=0x0:0xfd07a1d4446c8f23,
hotel,hotel,Hotel R6,"Jl.Cendrawasih SP2, Papua 99952","Kabupaten Mimika, Papua",PAPUA,,Indonesia,82245112457.0,,,-4.538.464,1.368.691.429,https://maps.google.com/?cid=0x0:0xb392d58fbaabfb69,
hotel,hotel,Hotel Sawitto 1,"FV4V+3QV, Timika Jaya, Kec. Mimika Baru, Kabupaten Mimika, Papua 99971","Timika Jaya, Kec. Mimika Baru, Kabupaten Mimika",PAPUA,99971.0,Indonesia,,,,-45.447.575,1.368.944.296,https://maps.google.com/?cid=0x0:0xa49800860bcb43de,
hotel,hotel,Papua 98769,Papua,Papua,PAPUA,,Indonesia,,,,-34.531.316,1.363.240.951,https://maps.google.com/?cid=0x0:0xd28ed8bf27ec9c6b,
hotel,hotel,Hotel Sahid Papua,"Jl. Klp. 2 No.18, Entrop, Distrik Jayapura Selatan, Kota Jayapura, Papua 99221","Entrop, Distrik Jayapura Selatan, Kota Jayapura",PAPUA,99221.0,Indonesia,811481167.0,,,-25.661.461,1.406.996.539,https://maps.google.com/?cid=0x0:0x9c8a2fd141b3aa33,
hotel,hotel,,,,PAPUA,,Indonesia,,,,,,https://maps.google.com/?cid=0x0:0x9c8a2fd141b3aa33%7C/g/11b73kkp76%7Cen-ID,
hotel,hotel,Bisnis Hotel,"Kwamki, Kec. Mimika Baru, Kabupaten Mimika, Papua 99971","Kec. Mimika Baru, Kabupaten Mimika",PAPUA,99971.0,Indonesia,9013264510.0,,,-45.452.777,1.368.833.867,https://maps.google.com/?cid=0x0:0x690d0340d9882c9c,
hotel,hotel,Jaya Hotel,"CVJP+XV2, Jl. Raya Sp1, Inauga, Kec. Mimika Baru, Kabupaten Mimika, Papua 99971","Jl. Raya Sp1, Inauga, Kec. Mimika Baru, Kabupaten Mimika",PAPUA,99971.0,Indonesia,87777677405.0,,,-45.676.146,1.368.871.472,https://maps.google.com/?cid=0x0:0x854e1f8dfba40a6c,
hotel,hotel,Rimba Papua Hotel,"Jl. Kwamki Narama No. 1, Kwamki, Kec. Mimika Baru, Kabupaten Mimika, Papua 99971","Kwamki, Kec. Mimika Baru, Kabupaten Mimika",PAPUA,99971.0,Indonesia,901494949.0,,,-45.151.124,136.884.599,https://maps.google.com/?cid=0x0:0xa65056700db32492,
hotel,hotel,Penginapan Paparisa Amungsa,"Koperapoka, Kec. Mimika Baru, Kabupaten Mimika, Papua 99971","Kec. Mimika Baru, Kabupaten Mimika",PAPUA,99971.0,Indonesia,81343206383.0,,,-45.385.795,1.368.755.667,https://maps.google.com/?cid=0x0:0xfd07a1d4446c8f23,
hotel,hotel,HOTEL Timika Indah Papua,"Jl. Jend. Ahmad Yani, Kwamki, Kec. Mimika Baru, Kabupaten Mimika, Papua 99910","Kwamki, Kec. Mimika Baru, Kabupaten Mimika",PAPUA,99910.0,Indonesia,8114900888.0,,,-45.450.918,1.368.950.181,https://maps.google.com/?cid=0x0:0x678db0783377d5c6,
hotel,hotel,Ashley tanah abang,"Jl. K.H. Wahid Hasyim No.220 A-B, Kampung Bali, Tanah Abang, Central Jakarta City, Jakarta 10250","Kampung Bali, Tanah Abang, Central Jakarta City",PAPUA,10250.0,Indonesia,2150848000.0,,,-61.866.666,1.068.173.307,https://maps.google.com/?cid=0x0:0xddf794dd0b363645,
hotel,hotel,,,,PAPUA,,Indonesia,,,,,,https://maps.google.com/?cid=0x0:0xddf794dd0b363645%7C/g/11t2vjyfpv%7Cen-ID,
hotel,Museum Sejarah Lokal,Monumen Nasional,"Merdeka Square, Jalan Lapangan Monas, Gambir, Kecamatan Gambir, Kota Jakarta Pusat, Daerah Khusus Ibukota Jakarta 10110","Jalan Lapangan Monas, Gambir, Kecamatan Gambir, Kota Jakarta Pusat",PAPUA,10110.0,Indonesia,213853040.0,,,-61.753.924,1.068.271.528,https://maps.google.com/?cid=0x0:0x3d2ad6e1e0e9bcc8,
hotel,hotel,,,,PAPUA,,Indonesia,,,,,,https://maps.google.com/?cid=0x0:0x6af3b8e40e924d17%7C/g/1vbbczq4%7Cen-ID,
hotel,hotel,Mandarin Oriental Jakarta,"Jl. M.H. Thamrin, Menteng, Kec. Menteng, Jakarta, Daerah Khusus Ibukota Jakarta 10310","Menteng, Kec. Menteng, Jakarta",PAPUA,10310.0,Indonesia,2129938888.0,,,-61.961.573,1.068.235.537,https://maps.google.com/?cid=0x0:0x6af3b8e40e924d17,
hotel,Stasiun Kereta,Stasiun Sudirman,"10, Jl. Kendal No.24, RW.6, Menteng, 10310","Jl. Kendal No.24, RW.6",PAPUA,10310.0,Indonesia,,,,-62.024.499,1.068.237.671,https://maps.google.com/?cid=0x0:0x13f90424139e1edf,
hotel,Gedung Pernikahan,Mandarin Ballroom,"Mandarin Oriental Hotel ,Jalan M.H. Thamrin, Jakarta, RT.1/RW.5, Menteng, Central Jakarta City, Jakarta 10310","Jakarta, RT.1/RW.5, Menteng, Central Jakarta City",PAPUA,10310.0,Indonesia,2129938888.0,,,-61.962.937,1.068.236.263,https://maps.google.com/?cid=0x0:0xfe7a781bbb5f4173,
hotel,hotel,Mercure Convention Centre Ancol,"Jl. Pantai Indah, Ancol, Jakarta Baycity, Jkt Utara, Daerah Khusus Ibukota Jakarta 14430","Ancol, Jakarta Baycity, Jkt Utara",PAPUA,14430.0,Indonesia,216406000.0,,,-61.221.699,1.068.365.505,https://maps.google.com/?cid=0x0:0x17838cc55234c56d,
hotel,hotel,,,,PAPUA,,Indonesia,,,,,,https://maps.google.com/?cid=0x0:0x17838cc55234c56d%7C/g/1vzsj8t9%7Cen-ID,
hotel,Layanan Transportasi,Kampung Bandan,"Ancol, Kec. Pademangan, Jkt Utara, Daerah Khusus Ibukota Jakarta","Jkt Utara, Daerah Khusus Ibukota Jakarta",PAPUA,,Indonesia,,,,-61.326.019,1.068.286.018,https://maps.google.com/?cid=0x0:0x4a68646f1d98548f,
hotel,hotel,Wyndham Casablanca Jakarta,"Jl. Raya Casablanca No.18, RT.4/RW.12, Menteng Dalam, Kec. Tebet, Kota Jakarta Selatan, Daerah Khusus Ibukota Jakarta 12870","RT.4/RW.12, Menteng Dalam, Kec. Tebet, Kota Jakarta Selatan",PAPUA,12870.0,Indonesia,218282000.0,,,-62.248.964,1.068.400.434,https://maps.google.com/?cid=0x0:0x70e5ae0ff55cdac1,
hotel,hotel,,,,PAPUA,,Indonesia,,,,,,https://maps.google.com/?cid=0x0:0x70e5ae0ff55cdac1%7C/g/11h081m9fz%7Cen-ID,
hotel,Jasa Kereta Api,Manggarai,"H7 Jl. Manggarai Utara, RW.1, Manggarai, Kec. Tebet, Kota Jakarta Selatan, Daerah Khusus Ibukota Jakarta 12850","RW.1, Manggarai, Kec. Tebet, Kota Jakarta Selatan",PAPUA,12850.0,Indonesia,,,,-62.099.019,1.068.502.202,https://maps.google.com/?cid=0x0:0x47c98448b038a7d8,
hotel,hotel,@HOM Premiere Abepura by Horison,"Jl. Raya Tanah Hitam, Asano, Kec. Abepura, Kota Jayapura, Papua 99351","Asano, Kec. Abepura, Kota Jayapura",PAPUA,99351.0,Indonesia,82110078800.0,,,-26.163.722,1.406.795.037,https://maps.google.com/?cid=0x0:0x232d3c1cc9df1530,
hotel,hotel,,,,PAPUA,,Indonesia,,,,,,https://maps.google.com/?cid=0x0:0x232d3c1cc9df1530%7C/g/11c0xhccvj%7Cen-ID,
hotel,hotel,Frontone Green Boutique Hotel,"Jl. Gerilyawan Jl. Bosnik BTN Kamkey No.111, Kamkey, Kec. Abepura, Kota Jayapura, Papua 99351","Kamkey, Kec. Abepura, Kota Jayapura",PAPUA,99351.0,Indonesia,967585010.0,,,-26.140.146,1.406.711.964,https://maps.google.com/?cid=0x0:0x4a570626468e5935,
hotel,hotel,Hotel Gamalama,"9MP9+G56, Jl. Gerilyawan, Yobe, Kec. Abepura, Kota Jayapura, Papua 99351","Jl. Gerilyawan, Yobe, Kec. Abepura, Kota Jayapura",PAPUA,99351.0,Indonesia,85337358893.0,,,-26.137.021,1.406.678.935,https://maps.google.com/?cid=0x0:0xf95001e3d53d211,
hotel,hotel,RedDoorz near Saga Mall Abepura,"Jl. Raya Hitam Gg. Merpati 2, Awiyo, Kec. Abepura, Kota Jayapura, Papua 99351","Awiyo, Kec. Abepura, Kota Jayapura",PAPUA,99351.0,Indonesia,895417300072.0,,,-26.136.849,140.674.499,https://maps.google.com/?cid=0x0:0x653c8618fa7a31c2,
hotel,hotel,AKAVI HOMESTAY JAYAPURA,"9MPF+3QM, Jl. Raya Abepura - Sentani, Awiyo, Kec. Abepura, Kota Jayapura, Papua 99351","Jl. Raya Abepura - Sentani, Awiyo, Kec. Abepura, Kota Jayapura",PAPUA,99351.0,Indonesia,85240000220.0,,,-26.147.932,1.406.744.192,https://maps.google.com/?cid=0x0:0x3e595be894ddc04c,
hotel,hotel,Citihub Hotel,"Wai Mhorock, Abepura, Kota Jayapura, Papua 99225, Wai Mhorock, Kec. Abepura, Kota Jayapura, Papua 99552","Abepura, Kota Jayapura, Papua",PAPUA,99225.0,Indonesia,9675180123.0,,,-26.081.763,1.406.741.417,https://maps.google.com/?cid=0x0:0x5a25068c30daecb0,
hotel,hotel,RedDoorz near Mal Abepura,"Jl. Worut, Vim, Kec. Abepura, Kota Jayapura, Papua 99225","Vim, Kec. Abepura, Kota Jayapura",PAPUA,99225.0,Indonesia,895417300072.0,,,-2.605.853,1.406.675.198,https://maps.google.com/?cid=0x0:0x9eab273d9acf6758,
hotel,hotel,Hotel Horison Kotaraja,"Jl. Raya Abepura No.80, Wai Mhorock, Kec. Abepura, Kota Jayapura, Papua 99221","Wai Mhorock, Kec. Abepura, Kota Jayapura",PAPUA,99221.0,Indonesia,,,,-26.004.891,140.676.497,https://maps.google.com/?cid=0x0:0x928b6846e61f91de,
hotel,hotel,Hotel Grand Talent Abepura,"9MV9+2QG, Jl. Kotaraja Grand, Wai Mhorock, Kec. Abepura, Kota Jayapura, Papua 99225","Jl. Kotaraja Grand, Wai Mhorock, Kec. Abepura, Kota Jayapura",PAPUA,99225.0,Indonesia,,,,-26.074.405,1.406.694.657,https://maps.google.com/?cid=0x0:0x589d02bf475f9068,
hotel,hotel,Pantai Base-G,"Tj. Ria, Kec. Jayapura Utara, Kota Jayapura, Papua","Kota Jayapura, Papua",PAPUA,,Indonesia,,,,-25.174.272,1.407.397.204,https://maps.google.com/?cid=0x0:0x9c239c300165aea7,
hotel,hotel,,,,PAPUA,,Indonesia,,,,,,https://maps.google.com/?cid=0x0:0xa7f56ca71b96b9f2%7C/g/11jfl3xp3h%7Cen-ID,
hotel,hotel,Super OYO 3354 Homia Residence,"Pertamina, Jl. Ceger Raya, Pd. Karya, Kec. Pd. Aren, Kota Tangerang Selatan, Banten 15225","Jl. Ceger Raya, Pd. Karya, Kec. Pd. Aren, Kota Tangerang Selatan",PAPUA,15225.0,Indonesia,2129707601.0,,,-6.261.008,106.739.139,https://maps.google.com/?cid=0x0:0xa7f56ca71b96b9f2,
hotel,hotel,RedDoorz near STAN,"Jl. Ceger Raya No.51C, Pd. Karya, Kec. Pd. Aren, Kota Tangerang Selatan, Banten 15223","Pd. Karya, Kec. Pd. Aren, Kota Tangerang Selatan",PAPUA,15223.0,Indonesia,895417300072.0,,,-62.606.497,1.067.394.857,https://maps.google.com/?cid=0x0:0x6ee199b87cb0784b,
hotel,hotel,Mutiara Kostel@ Bintaro,"Jl. Utama I No.67, kavling deplu. Mutiara Residence V no 6. Pd. Karya Pd Aren, Pondok Karya, Larangan, Banten 15155","kavling deplu. Mutiara Residence V no 6. Pd. Karya Pd Aren, Pondok Karya, Larangan",PAPUA,15155.0,Indonesia,87788153536.0,,,-62.543.101,106.741.282,https://maps.google.com/?cid=0x0:0xcc9fe71df0328b06,
hotel,hotel,OYO 4011 58 Guesthouse,"Pd. Karya, Kec. Pd. Aren, Kota Tangerang Selatan, Banten 15225","Kec. Pd. Aren, Kota Tangerang Selatan",PAPUA,15225.0,Indonesia,2129707601.0,,,-62.749.299,1.067.450.924,https://maps.google.com/?cid=0x0:0xd2620891bf2c67c8,
hotel,hotel,New Waigo Hotel,"Jl. Yos. Sudarso, RT./RW/RW.007/08, Kp. Baru, Distrik Sorong, Kota Sorong, Papua Bar. 98411","RT./RW/RW.007/08, Kp. Baru, Distrik Sorong, Kota Sorong",PAPUA,98411.0,Indonesia,81148800550.0,,,-0.8687506,1.312.466.917,https://maps.google.com/?cid=0x0:0x3ea64c8c78b822af,
hotel,Taman bermain,Pantai Tembok Berlin,"46HW+373, Kp. Baru, Distrik Sorong, Kota Sorong, Papua Bar. 98411","Kp. Baru, Distrik Sorong, Kota Sorong",PAPUA,98411.0,Indonesia,,,,-0.8723739,1.312.456.856,https://maps.google.com/?cid=0x0:0x5ea7c8af20034304,
hotel,hotel,Wandai,"Sabisa, Distrik Wandai, Kabupaten Intan Jaya, Papua","Kabupaten Intan Jaya, Papua",PAPUA,,Indonesia,,,,-3.703.004,136.680.496,https://maps.google.com/?cid=0x0:0x987e45212eb83434,
hotel,hotel,Hotel Viona,"Jalan, Argapura, Asei Kecil, Jayapura City, Papua 99351","Argapura, Asei Kecil, Jayapura City",PAPUA,99351.0,Indonesia,82198557373.0,,,-25.590.996,1.407.120.253,https://maps.google.com/?cid=0x0:0x991b43add0b147d8,
hotel,hotel,Hotel Rannu Jaya,"WW6V+7RM, Wamena Kota, Distrik Wamena, Kabupaten Jayawijaya, Papua 99511","Wamena Kota, Distrik Wamena, Kabupaten Jayawijaya",PAPUA,99511.0,Indonesia,82195455765.0,,,-40.892.985,1.389.445.592,https://maps.google.com/?cid=0x0:0xdd25cadd9590097a,
hotel,Hotel,Wanda,"Jl. Nangka 3 Atas, RT.002/RW.003, Jatibening Baru, Kec. Pd. Gede, Kota Bks, Jawa Barat 17412","RT.002/RW.003, Jatibening Baru, Kec. Pd. Gede, Kota Bks",PAPUA,17412.0,Indonesia,,,,-62.632.991,1.069.417.052,https://maps.google.com/?cid=0x0:0x139b0c5fea6201b9,
hotel,Hotel,Handono,"Jl. Bintan B No.146, RT.005/RW.010, Jatibening, Kec. Pd. Gede, Kota Bks, Jawa Barat 17412","RT.005/RW.010, Jatibening, Kec. Pd. Gede, Kota Bks",PAPUA,17412.0,Indonesia,,,,-62.648.688,1.069.488.729,https://maps.google.com/?cid=0x0:0xd99e1fb63e0a23de,
hotel,hotel,Papua 98784,Papua,Papua,PAPUA,,Indonesia,,,,-32.495.346,1.364.393.054,https://maps.google.com/?cid=0x0:0xd10f2faf319bd4fe,
hotel,hotel,Asana Biak Papua,"Jl. M Yamin No.04, Mandala, Kec. Biak Kota, Kabupaten Biak Numfor, Papua 98111","Mandala, Kec. Biak Kota, Kabupaten Biak Numfor",PAPUA,98111.0,Indonesia,8114743111.0,,,-11.918.619,1.361.049.095,https://maps.google.com/?cid=0x0:0x94321ded15c5a4a3,
hotel,hotel,Intsia Beach Hotel,"Jl. Walter Monginsidi No.7, Fandoi, Kec. Biak Kota, Kabupaten Biak Numfor, Papua 98111","Fandoi, Kec. Biak Kota, Kabupaten Biak Numfor",PAPUA,98111.0,Indonesia,98121891.0,,,-11.862.086,1.360.837.686,https://maps.google.com/?cid=0x0:0x564eb7930861f544,
hotel,hotel,Hotel Rannu Jaya,"WW6V+7RM, Wamena Kota, Distrik Wamena, Kabupaten Jayawijaya, Papua 99511","Wamena Kota, Distrik Wamena, Kabupaten Jayawijaya",PAPUA,99511.0,Indonesia,82195455765.0,,,-40.892.985,1.389.445.592,https://maps.google.com/?cid=0x0:0xdd25cadd9590097a,
hotel,hotel,Hotel Karya Papua,"JGX6+2PM, Jl. R.E. Martadinata Kalinona, Nabarua, Distrik Nabire, Papua 98816","Jl. R.E. Martadinata Kalinona, Nabarua, Distrik Nabire",PAPUA,98816.0,Indonesia,82164655697.0,,,-33.524.082,1.355.118.114,https://maps.google.com/?cid=0x0:0x8196bf4b8aafbb3f,
hotel,hotel,Rimba Papua Hotel,"Jl. Kwamki Narama No. 1, Kwamki, Kec. Mimika Baru, Kabupaten Mimika, Papua 99971","Kwamki, Kec. Mimika Baru, Kabupaten Mimika",PAPUA,99971.0,Indonesia,901494949.0,,,-45.151.124,136.884.599,https://maps.google.com/?cid=0x0:0xa65056700db32492,
hotel,hotel,Arumbai Hotel,"Jl. Imam Bonjol No.2, Fandoi, Kec. Biak Kota, Kabupaten Biak Numfor, Papua 98111","Fandoi, Kec. Biak Kota, Kabupaten Biak Numfor",PAPUA,98111.0,Indonesia,,,,-11.831.962,1.360.817.419,https://maps.google.com/?cid=0x0:0x92f1df543a771343,
hotel,hotel,Agung Hotel,"R36V+MW8, Mandala, Kec. Biak Kota, Kabupaten Biak Numfor, Papua 98111","Mandala, Kec. Biak Kota, Kabupaten Biak Numfor",PAPUA,98111.0,Indonesia,,,,-11.883.413,1.360.948.382,https://maps.google.com/?cid=0x0:0x30d4b4e3f34c7a61,
hotel,hotel,HOMESTAY KARAWATU INN,"R39H+HC6, Jl. Dahlia, Burokub, Kec. Biak Kota, Kabupaten Biak Numfor, Papua 98111","Jl. Dahlia, Burokub, Kec. Biak Kota, Kabupaten Biak Numfor",PAPUA,98111.0,Indonesia,9812911069.0,,,-11.810.921,1.360.785.209,https://maps.google.com/?cid=0x0:0xa2c4864ec378cf15,
hotel,hotel,Nirmala Hotel,"Jl. Selat Madura No.13, Fandoi, Kec. Biak Kota, Kabupaten Biak Numfor, Papua 98111","Fandoi, Kec. Biak Kota, Kabupaten Biak Numfor",PAPUA,98111.0,Indonesia,98122005.0,,,-11.832.068,1.360.835.725,https://maps.google.com/?cid=0x0:0x1fa7300a4c006ebd,
hotel,hotel,Hotel Basana Inn,"Jl. Imam Bonjol, Fandoi, Biak, Kabupaten Biak Numfor, Papua 98112","Fandoi, Biak, Kabupaten Biak Numfor",PAPUA,98112.0,Indonesia,98122281.0,,,-11.811.297,1.360.825.355,https://maps.google.com/?cid=0x0:0x1b08ff238ba2abe9,
hotel,hotel,Hotel Mapia,"Jl. Jend. Ahmad Yani No.23, Mandala, Kec. Biak Kota, Kabupaten Biak Numfor, Papua 98111","Mandala, Kec. Biak Kota, Kabupaten Biak Numfor",PAPUA,98111.0,Indonesia,98121383.0,,,-11.848.375,1.360.856.602,https://maps.google.com/?cid=0x0:0x15f6e40202cd7120,
hotel,hotel,Hotel Manna,"Jl. Imam Bonjol, Fandoi, Biak Papua, Kabupaten Biak Numfor, Papua 98112","Fandoi, Biak Papua, Kabupaten Biak Numfor",PAPUA,98112.0,Indonesia,98122224.0,,,-11.808.075,1.360.821.667,https://maps.google.com/?cid=0x0:0x58ba27a7cb3a5bd6,
hotel,hotel,Hotel Of Hasel,"Jl. Esau No.37 Mandala Pulau Biak, Mandala, Kec. Biak Kota, Kabupaten Biak Numfor, Papua 98111","Mandala, Kec. Biak Kota, Kabupaten Biak Numfor",PAPUA,98111.0,Indonesia,83119229269.0,,,-1.180.235,1.360.901.681,https://maps.google.com/?cid=0x0:0x65d093f8a4282080,
hotel,Museum,Objek Wisata Goa Jepang Biak Papua,"Kampung Wisata, Binsari, Jl. Goa Jepang, Kec. Samofa, Kabupaten Biak Numfor, Papua 98118","Binsari, Jl. Goa Jepang, Kec. Samofa, Kabupaten Biak Numfor",PAPUA,98118.0,Indonesia,,,,-11.778.447,1.361.049.498,https://maps.google.com/?cid=0x0:0x93df93a4aad95a9b,
hotel,hotel,Distrik Agisiga,"Kabupaten Intan Jaya, Papua","Kabupaten Intan Jaya, Papua",PAPUA,,Indonesia,,,,-37.319.536,1.370.926.922,https://maps.google.com/?cid=0x0:0xd5984dfd8c3b468d,
hotel,hotel,Hotel Grand Papua Sentani,"Jalan Sosial No.388, Hinekombe, Kec. Sentani, Kabupaten Jayapura, Papua 99352","Hinekombe, Kec. Sentani, Kabupaten Jayapura",PAPUA,99352.0,Indonesia,8114827899.0,,,-2.557.344,1.404.958.181,https://maps.google.com/?cid=0x0:0x9afaf186d23bb377,
hotel,hotel,Hotel Sahid Papua,"Jl. Klp. 2 No.18, Entrop, Distrik Jayapura Selatan, Kota Jayapura, Papua 99221","Entrop, Distrik Jayapura Selatan, Kota Jayapura",PAPUA,99221.0,Indonesia,811481167.0,,,-25.661.461,1.406.996.539,https://maps.google.com/?cid=0x0:0x9c8a2fd141b3aa33,
hotel,hotel,Grand ABE Hotel Jayapura,"Jl. Raya Abepura, Kotabaru, Kota Baru, Kec. Abepura, Kota Jayapura, Papua 99351","Kotabaru, Kota Baru, Kec. Abepura, Kota Jayapura",PAPUA,99351.0,Indonesia,8114825123.0,,,-26.106.174,1.406.659.805,https://maps.google.com/?cid=0x0:0xadc84ceab536f6a,
hotel,hotel,,,,PAPUA,,Indonesia,,,,,,https://maps.google.com/?cid=0x0:0xadc84ceab536f6a%7C/g/11btn18jtk%7Cen-ID,
hotel,hotel,Asana Biak Papua,"Jl. M Yamin No.04, Mandala, Kec. Biak Kota, Kabupaten Biak Numfor, Papua 98111","Mandala, Kec. Biak Kota, Kabupaten Biak Numfor",PAPUA,98111.0,Indonesia,8114743111.0,,,-11.918.619,1.361.049.095,https://maps.google.com/?cid=0x0:0x94321ded15c5a4a3,
hotel,hotel,Horison Inn Relat Jayapura,"Jl. Pantai Klp. No.21 - 23, Argapura, Distrik Jayapura Selatan, Kota Jayapura, Papua","Kota Jayapura, Papua",PAPUA,,Indonesia,9675160779.0,,,-25.537.101,1.407.148.929,https://maps.google.com/?cid=0x0:0xb98fc1bbb5c5c494,
hotel,hotel,SIP Azana Hotel Jayapura,"Jl. Ahmad Yani No.50, Gurabesi, Kec. Jayapura Utara, Kota Jayapura, Papua 99221","Gurabesi, Kec. Jayapura Utara, Kota Jayapura",PAPUA,99221.0,Indonesia,82197886688.0,,,-25.436.754,1.407.014.241,https://maps.google.com/?cid=0x0:0xc311c59465e76f9e,
hotel,hotel,Galaxy Hotel Abepura,"Kp. Waena, Kec. Heram, Kota Jayapura, Papua 99351","Kec. Heram, Kota Jayapura",PAPUA,99351.0,Indonesia,81150500147.0,,,-25.944.039,1.406.254.198,https://maps.google.com/?cid=0x0:0xf9951793f247fc13,
hotel,hotel,Penginapan Paparisa Amungsa,"Koperapoka, Kec. Mimika Baru, Kabupaten Mimika, Papua 99971","Kec. Mimika Baru, Kabupaten Mimika",PAPUA,99971.0,Indonesia,81343206383.0,,,-45.385.795,1.368.755.667,https://maps.google.com/?cid=0x0:0xfd07a1d4446c8f23,
hotel,hotel,HOTEL AINA,"CGM6+R9J, Jl. Raya Kemiri, Sentani Kota, Kec. Sentani, Kabupaten Jayapura, Papua","Kabupaten Jayapura, Papua",PAPUA,,Indonesia,85243960057.0,,,-25.654.218,1.405.108.844,https://maps.google.com/?cid=0x0:0xe10f3eb6fe778f83,
hotel,hotel,Frontone Green Boutique Hotel,"Jl. Gerilyawan Jl. Bosnik BTN Kamkey No.111, Kamkey, Kec. Abepura, Kota Jayapura, Papua 99351","Kamkey, Kec. Abepura, Kota Jayapura",PAPUA,99351.0,Indonesia,967585010.0,,,-26.140.146,1.406.711.964,https://maps.google.com/?cid=0x0:0x4a570626468e5935,
hotel,hotel,,,,PAPUA,,Indonesia,,,,,,https://maps.google.com/?cid=0x0:0x4a570626468e5935%7C/g/11qg28n36t%7Cen-ID,
hotel,hotel,Rimba Papua Hotel,"Jl. Kwamki Narama No. 1, Kwamki, Kec. Mimika Baru, Kabupaten Mimika, Papua 99971","Kwamki, Kec. Mimika Baru, Kabupaten Mimika",PAPUA,99971.0,Indonesia,901494949.0,,,-45.151.124,136.884.599,https://maps.google.com/?cid=0x0:0xa65056700db32492,
hotel,hotel,Hotel Greend Idaman,"Persatuan, Kec. Mandobo, Kabupaten Boven Digoel, Papua 99663","Kec. Mandobo, Kabupaten Boven Digoel",PAPUA,99663.0,Indonesia,82229338883.0,,,-61.143.736,1.403.221.803,https://maps.google.com/?cid=0x0:0x7e63bcf9bd853452,
hotel,Hotel,Hotel Intsia,"CVQQ+499, Jl. Yos Sudarso, Inauga, Kec. Mimika Baru, Kabupaten Mimika, Papua 99971","Jl. Yos Sudarso, Inauga, Kec. Mimika Baru, Kabupaten Mimika",PAPUA,99971.0,Indonesia,901321007.0,,,-4.562.219,1.368.884.747,https://maps.google.com/?cid=0x0:0x654d96a7906f6c7e,
hotel,hotel,Hotel Timika,"Jl. Hasanuddin No.9, Nawaripi, Kec. Mimika Baru, Kabupaten Mimika, Papua 99971","Nawaripi, Kec. Mimika Baru, Kabupaten Mimika",PAPUA,99971.0,Indonesia,,,,-4.566.916,1.368.828.964,https://maps.google.com/?cid=0x0:0x51b78f3be0c597f8,
hotel,hotel,Papua 98768,"Kabupaten Intan Jaya, Papua","Kabupaten Intan Jaya, Papua",PAPUA,,Indonesia,,,,-36.382.021,1.369.028.375,https://maps.google.com/?cid=0x0:0x902010d7989d7c6c,
hotel,hotel,Hotel Sahid Papua,"Jl. Klp. 2 No.18, Entrop, Distrik Jayapura Selatan, Kota Jayapura, Papua 99221","Entrop, Distrik Jayapura Selatan, Kota Jayapura",PAPUA,99221.0,Indonesia,811481167.0,,,-25.661.461,1.406.996.539,https://maps.google.com/?cid=0x0:0x9c8a2fd141b3aa33,
hotel,hotel,,,,PAPUA,,Indonesia,,,,,,https://maps.google.com/?cid=0x0:0x9c8a2fd141b3aa33%7C/g/11b73kkp76%7Cen-ID,
hotel,hotel,,,,PAPUA,,Indonesia,,,,,,https://maps.google.com/?cid=0x0:0x1a1d78b4fd358a65%7C/g/1tctxpcc%7Cen-ID,
hotel,hotel,SIP Azana Hotel Jayapura,"Jl. Ahmad Yani No.50, Gurabesi, Kec. Jayapura Utara, Kota Jayapura, Papua 99221","Gurabesi, Kec. Jayapura Utara, Kota Jayapura",PAPUA,99221.0,Indonesia,82197886688.0,,,-25.436.754,1.407.014.241,https://maps.google.com/?cid=0x0:0xc311c59465e76f9e,
hotel,hotel,Hotel Karya Papua,"JGX6+2PM, Jl. R.E. Martadinata Kalinona, Nabarua, Distrik Nabire, Papua 98816","Jl. R.E. Martadinata Kalinona, Nabarua, Distrik Nabire",PAPUA,98816.0,Indonesia,82164655697.0,,,-33.524.082,1.355.118.114,https://maps.google.com/?cid=0x0:0x8196bf4b8aafbb3f,
hotel,hotel,Hotel R6,"Jl.Cendrawasih SP2, Papua 99952","Kabupaten Mimika, Papua",PAPUA,,Indonesia,82245112457.0,,,-4.538.464,1.368.691.429,https://maps.google.com/?cid=0x0:0xb392d58fbaabfb69,
hotel,hotel,Hotel Dafonsoro,"Jl. Percetakan Negara No.20-24, Gurabesi, Kec. Jayapura Utara, Kota Jayapura, Papua 99221","Gurabesi, Kec. Jayapura Utara, Kota Jayapura",PAPUA,99221.0,Indonesia,85788877739.0,,,-25.406.973,1.407.041.061,https://maps.google.com/?cid=0x0:0xda20a7d826a77577,
hotel,hotel,Tendy Hotel,"Jl. Trikora AA No.112, Wamena Kota, Distrik Wamena, Kabupaten Jayawijaya, Papua 99511","Wamena Kota, Distrik Wamena, Kabupaten Jayawijaya",PAPUA,99511.0,Indonesia,96931092.0,,,-40.976.762,1.389.492.496,https://maps.google.com/?cid=0x0:0xf05ddbb5560071c5,
hotel,hotel,Tahara Hotel,"JL. Kemiri, No. 26, Sentani, Mandala, Kec. Jayapura Utara, Kota Jayapura, Papua","Kota Jayapura, Papua",PAPUA,,Indonesia,967591388.0,,,-2.533,140.717,https://maps.google.com/?cid=0x0:0xd8524eddaaa461a3,
hotel,hotel,Rimba Papua Hotel,"Jl. Kwamki Narama No. 1, Kwamki, Kec. Mimika Baru, Kabupaten Mimika, Papua 99971","Kwamki, Kec. Mimika Baru, Kabupaten Mimika",PAPUA,99971.0,Indonesia,901494949.0,,,-45.151.124,136.884.599,https://maps.google.com/?cid=0x0:0xa65056700db32492,
hotel,Guest house,Guest House 106,"V34R+4VQ, Tembagapura, Kec. Tembagapura, Kabupaten Mimika, Papua 99967","Tembagapura, Kec. Tembagapura, Kabupaten Mimika",PAPUA,99967.0,Indonesia,901407151.0,,,-41.446.632,1.370.922.209,https://maps.google.com/?cid=0x0:0xb227b6ed2546aadc,
hotel,Guest house,Guest House 103,"V33R+VWR, Tembagapura, Kec. Tembagapura, Kabupaten Mimika, Papua 99967","Tembagapura, Kec. Tembagapura, Kabupaten Mimika",PAPUA,99967.0,Indonesia,85250882818.0,,,-41.452.702,1.370.922.504,https://maps.google.com/?cid=0x0:0x2ff90c1eaf3677f,
restaurant,restaurant,Papua 98768,"Kabupaten Intan Jaya, Papua","Kabupaten Intan Jaya, Papua",PAPUA,,Indonesia,,,,-36.382.021,1.369.028.375,https://maps.google.com/?cid=0x0:0x902010d7989d7c6c,
restaurant,Komplek perumahan,RM ADIVA,"725V+GG7, Bilogai, Kec. Sugapa, Kabupaten Intan Jaya, Papua 98768","Bilogai, Kec. Sugapa, Kabupaten Intan Jaya",PAPUA,98768.0,Indonesia,85336741888.0,,,-37.416.944,1.370.437.608,https://maps.google.com/?cid=0x0:0xf7b8bec5b7c12751,
restaurant,restaurant,Warung makan diva,"725V+GG7, Bilogai, Kec. Sugapa, Kabupaten Intan Jaya, Papua 98768","Bilogai, Kec. Sugapa, Kabupaten Intan Jaya",PAPUA,98768.0,Indonesia,,,,-37.353.125,1.370.440.625,https://maps.google.com/?cid=0x0:0xc0aada5c761b9bfb,
restaurant,China,Su Er Kao Yu | Gading Serpong,"Ruko Maggiore Square. 1A, Cihuni, Kec. Pagedangan, Kabupaten Tangerang, Banten 15332","Cihuni, Kec. Pagedangan, Kabupaten Tangerang",PAPUA,15332.0,Indonesia,81110066915.0,,,-62.733.573,106.635.385,https://maps.google.com/?cid=0x0:0xa83844e8cdf647e7,
restaurant,Restoran,Grand Serpong Kitchen,"Jl. Raya Serpong Kilometer 7 No.KM.8, Pakulonan, Kec. Serpong Utara, Kota Tangerang Selatan, Banten 15325","Pakulonan, Kec. Serpong Utara, Kota Tangerang Selatan",PAPUA,15325.0,Indonesia,2153125595.0,,,-62.425.851,1.066.479.612,https://maps.google.com/?cid=0x0:0x676c22612a728569,
restaurant,China,Shu Guo Yin Xiang,"Komp THR Lokasari Blok B No, Jl. Raya Mangga Besar No.8, RT.6/RW.2, Tangki, Kec. Taman Sari, Kota Jakarta Barat, Daerah Khusus Ibukota Jakarta 35132","Jl. Raya Mangga Besar No.8, RT.6/RW.2, Tangki, Kec. Taman Sari, Kota Jakarta Barat",PAPUA,35132.0,Indonesia,2162308860.0,,,-61.476.869,1.068.239.152,https://maps.google.com/?cid=0x0:0x16d725112b724a18,
restaurant,Restoran,Su Er Kao Yu | Hublife Jakarta,"Hublife Jakarta, Lantai 1F, Unit 1 - 9, Kota Jakarta Barat, Daerah Khusus Ibukota Jakarta 11470","Lantai 1F, Unit 1 - 9, Kota Jakarta Barat",PAPUA,11470.0,Indonesia,82189852558.0,,,-61.808.182,1.067.913.116,https://maps.google.com/?cid=0x0:0xa5530c8206f4bd92,
restaurant,Hot Pot,Shiga BBQ Hotpot,"Jl. Senayan No.29 8, Rw. Bar., Kec. Kby. Baru, Kota Jakarta Selatan, Daerah Khusus Ibukota Jakarta 12180","Rw. Bar., Kec. Kby. Baru, Kota Jakarta Selatan",PAPUA,12180.0,Indonesia,81295357491.0,,,-62.346.784,1.068.156.244,https://maps.google.com/?cid=0x0:0x9677e6bff4bfba6f,
restaurant,China,Su Er Kao Yu | Mall Kelapa Gading,"Summarecon Mall Kelapa Gading 5, Lt.3, Unit R.08A, Kec. Klp. Gading, Jkt Utara, Daerah Khusus Ibukota Jakarta 14240","Lt.3, Unit R.08A, Kec. Klp. Gading, Jkt Utara",PAPUA,14240.0,Indonesia,82159950220.0,,,-61.569.771,1.069.099.437,https://maps.google.com/?cid=0x0:0x22b8170c629e4010,
restaurant,restaurant,Kec. Sugapa,"Kabupaten Intan Jaya, Papua","Kabupaten Intan Jaya, Papua",PAPUA,,Indonesia,,,,-37.397.323,1.370.417.997,https://maps.google.com/?cid=0x0:0x484e91d781610f29,
restaurant,restaurant,Warung makan diva,"725V+GG7, Bilogai, Kec. Sugapa, Kabupaten Intan Jaya, Papua 98768","Bilogai, Kec. Sugapa, Kabupaten Intan Jaya",PAPUA,98768.0,Indonesia,,,,-37.353.125,1.370.440.625,https://maps.google.com/?cid=0x0:0xc0aada5c761b9bfb,
restaurant,Komplek perumahan,RM ADIVA,"725V+GG7, Bilogai, Kec. Sugapa, Kabupaten Intan Jaya, Papua 98768","Bilogai, Kec. Sugapa, Kabupaten Intan Jaya",PAPUA,98768.0,Indonesia,85336741888.0,,,-37.416.944,1.370.437.608,https://maps.google.com/?cid=0x0:0xf7b8bec5b7c12751,
restaurant,Thailand,Su Er Kao Yu | One Satrio,"One Satrio CBD, Kuningan, Jl. Prof. DR. Satrio No.1 Unit E10 - E11, Kecamatan Setiabudi, Jakarta, Daerah Khusus Ibukota Jakarta 12949","Kuningan, Jl. Prof. DR. Satrio No.1 Unit E10 - E11, Kecamatan Setiabudi, Jakarta",PAPUA,12949.0,Indonesia,82131111299.0,,,-62.256.612,1.068.263.545,https://maps.google.com/?cid=0x0:0x3cd8c1d95bf5fbf1,
restaurant,Kedai Kopi,SUGA Coffee  Kitchen,"Jl. Raya Hankam No.02 Blok B11, RT.004/RW.008, Jatiranggon, Jatisampurna, Bekasi, West Java 17432","RT.004/RW.008, Jatiranggon, Jatisampurna, Bekasi",PAPUA,17432.0,Indonesia,85179771184.0,,,-6.336.964,10.692.341,https://maps.google.com/?cid=0x0:0x67e583bd0dfe972e,
restaurant,China,Su Er Kao Yu | Gading Serpong,"Ruko Maggiore Square. 1A, Cihuni, Kec. Pagedangan, Kabupaten Tangerang, Banten 15332","Cihuni, Kec. Pagedangan, Kabupaten Tangerang",PAPUA,15332.0,Indonesia,81110066915.0,,,-62.733.573,106.635.385,https://maps.google.com/?cid=0x0:0xa83844e8cdf647e7,
restaurant,Restoran,Grand Serpong Kitchen,"Jl. Raya Serpong Kilometer 7 No.KM.8, Pakulonan, Kec. Serpong Utara, Kota Tangerang Selatan, Banten 15325","Pakulonan, Kec. Serpong Utara, Kota Tangerang Selatan",PAPUA,15325.0,Indonesia,2153125595.0,,,-62.425.851,1.066.479.612,https://maps.google.com/?cid=0x0:0x676c22612a728569,
restaurant,Restoran,Su Er Kao Yu | Hublife Jakarta,"Hublife Jakarta, Lantai 1F, Unit 1 - 9, Kota Jakarta Barat, Daerah Khusus Ibukota Jakarta 11470","Lantai 1F, Unit 1 - 9, Kota Jakarta Barat",PAPUA,11470.0,Indonesia,82189852558.0,,,-61.808.182,1.067.913.116,https://maps.google.com/?cid=0x0:0xa5530c8206f4bd92,
restaurant,China,Su Er Kao Yu | Mall Kelapa Gading,"Summarecon Mall Kelapa Gading 5, Lt.3, Unit R.08A, Kec. Klp. Gading, Jkt Utara, Daerah Khusus Ibukota Jakarta 14240","Lt.3, Unit R.08A, Kec. Klp. Gading, Jkt Utara",PAPUA,14240.0,Indonesia,82159950220.0,,,-61.569.771,1.069.099.437,https://maps.google.com/?cid=0x0:0x22b8170c629e4010,
restaurant,restaurant,Papua 98767,"Kabupaten Intan Jaya, Papua","Kabupaten Intan Jaya, Papua",PAPUA,,Indonesia,,,,-37.788.615,1.367.091.767,https://maps.google.com/?cid=0x0:0xfc7ec60d3a7f14c,
restaurant,Restoran,Noken Cafe by Primo,"V34Q+XXH, Tembagapura, Arwandop, Tembagapura, Kec. Tembagapura, Kabupaten Mimika, Papua 99967","Tembagapura, Arwandop, Tembagapura, Kec. Tembagapura, Kabupaten Mimika",PAPUA,99967.0,Indonesia,,,,-41.425.625,1.370.899.844,https://maps.google.com/?cid=0x0:0xaed48ea0d834fa7a,
restaurant,Restoran,Melati Messhall,"V35R+6PC, Arwandop, Kec. Tembagapura, Kabupaten Mimika, Papua 98972","Arwandop, Kec. Tembagapura, Kabupaten Mimika",PAPUA,98972.0,Indonesia,,,,-41.419.323,1.370.917.683,https://maps.google.com/?cid=0x0:0xcec4b3671f663e0f,
restaurant,Gedung Apartemen,Coffee Shop Hidden Valley,"R3WX+49M, Arwandop, Kec. Tembagapura, Kabupaten Mimika, Papua 99967","Arwandop, Kec. Tembagapura, Kabupaten Mimika",PAPUA,99967.0,Indonesia,901466406.0,,,-4.154.668,1.370.984.148,https://maps.google.com/?cid=0x0:0x19897cfa42d33d8a,
restaurant,Rumah Makan,RestoCafe Rumah Laut,"Jl. Koti, Numbai, Distrik Jayapura Selatan, Kota Jayapura, Papua 99222","Numbai, Distrik Jayapura Selatan, Kota Jayapura",PAPUA,99222.0,Indonesia,9675160842.0,,,-25.443.152,1.407.078.561,https://maps.google.com/?cid=0x0:0xa0b850e17d17f09d,
restaurant,Ayam,Warung Makan Embun Hermon,"3C2J+X23, Jl. Raya Madi, Umbutu / Uyubutu / Uwibutu, Paniai Tim., Kabupaten Paniai, Papua 98781","Jl. Raya Madi, Umbutu / Uyubutu / Uwibutu, Paniai Tim., Kabupaten Paniai",PAPUA,98781.0,Indonesia,81341529899.0,,,-39.476.149,1.364.300.432,https://maps.google.com/?cid=0x0:0x125fb7828c04b5aa,
restaurant,Toko,Kios iche,"Kogekotu, Paniai Tim., Kabupaten Paniai, Papua 98711","Paniai Tim., Kabupaten Paniai",PAPUA,98711.0,Indonesia,,,,-39.248.571,1.363.808.195,https://maps.google.com/?cid=0x0:0xc16b032b51c1ea7a,
restaurant,Bar,Lupa Lelah Club,"V35Q+3C5, Tembagapura, Arwandop, Tembagapura, Kec. Tembagapura, Kabupaten Mimika, Papua 98972","Tembagapura, Arwandop, Tembagapura, Kec. Tembagapura, Kabupaten Mimika",PAPUA,98972.0,Indonesia,901464294.0,,,-41.423.686,1.370.886.127,https://maps.google.com/?cid=0x0:0x34b42bf7fb4e9af2,
restaurant,China,KOPS RESTO TPRA,"V34R+QXH, Jl. Tembagapura Raya, Tembagapura, Kec. Tembagapura, Kabupaten Mimika, Papua 99967","Jl. Tembagapura Raya, Tembagapura, Kec. Tembagapura, Kabupaten Mimika",PAPUA,99967.0,Indonesia,,,,-4.143.062,1.370.924.871,https://maps.google.com/?cid=0x0:0x6bb2b4db62e6d0f9,
restaurant,Brunch,Wr zhaskya 99,"Enarotali, Paniai Tim., Kabupaten Paniai, Papua","Kabupaten Paniai, Papua",PAPUA,,Indonesia,81343456417.0,,,-39.294.063,1.363.783.399,https://maps.google.com/?cid=0x0:0xf81dd6fa6375c5a1,
restaurant,Restoran,New Kenanga Mess Hall,"Tembagapura, Mimika Regency, Papua 98972",Mimika Regency,PAPUA,98972.0,Indonesia,,,,-41.099.385,1.370.999.715,https://maps.google.com/?cid=0x0:0xc5816325edeb9bea,
restaurant,Korea,Halmeoni Restaurant,"Jl. Kyai Caringin No.26A, Cideng, Kecamatan Gambir, Kota Jakarta Pusat, Daerah Khusus Ibukota Jakarta 10150","Cideng, Kecamatan Gambir, Kota Jakarta Pusat",PAPUA,10150.0,Indonesia,81905008888.0,,,-61.711.098,106.808.821,https://maps.google.com/?cid=0x0:0xdef7fb38672d1d4f,
restaurant,Indonesia,Homey,"Gg. 2 No.500, Kauman, Kec. Klojen, Kota Malang, Jawa Timur 65119","Kauman, Kec. Klojen, Kota Malang",PAPUA,65119.0,Indonesia,82231618129.0,,,-79.833.056,1.126.279.277,https://maps.google.com/?cid=0x0:0xaf1471a78deeffb0,
restaurant,BBQ Korea,Magal Roxy,"Jl. Kyai Caringin No.26a, Cideng, Kecamatan Gambir, Kota Jakarta Pusat, Daerah Khusus Ibukota Jakarta 10160","Cideng, Kecamatan Gambir, Kota Jakarta Pusat",PAPUA,10160.0,Indonesia,81256918899.0,,,-61.711.771,1.068.089.203,https://maps.google.com/?cid=0x0:0xddf7141382084b13,
restaurant,Korea,Halmeoni Restaurant,"Jl. Kyai Caringin No.26A, Cideng, Kecamatan Gambir, Kota Jakarta Pusat, Daerah Khusus Ibukota Jakarta 10150","Cideng, Kecamatan Gambir, Kota Jakarta Pusat",PAPUA,10150.0,Indonesia,81905008888.0,,,-61.711.098,106.808.821,https://maps.google.com/?cid=0x0:0xdef7fb38672d1d4f,
restaurant,Bar,De Hooi,"Plaza II Pondok Indah Blok B4. 31, Jl. Metro Duta Niaga No.Raya, RT.3/RW.14, Pd. Pinang, Kec. Kby. Lama, Kota Jakarta Selatan, Daerah Khusus Ibukota Jakarta 12310","Jl. Metro Duta Niaga No.Raya, RT.3/RW.14, Pd. Pinang, Kec. Kby. Lama, Kota Jakarta Selatan",PAPUA,12310.0,Indonesia,217500742.0,,,-62.863.864,1.067.808.434,https://maps.google.com/?cid=0x0:0x34478c4cc65f0f8a,
restaurant,Jepang,Hono Yakitori,"Rukan Osaka, Jalan Boulevard Blok OTB-G05, Salembaran Jati, Tangerang, Tangerang Regency, Banten 15214","Jalan Boulevard Blok OTB-G05, Salembaran Jati, Tangerang, Tangerang Regency",PAPUA,15214.0,Indonesia,81189901181.0,,,-60.580.413,1.066.810.404,https://maps.google.com/?cid=0x0:0x2122fd2fe51f3ee9,
restaurant,BBQ Korea,Magal Roxy,"Jl. Kyai Caringin No.26a, Cideng, Kecamatan Gambir, Kota Jakarta Pusat, Daerah Khusus Ibukota Jakarta 10160","Cideng, Kecamatan Gambir, Kota Jakarta Pusat",PAPUA,10160.0,Indonesia,81256918899.0,,,-61.711.771,1.068.089.203,https://maps.google.com/?cid=0x0:0xddf7141382084b13,
restaurant,Dapur Umum,Hojia Kitchen,"Blok SGC, Ruko, South Jl. Goldfinch Raya No.37, Kabupaten Tangerang, Banten 15330","Ruko, South Jl. Goldfinch Raya No.37, Kabupaten Tangerang",PAPUA,15330.0,Indonesia,8988606052.0,,,-6.273.862,1.066.381.818,https://maps.google.com/?cid=0x0:0xa4e8f166b936e433,
restaurant,Indonesia,1HomeResto by Amasa (new!),"Cluster Windsor, Blk. O10 No.11, Cibubur, Kec. Gn. Putri, Kabupaten Bogor, Jawa Barat 16968","Blk. O10 No.11, Cibubur, Kec. Gn. Putri, Kabupaten Bogor",PAPUA,16968.0,Indonesia,81908200796.0,,,-63.631.168,1.069.627.793,https://maps.google.com/?cid=0x0:0x574c4566d6559572,
restaurant,Padang,Resto Yougwa Danau Sentani,"Jl. Batu Ceper No.73 15, RT.15/RW.1, Kb. Klp., Kecamatan Gambir, Kota Jakarta Pusat, Daerah Khusus Ibukota Jakarta 10120","RT.15/RW.1, Kb. Klp., Kecamatan Gambir, Kota Jakarta Pusat",PAPUA,10120.0,Indonesia,8119622272.0,,,-6.162.043,1.068.243.928,https://maps.google.com/?cid=0x0:0xd6689d47fce71c89,
restaurant,Padang,Yoga Sentani Rumah Makan,"Jl. Boulevard Raya No.2 9 2, RT.5/RW.9, Penjaringan, Kec. Penjaringan, Jkt Utara, Daerah Khusus Ibukota Jakarta 14440","RT.5/RW.9, Penjaringan, Kec. Penjaringan, Jkt Utara",PAPUA,14440.0,Indonesia,214530419.0,,,-61.302.159,1.068.038.221,https://maps.google.com/?cid=0x0:0x157679ce2abceaae,
restaurant,Manado,WARUNG MAKAN BU RUTH (PAPUA),"Jl. Garuda I No.5-6, Gn. Sahari Sel., Kec. Kemayoran, Kota Jakarta Pusat, Daerah Khusus Ibukota Jakarta 10610","Gn. Sahari Sel., Kec. Kemayoran, Kota Jakarta Pusat",PAPUA,10610.0,Indonesia,,,,-61.600.159,1.068.500.353,https://maps.google.com/?cid=0x0:0xaa797e74d74c749b,
restaurant,Pangsit,Hwamei Chinese Restaurant @Aviary Park,"Jl. Bintaro Creative District No.15, Pd. Ranji, Kec. Ciputat Tim., Kota Tangerang Selatan, Banten 15224","Pd. Ranji, Kec. Ciputat Tim., Kota Tangerang Selatan",PAPUA,15224.0,Indonesia,81322555199.0,,,-62.767.027,1.067.405.236,https://maps.google.com/?cid=0x0:0x3b482b5798be2229,
restaurant,Indonesia,Yougwa Danau Sentani,"Senayan Park Mall Lantai LG #20-25, Jl. Gerbang Pemuda No.3, RT.1/RW.3, Gelora, Kecamatan Tanah Abang, Kota Jakarta Pusat, Daerah Khusus Ibukota Jakarta 10270","Jl. Gerbang Pemuda No.3, RT.1/RW.3, Gelora, Kecamatan Tanah Abang, Kota Jakarta Pusat",PAPUA,10270.0,Indonesia,2129633388.0,,,-62.122.871,1.068.053.997,https://maps.google.com/?cid=0x0:0x25579f89f3dead39,
restaurant,Kafe,Satu Meja,"Jl. Tj. Duren Utara 4 No.464 11, RT.11/RW.3, Tj. Duren Utara, Kec. Grogol petamburan, Kota Jakarta Barat, Daerah Khusus Ibukota Jakarta 11470","RT.11/RW.3, Tj. Duren Utara, Kec. Grogol petamburan, Kota Jakarta Barat",PAPUA,11470.0,Indonesia,81234569884.0,,,-61.702.274,1.067.829.131,https://maps.google.com/?cid=0x0:0xc5e199a8150ee887,
restaurant,Restoran,Kayu Menjangan,"Jl. Menjangan Raya, Pd. Ranji, Kec. Ciputat Tim., Kota Tangerang Selatan, Banten","Kota Tangerang Selatan, Banten",PAPUA,,Indonesia,2129510666.0,,,-62.929.866,1.067.362.009,https://maps.google.com/?cid=0x0:0x7232c41f028682a0,
restaurant,China,Ta Wan - Central Park,"Central Park, Letjen S. Parman No.Kav.28 Lantai 3 Unit 203, Tj. Duren Sel., Kec. Grogol petamburan, Kota Jakarta Barat, Daerah Khusus Ibukota Jakarta 11470","Letjen S. Parman No.Kav.28 Lantai 3 Unit 203, Tj. Duren Sel., Kec. Grogol petamburan, Kota Jakarta Barat",PAPUA,11470.0,Indonesia,2129200486.0,,,-61.780.423,1.067.903.093,https://maps.google.com/?cid=0x0:0x3c36cd8cef773f32,
restaurant,Steak,Wanda's Club Bekasi,"Jl. Grand Wisata No.39, Lambangsari, Kec. Tambun Sel., Kota Bks, Jawa Barat 17510","Lambangsari, Kec. Tambun Sel., Kota Bks",PAPUA,17510.0,Indonesia,,,,-62.847.025,1.070.425.687,https://maps.google.com/?cid=0x0:0xa83bd918c8a2339f,
restaurant,Rumah Makan,Rumah Makan Sendok Garpu Jayapura,"Jl. Raya Abepura-Kotaraja Kota Baru, Wai Mhorock, Kec. Abepura, Kota Jayapura, Papua 99225","Wai Mhorock, Kec. Abepura, Kota Jayapura",PAPUA,99225.0,Indonesia,82310000123.0,,,-26.057.136,1.406.694.308,https://maps.google.com/?cid=0x0:0x9b347169a4f00047,
restaurant,Restoran,Cobek Bakar Jayapura,"Jl. Jeruk Nipis, Kota Raja, Kec. Abepura, Kota Jayapura, Papua 99225","Kota Raja, Kec. Abepura, Kota Jayapura",PAPUA,99225.0,Indonesia,82314494684.0,,,-25.918.465,1.406.752.867,https://maps.google.com/?cid=0x0:0x24939d278ae75de5,
restaurant,Restoran,Djoeragan Dapur Resto and Cafe,"Engros, Kec. Abepura, Kota Jayapura, Papua","Kota Jayapura, Papua",PAPUA,,Indonesia,81292006323.0,,,-25.999.813,1.407.147.104,https://maps.google.com/?cid=0x0:0xb8853f9fee2cdbc,
restaurant,Restoran,Restaurant Yougwa,"CJ63+H23, Jl. Raya Abepura - Sentani, Asei Kecil, Kec. Sentani Tim., Kabupaten Jayapura, Papua 99351","Jl. Raya Abepura - Sentani, Asei Kecil, Kec. Sentani Tim., Kabupaten Jayapura",PAPUA,99351.0,Indonesia,8114801448.0,,,-25.886.245,140.602.559,https://maps.google.com/?cid=0x0:0x65e60fc66014e79c,
restaurant,Restoran,Dapur Papua Resto (tag by EnCHy),"CH94+3PC, Jl. Raya Airport Sentani, Nendali, Kec. Sentani Tim., Kabupaten Jayapura, Papua 99359","Jl. Raya Airport Sentani, Nendali, Kec. Sentani Tim., Kabupaten Jayapura",PAPUA,99359.0,Indonesia,,,,-25.823.105,140.556.775,https://maps.google.com/?cid=0x0:0x31316751d4c3a979,
restaurant,Indonesia,Rumah Makan Terapung,"CJ53+4G6, RW.Lake, Asei Kecil, Sentani Timur, Jayapura Regency, Papua 99351","RW.Lake, Asei Kecil, Sentani Timur, Jayapura Regency",PAPUA,99351.0,Indonesia,81344792747.0,,,-25.922.232,1.406.037.785,https://maps.google.com/?cid=0x0:0x92aa0340bfd095e5,
restaurant,Nasi,Yuna Roma Wiyah,"CGJ7+9X2, Sentani Kota, Kec. Sentani, Kabupaten Jayapura, Papua 99359","Sentani Kota, Kec. Sentani, Kabupaten Jayapura",PAPUA,99359.0,Indonesia,81247030845.0,,,-25.691.188,1.405.149.012,https://maps.google.com/?cid=0x0:0x2a3bfda5f025fc83,
restaurant,restaurant,,,,PAPUA,,Indonesia,,,,,,https://maps.google.com/?cid=0x0:0x65e60fc66014e79cu0026onu003dMujair+Goreng+Ricau0026midu003d/g/11bywk_6w9,
restaurant,restaurant,,,,PAPUA,,Indonesia,,,,,,https://maps.google.com/?cid=0x0:0x65e60fc66014e79cu0026onu003dIkan+Kuah+Kuningu0026midu003d/g/11bywk_6w9,
restaurant,restaurant,Distrik Agisiga,"Kabupaten Intan Jaya, Papua","Kabupaten Intan Jaya, Papua",PAPUA,,Indonesia,,,,-37.319.536,1.370.926.922,https://maps.google.com/?cid=0x0:0xd5984dfd8c3b468d,
restaurant,Komplek perumahan,RM ADIVA,"725V+GG7, Bilogai, Kec. Sugapa, Kabupaten Intan Jaya, Papua 98768","Bilogai, Kec. Sugapa, Kabupaten Intan Jaya",PAPUA,98768.0,Indonesia,85336741888.0,,,-37.416.944,1.370.437.608,https://maps.google.com/?cid=0x0:0xf7b8bec5b7c12751,
restaurant,restaurant,Warung makan diva,"725V+GG7, Bilogai, Kec. Sugapa, Kabupaten Intan Jaya, Papua 98768","Bilogai, Kec. Sugapa, Kabupaten Intan Jaya",PAPUA,98768.0,Indonesia,,,,-37.353.125,1.370.440.625,https://maps.google.com/?cid=0x0:0xc0aada5c761b9bfb,
restaurant,restaurant,Papua 98768,"Kabupaten Intan Jaya, Papua","Kabupaten Intan Jaya, Papua",PAPUA,,Indonesia,,,,-36.382.021,1.369.028.375,https://maps.google.com/?cid=0x0:0x902010d7989d7c6c,
restaurant,Komplek perumahan,RM ADIVA,"725V+GG7, Bilogai, Kec. Sugapa, Kabupaten Intan Jaya, Papua 98768","Bilogai, Kec. Sugapa, Kabupaten Intan Jaya",PAPUA,98768.0,Indonesia,85336741888.0,,,-37.416.944,1.370.437.608,https://maps.google.com/?cid=0x0:0xf7b8bec5b7c12751,
restaurant,restaurant,Warung makan diva,"725V+GG7, Bilogai, Kec. Sugapa, Kabupaten Intan Jaya, Papua 98768","Bilogai, Kec. Sugapa, Kabupaten Intan Jaya",PAPUA,98768.0,Indonesia,,,,-37.353.125,1.370.440.625,https://maps.google.com/?cid=0x0:0xc0aada5c761b9bfb,
cafe,cafe,Papua 98768,"Kabupaten Intan Jaya, Papua","Kabupaten Intan Jaya, Papua",PAPUA,,Indonesia,,,,-36.382.021,1.369.028.375,https://maps.google.com/?cid=0x0:0x902010d7989d7c6c,
cafe,Komplek perumahan,RM ADIVA,"725V+GG7, Bilogai, Kec. Sugapa, Kabupaten Intan Jaya, Papua 98768","Bilogai, Kec. Sugapa, Kabupaten Intan Jaya",PAPUA,98768.0,Indonesia,85336741888.0,,,-37.416.944,1.370.437.608,https://maps.google.com/?cid=0x0:0xf7b8bec5b7c12751,
cafe,cafe,Warung makan diva,"725V+GG7, Bilogai, Kec. Sugapa, Kabupaten Intan Jaya, Papua 98768","Bilogai, Kec. Sugapa, Kabupaten Intan Jaya",PAPUA,98768.0,Indonesia,,,,-37.353.125,1.370.440.625,https://maps.google.com/?cid=0x0:0xc0aada5c761b9bfb,
cafe,Kafe,Suge Coffee  Eatery,"Bintaro Sector 1, Jl. Bintaro Tengah No.48, Bintaro, Kec. Pesanggrahan, Kota Jakarta Selatan, Daerah Khusus Ibukota Jakarta 12330","Jl. Bintaro Tengah No.48, Bintaro, Kec. Pesanggrahan, Kota Jakarta Selatan",PAPUA,12330.0,Indonesia,,,,-62.725.159,1.067.530.394,https://maps.google.com/?cid=0x0:0x64c8e6c2420f717c,
cafe,Dapur Umum,Sugab,"Jl. Cipinang Jagal No.22 2, RT.2/RW.16, Cipinang, Kec. Pulo Gadung, Kota Jakarta Timur, Daerah Khusus Ibukota Jakarta 13240","RT.2/RW.16, Cipinang, Kec. Pulo Gadung, Kota Jakarta Timur",PAPUA,13240.0,Indonesia,81327284916.0,,,-62.124.888,106.895.013,https://maps.google.com/?cid=0x0:0xc283897aec0bdb2f,
cafe,Kafe,Warkop Sugab,"Jl. Kp. Bali X No.26 7, RT.8/RW.9, Kp. Bali, Kecamatan Tanah Abang, Kota Jakarta Pusat, Daerah Khusus Ibukota Jakarta 10250","RT.8/RW.9, Kp. Bali, Kecamatan Tanah Abang, Kota Jakarta Pusat",PAPUA,10250.0,Indonesia,81282186021.0,,,-61.852.789,1.068.198.893,https://maps.google.com/?cid=0x0:0x9e3cdd3fa52fbde1,
cafe,cafe,Sugapa coffe,"MPHF+HW8, Serua Indah, Kec. Ciputat, Kota Tangerang Selatan, Banten 15414","Serua Indah, Kec. Ciputat, Kota Tangerang Selatan",PAPUA,15414.0,Indonesia,,,,-63.210.772,106.724.818,https://maps.google.com/?cid=0x0:0x8df1dac0ae839a9e,
cafe,cafe,Kec. Sugapa,"Kabupaten Intan Jaya, Papua","Kabupaten Intan Jaya, Papua",PAPUA,,Indonesia,,,,-37.397.323,1.370.417.997,https://maps.google.com/?cid=0x0:0x484e91d781610f29,
cafe,Komplek perumahan,RM ADIVA,"725V+GG7, Bilogai, Kec. Sugapa, Kabupaten Intan Jaya, Papua 98768","Bilogai, Kec. Sugapa, Kabupaten Intan Jaya",PAPUA,98768.0,Indonesia,85336741888.0,,,-37.416.944,1.370.437.608,https://maps.google.com/?cid=0x0:0xf7b8bec5b7c12751,
cafe,cafe,Warung makan diva,"725V+GG7, Bilogai, Kec. Sugapa, Kabupaten Intan Jaya, Papua 98768","Bilogai, Kec. Sugapa, Kabupaten Intan Jaya",PAPUA,98768.0,Indonesia,,,,-37.353.125,1.370.440.625,https://maps.google.com/?cid=0x0:0xc0aada5c761b9bfb,
cafe,Dapur Umum,Sugab,"Jl. Cipinang Jagal No.22 2, RT.2/RW.16, Cipinang, Kec. Pulo Gadung, Kota Jakarta Timur, Daerah Khusus Ibukota Jakarta 13240","RT.2/RW.16, Cipinang, Kec. Pulo Gadung, Kota Jakarta Timur",PAPUA,13240.0,Indonesia,81327284916.0,,,-62.124.888,106.895.013,https://maps.google.com/?cid=0x0:0xc283897aec0bdb2f,
cafe,cafe,Sugapa coffe,"MPHF+HW8, Serua Indah, Kec. Ciputat, Kota Tangerang Selatan, Banten 15414","Serua Indah, Kec. Ciputat, Kota Tangerang Selatan",PAPUA,15414.0,Indonesia,,,,-63.210.772,106.724.818,https://maps.google.com/?cid=0x0:0x8df1dac0ae839a9e,
cafe,cafe,Papua 98767,"Kabupaten Intan Jaya, Papua","Kabupaten Intan Jaya, Papua",PAPUA,,Indonesia,,,,-37.788.615,1.367.091.767,https://maps.google.com/?cid=0x0:0xfc7ec60d3a7f14c,
cafe,cafe,Houm Coffee,"Jl. Dharmawangsa VIII No.24, RT.5/RW.3, Pulo, Kec. Kby. Baru, Kota Jakarta Selatan, Daerah Khusus Ibukota Jakarta 12160","RT.5/RW.3, Pulo, Kec. Kby. Baru, Kota Jakarta Selatan",PAPUA,12160.0,Indonesia,81385995503.0,,,-62.532.689,1.068.073.984,https://maps.google.com/?cid=0x0:0x621d4cba3f55125c,
cafe,Gedung Apartemen,Coffee Shop Hidden Valley,"R3WX+49M, Arwandop, Kec. Tembagapura, Kabupaten Mimika, Papua 99967","Arwandop, Kec. Tembagapura, Kabupaten Mimika",PAPUA,99967.0,Indonesia,901466406.0,,,-4.154.668,1.370.984.148,https://maps.google.com/?cid=0x0:0x19897cfa42d33d8a,
cafe,Mesin Sangrai Kopi,Highland Roastery,"Jl. Yoka Pantai, Yoka, Kec. Heram, Kota Jayapura, Papua 99351","Yoka, Kec. Heram, Kota Jayapura",PAPUA,99351.0,Indonesia,82199253560.0,,,-26.006.245,1.406.325.081,https://maps.google.com/?cid=0x0:0x351b1a484bbe3165,
cafe,Kafe,Saanjh Cafe,"CJ2G+C7W, Jl. Gelanggang Remaja, Waena, Kec. Heram, Kota Jayapura, Papua 99351","Jl. Gelanggang Remaja, Waena, Kec. Heram, Kota Jayapura",PAPUA,99351.0,Indonesia,,,,-25.988.941,1.406.256.974,https://maps.google.com/?cid=0x0:0xf472b389c2309050,
cafe,Sarapan,Koya Coffe,"39CH+68P, Enarotali, Paniai Tim., Kabupaten Paniai, Papua","Kabupaten Paniai, Papua",PAPUA,,Indonesia,81270421195.0,,,-39.294.125,1.363.783.403,https://maps.google.com/?cid=0x0:0x88c352bf7637bbd,
cafe,Kedai Kopi,The Honai Coffee,"Jl. Enggros, Tobati, Titik, Temu, Hwani, Kota Jayapura, Papua 22990","Tobati, Titik, Temu, Hwani, Kota Jayapura",PAPUA,22990.0,Indonesia,85248169269.0,,,-25.986.502,1.407.135.633,https://maps.google.com/?cid=0x0:0xfa79a8e828e6f644,
cafe,Produsen,SEMERU GROUP (wifi),"Unnamed Road, Awabutu, Paniai Tim., Kabupaten Paniai, Papua 98726","Awabutu, Paniai Tim., Kabupaten Paniai",PAPUA,98726.0,Indonesia,85235399517.0,,,-3.928.367,1.363.785.859,https://maps.google.com/?cid=0x0:0x64a880d0958b0284,
cafe,Toko,Kios iche,"Kogekotu, Paniai Tim., Kabupaten Paniai, Papua 98711","Paniai Tim., Kabupaten Paniai",PAPUA,98711.0,Indonesia,,,,-39.248.571,1.363.808.195,https://maps.google.com/?cid=0x0:0xc16b032b51c1ea7a,
cafe,Kedai Kopi,Zagena Cafe,"3C4H+FQX, Jl. Raya Madi, Umbutu / Uyubutu / Uwibutu, Paniai Tim., Kabupaten Paniai, Papua 98781","Jl. Raya Madi, Umbutu / Uyubutu / Uwibutu, Paniai Tim., Kabupaten Paniai",PAPUA,98781.0,Indonesia,,,,-39.438.886,1.364.296.684,https://maps.google.com/?cid=0x0:0xfb18ee9bb02c050d,
cafe,Kedai Kopi,Maxx Coffee Tembagapura,"Tembagapura, Kec. Tembagapura, Kabupaten Mimika, Papua 98972","Kec. Tembagapura, Kabupaten Mimika",PAPUA,98972.0,Indonesia,,,,-41.424.586,1.370.899.319,https://maps.google.com/?cid=0x0:0x9ef773c4f6fba9d3,
cafe,Kedai Kopi,Stev MEE OFFICIAL,"Steven kayame, Panibagata, Kebo, Kabupaten Paniai, Papua 67890","Panibagata, Kebo, Kabupaten Paniai",PAPUA,67890.0,Indonesia,82297525998.0,,,-37.876.441,1.363.624.686,https://maps.google.com/?cid=0x0:0x9aae32ed953be1e4,
cafe,cafe,Honai Cafe,"V4R2+634, Arwandop, Tembagapura, Mimika Regency, Papua","Kabupaten Mimika, Papua",PAPUA,,Indonesia,,,,-41.094.875,1.371.002.031,https://maps.google.com/?cid=0x0:0x5db89decef0110e2,
cafe,Kafe,Honai cafe,"CMWQ+QFP, Jl. Cenderawasih, Kota Baru, Kec. Abepura, Kota Jayapura, Papua 99351","Jl. Cenderawasih, Kota Baru, Kec. Abepura, Kota Jayapura",PAPUA,99351.0,Indonesia,,,,-2.553.035,1.406.887.116,https://maps.google.com/?cid=0x0:0x3f7bfb878ede4056,
cafe,Kedai Kopi,Homey Coffee ?,"Jl. Tekun, Jl. Komp. Tni AL Jl. Kodamar No.22, Klp. Gading Bar., Jkt Utara, Daerah Khusus Ibukota Jakarta 14240","Jl. Komp. Tni AL Jl. Kodamar No.22, Klp. Gading Bar., Jkt Utara",PAPUA,14240.0,Indonesia,8388833997.0,,,-6.165.353,106.882.206,https://maps.google.com/?cid=0x0:0x83f822e361b5bd91,
cafe,Kedai Kopi,Hime no coffee,"Jl. Peta Barat, Kalideres, Kec. Kalideres, Kota Jakarta Barat, Daerah Khusus Ibukota Jakarta 11840","Kalideres, Kec. Kalideres, Kota Jakarta Barat",PAPUA,11840.0,Indonesia,81317703715.0,,,-61.410.694,1.066.928.587,https://maps.google.com/?cid=0x0:0xe11d6a02f66c7c95,
cafe,Studio Yoga,Houm Yoga,"Jl. Dharmawangsa VIII No.24, Pulo, Kec. Kby. Baru, Jakarta, Daerah Khusus Ibukota Jakarta 12160","Pulo, Kec. Kby. Baru, Jakarta",PAPUA,12160.0,Indonesia,81315000829.0,,,-62.532.689,1.068.073.984,https://maps.google.com/?cid=0x0:0xb00f9b7777ce6abe,
cafe,cafe,Cafee Hom,"Komplek walikota, Jl bulbul, Sukapura, Cilincing, North Jakarta City, Jakarta","Jkt Utara, Daerah Khusus Ibukota Jakarta",PAPUA,,Indonesia,,,,-61.531.423,1.069.219.627,https://maps.google.com/?cid=0x0:0xed6bf0b513b3dc94,
cafe,cafe,Papua 98769,Papua,Papua,PAPUA,,Indonesia,,,,-34.531.316,1.363.240.951,https://maps.google.com/?cid=0x0:0xd28ed8bf27ec9c6b,
cafe,cafe,Houm Coffee,"Jl. Dharmawangsa VIII No.24, RT.5/RW.3, Pulo, Kec. Kby. Baru, Kota Jakarta Selatan, Daerah Khusus Ibukota Jakarta 12160","RT.5/RW.3, Pulo, Kec. Kby. Baru, Kota Jakarta Selatan",PAPUA,12160.0,Indonesia,81385995503.0,,,-62.532.689,1.068.073.984,https://maps.google.com/?cid=0x0:0x621d4cba3f55125c,
cafe,Warnet,HyperMedia,"Kilo Meter 95, Epomani, Siriwo, Kabupaten Nabire, Papua","Kabupaten Nabire, Papua",PAPUA,,Indonesia,,,,-33.800.854,1.360.944.845,https://maps.google.com/?cid=0x0:0xc50d788989c98c18,
cafe,Kedai Kopi,The Honai Coffee,"Jl. Enggros, Tobati, Titik, Temu, Hwani, Kota Jayapura, Papua 22990","Tobati, Titik, Temu, Hwani, Kota Jayapura",PAPUA,22990.0,Indonesia,85248169269.0,,,-25.986.502,1.407.135.633,https://maps.google.com/?cid=0x0:0xfa79a8e828e6f644,
cafe,Studio Yoga,Houm Yoga,"Jl. Dharmawangsa VIII No.24, Pulo, Kec. Kby. Baru, Jakarta, Daerah Khusus Ibukota Jakarta 12160","Pulo, Kec. Kby. Baru, Jakarta",PAPUA,12160.0,Indonesia,81315000829.0,,,-62.532.689,1.068.073.984,https://maps.google.com/?cid=0x0:0xb00f9b7777ce6abe,
cafe,Kafe,at home cafe.,"Jl. Karet Pasar Baru Barat VII No.2, Karet Tengsin, Kecamatan Tanah Abang, Kota Jakarta Pusat, Daerah Khusus Ibukota Jakarta 10220","Karet Tengsin, Kecamatan Tanah Abang, Kota Jakarta Pusat",PAPUA,10220.0,Indonesia,,,,-6.211.904,1.068.152.392,https://maps.google.com/?cid=0x0:0xda25ec4e682e6f9,
cafe,Kafe,PUA-PUA CAFE,"Jl. Budi Utomo, Nawaripi, Kec. Mimika Baru, Kabupaten Mimika, Papua 99952","Nawaripi, Kec. Mimika Baru, Kabupaten Mimika",PAPUA,99952.0,Indonesia,82346750560.0,,,-45.620.805,1.368.806.057,https://maps.google.com/?cid=0x0:0xb7cc07f877baacb2,
cafe,Kafe,Waanal Coffee And Resto,"Jl. Cendrawasih, Karang Senang, Kec. Kuala Kencana, Kabupaten Mimika, Papua 99910","Karang Senang, Kec. Kuala Kencana, Kabupaten Mimika",PAPUA,99910.0,Indonesia,81248677897.0,,,-44.916.566,1.368.474.106,https://maps.google.com/?cid=0x0:0xe6f6936c8a14d771,
cafe,Kafe,LAVAS'CO COFFEE  RESTO,"CVQJ+86W, Timika,, Koperapoka, Kec. Mimika Baru, Kabupaten Mimika, Papua 99971","Timika,, Koperapoka, Kec. Mimika Baru, Kabupaten Mimika",PAPUA,99971.0,Indonesia,8114909486.0,,,-45.616.468,1.368.805.836,https://maps.google.com/?cid=0x0:0xe3ccc616238019e9,
cafe,Toko bahan makanan,Warung Wanda Foundation,"Villa Mas Indah, Perum Blk. D8 No.19, RT.005/RW.014, Perwira, Kec. Bekasi Utara, Kota Bks, Jawa Barat 17122","Perum Blk. D8 No.19, RT.005/RW.014, Perwira, Kec. Bekasi Utara, Kota Bks",PAPUA,17122.0,Indonesia,,,,-62.110.254,10.701.314,https://maps.google.com/?cid=0x0:0x80febaff587acf92,
cafe,Kedai Kopi,Wanda's Family,"HQJX+HJ4, Jl. H. Tamad Firdaus, RT.03 RW02, Cipayung, Kec. Cipayung, Kota Depok, Jawa Barat 16437","Jl. H. Tamad Firdaus, RT.03 RW02, Cipayung, Kec. Cipayung, Kota Depok",PAPUA,16437.0,Indonesia,,,,-6.418.607,1.067.990.752,https://maps.google.com/?cid=0x0:0xe1c8dd402247d857,
cafe,Kedai Kopi,warkoprjinta,"7A, Jl. Nipah No.III BLOK Q5, Petogogan, Kec. Kby. Baru, Kota Jakarta Selatan, Daerah Khusus Ibukota Jakarta","Kota Jakarta Selatan, Daerah Khusus Ibukota Jakarta",PAPUA,,Indonesia,,,,-62.467.593,1.068.072.037,https://maps.google.com/?cid=0x0:0x752865860924fa00,
cafe,cafe,wanda's Cafe,"Jalan Bubulak No.15, Cadas Ngampar, Sukaraja, Bogor Regency, West Java 16710","Cadas Ngampar, Sukaraja, Bogor Regency",PAPUA,16710.0,Indonesia,8986688212.0,,,-6.571.912,1.068.361.921,https://maps.google.com/?cid=0x0:0x1bc44954afa6d9a3,
cafe,cafe,Papua 98784,Papua,Papua,PAPUA,,Indonesia,,,,-32.495.346,1.364.393.054,https://maps.google.com/?cid=0x0:0xd10f2faf319bd4fe,
cafe,Kafe,at home cafe.,"Jl. Karet Pasar Baru Barat VII No.2, Karet Tengsin, Kecamatan Tanah Abang, Kota Jakarta Pusat, Daerah Khusus Ibukota Jakarta 10220","Karet Tengsin, Kecamatan Tanah Abang, Kota Jakarta Pusat",PAPUA,10220.0,Indonesia,,,,-6.211.904,1.068.152.392,https://maps.google.com/?cid=0x0:0xda25ec4e682e6f9,
cafe,cafe,Ronggaiwa Beach Cafe,"5M4C+H6F, Kampung Ronggaiwa Blakang SPBU distrik Urei Faisei, Firo, Inggerus, Kabupaten Waropen, Papua 98261","Kampung Ronggaiwa Blakang SPBU distrik Urei Faisei, Firo, Inggerus, Kabupaten Waropen",PAPUA,98261.0,Indonesia,82119536673.0,,,-28.435.717,136.670.534,https://maps.google.com/?cid=0x0:0xf2e0bffcaa3ca8fb,
cafe,cafe,Distrik Agisiga,"Kabupaten Intan Jaya, Papua","Kabupaten Intan Jaya, Papua",PAPUA,,Indonesia,,,,-37.319.536,1.370.926.922,https://maps.google.com/?cid=0x0:0xd5984dfd8c3b468d,
cafe,Komplek perumahan,RM ADIVA,"725V+GG7, Bilogai, Kec. Sugapa, Kabupaten Intan Jaya, Papua 98768","Bilogai, Kec. Sugapa, Kabupaten Intan Jaya",PAPUA,98768.0,Indonesia,85336741888.0,,,-37.416.944,1.370.437.608,https://maps.google.com/?cid=0x0:0xf7b8bec5b7c12751,
cafe,Kedai Kopi,% Arabica Jakarta Roastery,"Jl. Taman Gunawarman Timur No.4, Selong, Kec. Kby. Baru, Kota Jakarta Selatan, Daerah Khusus Ibukota Jakarta 12110","Selong, Kec. Kby. Baru, Kota Jakarta Selatan",PAPUA,12110.0,Indonesia,81196202000.0,,,-62.345.771,1.068.072.175,https://maps.google.com/?cid=0x0:0xef503dff46709df6,
cafe,Kedai Kopi,Kopi Dibawahtangga Aguna,"Ashta at District, Jl. Jend. Sudirman kav 52-53 8, GF, RT.8/RW.3, Senayan, Kec. Kby. Baru, Kota Jakarta Selatan, Daerah Khusus Ibukota Jakarta 12190","Jl. Jend. Sudirman kav 52-53 8, GF, RT.8/RW.3, Senayan, Kec. Kby. Baru, Kota Jakarta Selatan",PAPUA,12190.0,Indonesia,81282533996.0,,,-62.294.791,1.068.067.504,https://maps.google.com/?cid=0x0:0x656dd2ac01c54e36,
cafe,Kedai Kopi,Sinilagi - Food and Coffee,"Ruko Puri Kencana. Jalan Puri Kencana Blok K7/3U, RT.11/RW.7, Kembangan Sel., Kec. Kembangan, Kota Jakarta Barat, Daerah Khusus Ibukota Jakarta 11610","RT.11/RW.7, Kembangan Sel., Kec. Kembangan, Kota Jakarta Barat",PAPUA,11610.0,Indonesia,,,,-61.907.131,1.067.477.643,https://maps.google.com/?cid=0x0:0x542750392acff889,
cafe,Kedai Kopi,Sinilagi Panglima Polim - Food  Coffee,"Jl. Panglima Polim IX No.2, RT.2/RW.6, Melawai, Kec. Kby. Baru, Kota Jakarta Selatan, Daerah Khusus Ibukota Jakarta 12160","RT.2/RW.6, Melawai, Kec. Kby. Baru, Kota Jakarta Selatan",PAPUA,12160.0,Indonesia,81380370000.0,,,-62.499.027,1.067.982.218,https://maps.google.com/?cid=0x0:0x8f6167df471724df,
cafe,cafe,Warung makan diva,"725V+GG7, Bilogai, Kec. Sugapa, Kabupaten Intan Jaya, Papua 98768","Bilogai, Kec. Sugapa, Kabupaten Intan Jaya",PAPUA,98768.0,Indonesia,,,,-37.353.125,1.370.440.625,https://maps.google.com/?cid=0x0:0xc0aada5c761b9bfb,
cafe,Makanan Kecil,Intan Cafe Cilandak,"Jl. Intan RSPP Utara No.08 Kav C, RT.7/RW.8, Cilandak Bar., Kec. Cilandak, Kota Jakarta Selatan, Daerah Khusus Ibukota Jakarta 12430","RT.7/RW.8, Cilandak Bar., Kec. Cilandak, Kota Jakarta Selatan",PAPUA,12430.0,Indonesia,89514559090.0,,,-62.951.494,1.067.989.228,https://maps.google.com/?cid=0x0:0xbbb6c9bf43bf779f,
cafe,cafe,Intan Cafe Cinere,"Jl. Meruyung Raya No.130, Limo, Kec. Limo, Kota Depok, Jawa Barat 16514","Limo, Kec. Limo, Kota Depok",PAPUA,16514.0,Indonesia,,,,-63.594.721,1.067.756.352,https://maps.google.com/?cid=0x0:0x9db0eaf68662feef,
cafe,Kedai Kopi,Dibawah Tangga,"Gandaria City Mall, Jl. Sultan Iskandar Muda No.10, RT.10/RW.6, Kby. Lama Utara, Kec. Kby. Lama, Kota Jakarta Selatan, Daerah Khusus Ibukota Jakarta 12240","Jl. Sultan Iskandar Muda No.10, RT.10/RW.6, Kby. Lama Utara, Kec. Kby. Lama, Kota Jakarta Selatan",PAPUA,12240.0,Indonesia,,,,-62.430.442,1.067.835.434,https://maps.google.com/?cid=0x0:0x3a6b52079cdf4869,
cafe,cafe,Papua 98768,"Kabupaten Intan Jaya, Papua","Kabupaten Intan Jaya, Papua",PAPUA,,Indonesia,,,,-36.382.021,1.369.028.375,https://maps.google.com/?cid=0x0:0x902010d7989d7c6c,
cafe,Komplek perumahan,RM ADIVA,"725V+GG7, Bilogai, Kec. Sugapa, Kabupaten Intan Jaya, Papua 98768","Bilogai, Kec. Sugapa, Kabupaten Intan Jaya",PAPUA,98768.0,Indonesia,85336741888.0,,,-37.416.944,1.370.437.608,https://maps.google.com/?cid=0x0:0xf7b8bec5b7c12751,
cafe,Gedung Apartemen,Coffee Shop Hidden Valley,"R3WX+49M, Arwandop, Kec. Tembagapura, Kabupaten Mimika, Papua 99967","Arwandop, Kec. Tembagapura, Kabupaten Mimika",PAPUA,99967.0,Indonesia,901466406.0,,,-4.154.668,1.370.984.148,https://maps.google.com/?cid=0x0:0x19897cfa42d33d8a,
cafe,Kafe,Tana Papua Coffee and Roastery,"Jl. Raya Abepura, Vim, Kec. Abepura, Kota Jayapura, Papua 99220","Vim, Kec. Abepura, Kota Jayapura",PAPUA,99220.0,Indonesia,82175416609.0,,,-26.047.712,1.406.727.079,https://maps.google.com/?cid=0x0:0x747c727d4b94ebf6,
cafe,cafe,Warung makan diva,"725V+GG7, Bilogai, Kec. Sugapa, Kabupaten Intan Jaya, Papua 98768","Bilogai, Kec. Sugapa, Kabupaten Intan Jaya",PAPUA,98768.0,Indonesia,,,,-37.353.125,1.370.440.625,https://maps.google.com/?cid=0x0:0xc0aada5c761b9bfb,
