Category,Real Category,Business Name,Address,City,State,Postal Code,Country,Phone,Email,Website,Latitude,Longitude,Map Link,Details Link
mall,Pusat Perbelanjaan,Pondok Indah Mall 1,"Jl. Metro Pondok Indah No.Kav. 4, RT.1/RW.16, Pd. Pinang, Kec. Kby. Lama, Kota Jakarta Selatan, Daerah Khusus Ibukota Jakarta 12310","RT.1/RW.16, Pd. Pinang, Kec. Kby. Lama, Kota Jakarta Selatan",PAPUA,12310.0,Indonesia,217506750.0,,,-62.652.166,1.067.843.165,https://maps.google.com/?cid=0x0:0x682837113c4ea854,
mall,Pusat Perbelanjaan,Pondok Indah Mall 2,"Jl. Metro Pondok Indah, Pd. Pinang, Kec. Kby. Lama, Kota Jakarta Selatan, Daerah Khusus Ibukota Jakarta 12310","Pd. Pinang, Kec. Kby. Lama, Kota Jakarta Selatan",PAPUA,12310.0,Indonesia,217506750.0,,,-62.655.241,1.067.827.928,https://maps.google.com/?cid=0x0:0x203a5d09556daf5f,
mall,Pusat Perbelanjaan,Pavilion Jakarta 2,"Pd. Indah Mall 3, RT.1, RW.16, Pd. Pinang, Kec. Kby. Lama, Kota Jakarta Selatan, Daerah Khusus Ibukota Jakarta 12310","RT.1, RW.16, Pd. Pinang, Kec. Kby. Lama, Kota Jakarta Selatan",PAPUA,12310.0,Indonesia,,,,-62.636.248,1.067.831.198,https://maps.google.com/?cid=0x0:0x755cc3d64ada2ce3,
mall,Toserba,METRO pondok Indah Mall 1,"Jalan Metro Pondok Indah Kav. IV, Jl. Metro Pondok Indah, RT.1/RW.16, Pd. Pinang, Kec. Kby. Lama, Kota Jakarta Selatan, Daerah Khusus Ibukota Jakarta 12310","Jl. Metro Pondok Indah, RT.1/RW.16, Pd. Pinang, Kec. Kby. Lama, Kota Jakarta Selatan",PAPUA,12310.0,Indonesia,2175998000.0,,,-62.642.881,1.067.845.448,https://maps.google.com/?cid=0x0:0x236f055dabee73bc,
mall,Layanan Penukaran Mata Uang,PT. Sejahtera Valasindo,"Samping Bank Mandiri, Pondok Indah Mall 1 PIM1, lantai dasar, Pd. Pinang, Kec. Kby. Lama, Kota Jakarta Selatan, Daerah Khusus Ibukota Jakarta 12310","Pondok Indah Mall 1 PIM1, lantai dasar, Pd. Pinang, Kec. Kby. Lama, Kota Jakarta Selatan",PAPUA,12310.0,Indonesia,81775001122.0,,,-6.265.288,1.067.842.184,https://maps.google.com/?cid=0x0:0xc3f0cd17ca6000d2,
mall,Restoran,Bakmi GM Pondok Indah,"Jl. Metro Pondok Indah No.1, RT.1/RW.16, Pd. Pinang, Kec. Kby. Lama, Kota Jakarta Selatan, Daerah Khusus Ibukota Jakarta 12310","RT.1/RW.16, Pd. Pinang, Kec. Kby. Lama, Kota Jakarta Selatan",PAPUA,12310.0,Indonesia,217506881.0,,,-62.651.233,1.067.843.685,https://maps.google.com/?cid=0x0:0xa3703a5a2828cf59,
mall,Bioskop,Pondok Indah 1 XXI,"Pondok Indah Mall 2, Jl. Metro Pondok Indah No.1, RT.1/RW.16, Pd. Pinang, Kec. Kby. Lama, Kota Jakarta Selatan, Daerah Khusus Ibukota Jakarta 12310","Jl. Metro Pondok Indah No.1, RT.1/RW.16, Pd. Pinang, Kec. Kby. Lama, Kota Jakarta Selatan",PAPUA,12310.0,Indonesia,2175920781.0,,,-6.264.667,1.067.843.784,https://maps.google.com/?cid=0x0:0x408a6681ca59df1f,
mall,Pusat Perbelanjaan,Shopping Family Tembagapura,"V34Q+XXH, Tembagapura, Arwandop, Tembagapura, Kec. Tembagapura, Kabupaten Mimika, Papua 99967","Tembagapura, Arwandop, Tembagapura, Kec. Tembagapura, Kabupaten Mimika",PAPUA,99967.0,Indonesia,,,,-41.425.625,1.370.899.844,https://maps.google.com/?cid=0x0:0x23ff3f0a601439a2,
mall,Pusat Perbelanjaan,Pondok Indah Water Park,"Pondok Indah Mall, Jl. Metro Pondok Indah, RT.1/RW.16, Pd. Pinang, Kec. Kby. Lama, Kota Jakarta Selatan, Daerah Khusus Ibukota Jakarta 12310","Jl. Metro Pondok Indah, RT.1/RW.16, Pd. Pinang, Kec. Kby. Lama, Kota Jakarta Selatan",PAPUA,12310.0,Indonesia,217506750.0,,,-62.677.295,1.067.843.933,https://maps.google.com/?cid=0x0:0x30e93edf55c03f10,
mall,Toko Swalayan,Primo Supermarket Tembagapura,"Tembagapura, Kec. Tembagapura, Kabupaten Mimika, Papua 98972","Kec. Tembagapura, Kabupaten Mimika",PAPUA,98972.0,Indonesia,,,,-41.423.125,1.370.900.625,https://maps.google.com/?cid=0x0:0x79e7c0e104f18094,
mall,Kantor Perusahaan,Hobby Shop,"V35R+225, Arwandop, Kec. Tembagapura, Kabupaten Mimika, Papua 98972","Arwandop, Kec. Tembagapura, Kabupaten Mimika",PAPUA,98972.0,Indonesia,9015463746.0,,,-41.424.817,137.090.094,https://maps.google.com/?cid=0x0:0xc33b91eeeeaa5db2,
mall,Pusat Perbelanjaan,Gandaria City,"Jl. Sultan Iskandar Muda, Gandaria, Kec. Kby. Lama, Kota Jakarta Selatan, Daerah Khusus Ibukota Jakarta 12240","Gandaria, Kec. Kby. Lama, Kota Jakarta Selatan",PAPUA,12240.0,Indonesia,2129052888.0,,,-62.443.009,1.067.829.375,https://maps.google.com/?cid=0x0:0x6173704d396d5a99,
mall,Pusat Perbelanjaan,Plaza Indonesia,"Jl. M.H. Thamrin No.Kav.28-30, Gondangdia, Kec. Menteng, Kota Jakarta Pusat, Daerah Khusus Ibukota Jakarta 10350","Gondangdia, Kec. Menteng, Kota Jakarta Pusat",PAPUA,10350.0,Indonesia,2129920000.0,,,-61.935.977,1.068.219.468,https://maps.google.com/?cid=0x0:0x7d7fe17ad64a053f,
mall,Pusat Perbelanjaan,Grand Indonesia,"Jl. MH Thamrin No.1, Menteng, Kec. Menteng, Kota Jakarta Pusat, Daerah Khusus Ibukota Jakarta 10310","Menteng, Kec. Menteng, Kota Jakarta Pusat",PAPUA,10310.0,Indonesia,2123580001.0,,,-61.950.412,1.068.210.081,https://maps.google.com/?cid=0x0:0xb04ce66a7cb711d9,
mall,Pusat Perbelanjaan,Central Park,"Jl. Letjen S. Parman No.Kav. 28, Tj. Duren Sel., Kec. Grogol petamburan, Kota Jakarta Barat, Daerah Khusus Ibukota Jakarta 11470","Tj. Duren Sel., Kec. Grogol petamburan, Kota Jakarta Barat",PAPUA,11470.0,Indonesia,2156989999.0,,,-61.771.373,1.067.909.788,https://maps.google.com/?cid=0x0:0xe816d65037c3207a,
mall,Pusat Perbelanjaan,Summarecon Mall Bekasi,"Sentra Summarecon Bekasi, Jl. Boulevard Ahmad Yani, Marga Mulya, Kec. Bekasi Utara, Kota Bks, Jawa Barat 17142","Jl. Boulevard Ahmad Yani, Marga Mulya, Kec. Bekasi Utara, Kota Bks",PAPUA,17142.0,Indonesia,2129572888.0,,,-62.261.276,1.070.010.764,https://maps.google.com/?cid=0x0:0xd22a5d56809f070a,
mall,mall,Papua 98769,Papua,Papua,PAPUA,,Indonesia,,,,-34.531.316,1.363.240.951,https://maps.google.com/?cid=0x0:0xd28ed8bf27ec9c6b,
mall,Pusat Perbelanjaan,SAGA MALL,"Kota Baru, Kec. Abepura, Kota Jayapura, Papua 99351","Kec. Abepura, Kota Jayapura",PAPUA,99351.0,Indonesia,,,,-26.105.845,1.406.654.189,https://maps.google.com/?cid=0x0:0xaf65e43ff84ff9e6,
mall,Toko bahan makanan,Kios Syauqy,"97HM+J2C, Uwagi, Bogobaida, Kabupaten Paniai, Papua 98854","Uwagi, Bogobaida, Kabupaten Paniai",PAPUA,98854.0,Indonesia,,,,-36.209.365,1.362.825.214,https://maps.google.com/?cid=0x0:0xa5be475d84ad58bc,
mall,Pusat Perbelanjaan,Pondok Indah Mall 1,"Jl. Metro Pondok Indah No.Kav. 4, RT.1/RW.16, Pd. Pinang, Kec. Kby. Lama, Kota Jakarta Selatan, Daerah Khusus Ibukota Jakarta 12310","RT.1/RW.16, Pd. Pinang, Kec. Kby. Lama, Kota Jakarta Selatan",PAPUA,12310.0,Indonesia,217506750.0,,,-62.652.166,1.067.843.165,https://maps.google.com/?cid=0x0:0x682837113c4ea854,
mall,Pusat Perbelanjaan,Kios rahmi 99,"98X3+GFM, Uwagi, Bogobaida, Kabupaten Paniai, Papua","Kabupaten Paniai, Papua",PAPUA,,Indonesia,,,,-36.011.634,1.363.036.629,https://maps.google.com/?cid=0x0:0x13ddcf628b795c90,
mall,Pusat Perbelanjaan,Plaza Indonesia,"Jl. M.H. Thamrin No.Kav.28-30, Gondangdia, Kec. Menteng, Kota Jakarta Pusat, Daerah Khusus Ibukota Jakarta 10350","Gondangdia, Kec. Menteng, Kota Jakarta Pusat",PAPUA,10350.0,Indonesia,2129920000.0,,,-61.935.977,1.068.219.468,https://maps.google.com/?cid=0x0:0x7d7fe17ad64a053f,
mall,Pusat Perbelanjaan,Summarecon Mall Bekasi,"Sentra Summarecon Bekasi, Jl. Boulevard Ahmad Yani, Marga Mulya, Kec. Bekasi Utara, Kota Bks, Jawa Barat 17142","Jl. Boulevard Ahmad Yani, Marga Mulya, Kec. Bekasi Utara, Kota Bks",PAPUA,17142.0,Indonesia,2129572888.0,,,-62.261.276,1.070.010.764,https://maps.google.com/?cid=0x0:0xd22a5d56809f070a,
mall,Pusat Perbelanjaan,Central Park,"Jl. Letjen S. Parman No.Kav. 28, Tj. Duren Sel., Kec. Grogol petamburan, Kota Jakarta Barat, Daerah Khusus Ibukota Jakarta 11470","Tj. Duren Sel., Kec. Grogol petamburan, Kota Jakarta Barat",PAPUA,11470.0,Indonesia,2156989999.0,,,-61.771.373,1.067.909.788,https://maps.google.com/?cid=0x0:0xe816d65037c3207a,
mall,Pusat Perbelanjaan,Summarecon Mall Serpong,"Jl. Boulevard Raya Gading Serpong, Pakulonan Bar., Kec. Klp. Dua, Kabupaten Tangerang, Banten 15810","Pakulonan Bar., Kec. Klp. Dua, Kabupaten Tangerang",PAPUA,15810.0,Indonesia,215460888.0,,,-62.409.034,1.066.288.212,https://maps.google.com/?cid=0x0:0x355ee4742c69b52c,
mall,Pusat Perbelanjaan,Shopping Family Tembagapura,"V34Q+XXH, Tembagapura, Arwandop, Tembagapura, Kec. Tembagapura, Kabupaten Mimika, Papua 99967","Tembagapura, Arwandop, Tembagapura, Kec. Tembagapura, Kabupaten Mimika",PAPUA,99967.0,Indonesia,,,,-41.425.625,1.370.899.844,https://maps.google.com/?cid=0x0:0x23ff3f0a601439a2,
mall,Toko Swalayan,Primo Supermarket Tembagapura,"Tembagapura, Kec. Tembagapura, Kabupaten Mimika, Papua 98972","Kec. Tembagapura, Kabupaten Mimika",PAPUA,98972.0,Indonesia,,,,-41.423.125,1.370.900.625,https://maps.google.com/?cid=0x0:0x79e7c0e104f18094,
mall,Kantor Perusahaan,Hobby Shop,"V35R+225, Arwandop, Kec. Tembagapura, Kabupaten Mimika, Papua 98972","Arwandop, Kec. Tembagapura, Kabupaten Mimika",PAPUA,98972.0,Indonesia,9015463746.0,,,-41.424.817,137.090.094,https://maps.google.com/?cid=0x0:0xc33b91eeeeaa5db2,
mall,mall,Papua 98769,Papua,Papua,PAPUA,,Indonesia,,,,-34.531.316,1.363.240.951,https://maps.google.com/?cid=0x0:0xd28ed8bf27ec9c6b,
mall,Toko bahan makanan,Kios Syauqy,"97HM+J2C, Uwagi, Bogobaida, Kabupaten Paniai, Papua 98854","Uwagi, Bogobaida, Kabupaten Paniai",PAPUA,98854.0,Indonesia,,,,-36.209.365,1.362.825.214,https://maps.google.com/?cid=0x0:0xa5be475d84ad58bc,
mall,Pusat Perbelanjaan,Kios rahmi 99,"98X3+GFM, Uwagi, Bogobaida, Kabupaten Paniai, Papua","Kabupaten Paniai, Papua",PAPUA,,Indonesia,,,,-36.011.634,1.363.036.629,https://maps.google.com/?cid=0x0:0x13ddcf628b795c90,
mall,Pusat Perbelanjaan,Mall Jayapura,"APO, Jl. Samratulangi, Bayangkara, Kec. Jayapura Utara, Kota Jayapura, Papua 99112","Jl. Samratulangi, Bayangkara, Kec. Jayapura Utara, Kota Jayapura",PAPUA,99112.0,Indonesia,9675150000.0,,,-25.351.775,1.407.061.874,https://maps.google.com/?cid=0x0:0x54294cb27964023,
mall,Pusat Perbelanjaan,SAGA MALL,"Kota Baru, Kec. Abepura, Kota Jayapura, Papua 99351","Kec. Abepura, Kota Jayapura",PAPUA,99351.0,Indonesia,,,,-26.105.845,1.406.654.189,https://maps.google.com/?cid=0x0:0xaf65e43ff84ff9e6,
mall,mall,Wandai,"Sabisa, Distrik Wandai, Kabupaten Intan Jaya, Papua","Kabupaten Intan Jaya, Papua",PAPUA,,Indonesia,,,,-3.703.004,136.680.496,https://maps.google.com/?cid=0x0:0x987e45212eb83434,
mall,Pusat Perbelanjaan,wanda,"Jl. Raya Serang No.20, Sukadamai, Kec. Cikupa, Kabupaten Tangerang, Banten 15710","Sukadamai, Kec. Cikupa, Kabupaten Tangerang",PAPUA,15710.0,Indonesia,8774540405.0,,,-6.221.538,106.540.829,https://maps.google.com/?cid=0x0:0xa9620993129f0d27,
mall,Pusat Perbelanjaan,Davin qua,"QFPQ+69C, Bojong, Kec. Cikupa, Kabupaten Tangerang, Banten 15710","Bojong, Kec. Cikupa, Kabupaten Tangerang",PAPUA,15710.0,Indonesia,85282300196.0,,,-6.214.449,1.064.883.843,https://maps.google.com/?cid=0x0:0xfe0ab79b370b54a4,
mall,Pusat Perbelanjaan,Mall Jayapura,"APO, Jl. Samratulangi, Bayangkara, Kec. Jayapura Utara, Kota Jayapura, Papua 99112","Jl. Samratulangi, Bayangkara, Kec. Jayapura Utara, Kota Jayapura",PAPUA,99112.0,Indonesia,9675150000.0,,,-25.351.775,1.407.061.874,https://maps.google.com/?cid=0x0:0x54294cb27964023,
mall,Pusat Perbelanjaan,SAGA MALL,"Kota Baru, Kec. Abepura, Kota Jayapura, Papua 99351","Kec. Abepura, Kota Jayapura",PAPUA,99351.0,Indonesia,,,,-26.105.845,1.406.654.189,https://maps.google.com/?cid=0x0:0xaf65e43ff84ff9e6,
mall,Toko bahan makanan,Kios Syauqy,"97HM+J2C, Uwagi, Bogobaida, Kabupaten Paniai, Papua 98854","Uwagi, Bogobaida, Kabupaten Paniai",PAPUA,98854.0,Indonesia,,,,-36.209.365,1.362.825.214,https://maps.google.com/?cid=0x0:0xa5be475d84ad58bc,
mall,Pusat Perbelanjaan,Grand Indonesia Shopping Town,"Jl. M.H. Thamrin No.1, Menteng, Kec. Menteng, Kota Jakarta Pusat, Daerah Khusus Ibukota Jakarta 10310","Menteng, Kec. Menteng, Kota Jakarta Pusat",PAPUA,10310.0,Indonesia,2123580001.0,,,-61.965.848,1.068.224.882,https://maps.google.com/?cid=0x0:0xccfcc89b95aaf1ae,
mall,Pusat Perbelanjaan,Grand Indonesia,"Jl. MH Thamrin No.1, Menteng, Kec. Menteng, Kota Jakarta Pusat, Daerah Khusus Ibukota Jakarta 10310","Menteng, Kec. Menteng, Kota Jakarta Pusat",PAPUA,10310.0,Indonesia,2123580001.0,,,-61.950.412,1.068.210.081,https://maps.google.com/?cid=0x0:0xb04ce66a7cb711d9,
mall,Pusat Perbelanjaan,Plaza Indonesia,"Jl. M.H. Thamrin No.Kav.28-30, Gondangdia, Kec. Menteng, Kota Jakarta Pusat, Daerah Khusus Ibukota Jakarta 10350","Gondangdia, Kec. Menteng, Kota Jakarta Pusat",PAPUA,10350.0,Indonesia,2129920000.0,,,-61.935.977,1.068.219.468,https://maps.google.com/?cid=0x0:0x7d7fe17ad64a053f,
mall,Kafe,The Coffee Bean and Tea Leaf - Grand Indonesia,"Jl. Teluk Betung No.38, RT.4/RW.1, Kb. Melati, Kecamatan Tanah Abang, Kota Jakarta Pusat, Daerah Khusus Ibukota Jakarta 10230","RT.4/RW.1, Kb. Melati, Kecamatan Tanah Abang, Kota Jakarta Pusat",PAPUA,10230.0,Indonesia,2123580512.0,,,-61.948.541,1.068.201.944,https://maps.google.com/?cid=0x0:0xc6d728bcb41a3324,
mall,Toko Pakaian,GLAM ON Grand Indonesia,"LG 07-WM, Jl. M.H. Thamrin No.1, RT.1/RW.5, Kebon Melati, Central Jakarta City, Jakarta 10230","Jl. M.H. Thamrin No.1, RT.1/RW.5, Kebon Melati, Central Jakarta City",PAPUA,10230.0,Indonesia,81519237233.0,,,-61.946.937,1.068.196.057,https://maps.google.com/?cid=0x0:0xa685b35aeba07286,
mall,Pusat Perbelanjaan,Reski 77 Aksesoris,"CVXQ+3GR, Timika Jaya, Kec. Mimika Baru, Kabupaten Mimika, Papua 99971","Timika Jaya, Kec. Mimika Baru, Kabupaten Mimika",PAPUA,99971.0,Indonesia,8114993334.0,,,-45.522.687,1.368.887.764,https://maps.google.com/?cid=0x0:0xc1c2d10aeeb2c3c4,
mall,Pusat Perbelanjaan,Reski 77 aksesoris cabang budiutomo,"CVWM+84J, Jl. Budi Utomo, Nawaripi, Kec. Mimika Baru, Kabupaten Mimika, Papua 99971","Jl. Budi Utomo, Nawaripi, Kec. Mimika Baru, Kabupaten Mimika",PAPUA,99971.0,Indonesia,85333777109.0,,,-45.541.707,1.368.827.523,https://maps.google.com/?cid=0x0:0x500b1c6092c1f1d4,
mall,mall,Papua 98768,"Kabupaten Intan Jaya, Papua","Kabupaten Intan Jaya, Papua",PAPUA,,Indonesia,,,,-36.382.021,1.369.028.375,https://maps.google.com/?cid=0x0:0x902010d7989d7c6c,
mall,Pusat Perbelanjaan,Mall Ambasador,"Kuningan, Karet Kuningan, Kecamatan Setiabudi, Kota Jakarta Selatan, Daerah Khusus Ibukota Jakarta","Kota Jakarta Selatan, Daerah Khusus Ibukota Jakarta",PAPUA,,Indonesia,,,,-62.240.223,1.068.268.202,https://maps.google.com/?cid=0x0:0xffae3870f7ae2fd,
mall,Pusat Perbelanjaan,Grand Indonesia Shopping Town,"Jl. M.H. Thamrin No.1, Menteng, Kec. Menteng, Kota Jakarta Pusat, Daerah Khusus Ibukota Jakarta 10310","Menteng, Kec. Menteng, Kota Jakarta Pusat",PAPUA,10310.0,Indonesia,2123580001.0,,,-61.965.848,1.068.224.882,https://maps.google.com/?cid=0x0:0xccfcc89b95aaf1ae,
mall,Pusat Perbelanjaan,Pondok Indah Mall 1,"Jl. Metro Pondok Indah No.Kav. 4, RT.1/RW.16, Pd. Pinang, Kec. Kby. Lama, Kota Jakarta Selatan, Daerah Khusus Ibukota Jakarta 12310","RT.1/RW.16, Pd. Pinang, Kec. Kby. Lama, Kota Jakarta Selatan",PAPUA,12310.0,Indonesia,217506750.0,,,-62.652.166,1.067.843.165,https://maps.google.com/?cid=0x0:0x682837113c4ea854,
mall,Pusat Perbelanjaan,Mall Kota Kasablanka,"Jl. Raya Casablanca No.Kav 88, Menteng Dalam, Kec. Tebet, Kota Jakarta Selatan, Daerah Khusus Ibukota Jakarta 12870","Menteng Dalam, Kec. Tebet, Kota Jakarta Selatan",PAPUA,12870.0,Indonesia,2129465000.0,,,-62.240.353,1.068.425.979,https://maps.google.com/?cid=0x0:0xaf54cb631563acce,
mall,Pusat Perbelanjaan,Central Park,"Jl. Letjen S. Parman No.Kav. 28, Tj. Duren Sel., Kec. Grogol petamburan, Kota Jakarta Barat, Daerah Khusus Ibukota Jakarta 11470","Tj. Duren Sel., Kec. Grogol petamburan, Kota Jakarta Barat",PAPUA,11470.0,Indonesia,2156989999.0,,,-61.771.373,1.067.909.788,https://maps.google.com/?cid=0x0:0xe816d65037c3207a,
mall,Pusat Perbelanjaan,Pondok Indah Mall 2,"Jl. Metro Pondok Indah, Pd. Pinang, Kec. Kby. Lama, Kota Jakarta Selatan, Daerah Khusus Ibukota Jakarta 12310","Pd. Pinang, Kec. Kby. Lama, Kota Jakarta Selatan",PAPUA,12310.0,Indonesia,217506750.0,,,-62.655.241,1.067.827.928,https://maps.google.com/?cid=0x0:0x203a5d09556daf5f,
mall,Pusat Perbelanjaan,Shopping Family Tembagapura,"V34Q+XXH, Tembagapura, Arwandop, Tembagapura, Kec. Tembagapura, Kabupaten Mimika, Papua 99967","Tembagapura, Arwandop, Tembagapura, Kec. Tembagapura, Kabupaten Mimika",PAPUA,99967.0,Indonesia,,,,-41.425.625,1.370.899.844,https://maps.google.com/?cid=0x0:0x23ff3f0a601439a2,
mall,Toko Swalayan,Primo Supermarket Tembagapura,"Tembagapura, Kec. Tembagapura, Kabupaten Mimika, Papua 98972","Kec. Tembagapura, Kabupaten Mimika",PAPUA,98972.0,Indonesia,,,,-41.423.125,1.370.900.625,https://maps.google.com/?cid=0x0:0x79e7c0e104f18094,
mall,Balai masyarakat,Plaza Agawaa Ogom,"V4R2+53Q, Tembagapura, Kec. Tembagapura, Kabupaten Mimika, Papua 98972","Tembagapura, Kec. Tembagapura, Kabupaten Mimika",PAPUA,98972.0,Indonesia,,,,-41.095.287,1.371.002.252,https://maps.google.com/?cid=0x0:0x28909d5c3b81fbc0,
mall,Pusat Perbelanjaan,Mall Sentani City Square,"Jl. Raya Kemiri No.286, Hinekombe, Kec. Sentani, Kabupaten Jayapura, Papua 99352","Hinekombe, Kec. Sentani, Kabupaten Jayapura",PAPUA,99352.0,Indonesia,82198389205.0,,,-25.632.484,1.405.006.043,https://maps.google.com/?cid=0x0:0x666e57130aca06b8,
mall,Pusat Perbelanjaan,SAGA MALL,"Kota Baru, Kec. Abepura, Kota Jayapura, Papua 99351","Kec. Abepura, Kota Jayapura",PAPUA,99351.0,Indonesia,,,,-26.105.845,1.406.654.189,https://maps.google.com/?cid=0x0:0xaf65e43ff84ff9e6,
mall,Pusat Perbelanjaan,Wamena Mall,"WW4W+JH7, Wamena Kota, Distrik Wamena, Kabupaten Jayawijaya, Papua 99511","Wamena Kota, Distrik Wamena, Kabupaten Jayawijaya",PAPUA,99511.0,Indonesia,81356954606.0,,,-40.934.521,1.389.464.176,https://maps.google.com/?cid=0x0:0x99f90a37cc207474,
mall,Kantor Perusahaan,Hobby Shop,"V35R+225, Arwandop, Kec. Tembagapura, Kabupaten Mimika, Papua 98972","Arwandop, Kec. Tembagapura, Kabupaten Mimika",PAPUA,98972.0,Indonesia,9015463746.0,,,-41.424.817,137.090.094,https://maps.google.com/?cid=0x0:0xc33b91eeeeaa5db2,
supermarket,supermarket,Kios dua pintu,"726Q+72, Bilogai, Kec. Sugapa, Kabupaten Intan Jaya, Papua","Kabupaten Intan Jaya, Papua",PAPUA,,Indonesia,,,,-37.393.675,1.370.376.068,https://maps.google.com/?cid=0x0:0x5ff58a18b9b81348,
supermarket,Kedai Kopi,nescafealegria540,"PRMV+33M, Gg. Ayub, RW.1, Pejaten Bar., Ps. Minggu, Kota Jakarta Selatan, Daerah Khusus Ibukota Jakarta 12510","Gg. Ayub, RW.1, Pejaten Bar., Ps. Minggu, Kota Jakarta Selatan",PAPUA,12510.0,Indonesia,85179707752.0,,,-6.267.292,106.842.658,https://maps.google.com/?cid=0x0:0x2805907461381761,
supermarket,supermarket,SUGA,"Jl. Angsana II No.a2/12b, Rw. Buntu, Kec. Serpong, Kota Tangerang Selatan, Banten 15310","Rw. Buntu, Kec. Serpong, Kota Tangerang Selatan",PAPUA,15310.0,Indonesia,,,,-63.072.163,1.066.801.484,https://maps.google.com/?cid=0x0:0xe151ebf4e2a0f4e3,
supermarket,Pusat Perbelanjaan,Kios FMB,"97JM+3PJ, Uwagi, Bogobaida, Kabupaten Paniai, Papua 98854","Uwagi, Bogobaida, Kabupaten Paniai",PAPUA,98854.0,Indonesia,,,,-36.197.993,1.362.842.795,https://maps.google.com/?cid=0x0:0x95809b0f7a1426b9,
supermarket,Toko bahan makanan,Kios Syauqy,"97HM+J2C, Uwagi, Bogobaida, Kabupaten Paniai, Papua 98854","Uwagi, Bogobaida, Kabupaten Paniai",PAPUA,98854.0,Indonesia,,,,-36.209.365,1.362.825.214,https://maps.google.com/?cid=0x0:0xa5be475d84ad58bc,
supermarket,Toko bahan makanan,Papaya Fresh Gallery - Citywalk Sudirman,"Citywalk Sudirman, Ground Floor 9, Jl. K.H. Mas Mansyur, RT.10/RW.11, Karet Tengsin, Kota Jakarta Pusat, Daerah Khusus Ibukota Jakarta 10250","Ground Floor 9, Jl. K.H. Mas Mansyur, RT.10/RW.11, Karet Tengsin, Kota Jakarta Pusat",PAPUA,10250.0,Indonesia,2129918989.0,,,-62.090.406,1.068.187.668,https://maps.google.com/?cid=0x0:0xedd5d0a9e63db5f8,
supermarket,Toko Swalayan,GS The Fresh Supermarket Kemang Pratama,"Linc Square Kemang Pratama, Jl. Kemang Pratama Raya, RT.004/RW.001, Bojong Rawalumbu, Kec. Rawalumbu, Kota Bks, Jawa Barat 17116","Jl. Kemang Pratama Raya, RT.004/RW.001, Bojong Rawalumbu, Kec. Rawalumbu, Kota Bks",PAPUA,17116.0,Indonesia,2182416910.0,,,-62.779.418,1.069.910.558,https://maps.google.com/?cid=0x0:0x4ce692f4b9ef21ee,
supermarket,Toko Swalayan,GS Supermarket Jatiasih,"GsSupermarket :, Jl. Wibawa Mukti II No.125, RT.002/ RW017/RW.017, Jatiasih, Kec. Jatiasih, Kota Bks, Jawa Barat 17423","Jl. Wibawa Mukti II No.125, RT.002/ RW017/RW.017, Jatiasih, Kec. Jatiasih, Kota Bks",PAPUA,17423.0,Indonesia,2182736918.0,,,-63.070.579,106.955.731,https://maps.google.com/?cid=0x0:0x74efd6ce433268e6,
supermarket,Toko Swalayan,GS The Fresh Mampang,"Jl. Buncit Raya No.301, Duren Tiga, Kec. Pancoran, Kota Jakarta Selatan, Daerah Khusus Ibukota Jakarta 12760","Duren Tiga, Kec. Pancoran, Kota Jakarta Selatan",PAPUA,12760.0,Indonesia,2126961986.0,,,-6.256.991,106.828.987,https://maps.google.com/?cid=0x0:0x47a84d3b86619147,
supermarket,supermarket,SUGA,"Jl. Angsana II No.a2/12b, Rw. Buntu, Kec. Serpong, Kota Tangerang Selatan, Banten 15310","Rw. Buntu, Kec. Serpong, Kota Tangerang Selatan",PAPUA,15310.0,Indonesia,,,,-63.072.163,1.066.801.484,https://maps.google.com/?cid=0x0:0xe151ebf4e2a0f4e3,
supermarket,supermarket,Papua 98767,"Kabupaten Intan Jaya, Papua","Kabupaten Intan Jaya, Papua",PAPUA,,Indonesia,,,,-37.788.615,1.367.091.767,https://maps.google.com/?cid=0x0:0xfc7ec60d3a7f14c,
supermarket,Pusat Perbelanjaan,Primo Supermarket Ridge Camp,"V4R2+62, Tembagapura, Kec. Tembagapura, Kabupaten Mimika, Papua 98972","Tembagapura, Kec. Tembagapura, Kabupaten Mimika",PAPUA,98972.0,Indonesia,,,,-4.109.473,1.371.002.082,https://maps.google.com/?cid=0x0:0x759edca03c3b320f,
supermarket,Toko Swalayan,FMX Minimarket Hidden Valley,"FMX Minimarket Hidden Valley, Tembagapura, Mimika Regency, Papua","Kabupaten Mimika, Papua",PAPUA,,Indonesia,901403085.0,,,-41.549.152,1.370.985.816,https://maps.google.com/?cid=0x0:0x16adc688324db981,
supermarket,Pusat Perbelanjaan,Shopping Family Tembagapura,"V34Q+XXH, Tembagapura, Arwandop, Tembagapura, Kec. Tembagapura, Kabupaten Mimika, Papua 99967","Tembagapura, Arwandop, Tembagapura, Kec. Tembagapura, Kabupaten Mimika",PAPUA,99967.0,Indonesia,,,,-41.425.625,1.370.899.844,https://maps.google.com/?cid=0x0:0x23ff3f0a601439a2,
supermarket,supermarket,HERO Supermarket hidden valley,"R3WX+2CP, Arwandop, Kec. Tembagapura, Kabupaten Mimika, Papua 99967","Arwandop, Kec. Tembagapura, Kabupaten Mimika",PAPUA,99967.0,Indonesia,,,,-41.549.036,1.370.985.711,https://maps.google.com/?cid=0x0:0x5e80b1cd40912508,
supermarket,supermarket,Supermarket Hero,"V35R+42C, Arwandop, Kec. Tembagapura, Kabupaten Mimika, Papua 98972","Arwandop, Kec. Tembagapura, Kabupaten Mimika",PAPUA,98972.0,Indonesia,,,,-414.219,1.370.900.275,https://maps.google.com/?cid=0x0:0x8e7bbe3fbf4f4447,
supermarket,Toko bahan makanan,Homi Supermarket,"478Q+W97, Jl. F Kalasuat, Remu Utara, Distrik Sorong, Kota Sorong, Papua Bar. 98412","Jl. F Kalasuat, Remu Utara, Distrik Sorong, Kota Sorong",PAPUA,98412.0,Indonesia,,,,-0.8827053,1.312.884.188,https://maps.google.com/?cid=0x0:0x9eed04e7f27afbd0,
supermarket,Pusat Perbelanjaan,Superblock Agawaa Ogom Plaza,"V4R2+634, Arwandop, Kec. Tembagapura, Kabupaten Mimika, Papua 98972","Arwandop, Kec. Tembagapura, Kabupaten Mimika",PAPUA,98972.0,Indonesia,,,,-41.094.796,1.371.002.072,https://maps.google.com/?cid=0x0:0x17e8f3255a557911,
supermarket,Toko bahan makanan,TOKO BERKAT ADONAY,"Jln.Papua Kompleks Ruko Block A, Massi, Kec. Dekai, Kabupaten Yahukimo, Papua 99571","Massi, Kec. Dekai, Kabupaten Yahukimo",PAPUA,99571.0,Indonesia,81223355359.0,,,-48.624.737,1.394.857.426,https://maps.google.com/?cid=0x0:0xebc675faef4f92b5,
supermarket,Toko Swalayan,FMX Minimarket Single Man Tembagapura,"V34R+QWM, Tembagapura, Kec. Tembagapura, Kabupaten Mimika, Papua 98972","Tembagapura, Kec. Tembagapura, Kabupaten Mimika",PAPUA,98972.0,Indonesia,,,,-4.143.058,1.370.923.299,https://maps.google.com/?cid=0x0:0x8787c5cbafcd4915,
supermarket,Toko bahan makanan,PC. DUPIA,"39CH+GCP, Awabutu, Paniai Tim., Kabupaten Paniai, Papua 98726","Awabutu, Paniai Tim., Kabupaten Paniai",PAPUA,98726.0,Indonesia,85244950852.0,,,-39.286.657,1.363.785.627,https://maps.google.com/?cid=0x0:0x970e067f7ead8be9,
supermarket,Toko Ponsel,Toko D'Bilal,"Jln. Frans kaisepo, Enarotali, Paniai Tim., Kabupaten Paniai, Papua","Kabupaten Paniai, Papua",PAPUA,,Indonesia,,,,-39.286.444,1.363.777.767,https://maps.google.com/?cid=0x0:0x816a7cdfbb6a9144,
supermarket,Toko,Toko Fathan Jaya,"39FH+865, Awabutu, Paniai Tim., Kabupaten Paniai, Papua 98726","Awabutu, Paniai Tim., Kabupaten Paniai",PAPUA,98726.0,Indonesia,81240545949.0,,,-39.265.912,1.363.779.198,https://maps.google.com/?cid=0x0:0x85c35e537a210f0e,
supermarket,Pusat Perbelanjaan,Kios FMB,"97JM+3PJ, Uwagi, Bogobaida, Kabupaten Paniai, Papua 98854","Uwagi, Bogobaida, Kabupaten Paniai",PAPUA,98854.0,Indonesia,,,,-36.197.993,1.362.842.795,https://maps.google.com/?cid=0x0:0x95809b0f7a1426b9,
supermarket,supermarket,Kios dua pintu,"726Q+72, Bilogai, Kec. Sugapa, Kabupaten Intan Jaya, Papua","Kabupaten Intan Jaya, Papua",PAPUA,,Indonesia,,,,-37.393.675,1.370.376.068,https://maps.google.com/?cid=0x0:0x5ff58a18b9b81348,
supermarket,Toko umum,Buah -buahan segar,"Bapouda, Enarotali, Paniai Tim., Kabupaten Paniai, Papua 98726","Enarotali, Paniai Tim., Kabupaten Paniai",PAPUA,98726.0,Indonesia,,,,-39.321.429,1.363.808.792,https://maps.google.com/?cid=0x0:0x87a2152504956ea3,
supermarket,Kantor Perusahaan,Hobby Shop,"V35R+225, Arwandop, Kec. Tembagapura, Kabupaten Mimika, Papua 98972","Arwandop, Kec. Tembagapura, Kabupaten Mimika",PAPUA,98972.0,Indonesia,9015463746.0,,,-41.424.817,137.090.094,https://maps.google.com/?cid=0x0:0xc33b91eeeeaa5db2,
supermarket,Toko,Kios Doopitaka,"6966+WXW, Jl. Dewouyemabutu, Kampung Amopa, Distrik Muye, Kabupaten Paniai, Papua","Kabupaten Paniai, Papua",PAPUA,,Indonesia,,,,-37.876.441,1.363.624.686,https://maps.google.com/?cid=0x0:0x9b873bdadf884525,
supermarket,supermarket,Hero Ss Port Site,"Kopaidagi, Paniai Tim., Kabupaten Paniai, Papua 99963","Paniai Tim., Kabupaten Paniai",PAPUA,99963.0,Indonesia,8001998877.0,,,-3.971.711,136.439.789,https://maps.google.com/?cid=0x0:0x8f3996d49e59c05e,
supermarket,supermarket,Kec. Homeyo,"Kabupaten Intan Jaya, Papua","Kabupaten Intan Jaya, Papua",PAPUA,,Indonesia,,,,-37.386.821,1.368.570.279,https://maps.google.com/?cid=0x0:0x13d71833d8d524a9,
supermarket,Toko bahan makanan,Kios Syauqy,"97HM+J2C, Uwagi, Bogobaida, Kabupaten Paniai, Papua 98854","Uwagi, Bogobaida, Kabupaten Paniai",PAPUA,98854.0,Indonesia,,,,-36.209.365,1.362.825.214,https://maps.google.com/?cid=0x0:0xa5be475d84ad58bc,
supermarket,Pusat Perbelanjaan,Kios FMB,"97JM+3PJ, Uwagi, Bogobaida, Kabupaten Paniai, Papua 98854","Uwagi, Bogobaida, Kabupaten Paniai",PAPUA,98854.0,Indonesia,,,,-36.197.993,1.362.842.795,https://maps.google.com/?cid=0x0:0x95809b0f7a1426b9,
supermarket,Toko bahan makanan,Homi Supermarket,"478Q+W97, Jl. F Kalasuat, Remu Utara, Distrik Sorong, Kota Sorong, Papua Bar. 98412","Jl. F Kalasuat, Remu Utara, Distrik Sorong, Kota Sorong",PAPUA,98412.0,Indonesia,,,,-0.8827053,1.312.884.188,https://maps.google.com/?cid=0x0:0x9eed04e7f27afbd0,
supermarket,Toko bahan makanan,Toko Winda,"Q8R7+54, Yenbekaki, Distrik Waigeo Timur, Kabupaten Raja Ampat, Papua Bar.","Kabupaten Raja Ampat, Papua Bar.",PAPUA,,Indonesia,,,,-0.2095622,1.313.128.223,https://maps.google.com/?cid=0x0:0x9c2e8737cbb9be30,
supermarket,Toko bahan makanan,Toko Dua Saudara,"HRFF+P9V, Waisai, Waigeo Selatan, Waisai, Distrik Kota Waisai, Kabupaten Raja Ampat, Papua Bar. 98482","Waisai, Waigeo Selatan, Waisai, Distrik Kota Waisai, Kabupaten Raja Ampat",PAPUA,98482.0,Indonesia,81248277647.0,,,-0.4256342,1.308.234.194,https://maps.google.com/?cid=0x0:0xa818cfb481f861bb,
supermarket,Minimarket,Mini Market Wanda,"PX86+349, Jl. Cikunir Raya, RT.004/RW.011, Jatiasih, Kec. Jatiasih, Kota Bks, Jawa Barat 17422","Jl. Cikunir Raya, RT.004/RW.011, Jatiasih, Kec. Jatiasih, Kota Bks",PAPUA,17422.0,Indonesia,87887140410.0,,,-6.284.829,1.069.603.531,https://maps.google.com/?cid=0x0:0x6054f70b56568f54,
supermarket,Grosir Barang Kelontong,Toko WANDA,"H386+M95, perum DITBEKANGAD blok A, Cibarusahjaya, Kec. Cibarusah, Kabupaten Bekasi, Jawa Barat 17340","perum DITBEKANGAD blok A, Cibarusahjaya, Kec. Cibarusah, Kabupaten Bekasi",PAPUA,17340.0,Indonesia,89517064911.0,,,-64.333.593,1.070.609.849,https://maps.google.com/?cid=0x0:0xcb9e01c0ea716260,
supermarket,Toko bahan makanan,Warung Wanda,"R238+35M, Jl. Damai 2, RT.002/RW.017, Perwira, Kec. Bekasi Utara, Kota Bks, Jawa Barat 17124","Jl. Damai 2, RT.002/RW.017, Perwira, Kec. Bekasi Utara, Kota Bks",PAPUA,17124.0,Indonesia,81280930337.0,,,-61.972.753,1.070.154.236,https://maps.google.com/?cid=0x0:0xc0042b321206b9c0,
supermarket,Toko bahan makanan,Wanda Food,"P23J+CRF, RT.002/RW.020, Mustikajaya, Kec. Mustika Jaya, Kota Bks, Jawa Barat 17158","RT.002/RW.020, Mustikajaya, Kec. Mustika Jaya, Kota Bks",PAPUA,17158.0,Indonesia,83890348825.0,,,-62.966.847,1.070.320.722,https://maps.google.com/?cid=0x0:0x38eb734dc05e8cce,
supermarket,Toko bahan makanan,Warung wanda,"J497+424, Kp Jl. Pasir Randu, Sukasari, Kec. Serang Baru, Kabupaten Bekasi, Jawa Barat 17330","Kp Jl. Pasir Randu, Sukasari, Kec. Serang Baru, Kabupaten Bekasi",PAPUA,17330.0,Indonesia,,,,-63.822.478,107.112.574,https://maps.google.com/?cid=0x0:0xdd413e1694eda58f,
supermarket,Toko bahan makanan,Toko Wanda Sayur,"Cipayung, Kec. Cipayung, Kota Depok, Jawa Barat","Kota Depok, Jawa Barat",PAPUA,,Indonesia,,,,-64.145.265,1.067.978.936,https://maps.google.com/?cid=0x0:0x6822719f6746a393,
supermarket,Toko bahan makanan,TOKO WANDA,"Sukatani, Kec. Rajeg, Kabupaten Tangerang, Banten","Kabupaten Tangerang, Banten",PAPUA,,Indonesia,,,,-61.279.801,1.064.948.478,https://maps.google.com/?cid=0x0:0xa4322856e55c4876,
supermarket,,TOKO WANDA,"Bantar Panjang, Kec. Tigaraksa, Kabupaten Tangerang, Banten","Kabupaten Tangerang, Banten",PAPUA,,Indonesia,80505.0,,,-62.927.514,1.064.548.348,https://maps.google.com/?cid=0x0:0x970e8ee28ed77b6f,
supermarket,Pusat Perbelanjaan,Kios FMB,"97JM+3PJ, Uwagi, Bogobaida, Kabupaten Paniai, Papua 98854","Uwagi, Bogobaida, Kabupaten Paniai",PAPUA,98854.0,Indonesia,,,,-36.197.993,1.362.842.795,https://maps.google.com/?cid=0x0:0x95809b0f7a1426b9,
supermarket,Toko bahan makanan,Kios Syauqy,"97HM+J2C, Uwagi, Bogobaida, Kabupaten Paniai, Papua 98854","Uwagi, Bogobaida, Kabupaten Paniai",PAPUA,98854.0,Indonesia,,,,-36.209.365,1.362.825.214,https://maps.google.com/?cid=0x0:0xa5be475d84ad58bc,
supermarket,supermarket,Papua 98784,Papua,Papua,PAPUA,,Indonesia,,,,-32.495.346,1.364.393.054,https://maps.google.com/?cid=0x0:0xd10f2faf319bd4fe,
supermarket,supermarket,Kios dua pintu,"726Q+72, Bilogai, Kec. Sugapa, Kabupaten Intan Jaya, Papua","Kabupaten Intan Jaya, Papua",PAPUA,,Indonesia,,,,-37.393.675,1.370.376.068,https://maps.google.com/?cid=0x0:0x5ff58a18b9b81348,
supermarket,supermarket,Papua 98768,"Kabupaten Intan Jaya, Papua","Kabupaten Intan Jaya, Papua",PAPUA,,Indonesia,,,,-36.382.021,1.369.028.375,https://maps.google.com/?cid=0x0:0x902010d7989d7c6c,
supermarket,Pusat Perbelanjaan,Primo Supermarket Ridge Camp,"V4R2+62, Tembagapura, Kec. Tembagapura, Kabupaten Mimika, Papua 98972","Tembagapura, Kec. Tembagapura, Kabupaten Mimika",PAPUA,98972.0,Indonesia,,,,-4.109.473,1.371.002.082,https://maps.google.com/?cid=0x0:0x759edca03c3b320f,
supermarket,Toko Swalayan,GrandLucky - SCBD,"Kawasan Niaga Terpadu Sudirman (SCBD, Jl. Jenderal Sudirman LOT-12, Senayan, Kec. Kby. Baru, Kota Jakarta Selatan, Daerah Khusus Ibukota Jakarta 12190","Jl. Jenderal Sudirman LOT-12, Senayan, Kec. Kby. Baru, Kota Jakarta Selatan",PAPUA,12190.0,Indonesia,85183118632.0,,,-622.691,1.068.059.153,https://maps.google.com/?cid=0x0:0x4efcd0d8d64cad53,
