Category;Real Category;Business Name;Address;City;State;Postal Code;Country;Phone;Email;Website;Latitude;Longitude;Map Link;Details Link
"komplek housing";"komplek housing";"Maluku 97611";"Fiditan, Kec. Pulau Dullah Utara, Kota Tual, Maluku";"Kota Tual, Maluku";"MALUKU";"";"Indonesia";"";"";"";"-5.6405597";"132.7437118";"https://maps.google.com/?cid=0x0:0x3f6a1cf664874ad3";""
"komplek housing";"Komplek perumahan";"Cahaya Kei";"8PQP+RXH, Unnamed Rd, Langgur, Kec. Kei Kecil, Kabupaten Maluku Tenggara, Maluku";"Kabupaten Maluku Tenggara, Maluku";"MALUKU";"";"Indonesia";" 081292480414";"";"";"-5.6604261";"132.7374707";"https://maps.google.com/?cid=0x0:0x1e2005c460799e05";""
"komplek housing";"Komplek perumahan";"Akbar Kos";"9P5V+QFG, Fiditan, Kec. Pulau Dullah Utara, Kota Tual, Maluku 97611";"Fiditan, Kec. Pulau Dullah Utara, Kota Tual";"MALUKU";"97611";"Indonesia";"";"";"";"-5.6405597";"132.7437118";"https://maps.google.com/?cid=0x0:0xb2a8c3b661d77ef6";""
"komplek housing";"Komplek perumahan";"HK Group";"9P5V+V78, Fiditan, Kec. Pulau Dullah Utara, Kota Tual, Maluku";"Kota Tual, Maluku";"MALUKU";"";"Indonesia";"";"";"";"-5.6403509";"132.743234";"https://maps.google.com/?cid=0x0:0xb40235a01bf32b52";""
"komplek housing";"Komplek perumahan";"Hollay";"8PRP+XVF, Langgur, Kec. Kei Kecil, Kabupaten Maluku Tenggara, Maluku";"Kabupaten Maluku Tenggara, Maluku";"MALUKU";"";"Indonesia";"";"";"";"-5.6585738";"132.7364626";"https://maps.google.com/?cid=0x0:0xe92cae16adf54875";""
"komplek housing";"Komplek perumahan";"KIOM BAWA";"9P5V+G6V, Fiditan, Kec. Pulau Dullah Utara, Kota Tual, Maluku";"Kota Tual, Maluku";"MALUKU";"";"Indonesia";"";"";"";"-5.641144";"132.7430368";"https://maps.google.com/?cid=0x0:0xe6fb8980309babc1";""
"komplek housing";"Komplek perumahan";"SITI ZAKIA BUGIS";"9P6V+42W, Jl. Usman Matdoan, Fiditan, Kec. Pulau Dullah Utara, Kota Tual, Maluku";"Kota Tual, Maluku";"MALUKU";"";"Indonesia";"";"";"";"-5.6396116";"132.742618";"https://maps.google.com/?cid=0x0:0x39777da2978e9dae";""
"komplek housing";"Komplek perumahan";"AHMAD DIFINUBUN";"9P6V+42R, Jl. Usman Matdoan, Fiditan, Kec. Pulau Dullah Utara, Kota Tual, Maluku";"Kota Tual, Maluku";"MALUKU";"";"Indonesia";"";"";"";"-5.639298";"132.7427206";"https://maps.google.com/?cid=0x0:0x10e0972e73b4a146";""
"komplek housing";"Perumahan";"Anggun Rahawarin";"9P5V+WC3, Fiditan, Kec. Pulau Dullah Utara, Kota Tual, Maluku";"Kota Tual, Maluku";"MALUKU";"";"Indonesia";"";"";"";"-5.640225";"132.7435408";"https://maps.google.com/?cid=0x0:0x450d5106a8cd6d86";""
"komplek housing";"komplek housing";"Kec. Kei Kecil";"Kabupaten Maluku Tenggara, Maluku";"Kabupaten Maluku Tenggara, Maluku";"MALUKU";"";"Indonesia";"";"";"";"-5.6514893";"132.7407341";"https://maps.google.com/?cid=0x0:0x29a53ecf427f29d0";""
"komplek housing";"Perhimpunan Pengembang Perumahan";"Jln CRUSADER";"6MXV+XF9, Dian, Kec. Kei Kecil, Kabupaten Maluku Tenggara, Maluku 97611";"Dian, Kec. Kei Kecil, Kabupaten Maluku Tenggara";"MALUKU";"97611";"Indonesia";"";"";"";"-5.7502134";"132.6948003";"https://maps.google.com/?cid=0x0:0x4d89cf47c8cb121";""
"komplek housing";"Otoritas Perumahan";"Kel B Eleuwarin";"7M3R+4RG, Dian, Kec. Kei Kecil, Kabupaten Maluku Tenggara, Maluku 97611";"Dian, Kec. Kei Kecil, Kabupaten Maluku Tenggara";"MALUKU";"97611";"Indonesia";"";"";"";"-5.7468418";"132.6919957";"https://maps.google.com/?cid=0x0:0x8b41280e7e0ea583";""
"komplek housing";"Komplek perumahan";"Rumah rahakbau";"Jl. Jend. Sudirman No.26, Kel. Ohoijang Watdek, Kec. Kei Kecil, Kabupaten Maluku Tenggara, Maluku 97611";"Kel. Ohoijang Watdek, Kec. Kei Kecil, Kabupaten Maluku Tenggara";"MALUKU";"97611";"Indonesia";"";"";"";"-5.6462673";"132.7424259";"https://maps.google.com/?cid=0x0:0xb602fb2035de38a8";""
"komplek housing";"Komplek perumahan";"Oliver Home";"8PMQ+676, Jl. Jend. Sudirman, Langgur, Kec. Kei Kecil, Kabupaten Maluku Tenggara, Maluku 97611";"Jl. Jend. Sudirman, Langgur, Kec. Kei Kecil, Kabupaten Maluku Tenggara";"MALUKU";"97611";"Indonesia";"";"";"";"-5.6670099";"132.738077";"https://maps.google.com/?cid=0x0:0xf58853afa45c87e5";""
"komplek housing";"Perhimpunan Pengembang Perumahan";"Watdek";"Jl. Jend. Sudirman No.26, Kel. Ohoijang Watdek, Kec. Kei Kecil, Kabupaten Maluku Tenggara, Maluku 97611";"Kel. Ohoijang Watdek, Kec. Kei Kecil, Kabupaten Maluku Tenggara";"MALUKU";"97611";"Indonesia";"";"";"";"-5.6469827";"132.7408035";"https://maps.google.com/?cid=0x0:0x6cd447cc7c25cb5b";""
"komplek housing";"Komplek perumahan";"Rumah pak Anton Seran";"Rukun V, Lingkungan MM, Langgur, Kec. Kei Kecil, Kabupaten Maluku Tenggara, Maluku 97611";"Lingkungan MM, Langgur, Kec. Kei Kecil, Kabupaten Maluku Tenggara";"MALUKU";"97611";"Indonesia";" 085197297469";"";"";"-5.6576312";"132.7355153";"https://maps.google.com/?cid=0x0:0xefd633eb63b6593";""
"komplek housing";"Komplek perumahan";"Rumah Benediktus Kassiuw";"8PMQ+528, Jl. Telaver, Langgur, Kec. Kei Kecil, Kabupaten Maluku Tenggara, Maluku 97611";"Jl. Telaver, Langgur, Kec. Kei Kecil, Kabupaten Maluku Tenggara";"MALUKU";"97611";"Indonesia";"";"";"";"-5.666965";"132.7374";"https://maps.google.com/?cid=0x0:0x4e3b1c027bb7d4b0";""
"komplek housing";"Komplek perumahan";"Rumah Sciffo";"8PVR+97P, Langgur, Kec. Kei Kecil, Kabupaten Maluku Tenggara, Maluku 97611";"Langgur, Kec. Kei Kecil, Kabupaten Maluku Tenggara";"MALUKU";"97611";"Indonesia";"";"";"";"-5.656092";"132.740927";"https://maps.google.com/?cid=0x0:0x2f81a4b483ef06af";""
"komplek housing";"Komplek perumahan";"Yunus";"Jl. Jend. Sudirman No.26, Kel. Ohoijang Watdek, Kec. Kei Kecil, Kabupaten Maluku Tenggara, Maluku 97611";"Kel. Ohoijang Watdek, Kec. Kei Kecil, Kabupaten Maluku Tenggara";"MALUKU";"97611";"Indonesia";"";"";"";"-5.6477993";"132.7419758";"https://maps.google.com/?cid=0x0:0x49293689eb5b8250";""
"komplek housing";"Komplek perumahan";"Mr. Jablay";"Langgur, Kec. Kei Kecil, Kabupaten Maluku Tenggara, Maluku 97611";"Kec. Kei Kecil, Kabupaten Maluku Tenggara";"MALUKU";"97611";"Indonesia";"";"";"";"-5.631775";"132.597305";"https://maps.google.com/?cid=0x0:0x5d27be50d1a01687";""
"komplek housing";"Hotel";"Wisma Kost CFF (Pak Ismail)";"Jl. Marlin Perumnas Batu Jatuh.374, Blok 4, Kel. Ohoijang Watdek, Kec. Kei Kecil, Kabupaten Maluku Tenggara, Maluku 97611";"Blok 4, Kel. Ohoijang Watdek, Kec. Kei Kecil, Kabupaten Maluku Tenggara";"MALUKU";"97611";"Indonesia";" 081266827786";"";"";"-5.6479247";"132.734219";"https://maps.google.com/?cid=0x0:0x846a784d3b1cfe75";""
"komplek housing";"Komplek perumahan";"Nurjana";"jln Tenggiri No.59, Kel. Ohoijang Watdek, Kec. Kei Kecil, Kabupaten Maluku Tenggara, Maluku 97611";"Kel. Ohoijang Watdek, Kec. Kei Kecil, Kabupaten Maluku Tenggara";"MALUKU";"97611";"Indonesia";"";"";"";"-5.6498445";"132.7328084";"https://maps.google.com/?cid=0x0:0xf6c06bef7e90fa78";""
"komplek housing";"Pembangunan Perumahan";"Melki home";"Jl. Dr. Leimena depan SDN No.19, Kel. Ketsoblak, Pulau Dullah Sel., Kota Tual, Maluku 97611";"Kel. Ketsoblak, Pulau Dullah Sel., Kota Tual";"MALUKU";"97611";"Indonesia";"";"";"";"-5.6409864";"132.7470618";"https://maps.google.com/?cid=0x0:0x4d43e3b3fac0ada5";""
"komplek housing";"Komplek perumahan";"Home reyn";"6PM2+WJ5, Jln. Tubtut, Ohoi, Letvuan, Kec. Hoat Sorbay, Kabupaten Maluku Tenggara, Maluku 97611";"Jln. Tubtut, Ohoi, Letvuan, Kec. Hoat Sorbay, Kabupaten Maluku Tenggara";"MALUKU";"97611";"Indonesia";"";"";"";"-5.7651583";"132.7018307";"https://maps.google.com/?cid=0x0:0xefa15f3ae6001c69";""
"komplek housing";"Komplek perumahan";"Kos iin";"9P5V+MXJ, Kolser, Pulau Dullah Sel., Kabupaten Maluku Tenggara, Maluku 97611";"Kolser, Pulau Dullah Sel., Kabupaten Maluku Tenggara";"MALUKU";"97611";"Indonesia";"";"";"";"-5.6414557";"132.7441264";"https://maps.google.com/?cid=0x0:0x6deb61a8309f93e5";""
"komplek housing";"Komplek perumahan";"RUMAH YUSRIL TAMNGE";"Jl. Fid Nang Armau, Fiditan, Kec. Pulau Dullah Utara, Kota Tual, Maluku 97611";"Fiditan, Kec. Pulau Dullah Utara, Kota Tual";"MALUKU";"97611";"Indonesia";" 082239308272";"";"";"-5.6364199";"132.7424886";"https://maps.google.com/?cid=0x0:0x1af9c5456c5b062f";""
"komplek housing";"Hotel";"Kost Faldo Fano";"9P2M+R9W, Jl. Marlin Perumnas No.375, RT.004/RW.004, Kel. Ohoijang Watdek, Kec. Kei Kecil, Kabupaten Maluku Tenggara, Maluku 97611";"Jl. Marlin Perumnas No.375, RT.004/RW.004, Kel. Ohoijang Watdek, Kec. Kei Kecil, Kabupaten Maluku Tenggara";"MALUKU";"97611";"Indonesia";"";"";"";"-5.6478876";"132.7334652";"https://maps.google.com/?cid=0x0:0x1f3537e7688c034d";""
"komplek housing";"komplek housing";"Pulau Kei Besar";"Kabupaten Maluku Tenggara, Maluku";"Kabupaten Maluku Tenggara, Maluku";"MALUKU";"";"Indonesia";"";"";"";"-5.5588997";"133.0777555";"https://maps.google.com/?cid=0x0:0xabb0e5e302e13003";""
"komplek housing";"komplek housing";"Kec. Kei Besar";"Kabupaten Maluku Tenggara, Maluku";"Kabupaten Maluku Tenggara, Maluku";"MALUKU";"";"Indonesia";"";"";"";"-5.6972073";"132.9830028";"https://maps.google.com/?cid=0x0:0x19dfdda766def4cc";""
"komplek housing";"komplek housing";"Kec. Kei Besar Sel.";"Kabupaten Maluku Tenggara, Maluku";"Kabupaten Maluku Tenggara, Maluku";"MALUKU";"";"Indonesia";"";"";"";"-5.8619353";"132.9222315";"https://maps.google.com/?cid=0x0:0x509d63fbc4e42f01";""
"komplek housing";"Komplek perumahan";"Cahaya Kei";"8PQP+RXH, Unnamed Rd, Langgur, Kec. Kei Kecil, Kabupaten Maluku Tenggara, Maluku";"Kabupaten Maluku Tenggara, Maluku";"MALUKU";"";"Indonesia";" 081292480414";"";"";"-5.6604261";"132.7374707";"https://maps.google.com/?cid=0x0:0x1e2005c460799e05";""
"komplek housing";"Komplek perumahan";"My home";"8PPQ+G74, Langgur, Kec. Kei Kecil, Kabupaten Maluku Tenggara, Maluku";"Kabupaten Maluku Tenggara, Maluku";"MALUKU";"";"Indonesia";"";"";"";"-5.6637362";"132.7382152";"https://maps.google.com/?cid=0x0:0x5543fb1baf6da934";""
"komplek housing";"komplek housing";"Kec. Kei Besar Utara Tim.";"Kabupaten Maluku Tenggara, Maluku";"Kabupaten Maluku Tenggara, Maluku";"MALUKU";"";"Indonesia";"";"";"";"-5.4041794";"133.1561205";"https://maps.google.com/?cid=0x0:0x2b9a4c1f8a51bbdf";""
"komplek housing";"komplek housing";"Pulau Kei Besar";"Kabupaten Maluku Tenggara, Maluku";"Kabupaten Maluku Tenggara, Maluku";"MALUKU";"";"Indonesia";"";"";"";"-5.5588997";"133.0777555";"https://maps.google.com/?cid=0x0:0xabb0e5e302e13003";""
"komplek housing";"komplek housing";"Kec. Kei Kecil Tim.";"Kabupaten Maluku Tenggara, Maluku";"Kabupaten Maluku Tenggara, Maluku";"MALUKU";"";"Indonesia";"";"";"";"-5.8097466";"132.7772816";"https://maps.google.com/?cid=0x0:0x6aa8f793d559e5f5";""
"komplek housing";"Komplek perumahan";"Cahaya Kei";"8PQP+RXH, Unnamed Rd, Langgur, Kec. Kei Kecil, Kabupaten Maluku Tenggara, Maluku";"Kabupaten Maluku Tenggara, Maluku";"MALUKU";"";"Indonesia";" 081292480414";"";"";"-5.6604261";"132.7374707";"https://maps.google.com/?cid=0x0:0x1e2005c460799e05";""
"komplek housing";"Komplek perumahan";"My home";"8PPQ+G74, Langgur, Kec. Kei Kecil, Kabupaten Maluku Tenggara, Maluku";"Kabupaten Maluku Tenggara, Maluku";"MALUKU";"";"Indonesia";"";"";"";"-5.6637362";"132.7382152";"https://maps.google.com/?cid=0x0:0x5543fb1baf6da934";""
"komplek housing";"komplek housing";"Kec. Kei Kecil Bar.";"Kabupaten Maluku Tenggara, Maluku";"Kabupaten Maluku Tenggara, Maluku";"MALUKU";"";"Indonesia";"";"";"";"-5.8426357";"132.6882652";"https://maps.google.com/?cid=0x0:0xb8ee628c1e11e302";""
"komplek housing";"Perhimpunan Pengembang Perumahan";"Jln CRUSADER";"6MXV+XF9, Dian, Kec. Kei Kecil, Kabupaten Maluku Tenggara, Maluku 97611";"Dian, Kec. Kei Kecil, Kabupaten Maluku Tenggara";"MALUKU";"97611";"Indonesia";"";"";"";"-5.7502134";"132.6948003";"https://maps.google.com/?cid=0x0:0x4d89cf47c8cb121";""
"komplek housing";"Komplek perumahan";"Cahaya Kei";"8PQP+RXH, Unnamed Rd, Langgur, Kec. Kei Kecil, Kabupaten Maluku Tenggara, Maluku";"Kabupaten Maluku Tenggara, Maluku";"MALUKU";"";"Indonesia";" 081292480414";"";"";"-5.6604261";"132.7374707";"https://maps.google.com/?cid=0x0:0x1e2005c460799e05";""
"komplek housing";"Komplek perumahan";"Langgur";"8PXQ+P7J, Kel. Ohoijang Watdek, Kec. Kei Kecil, Kabupaten Maluku Tenggara, Maluku";"Kabupaten Maluku Tenggara, Maluku";"MALUKU";"";"Indonesia";"";"";"";"-5.6506605";"132.7381512";"https://maps.google.com/?cid=0x0:0xa61c1b749ed1f3f8";""
"komplek housing";"komplek housing";"Maluku 97611";"Fiditan, Kec. Pulau Dullah Utara, Kota Tual, Maluku";"Kota Tual, Maluku";"MALUKU";"";"Indonesia";"";"";"";"-5.6405597";"132.7437118";"https://maps.google.com/?cid=0x0:0x3f6a1cf664874ad3";""
"komplek housing";"Komplek perumahan";"Burhan home";"Kel. Ketsoblak, Warhir RT 02, Pulau Dullah Sel., Kota Tual, Maluku 97611";"Warhir RT 02, Pulau Dullah Sel., Kota Tual";"MALUKU";"97611";"Indonesia";"";"";"";"-5.6405597";"132.7437118";"https://maps.google.com/?cid=0x0:0x8b6ae60bd8234324";""
"komplek housing";"Komplek perumahan";"KIOM BAWA";"9P5V+G6V, Fiditan, Kec. Pulau Dullah Utara, Kota Tual, Maluku";"Kota Tual, Maluku";"MALUKU";"";"Indonesia";"";"";"";"-5.641144";"132.7430368";"https://maps.google.com/?cid=0x0:0xe6fb8980309babc1";""
"komplek housing";"Komplek perumahan";"AHMAD DIFINUBUN";"9P6V+42R, Jl. Usman Matdoan, Fiditan, Kec. Pulau Dullah Utara, Kota Tual, Maluku";"Kota Tual, Maluku";"MALUKU";"";"Indonesia";"";"";"";"-5.639298";"132.7427206";"https://maps.google.com/?cid=0x0:0x10e0972e73b4a146";""
"komplek housing";"Komplek perumahan";"Akbar Kos";"9P5V+QFG, Fiditan, Kec. Pulau Dullah Utara, Kota Tual, Maluku 97611";"Fiditan, Kec. Pulau Dullah Utara, Kota Tual";"MALUKU";"97611";"Indonesia";"";"";"";"-5.6405597";"132.7437118";"https://maps.google.com/?cid=0x0:0xb2a8c3b661d77ef6";""
"komplek housing";"Perumahan";"Anggun Rahawarin";"9P5V+WC3, Fiditan, Kec. Pulau Dullah Utara, Kota Tual, Maluku";"Kota Tual, Maluku";"MALUKU";"";"Indonesia";"";"";"";"-5.640225";"132.7435408";"https://maps.google.com/?cid=0x0:0x450d5106a8cd6d86";""
"komplek housing";"komplek housing";"Kec. Manyeuw";"Kabupaten Maluku Tenggara, Maluku";"Kabupaten Maluku Tenggara, Maluku";"MALUKU";"";"Indonesia";"";"";"";"-5.6965194";"132.6541753";"https://maps.google.com/?cid=0x0:0x759039d1fd6358e2";""
"komplek housing";"Perhimpunan Pengembang Perumahan";"Jln CRUSADER";"6MXV+XF9, Dian, Kec. Kei Kecil, Kabupaten Maluku Tenggara, Maluku 97611";"Dian, Kec. Kei Kecil, Kabupaten Maluku Tenggara";"MALUKU";"97611";"Indonesia";"";"";"";"-5.7502134";"132.6948003";"https://maps.google.com/?cid=0x0:0x4d89cf47c8cb121";""
"komplek housing";"Otoritas Perumahan";"Kel B Eleuwarin";"7M3R+4RG, Dian, Kec. Kei Kecil, Kabupaten Maluku Tenggara, Maluku 97611";"Dian, Kec. Kei Kecil, Kabupaten Maluku Tenggara";"MALUKU";"97611";"Indonesia";"";"";"";"-5.7468418";"132.6919957";"https://maps.google.com/?cid=0x0:0x8b41280e7e0ea583";""
"komplek housing";"Komplek perumahan";"Oliver Home";"8PMQ+676, Jl. Jend. Sudirman, Langgur, Kec. Kei Kecil, Kabupaten Maluku Tenggara, Maluku 97611";"Jl. Jend. Sudirman, Langgur, Kec. Kei Kecil, Kabupaten Maluku Tenggara";"MALUKU";"97611";"Indonesia";"";"";"";"-5.6670099";"132.738077";"https://maps.google.com/?cid=0x0:0xf58853afa45c87e5";""
"komplek housing";"Komplek perumahan";"Rumah Benediktus Kassiuw";"8PMQ+528, Jl. Telaver, Langgur, Kec. Kei Kecil, Kabupaten Maluku Tenggara, Maluku 97611";"Jl. Telaver, Langgur, Kec. Kei Kecil, Kabupaten Maluku Tenggara";"MALUKU";"97611";"Indonesia";"";"";"";"-5.666965";"132.7374";"https://maps.google.com/?cid=0x0:0x4e3b1c027bb7d4b0";""
"komplek housing";"Komplek perumahan";"Rumah pak Anton Seran";"Rukun V, Lingkungan MM, Langgur, Kec. Kei Kecil, Kabupaten Maluku Tenggara, Maluku 97611";"Lingkungan MM, Langgur, Kec. Kei Kecil, Kabupaten Maluku Tenggara";"MALUKU";"97611";"Indonesia";" 085197297469";"";"";"-5.6576312";"132.7355153";"https://maps.google.com/?cid=0x0:0xefd633eb63b6593";""
"komplek housing";"Komplek perumahan";"Home reyn";"6PM2+WJ5, Jln. Tubtut, Ohoi, Letvuan, Kec. Hoat Sorbay, Kabupaten Maluku Tenggara, Maluku 97611";"Jln. Tubtut, Ohoi, Letvuan, Kec. Hoat Sorbay, Kabupaten Maluku Tenggara";"MALUKU";"97611";"Indonesia";"";"";"";"-5.7651583";"132.7018307";"https://maps.google.com/?cid=0x0:0xefa15f3ae6001c69";""
"komplek housing";"Komplek perumahan";"Rumah Sciffo";"8PVR+97P, Langgur, Kec. Kei Kecil, Kabupaten Maluku Tenggara, Maluku 97611";"Langgur, Kec. Kei Kecil, Kabupaten Maluku Tenggara";"MALUKU";"97611";"Indonesia";"";"";"";"-5.656092";"132.740927";"https://maps.google.com/?cid=0x0:0x2f81a4b483ef06af";""
"komplek housing";"Komplek perumahan";"Mr. Jablay";"Langgur, Kec. Kei Kecil, Kabupaten Maluku Tenggara, Maluku 97611";"Kec. Kei Kecil, Kabupaten Maluku Tenggara";"MALUKU";"97611";"Indonesia";"";"";"";"-5.631775";"132.597305";"https://maps.google.com/?cid=0x0:0x5d27be50d1a01687";""
"komplek housing";"komplek housing";"Maluku 97611";"Fiditan, Kec. Pulau Dullah Utara, Kota Tual, Maluku";"Kota Tual, Maluku";"MALUKU";"";"Indonesia";"";"";"";"-5.6405597";"132.7437118";"https://maps.google.com/?cid=0x0:0x3f6a1cf664874ad3";""
"komplek housing";"Komplek perumahan";"Burhan home";"Kel. Ketsoblak, Warhir RT 02, Pulau Dullah Sel., Kota Tual, Maluku 97611";"Warhir RT 02, Pulau Dullah Sel., Kota Tual";"MALUKU";"97611";"Indonesia";"";"";"";"-5.6405597";"132.7437118";"https://maps.google.com/?cid=0x0:0x8b6ae60bd8234324";""
"komplek housing";"Komplek perumahan";"Akbar Kos";"9P5V+QFG, Fiditan, Kec. Pulau Dullah Utara, Kota Tual, Maluku 97611";"Fiditan, Kec. Pulau Dullah Utara, Kota Tual";"MALUKU";"97611";"Indonesia";"";"";"";"-5.6405597";"132.7437118";"https://maps.google.com/?cid=0x0:0xb2a8c3b661d77ef6";""
"komplek housing";"Komplek perumahan";"KIOM BAWA";"9P5V+G6V, Fiditan, Kec. Pulau Dullah Utara, Kota Tual, Maluku";"Kota Tual, Maluku";"MALUKU";"";"Indonesia";"";"";"";"-5.641144";"132.7430368";"https://maps.google.com/?cid=0x0:0xe6fb8980309babc1";""
"komplek housing";"Komplek perumahan";"AHMAD DIFINUBUN";"9P6V+42R, Jl. Usman Matdoan, Fiditan, Kec. Pulau Dullah Utara, Kota Tual, Maluku";"Kota Tual, Maluku";"MALUKU";"";"Indonesia";"";"";"";"-5.639298";"132.7427206";"https://maps.google.com/?cid=0x0:0x10e0972e73b4a146";""
"komplek housing";"Perumahan";"Anggun Rahawarin";"9P5V+WC3, Fiditan, Kec. Pulau Dullah Utara, Kota Tual, Maluku";"Kota Tual, Maluku";"MALUKU";"";"Indonesia";"";"";"";"-5.640225";"132.7435408";"https://maps.google.com/?cid=0x0:0x450d5106a8cd6d86";""
"komplek housing";"Komplek perumahan";"SITI ZAKIA BUGIS";"9P6V+42W, Jl. Usman Matdoan, Fiditan, Kec. Pulau Dullah Utara, Kota Tual, Maluku";"Kota Tual, Maluku";"MALUKU";"";"Indonesia";"";"";"";"-5.6396116";"132.742618";"https://maps.google.com/?cid=0x0:0x39777da2978e9dae";""
"komplek housing";"komplek housing";"Kec. Hoat Sorbay";"Kabupaten Maluku Tenggara, Maluku";"Kabupaten Maluku Tenggara, Maluku";"MALUKU";"";"Indonesia";"";"";"";"-5.7625705";"132.7020733";"https://maps.google.com/?cid=0x0:0x34afb92b49352bf1";""
"komplek housing";"Komplek perumahan";"Home reyn";"6PM2+WJ5, Jln. Tubtut, Ohoi, Letvuan, Kec. Hoat Sorbay, Kabupaten Maluku Tenggara, Maluku 97611";"Jln. Tubtut, Ohoi, Letvuan, Kec. Hoat Sorbay, Kabupaten Maluku Tenggara";"MALUKU";"97611";"Indonesia";"";"";"";"-5.7651583";"132.7018307";"https://maps.google.com/?cid=0x0:0xefa15f3ae6001c69";""
"komplek housing";"Perhimpunan Pengembang Perumahan";"Jln CRUSADER";"6MXV+XF9, Dian, Kec. Kei Kecil, Kabupaten Maluku Tenggara, Maluku 97611";"Dian, Kec. Kei Kecil, Kabupaten Maluku Tenggara";"MALUKU";"97611";"Indonesia";"";"";"";"-5.7502134";"132.6948003";"https://maps.google.com/?cid=0x0:0x4d89cf47c8cb121";""
"komplek housing";"Otoritas Perumahan";"Kel B Eleuwarin";"7M3R+4RG, Dian, Kec. Kei Kecil, Kabupaten Maluku Tenggara, Maluku 97611";"Dian, Kec. Kei Kecil, Kabupaten Maluku Tenggara";"MALUKU";"97611";"Indonesia";"";"";"";"-5.7468418";"132.6919957";"https://maps.google.com/?cid=0x0:0x8b41280e7e0ea583";""
"komplek housing";"komplek housing";"Kei Besar Utara Barat";"Kabupaten Maluku Tenggara, Maluku";"Kabupaten Maluku Tenggara, Maluku";"MALUKU";"";"Indonesia";"";"";"";"-5.4225384";"133.0874599";"https://maps.google.com/?cid=0x0:0xf7c7402415611fa6";""
"komplek housing";"komplek housing";"Pulau Kei Besar";"Kabupaten Maluku Tenggara, Maluku";"Kabupaten Maluku Tenggara, Maluku";"MALUKU";"";"Indonesia";"";"";"";"-5.5588997";"133.0777555";"https://maps.google.com/?cid=0x0:0xabb0e5e302e13003";""
"perumahan";"perumahan";"Maluku 97611";"Fiditan, Kec. Pulau Dullah Utara, Kota Tual, Maluku";"Kota Tual, Maluku";"MALUKU";"";"Indonesia";"";"";"";"-5.6405597";"132.7437118";"https://maps.google.com/?cid=0x0:0x3f6a1cf664874ad3";""
"perumahan";"Komplek perumahan";"Akbar Kos";"9P5V+QFG, Fiditan, Kec. Pulau Dullah Utara, Kota Tual, Maluku 97611";"Fiditan, Kec. Pulau Dullah Utara, Kota Tual";"MALUKU";"97611";"Indonesia";"";"";"";"-5.6405597";"132.7437118";"https://maps.google.com/?cid=0x0:0xb2a8c3b661d77ef6";""
"perumahan";"Komplek perumahan";"Hollay";"8PRP+XVF, Langgur, Kec. Kei Kecil, Kabupaten Maluku Tenggara, Maluku";"Kabupaten Maluku Tenggara, Maluku";"MALUKU";"";"Indonesia";"";"";"";"-5.6585738";"132.7364626";"https://maps.google.com/?cid=0x0:0xe92cae16adf54875";""
"perumahan";"Komplek perumahan";"Burhan home";"Kel. Ketsoblak, Warhir RT 02, Pulau Dullah Sel., Kota Tual, Maluku 97611";"Warhir RT 02, Pulau Dullah Sel., Kota Tual";"MALUKU";"97611";"Indonesia";"";"";"";"-5.6405597";"132.7437118";"https://maps.google.com/?cid=0x0:0x8b6ae60bd8234324";""
"perumahan";"Komplek perumahan";"HK Group";"9P5V+V78, Fiditan, Kec. Pulau Dullah Utara, Kota Tual, Maluku";"Kota Tual, Maluku";"MALUKU";"";"Indonesia";"";"";"";"-5.6403509";"132.743234";"https://maps.google.com/?cid=0x0:0xb40235a01bf32b52";""
"perumahan";"Komplek perumahan";"SITI ZAKIA BUGIS";"9P6V+42W, Jl. Usman Matdoan, Fiditan, Kec. Pulau Dullah Utara, Kota Tual, Maluku";"Kota Tual, Maluku";"MALUKU";"";"Indonesia";"";"";"";"-5.6396116";"132.742618";"https://maps.google.com/?cid=0x0:0x39777da2978e9dae";""
"perumahan";"Komplek perumahan";"KIOM BAWA";"9P5V+G6V, Fiditan, Kec. Pulau Dullah Utara, Kota Tual, Maluku";"Kota Tual, Maluku";"MALUKU";"";"Indonesia";"";"";"";"-5.641144";"132.7430368";"https://maps.google.com/?cid=0x0:0xe6fb8980309babc1";""
"perumahan";"Perumahan";"Anggun Rahawarin";"9P5V+WC3, Fiditan, Kec. Pulau Dullah Utara, Kota Tual, Maluku";"Kota Tual, Maluku";"MALUKU";"";"Indonesia";"";"";"";"-5.640225";"132.7435408";"https://maps.google.com/?cid=0x0:0x450d5106a8cd6d86";""
"perumahan";"perumahan";"Kec. Kei Besar";"Kabupaten Maluku Tenggara, Maluku";"Kabupaten Maluku Tenggara, Maluku";"MALUKU";"";"Indonesia";"";"";"";"-5.6972073";"132.9830028";"https://maps.google.com/?cid=0x0:0x19dfdda766def4cc";""
"perumahan";"Komplek perumahan";"MARKAS BESAR SUDUT MERAH";"92P8+QV7, Elralang, Kec. Kei Besar, Kabupaten Maluku Tenggara, Maluku";"Kabupaten Maluku Tenggara, Maluku";"MALUKU";"";"Indonesia";"";"";"";"-5.6130993";"133.0171847";"https://maps.google.com/?cid=0x0:0xb14a0cb0ad73464c";""
"perumahan";"Pembangunan Perumahan";"Ohoinangan";"8XFW+46, Ohoinangan, Kec. Kei Besar, Kabupaten Maluku Tenggara, Maluku";"Kabupaten Maluku Tenggara, Maluku";"MALUKU";"";"Indonesia";"";"";"";"-5.6776597";"132.9955365";"https://maps.google.com/?cid=0x0:0x1a7b0ab8ffe69476";""
"perumahan";"Komplek perumahan";"Desa Werka";"8W3W+MF, Werka, Kec. Kei Besar, Kabupaten Maluku Tenggara, Maluku";"Kabupaten Maluku Tenggara, Maluku";"MALUKU";"";"Indonesia";"";"";"";"-5.6957742";"132.9462071";"https://maps.google.com/?cid=0x0:0x50317f07e632769b";""
"perumahan";"Komplek perumahan";"KPM";"8XRR+WJF, Elat, Kec. Kei Besar, Kabupaten Maluku Tenggara, Maluku";"Kabupaten Maluku Tenggara, Maluku";"MALUKU";"";"Indonesia";"";"";"";"-5.657692";"132.991547";"https://maps.google.com/?cid=0x0:0x7beefcb64df71aec";""
"perumahan";"Komplek perumahan";"Kompleks Timur";"92P6+6CR, Kec. Kei Besar, Kabupaten Maluku Tenggara, Maluku";"Kabupaten Maluku Tenggara, Maluku";"MALUKU";"";"Indonesia";" 081261502436";"";"";"-5.6143876";"133.0110123";"https://maps.google.com/?cid=0x0:0x4761e8e85e3e2193";""
"perumahan";"Pembangunan Perumahan";"Kompleks Wearsu Elat";"82W2+359, Depur, Kec. Kei Besar, Kabupaten Maluku Tenggara, Maluku";"Kabupaten Maluku Tenggara, Maluku";"MALUKU";"";"Indonesia";" 081240787050";"";"";"-5.65483";"133.0004702";"https://maps.google.com/?cid=0x0:0x70f29ce42776268c";""
"perumahan";"Pembangunan Perumahan";"Desa Ohoilim";"8XP9+V9G, Ohoilim, Kec. Kei Besar, Kabupaten Maluku Tenggara, Maluku";"Kabupaten Maluku Tenggara, Maluku";"MALUKU";"";"Indonesia";"";"";"";"-5.6628089";"132.9684523";"https://maps.google.com/?cid=0x0:0xfbc7bdf9db8f66a4";""
"perumahan";"Komplek perumahan";"Rumah Kel. Hitimala";"8XWW+6P9, Elat, Kec. Kei Besar, Kabupaten Maluku Tenggara, Maluku";"Kabupaten Maluku Tenggara, Maluku";"MALUKU";"";"Indonesia";"";"";"";"-5.6545247";"132.9960536";"https://maps.google.com/?cid=0x0:0x5c90db027f22f66f";""
"perumahan";"Komplek perumahan";"Balai ohoi";"8XHF+R8W, Rahareng, Kec. Kei Besar, Kabupaten Maluku Tenggara, Maluku";"Kabupaten Maluku Tenggara, Maluku";"MALUKU";"";"Indonesia";"";"";"";"-5.6703781";"132.9733152";"https://maps.google.com/?cid=0x0:0x3f3a642ecabee7c3";""
"perumahan";"Komplek perumahan";"Komo MEDAN CITY";"92P9+7F, Elralang, Kec. Kei Besar, Kabupaten Maluku Tenggara, Maluku";"Kabupaten Maluku Tenggara, Maluku";"MALUKU";"";"Indonesia";"";"";"";"-5.6143739";"133.0187384";"https://maps.google.com/?cid=0x0:0xce090de0498b9244";""
"perumahan";"Komplek perumahan";"Rumah DCR";"7XXG+W79, Ohoiel, Kec. Kei Besar, Kabupaten Maluku Tenggara, Maluku";"Kabupaten Maluku Tenggara, Maluku";"MALUKU";"";"Indonesia";"";"";"";"-5.7002197";"132.9757465";"https://maps.google.com/?cid=0x0:0x17c7edc02f8f5df4";""
"perumahan";"Pembangunan Perumahan";"Kampung ohoiran";"8X9M+96V, Waur, Kec. Kei Besar, Kabupaten Maluku Tenggara, Maluku";"Kabupaten Maluku Tenggara, Maluku";"MALUKU";"";"Indonesia";"";"";"";"-5.6815092";"132.9830397";"https://maps.google.com/?cid=0x0:0x1d8d8b263fd04402";""
"perumahan";"Komplek perumahan";"Kampung kodok";"7WFV+WR3, Ohoiwait, Kec. Kei Besar, Kabupaten Maluku Tenggara, Maluku";"Kabupaten Maluku Tenggara, Maluku";"MALUKU";"";"Indonesia";"";"";"";"-5.7252414";"132.9445324";"https://maps.google.com/?cid=0x0:0xec961f34cd53989b";""
"perumahan";"Pembangunan Perumahan";"Ohoi Udar";"8XG5+J2M, Unnamed Road, Ohoilim, Kec. Kei Besar, Kabupaten Maluku Tenggara, Maluku";"Kabupaten Maluku Tenggara, Maluku";"MALUKU";"";"Indonesia";"";"";"";"-5.6732659";"132.9570231";"https://maps.google.com/?cid=0x0:0xb1be4f01feff4a14";""
"perumahan";"Komplek perumahan";"Lakesubun Watuar";"7WGV+88H, Ohoiwait, Kec. Kei Besar, Kabupaten Maluku Tenggara, Maluku";"Kabupaten Maluku Tenggara, Maluku";"MALUKU";"";"Indonesia";"";"";"";"-5.724587";"132.942718";"https://maps.google.com/?cid=0x0:0x5d1b936cc0a2c5ad";""
"perumahan";"Komplek perumahan";"Ohoi Karkarit";"8XQ7+RC2, Unnamed Road, Kec. Kei Besar, Kabupaten Maluku Tenggara, Maluku";"Kabupaten Maluku Tenggara, Maluku";"MALUKU";"";"Indonesia";"";"";"";"-5.660483";"132.963522";"https://maps.google.com/?cid=0x0:0xfc285b1292dab509";""
"perumahan";"perumahan";"BLOK M";"BLOK M, Waur, Kec. Kei Besar, Kabupaten Maluku Tenggara, Maluku";"Kabupaten Maluku Tenggara, Maluku";"MALUKU";"";"Indonesia";"";"";"";"-5.6815092";"132.9830397";"https://maps.google.com/?cid=0x0:0xfa13782bb696a8e1";""
"perumahan";"Pembangunan Perumahan";"OHOI FANGAMAS";"8XFP+V6R, Ohoi, fangamas, Kec. Kei Besar, Kabupaten Maluku Tenggara, Maluku";"Kabupaten Maluku Tenggara, Maluku";"MALUKU";"";"Indonesia";"";"";"";"-5.6752742";"132.9855155";"https://maps.google.com/?cid=0x0:0xb8c837ebe32efd49";""
"perumahan";"Komplek perumahan";"OHOI BOMBAY";"92P7+7M9 PULAU KEY BESAR, Elralang, Kec. Kei Besar, Kabupaten Maluku Tenggara, Maluku";"Kabupaten Maluku Tenggara, Maluku";"MALUKU";"";"Indonesia";"";"";"";"-5.6143466";"133.0142405";"https://maps.google.com/?cid=0x0:0x9f4fccb7210e3c5b";""
"perumahan";"Perumahan guru";"Desa harangur";"8W8W+78X, harangur, Kec. Kei Besar, Kabupaten Maluku Tenggara, Maluku";"Kabupaten Maluku Tenggara, Maluku";"MALUKU";"";"Indonesia";"";"";"";"-5.684243";"132.94585";"https://maps.google.com/?cid=0x0:0x53a3cf6cd8a0c256";""
"perumahan";"perumahan";"Kec. Kei Besar Sel.";"Kabupaten Maluku Tenggara, Maluku";"Kabupaten Maluku Tenggara, Maluku";"MALUKU";"";"Indonesia";"";"";"";"-5.8619353";"132.9222315";"https://maps.google.com/?cid=0x0:0x509d63fbc4e42f01";""
"perumahan";"Pembangunan Perumahan";"Desa Nerong";"6WCM+C2J, Nerong, Kec. Kei Besar Sel., Kabupaten Maluku Tenggara, Maluku";"Kabupaten Maluku Tenggara, Maluku";"MALUKU";"";"Indonesia";"";"";"";"-5.7789046";"132.9325208";"https://maps.google.com/?cid=0x0:0x10544131f2bd400f";""
"perumahan";"Komplek perumahan";"White House";"5X43+CC, Tutrean, Kec. Kei Besar Sel., Kabupaten Maluku Tenggara, Maluku";"Kabupaten Maluku Tenggara, Maluku";"MALUKU";"";"Indonesia";"";"";"";"-5.843981";"132.953559";"https://maps.google.com/?cid=0x0:0xc0dd77244ac734c5";""
"perumahan";"Pembangunan Perumahan";"Kamasan, Kei Besar";"3WH2+3QF, Kilwat, Kec. Kei Besar Sel., Kabupaten Maluku Tenggara, Maluku";"Kabupaten Maluku Tenggara, Maluku";"MALUKU";"";"Indonesia";"";"";"";"-5.9223051";"132.9019159";"https://maps.google.com/?cid=0x0:0x4f836e01c88da09e";""
"perumahan";"Pembangunan Perumahan";"Kompleks Ohoiretan";"5WFM+77H Tangga Cinta, Weduar, Kec. Kei Besar Sel., Kabupaten Maluku Tenggara, Maluku";"Kabupaten Maluku Tenggara, Maluku";"MALUKU";"";"Indonesia";"";"";"";"-5.8268086";"132.9332299";"https://maps.google.com/?cid=0x0:0x24eda4c4f1d708ef";""
"perumahan";"Pembangunan Perumahan";"Ohoi hako";"4VRR+C2, Feer, Kec. Kei Besar Sel., Kabupaten Maluku Tenggara, Maluku";"Kabupaten Maluku Tenggara, Maluku";"MALUKU";"";"Indonesia";"";"";"";"-5.8589963";"132.8901142";"https://maps.google.com/?cid=0x0:0x5e62eeb6ae9f452b";""
"perumahan";"perumahan";"Residence Saleh SR";"2VW6+FFW, Feer, Kec. Kei Besar Sel., Kabupaten Maluku Tenggara, Maluku";"Kabupaten Maluku Tenggara, Maluku";"MALUKU";"";"Indonesia";"";"";"";"-5.9533842";"132.8616712";"https://maps.google.com/?cid=0x0:0xc5b9515e1740e76";""
"perumahan";"Komplek perumahan";"Lorong Maut";"5WFR+VR9, Weduar, Kec. Kei Besar Sel., Kabupaten Maluku Tenggara, Maluku";"Kabupaten Maluku Tenggara, Maluku";"MALUKU";"";"Indonesia";"";"";"";"-5.8253393";"132.9421002";"https://maps.google.com/?cid=0x0:0x281169969ba3ee3a";""
"perumahan";"Komplek perumahan";"Ohoi Rahangiar KBSB";"2VR5+8VR, Unnamed Road, Kec. Kei Besar Sel., Kabupaten Maluku Tenggara, Maluku";"Kabupaten Maluku Tenggara, Maluku";"MALUKU";"";"Indonesia";"";"";"";"-5.9591484";"132.8596381";"https://maps.google.com/?cid=0x0:0x2ed8b718e66c984d";""
"perumahan";"Perhimpunan Pengembang Perumahan";"DESA FEER LAMA";"2VW6+FFW, Feer, Kec. Kei Besar Sel., Kabupaten Maluku Tenggara, Maluku";"Kabupaten Maluku Tenggara, Maluku";"MALUKU";"";"Indonesia";"";"";"";"-5.9529807";"132.8616303";"https://maps.google.com/?cid=0x0:0x754b6678d9b723f2";""
"perumahan";"Pembangunan Perumahan";"Kilwat (Kamasan)";"3VJX+6G7, Kilwat, Kec. Kei Besar Sel., Kabupaten Maluku Tenggara, Maluku";"Kabupaten Maluku Tenggara, Maluku";"MALUKU";"";"Indonesia";"";"";"";"-5.9194561";"132.8987816";"https://maps.google.com/?cid=0x0:0x3af55d5d804fafa1";""
"perumahan";"Pembangunan Perumahan";"OHOI NGAN";"2VC5+HCC, Barat, Langgiar Fer, Kec. Kei Besar Sel., Kabupaten Maluku Tenggara, Maluku";"Kabupaten Maluku Tenggara, Maluku";"MALUKU";"";"Indonesia";"";"";"";"-5.9781613";"132.8589373";"https://maps.google.com/?cid=0x0:0xd4b119a5ad7bb3b0";""
"perumahan";"perumahan";"HANTU SELATAN";"5WGR+22V, Weduar, Kec. Kei Besar Sel., Kabupaten Maluku Tenggara, Maluku";"Kabupaten Maluku Tenggara, Maluku";"MALUKU";"";"Indonesia";"";"";"";"-5.8244212";"132.9397223";"https://maps.google.com/?cid=0x0:0x78f9eabce886fe39";""
"perumahan";"Komplek perumahan";"Cia";"Weduar, Kec. Kei Besar Sel., Kabupaten Maluku Tenggara, Maluku";"Kabupaten Maluku Tenggara, Maluku";"MALUKU";"";"Indonesia";"";"";"";"-5.8233985";"132.9416567";"https://maps.google.com/?cid=0x0:0xbc84ca02b2ca4d0";""
"perumahan";"Komplek perumahan";"Rumah keluarga tanlaib";"5X43+GG, Tutrean, Kec. Kei Besar Sel., Kabupaten Maluku Tenggara, Maluku";"Kabupaten Maluku Tenggara, Maluku";"MALUKU";"";"Indonesia";"";"";"";"-5.8444451";"132.954647";"https://maps.google.com/?cid=0x0:0x35b4a14c95952bec";""
"perumahan";"Komplek perumahan";"My Home";"5WW5+QV9, Larat, Kec. Kei Besar Sel., Kabupaten Maluku Tenggara, Maluku";"Kabupaten Maluku Tenggara, Maluku";"MALUKU";"";"Indonesia";"";"";"";"-5.8030795";"132.909722";"https://maps.google.com/?cid=0x0:0x2ef03f54a6159a9e";""
"perumahan";"Komplek perumahan";"Balai ohoi larat";"5WW5+7Q9, Larat, Kec. Kei Besar Sel., Kabupaten Maluku Tenggara, Maluku";"Kabupaten Maluku Tenggara, Maluku";"MALUKU";"";"Indonesia";"";"";"";"-5.8043337";"132.909498";"https://maps.google.com/?cid=0x0:0x601cd316f81ba1d6";""
"perumahan";"Komplek perumahan";"Rumah Dinas guru ohoilean";"2VG6+CP8, Langgiar Fer, Kec. Kei Besar Sel., Kabupaten Maluku Tenggara, Maluku";"Kabupaten Maluku Tenggara, Maluku";"MALUKU";"";"Indonesia";"";"";"";"-5.9733502";"132.8625201";"https://maps.google.com/?cid=0x0:0x5f510e4d417c767c";""
"perumahan";"Komplek perumahan";"Dhora";"5WGR+5QP, Weduar, Kec. Kei Besar Sel., Kabupaten Maluku Tenggara, Maluku";"Kabupaten Maluku Tenggara, Maluku";"MALUKU";"";"Indonesia";"";"";"";"-5.8245324";"132.9419683";"https://maps.google.com/?cid=0x0:0x3686edf6ca26e4e3";""
"perumahan";"Pembangunan Perumahan";"Nesko.Rhn";"5WFR+VV6, Weduar, Kec. Kei Besar Sel., Kabupaten Maluku Tenggara, Maluku";"Kabupaten Maluku Tenggara, Maluku";"MALUKU";"";"Indonesia";"";"";"";"-5.825343";"132.9421533";"https://maps.google.com/?cid=0x0:0xb36d19aa304959d9";""
"perumahan";"Komplek perumahan";"Ohoi hoat";"4V2V+VM9, Sungai, Kec. Kei Besar Selatan Barat, Kabupaten Maluku Tenggara, Maluku";"Kabupaten Maluku Tenggara, Maluku";"MALUKU";"";"Indonesia";"";"";"";"-5.8978309";"132.8942354";"https://maps.google.com/?cid=0x0:0x5f812a9a2d0108e3";""
"perumahan";"Komplek perumahan";"Gudang Rumpat Laut";"4V5Q+J2Q, Sungai, Kec. Kei Besar Sel., Kabupaten Maluku Tenggara, Maluku";"Kabupaten Maluku Tenggara, Maluku";"MALUKU";"";"Indonesia";"";"";"";"-5.8902889";"132.8879228";"https://maps.google.com/?cid=0x0:0xc22b17daed445316";""
"perumahan";"perumahan";"Kec. Kei Besar Utara Tim.";"Kabupaten Maluku Tenggara, Maluku";"Kabupaten Maluku Tenggara, Maluku";"MALUKU";"";"Indonesia";"";"";"";"-5.4041794";"133.1561205";"https://maps.google.com/?cid=0x0:0x2b9a4c1f8a51bbdf";""
"perumahan";"Komplek perumahan";"KAMPUNG PALA";"H5W4+727, Banda Eli, Kec. Kei Besar Utara Tim., Kabupaten Maluku Tenggara, Maluku";"Kabupaten Maluku Tenggara, Maluku";"MALUKU";"";"Indonesia";"";"";"";"-5.4043498";"133.1550539";"https://maps.google.com/?cid=0x0:0x1347877faa2775a3";""
"perumahan";"Komplek perumahan";"Negeri Di Atas Awan";"H5V2+9CW, Banda Eli, Kec. Kei Besar Utara Tim., Kabupaten Maluku Tenggara, Maluku";"Kabupaten Maluku Tenggara, Maluku";"MALUKU";"";"Indonesia";"";"";"";"-5.4065079";"133.1510917";"https://maps.google.com/?cid=0x0:0xf491165551b1d5be";""
"perumahan";"Pembangunan Perumahan";"Banda Efruan";"H5C3+86, Banda Eli, Kec. Kei Besar Utara Tim., Kabupaten Maluku Tenggara, Maluku";"Kabupaten Maluku Tenggara, Maluku";"MALUKU";"";"Indonesia";"";"";"";"-5.4277136";"133.1540927";"https://maps.google.com/?cid=0x0:0x6752f01ca3ede01a";""
"perumahan";"Perhimpunan Pengembang Perumahan";"Hollay";"H5W4+7FJ, Hollay, Kec. Kei Besar Utara Tim., Kabupaten Maluku Tenggara, Maluku";"Kabupaten Maluku Tenggara, Maluku";"MALUKU";"";"Indonesia";"";"";"";"-5.4042932";"133.1561499";"https://maps.google.com/?cid=0x0:0x7db58d1283f39ce4";""
"perumahan";"Pembangunan Perumahan";"Kampung Banda Ui Jaya";"H5G3+RM3, Banda Eli, Kec. Kei Besar Utara Tim., Kabupaten Maluku Tenggara, Maluku";"Kabupaten Maluku Tenggara, Maluku";"MALUKU";"";"Indonesia";"";"";"";"-5.422997";"133.1541842";"https://maps.google.com/?cid=0x0:0x6c42201dedb2d2cd";""
"perumahan";"Pembangunan Perumahan";"Ohoifaruan";"G4JV+G7, Ohoifau, Kec. Kei Besar Utara Tim., Kabupaten Maluku Tenggara, Maluku";"Kabupaten Maluku Tenggara, Maluku";"MALUKU";"";"Indonesia";"";"";"";"-5.4686992";"133.1431731";"https://maps.google.com/?cid=0x0:0xbf962d0b04917f21";""
"perumahan";"Komplek perumahan";"Suku 80";"H5W4+VF, Banda Eli, Kec. Kei Besar Utara Tim., Kabupaten Maluku Tenggara, Maluku";"Kabupaten Maluku Tenggara, Maluku";"MALUKU";"";"Indonesia";"";"";"";"-5.4027841";"133.1561884";"https://maps.google.com/?cid=0x0:0x33b632f9de18d356";""
"perumahan";"Komplek perumahan";"Ohoi Fanwav";"H5V2+FCW, Banda Eli, Kec. Kei Besar Utara Tim., Kabupaten Maluku Tenggara, Maluku";"Kabupaten Maluku Tenggara, Maluku";"MALUKU";"";"Indonesia";"";"";"";"-5.4062647";"133.151084";"https://maps.google.com/?cid=0x0:0xe3c695f652aeec7";""
"perumahan";"Komplek perumahan";"ELWUAR'S BIG HOUSE";"J3MV+39, Ad Wearaur, Kei Besar Utara Barat, Kabupaten Maluku Tenggara, Maluku";"Kabupaten Maluku Tenggara, Maluku";"MALUKU";"";"Indonesia";"";"";"";"-5.3667776";"133.0924639";"https://maps.google.com/?cid=0x0:0xc46437da985028f3";""
"perumahan";"Kantor Pemda";"Desa Hollat";"F4M4+CPX, Hollat, Kec. Kei Besar Utara Tim., Kabupaten Maluku Tenggara, Maluku";"Kabupaten Maluku Tenggara, Maluku";"MALUKU";"";"Indonesia";"";"";"";"-5.5163953";"133.1068632";"https://maps.google.com/?cid=0x0:0xcc23721c27852908";""
"perumahan";"Komplek perumahan";"SIWAR";"H5M4+M3, Banda Eli, Kec. Kei Besar Utara Tim., Kabupaten Maluku Tenggara, Maluku";"Kabupaten Maluku Tenggara, Maluku";"MALUKU";"";"Indonesia";"";"";"";"-5.4157501";"133.155233";"https://maps.google.com/?cid=0x0:0x242ab794671e343e";""
"perumahan";"Komplek perumahan";"Gurmassa";"H5V3+MV3, Banda Eli, Kec. Kei Besar Utara Tim., Kabupaten Maluku Tenggara, Maluku";"Kabupaten Maluku Tenggara, Maluku";"MALUKU";"";"Indonesia";"";"";"";"-5.4058649";"133.1546625";"https://maps.google.com/?cid=0x0:0x9c71b90cfaf1c55e";""
"perumahan";"Komplek perumahan";"Rumah Saya";"F2JW+M2, Faa, Kei Besar Utara Barat, Kabupaten Maluku Tenggara, Maluku";"Kabupaten Maluku Tenggara, Maluku";"MALUKU";"";"Indonesia";"";"";"";"-5.5192261";"133.0447575";"https://maps.google.com/?cid=0x0:0xe7d7c411afdd86bb";""
"perumahan";"Pembangunan Perumahan";"TANJUNG LETAU";"H5G3+RM3, Banda Eli, Kec. Kei Besar Utara Tim., Kabupaten Maluku Tenggara, Maluku";"Kabupaten Maluku Tenggara, Maluku";"MALUKU";"";"Indonesia";"";"";"";"-5.423218";"133.154944";"https://maps.google.com/?cid=0x0:0x5af1b5aeb02af76c";""
"perumahan";"Pembangunan Perumahan";"Banda Ely";"H5W4+MH2, Jl. Kabupaten, Banda Eli, Kec. Kei Besar Utara Tim., Kabupaten Maluku Tenggara, Maluku";"Kabupaten Maluku Tenggara, Maluku";"MALUKU";"";"Indonesia";"";"";"";"-5.403366";"133.1564039";"https://maps.google.com/?cid=0x0:0xc3c22f01dccafa52";""
"perumahan";"Komplek perumahan";"Tua lewang";"H5G3+RM3, Banda Eli, Kec. Kei Besar Utara Tim., Kabupaten Maluku Tenggara, Maluku";"Kabupaten Maluku Tenggara, Maluku";"MALUKU";"";"Indonesia";"";"";"";"-5.422053";"133.154229";"https://maps.google.com/?cid=0x0:0xd2518daeecf21edf";""
"perumahan";"Pembangunan Perumahan";"OHOI NGURWALEK";"F2VW+V7, Faa, Kei Besar Utara Barat, Kabupaten Maluku Tenggara, Maluku";"Kabupaten Maluku Tenggara, Maluku";"MALUKU";"";"Indonesia";"";"";"";"-5.5060106";"133.0457308";"https://maps.google.com/?cid=0x0:0xc258d3246e83ace7";""
"perumahan";"Komplek perumahan";"Rumah Hambali";"H5G3+RM3, Banda Eli, Kec. Kei Besar Utara Tim., Kabupaten Maluku Tenggara, Maluku";"Kabupaten Maluku Tenggara, Maluku";"MALUKU";"";"Indonesia";"";"";"";"-5.4229667";"133.1537008";"https://maps.google.com/?cid=0x0:0xa27301cc7599af8d";""
"perumahan";"Komplek perumahan";"Ohoi Kilwair";"C4G6+F94, Jl. Kabupaten, Kilwair, Kec. Kei Besar Utara Tim., Kabupaten Maluku Tenggara, Maluku";"Kabupaten Maluku Tenggara, Maluku";"MALUKU";"";"Indonesia";"";"";"";"-5.5738709";"133.110946";"https://maps.google.com/?cid=0x0:0x4d8385b611f9d357";""
"perumahan";"Perhimpunan Pengembang Perumahan";"Forin Banda Ely";"J523+88, Banda Eli, Kec. Kei Besar Utara Tim., Kabupaten Maluku Tenggara, Maluku";"Kabupaten Maluku Tenggara, Maluku";"MALUKU";"";"Indonesia";"";"";"";"-5.399168";"133.1533128";"https://maps.google.com/?cid=0x0:0x6ba9c0295ea29ac7";""
"perumahan";"Komplek perumahan";"Keluarga Ujalei Takartutun";"H5W4+C27, Jl. Kabupaten, Banda Eli, Kec. Kei Besar Utara Tim., Kabupaten Maluku Tenggara, Maluku";"Kabupaten Maluku Tenggara, Maluku";"MALUKU";"";"Indonesia";"";"";"";"-5.403623";"133.155238";"https://maps.google.com/?cid=0x0:0x524bc6f2ca3a56a8";""
"perumahan";"perumahan";"Kec. Kei Kecil Tim.";"Kabupaten Maluku Tenggara, Maluku";"Kabupaten Maluku Tenggara, Maluku";"MALUKU";"";"Indonesia";"";"";"";"-5.8097466";"132.7772816";"https://maps.google.com/?cid=0x0:0x6aa8f793d559e5f5";""
"perumahan";"Perumahan";"RAFAEL R SETITIT";"5RF5+MW3, Unnamed Road, Raat, Kec. Kei Kecil Tim., Kabupaten Maluku Tenggara, Maluku";"Kabupaten Maluku Tenggara, Maluku";"MALUKU";"";"Indonesia";"";"";"";"-5.825867";"132.8098";"https://maps.google.com/?cid=0x0:0x6dbf3de18447a25a";""
"perumahan";"Pembangunan Perumahan";"Kawasan IzraeL";"5RF6+M47, Rumat, Kec. Kei Kecil Tim., Kabupaten Maluku Tenggara, Maluku";"Kabupaten Maluku Tenggara, Maluku";"MALUKU";"";"Indonesia";"";"";"";"-5.8258303";"132.8102838";"https://maps.google.com/?cid=0x0:0xcdb5ac2533a19116";""
"perumahan";"Perhimpunan Pengembang Perumahan";"Wain";"5QQG+RPG, Wain, Kec. Kei Kecil Tim., Kabupaten Maluku Tenggara, Maluku";"Kabupaten Maluku Tenggara, Maluku";"MALUKU";"";"Indonesia";"";"";"";"-5.8104428";"132.7768131";"https://maps.google.com/?cid=0x0:0x42716f376a3cbe2c";""
"perumahan";"Komplek perumahan";"Mastur lama";"4Q7V+G4W, Mastur, Kec. Kei Kecil Timur Selatan, Kabupaten Maluku Tenggara, Maluku";"Kabupaten Maluku Tenggara, Maluku";"MALUKU";"";"Indonesia";"";"";"";"-5.8861476";"132.7928235";"https://maps.google.com/?cid=0x0:0xeef52f6e561ea341";""
"perumahan";"Perhimpunan Pengembang Perumahan";"Johan Ufie";"4QH5+8M9, Ohoinol, Kec. Kei Kecil Tim., Kabupaten Maluku Tenggara, Maluku";"Kabupaten Maluku Tenggara, Maluku";"MALUKU";"";"Indonesia";" 082398959376";"";"";"-5.871414";"132.7590878";"https://maps.google.com/?cid=0x0:0xf514b6f8f04bacd3";""
"perumahan";"Pembangunan Perumahan";"Abdul rahman setitit";"5R66+JP, Abean, Kec. Kei Kecil Tim., Kabupaten Maluku Tenggara, Maluku";"Kabupaten Maluku Tenggara, Maluku";"MALUKU";"";"Indonesia";"";"";"";"-5.8381964";"132.8118951";"https://maps.google.com/?cid=0x0:0x87d8799f715654c3";""
"perumahan";"Komplek perumahan";"ROSALINA LETTY";"6R42+G9M, Rewav, Kec. Kei Kecil Tim., Kabupaten Maluku Tenggara, Maluku";"Kabupaten Maluku Tenggara, Maluku";"MALUKU";"";"Indonesia";"";"";"";"-5.7936714";"132.8009133";"https://maps.google.com/?cid=0x0:0x54e4746281ea1257";""
"perumahan";"Komplek perumahan";"Kompes mandiri";"3QCJ+HR5, Jl. Kabupaten, Ngursoin, Kec. Kei Kecil Timur Selatan, Kabupaten Maluku Tenggara, Maluku";"Kabupaten Maluku Tenggara, Maluku";"MALUKU";"";"Indonesia";"";"";"";"-5.9286013";"132.7821112";"https://maps.google.com/?cid=0x0:0xc10809309cd3bcec";""
"perumahan";"Komplek perumahan";"Mabes jeky Foar";"6R53+JM, Rewav, Kec. Kei Kecil Tim., Kabupaten Maluku Tenggara, Maluku";"Kabupaten Maluku Tenggara, Maluku";"MALUKU";"";"Indonesia";"";"";"";"-5.7909842";"132.8041982";"https://maps.google.com/?cid=0x0:0x273388574fbdd071";""
"perumahan";"Pembangunan Perumahan";"MEMET";"5QV9+67, Wain, Kec. Kei Kecil Tim., Kabupaten Maluku Tenggara, Maluku";"Kabupaten Maluku Tenggara, Maluku";"MALUKU";"";"Indonesia";"";"";"";"-5.806988";"132.768166";"https://maps.google.com/?cid=0x0:0xbcdcf0c06dbc8f4d";""
"perumahan";"perumahan";"Nabila Home";"5QVG+5XX, Wain, Kec. Kei Kecil Tim., Kabupaten Maluku Tenggara, Maluku";"Kabupaten Maluku Tenggara, Maluku";"MALUKU";"";"Indonesia";"";"";"";"-5.809277";"132.776439";"https://maps.google.com/?cid=0x0:0x7db20f8cc42183ab";""
"perumahan";"Komplek perumahan";"Republica Of Rumaat Elite";"5RF5+PGH, Rumat, Kec. Kei Kecil Tim., Kabupaten Maluku Tenggara, Maluku";"Kabupaten Maluku Tenggara, Maluku";"MALUKU";"";"Indonesia";"";"";"";"-5.8256833";"132.8088645";"https://maps.google.com/?cid=0x0:0x35de7f59ccff57e7";""
"perumahan";"Komplek perumahan";"Kompleks GAPURA";"6R42+G9M, Rewav, Kec. Kei Kecil Tim., Kabupaten Maluku Tenggara, Maluku";"Kabupaten Maluku Tenggara, Maluku";"MALUKU";"";"Indonesia";"";"";"";"-5.7936574";"132.8009181";"https://maps.google.com/?cid=0x0:0x9cbf1cb8d8d95664";""
"perumahan";"Perhimpunan Pengembang Perumahan";"Dedi yusuf setitit";"5R76+CPF, Raat, Kec. Kei Kecil Tim., Kabupaten Maluku Tenggara, Maluku";"Kabupaten Maluku Tenggara, Maluku";"MALUKU";"";"Indonesia";"";"";"";"-5.8363142";"132.8106841";"https://maps.google.com/?cid=0x0:0x8f0a7f29de5dce37";""
"perumahan";"perumahan";"RUMAH LUIS KIRWELAKUBUN";"5RG6+24V, Rumat, Kec. Kei Kecil Tim., Kabupaten Maluku Tenggara, Maluku";"Kabupaten Maluku Tenggara, Maluku";"MALUKU";"";"Indonesia";"";"";"";"-5.8248754";"132.8102824";"https://maps.google.com/?cid=0x0:0x9c9e88d514a811dd";""
"perumahan";"Pembangunan Perumahan";"Hasan setitit";"5R76+CPF, Raat, Kec. Kei Kecil Tim., Kabupaten Maluku Tenggara, Maluku";"Kabupaten Maluku Tenggara, Maluku";"MALUKU";"";"Indonesia";"";"";"";"-5.836436";"132.8109023";"https://maps.google.com/?cid=0x0:0x3fe53328cb58b6cd";""
"perumahan";"Komplek perumahan";"Rumah wilem wemaf";"4RW5+GRF, Abean, Kec. Kei Kecil Tim., Kabupaten Maluku Tenggara, Maluku";"Kabupaten Maluku Tenggara, Maluku";"MALUKU";"";"Indonesia";"";"";"";"-5.8536875";"132.8095469";"https://maps.google.com/?cid=0x0:0x586ef8526d88dff1";""
"perumahan";"Komplek perumahan";"Elis Home";"3QGM+CW, Ngursoin, Kec. Kei Kecil Timur Selatan, Kabupaten Maluku Tenggara, Maluku";"Kabupaten Maluku Tenggara, Maluku";"MALUKU";"";"Indonesia";"";"";"";"-5.9232999";"132.7854484";"https://maps.google.com/?cid=0x0:0x904acb0389467ff8";""
"perumahan";"Komplek perumahan";"Rahan Rusbal";"5RF5+MW3, Raat, Kec. Kei Kecil Tim., Kabupaten Maluku Tenggara, Maluku";"Kabupaten Maluku Tenggara, Maluku";"MALUKU";"";"Indonesia";"";"";"";"-5.8258967";"132.8094148";"https://maps.google.com/?cid=0x0:0xefc6612754eba3f7";""
"perumahan";"Komplek perumahan";"Rumah tama seknun";"3QCJ+HW5, Ngursoin, Kec. Kei Kecil Timur Selatan, Kabupaten Maluku Tenggara, Maluku";"Kabupaten Maluku Tenggara, Maluku";"MALUKU";"";"Indonesia";"";"";"";"-5.9286083";"132.7823493";"https://maps.google.com/?cid=0x0:0x24ea1b8210be7f92";""
"perumahan";"Komplek perumahan";"IVANOX";"4QJ5+9M9, Ohoinol, Kec. Kei Kecil Tim., Kabupaten Maluku Tenggara, Maluku";"Kabupaten Maluku Tenggara, Maluku";"MALUKU";"";"Indonesia";"";"";"";"-5.8690867";"132.7592206";"https://maps.google.com/?cid=0x0:0x2a6c9c7559f6e680";""
"perumahan";"perumahan";"Kec. Kei Kecil Bar.";"Kabupaten Maluku Tenggara, Maluku";"Kabupaten Maluku Tenggara, Maluku";"MALUKU";"";"Indonesia";"";"";"";"-5.8426357";"132.6882652";"https://maps.google.com/?cid=0x0:0xb8ee628c1e11e302";""
"perumahan";"Otoritas Perumahan";"Perumahan Guru";"5H9V+7GX, Warbal, Kec. Kei Kecil Bar., Kabupaten Maluku Tenggara, Maluku";"Kabupaten Maluku Tenggara, Maluku";"MALUKU";"";"Indonesia";"";"";"";"-5.8313355";"132.5942402";"https://maps.google.com/?cid=0x0:0xc07d38258f3698dc";""
"perumahan";"perumahan";"Rumah sopi";"3MPX+2HH, Ohoidertutu, Kec. Kei Kecil Bar., Kabupaten Maluku Tenggara, Maluku";"Kabupaten Maluku Tenggara, Maluku";"MALUKU";"";"Indonesia";"";"";"";"-5.914948";"132.6989808";"https://maps.google.com/?cid=0x0:0xedbac5d0ffcb1b9a";""
"perumahan";"Pembangunan Perumahan";"Home Selfi Cantik";"3MPX+X6C, Ohoidertutu, Kec. Kei Kecil Bar., Kabupaten Maluku Tenggara, Maluku";"Kabupaten Maluku Tenggara, Maluku";"MALUKU";"";"Indonesia";"";"";"";"-5.912263";"132.6970627";"https://maps.google.com/?cid=0x0:0xef7dc89e4a1db4ca";""
"perumahan";"Komplek perumahan";"Komplek L12";"6M2J+9X8, Wab, Kec. Kei Kecil, Kabupaten Maluku Tenggara, Maluku";"Kabupaten Maluku Tenggara, Maluku";"MALUKU";"";"Indonesia";"";"";"";"-5.8002898";"132.6820982";"https://maps.google.com/?cid=0x0:0x33926a7d1402ffaf";""
"perumahan";"Komplek perumahan";"Dik Riko Petrus Renyaan";"5M6R+QF, Ohoira, Kec. Kei Kecil Bar., Kabupaten Maluku Tenggara, Maluku";"Kabupaten Maluku Tenggara, Maluku";"MALUKU";"";"Indonesia";"";"";"";"-5.8378045";"132.6907072";"https://maps.google.com/?cid=0x0:0x723b9e6f3a6560f5";""
"perumahan";"Dokter";"Perumahan Puskesmas Ohoira";"Ohoiren, Kec. Kei Kecil Bar., Kabupaten Maluku Tenggara, Maluku";"Kabupaten Maluku Tenggara, Maluku";"MALUKU";"";"Indonesia";"";"";"";"-5.8453143";"132.6848878";"https://maps.google.com/?cid=0x0:0xc6431d4e6e2bd8d6";""
"perumahan";"Komplek perumahan";"D . C";"5M6R+QF, Ohoira, Kec. Kei Kecil Bar., Kabupaten Maluku Tenggara, Maluku";"Kabupaten Maluku Tenggara, Maluku";"MALUKU";"";"Indonesia";"";"";"";"-5.8373542";"132.6914606";"https://maps.google.com/?cid=0x0:0xb226a4f38f971863";""
"perumahan";"Komplek perumahan";"Sevav Ratut";"3PF6+6G, Ohoidertutu, Kec. Kei Kecil Bar., Kabupaten Maluku Tenggara, Maluku";"Kabupaten Maluku Tenggara, Maluku";"MALUKU";"";"Indonesia";"";"";"";"-5.9268456";"132.7113115";"https://maps.google.com/?cid=0x0:0x2d02c490cd0d31d3";""
"perumahan";"Perumahan";"Rumah Tua Kel.Teniwut";"3MPW+CM5, Ohoidertutu, Kec. Kei Kecil Bar., Kabupaten Maluku Tenggara, Maluku";"Kabupaten Maluku Tenggara, Maluku";"MALUKU";"";"Indonesia";"";"";"";"-5.9139875";"132.6967344";"https://maps.google.com/?cid=0x0:0xdc65b1ce2a91dd45";""
"perumahan";"Komplek perumahan";"Rumah Lala";"3MQX+FM6, Ohoidertutu, Kec. Kei Kecil Bar., Kabupaten Maluku Tenggara, Maluku";"Kabupaten Maluku Tenggara, Maluku";"MALUKU";"";"Indonesia";"";"";"";"-5.911474";"132.699063";"https://maps.google.com/?cid=0x0:0xe26220fd08fe2e3e";""
"perumahan";"Komplek perumahan";"Kel besar Farawowan Wearfait Desa Ohoiren";"4MPP+X4, Somlain, Kec. Kei Kecil Bar., Kabupaten Maluku Tenggara, Maluku";"Kabupaten Maluku Tenggara, Maluku";"MALUKU";"";"Indonesia";"";"";"";"-5.862545";"132.685254";"https://maps.google.com/?cid=0x0:0x93ed157a6cee5221";""
"perumahan";"Komplek perumahan";"Rayy home";"5M3M+C6P, Ohoiren, Kec. Kei Kecil Bar., Kabupaten Maluku Tenggara, Maluku";"Kabupaten Maluku Tenggara, Maluku";"MALUKU";"";"Indonesia";"";"";"";"-5.847515";"132.683849";"https://maps.google.com/?cid=0x0:0x3d12e31367e34726";""
"perumahan";"Komplek perumahan";"Rumah Ngabalin putra";"3MHX+7FQ, Ohoidertutu, Kec. Kei Kecil Bar., Kabupaten Maluku Tenggara, Maluku";"Kabupaten Maluku Tenggara, Maluku";"MALUKU";"";"Indonesia";"";"";"";"-5.9217959";"132.698737";"https://maps.google.com/?cid=0x0:0x9654a53ed1eac51c";""
"perumahan";"Komplek perumahan";"Ridwan home";"6M2P+J5J, Wab, Kec. Kei Kecil, Kabupaten Maluku Tenggara, Maluku";"Kabupaten Maluku Tenggara, Maluku";"MALUKU";"";"Indonesia";"";"";"";"-5.7991235";"132.6848815";"https://maps.google.com/?cid=0x0:0x1d7e190e13c5bf78";""
"perumahan";"Komplek perumahan";"Rumah Basry";"3P85+278, Ohoidertutu, Kec. Kei Kecil Bar., Kabupaten Maluku Tenggara, Maluku";"Kabupaten Maluku Tenggara, Maluku";"MALUKU";"";"Indonesia";"";"";"";"-5.9349714";"132.708216";"https://maps.google.com/?cid=0x0:0xd11fca12994e228d";""
"perumahan";"Komplek perumahan";"king Mangrib";"3MWH+PMP, Madwaer, Kec. Kei Kecil Bar., Kabupaten Maluku Tenggara, Maluku";"Kabupaten Maluku Tenggara, Maluku";"MALUKU";"";"Indonesia";"";"";"";"-5.9031506";"132.6791921";"https://maps.google.com/?cid=0x0:0xdde43500d395f468";""
"perumahan";"Pembangunan Perumahan";"Wab Arso";"5MRX+JVV, Jl. Kabupaten, Barat, Wab, Kec. Kei Kecil, Kabupaten Maluku Tenggara, Maluku";"Kabupaten Maluku Tenggara, Maluku";"MALUKU";"";"Indonesia";"";"";"";"-5.8083976";"132.6996604";"https://maps.google.com/?cid=0x0:0x2cd29f96d3fe0da7";""
"perumahan";"Komplek perumahan";"Rumah Nola-Bella";"3MPX+57W, Ohoidertutu, Kec. Kei Kecil Bar., Kabupaten Maluku Tenggara, Maluku";"Kabupaten Maluku Tenggara, Maluku";"MALUKU";"";"Indonesia";"";"";"";"-5.9149286";"132.69896";"https://maps.google.com/?cid=0x0:0x3d11faa6bb03d999";""
"perumahan";"Pembangunan Perumahan";"RYM";"7M2V+XX, Dian, Kec. Kei Kecil, Kabupaten Maluku Tenggara, Maluku";"Kabupaten Maluku Tenggara, Maluku";"MALUKU";"";"Indonesia";"";"";"";"-5.7486536";"132.6947429";"https://maps.google.com/?cid=0x0:0x872f14a8c2b37c9a";""
"perumahan";"Pembangunan Perumahan";"Ohoi somlain";"4MPF+Q8, Somlain, Kec. Kei Kecil Bar., Kabupaten Maluku Tenggara, Maluku";"Kabupaten Maluku Tenggara, Maluku";"MALUKU";"";"Indonesia";"";"";"";"-5.8630589";"132.6732885";"https://maps.google.com/?cid=0x0:0x4e858f31406b7803";""
"perumahan";"Pembangunan Perumahan";"Juan Renyaan";"5M5Q+37G, Ohoiren, Kec. Kei Kecil Bar., Kabupaten Maluku Tenggara, Maluku";"Kabupaten Maluku Tenggara, Maluku";"MALUKU";"";"Indonesia";"";"";"";"-5.8411055";"132.6883234";"https://maps.google.com/?cid=0x0:0x66c25d0a8167514";""
"perumahan";"perumahan";"Maluku 97611";"Fiditan, Kec. Pulau Dullah Utara, Kota Tual, Maluku";"Kota Tual, Maluku";"MALUKU";"";"Indonesia";"";"";"";"-5.6405597";"132.7437118";"https://maps.google.com/?cid=0x0:0x3f6a1cf664874ad3";""
"perumahan";"Komplek perumahan";"Rumah TOPAN SELAYAR";"Kompleks, Kiom Bawah, Fiditan, South Dullah Island, Tual City, Maluku";"Kota Tual, Maluku";"MALUKU";"";"Indonesia";"";"";"";"-5.6402627";"132.7426454";"https://maps.google.com/?cid=0x0:0x5ea375fdef2d6c33";""
"perumahan";"Komplek perumahan";"Burhan home";"Kel. Ketsoblak, Warhir RT 02, Pulau Dullah Sel., Kota Tual, Maluku 97611";"Warhir RT 02, Pulau Dullah Sel., Kota Tual";"MALUKU";"97611";"Indonesia";"";"";"";"-5.6405597";"132.7437118";"https://maps.google.com/?cid=0x0:0x8b6ae60bd8234324";""
"perumahan";"Komplek perumahan";"KIOM BAWA";"9P5V+G6V, Fiditan, Kec. Pulau Dullah Utara, Kota Tual, Maluku";"Kota Tual, Maluku";"MALUKU";"";"Indonesia";"";"";"";"-5.641144";"132.7430368";"https://maps.google.com/?cid=0x0:0xe6fb8980309babc1";""
"perumahan";"Komplek perumahan";"AHMAD DIFINUBUN";"9P6V+42R, Jl. Usman Matdoan, Fiditan, Kec. Pulau Dullah Utara, Kota Tual, Maluku";"Kota Tual, Maluku";"MALUKU";"";"Indonesia";"";"";"";"-5.639298";"132.7427206";"https://maps.google.com/?cid=0x0:0x10e0972e73b4a146";""
"perumahan";"Komplek perumahan";"HK Group";"9P5V+V78, Fiditan, Kec. Pulau Dullah Utara, Kota Tual, Maluku";"Kota Tual, Maluku";"MALUKU";"";"Indonesia";"";"";"";"-5.6403509";"132.743234";"https://maps.google.com/?cid=0x0:0xb40235a01bf32b52";""
"perumahan";"Perumahan";"Anggun Rahawarin";"9P5V+WC3, Fiditan, Kec. Pulau Dullah Utara, Kota Tual, Maluku";"Kota Tual, Maluku";"MALUKU";"";"Indonesia";"";"";"";"-5.640225";"132.7435408";"https://maps.google.com/?cid=0x0:0x450d5106a8cd6d86";""
"perumahan";"Komplek perumahan";"SITI ZAKIA BUGIS";"9P6V+42W, Jl. Usman Matdoan, Fiditan, Kec. Pulau Dullah Utara, Kota Tual, Maluku";"Kota Tual, Maluku";"MALUKU";"";"Indonesia";"";"";"";"-5.6396116";"132.742618";"https://maps.google.com/?cid=0x0:0x39777da2978e9dae";""
"perumahan";"Rumah Kaca";"Rumahnya M.kadafi Rahakbau";"9P5R+QRM, Fiditan, Kec. Pulau Dullah Utara, Kota Tual, Maluku";"Kota Tual, Maluku";"MALUKU";"";"Indonesia";"";"";"";"-5.6405374";"132.7420576";"https://maps.google.com/?cid=0x0:0xe786dd0ac133177c";""
"perumahan";"Servis Komputer";"Rental Alif Komputer";"9P6V+79W, Jln. Moh. Amir, Tamher Kiom, Pulau Dullah Sel., Kota Tual, Maluku";"Kota Tual, Maluku";"MALUKU";"";"Indonesia";"";"";"";"-5.6392642";"132.7434459";"https://maps.google.com/?cid=0x0:0x6eb6650430c40540";""
"perumahan";"Rumah Makan";"Restauran";"Jl.Mis Raudha, Fiditan, Kec. Pulau Dullah Utara, Kota Tual, Maluku 97611";"Fiditan, Kec. Pulau Dullah Utara, Kota Tual";"MALUKU";"97611";"Indonesia";" 085243534465";"";"";"-5.6405597";"132.7437118";"https://maps.google.com/?cid=0x0:0x6ccd36f54c9aaa00";""
"perumahan";"perumahan";"Maluku 97611";"Fiditan, Kec. Pulau Dullah Utara, Kota Tual, Maluku";"Kota Tual, Maluku";"MALUKU";"";"Indonesia";"";"";"";"-5.6405597";"132.7437118";"https://maps.google.com/?cid=0x0:0x3f6a1cf664874ad3";""
"perumahan";"Komplek perumahan";"Rumah TOPAN SELAYAR";"Kompleks, Kiom Bawah, Fiditan, South Dullah Island, Tual City, Maluku";"Kota Tual, Maluku";"MALUKU";"";"Indonesia";"";"";"";"-5.6402627";"132.7426454";"https://maps.google.com/?cid=0x0:0x5ea375fdef2d6c33";""
"perumahan";"Komplek perumahan";"Burhan home";"Kel. Ketsoblak, Warhir RT 02, Pulau Dullah Sel., Kota Tual, Maluku 97611";"Warhir RT 02, Pulau Dullah Sel., Kota Tual";"MALUKU";"97611";"Indonesia";"";"";"";"-5.6405597";"132.7437118";"https://maps.google.com/?cid=0x0:0x8b6ae60bd8234324";""
"perumahan";"Perumahan";"Anggun Rahawarin";"9P5V+WC3, Fiditan, Kec. Pulau Dullah Utara, Kota Tual, Maluku";"Kota Tual, Maluku";"MALUKU";"";"Indonesia";"";"";"";"-5.640225";"132.7435408";"https://maps.google.com/?cid=0x0:0x450d5106a8cd6d86";""
"perumahan";"Komplek perumahan";"KIOM BAWA";"9P5V+G6V, Fiditan, Kec. Pulau Dullah Utara, Kota Tual, Maluku";"Kota Tual, Maluku";"MALUKU";"";"Indonesia";"";"";"";"-5.641144";"132.7430368";"https://maps.google.com/?cid=0x0:0xe6fb8980309babc1";""
"perumahan";"Komplek perumahan";"HK Group";"9P5V+V78, Fiditan, Kec. Pulau Dullah Utara, Kota Tual, Maluku";"Kota Tual, Maluku";"MALUKU";"";"Indonesia";"";"";"";"-5.6403509";"132.743234";"https://maps.google.com/?cid=0x0:0xb40235a01bf32b52";""
"perumahan";"Komplek perumahan";"SITI ZAKIA BUGIS";"9P6V+42W, Jl. Usman Matdoan, Fiditan, Kec. Pulau Dullah Utara, Kota Tual, Maluku";"Kota Tual, Maluku";"MALUKU";"";"Indonesia";"";"";"";"-5.6396116";"132.742618";"https://maps.google.com/?cid=0x0:0x39777da2978e9dae";""
"perumahan";"Komplek perumahan";"AHMAD DIFINUBUN";"9P6V+42R, Jl. Usman Matdoan, Fiditan, Kec. Pulau Dullah Utara, Kota Tual, Maluku";"Kota Tual, Maluku";"MALUKU";"";"Indonesia";"";"";"";"-5.639298";"132.7427206";"https://maps.google.com/?cid=0x0:0x10e0972e73b4a146";""
"perumahan";"perumahan";"Kec. Hoat Sorbay";"Kabupaten Maluku Tenggara, Maluku";"Kabupaten Maluku Tenggara, Maluku";"MALUKU";"";"Indonesia";"";"";"";"-5.7625705";"132.7020733";"https://maps.google.com/?cid=0x0:0x34afb92b49352bf1";""
"perumahan";"Komplek perumahan";"Ohoi lean";"6MQF+JW, Tetoat, Kec. Hoat Sorbay, Kabupaten Maluku Tenggara, Maluku";"Kabupaten Maluku Tenggara, Maluku";"MALUKU";"";"Indonesia";"";"";"";"-5.7609955";"132.6747929";"https://maps.google.com/?cid=0x0:0x479ec04a640db145";""
"perumahan";"Komplek perumahan";"ONGKI RENYAAN";"6PP2+8H, Letvuan, Kec. Hoat Sorbay, Kabupaten Maluku Tenggara, Maluku";"Kabupaten Maluku Tenggara, Maluku";"MALUKU";"";"Indonesia";" 081240281565";"";"";"-5.7641875";"132.7014375";"https://maps.google.com/?cid=0x0:0x3db5b9dd5d3af5f7";""
"perumahan";"Pembangunan Perumahan";"Kini sirken";"6P73+28R, Evu, Kec. Hoat Sorbay, Kabupaten Maluku Tenggara, Maluku";"Kabupaten Maluku Tenggara, Maluku";"MALUKU";"";"Indonesia";"";"";"";"-5.78686";"132.703578";"https://maps.google.com/?cid=0x0:0x69bc17632165e209";""
"perumahan";"Komplek perumahan";"Jebin slarmanat";"6M2M+FCJ, Wab, Kec. Hoat Sorbay, Kabupaten Maluku Tenggara, Maluku";"Kabupaten Maluku Tenggara, Maluku";"MALUKU";"";"Indonesia";"";"";"";"-5.79879";"132.6835214";"https://maps.google.com/?cid=0x0:0x7f3404b290e64e20";""
"perumahan";"Kantor Pemerintah";"Komplex MBS Maluku Tenggara";"6PP2+6Q9, Unnamed Road, Letvuan, Kec. Hoat Sorbay, Kabupaten Maluku Tenggara, Maluku";"Kabupaten Maluku Tenggara, Maluku";"MALUKU";"";"Indonesia";"";"";"";"-5.7644562";"132.7019738";"https://maps.google.com/?cid=0x0:0x92149fbf0681dd1f";""
"perumahan";"Komplek perumahan";"Fika";"5MRR+X2G, Wab Watngil, Kec. Hoat Sorbay, Kabupaten Maluku Tenggara, Maluku";"Kabupaten Maluku Tenggara, Maluku";"MALUKU";"";"Indonesia";"";"";"";"-5.8075701";"132.6900839";"https://maps.google.com/?cid=0x0:0x1614f226be46a937";""
"perumahan";"Komplek perumahan";"G S Home";"5MRR+X4V, Wab, Kec. Hoat Sorbay, Kabupaten Maluku Tenggara, Maluku";"Kabupaten Maluku Tenggara, Maluku";"MALUKU";"";"Indonesia";"";"";"";"-5.8075248";"132.6902925";"https://maps.google.com/?cid=0x0:0x62afaa75e92e2f0e";""
"perumahan";"Komplek perumahan";"Oϻ〆PAPA Home";"6M2J+CJR, Wab, Kec. Hoat Sorbay, Kabupaten Maluku Tenggara, Maluku 97621";"Wab, Kec. Hoat Sorbay, Kabupaten Maluku Tenggara";"MALUKU";"97621";"Indonesia";"";"";"";"-5.798878";"132.6815187";"https://maps.google.com/?cid=0x0:0xa38fd2688a71d4c3";""
"perumahan";"Komplek perumahan";"Rumah Kilvo";"Letvuan, Kec. Hoat Sorbay, Kabupaten Maluku Tenggara, Maluku";"Kabupaten Maluku Tenggara, Maluku";"MALUKU";"";"Indonesia";"";"";"";"-5.7628009";"132.7008094";"https://maps.google.com/?cid=0x0:0x438d11d68d8dc6a8";""
"perumahan";"Komplek perumahan";"Desa ngursit";"6MWF+PM, Tetoat, Kec. Hoat Sorbay, Kabupaten Maluku Tenggara, Maluku";"Kabupaten Maluku Tenggara, Maluku";"MALUKU";"";"Indonesia";"";"";"";"-5.7532184";"132.6741711";"https://maps.google.com/?cid=0x0:0x741e7b9d0a58d5c6";""
"perumahan";"Komplek perumahan";"Rumah Aull";"6MXJ+GMP, Tetoat, Kec. Hoat Sorbay, Kabupaten Maluku Tenggara, Maluku";"Kabupaten Maluku Tenggara, Maluku";"MALUKU";"";"Indonesia";"";"";"";"-5.7511548";"132.6817094";"https://maps.google.com/?cid=0x0:0x1d6862c22e3c50d6";""
"perumahan";"Komplek perumahan";"Zhiro official";"6M2J+VQW, Wab, Kec. Kei Kecil, Kabupaten Maluku Tenggara, Maluku";"Kabupaten Maluku Tenggara, Maluku";"MALUKU";"";"Indonesia";"";"";"";"-5.7977549";"132.6819518";"https://maps.google.com/?cid=0x0:0x6eae844a818ccd89";""
"perumahan";"Perumahan";"El Kei";"6PP2+R3, Letvuan, Kec. Hoat Sorbay, Kabupaten Maluku Tenggara, Maluku";"Kabupaten Maluku Tenggara, Maluku";"MALUKU";"";"Indonesia";"";"";"";"-5.7630188";"132.7002358";"https://maps.google.com/?cid=0x0:0xf9133177ab89ecdc";""
"perumahan";"Komplek perumahan";"Home reyn";"6PM2+WJ5, Jln. Tubtut, Ohoi, Letvuan, Kec. Hoat Sorbay, Kabupaten Maluku Tenggara, Maluku 97611";"Jln. Tubtut, Ohoi, Letvuan, Kec. Hoat Sorbay, Kabupaten Maluku Tenggara";"MALUKU";"97611";"Indonesia";"";"";"";"-5.7651583";"132.7018307";"https://maps.google.com/?cid=0x0:0xefa15f3ae6001c69";""
"perumahan";"Komplek perumahan";"GENLET";"6P63+CMJ, Evu, Kec. Hoat Sorbay, Kabupaten Maluku Tenggara, Maluku";"Kabupaten Maluku Tenggara, Maluku";"MALUKU";"";"Indonesia";"";"";"";"-5.7888296";"132.7041544";"https://maps.google.com/?cid=0x0:0xbb57c11b77784d98";""
"perumahan";"Komplek perumahan";"RUMAH APEL";"6PJ4+Q4, Letvuan, Kec. Hoat Sorbay, Kabupaten Maluku Tenggara, Maluku";"Kabupaten Maluku Tenggara, Maluku";"MALUKU";"";"Indonesia";"";"";"";"-5.7680258";"132.7053685";"https://maps.google.com/?cid=0x0:0x536e16dd67242b2f";""
"perumahan";"Komplek perumahan";"Kompleks Gapero";"6M2V+F5W, Wab, Kec. Hoat Sorbay, Kabupaten Maluku Tenggara, Maluku";"Kabupaten Maluku Tenggara, Maluku";"MALUKU";"";"Indonesia";"";"";"";"-5.7987517";"132.6929448";"https://maps.google.com/?cid=0x0:0xf51a36a858aca661";""
"perumahan";"Komplek perumahan";"MARKAS BESAR KNH";"6PP3+4GF, Unnamed Road, Letvuan, Kec. Hoat Sorbay, Kabupaten Maluku Tenggara, Maluku";"Kabupaten Maluku Tenggara, Maluku";"MALUKU";"";"Indonesia";"";"";"";"-5.7646801";"132.7038061";"https://maps.google.com/?cid=0x0:0x5b3c890f562a1630";""
"perumahan";"Komplek perumahan";"Markas Mas Ono";"6P72+CC9, Unnamed Road, Wab, Kec. Hoat Sorbay, Kabupaten Maluku Tenggara, Maluku";"Kabupaten Maluku Tenggara, Maluku";"MALUKU";"";"Indonesia";"";"";"";"-5.7864507";"132.7011142";"https://maps.google.com/?cid=0x0:0xf316e18e2688c9a2";""
"perumahan";"Komplek perumahan";"Fhilyoo Home";"6M2J+JG9, Wab, Kec. Hoat Sorbay, Kabupaten Maluku Tenggara, Maluku";"Kabupaten Maluku Tenggara, Maluku";"MALUKU";"";"Indonesia";"";"";"";"-5.798456";"132.6813718";"https://maps.google.com/?cid=0x0:0xb139f1b8dc191f54";""
"perumahan";"perumahan";"Kei Besar Utara Barat";"Kabupaten Maluku Tenggara, Maluku";"Kabupaten Maluku Tenggara, Maluku";"MALUKU";"";"Indonesia";"";"";"";"-5.4225384";"133.0874599";"https://maps.google.com/?cid=0x0:0xf7c7402415611fa6";""
"perumahan";"Komplek perumahan";"ELWUAR'S BIG HOUSE";"J3MV+39, Ad Wearaur, Kei Besar Utara Barat, Kabupaten Maluku Tenggara, Maluku";"Kabupaten Maluku Tenggara, Maluku";"MALUKU";"";"Indonesia";"";"";"";"-5.3667776";"133.0924639";"https://maps.google.com/?cid=0x0:0xc46437da985028f3";""
"perumahan";"Komplek perumahan";"Rumah Saya";"F2JW+M2, Faa, Kei Besar Utara Barat, Kabupaten Maluku Tenggara, Maluku";"Kabupaten Maluku Tenggara, Maluku";"MALUKU";"";"Indonesia";"";"";"";"-5.5192261";"133.0447575";"https://maps.google.com/?cid=0x0:0xe7d7c411afdd86bb";""
"perumahan";"Pembangunan Perumahan";"Ad Ohoiwaf";"J3CM+4GF, Ad Wearaur, Kec. Kei Besar, Kabupaten Maluku Tenggara, Maluku";"Kabupaten Maluku Tenggara, Maluku";"MALUKU";"";"Indonesia";"";"";"";"-5.3796927";"133.0838118";"https://maps.google.com/?cid=0x0:0x8bac45318b76d85d";""
"perumahan";"Pembangunan Perumahan";"Wair";"P45G+MHM, Ad Wearaur, Kei Besar Utara Barat, Kabupaten Maluku Tenggara, Maluku";"Kabupaten Maluku Tenggara, Maluku";"MALUKU";"";"Indonesia";"";"";"";"-5.2907752";"133.1264136";"https://maps.google.com/?cid=0x0:0x6d343f7b42413c08";""
"perumahan";"Komplek perumahan";"Azet rado";"F2HV+HQ, Faa, Kei Besar Utara Barat, Kabupaten Maluku Tenggara, Maluku";"Kabupaten Maluku Tenggara, Maluku";"MALUKU";"";"Indonesia";"";"";"";"-5.522014";"133.0446441";"https://maps.google.com/?cid=0x0:0x57400a3ec838d726";""
"perumahan";"Komplek perumahan";"Keluarga-Yampapi";"F2FR+HQ, Weer Ohoinam, Kei Besar Utara Barat, Kabupaten Maluku Tenggara, Maluku";"Kabupaten Maluku Tenggara, Maluku";"MALUKU";"";"Indonesia";"";"";"";"-5.526006";"133.0418828";"https://maps.google.com/?cid=0x0:0xdb5278c4bd2de410";""
"perumahan";"Pembangunan Perumahan";"Desa wermaf";"G3X5+82F, Desa wermaf, Kei Besar Utara Barat, Kabupaten Maluku Tenggara, Maluku";"Kabupaten Maluku Tenggara, Maluku";"MALUKU";"";"Indonesia";"";"";"";"-5.4516995";"133.057559";"https://maps.google.com/?cid=0x0:0xcb4277499864abdc";""
"perumahan";"Komplek perumahan";"Rumah Roy Silalahi";"G3X5+82F, Mun Ohoitadium, Kei Besar Utara Barat, Kabupaten Maluku Tenggara, Maluku";"Kabupaten Maluku Tenggara, Maluku";"MALUKU";"";"Indonesia";"";"";"";"-5.4516995";"133.057559";"https://maps.google.com/?cid=0x0:0xb80e1c5957ad9b3f";""
"perumahan";"Komplek perumahan";"Dusun wair";"H3GP+XXP, Mun Ohoitadium, Kei Besar Utara Barat, Kabupaten Maluku Tenggara, Maluku";"Kabupaten Maluku Tenggara, Maluku";"MALUKU";"";"Indonesia";"";"";"";"-5.4225384";"133.0874599";"https://maps.google.com/?cid=0x0:0x58d223ac97a8aed9";""
"perumahan";"Komplek perumahan";"King Arab";"G3X5+82F, Mun Ohoitadium, Kei Besar Utara Barat, Kabupaten Maluku Tenggara, Maluku";"Kabupaten Maluku Tenggara, Maluku";"MALUKU";"";"Indonesia";"";"";"";"-5.4516995";"133.057559";"https://maps.google.com/?cid=0x0:0xde51e31dbd89ad6";""
"perumahan";"Komplek perumahan";"Negeri Di Atas Awan";"H5V2+9CW, Banda Eli, Kec. Kei Besar Utara Tim., Kabupaten Maluku Tenggara, Maluku";"Kabupaten Maluku Tenggara, Maluku";"MALUKU";"";"Indonesia";"";"";"";"-5.4065079";"133.1510917";"https://maps.google.com/?cid=0x0:0xf491165551b1d5be";""
"perumahan";"perumahan";"Kota tual";"G3X5+82F, Mun Ohoitadium, Kei Besar Utara Barat, Kabupaten Maluku Tenggara, Maluku";"Kabupaten Maluku Tenggara, Maluku";"MALUKU";"";"Indonesia";"";"";"";"-5.4516995";"133.057559";"https://maps.google.com/?cid=0x0:0xb6b1c0c3371c1eb1";""
"perumahan";"Komplek perumahan";"Rumah raja";"H4XW+97R, Banda Eli, Kec. Kei Besar Utara Tim., Kabupaten Maluku Tenggara, Maluku";"Kabupaten Maluku Tenggara, Maluku";"MALUKU";"";"Indonesia";"";"";"";"-5.4015178";"133.1456475";"https://maps.google.com/?cid=0x0:0x90a82f4cfd28ad98";""
"perumahan";"Perhimpunan Pengembang Perumahan";"Uwat Besar";"G24X+F9F, Uwat, Kei Besar Utara Barat, Kabupaten Maluku Tenggara, Maluku";"Kabupaten Maluku Tenggara, Maluku";"MALUKU";"";"Indonesia";"";"";"";"-5.4938123";"133.0484076";"https://maps.google.com/?cid=0x0:0x8e6bc494f746583a";""
"perumahan";"Komplek perumahan";"KAMPUNG PALA";"H5W4+727, Banda Eli, Kec. Kei Besar Utara Tim., Kabupaten Maluku Tenggara, Maluku";"Kabupaten Maluku Tenggara, Maluku";"MALUKU";"";"Indonesia";"";"";"";"-5.4043498";"133.1550539";"https://maps.google.com/?cid=0x0:0x1347877faa2775a3";""
"perumahan";"Perhimpunan Pengembang Perumahan";"Uwat, MRLANESIA";"G24X+H9Q, Uwat, Kei Besar Utara Barat, Kabupaten Maluku Tenggara, Maluku";"Kabupaten Maluku Tenggara, Maluku";"MALUKU";"";"Indonesia";"";"";"";"-5.4935487";"133.0484935";"https://maps.google.com/?cid=0x0:0x7ac7d22c30a52e60";""
"perumahan";"Komplek perumahan";"Yehubyanan";"F2GV+69, Weer Ohoinam, Kei Besar Utara Barat, Kabupaten Maluku Tenggara, Maluku";"Kabupaten Maluku Tenggara, Maluku";"MALUKU";"";"Indonesia";"";"";"";"-5.5244577";"133.0442995";"https://maps.google.com/?cid=0x0:0x18c8dcf2a1c1a4f";""
"perumahan";"Komplek perumahan";"Dobo";"G3X5+82F, Mun Ohoitadium, Kei Besar Utara Barat, Kabupaten Maluku Tenggara, Maluku";"Kabupaten Maluku Tenggara, Maluku";"MALUKU";"";"Indonesia";"";"";"";"-5.4516995";"133.057559";"https://maps.google.com/?cid=0x0:0xc311b6432d3a375e";""
"perumahan";"Komplek perumahan";"Ohoi Mun ohoiir";"G3P4+6HW, Uwat, Kei Besar Utara Barat, Kabupaten Maluku Tenggara, Maluku";"Kabupaten Maluku Tenggara, Maluku";"MALUKU";"";"Indonesia";"";"";"";"-5.4643772";"133.0564675";"https://maps.google.com/?cid=0x0:0x59cd0a26da7d7bc8";""
