Category,Real Category,Business Name,Address,City,State,Postal Code,Country,Phone,Email,Website,Latitude,Longitude,Map Link,Details Link
hotel,hotel,Grand Sarah Hotel,"Jl. Jenderal Ahmad Yani No.18, Namlea, Kec. Namlea, Kabupaten Buru, Maluku 97571","Namlea, Kec. Namlea, Kabupaten Buru",MALUKU,97571.0,Indonesia,91321533.0,,,-3.2749299,127.0968531,https://maps.google.com/?cid=0x0:0x11d0f9858d026afc,
hotel,hotel,Jikumerasa Beach Resort  Resto,"R2JG+VF6, Pulau, Jikumerasa, Kec. Lilialy, Kabupaten Buru, Maluku","Kabupaten Buru, Maluku",MALUKU,,Indonesia,,,,-3.1678457,127.0261521,https://maps.google.com/?cid=0x0:0x78b190bab6a0bd9d,
hotel,hotel,Namlea,"Namlea, Kec. Namlea, Kabupaten Buru, Maluku","Kabupaten Buru, Maluku",MALUKU,,Indonesia,,,,-3.233398,127.085899,https://maps.google.com/?cid=0x0:0xe52ca57740e74df,
hotel,hotel,Kec. Air Buaya,"Kabupaten Buru, Maluku","Kabupaten Buru, Maluku",MALUKU,,Indonesia,,,,-3.0855583,126.4356478,https://maps.google.com/?cid=0x0:0xfabb1de62994f5b6,
hotel,Hotel,WWI Resort,"WHJM+3R5, Waspait, Teluk Kaiely, Kabupaten Buru, Maluku","Kabupaten Buru, Maluku",MALUKU,,Indonesia,,,,-3.0698613,126.5846232,https://maps.google.com/?cid=0x0:0x39a48478bba2a329,
hotel,Hotel,PENGINAPAN GERMANIA NAMLEA,"P4C2+PCH, Unnamed Road, Namlea, Kec. Namlea, Kabupaten Buru, Maluku","Kabupaten Buru, Maluku",MALUKU,,Indonesia,,,,-3.2781898,127.1010958,https://maps.google.com/?cid=0x0:0xe76e89ac8dfe311e,
hotel,Rumah Pondokan,Jahima Kabau,"WGFW+Q7, Waspait, Tlk. Kaiely, Kabupaten Buru, Maluku","Kabupaten Buru, Maluku",MALUKU,,Indonesia,,,,-3.0755073,126.5456752,https://maps.google.com/?cid=0x0:0x4ba425472d60672e,
hotel,Hotel,Penginapan Delta,"P3GW+PWP, Namlea, Kec. Namlea, Kabupaten Buru, Maluku","Kabupaten Buru, Maluku",MALUKU,,Indonesia,81344402825.0,,,-3.2731571,127.0973335,https://maps.google.com/?cid=0x0:0xc056dfd61e5d1ed6,
hotel,hotel,Jikumerasa Beach Resort  Resto,"R2JG+VF6, Pulau, Jikumerasa, Kec. Lilialy, Kabupaten Buru, Maluku","Kabupaten Buru, Maluku",MALUKU,,Indonesia,,,,-3.1678457,127.0261521,https://maps.google.com/?cid=0x0:0x78b190bab6a0bd9d,
hotel,hotel,Grand Sarah Hotel,"Jl. Jenderal Ahmad Yani No.18, Namlea, Kec. Namlea, Kabupaten Buru, Maluku 97571","Namlea, Kec. Namlea, Kabupaten Buru",MALUKU,97571.0,Indonesia,91321533.0,,,-3.2749299,127.0968531,https://maps.google.com/?cid=0x0:0x11d0f9858d026afc,
hotel,hotel,Kec. Waeapo,"Kabupaten Buru, Maluku","Kabupaten Buru, Maluku",MALUKU,,Indonesia,,,,-3.4137528,126.925378,https://maps.google.com/?cid=0x0:0xf83f0231b9a9b5fd,
hotel,hotel,Hotel Onemay,"MXW2+XX5, Namaelo, Kec. Kota Masohi, Kabupaten Maluku Tengah, Maluku 97511","Namaelo, Kec. Kota Masohi, Kabupaten Maluku Tengah",MALUKU,97511.0,Indonesia,,,,-3.3026012,128.9524767,https://maps.google.com/?cid=0x0:0x82e8812004335bea,
hotel,hotel,Waplau,"Kabupaten Buru, Maluku","Kabupaten Buru, Maluku",MALUKU,,Indonesia,,,,-3.1224517,126.8821197,https://maps.google.com/?cid=0x0:0xa108369a69306737,
hotel,hotel,Jikumerasa Beach Resort  Resto,"R2JG+VF6, Pulau, Jikumerasa, Kec. Lilialy, Kabupaten Buru, Maluku","Kabupaten Buru, Maluku",MALUKU,,Indonesia,,,,-3.1678457,127.0261521,https://maps.google.com/?cid=0x0:0x78b190bab6a0bd9d,
hotel,hotel,Penginapan Puri Indah,"JXVH+VH4, Waenetat, Kec. Waeapo, Kabupaten Buru, Maluku","Kabupaten Buru, Maluku",MALUKU,,Indonesia,85232218791.0,,,-3.3553641,126.978959,https://maps.google.com/?cid=0x0:0x217f5e9737904dd6,
hotel,hotel,Baguala Beach,"97MH+63G, Suli, Kec. Salahutu, Kabupaten Maluku Tengah, Maluku","Kabupaten Maluku Tengah, Maluku",MALUKU,,Indonesia,81259490022.0,,,-3.6169452,128.2777185,https://maps.google.com/?cid=0x0:0x632f2cf306fa3e94,
hotel,hotel,Airy Maluku City Sudirman Ambon,"85JX+J8C, Jl. Jenderal Sudirman, Hative Kecil, Kec. Sirimau, Kota Ambon, Maluku 97128","Jl. Jenderal Sudirman, Hative Kecil, Kec. Sirimau, Kota Ambon",MALUKU,97128.0,Indonesia,8041112479.0,,,-3.6684342,128.1982566,https://maps.google.com/?cid=0x0:0xd9a527375825a79,
hotel,hotel,,,,MALUKU,,Indonesia,,,,,,https://maps.google.com/?cid=0x0:0xd9a527375825a79%7C/g/11dzddthkt%7Cen-ID,
hotel,hotel,Kec. Bata Bual,"Kabupaten Buru, Maluku","Kabupaten Buru, Maluku",MALUKU,,Indonesia,,,,-3.5268077,127.2494018,https://maps.google.com/?cid=0x0:0xbd920a24abdb7eed,
hotel,hotel,Grand Sarah Hotel,"Jl. Jenderal Ahmad Yani No.18, Namlea, Kec. Namlea, Kabupaten Buru, Maluku 97571","Namlea, Kec. Namlea, Kabupaten Buru",MALUKU,97571.0,Indonesia,91321533.0,,,-3.2749299,127.0968531,https://maps.google.com/?cid=0x0:0x11d0f9858d026afc,
hotel,hotel,Penginapan Puri Indah,"JXVH+VH4, Waenetat, Kec. Waeapo, Kabupaten Buru, Maluku","Kabupaten Buru, Maluku",MALUKU,,Indonesia,85232218791.0,,,-3.3553641,126.978959,https://maps.google.com/?cid=0x0:0x217f5e9737904dd6,
hotel,hotel,Maluku,,Maluku,MALUKU,,Indonesia,,,,-3.2384616,130.1452734,https://maps.google.com/?cid=0x0:0x5e30e8db04649a51,
hotel,hotel,Grand Sarah Hotel,"Jl. Jenderal Ahmad Yani No.18, Namlea, Kec. Namlea, Kabupaten Buru, Maluku 97571","Namlea, Kec. Namlea, Kabupaten Buru",MALUKU,97571.0,Indonesia,91321533.0,,,-3.2749299,127.0968531,https://maps.google.com/?cid=0x0:0x11d0f9858d026afc,
hotel,Tujuan Wisata,Bukit Tatanggo,"P3XM+FV, Namlea, Kec. Namlea, Kabupaten Buru, Maluku","Kabupaten Buru, Maluku",MALUKU,,Indonesia,,,,-3.2513058,127.084644,https://maps.google.com/?cid=0x0:0xea5427534d4819ed,
hotel,hotel,,,,MALUKU,,Indonesia,,,,,,https://maps.google.com/?cid=0x0:0xcc3b1618136c2184%7C/g/1jkwg2g98%7Cen-ID,
hotel,Tujuan Wisata,Pantai Pintu Kota Ambon,"65H2+QXM, Nusaniwe, Kec. Nusaniwe, Kota Ambon, Maluku","Kota Ambon, Maluku",MALUKU,,Indonesia,,,,-3.7705365,128.1524331,https://maps.google.com/?cid=0x0:0x456317295a6201a6,
hotel,Hotel,Lounusa Beach Resort,"MWPP+8MG, Jl. Chr.M.Tiahahu, Amahai, Kec. Amahai, Kabupaten Maluku Tengah, Maluku","Kabupaten Maluku Tengah, Maluku",MALUKU,,Indonesia,85388882379.0,,,-3.3141782,128.9367132,https://maps.google.com/?cid=0x0:0xbaafbc1bbad7d467,
hotel,hotel,Ohoimel Resort,"9J4P+FXF, Ohoililir, Kec. Kei Kecil, Kabupaten Maluku Tenggara, Maluku","Kabupaten Maluku Tenggara, Maluku",MALUKU,,Indonesia,85344183318.0,,,-5.6438205,132.6374283,https://maps.google.com/?cid=0x0:0xbebf1af7aec19226,
hotel,Tujuan Wisata,Pantai Ngurbloat Desa Ngilngof - Kei Islands,"Ngurbloat, Kabupaten Maluku Tenggara, Maluku","Kabupaten Maluku Tenggara, Maluku",MALUKU,,Indonesia,811477719.0,,,-5.6624981,132.6362396,https://maps.google.com/?cid=0x0:0xd3a4a88054e326f,
hotel,hotel,Hotel Dragon,"Jl. Jend. Sudirman, Langgur, Kec. Kei Kecil, Kabupaten Maluku Tenggara, Maluku","Kabupaten Maluku Tenggara, Maluku",MALUKU,,Indonesia,,,,-5.6556244,132.7400133,https://maps.google.com/?cid=0x0:0x2fa72a608601774c,
hotel,hotel,Hotel Santika Premiere Ambon,"Jl. Jenderal Sudirman No.88, Batu Merah, Kec. Sirimau, Kota Ambon, Maluku 19728","Batu Merah, Kec. Sirimau, Kota Ambon",MALUKU,19728.0,Indonesia,9113833888.0,,,-3.6788521,128.1941333,https://maps.google.com/?cid=0x0:0x613a23eacdd61bba,
hotel,hotel,,,,MALUKU,,Indonesia,,,,,,https://maps.google.com/?cid=0x0:0x613a23eacdd61bba%7C/g/11g0tp0_30%7Cen-ID,
hotel,hotel,Syafira Hotel Langgur,"Jl. Jend. Sudirman, Kel. Ohoijang Watdek, Kec. Kei Kecil, Kabupaten Maluku Tenggara, Maluku","Kabupaten Maluku Tenggara, Maluku",MALUKU,,Indonesia,,,,-5.6482368,132.741602,https://maps.google.com/?cid=0x0:0xb4debeed2c65f59,
hotel,Balai masyarakat,Jembatan Merah Putih,"Jl. Jemb. Merah Putih, Kec. Sirimau, Kota Ambon, Maluku","Kota Ambon, Maluku",MALUKU,,Indonesia,,,,-3.6619296,128.1982884,https://maps.google.com/?cid=0x0:0x51809566a7c4728c,
hotel,Layanan Transportasi,Galala,"Halong, Kec. Baguala, Kota Ambon, Maluku","Kota Ambon, Maluku",MALUKU,,Indonesia,,,,-3.66198,128.20511,https://maps.google.com/?cid=0x0:0x9fab0dc0d3d1f3fc,
hotel,hotel,,,,MALUKU,,Indonesia,,,,,,https://maps.google.com/?cid=0x0:0x602282c2fc284226%7C/g/11bc7s8rt9%7Cen-ID,
hotel,hotel,Hotel Grand Vilia,"Jl. Telaver No.1, Langgur, Kec. Kei Kecil, Kabupaten Maluku Tenggara, Maluku","Kabupaten Maluku Tenggara, Maluku",MALUKU,,Indonesia,82197830643.0,,,-5.6704304,132.7377086,https://maps.google.com/?cid=0x0:0x602282c2fc284226,
hotel,hotel,SURYA INN,"Jl. Pelita, Langgur, Kec. Kei Kecil, Kabupaten Maluku Tenggara, Maluku","Kabupaten Maluku Tenggara, Maluku",MALUKU,,Indonesia,81281425505.0,,,-5.6538155,132.7347042,https://maps.google.com/?cid=0x0:0xb0a10184948650b8,
hotel,hotel,Kakatua Bungalow,"24JG+VQC, Saleman, Pulau Seram, Kabupaten Maluku Tengah, Maluku","Kabupaten Maluku Tengah, Maluku",MALUKU,,Indonesia,81344921207.0,,,-2.9678036,129.126883,https://maps.google.com/?cid=0x0:0x309db4f05766cb5c,
hotel,hotel,Pantai Ora,"Jl. Kabupaten, Kec. Seram Utara, Kabupaten Maluku Tengah, Maluku","Kabupaten Maluku Tengah, Maluku",MALUKU,,Indonesia,,,,-2.9598946,129.1392275,https://maps.google.com/?cid=0x0:0xf8e9bb942190466b,
hotel,hotel,Putih Lessi Indah,"GH3Q+59F, Kulur, Kec. Saparua, Kabupaten Maluku Tengah, Maluku","Kabupaten Maluku Tengah, Maluku",MALUKU,,Indonesia,81247486647.0,,,-3.4970565,128.5884321,https://maps.google.com/?cid=0x0:0xe57c1dc22e4f6b20,
hotel,Perusahaan Konstruksi,Pantai Kulur,"GH4H+954, Unnamed Road, Kulur, Kec. Saparua, Kabupaten Maluku Tengah, Maluku","Kabupaten Maluku Tengah, Maluku",MALUKU,,Indonesia,,,,-3.494104,128.5779576,https://maps.google.com/?cid=0x0:0x73ab73fc521e874a,
hotel,hotel,Golden palace hotel,"Jl. Cendrawasih No.32, Kel Rijali, Kec. Sirimau, Kota Ambon, Maluku 97123","Kel Rijali, Kec. Sirimau, Kota Ambon",MALUKU,97123.0,Indonesia,911321668.0,,,-3.690277,128.1865911,https://maps.google.com/?cid=0x0:0x2c1947e393537360,
hotel,Hotel Resor,Lisar Bahari Resort,"25RH+PP9, Ceram Sea, Sawai, Kabupaten Maluku Tengah, Maluku","Kabupaten Maluku Tengah, Maluku",MALUKU,,Indonesia,8211181137.0,,,-2.9582217,129.1793679,https://maps.google.com/?cid=0x0:0xf7eacc86a3bfcec0,
hotel,Hotel,Penginapan RARA,"Namlea, Kec. Namlea, Kabupaten Buru, Maluku","Kabupaten Buru, Maluku",MALUKU,,Indonesia,91321628.0,,,-3.2678926,127.0952859,https://maps.google.com/?cid=0x0:0xcb02ae9a079ec869,
hotel,Hotel,Penginapan Delta,"P3GW+PWP, Namlea, Kec. Namlea, Kabupaten Buru, Maluku","Kabupaten Buru, Maluku",MALUKU,,Indonesia,81344402825.0,,,-3.2731571,127.0973335,https://maps.google.com/?cid=0x0:0xc056dfd61e5d1ed6,
hotel,Hotel,KAY'NAWA HOTEL,"Namlea, Kec. Namlea, Kabupaten Buru, Maluku","Kabupaten Buru, Maluku",MALUKU,,Indonesia,82239078260.0,,,-3.2620241,127.0970331,https://maps.google.com/?cid=0x0:0x385a3a28622497df,
hotel,Hotel,Penginapan Haider,"P39W+GWQ, Jl. Flamboyan, Namlea, Kec. Namlea, Kabupaten Buru, Maluku","Kabupaten Buru, Maluku",MALUKU,,Indonesia,,,,-3.2811645,127.097371,https://maps.google.com/?cid=0x0:0x3a357aff68749cfd,
hotel,Hotel,Hotel Awista,"P3PQ+68F, Jl. Dermaga Baru, Namlea, Kec. Namlea, Kabupaten Buru, Maluku 97571","Jl. Dermaga Baru, Namlea, Kec. Namlea, Kabupaten Buru",MALUKU,97571.0,Indonesia,82140872190.0,,,-3.2644395,127.0882915,https://maps.google.com/?cid=0x0:0x453d4db43168e9c9,
hotel,hotel,Penginapan Puri Indah,"JXVH+VH4, Waenetat, Kec. Waeapo, Kabupaten Buru, Maluku","Kabupaten Buru, Maluku",MALUKU,,Indonesia,85232218791.0,,,-3.3553641,126.978959,https://maps.google.com/?cid=0x0:0x217f5e9737904dd6,
hotel,hotel,Kec. Waelata,"Kabupaten Buru, Maluku","Kabupaten Buru, Maluku",MALUKU,,Indonesia,,,,-3.4811436,126.9241917,https://maps.google.com/?cid=0x0:0xd5c06f16d8212c44,
hotel,hotel,Penginapan Puri Indah,"JXVH+VH4, Waenetat, Kec. Waeapo, Kabupaten Buru, Maluku","Kabupaten Buru, Maluku",MALUKU,,Indonesia,85232218791.0,,,-3.3553641,126.978959,https://maps.google.com/?cid=0x0:0x217f5e9737904dd6,
hotel,hotel,Grand Sarah Hotel,"Jl. Jenderal Ahmad Yani No.18, Namlea, Kec. Namlea, Kabupaten Buru, Maluku 97571","Namlea, Kec. Namlea, Kabupaten Buru",MALUKU,97571.0,Indonesia,91321533.0,,,-3.2749299,127.0968531,https://maps.google.com/?cid=0x0:0x11d0f9858d026afc,
hotel,hotel,Maluku,,Maluku,MALUKU,,Indonesia,,,,-3.2384616,130.1452734,https://maps.google.com/?cid=0x0:0x5e30e8db04649a51,
hotel,Hotel,KAY'NAWA HOTEL,"Namlea, Kec. Namlea, Kabupaten Buru, Maluku","Kabupaten Buru, Maluku",MALUKU,,Indonesia,82239078260.0,,,-3.2620241,127.0970331,https://maps.google.com/?cid=0x0:0x385a3a28622497df,
hotel,Hotel,Hotel Awista,"P3PQ+68F, Jl. Dermaga Baru, Namlea, Kec. Namlea, Kabupaten Buru, Maluku 97571","Jl. Dermaga Baru, Namlea, Kec. Namlea, Kabupaten Buru",MALUKU,97571.0,Indonesia,82140872190.0,,,-3.2644395,127.0882915,https://maps.google.com/?cid=0x0:0x453d4db43168e9c9,
hotel,hotel,Incla Hotel  Restaurant,"279W+7MG, Olilit, Tanimbar Sel., Kab. Kepulauan Tanimbar, Maluku","Kab. Kepulauan Tanimbar, Maluku",MALUKU,,Indonesia,91821821.0,,,-7.9818007,131.2967101,https://maps.google.com/?cid=0x0:0x6f3ff2d69b3e998f,
hotel,Tujuan Wisata,Weluan Beach,"X8P6+VMP, Olilit, Tanimbar Sel., Kab. Kepulauan Tanimbar, Maluku","Kab. Kepulauan Tanimbar, Maluku",MALUKU,,Indonesia,,,,-8.0127967,131.3117108,https://maps.google.com/?cid=0x0:0x56f092c8b59aec8,
hotel,Tujuan Wisata,Bukit Tatanggo,"P3XM+FV, Namlea, Kec. Namlea, Kabupaten Buru, Maluku","Kabupaten Buru, Maluku",MALUKU,,Indonesia,,,,-3.2513058,127.084644,https://maps.google.com/?cid=0x0:0xea5427534d4819ed,
hotel,hotel,Penginapan Puri Indah,"JXVH+VH4, Waenetat, Kec. Waeapo, Kabupaten Buru, Maluku","Kabupaten Buru, Maluku",MALUKU,,Indonesia,85232218791.0,,,-3.3553641,126.978959,https://maps.google.com/?cid=0x0:0x217f5e9737904dd6,
hotel,hotel,Putih Lessi Indah,"GH3Q+59F, Kulur, Kec. Saparua, Kabupaten Maluku Tengah, Maluku","Kabupaten Maluku Tengah, Maluku",MALUKU,,Indonesia,81247486647.0,,,-3.4970565,128.5884321,https://maps.google.com/?cid=0x0:0xe57c1dc22e4f6b20,
hotel,Perusahaan Konstruksi,Pantai Kulur,"GH4H+954, Unnamed Road, Kulur, Kec. Saparua, Kabupaten Maluku Tengah, Maluku","Kabupaten Maluku Tengah, Maluku",MALUKU,,Indonesia,,,,-3.494104,128.5779576,https://maps.google.com/?cid=0x0:0x73ab73fc521e874a,
hotel,hotel,The Natsepa Hotel  Resort,"Jl. Natsepa No.36, Suli, Kec. Salahutu, Kabupaten Maluku Tengah, Maluku 97582","Suli, Kec. Salahutu, Kabupaten Maluku Tengah",MALUKU,97582.0,Indonesia,911362555.0,,,-3.6224597,128.2856783,https://maps.google.com/?cid=0x0:0xb66509852ba2428c,
hotel,hotel,,,,MALUKU,,Indonesia,,,,,,https://maps.google.com/?cid=0x0:0xb66509852ba2428c%7C/g/121qycpm%7Cen-ID,
hotel,hotel,LeGreen Suite Ratulangi,"Jl. Sam Ratulangi No.93, Kel Honipopu, Kec. Sirimau, Kota Ambon, Maluku","Kota Ambon, Maluku",MALUKU,,Indonesia,911351679.0,,,-3.6950855,128.1788524,https://maps.google.com/?cid=0x0:0xcc3b1618136c2184,
hotel,hotel,Pantai Natsepa,"Suli, Kec. Salahutu, Kabupaten Maluku Tengah, Maluku","Kabupaten Maluku Tengah, Maluku",MALUKU,,Indonesia,,,,-3.6215465,128.2921198,https://maps.google.com/?cid=0x0:0x4f23bfbc3a9673f2,
hotel,hotel,,,,MALUKU,,Indonesia,,,,,,https://maps.google.com/?cid=0x0:0xcc3b1618136c2184%7C/g/1jkwg2g98%7Cen-ID,
hotel,hotel,Maluku Resort and Spa,"Jl Waititiri, Suli, Salahutu, Central Maluku Regency, Maluku 97582","Suli, Salahutu, Central Maluku Regency",MALUKU,97582.0,Indonesia,911361970.0,,,-3.6167962,128.2776551,https://maps.google.com/?cid=0x0:0x399bf62f92df6277,
hotel,Tujuan Wisata,Pantai Pintu Kota Ambon,"65H2+QXM, Nusaniwe, Kec. Nusaniwe, Kota Ambon, Maluku","Kota Ambon, Maluku",MALUKU,,Indonesia,,,,-3.7705365,128.1524331,https://maps.google.com/?cid=0x0:0x456317295a6201a6,
hotel,Hotel,Lounusa Beach Resort,"MWPP+8MG, Jl. Chr.M.Tiahahu, Amahai, Kec. Amahai, Kabupaten Maluku Tengah, Maluku","Kabupaten Maluku Tengah, Maluku",MALUKU,,Indonesia,85388882379.0,,,-3.3141782,128.9367132,https://maps.google.com/?cid=0x0:0xbaafbc1bbad7d467,
hotel,hotel,RumaRuma Farvet Residence,"Jl. DR. Kayadoe, Kel Wainitu, Kec. Nusaniwe, Kota Ambon, Maluku 97114","Kel Wainitu, Kec. Nusaniwe, Kota Ambon",MALUKU,97114.0,Indonesia,911320001.0,,,-3.7048297,128.1749829,https://maps.google.com/?cid=0x0:0x157b5f43bce7d2b7,
hotel,hotel,Nusa Nalan Beach Resort,"Saleman, Kec. Seram Utara Bar., Kabupaten Maluku Tengah, Maluku","Kabupaten Maluku Tengah, Maluku",MALUKU,,Indonesia,82191118069.0,,,-2.9641794,129.1227794,https://maps.google.com/?cid=0x0:0x3e974595c220a8d9,
hotel,hotel,Pantai Ora,"Jl. Kabupaten, Kec. Seram Utara, Kabupaten Maluku Tengah, Maluku","Kabupaten Maluku Tengah, Maluku",MALUKU,,Indonesia,,,,-2.9598946,129.1392275,https://maps.google.com/?cid=0x0:0xf8e9bb942190466b,
hotel,hotel,Hotel Santika Premiere Ambon,"Jl. Jenderal Sudirman No.88, Batu Merah, Kec. Sirimau, Kota Ambon, Maluku 19728","Batu Merah, Kec. Sirimau, Kota Ambon",MALUKU,19728.0,Indonesia,9113833888.0,,,-3.6788521,128.1941333,https://maps.google.com/?cid=0x0:0x613a23eacdd61bba,
hotel,Balai masyarakat,Jembatan Merah Putih,"Jl. Jemb. Merah Putih, Kec. Sirimau, Kota Ambon, Maluku","Kota Ambon, Maluku",MALUKU,,Indonesia,,,,-3.6619296,128.1982884,https://maps.google.com/?cid=0x0:0x51809566a7c4728c,
hotel,Hotel Resor,Lisar Bahari Resort,"25RH+PP9, Ceram Sea, Sawai, Kabupaten Maluku Tengah, Maluku","Kabupaten Maluku Tengah, Maluku",MALUKU,,Indonesia,8211181137.0,,,-2.9582217,129.1793679,https://maps.google.com/?cid=0x0:0xf7eacc86a3bfcec0,
hotel,Layanan Transportasi,Galala,"Halong, Kec. Baguala, Kota Ambon, Maluku","Kota Ambon, Maluku",MALUKU,,Indonesia,,,,-3.66198,128.20511,https://maps.google.com/?cid=0x0:0x9fab0dc0d3d1f3fc,
hotel,hotel,,,,MALUKU,,Indonesia,,,,,,https://maps.google.com/?cid=0x0:0x613a23eacdd61bba%7C/g/11g0tp0_30%7Cen-ID,
hotel,hotel,Baguala Beach,"97MH+63G, Suli, Kec. Salahutu, Kabupaten Maluku Tengah, Maluku","Kabupaten Maluku Tengah, Maluku",MALUKU,,Indonesia,81259490022.0,,,-3.6169452,128.2777185,https://maps.google.com/?cid=0x0:0x632f2cf306fa3e94,
hotel,hotel,Golden palace hotel,"Jl. Cendrawasih No.32, Kel Rijali, Kec. Sirimau, Kota Ambon, Maluku 97123","Kel Rijali, Kec. Sirimau, Kota Ambon",MALUKU,97123.0,Indonesia,911321668.0,,,-3.690277,128.1865911,https://maps.google.com/?cid=0x0:0x2c1947e393537360,
hotel,hotel,RedDoorz Plus @ Tirta Kencana Hotel,"Jl. Raya No.1, Amahusu, Kec. Nusaniwe, Kota Ambon, Maluku","Kota Ambon, Maluku",MALUKU,,Indonesia,895417300072.0,,,-3.7246301,128.1448962,https://maps.google.com/?cid=0x0:0xd2fae6a790cf7e6c,
hotel,hotel,Grand Avira Hotel,"Kel Rijali, Kec. Sirimau, Kota Ambon, Maluku","Kota Ambon, Maluku",MALUKU,,Indonesia,911345415.0,,,-3.6873242,128.1875829,https://maps.google.com/?cid=0x0:0x66de848538c4aad0,
hotel,hotel,Tlk. Kaiely,"Kabupaten Buru, Maluku","Kabupaten Buru, Maluku",MALUKU,,Indonesia,,,,-3.3033929,126.5661908,https://maps.google.com/?cid=0x0:0x12b5aeb27efc20e0,
hotel,hotel,Grand Sarah Hotel,"Jl. Jenderal Ahmad Yani No.18, Namlea, Kec. Namlea, Kabupaten Buru, Maluku 97571","Namlea, Kec. Namlea, Kabupaten Buru",MALUKU,97571.0,Indonesia,91321533.0,,,-3.2749299,127.0968531,https://maps.google.com/?cid=0x0:0x11d0f9858d026afc,
hotel,hotel,Penginapan Puri Indah,"JXVH+VH4, Waenetat, Kec. Waeapo, Kabupaten Buru, Maluku","Kabupaten Buru, Maluku",MALUKU,,Indonesia,85232218791.0,,,-3.3553641,126.978959,https://maps.google.com/?cid=0x0:0x217f5e9737904dd6,
hotel,hotel,Hotel SEA,"Jl. Jenderal Sudirman, Hative Kecil, Kec. Sirimau, Kota Ambon, Maluku","Kota Ambon, Maluku",MALUKU,,Indonesia,811474781.0,,,-3.6684343,128.1982564,https://maps.google.com/?cid=0x0:0xe22091de7a7f570d,
hotel,hotel,,,,MALUKU,,Indonesia,,,,,,https://maps.google.com/?cid=0x0:0xd9a527375825a79%7C/g/11dzddthkt%7Cen-ID,
hotel,hotel,Airy Maluku City Sudirman Ambon,"85JX+J8C, Jl. Jenderal Sudirman, Hative Kecil, Kec. Sirimau, Kota Ambon, Maluku 97128","Jl. Jenderal Sudirman, Hative Kecil, Kec. Sirimau, Kota Ambon",MALUKU,97128.0,Indonesia,8041112479.0,,,-3.6684342,128.1982566,https://maps.google.com/?cid=0x0:0xd9a527375825a79,
hotel,hotel,Jikumerasa Beach Resort  Resto,"R2JG+VF6, Pulau, Jikumerasa, Kec. Lilialy, Kabupaten Buru, Maluku","Kabupaten Buru, Maluku",MALUKU,,Indonesia,,,,-3.1678457,127.0261521,https://maps.google.com/?cid=0x0:0x78b190bab6a0bd9d,
hotel,hotel,Kec. Lilialy,"Kabupaten Buru, Maluku","Kabupaten Buru, Maluku",MALUKU,,Indonesia,,,,-3.1452717,126.9901544,https://maps.google.com/?cid=0x0:0xa4098f1c5783ea97,
hotel,hotel,Grand Sarah Hotel,"Jl. Jenderal Ahmad Yani No.18, Namlea, Kec. Namlea, Kabupaten Buru, Maluku 97571","Namlea, Kec. Namlea, Kabupaten Buru",MALUKU,97571.0,Indonesia,91321533.0,,,-3.2749299,127.0968531,https://maps.google.com/?cid=0x0:0x11d0f9858d026afc,
restaurant,Restoran,"Citra Wangi Resto, Namlea, Buru","Namlea, Kec. Namlea, Kabupaten Buru, Maluku","Kabupaten Buru, Maluku",MALUKU,,Indonesia,85344427488.0,,,-3.2641228,127.0885197,https://maps.google.com/?cid=0x0:0xccef20463848c233,
restaurant,restaurant,Namlea,"Namlea, Kec. Namlea, Kabupaten Buru, Maluku","Kabupaten Buru, Maluku",MALUKU,,Indonesia,,,,-3.233398,127.085899,https://maps.google.com/?cid=0x0:0xe52ca57740e74df,
restaurant,Kafe,Hallo Kopi,"Namlea, Kec. Namlea, Kabupaten Buru, Maluku","Kabupaten Buru, Maluku",MALUKU,,Indonesia,,,,-3.260268,127.0931325,https://maps.google.com/?cid=0x0:0x5cb50159c5f44be9,
restaurant,Padang,Waroeng Sambal Bakar Namlea,"Jl. H.M. Husnie Hentihu, Namlea, Kec. Namlea, Kabupaten Buru, Maluku","Kabupaten Buru, Maluku",MALUKU,,Indonesia,82199045113.0,,,-3.2711128,127.1077182,https://maps.google.com/?cid=0x0:0x5796579b140049f7,
restaurant,Sarapan,Usaha Baru Rumah Makan,"Q38P+MJ8, JL. Jenderal Ahmad Yani, Namlea, Kec. Namlea, Kabupaten Buru, Maluku","Kabupaten Buru, Maluku",MALUKU,,Indonesia,91321508.0,,,-3.233327,127.086582,https://maps.google.com/?cid=0x0:0xde70ac17bf18400f,
restaurant,Salad,Rumah Makan Pendowo,"P3QQ+WMH, Jl.tatanggo, Namlea, Kec. Namlea, Kabupaten Buru, Maluku","Kabupaten Buru, Maluku",MALUKU,,Indonesia,81344842849.0,,,-3.2601833,127.0892194,https://maps.google.com/?cid=0x0:0x5d3836672cd15ada,
restaurant,Restoran,warung surabaya,"Namlea, Kec. Namlea, Kabupaten Buru, Maluku","Kabupaten Buru, Maluku",MALUKU,,Indonesia,85220505091.0,,,-3.2736181,127.0996845,https://maps.google.com/?cid=0x0:0xfa72529c121ff20,
restaurant,Rumah Makan,RM. DOA IBU,"P3RW+52H, Namlea, Kec. Namlea, Kabupaten Buru, Maluku","Kabupaten Buru, Maluku",MALUKU,,Indonesia,,,,-3.2595772,127.0950596,https://maps.google.com/?cid=0x0:0xca5b9804be8a167b,
restaurant,Restoran,Rumah Makan Angin Mamiri,"P3PQ+G8H, Unnamed Road, Namlea, Buru Regency, Maluku","Kabupaten Buru, Maluku",MALUKU,,Indonesia,81344222929.0,,,-3.2636802,127.0883636,https://maps.google.com/?cid=0x0:0x87ea1d909068b8cb,
restaurant,Indonesia,BAKSO NIJAR NAMLEA (aneka bakso),"Namlea, Kec. Namlea, Kabupaten Buru, Maluku","Kabupaten Buru, Maluku",MALUKU,,Indonesia,82397881818.0,,,-3.2699819,127.1039575,https://maps.google.com/?cid=0x0:0x5d3763afe8e76da5,
restaurant,Rumah Makan,Warung makan bundaran.,"P3RW+Q63, Unnamed Road, Namlea, Kec. Namlea, Kabupaten Buru, Maluku","Kabupaten Buru, Maluku",MALUKU,,Indonesia,,,,-3.2581046,127.0955597,https://maps.google.com/?cid=0x0:0xf899db6e1d2939d5,
restaurant,Padang,Alisa,"P4G2+WR5, Namlea, Kec. Namlea, Kabupaten Buru, Maluku","Kabupaten Buru, Maluku",MALUKU,,Indonesia,,,,-3.2727287,127.1020998,https://maps.google.com/?cid=0x0:0x4c653482e9027085,
restaurant,Bar Karaoke,Slita Family Karaoke,"P3WV+CW9, Namlea, Kec. Namlea, Kabupaten Buru, Maluku","Kabupaten Buru, Maluku",MALUKU,,Indonesia,82319086714.0,,,-3.2539659,127.0948445,https://maps.google.com/?cid=0x0:0x8d829555207dee96,
restaurant,Restoran,Rumah Makan Eka Jaya,"P3RQ+5GV, Namlea, Kec. Namlea, Kabupaten Buru, Maluku","Kabupaten Buru, Maluku",MALUKU,,Indonesia,,,,-3.2593964,127.0887719,https://maps.google.com/?cid=0x0:0x80a5aaae0fe427b6,
restaurant,Rumah Makan,Rumah Makan SS,"P3GX+CVJ, Jl. Kampus Iqra Buru, Namlea, Kec. Namlea, Kabupaten Buru, Maluku","Kabupaten Buru, Maluku",MALUKU,,Indonesia,,,,-3.273905,127.0996311,https://maps.google.com/?cid=0x0:0x3242bffea0c4faf,
restaurant,Hidangan Laut,Waterfront City Namlea,"P3FW+947, Unnamed Road, Namlea, Kec. Namlea, Kabupaten Buru, Maluku","Kabupaten Buru, Maluku",MALUKU,,Indonesia,,,,-3.2765938,127.0953083,https://maps.google.com/?cid=0x0:0xda25103aee7c684d,
restaurant,Rumah Makan,Rm.rempah Sari,"Q38P+J9R, Namlea, Kec. Namlea, Kabupaten Buru, Maluku","Kabupaten Buru, Maluku",MALUKU,,Indonesia,82248882753.0,,,-3.233398,127.085899,https://maps.google.com/?cid=0x0:0xd9e7c0901fadfd75,
restaurant,Indonesia,RM. ARUMBAI,"Jl. NAMETEK, Namlea, Kec. Namlea, Kabupaten Buru, Maluku","Kabupaten Buru, Maluku",MALUKU,,Indonesia,82238583373.0,,,-3.2794759,127.1101512,https://maps.google.com/?cid=0x0:0x1553dbea07dd280d,
restaurant,Rumah Makan,Kedai lesehan,"Q38P+J9R, Namlea, Kec. Namlea, Kabupaten Buru, Maluku","Kabupaten Buru, Maluku",MALUKU,,Indonesia,,,,-3.233398,127.085899,https://maps.google.com/?cid=0x0:0xdaa3edb017e3c672,
restaurant,Restoran,Warung makan simpang 5,"P3RW+Q63, Unnamed Road, Namlea, Kec. Namlea, Kabupaten Buru, Maluku","Kabupaten Buru, Maluku",MALUKU,,Indonesia,,,,-3.2581046,127.0955599,https://maps.google.com/?cid=0x0:0x6ff1d716f15606d7,
restaurant,Padang,RM AYAH Jalan Baru,"P4H4+XCV, Namlea, Kec. Namlea, Kabupaten Buru, Maluku","Kabupaten Buru, Maluku",MALUKU,,Indonesia,,,,-3.2700135,127.1060518,https://maps.google.com/?cid=0x0:0x28727d10715e038a,
restaurant,Restoran,Rm. Aulia,"P3QX+23P, Namlea, Kec. Namlea, Kabupaten Buru, Maluku","Kabupaten Buru, Maluku",MALUKU,,Indonesia,,,,-3.262424,127.0976928,https://maps.google.com/?cid=0x0:0x87eb94d2dbbd33ab,
restaurant,Sarapan,RM.NANIK,"Jl. Propinsi, Namlea, Kec. Namlea, Kabupaten Buru, Maluku","Kabupaten Buru, Maluku",MALUKU,,Indonesia,,,,-3.2374544,127.0951118,https://maps.google.com/?cid=0x0:0x7a66cc343445232e,
restaurant,Salad,Rm. Gado-gado 99,"Q32V+CMF, Jl. Propinsi, Namlea, Kec. Namlea, Kabupaten Buru, Maluku","Kabupaten Buru, Maluku",MALUKU,,Indonesia,82122505335.0,,,-3.2489255,127.0941809,https://maps.google.com/?cid=0x0:0xed0e4ec74ce4ef61,
restaurant,Sesuai untuk keluarga,Warung Dabu Dabu Namlea,"P4J5+G96, Unnamed Road, Namlea, Kec. Namlea, Kabupaten Buru, Maluku","Kabupaten Buru, Maluku",MALUKU,,Indonesia,,,,-3.2687152,127.1083808,https://maps.google.com/?cid=0x0:0xc2390c73079a5238,
restaurant,Restoran,Dabu Dabu,"Jln Dermaga - Tuguh Tani, Namlea, Kec. Namlea, Kabupaten Buru, Maluku 97571","Namlea, Kec. Namlea, Kabupaten Buru",MALUKU,97571.0,Indonesia,85371999966.0,,,-3.2613828,127.0916286,https://maps.google.com/?cid=0x0:0x32ab21421fb1a63b,
restaurant,Rumah Makan,RM Dewi Asih,"P3XV+9Q4, Namlea, Kec. Namlea, Kabupaten Buru, Maluku","Kabupaten Buru, Maluku",MALUKU,,Indonesia,812248990448.0,,,-3.2516178,127.0944555,https://maps.google.com/?cid=0x0:0x62423162adb2c1e6,
restaurant,Padang,RM. Salinu gado gado,"P4J3+3GJ, Namlea, Kec. Namlea, Kabupaten Buru, Maluku","Kabupaten Buru, Maluku",MALUKU,,Indonesia,,,,-3.2697894,127.1037722,https://maps.google.com/?cid=0x0:0xf4ec2a0143df7048,
restaurant,Rumah Makan,WR.risky barokah,"sebelah cucian mobil, Rumah, Jl. Pendidikan, Kec. Namlea, Maluku 97571","Rumah, Jl. Pendidikan, Kec. Namlea",MALUKU,97571.0,Indonesia,82117018463.0,,,-3.2716628,127.0998389,https://maps.google.com/?cid=0x0:0xe9ef17ba8d41307a,
restaurant,restaurant,Bakso Kiky,"samping mushola Ar Rahman desa waekoseKabupaten, Jln lintas, Waspait, Kec. Air Buaya, Kabupaten Buru, Maluku","Kabupaten Buru, Maluku",MALUKU,,Indonesia,,,,-3.0721218,126.5953504,https://maps.google.com/?cid=0x0:0xb13f58448785f978,
restaurant,Komplek perumahan,RM Wakatobi,"Fena Leisela, Jl. Propinsi No.KM 80, Wamlana, Tlk. Kaiely, Kabupaten Buru, Maluku","Kabupaten Buru, Maluku",MALUKU,,Indonesia,82239711790.0,,,-3.0754653,126.543609,https://maps.google.com/?cid=0x0:0x6c8960b03b027812,
restaurant,restaurant,Kec. Air Buaya,"Kabupaten Buru, Maluku","Kabupaten Buru, Maluku",MALUKU,,Indonesia,,,,-3.0855583,126.4356478,https://maps.google.com/?cid=0x0:0xfabb1de62994f5b6,
restaurant,restaurant,"Depot Air Minum  PORORO FRESH """"","WC7J+XR, Air Buaya, Kec. Air Buaya, Kabupaten Buru, Maluku","Kabupaten Buru, Maluku",MALUKU,,Indonesia,,,,-3.085038,126.432057,https://maps.google.com/?cid=0x0:0xd2e66c8fbdbc83be,
restaurant,Kedai Kopi,Nyoklat Klasik Fenaleisela,"WHHW+542, Waspait, Kec. Air Buaya, Kabupaten Buru, Maluku","Kabupaten Buru, Maluku",MALUKU,,Indonesia,82230122554.0,,,-3.0720972,126.5952391,https://maps.google.com/?cid=0x0:0x6d6ce94a8dd61a0d,
restaurant,Bar,RM Padang Nuzal,"WGFV+R64, Wamlana, Kec. Fena Leisela, Kabupaten Buru, Maluku","Kabupaten Buru, Maluku",MALUKU,,Indonesia,,,,-3.0754783,126.5430878,https://maps.google.com/?cid=0x0:0x2009518612bcd395,
restaurant,Kantor Pemerintah,PKM Wamlana,"WGFV+Q3P, Wamlana, Kec. Fena Leisela, Kabupaten Buru, Maluku","Kabupaten Buru, Maluku",MALUKU,,Indonesia,,,,-3.0755059,126.5427425,https://maps.google.com/?cid=0x0:0xc73d43c12c65a8ef,
restaurant,Komplek perumahan,Rental alfatih,"WC7P+Q7J, Air Buaya, Kec. Air Buaya, Kabupaten Buru, Maluku","Kabupaten Buru, Maluku",MALUKU,,Indonesia,81240201315.0,,,-3.0855263,126.4356505,https://maps.google.com/?cid=0x0:0xcdf90841b4ad3d60,
restaurant,Restoran,Rumah Makan Angin Mamiri,"P3PQ+G8H, Unnamed Road, Namlea, Buru Regency, Maluku","Kabupaten Buru, Maluku",MALUKU,,Indonesia,81344222929.0,,,-3.2636802,127.0883636,https://maps.google.com/?cid=0x0:0x87ea1d909068b8cb,
restaurant,restaurant,RM Melati,"WGGP+FGG, Wamlana, Kec. Air Buaya, Kabupaten Buru, Maluku","Kabupaten Buru, Maluku",MALUKU,,Indonesia,82198772734.0,,,-3.0745002,126.5367243,https://maps.google.com/?cid=0x0:0x27694175831358b6,
restaurant,Restoran,Rumah Makan Arto Moro,"HW4C+XVM, Grandeng, Kec. Waeapo, Kabupaten Buru, Maluku","Kabupaten Buru, Maluku",MALUKU,,Indonesia,82244667541.0,,,-3.4425406,126.9221758,https://maps.google.com/?cid=0x0:0x60b92ea876b548f0,
restaurant,Betawi,Dapur Fizzul - Rumah Makan Khas Maluku Jakarta No.1 Halal di Dunia,"Food Court Depan Grha Essi, Jl. Raya Ceger No.5, RT.5/RW.1, Ceger, Kec. Cipayung, Kota Jakarta Timur, Daerah Khusus Ibukota Jakarta 13820","Jl. Raya Ceger No.5, RT.5/RW.1, Ceger, Kec. Cipayung, Kota Jakarta Timur",MALUKU,13820.0,Indonesia,82131529069.0,,,-6.307207,106.8886462,https://maps.google.com/?cid=0x0:0xb39e6e8a1a4f4d03,
restaurant,Salad,Rumah Makan Pendowo,"P3QQ+WMH, Jl.tatanggo, Namlea, Kec. Namlea, Kabupaten Buru, Maluku","Kabupaten Buru, Maluku",MALUKU,,Indonesia,81344842849.0,,,-3.2601833,127.0892194,https://maps.google.com/?cid=0x0:0x5d3836672cd15ada,
restaurant,restaurant,Kec. Waeapo,"Kabupaten Buru, Maluku","Kabupaten Buru, Maluku",MALUKU,,Indonesia,,,,-3.4137528,126.925378,https://maps.google.com/?cid=0x0:0xf83f0231b9a9b5fd,
restaurant,Restoran,Rumah Makan Arto Moro,"HW4C+XVM, Grandeng, Kec. Waeapo, Kabupaten Buru, Maluku","Kabupaten Buru, Maluku",MALUKU,,Indonesia,82244667541.0,,,-3.4425406,126.9221758,https://maps.google.com/?cid=0x0:0x60b92ea876b548f0,
restaurant,Restoran,RM. Dewi Asih Tengah Sawah,"HWVR+M8M, Wanakarta, Kec. Waeapo, Kabupaten Buru, Maluku","Kabupaten Buru, Maluku",MALUKU,,Indonesia,82271437330.0,,,-3.4057977,126.9408045,https://maps.google.com/?cid=0x0:0x3077137fc777b079,
restaurant,,RM LESEHAN PUTRI KEMBAR,"JXRH+WG2, Waenetat, Kec. Waeapo, Kabupaten Buru, Maluku","Kabupaten Buru, Maluku",MALUKU,,Indonesia,82199828939.0,,,-3.3577373,126.978754,https://maps.google.com/?cid=0x0:0x5fe7a444bdfb553d,
restaurant,Restoran,Warung Makan Restu Mama,"HWPG+32P, Waegeren, Kec. Waeapo, Kabupaten Buru, Maluku","Kabupaten Buru, Maluku",MALUKU,,Indonesia,82198375070.0,,,-3.4147904,126.9250679,https://maps.google.com/?cid=0x0:0x7bea95319eee481e,
restaurant,Restoran,Warung Cafe Plus,"Unnamed Road, Waenetat, Kec. Waeapo, Kabupaten Buru, Maluku","Kabupaten Buru, Maluku",MALUKU,,Indonesia,85354517778.0,,,-3.3819394,126.9738775,https://maps.google.com/?cid=0x0:0x675f508f1d99992e,
restaurant,Kafe,KEDAI RAKDJAT 56,"Waegeren, Kec. Waeapo, Kabupaten Buru, Maluku","Kabupaten Buru, Maluku",MALUKU,,Indonesia,81299665383.0,,,-3.4125389,126.9281805,https://maps.google.com/?cid=0x0:0x740dbb6b8164dd97,
restaurant,Mi,RM. Kymochy,"HWPG+J8J, Waegeren, Kec. Waeapo, Kabupaten Buru, Maluku","Kabupaten Buru, Maluku",MALUKU,,Indonesia,82238567122.0,,,-3.4133233,126.92583,https://maps.google.com/?cid=0x0:0x66e1d255450dbadf,
restaurant,Restoran,Warung Makan Azzam Arema,"poros No.Road, Debowae, Kec. Waeapo, Kabupaten Buru, Maluku","Kabupaten Buru, Maluku",MALUKU,,Indonesia,,,,-3.4035614,127.0201484,https://maps.google.com/?cid=0x0:0x15970977d1fb5ebd,
restaurant,Restoran,Tuku Indonesia,"JXFP+642, Unnamed Road, Waenetat, Kec. Waeapo, Kabupaten Buru, Maluku","Kabupaten Buru, Maluku",MALUKU,,Indonesia,85245515542.0,,,-3.3769796,126.9852685,https://maps.google.com/?cid=0x0:0xd63a074a7a775021,
restaurant,Restoran,"Citra Wangi Resto, Namlea, Buru","Namlea, Kec. Namlea, Kabupaten Buru, Maluku","Kabupaten Buru, Maluku",MALUKU,,Indonesia,85344427488.0,,,-3.2641228,127.0885197,https://maps.google.com/?cid=0x0:0xccef20463848c233,
restaurant,Restoran,Rumah Makan Padang Ayah Atas Mako,"JXFQ+F72, Jl. Gatot Subroto, Waenetat, Kec. Waeapo, Kabupaten Buru, Maluku","Kabupaten Buru, Maluku",MALUKU,,Indonesia,81321571933.0,,,-3.3763629,126.9881297,https://maps.google.com/?cid=0x0:0xc78c54f81125fa1,
restaurant,Dapur Umum,WARUNG TUNJUK-TUNJUK,"JXHP+XXP, Jl. Flamboyan, Waenetat, Kec. Waeapo, Kabupaten Buru, Maluku","Kabupaten Buru, Maluku",MALUKU,,Indonesia,82132245558.0,,,-3.3700278,126.987439,https://maps.google.com/?cid=0x0:0xa3b53818c7282555,
restaurant,Toko umum,Warung dan rental Ps Dua Putra,"JXWG+W5M, Unnamed Road, Waetele, Kec. Waeapo, Kabupaten Buru, Maluku","Kabupaten Buru, Maluku",MALUKU,,Indonesia,82199121220.0,,,-3.3526541,126.9754136,https://maps.google.com/?cid=0x0:0xdc657a70ef86e683,
restaurant,Restoran,Warung Sate Mas Kirun,"Waenetat, Kec. Waeapo, Kabupaten Buru, Maluku","Kabupaten Buru, Maluku",MALUKU,,Indonesia,82198402337.0,,,-3.3531517,126.9763367,https://maps.google.com/?cid=0x0:0xd46bb6136fc7a8,
restaurant,Sate,Humairah Kitchen,"M2X9+F8V, Savanajaya, Kec. Waeapo, Kabupaten Buru, Maluku","Kabupaten Buru, Maluku",MALUKU,,Indonesia,,,,-3.3012689,127.0183037,https://maps.google.com/?cid=0x0:0x5fcb655055c11359,
restaurant,Brunch,Warung Sahabat,"Savanajaya, Kec. Waeapo, Kabupaten Buru, Maluku","Kabupaten Buru, Maluku",MALUKU,,Indonesia,,,,-3.2991169,127.0187604,https://maps.google.com/?cid=0x0:0x687cf5eedf308bd3,
restaurant,Mi,"Warung Mania Bakso mercon""""","HW4C+9P7, Trans Buru Mako-Modaumohe, Grandeng, Kec. Waeapo, Kabupaten Buru, Maluku","Kabupaten Buru, Maluku",MALUKU,,Indonesia,82352619135.0,,,-3.4440798,126.9217973,https://maps.google.com/?cid=0x0:0x1fe2843a07971690,
restaurant,Mi,Mie Ayam  Bakso 52,"Lolong Guba, Grandeng, Kec. Waeapo, Kabupaten Buru, Maluku 97574","Grandeng, Kec. Waeapo, Kabupaten Buru",MALUKU,97574.0,Indonesia,81343461985.0,,,-3.4373519,126.9223353,https://maps.google.com/?cid=0x0:0xa836875761f090ab,
restaurant,Dapur Umum,KEDAI ERLIFFA,"HW4F+PR6, Grandeng, Kec. Waeapo, Kabupaten Buru, Maluku","Kabupaten Buru, Maluku",MALUKU,,Indonesia,81245365096.0,,,-3.4432161,126.9245261,https://maps.google.com/?cid=0x0:0x1f586b8c1197075f,
restaurant,Kedai Kopi,Kedai FAIZ,"Waetele, Kec. Waeapo, Kabupaten Buru, Maluku","Kabupaten Buru, Maluku",MALUKU,,Indonesia,,,,-3.3527884,126.9755897,https://maps.google.com/?cid=0x0:0xe21da4b21be329ed,
restaurant,restaurant,WARUNG BAKSO MEKAR SAVANA,"M2W8+5WV, Savanajaya, Kec. Waeapo, Kabupaten Buru, Maluku","Kabupaten Buru, Maluku",MALUKU,,Indonesia,,,,-3.3040184,127.0176491,https://maps.google.com/?cid=0x0:0xfd9a013dab028cd5,
restaurant,restaurant,Waplau,"Kabupaten Buru, Maluku","Kabupaten Buru, Maluku",MALUKU,,Indonesia,,,,-3.1224517,126.8821197,https://maps.google.com/?cid=0x0:0xa108369a69306737,
restaurant,Dapur Umum,RM Pujangga,"VVMM+PMV, Jl. Propinsi, Waplau, Kabupaten Buru, Maluku","Kabupaten Buru, Maluku",MALUKU,,Indonesia,,,,-3.115631,126.8841754,https://maps.google.com/?cid=0x0:0x82a76a2d155dba5a,
restaurant,Bar Karaoke,Slita Family Karaoke,"P3WV+CW9, Namlea, Kec. Namlea, Kabupaten Buru, Maluku","Kabupaten Buru, Maluku",MALUKU,,Indonesia,82319086714.0,,,-3.2539659,127.0948445,https://maps.google.com/?cid=0x0:0x8d829555207dee96,
restaurant,Restoran,Callmeex beach,"WQQ9+5QQ, Hatawano, Waplau, Kabupaten Buru, Maluku","Kabupaten Buru, Maluku",MALUKU,,Indonesia,,,,-3.0613926,126.7691568,https://maps.google.com/?cid=0x0:0xf1c1330de161269b,
restaurant,Komplek perumahan,RM Wakatobi,"Fena Leisela, Jl. Propinsi No.KM 80, Wamlana, Tlk. Kaiely, Kabupaten Buru, Maluku","Kabupaten Buru, Maluku",MALUKU,,Indonesia,82239711790.0,,,-3.0754653,126.543609,https://maps.google.com/?cid=0x0:0x6c8960b03b027812,
restaurant,Komplek perumahan,Ruma pribadi Chaken,"WR7V+27, Waeura, Waplau, Kabupaten Buru, Maluku","Kabupaten Buru, Maluku",MALUKU,,Indonesia,82213494686.0,,,-3.0874831,126.8432336,https://maps.google.com/?cid=0x0:0x3a2f720b57fb8c05,
restaurant,Indonesia,"Warung bakso,sarmento ifa,ar","Jln propinsi desa waplau, Namlea, Waplau, Kabupaten Buru, Maluku 97572","Namlea, Waplau, Kabupaten Buru",MALUKU,97572.0,Indonesia,85243026205.0,,,-3.1205731,126.8824618,https://maps.google.com/?cid=0x0:0x9c8b37da5756dbf5,
restaurant,Kedai Kopi,Rumah bpk ake,"RPGH+J68, Waprea, Waplau, Kabupaten Buru, Maluku","Kabupaten Buru, Maluku",MALUKU,,Indonesia,,,,-3.1734613,126.7280692,https://maps.google.com/?cid=0x0:0xf6afb6e85c70fb38,
restaurant,Kantor Pemerintah,Waplau,"VVFJ+VFJ, Waplau, Kabupaten Buru, Maluku","Kabupaten Buru, Maluku",MALUKU,,Indonesia,,,,-3.1252058,126.8818264,https://maps.google.com/?cid=0x0:0xa166ddf2981bde46,
restaurant,Restoran,Wailela Cafe and Resto | Ambon,"Jl. Kampus, Rumah Tiga, Kec. Tlk. Ambon, Kota Ambon, Maluku","Kota Ambon, Maluku",MALUKU,,Indonesia,82399522113.0,,,-3.6610624,128.180609,https://maps.google.com/?cid=0x0:0x3acbc85ce4ef2d6d,
restaurant,restaurant,Tower TLB,"WPJ9+5G, Waprea, Waplau, Kabupaten Buru, Maluku","Kabupaten Buru, Maluku",MALUKU,,Indonesia,,,,-3.0695064,126.7188094,https://maps.google.com/?cid=0x0:0xb0a5717a5e82f9eb,
restaurant,Motel,Kedai Aje dan Kos-Kosan Aje,"Hatawano, Waplau, Namlea, Maluku 97571","Waplau, Namlea",MALUKU,97571.0,Indonesia,82394602195.0,,,-3.0610039,126.7607713,https://maps.google.com/?cid=0x0:0xa310a3305b034f06,
restaurant,Restoran,"Gado-gado,soto dan bakso bunda threeboy","Des, Waeura, Namlea, Maluku 97571","Waeura, Namlea",MALUKU,97571.0,Indonesia,,,,-3.0867443,126.8392652,https://maps.google.com/?cid=0x0:0xa6204779d1035bf5,
restaurant,Kantor Pemerintah,PKM Wamlana,"WGFV+Q3P, Wamlana, Kec. Fena Leisela, Kabupaten Buru, Maluku","Kabupaten Buru, Maluku",MALUKU,,Indonesia,,,,-3.0755059,126.5427425,https://maps.google.com/?cid=0x0:0xc73d43c12c65a8ef,
restaurant,Restoran,Warung Cafe Plus,"Unnamed Road, Waenetat, Kec. Waeapo, Kabupaten Buru, Maluku","Kabupaten Buru, Maluku",MALUKU,,Indonesia,85354517778.0,,,-3.3819394,126.9738775,https://maps.google.com/?cid=0x0:0x675f508f1d99992e,
restaurant,Betawi,Dapur Fizzul - Rumah Makan Khas Maluku Jakarta No.1 Halal di Dunia,"Food Court Depan Grha Essi, Jl. Raya Ceger No.5, RT.5/RW.1, Ceger, Kec. Cipayung, Kota Jakarta Timur, Daerah Khusus Ibukota Jakarta 13820","Jl. Raya Ceger No.5, RT.5/RW.1, Ceger, Kec. Cipayung, Kota Jakarta Timur",MALUKU,13820.0,Indonesia,82131529069.0,,,-6.307207,106.8886462,https://maps.google.com/?cid=0x0:0xb39e6e8a1a4f4d03,
restaurant,restaurant,Kedai Kamboja Waplau,"VVGJ+JRM, Waplau, Kabupaten Buru, Maluku","Kabupaten Buru, Maluku",MALUKU,,Indonesia,,,,-3.123402,126.8820349,https://maps.google.com/?cid=0x0:0xd5804f86e40f1716,
restaurant,Bakso,Bakso Sri Tanjung,"P4H4+PMM, Namlea, Kec. Namlea, Kabupaten Buru, Maluku","Kabupaten Buru, Maluku",MALUKU,,Indonesia,,,,-3.2706517,127.106683,https://maps.google.com/?cid=0x0:0x82aef765b57946ff,
restaurant,Betawi,Dapur Fizzul - Rumah Makan Khas Maluku Jakarta No.1 Halal di Dunia,"Food Court Depan Grha Essi, Jl. Raya Ceger No.5, RT.5/RW.1, Ceger, Kec. Cipayung, Kota Jakarta Timur, Daerah Khusus Ibukota Jakarta 13820","Jl. Raya Ceger No.5, RT.5/RW.1, Ceger, Kec. Cipayung, Kota Jakarta Timur",MALUKU,13820.0,Indonesia,82131529069.0,,,-6.307207,106.8886462,https://maps.google.com/?cid=0x0:0xb39e6e8a1a4f4d03,
restaurant,Restoran,RM BAKSO IJUL THIO,"C6CX+F8W, Ilath, Kec. Bata Bual, Kabupaten Buru, Maluku","Kabupaten Buru, Maluku",MALUKU,,Indonesia,,,,-3.5787547,127.2483206,https://maps.google.com/?cid=0x0:0xddb539f97519769a,
restaurant,Dapur Umum,Dapur Babah Elite,"4, Jl. Veteran I No.18-19, RT.4/RW.2, Gambir, Kecamatan Gambir, Kota Jakarta Pusat, Daerah Khusus Ibukota Jakarta 10110","Jl. Veteran I No.18-19, RT.4/RW.2, Gambir, Kecamatan Gambir, Kota Jakarta Pusat",MALUKU,10110.0,Indonesia,85100602256.0,,,-6.1700234,106.8298797,https://maps.google.com/?cid=0x0:0xbb8109f0025675bc,
restaurant,Rumah Makan,Warung bakso ikan bu'lek,"Namlea, Kec. Namlea, Kabupaten Buru, Maluku","Kabupaten Buru, Maluku",MALUKU,,Indonesia,85158031143.0,,,-3.273986,127.0945802,https://maps.google.com/?cid=0x0:0x8860c6f476a5fb33,
restaurant,restaurant,Maluku,,Maluku,MALUKU,,Indonesia,,,,-3.2384616,130.1452734,https://maps.google.com/?cid=0x0:0x5e30e8db04649a51,
restaurant,Hidangan Laut,Lateri Beach Restaurant,"Lateri, Kec. Baguala, Kota Ambon, Maluku","Kota Ambon, Maluku",MALUKU,,Indonesia,81240783897.0,,,-3.6479651,128.2330484,https://maps.google.com/?cid=0x0:0x17f2f5444327987a,
restaurant,Hidangan Laut,Dapor Kole Kole,"853M+V56, Jl. Dana Kopra No.16, Uritetu, Kec. Sirimau, Kota Ambon, Maluku 97124","Jl. Dana Kopra No.16, Uritetu, Kec. Sirimau, Kota Ambon",MALUKU,97124.0,Indonesia,81399266788.0,,,-3.6952343,128.1830069,https://maps.google.com/?cid=0x0:0x29f9db4e2df0a98f,
restaurant,Hidangan Laut,SMORGAN Resto,"PXJV+JGQ, Jl. Pemerintahan, depan KODIM, Halut, Mkcm, Tobelo, North Halmahera Regency, North Maluku","Kabupaten Halmahera Utara, Maluku Utara",MALUKU,,Indonesia,85201115150.0,,,1.7315784,127.9938588,https://maps.google.com/?cid=0x0:0xd45d6fcd651f0c5c,
restaurant,Restoran,You Ma You La Grand Indonesia,"Jl. M.H Thamrin No.1 Kb. Melati, Kec. Menteng West Mall Grand Indonesia, 3A Floor Unit WM-3A-02A, RT.1/RW.5, Menteng, Central Jakarta City, Jakarta 10310","Kec. Menteng West Mall Grand Indonesia, 3A Floor Unit WM-3A-02A, RT.1/RW.5, Menteng, Central Jakarta City",MALUKU,10310.0,Indonesia,82112713170.0,,,-6.1949195,106.8195742,https://maps.google.com/?cid=0x0:0x67904b481f237dca,
restaurant,restaurant,The Natsepa Hotel  Resort,"Jl. Natsepa No.36, Suli, Kec. Salahutu, Kabupaten Maluku Tengah, Maluku 97582","Suli, Kec. Salahutu, Kabupaten Maluku Tengah",MALUKU,97582.0,Indonesia,911362555.0,,,-3.6224597,128.2856783,https://maps.google.com/?cid=0x0:0xb66509852ba2428c,
restaurant,restaurant,,,,MALUKU,,Indonesia,,,,,,https://maps.google.com/?cid=0x0:0xb66509852ba2428c%7C/g/121qycpm%7Cen-ID,
restaurant,Betawi,Dapur Fizzul - Rumah Makan Khas Maluku Jakarta No.1 Halal di Dunia,"Food Court Depan Grha Essi, Jl. Raya Ceger No.5, RT.5/RW.1, Ceger, Kec. Cipayung, Kota Jakarta Timur, Daerah Khusus Ibukota Jakarta 13820","Jl. Raya Ceger No.5, RT.5/RW.1, Ceger, Kec. Cipayung, Kota Jakarta Timur",MALUKU,13820.0,Indonesia,82131529069.0,,,-6.307207,106.8886462,https://maps.google.com/?cid=0x0:0xb39e6e8a1a4f4d03,
restaurant,restaurant,Pantai Natsepa,"Suli, Kec. Salahutu, Kabupaten Maluku Tengah, Maluku","Kabupaten Maluku Tengah, Maluku",MALUKU,,Indonesia,,,,-3.6215465,128.2921198,https://maps.google.com/?cid=0x0:0x4f23bfbc3a9673f2,
restaurant,restaurant,Moluccas Restaurant,"Jl. Natsepa No.36, Suli, Kec. Salahutu, Kabupaten Maluku Tengah, Maluku 97582","Suli, Kec. Salahutu, Kabupaten Maluku Tengah",MALUKU,97582.0,Indonesia,,,,-3.6228916,128.2856889,https://maps.google.com/?cid=0x0:0xb337eb8a08cdf9c7,
restaurant,Mi,Mie Ayam  Bakso 52,"Lolong Guba, Grandeng, Kec. Waeapo, Kabupaten Buru, Maluku 97574","Grandeng, Kec. Waeapo, Kabupaten Buru",MALUKU,97574.0,Indonesia,81343461985.0,,,-3.4373519,126.9223353,https://maps.google.com/?cid=0x0:0xa836875761f090ab,
restaurant,Restoran,"Citra Wangi Resto, Namlea, Buru","Namlea, Kec. Namlea, Kabupaten Buru, Maluku","Kabupaten Buru, Maluku",MALUKU,,Indonesia,85344427488.0,,,-3.2641228,127.0885197,https://maps.google.com/?cid=0x0:0xccef20463848c233,
restaurant,Rumah Makan,Dapoer Almaasz,"Jl. Kelapa No.17, RT.5/RW.2, Ceger, Kec. Cipayung, Kota Jakarta Timur, Daerah Khusus Ibukota Jakarta 13820","RT.5/RW.2, Ceger, Kec. Cipayung, Kota Jakarta Timur",MALUKU,13820.0,Indonesia,,,,-6.3104883,106.8904197,https://maps.google.com/?cid=0x0:0xf8fac86c3d9adcb0,
restaurant,Restoran,Markas Foodcourt Pusat Kuliner,"MVMR+CQP, RT.5/RW.3, Ceger, Kec. Cipayung, Kota Jakarta Timur, Daerah Khusus Ibukota Jakarta 13820","RT.5/RW.3, Ceger, Kec. Cipayung, Kota Jakarta Timur",MALUKU,13820.0,Indonesia,81286064048.0,,,-6.3164127,106.8919666,https://maps.google.com/?cid=0x0:0xed51600e5d024fa9,
restaurant,restaurant,,,,MALUKU,,Indonesia,,,,,,https://maps.google.com/?cid=0x0:0xb39e6e8a1a4f4d03u0026onu003dPapeda+Beserta+Ikan+Masak+Kuningu0026midu003d/g/11l2zyx1f4,
restaurant,Soto,Rumah Makan Betawi Hj. Dahlia,"Jalan Raya Hankam No.28 RT.1/RW.2 Bambu Apus, RT.1/RW.2, Ceger, Kec. Cipayung, Kota Jakarta Timur, Daerah Khusus Ibukota Jakarta 13820","RT.1/RW.2, Ceger, Kec. Cipayung, Kota Jakarta Timur",MALUKU,13820.0,Indonesia,82344455579.0,,,-6.3048759,106.8872261,https://maps.google.com/?cid=0x0:0x47572f8d80dc021b,
restaurant,restaurant,,,,MALUKU,,Indonesia,,,,,,https://maps.google.com/?cid=0x0:0xb39e6e8a1a4f4d03u0026onu003dPisang+Ijou0026midu003d/g/11l2zyx1f4,
restaurant,restaurant,,,,MALUKU,,Indonesia,,,,,,https://maps.google.com/?cid=0x0:0xb39e6e8a1a4f4d03u0026onu003dPapeda+Dan+Ikan+Kuah+Kuning+Dan+Ikan+Bakaru0026midu003d/g/11l2zyx1f4,
restaurant,restaurant,,,,MALUKU,,Indonesia,,,,,,https://maps.google.com/?cid=0x0:0xb39e6e8a1a4f4d03u0026onu0026midu003d/g/11l2zyx1f4,
restaurant,restaurant,Kec. Waelata,"Kabupaten Buru, Maluku","Kabupaten Buru, Maluku",MALUKU,,Indonesia,,,,-3.4811436,126.9241917,https://maps.google.com/?cid=0x0:0xd5c06f16d8212c44,
restaurant,Restoran,Rumah Makan Arto Moro,"HW4C+XVM, Grandeng, Kec. Waeapo, Kabupaten Buru, Maluku","Kabupaten Buru, Maluku",MALUKU,,Indonesia,82244667541.0,,,-3.4425406,126.9221758,https://maps.google.com/?cid=0x0:0x60b92ea876b548f0,
restaurant,Kafe,KEDAI RAKDJAT 56,"Waegeren, Kec. Waeapo, Kabupaten Buru, Maluku","Kabupaten Buru, Maluku",MALUKU,,Indonesia,81299665383.0,,,-3.4125389,126.9281805,https://maps.google.com/?cid=0x0:0x740dbb6b8164dd97,
restaurant,Restoran,Bakso Rani,"H284+WV, Parbulu, Kec. Waelata, Kabupaten Buru, Maluku","Kabupaten Buru, Maluku",MALUKU,,Indonesia,,,,-3.4326642,127.0072622,https://maps.google.com/?cid=0x0:0x377239c94cb31002,
restaurant,Padang,Rumah makan AYAH (masakan Padang),"J22F+259, Jl. Tambang Emas Gn. Botak, Debowae, Kec. Waelata, Kabupaten Buru, Maluku","Kabupaten Buru, Maluku",MALUKU,,Indonesia,82298302503.0,,,-3.3999538,127.022985,https://maps.google.com/?cid=0x0:0xa440245c9bd51f77,
restaurant,Kafe,KEDAI ROKET,"H284+G86 Syuhada, Jln, Parbulu, Waelata, Buru Regency, Maluku","Kabupaten Buru, Maluku",MALUKU,,Indonesia,82248872580.0,,,-3.4337043,127.0057723,https://maps.google.com/?cid=0x0:0x874915813aaa82f,
restaurant,Restoran,RM.IDOLA,"GX5P+QGP, Waelo, Kec. Waelata, Kabupaten Buru, Maluku","Kabupaten Buru, Maluku",MALUKU,,Indonesia,,,,-3.4905453,126.9863415,https://maps.google.com/?cid=0x0:0xb5894b084b9a4036,
restaurant,Rumah Makan,Mi Ayam Dan Bakso Solo unit 11,"HW6C+MXF Mako-Modaumohe, Jalan Trans Buru, Grandeng, Waeapo, Buru Regency, Maluku","Kabupaten Buru, Maluku",MALUKU,,Indonesia,82131543555.0,,,-3.438319,126.9224342,https://maps.google.com/?cid=0x0:0x48593a13adf884dd,
restaurant,Restoran,Tuku Indonesia,"JXFP+642, Unnamed Road, Waenetat, Kec. Waeapo, Kabupaten Buru, Maluku","Kabupaten Buru, Maluku",MALUKU,,Indonesia,85245515542.0,,,-3.3769796,126.9852685,https://maps.google.com/?cid=0x0:0xd63a074a7a775021,
restaurant,Restoran,Warung Cafe Plus,"Unnamed Road, Waenetat, Kec. Waeapo, Kabupaten Buru, Maluku","Kabupaten Buru, Maluku",MALUKU,,Indonesia,85354517778.0,,,-3.3819394,126.9738775,https://maps.google.com/?cid=0x0:0x675f508f1d99992e,
restaurant,Kafe,Kedei kenzo,"JXPM+FM9, Waenetat, Kec. Waeapo, Kabupaten Buru, Maluku","Kabupaten Buru, Maluku",MALUKU,,Indonesia,82312865141.0,,,-3.3638315,126.9842308,https://maps.google.com/?cid=0x0:0xa3be7d7ee84c1983,
restaurant,Mi,"Warung Mania Bakso mercon""""","HW4C+9P7, Trans Buru Mako-Modaumohe, Grandeng, Kec. Waeapo, Kabupaten Buru, Maluku","Kabupaten Buru, Maluku",MALUKU,,Indonesia,82352619135.0,,,-3.4440798,126.9217973,https://maps.google.com/?cid=0x0:0x1fe2843a07971690,
restaurant,Rumah Kaca,Rumah tya,"J27F+GHM, Debowae, Kec. Waelata, Kabupaten Buru, Maluku","Kabupaten Buru, Maluku",MALUKU,,Indonesia,,,,-3.386159,127.0239303,https://maps.google.com/?cid=0x0:0x8e8a7e95ac41c9c4,
restaurant,Restoran,RM. Dewi Asih Tengah Sawah,"HWVR+M8M, Wanakarta, Kec. Waeapo, Kabupaten Buru, Maluku","Kabupaten Buru, Maluku",MALUKU,,Indonesia,82271437330.0,,,-3.4057977,126.9408045,https://maps.google.com/?cid=0x0:0x3077137fc777b079,
restaurant,Restoran,Rumah Makan Padang Ayah Atas Mako,"JXFQ+F72, Jl. Gatot Subroto, Waenetat, Kec. Waeapo, Kabupaten Buru, Maluku","Kabupaten Buru, Maluku",MALUKU,,Indonesia,81321571933.0,,,-3.3763629,126.9881297,https://maps.google.com/?cid=0x0:0xc78c54f81125fa1,
restaurant,Padang,RM ANDARA,"RT.2/RW1/RW.Depan koramil, Waenetat, Mako, Kabupaten Buru, Maluku 97578","Waenetat, Mako, Kabupaten Buru",MALUKU,97578.0,Indonesia,81332745513.0,,,-3.3771009,126.984644,https://maps.google.com/?cid=0x0:0x3384dbaf502ecd53,
restaurant,Dapur Umum,KEDAI ERLIFFA,"HW4F+PR6, Grandeng, Kec. Waeapo, Kabupaten Buru, Maluku","Kabupaten Buru, Maluku",MALUKU,,Indonesia,81245365096.0,,,-3.4432161,126.9245261,https://maps.google.com/?cid=0x0:0x1f586b8c1197075f,
restaurant,Mi,Mie Ayam  Bakso 52,"Lolong Guba, Grandeng, Kec. Waeapo, Kabupaten Buru, Maluku 97574","Grandeng, Kec. Waeapo, Kabupaten Buru",MALUKU,97574.0,Indonesia,81343461985.0,,,-3.4373519,126.9223353,https://maps.google.com/?cid=0x0:0xa836875761f090ab,
restaurant,Rumah Makan,RUMAH MAKAN IQBAL,"GANG JALUR E JALAN SDN 8, Upt Wamsait, Kec. Waelata, Kabupaten Buru, Maluku","Kabupaten Buru, Maluku",MALUKU,,Indonesia,,,,-3.4041505,127.0465955,https://maps.google.com/?cid=0x0:0x382c90693e9a9e5,
restaurant,Restoran,Rumah makan,"Waetina, Namlea, Kabupaten Buru, Maluku 97574","Namlea, Kabupaten Buru",MALUKU,97574.0,Indonesia,,,,-3.4842658,126.9223536,https://maps.google.com/?cid=0x0:0xe8c12a7d35a64e45,
restaurant,,RM LESEHAN PUTRI KEMBAR,"JXRH+WG2, Waenetat, Kec. Waeapo, Kabupaten Buru, Maluku","Kabupaten Buru, Maluku",MALUKU,,Indonesia,82199828939.0,,,-3.3577373,126.978754,https://maps.google.com/?cid=0x0:0x5fe7a444bdfb553d,
restaurant,Nasi,Warung makan matua,"Wamsait, jalur b, Namlea, Maluku 75556","jalur b, Namlea",MALUKU,75556.0,Indonesia,,,,-3.4067228,127.0401528,https://maps.google.com/?cid=0x0:0x23df4a4e7b2009c3,
restaurant,Dapur Umum,WARUNG TUNJUK-TUNJUK,"JXHP+XXP, Jl. Flamboyan, Waenetat, Kec. Waeapo, Kabupaten Buru, Maluku","Kabupaten Buru, Maluku",MALUKU,,Indonesia,82132245558.0,,,-3.3700278,126.987439,https://maps.google.com/?cid=0x0:0xa3b53818c7282555,
restaurant,restaurant,Maluku,,Maluku,MALUKU,,Indonesia,,,,-3.2384616,130.1452734,https://maps.google.com/?cid=0x0:0x5e30e8db04649a51,
restaurant,Restoran,Wailela Cafe and Resto | Ambon,"Jl. Kampus, Rumah Tiga, Kec. Tlk. Ambon, Kota Ambon, Maluku","Kota Ambon, Maluku",MALUKU,,Indonesia,82399522113.0,,,-3.6610624,128.180609,https://maps.google.com/?cid=0x0:0x3acbc85ce4ef2d6d,
restaurant,Rumah Makan,Waroeng Galaxy,"P3QR+56R, Namlea, Kec. Namlea, Kabupaten Buru, Maluku","Kabupaten Buru, Maluku",MALUKU,,Indonesia,,,,-3.2618634,127.0903698,https://maps.google.com/?cid=0x0:0x82cfc4deaa70d4d1,
restaurant,Bar Karaoke,Slita Family Karaoke,"P3WV+CW9, Namlea, Kec. Namlea, Kabupaten Buru, Maluku","Kabupaten Buru, Maluku",MALUKU,,Indonesia,82319086714.0,,,-3.2539659,127.0948445,https://maps.google.com/?cid=0x0:0x8d829555207dee96,
restaurant,Rumah Makan,Rumah Makan Umega 2,"5P5Q+XGW, Jl. Kabupaten, Labuang, Kec. Namrole, Kabupaten Buru Selatan, Maluku","Kabupaten Buru Selatan, Maluku",MALUKU,,Indonesia,85244630002.0,,,-3.8400044,126.7388435,https://maps.google.com/?cid=0x0:0xd95f1e190a7ecfd9,
restaurant,Brunch,Dapur Chaira,"P3VW+65W, Namlea, Kec. Namlea, Kabupaten Buru, Maluku","Kabupaten Buru, Maluku",MALUKU,,Indonesia,8524328989.0,,,-3.2568759,127.0954477,https://maps.google.com/?cid=0x0:0x26b2bb589c9b870c,
restaurant,Hidangan Laut,Lateri Beach Restaurant,"Lateri, Kec. Baguala, Kota Ambon, Maluku","Kota Ambon, Maluku",MALUKU,,Indonesia,81240783897.0,,,-3.6479651,128.2330484,https://maps.google.com/?cid=0x0:0x17f2f5444327987a,
restaurant,Indonesia,OLina caferesto,"97H4+2QG, Passo, Kec. Baguala, Kota Ambon, Maluku","Kota Ambon, Maluku",MALUKU,,Indonesia,82199231798.0,,,-3.6225066,128.2574029,https://maps.google.com/?cid=0x0:0xb19ebc731e4d5590,
restaurant,Salad,Rumah Makan Pendowo,"P3QQ+WMH, Jl.tatanggo, Namlea, Kec. Namlea, Kabupaten Buru, Maluku","Kabupaten Buru, Maluku",MALUKU,,Indonesia,81344842849.0,,,-3.2601833,127.0892194,https://maps.google.com/?cid=0x0:0x5d3836672cd15ada,
restaurant,Nasi,Warung khaila,"7RC7+2P6, Jalan Kabupaten, Labuang, Kec. Namrole, Kabupaten Buru Selatan, Maluku","Kabupaten Buru Selatan, Maluku",MALUKU,,Indonesia,,,,-3.7299502,126.8142605,https://maps.google.com/?cid=0x0:0x30cff4d718de88dc,
restaurant,Hidangan Laut,Rumah Makan Ratu Gurih,"Jl. Diponegoro No.26, Kel Ahusen, Kec. Sirimau, Kota Ambon, Maluku","Kota Ambon, Maluku",MALUKU,,Indonesia,911341202.0,,,-3.6996863,128.1811859,https://maps.google.com/?cid=0x0:0x6d46a58903276417,
restaurant,Restoran,3 KOKI,"Jl. Ir. Soekarno, Olilit, Tanimbar Sel., Kab. Kepulauan Tanimbar, Maluku","Kab. Kepulauan Tanimbar, Maluku",MALUKU,,Indonesia,82198603600.0,,,-7.9790336,131.3085797,https://maps.google.com/?cid=0x0:0xf4b360d52fb257bb,
restaurant,Hidangan Laut,Cili Padi Restaurant,"Said Perintah No.52, Kel Honipopu, Kec. Sirimau, Kota Ambon, Maluku","Kota Ambon, Maluku",MALUKU,,Indonesia,911348736.0,,,-3.6977926,128.1806173,https://maps.google.com/?cid=0x0:0x4da49f6c344ede1a,
restaurant,Restoran,Rumah makan,"Waetina, Namlea, Kabupaten Buru, Maluku 97574","Namlea, Kabupaten Buru",MALUKU,97574.0,Indonesia,,,,-3.4842658,126.9223536,https://maps.google.com/?cid=0x0:0xe8c12a7d35a64e45,
restaurant,Restoran,88 Seafood Restaurant,"954V+J9Q, Jl. Y. Syaranamual, Poka, Kec. Tlk. Ambon, Kota Ambon, Maluku","Kota Ambon, Maluku",MALUKU,,Indonesia,81244017203.0,,,-3.643413,128.1934707,https://maps.google.com/?cid=0x0:0xe0e80a6465ae7fa5,
restaurant,Hidangan Laut,Rumah Makan Apong Wayame Ambon,"85M8+QWV, Wayame, Kec. Tlk. Ambon, Kota Ambon, Maluku","Kota Ambon, Maluku",MALUKU,,Indonesia,81248190849.0,,,-3.6655121,128.1673018,https://maps.google.com/?cid=0x0:0x6ed6b36e06e5de48,
restaurant,Kafe,Four Palms Cafe,"Jl. Raja, Halong, Baru Atas, Kota Ambon, Maluku","Kota Ambon, Maluku",MALUKU,,Indonesia,811470599.0,,,-3.6551658,128.2342334,https://maps.google.com/?cid=0x0:0x3116d9e359ad016b,
restaurant,Komplek perumahan,Kenzo Cafe,"Ke arah IAKN Jl. PHB Halong Atas, Halong, Kec. Baguala, Kota Ambon, Maluku","Kota Ambon, Maluku",MALUKU,,Indonesia,85243844686.0,,,-3.6639924,128.2092338,https://maps.google.com/?cid=0x0:0xc0724ba9ea49ec92,
restaurant,Bar Minuman Anggur,jiahduila,"VX4V+523, Jl. Propinsi, Sawa, Kec. Namlea, Kabupaten Buru, Maluku","Kabupaten Buru, Maluku",MALUKU,,Indonesia,,,,-3.1446076,126.9925405,https://maps.google.com/?cid=0x0:0xcc20bcbf77db2fa2,
restaurant,Betawi,Dapur Fizzul - Rumah Makan Khas Maluku Jakarta No.1 Halal di Dunia,"Food Court Depan Grha Essi, Jl. Raya Ceger No.5, RT.5/RW.1, Ceger, Kec. Cipayung, Kota Jakarta Timur, Daerah Khusus Ibukota Jakarta 13820","Jl. Raya Ceger No.5, RT.5/RW.1, Ceger, Kec. Cipayung, Kota Jakarta Timur",MALUKU,13820.0,Indonesia,82131529069.0,,,-6.307207,106.8886462,https://maps.google.com/?cid=0x0:0xb39e6e8a1a4f4d03,
restaurant,Seblak,Dumogi Cafe,"JL Raya Pasar Ciseeng, RT 3 RW 2, Ciseeng Parung, Parigi Mekar, Kec. Ciseeng, Kabupaten Bogor, Jawa Barat 16120","RT 3 RW 2, Ciseeng Parung, Parigi Mekar, Kec. Ciseeng, Kabupaten Bogor",MALUKU,16120.0,Indonesia,81314120096.0,,,-6.4508223,106.6994011,https://maps.google.com/?cid=0x0:0xd9537ab988366e05,
restaurant,Rumah Makan,Dumogi Lalapan Sunda,"Jl. Sunter Jaya I No.80, RT.14/RW.2, Sunter Jaya, Kec. Tj. Priok, Jkt Utara, Daerah Khusus Ibukota Jakarta 14360","RT.14/RW.2, Sunter Jaya, Kec. Tj. Priok, Jkt Utara",MALUKU,14360.0,Indonesia,81808183666.0,,,-6.1523552,106.8612072,https://maps.google.com/?cid=0x0:0x101418db65e18264,
restaurant,restaurant,Tlk. Kaiely,"Kabupaten Buru, Maluku","Kabupaten Buru, Maluku",MALUKU,,Indonesia,,,,-3.3033929,126.5661908,https://maps.google.com/?cid=0x0:0x12b5aeb27efc20e0,
restaurant,Komplek perumahan,RM Wakatobi,"Fena Leisela, Jl. Propinsi No.KM 80, Wamlana, Tlk. Kaiely, Kabupaten Buru, Maluku","Kabupaten Buru, Maluku",MALUKU,,Indonesia,82239711790.0,,,-3.0754653,126.543609,https://maps.google.com/?cid=0x0:0x6c8960b03b027812,
restaurant,Nasi,Warung bpk kuseri,"H2VR+P5, Upt Wamsait, Teluk Kaiely, Kabupaten Buru, Maluku","Kabupaten Buru, Maluku",MALUKU,,Indonesia,82189365086.0,,,-3.4050467,127.0405059,https://maps.google.com/?cid=0x0:0xe6fd0b4e8dcadd24,
restaurant,restaurant,RM. Dahlia,"P3HX+3MG, Jl. Pendidikan, Namlea, Kec. Namlea, Kabupaten Buru, Maluku","Kabupaten Buru, Maluku",MALUKU,,Indonesia,,,,-3.2723135,127.0992039,https://maps.google.com/?cid=0x0:0xec1bb5ecc2de3c10,
restaurant,Kafe,Kedei kenzo,"JXPM+FM9, Waenetat, Kec. Waeapo, Kabupaten Buru, Maluku","Kabupaten Buru, Maluku",MALUKU,,Indonesia,82312865141.0,,,-3.3638315,126.9842308,https://maps.google.com/?cid=0x0:0xa3be7d7ee84c1983,
restaurant,Restoran,"Citra Wangi Resto, Namlea, Buru","Namlea, Kec. Namlea, Kabupaten Buru, Maluku","Kabupaten Buru, Maluku",MALUKU,,Indonesia,85344427488.0,,,-3.2641228,127.0885197,https://maps.google.com/?cid=0x0:0xccef20463848c233,
restaurant,Nasi,Namlea buru,"H3V2+R86, Upt Wamsait, Tlk. Kaiely, Kabupaten Buru, Maluku","Kabupaten Buru, Maluku",MALUKU,,Indonesia,,,,-3.4054701,127.0507676,https://maps.google.com/?cid=0x0:0x6b520f392ad21c9,
restaurant,,RM LESEHAN PUTRI KEMBAR,"JXRH+WG2, Waenetat, Kec. Waeapo, Kabupaten Buru, Maluku","Kabupaten Buru, Maluku",MALUKU,,Indonesia,82199828939.0,,,-3.3577373,126.978754,https://maps.google.com/?cid=0x0:0x5fe7a444bdfb553d,
restaurant,Nasi,Warung makan matua,"Wamsait, jalur b, Namlea, Maluku 75556","jalur b, Namlea",MALUKU,75556.0,Indonesia,,,,-3.4067228,127.0401528,https://maps.google.com/?cid=0x0:0x23df4a4e7b2009c3,
restaurant,restaurant,Bakso Kiky,"samping mushola Ar Rahman desa waekoseKabupaten, Jln lintas, Waspait, Kec. Air Buaya, Kabupaten Buru, Maluku","Kabupaten Buru, Maluku",MALUKU,,Indonesia,,,,-3.0721218,126.5953504,https://maps.google.com/?cid=0x0:0xb13f58448785f978,
restaurant,Rumah Makan,RM Dewi Asih,"P3XV+9Q4, Namlea, Kec. Namlea, Kabupaten Buru, Maluku","Kabupaten Buru, Maluku",MALUKU,,Indonesia,812248990448.0,,,-3.2516178,127.0944555,https://maps.google.com/?cid=0x0:0x62423162adb2c1e6,
restaurant,Restoran,Tuku Indonesia,"JXFP+642, Unnamed Road, Waenetat, Kec. Waeapo, Kabupaten Buru, Maluku","Kabupaten Buru, Maluku",MALUKU,,Indonesia,85245515542.0,,,-3.3769796,126.9852685,https://maps.google.com/?cid=0x0:0xd63a074a7a775021,
restaurant,Restoran,RM. Ayah Atas,"P3HX+48R, Unnamed Road, Namlea, Buru Regency, Maluku","Kabupaten Buru, Maluku",MALUKU,,Indonesia,82136825260.0,,,-3.2721467,127.0982525,https://maps.google.com/?cid=0x0:0x38448ea103012d5b,
restaurant,Nasi,"warung_Makan maNDUT""","H3V2+R86, Upt Wamsait, Teluk Kaiely, Kabupaten Buru, Maluku","Kabupaten Buru, Maluku",MALUKU,,Indonesia,,,,-3.4054701,127.0507676,https://maps.google.com/?cid=0x0:0xb2a81b109efa791b,
restaurant,Restoran,Rumah Makan Angin Mamiri,"P3PQ+G8H, Unnamed Road, Namlea, Buru Regency, Maluku","Kabupaten Buru, Maluku",MALUKU,,Indonesia,81344222929.0,,,-3.2636802,127.0883636,https://maps.google.com/?cid=0x0:0x87ea1d909068b8cb,
restaurant,Restoran,Rumah Makan Padang Ayah Atas Mako,"JXFQ+F72, Jl. Gatot Subroto, Waenetat, Kec. Waeapo, Kabupaten Buru, Maluku","Kabupaten Buru, Maluku",MALUKU,,Indonesia,81321571933.0,,,-3.3763629,126.9881297,https://maps.google.com/?cid=0x0:0xc78c54f81125fa1,
restaurant,Restoran,Rumah Makan Fajrin,"JXFP+FW6, Waenetat, Kec. Waeapo, Kabupaten Buru, Maluku","Kabupaten Buru, Maluku",MALUKU,,Indonesia,,,,-3.3763476,126.9872769,https://maps.google.com/?cid=0x0:0xca8d77639c9f4a68,
restaurant,Rumah Makan,Empek-Empek  Batagor AUREL (Simpang 5),"P3GX+XJC, simpang lima namlea, Namlea, Kec. Namlea, Kabupaten Buru, Maluku","Kabupaten Buru, Maluku",MALUKU,,Indonesia,82198993886.0,,,-3.2725511,127.0990308,https://maps.google.com/?cid=0x0:0x86be872fbc9bed61,
restaurant,Padang,RM. Salinu gado gado,"P4J3+3GJ, Namlea, Kec. Namlea, Kabupaten Buru, Maluku","Kabupaten Buru, Maluku",MALUKU,,Indonesia,,,,-3.2697894,127.1037722,https://maps.google.com/?cid=0x0:0xf4ec2a0143df7048,
restaurant,Restoran,Warung Sate Mas Kirun,"Waenetat, Kec. Waeapo, Kabupaten Buru, Maluku","Kabupaten Buru, Maluku",MALUKU,,Indonesia,82198402337.0,,,-3.3531517,126.9763367,https://maps.google.com/?cid=0x0:0xd46bb6136fc7a8,
restaurant,Restoran,Dabu Dabu,"Jln Dermaga - Tuguh Tani, Namlea, Kec. Namlea, Kabupaten Buru, Maluku 97571","Namlea, Kec. Namlea, Kabupaten Buru",MALUKU,97571.0,Indonesia,85371999966.0,,,-3.2613828,127.0916286,https://maps.google.com/?cid=0x0:0x32ab21421fb1a63b,
restaurant,Restoran,Warung Makan Azzam Arema,"poros No.Road, Debowae, Kec. Waeapo, Kabupaten Buru, Maluku","Kabupaten Buru, Maluku",MALUKU,,Indonesia,,,,-3.4035614,127.0201484,https://maps.google.com/?cid=0x0:0x15970977d1fb5ebd,
restaurant,Restoran,Rm. Aulia,"P3QX+23P, Namlea, Kec. Namlea, Kabupaten Buru, Maluku","Kabupaten Buru, Maluku",MALUKU,,Indonesia,,,,-3.262424,127.0976928,https://maps.google.com/?cid=0x0:0x87eb94d2dbbd33ab,
restaurant,Kedai Kopi,Kedai FAIZ,"Waetele, Kec. Waeapo, Kabupaten Buru, Maluku","Kabupaten Buru, Maluku",MALUKU,,Indonesia,,,,-3.3527884,126.9755897,https://maps.google.com/?cid=0x0:0xe21da4b21be329ed,
restaurant,restaurant,Kec. Lilialy,"Kabupaten Buru, Maluku","Kabupaten Buru, Maluku",MALUKU,,Indonesia,,,,-3.1452717,126.9901544,https://maps.google.com/?cid=0x0:0xa4098f1c5783ea97,
restaurant,restaurant,RM. Dahlia,"P3HX+3MG, Jl. Pendidikan, Namlea, Kec. Namlea, Kabupaten Buru, Maluku","Kabupaten Buru, Maluku",MALUKU,,Indonesia,,,,-3.2723135,127.0992039,https://maps.google.com/?cid=0x0:0xec1bb5ecc2de3c10,
restaurant,Rumah Makan,RM Dewi Asih,"P3XV+9Q4, Namlea, Kec. Namlea, Kabupaten Buru, Maluku","Kabupaten Buru, Maluku",MALUKU,,Indonesia,812248990448.0,,,-3.2516178,127.0944555,https://maps.google.com/?cid=0x0:0x62423162adb2c1e6,
restaurant,restaurant,Jikumerasa Beach Resort  Resto,"R2JG+VF6, Pulau, Jikumerasa, Kec. Lilialy, Kabupaten Buru, Maluku","Kabupaten Buru, Maluku",MALUKU,,Indonesia,,,,-3.1678457,127.0261521,https://maps.google.com/?cid=0x0:0x78b190bab6a0bd9d,
restaurant,Restoran,RM. Ayah Atas,"P3HX+48R, Unnamed Road, Namlea, Buru Regency, Maluku","Kabupaten Buru, Maluku",MALUKU,,Indonesia,82136825260.0,,,-3.2721467,127.0982525,https://maps.google.com/?cid=0x0:0x38448ea103012d5b,
restaurant,Brunch,RM.AYU,"R2HG+JF6, Jl. Propinsi, Jikumerasa, Kec. Namlea, Kabupaten Buru, Maluku","Kabupaten Buru, Maluku",MALUKU,,Indonesia,85254517758.0,,,-3.1709743,127.0261316,https://maps.google.com/?cid=0x0:0x19b6d98c8e0edc31,
restaurant,Restoran,Rm. Aulia,"P3QX+23P, Namlea, Kec. Namlea, Kabupaten Buru, Maluku","Kabupaten Buru, Maluku",MALUKU,,Indonesia,,,,-3.262424,127.0976928,https://maps.google.com/?cid=0x0:0x87eb94d2dbbd33ab,
restaurant,Padang,Waroeng Sambal Bakar Namlea,"Jl. H.M. Husnie Hentihu, Namlea, Kec. Namlea, Kabupaten Buru, Maluku","Kabupaten Buru, Maluku",MALUKU,,Indonesia,82199045113.0,,,-3.2711128,127.1077182,https://maps.google.com/?cid=0x0:0x5796579b140049f7,
restaurant,Makanan Kecil,Warung mie ikan julung,"R2GG+R8Q, jalan, Jikumerasa, Kec. Lilialy, Kabupaten Buru, Maluku","Kabupaten Buru, Maluku",MALUKU,,Indonesia,,,,-3.1729058,127.0258597,https://maps.google.com/?cid=0x0:0x7e2c3d7ec7098afc,
restaurant,Restoran,Dabu Dabu,"Jln Dermaga - Tuguh Tani, Namlea, Kec. Namlea, Kabupaten Buru, Maluku 97571","Namlea, Kec. Namlea, Kabupaten Buru",MALUKU,97571.0,Indonesia,85371999966.0,,,-3.2613828,127.0916286,https://maps.google.com/?cid=0x0:0x32ab21421fb1a63b,
restaurant,Rumah Makan,Waroeng Galaxy,"P3QR+56R, Namlea, Kec. Namlea, Kabupaten Buru, Maluku","Kabupaten Buru, Maluku",MALUKU,,Indonesia,,,,-3.2618634,127.0903698,https://maps.google.com/?cid=0x0:0x82cfc4deaa70d4d1,
restaurant,Restoran,Rumah Makan Angin Mamiri,"P3PQ+G8H, Unnamed Road, Namlea, Buru Regency, Maluku","Kabupaten Buru, Maluku",MALUKU,,Indonesia,81344222929.0,,,-3.2636802,127.0883636,https://maps.google.com/?cid=0x0:0x87ea1d909068b8cb,
restaurant,Sarapan,Warung Kendedes,"R2GH+2RF, Jl. Propinsi, Jikumerasa, Kec. Namlea, Kabupaten Buru, Maluku","Kabupaten Buru, Maluku",MALUKU,,Indonesia,81340917109.0,,,-3.1749305,127.0295341,https://maps.google.com/?cid=0x0:0x2ea509bbf753af8b,
restaurant,Makanan Kecil,BAKSO AQIL,"Jl. Propinsi, Ubung, Kec. Namlea, Ubung, Village, Kabupaten Buru, Maluku 97571","Ubung, Kec. Namlea, Ubung, Village, Kabupaten Buru",MALUKU,97571.0,Indonesia,81343465924.0,,,-3.1973168,127.0740562,https://maps.google.com/?cid=0x0:0x54a01719b57a593c,
restaurant,Rumah Makan,WR.risky barokah,"sebelah cucian mobil, Rumah, Jl. Pendidikan, Kec. Namlea, Maluku 97571","Rumah, Jl. Pendidikan, Kec. Namlea",MALUKU,97571.0,Indonesia,82117018463.0,,,-3.2716628,127.0998389,https://maps.google.com/?cid=0x0:0xe9ef17ba8d41307a,
restaurant,Hidangan Laut,RM Ikan Bakar Segar,"P3CW+FPH, Pasar Lama, Namlea, Buru Regency, Maluku","Kabupaten Buru, Maluku",MALUKU,,Indonesia,,,,-3.2788041,127.0968728,https://maps.google.com/?cid=0x0:0xb4ba7d916fdfd2c2,
restaurant,Salad,Rumah Makan Pendowo,"P3QQ+WMH, Jl.tatanggo, Namlea, Kec. Namlea, Kabupaten Buru, Maluku","Kabupaten Buru, Maluku",MALUKU,,Indonesia,81344842849.0,,,-3.2601833,127.0892194,https://maps.google.com/?cid=0x0:0x5d3836672cd15ada,
restaurant,Padang,RM. Salinu gado gado,"P4J3+3GJ, Namlea, Kec. Namlea, Kabupaten Buru, Maluku","Kabupaten Buru, Maluku",MALUKU,,Indonesia,,,,-3.2697894,127.1037722,https://maps.google.com/?cid=0x0:0xf4ec2a0143df7048,
restaurant,Self service restaurant,Kantin AYU,"P3JP+HM8, Namlea, Kec. Namlea, Kabupaten Buru, Maluku","Kabupaten Buru, Maluku",MALUKU,,Indonesia,,,,-3.2685928,127.0867042,https://maps.google.com/?cid=0x0:0xb245e48cdd43633c,
restaurant,Rumah Makan,Empek-Empek  Batagor AUREL (Simpang 5),"P3GX+XJC, simpang lima namlea, Namlea, Kec. Namlea, Kabupaten Buru, Maluku","Kabupaten Buru, Maluku",MALUKU,,Indonesia,82198993886.0,,,-3.2725511,127.0990308,https://maps.google.com/?cid=0x0:0x86be872fbc9bed61,
restaurant,Rumah Makan,Kedai RR,"P3RQ+8C2, Jl. Bukit Permai BTN Tatanggo, Namlea, Kec. Namlea, Kabupaten Buru, Maluku","Kabupaten Buru, Maluku",MALUKU,,Indonesia,,,,-3.259237,127.0885157,https://maps.google.com/?cid=0x0:0x70ce6751c3bddd26,
restaurant,Bar Karaoke,Slita Family Karaoke,"P3WV+CW9, Namlea, Kec. Namlea, Kabupaten Buru, Maluku","Kabupaten Buru, Maluku",MALUKU,,Indonesia,82319086714.0,,,-3.2539659,127.0948445,https://maps.google.com/?cid=0x0:0x8d829555207dee96,
restaurant,Salad,Rm. Gado-gado 99,"Q32V+CMF, Jl. Propinsi, Namlea, Kec. Namlea, Kabupaten Buru, Maluku","Kabupaten Buru, Maluku",MALUKU,,Indonesia,82122505335.0,,,-3.2489255,127.0941809,https://maps.google.com/?cid=0x0:0xed0e4ec74ce4ef61,
restaurant,Self service restaurant,Lesehan Bunda,"P3RW+XW4, Namlea, Kec. Namlea, Kabupaten Buru, Maluku","Kabupaten Buru, Maluku",MALUKU,,Indonesia,,,,-3.2576184,127.097341,https://maps.google.com/?cid=0x0:0x2b6581454138dec2,
restaurant,Makanan Kecil,Warung Mie Ikan,"R257+W74, Jikumerasa, Kec. Lilialy, Kabupaten Buru, Maluku","Kabupaten Buru, Maluku",MALUKU,,Indonesia,,,,-3.1902253,127.0131926,https://maps.google.com/?cid=0x0:0x31ff5d7d40e51f9b,
restaurant,Restoran,Restoran dan Oleh-oleh Rajawali,"P3CW+5V8, Namlea, Kec. Namlea, Kabupaten Buru, Maluku","Kabupaten Buru, Maluku",MALUKU,,Indonesia,91321306.0,,,-3.2795936,127.0971998,https://maps.google.com/?cid=0x0:0x2743f9046dc441da,
restaurant,Brunch,Rumah Makan ANI (dulu Warung Bule KPU),"P3PX+XHW, Namlea, Kec. Namlea, Kabupaten Buru, Maluku","Kabupaten Buru, Maluku",MALUKU,,Indonesia,82251758166.0,,,-3.2625024,127.0989488,https://maps.google.com/?cid=0x0:0x8871a5bdd80a7b20,
cafe,Kafe,Halo kopi,"Q38P+J9R, Jalan Bukit Permai BTN, Namlea, Kec. Namlea, Kabupaten Buru, Maluku 97571","Jalan Bukit Permai BTN, Namlea, Kec. Namlea, Kabupaten Buru",MALUKU,97571.0,Indonesia,81344412787.0,,,-3.233398,127.085899,https://maps.google.com/?cid=0x0:0x64448cea6e36de6f,
cafe,cafe,Namlea,"Namlea, Kec. Namlea, Kabupaten Buru, Maluku","Kabupaten Buru, Maluku",MALUKU,,Indonesia,,,,-3.233398,127.085899,https://maps.google.com/?cid=0x0:0xe52ca57740e74df,
cafe,Kafe,De Ol One Cafe,"P4H5+J6Q, Namlea, Kec. Namlea, Kabupaten Buru, Maluku","Kabupaten Buru, Maluku",MALUKU,,Indonesia,,,,-3.2709152,127.1080972,https://maps.google.com/?cid=0x0:0x3679f3f5c127df23,
cafe,Kafe,Hallo Kopi,"Namlea, Kec. Namlea, Kabupaten Buru, Maluku","Kabupaten Buru, Maluku",MALUKU,,Indonesia,,,,-3.260268,127.0931325,https://maps.google.com/?cid=0x0:0x5cb50159c5f44be9,
cafe,Kedai Kopi,Kedai Mely,"Namlea, Kec. Namlea, Kabupaten Buru, Maluku 97571","Kec. Namlea, Kabupaten Buru",MALUKU,97571.0,Indonesia,82211156665.0,,,-3.2749616,127.1049369,https://maps.google.com/?cid=0x0:0xe1c80a2c6016d0d4,
cafe,Kafe,CAFE NAMA,"Jl. H.M. Husnie Hentihu, Namlea, Kec. Namlea, Regency, Maluku","Regency, Maluku",MALUKU,,Indonesia,81233564569.0,,,-3.2712,127.107716,https://maps.google.com/?cid=0x0:0xef58674e0ed124a9,
cafe,Kedai Kopi,Gallery Cafe,"P3GX+GQP, Namlea, Kec. Namlea, Kabupaten Buru, Maluku","Kabupaten Buru, Maluku",MALUKU,,Indonesia,,,,-3.2736511,127.0994385,https://maps.google.com/?cid=0x0:0x74e6249936b57e9,
cafe,Kafe,Dinasty Coffe,"P4M6+J8G, Unnamed Road, Namlea, Buru Regency, Maluku","Kabupaten Buru, Maluku",MALUKU,,Indonesia,81343301052.0,,,-3.2659411,127.1108287,https://maps.google.com/?cid=0x0:0x1d3bc75b3c773dd0,
cafe,Kafe,Kedai Medussa,"Tugu Tani, Namlea, Kec. Namlea, Kabupaten Buru, Maluku 97571","Namlea, Kec. Namlea, Kabupaten Buru",MALUKU,97571.0,Indonesia,81312326558.0,,,-3.2585874,127.0965538,https://maps.google.com/?cid=0x0:0x6176a39707d21a51,
cafe,Restoran,"Citra Wangi Resto, Namlea, Buru","Namlea, Kec. Namlea, Kabupaten Buru, Maluku","Kabupaten Buru, Maluku",MALUKU,,Indonesia,85344427488.0,,,-3.2641228,127.0885197,https://maps.google.com/?cid=0x0:0xccef20463848c233,
cafe,Rumah Makan,KEDAI  CAFE A5,"P3VV+2V8, Namlea, Kec. Namlea, Kabupaten Buru, Maluku","Kabupaten Buru, Maluku",MALUKU,,Indonesia,82397074144.0,,,-3.2574665,127.0947126,https://maps.google.com/?cid=0x0:0xe2c2d2d13128eee3,
cafe,Kafe,Markas Cafe,"P3FX+2GM, Unnamed Road,, Namlea, Kec. Namlea, Kabupaten Buru, Maluku","Kabupaten Buru, Maluku",MALUKU,,Indonesia,85343458686.0,,,-3.277402,127.0987903,https://maps.google.com/?cid=0x0:0x74fb510d1eb9e9eb,
cafe,Komplek perumahan,Cafe 69,"Q33P+JQQ, Namlea, Kec. Namlea, Kabupaten Buru, Maluku","Kabupaten Buru, Maluku",MALUKU,,Indonesia,,,,-3.2459522,127.0870242,https://maps.google.com/?cid=0x0:0x2cf4a21bc7ff854f,
cafe,Kafe,Coffee88__,"Namlea, Kec. Namlea, Kabupaten Buru, Maluku","Kabupaten Buru, Maluku",MALUKU,,Indonesia,85254209464.0,,,-3.2676599,127.0950814,https://maps.google.com/?cid=0x0:0x1bc59c4071bac8d6,
cafe,Padang,Waroeng Sambal Bakar Namlea,"Jl. H.M. Husnie Hentihu, Namlea, Kec. Namlea, Kabupaten Buru, Maluku","Kabupaten Buru, Maluku",MALUKU,,Indonesia,82199045113.0,,,-3.2711128,127.1077182,https://maps.google.com/?cid=0x0:0x5796579b140049f7,
cafe,Kedai Kopi,Amvap NAMLEA,"P3JW+FC5, Namlea, Kec. Namlea, Kabupaten Buru, Maluku","Kabupaten Buru, Maluku",MALUKU,,Indonesia,,,,-3.2688509,127.0960997,https://maps.google.com/?cid=0x0:0xc2cee102fef215cb,
cafe,Kafe,Nyoklat Klasik Namlea,"P4G2+C72, Namlea, Kec. Namlea, Kabupaten Buru, Maluku","Kabupaten Buru, Maluku",MALUKU,,Indonesia,82248333604.0,,,-3.2733004,127.101027,https://maps.google.com/?cid=0x0:0xf67b621d7f23995f,
cafe,Kafe,CAFFE KITA,"P3JW+8CJ, Unnamed Road, Namlea, Kec. Namlea, Kabupaten Buru, Maluku","Kabupaten Buru, Maluku",MALUKU,,Indonesia,81211118852.0,,,-3.269161,127.0960199,https://maps.google.com/?cid=0x0:0xfd4fb772364ded72,
cafe,Kafe,Kafe Arad Caffe,"P3RW+C8F, Namlea, Kec. Namlea, Kabupaten Buru, Maluku","Kabupaten Buru, Maluku",MALUKU,,Indonesia,,,,-3.2589013,127.0960488,https://maps.google.com/?cid=0x0:0x64d23d65e66ccbdb,
cafe,Kafe,KEDAI LIRWANA,"P3WW+223, Unnamed Road, Namlea, Kec. Namlea, Kabupaten Buru, Maluku","Kabupaten Buru, Maluku",MALUKU,,Indonesia,82193356889.0,,,-3.2549839,127.0950499,https://maps.google.com/?cid=0x0:0x5aa77ee6247c4fcd,
cafe,Kafe,SHAQUELL COFFEE,"Q38P+J9R, Namlea, Kec. Namlea, Kabupaten Buru, Maluku","Kabupaten Buru, Maluku",MALUKU,,Indonesia,82397000078.0,,,-3.233398,127.085899,https://maps.google.com/?cid=0x0:0xb0ee660ca1ab9997,
cafe,Kedai Kopi,Kyuu Coffee Shop,"P3PQ+HM6, Namlea, Kec. Namlea, Kabupaten Buru, Maluku","Kabupaten Buru, Maluku",MALUKU,,Indonesia,82290101993.0,,,-3.2635799,127.0891454,https://maps.google.com/?cid=0x0:0xb61c72d0a59ab72e,
cafe,cafe,Bakso Kiky,"samping mushola Ar Rahman desa waekoseKabupaten, Jln lintas, Waspait, Kec. Air Buaya, Kabupaten Buru, Maluku","Kabupaten Buru, Maluku",MALUKU,,Indonesia,,,,-3.0721218,126.5953504,https://maps.google.com/?cid=0x0:0xb13f58448785f978,
cafe,Kedai Kopi,Nyoklat Klasik Fenaleisela,"WHHW+542, Waspait, Kec. Air Buaya, Kabupaten Buru, Maluku","Kabupaten Buru, Maluku",MALUKU,,Indonesia,82230122554.0,,,-3.0720972,126.5952391,https://maps.google.com/?cid=0x0:0x6d6ce94a8dd61a0d,
cafe,cafe,Kec. Air Buaya,"Kabupaten Buru, Maluku","Kabupaten Buru, Maluku",MALUKU,,Indonesia,,,,-3.0855583,126.4356478,https://maps.google.com/?cid=0x0:0xfabb1de62994f5b6,
cafe,Bumi perkemahan,Keluarga bapa Desa Bastian Gnteng,"WGC3+7H, Waipure, Kec. Air Buaya, Kabupaten Buru, Maluku","Kabupaten Buru, Maluku",MALUKU,,Indonesia,,,,-3.0792549,126.5038965,https://maps.google.com/?cid=0x0:0x8cfa0a65191b190,
cafe,Komplek perumahan,RM Wakatobi,"Fena Leisela, Jl. Propinsi No.KM 80, Wamlana, Tlk. Kaiely, Kabupaten Buru, Maluku","Kabupaten Buru, Maluku",MALUKU,,Indonesia,82239711790.0,,,-3.0754653,126.543609,https://maps.google.com/?cid=0x0:0x6c8960b03b027812,
cafe,Komplek perumahan,Rental alfatih,"WC7P+Q7J, Air Buaya, Kec. Air Buaya, Kabupaten Buru, Maluku","Kabupaten Buru, Maluku",MALUKU,,Indonesia,81240201315.0,,,-3.0855263,126.4356505,https://maps.google.com/?cid=0x0:0xcdf90841b4ad3d60,
cafe,cafe,Base GAPPALA BURU,"WGGP+52X, Wamlana, Kec. Air Buaya, Kabupaten Buru, Maluku","Kabupaten Buru, Maluku",MALUKU,,Indonesia,,,,-3.0745038,126.5351046,https://maps.google.com/?cid=0x0:0xaee4b61c14c8efdb,
cafe,cafe,Kec. Waeapo,"Kabupaten Buru, Maluku","Kabupaten Buru, Maluku",MALUKU,,Indonesia,,,,-3.4137528,126.925378,https://maps.google.com/?cid=0x0:0xf83f0231b9a9b5fd,
cafe,Kedai Kopi,Kaffe koffie Kesya,"JXRH+2R3, Unnamed Road, Waekasar, Kec. Waeapo, Kabupaten Buru, Maluku","Kabupaten Buru, Maluku",MALUKU,,Indonesia,,,,-3.3599885,126.9795467,https://maps.google.com/?cid=0x0:0xf352fdc1b90d144d,
cafe,Kedai Kopi,"Cafe Chalalerang""""","M2X8+R73, Savanajaya, Kec. Waeapo, Kabupaten Buru, Maluku","Kabupaten Buru, Maluku",MALUKU,,Indonesia,8219918183.0,,,-3.3004751,127.0156699,https://maps.google.com/?cid=0x0:0x26b59f4fbfad1282,
cafe,Restoran,Warung Cafe Plus,"Unnamed Road, Waenetat, Kec. Waeapo, Kabupaten Buru, Maluku","Kabupaten Buru, Maluku",MALUKU,,Indonesia,85354517778.0,,,-3.3819394,126.9738775,https://maps.google.com/?cid=0x0:0x675f508f1d99992e,
cafe,Kafe,KEDAI RAKDJAT 56,"Waegeren, Kec. Waeapo, Kabupaten Buru, Maluku","Kabupaten Buru, Maluku",MALUKU,,Indonesia,81299665383.0,,,-3.4125389,126.9281805,https://maps.google.com/?cid=0x0:0x740dbb6b8164dd97,
cafe,Brunch,Kedai BroSist,"Waenetat, Kec. Waeapo, Kabupaten Buru, Maluku","Kabupaten Buru, Maluku",MALUKU,,Indonesia,82315754614.0,,,-3.3540352,126.9781899,https://maps.google.com/?cid=0x0:0xf458cb3b6b79ec1c,
cafe,Kafe,SEVENTEEN CAFE,"H284+XRM, Desa, Parbulu, Kec. Waeapo, Kabupaten Buru, Maluku","Kabupaten Buru, Maluku",MALUKU,,Indonesia,81247337829.0,,,-3.432534,127.0070591,https://maps.google.com/?cid=0x0:0x74bbd5924ab48711,
cafe,Kedai Kopi,Bobba cingire,"JXJP+8V9, Waenetat, Kec. Waeapo, Kabupaten Buru, Maluku","Kabupaten Buru, Maluku",MALUKU,,Indonesia,82349850265.0,,,-3.3693629,126.9870766,https://maps.google.com/?cid=0x0:0x3ad56200ea77616a,
cafe,Dapur Umum,KEDAI ERLIFFA,"HW4F+PR6, Grandeng, Kec. Waeapo, Kabupaten Buru, Maluku","Kabupaten Buru, Maluku",MALUKU,,Indonesia,81245365096.0,,,-3.4432161,126.9245261,https://maps.google.com/?cid=0x0:0x1f586b8c1197075f,
cafe,Restoran,Tuku Indonesia,"JXFP+642, Unnamed Road, Waenetat, Kec. Waeapo, Kabupaten Buru, Maluku","Kabupaten Buru, Maluku",MALUKU,,Indonesia,85245515542.0,,,-3.3769796,126.9852685,https://maps.google.com/?cid=0x0:0xd63a074a7a775021,
cafe,Kafe,Kedei kenzo,"JXPM+FM9, Waenetat, Kec. Waeapo, Kabupaten Buru, Maluku","Kabupaten Buru, Maluku",MALUKU,,Indonesia,82312865141.0,,,-3.3638315,126.9842308,https://maps.google.com/?cid=0x0:0xa3be7d7ee84c1983,
cafe,Kedai Kopi,Miftahul huda,"JX99+4XF, Unnamed Road, Waenetat, Kec. Waeapo, Kabupaten Buru, Maluku","Kabupaten Buru, Maluku",MALUKU,,Indonesia,,,,-3.3821776,126.9699323,https://maps.google.com/?cid=0x0:0xb5af534521c040c8,
cafe,Kedai Kopi,WARMINDO DRINK,"HW5X+V9Q, Waelo, Kec. Waeapo, Kabupaten Buru, Maluku","Kabupaten Buru, Maluku",MALUKU,,Indonesia,82239247141.0,,,-3.44053,126.94786,https://maps.google.com/?cid=0x0:0xb2566ceaf1c53e9f,
cafe,Brunch,Faizza coffe,"Grandeng, Kec. Waeapo, Kabupaten Buru, Maluku","Kabupaten Buru, Maluku",MALUKU,,Indonesia,81247952084.0,,,-3.4359682,126.9225069,https://maps.google.com/?cid=0x0:0x2f8785422b736ec,
cafe,Toko bahan makanan,I CLUB ANDIKA,"JXPM+9P5, Unnamed Road, Waekasar, Kec. Waeapo, Kabupaten Buru, Maluku","Kabupaten Buru, Maluku",MALUKU,,Indonesia,81293470980.0,,,-3.364116,126.9843735,https://maps.google.com/?cid=0x0:0x313da6dcfcf80766,
cafe,Kedai Kopi,Nyoklat Klasik Lolongguba,"HWPG+J8J, Waegeren, Kec. Waeapo, Kabupaten Buru, Maluku","Kabupaten Buru, Maluku",MALUKU,,Indonesia,82198903680.0,,,-3.4134627,126.9260433,https://maps.google.com/?cid=0x0:0xb1ce0afb1a0d654b,
cafe,Kedai Kopi,WIFI AFAN,"JW2G+HG3, Waegeren, Kec. Waeapo, Kabupaten Buru, Maluku","Kabupaten Buru, Maluku",MALUKU,,Indonesia,,,,-3.3986208,126.9263038,https://maps.google.com/?cid=0x0:0x38b605d13198d763,
cafe,Dapur Umum,"dr. PENTOL,SP.PL","MX25+RCM, Waekerta, Kec. Waeapo, Kabupaten Buru, Maluku","Kabupaten Buru, Maluku",MALUKU,,Indonesia,,,,-3.3479004,126.9585539,https://maps.google.com/?cid=0x0:0xe0879ae78f31da46,
cafe,Kedai Kopi,Nyoklat Klasik Buru,"JXWH+JV4, Waekasar, Kec. Waeapo, Kabupaten Buru, Maluku","Kabupaten Buru, Maluku",MALUKU,,Indonesia,82248333604.0,,,-3.3541746,126.9794705,https://maps.google.com/?cid=0x0:0xc84cefdd29471108,
cafe,Toko umum,Warung dan rental Ps Dua Putra,"JXWG+W5M, Unnamed Road, Waetele, Kec. Waeapo, Kabupaten Buru, Maluku","Kabupaten Buru, Maluku",MALUKU,,Indonesia,82199121220.0,,,-3.3526541,126.9754136,https://maps.google.com/?cid=0x0:0xdc657a70ef86e683,
cafe,,RM LESEHAN PUTRI KEMBAR,"JXRH+WG2, Waenetat, Kec. Waeapo, Kabupaten Buru, Maluku","Kabupaten Buru, Maluku",MALUKU,,Indonesia,82199828939.0,,,-3.3577373,126.978754,https://maps.google.com/?cid=0x0:0x5fe7a444bdfb553d,
cafe,cafe,Waplau,"Kabupaten Buru, Maluku","Kabupaten Buru, Maluku",MALUKU,,Indonesia,,,,-3.1224517,126.8821197,https://maps.google.com/?cid=0x0:0xa108369a69306737,
cafe,Komplek perumahan,Ruma pribadi Chaken,"WR7V+27, Waeura, Waplau, Kabupaten Buru, Maluku","Kabupaten Buru, Maluku",MALUKU,,Indonesia,82213494686.0,,,-3.0874831,126.8432336,https://maps.google.com/?cid=0x0:0x3a2f720b57fb8c05,
cafe,cafe,Tower TLB,"WPJ9+5G, Waprea, Waplau, Kabupaten Buru, Maluku","Kabupaten Buru, Maluku",MALUKU,,Indonesia,,,,-3.0695064,126.7188094,https://maps.google.com/?cid=0x0:0xb0a5717a5e82f9eb,
cafe,Kafe,De Ol One Cafe,"P4H5+J6Q, Namlea, Kec. Namlea, Kabupaten Buru, Maluku","Kabupaten Buru, Maluku",MALUKU,,Indonesia,,,,-3.2709152,127.1080972,https://maps.google.com/?cid=0x0:0x3679f3f5c127df23,
cafe,Kedai Kopi,Rumah bpk ake,"RPGH+J68, Waprea, Waplau, Kabupaten Buru, Maluku","Kabupaten Buru, Maluku",MALUKU,,Indonesia,,,,-3.1734613,126.7280692,https://maps.google.com/?cid=0x0:0xf6afb6e85c70fb38,
cafe,Kantor Pemerintah,Waplau,"VVFJ+VFJ, Waplau, Kabupaten Buru, Maluku","Kabupaten Buru, Maluku",MALUKU,,Indonesia,,,,-3.1252058,126.8818264,https://maps.google.com/?cid=0x0:0xa166ddf2981bde46,
cafe,Kafe,Hallo Kopi,"Namlea, Kec. Namlea, Kabupaten Buru, Maluku","Kabupaten Buru, Maluku",MALUKU,,Indonesia,,,,-3.260268,127.0931325,https://maps.google.com/?cid=0x0:0x5cb50159c5f44be9,
cafe,Restoran,Callmeex beach,"WQQ9+5QQ, Hatawano, Waplau, Kabupaten Buru, Maluku","Kabupaten Buru, Maluku",MALUKU,,Indonesia,,,,-3.0613926,126.7691568,https://maps.google.com/?cid=0x0:0xf1c1330de161269b,
cafe,Restoran,Warung Cafe Plus,"Unnamed Road, Waenetat, Kec. Waeapo, Kabupaten Buru, Maluku","Kabupaten Buru, Maluku",MALUKU,,Indonesia,85354517778.0,,,-3.3819394,126.9738775,https://maps.google.com/?cid=0x0:0x675f508f1d99992e,
cafe,Indonesia,"Warung bakso,sarmento ifa,ar","Jln propinsi desa waplau, Namlea, Waplau, Kabupaten Buru, Maluku 97572","Namlea, Waplau, Kabupaten Buru",MALUKU,97572.0,Indonesia,85243026205.0,,,-3.1205731,126.8824618,https://maps.google.com/?cid=0x0:0x9c8b37da5756dbf5,
cafe,Kedai Kopi,"Cafe Chalalerang""""","M2X8+R73, Savanajaya, Kec. Waeapo, Kabupaten Buru, Maluku","Kabupaten Buru, Maluku",MALUKU,,Indonesia,8219918183.0,,,-3.3004751,127.0156699,https://maps.google.com/?cid=0x0:0x26b59f4fbfad1282,
cafe,cafe,Rumah makan Fersi,"WR7V+275, Jl. Propinsi, Waeura, Waplau, Kabupaten Buru, Maluku","Kabupaten Buru, Maluku",MALUKU,,Indonesia,82213494686.0,,,-3.0874816,126.8432336,https://maps.google.com/?cid=0x0:0xd47de0bf5f5a0837,
cafe,Motel,Kedai Aje dan Kos-Kosan Aje,"Hatawano, Waplau, Namlea, Maluku 97571","Waplau, Namlea",MALUKU,97571.0,Indonesia,82394602195.0,,,-3.0610039,126.7607713,https://maps.google.com/?cid=0x0:0xa310a3305b034f06,
cafe,cafe,Kios Cahaya Gorengan,"WR5X+Q7, Waeura, Waplau, Kabupaten Buru, Maluku","Kabupaten Buru, Maluku",MALUKU,,Indonesia,,,,-3.0905769,126.8481781,https://maps.google.com/?cid=0x0:0x5190c4b6bfe4ca84,
cafe,cafe,Kedai Kamboja Waplau,"VVGJ+JRM, Waplau, Kabupaten Buru, Maluku","Kabupaten Buru, Maluku",MALUKU,,Indonesia,,,,-3.123402,126.8820349,https://maps.google.com/?cid=0x0:0xd5804f86e40f1716,
cafe,Restoran,Wailela Cafe and Resto | Ambon,"Jl. Kampus, Rumah Tiga, Kec. Tlk. Ambon, Kota Ambon, Maluku","Kota Ambon, Maluku",MALUKU,,Indonesia,82399522113.0,,,-3.6610624,128.180609,https://maps.google.com/?cid=0x0:0x3acbc85ce4ef2d6d,
cafe,cafe,Kec. Bata Bual,"Kabupaten Buru, Maluku","Kabupaten Buru, Maluku",MALUKU,,Indonesia,,,,-3.5268077,127.2494018,https://maps.google.com/?cid=0x0:0xbd920a24abdb7eed,
cafe,Restoran,RM BAKSO IJUL THIO,"C6CX+F8W, Ilath, Kec. Bata Bual, Kabupaten Buru, Maluku","Kabupaten Buru, Maluku",MALUKU,,Indonesia,,,,-3.5787547,127.2483206,https://maps.google.com/?cid=0x0:0xddb539f97519769a,
cafe,Penyedia Layanan Internet,FITTRIYANTTI.net,"C6GV+QQC, Dusun waehani, Ilath, Kec. Bata Bual, Kabupaten Buru, Maluku","Kabupaten Buru, Maluku",MALUKU,,Indonesia,,,,-3.5733261,127.2450105,https://maps.google.com/?cid=0x0:0xc6c8c4793ba68493,
cafe,Kafe,Kedai Medussa,"Tugu Tani, Namlea, Kec. Namlea, Kabupaten Buru, Maluku 97571","Namlea, Kec. Namlea, Kabupaten Buru",MALUKU,97571.0,Indonesia,81312326558.0,,,-3.2585874,127.0965538,https://maps.google.com/?cid=0x0:0x6176a39707d21a51,
cafe,Kafe,Cafe Borero,"Jl. Pusaka No.01, Tomagoba, Tidore, Kota Tidore Kepulauan, Maluku Utara","Kota Tidore Kepulauan, Maluku Utara",MALUKU,,Indonesia,82190003033.0,,,0.6670624,127.4437836,https://maps.google.com/?cid=0x0:0x3f263fe72bae3896,
cafe,Kedai Kopi,Nur conter,"G26H+HP7 unit 17, Parbulu, Kec. Waelata, Kabupaten Buru, Maluku","Kabupaten Buru, Maluku",MALUKU,,Indonesia,,,,-3.4885781,127.0292986,https://maps.google.com/?cid=0x0:0x49e13cf5902b60c7,
cafe,Rumah Makan,KEDAI  CAFE A5,"P3VV+2V8, Namlea, Kec. Namlea, Kabupaten Buru, Maluku","Kabupaten Buru, Maluku",MALUKU,,Indonesia,82397074144.0,,,-3.2574665,127.0947126,https://maps.google.com/?cid=0x0:0xe2c2d2d13128eee3,
cafe,Toko bahan makanan,Baileo Cafe dan Mini Market,"85XQ+GPQ, RT.Udang/RW.1, Tihu, Kec. Tlk. Ambon, Kota Ambon, Maluku","Kota Ambon, Maluku",MALUKU,,Indonesia,,,,-3.65115,128.1893691,https://maps.google.com/?cid=0x0:0xdc658a57e949c2be,
cafe,Kafe,Kopi UYO Ternate,"Q9HM+G75, Toboko, Kec. Ternate Sel., Kota Ternate, Maluku Utara","Kota Ternate, Maluku Utara",MALUKU,,Indonesia,81809086012.0,,,0.7786488,127.3833978,https://maps.google.com/?cid=0x0:0xe66eb70d85cccf25,
cafe,Kafe,Hallo Kopi,"Namlea, Kec. Namlea, Kabupaten Buru, Maluku","Kabupaten Buru, Maluku",MALUKU,,Indonesia,,,,-3.260268,127.0931325,https://maps.google.com/?cid=0x0:0x5cb50159c5f44be9,
cafe,Kafe,Forganza Resto  Cafe,"Kelanit, Kec. Kei Kecil, Kabupaten Maluku Tenggara, Maluku","Kabupaten Maluku Tenggara, Maluku",MALUKU,,Indonesia,82231789845.0,,,-5.6575049,132.7029619,https://maps.google.com/?cid=0x0:0x35e7e74d6d2279bc,
cafe,Nasi,Namlea buru,"H3V2+R86, Upt Wamsait, Tlk. Kaiely, Kabupaten Buru, Maluku","Kabupaten Buru, Maluku",MALUKU,,Indonesia,,,,-3.4054701,127.0507676,https://maps.google.com/?cid=0x0:0x6b520f392ad21c9,
cafe,cafe,Maluku,,Maluku,MALUKU,,Indonesia,,,,-3.2384616,130.1452734,https://maps.google.com/?cid=0x0:0x5e30e8db04649a51,
cafe,Kedai Kopi,Nyoklat Klasik Lolongguba,"HWPG+J8J, Waegeren, Kec. Waeapo, Kabupaten Buru, Maluku","Kabupaten Buru, Maluku",MALUKU,,Indonesia,82198903680.0,,,-3.4134627,126.9260433,https://maps.google.com/?cid=0x0:0xb1ce0afb1a0d654b,
cafe,Komplek perumahan,Lorong citra,"9QG3+GHC, Unnamed Road, Kel. Lodar El, Pulau Dullah Sel., Kota Tual, Maluku","Kota Tual, Maluku",MALUKU,,Indonesia,85223305750.0,,,-5.6236926,132.753902,https://maps.google.com/?cid=0x0:0x85d88c64c8a8af03,
cafe,Kafe,Forganza Resto  Cafe,"Kelanit, Kec. Kei Kecil, Kabupaten Maluku Tenggara, Maluku","Kabupaten Maluku Tenggara, Maluku",MALUKU,,Indonesia,82231789845.0,,,-5.6575049,132.7029619,https://maps.google.com/?cid=0x0:0x35e7e74d6d2279bc,
cafe,cafe,Bugis Coffee Shop Unit 5,"HWVQ+44J, Kab Buru, Kec Lolong Guba, Wanakarta, Kec. Waeapo, Kabupaten Buru, Maluku","Kabupaten Buru, Maluku",MALUKU,,Indonesia,,,,-3.4071543,126.9377602,https://maps.google.com/?cid=0x0:0x99d320b5a9751402,
cafe,Mi,Mie Ayam  Bakso 52,"Lolong Guba, Grandeng, Kec. Waeapo, Kabupaten Buru, Maluku 97574","Grandeng, Kec. Waeapo, Kabupaten Buru",MALUKU,97574.0,Indonesia,81343461985.0,,,-3.4373519,126.9223353,https://maps.google.com/?cid=0x0:0xa836875761f090ab,
cafe,Bar Karaoke,Slita Family Karaoke,"P3WV+CW9, Namlea, Kec. Namlea, Kabupaten Buru, Maluku","Kabupaten Buru, Maluku",MALUKU,,Indonesia,82319086714.0,,,-3.2539659,127.0948445,https://maps.google.com/?cid=0x0:0x8d829555207dee96,
cafe,Kedai Kopi,Kopte,"Jl. Springs Boulevard No.35, Cihuni, Kec. Pagedangan, Kabupaten Tangerang, Banten 15332","Cihuni, Kec. Pagedangan, Kabupaten Tangerang",MALUKU,15332.0,Indonesia,,,,-6.2739047,106.6383578,https://maps.google.com/?cid=0x0:0x9b9e191b5dbe0f89,
cafe,Kedai Kopi,Ruko,"Jl. Goldfinch Raya Jl. Springs Boulevard No.31, Cihuni, Kec. Pagedangan, Kabupaten Tangerang, Banten 15332","Cihuni, Kec. Pagedangan, Kabupaten Tangerang",MALUKU,15332.0,Indonesia,,,,-6.27439,106.636,https://maps.google.com/?cid=0x0:0x2089d31fde2ebb05,
cafe,cafe,Kec. Waelata,"Kabupaten Buru, Maluku","Kabupaten Buru, Maluku",MALUKU,,Indonesia,,,,-3.4811436,126.9241917,https://maps.google.com/?cid=0x0:0xd5c06f16d8212c44,
cafe,Kafe,KEDAI ROKET,"H284+G86 Syuhada, Jln, Parbulu, Waelata, Buru Regency, Maluku","Kabupaten Buru, Maluku",MALUKU,,Indonesia,82248872580.0,,,-3.4337043,127.0057723,https://maps.google.com/?cid=0x0:0x874915813aaa82f,
cafe,Dapur Umum,KEDAI ERLIFFA,"HW4F+PR6, Grandeng, Kec. Waeapo, Kabupaten Buru, Maluku","Kabupaten Buru, Maluku",MALUKU,,Indonesia,81245365096.0,,,-3.4432161,126.9245261,https://maps.google.com/?cid=0x0:0x1f586b8c1197075f,
cafe,Kedai Kopi,Ndezo coffee and eatery,"JXXC+FJH, Jl. Propinsi, Waekerta, Kec. Namlea, Kabupaten Buru, Maluku","Kabupaten Buru, Maluku",MALUKU,,Indonesia,85243443076.0,,,-3.3513117,126.9715989,https://maps.google.com/?cid=0x0:0x802fd86b0f2cbe41,
cafe,Restoran,Warung Cafe Plus,"Unnamed Road, Waenetat, Kec. Waeapo, Kabupaten Buru, Maluku","Kabupaten Buru, Maluku",MALUKU,,Indonesia,85354517778.0,,,-3.3819394,126.9738775,https://maps.google.com/?cid=0x0:0x675f508f1d99992e,
cafe,Rumah Kaca,Rumah tya,"J27F+GHM, Debowae, Kec. Waelata, Kabupaten Buru, Maluku","Kabupaten Buru, Maluku",MALUKU,,Indonesia,,,,-3.386159,127.0239303,https://maps.google.com/?cid=0x0:0x8e8a7e95ac41c9c4,
cafe,Brunch,Faizza coffe,"Grandeng, Kec. Waeapo, Kabupaten Buru, Maluku","Kabupaten Buru, Maluku",MALUKU,,Indonesia,81247952084.0,,,-3.4359682,126.9225069,https://maps.google.com/?cid=0x0:0x2f8785422b736ec,
cafe,Toko Makanan,D'happyfood 1,"H2XC+WRR, Debowae, Kec. Waelata, Kabupaten Buru, Maluku","Kabupaten Buru, Maluku",MALUKU,,Indonesia,,,,-3.4001356,127.0220062,https://maps.google.com/?cid=0x0:0xa549cbf8661af211,
cafe,Kafe,SEVENTEEN CAFE,"H284+XRM, Desa, Parbulu, Kec. Waeapo, Kabupaten Buru, Maluku","Kabupaten Buru, Maluku",MALUKU,,Indonesia,81247337829.0,,,-3.432534,127.0070591,https://maps.google.com/?cid=0x0:0x74bbd5924ab48711,
cafe,Kios,TRI RAHYONO,"J27F+GHM, Debowae, Kec. Waelata, Kabupaten Buru, Maluku","Kabupaten Buru, Maluku",MALUKU,,Indonesia,,,,-3.386159,127.0239303,https://maps.google.com/?cid=0x0:0x35e574cde469af0b,
cafe,Restoran,Tuku Indonesia,"JXFP+642, Unnamed Road, Waenetat, Kec. Waeapo, Kabupaten Buru, Maluku","Kabupaten Buru, Maluku",MALUKU,,Indonesia,85245515542.0,,,-3.3769796,126.9852685,https://maps.google.com/?cid=0x0:0xd63a074a7a775021,
cafe,Toko Swalayan,Kedai Alfatih,"HW5X+RGG, RT.014/RW.005, Dusun sidomulyo, Waelo, Kec. Waelata, Kabupaten Buru, Maluku","Kabupaten Buru, Maluku",MALUKU,,Indonesia,,,,-3.4403982,126.9488288,https://maps.google.com/?cid=0x0:0xdbebe4a9509fbb0a,
cafe,Brunch,Kedai BroSist,"Waenetat, Kec. Waeapo, Kabupaten Buru, Maluku","Kabupaten Buru, Maluku",MALUKU,,Indonesia,82315754614.0,,,-3.3540352,126.9781899,https://maps.google.com/?cid=0x0:0xf458cb3b6b79ec1c,
cafe,Kedai Kopi,Kaffe koffie Kesya,"JXRH+2R3, Unnamed Road, Waekasar, Kec. Waeapo, Kabupaten Buru, Maluku","Kabupaten Buru, Maluku",MALUKU,,Indonesia,,,,-3.3599885,126.9795467,https://maps.google.com/?cid=0x0:0xf352fdc1b90d144d,
cafe,Kedai Kopi,Nur conter,"G26H+HP7 unit 17, Parbulu, Kec. Waelata, Kabupaten Buru, Maluku","Kabupaten Buru, Maluku",MALUKU,,Indonesia,,,,-3.4885781,127.0292986,https://maps.google.com/?cid=0x0:0x49e13cf5902b60c7,
cafe,Toko bahan makanan,I CLUB ANDIKA,"JXPM+9P5, Unnamed Road, Waekasar, Kec. Waeapo, Kabupaten Buru, Maluku","Kabupaten Buru, Maluku",MALUKU,,Indonesia,81293470980.0,,,-3.364116,126.9843735,https://maps.google.com/?cid=0x0:0x313da6dcfcf80766,
cafe,Kedai Kopi,Miftahul huda,"JX99+4XF, Unnamed Road, Waenetat, Kec. Waeapo, Kabupaten Buru, Maluku","Kabupaten Buru, Maluku",MALUKU,,Indonesia,,,,-3.3821776,126.9699323,https://maps.google.com/?cid=0x0:0xb5af534521c040c8,
cafe,Restoran,Rumah Makan Arto Moro,"HW4C+XVM, Grandeng, Kec. Waeapo, Kabupaten Buru, Maluku","Kabupaten Buru, Maluku",MALUKU,,Indonesia,82244667541.0,,,-3.4425406,126.9221758,https://maps.google.com/?cid=0x0:0x60b92ea876b548f0,
cafe,Restoran,Warung Makan Azzam Arema,"poros No.Road, Debowae, Kec. Waeapo, Kabupaten Buru, Maluku","Kabupaten Buru, Maluku",MALUKU,,Indonesia,,,,-3.4035614,127.0201484,https://maps.google.com/?cid=0x0:0x15970977d1fb5ebd,
cafe,Restoran,Bakso Rani,"H284+WV, Parbulu, Kec. Waelata, Kabupaten Buru, Maluku","Kabupaten Buru, Maluku",MALUKU,,Indonesia,,,,-3.4326642,127.0072622,https://maps.google.com/?cid=0x0:0x377239c94cb31002,
cafe,Padang,Rumah makan AYAH (masakan Padang),"J22F+259, Jl. Tambang Emas Gn. Botak, Debowae, Kec. Waelata, Kabupaten Buru, Maluku","Kabupaten Buru, Maluku",MALUKU,,Indonesia,82298302503.0,,,-3.3999538,127.022985,https://maps.google.com/?cid=0x0:0xa440245c9bd51f77,
cafe,Kedai Kopi,Nyoklat Klasik Lolongguba,"HWPG+J8J, Waegeren, Kec. Waeapo, Kabupaten Buru, Maluku","Kabupaten Buru, Maluku",MALUKU,,Indonesia,82198903680.0,,,-3.4134627,126.9260433,https://maps.google.com/?cid=0x0:0xb1ce0afb1a0d654b,
cafe,cafe,Maluku,,Maluku,MALUKU,,Indonesia,,,,-3.2384616,130.1452734,https://maps.google.com/?cid=0x0:0x5e30e8db04649a51,
cafe,Kafe,FIAN AMBONES Coffee,"Unnamed Road, Namlea, Kec. Namlea, Kabupaten Buru, Maluku","Kabupaten Buru, Maluku",MALUKU,,Indonesia,81248009308.0,,,-3.2762626,127.1028349,https://maps.google.com/?cid=0x0:0x74de8834fab97800,
cafe,Kafe,Kedai Medussa,"Tugu Tani, Namlea, Kec. Namlea, Kabupaten Buru, Maluku 97571","Namlea, Kec. Namlea, Kabupaten Buru",MALUKU,97571.0,Indonesia,81312326558.0,,,-3.2585874,127.0965538,https://maps.google.com/?cid=0x0:0x6176a39707d21a51,
cafe,Kedai Kopi,Kaffe koffie Kesya,"JXRH+2R3, Unnamed Road, Waekasar, Kec. Waeapo, Kabupaten Buru, Maluku","Kabupaten Buru, Maluku",MALUKU,,Indonesia,,,,-3.3599885,126.9795467,https://maps.google.com/?cid=0x0:0xf352fdc1b90d144d,
cafe,Kafe,Hallo Kopi,"Namlea, Kec. Namlea, Kabupaten Buru, Maluku","Kabupaten Buru, Maluku",MALUKU,,Indonesia,,,,-3.260268,127.0931325,https://maps.google.com/?cid=0x0:0x5cb50159c5f44be9,
cafe,Kafe,Forganza Resto  Cafe,"Kelanit, Kec. Kei Kecil, Kabupaten Maluku Tenggara, Maluku","Kabupaten Maluku Tenggara, Maluku",MALUKU,,Indonesia,82231789845.0,,,-5.6575049,132.7029619,https://maps.google.com/?cid=0x0:0x35e7e74d6d2279bc,
cafe,Bar Karaoke,Slita Family Karaoke,"P3WV+CW9, Namlea, Kec. Namlea, Kabupaten Buru, Maluku","Kabupaten Buru, Maluku",MALUKU,,Indonesia,82319086714.0,,,-3.2539659,127.0948445,https://maps.google.com/?cid=0x0:0x8d829555207dee96,
cafe,Kafe,KEDAI LIRWANA,"P3WW+223, Unnamed Road, Namlea, Kec. Namlea, Kabupaten Buru, Maluku","Kabupaten Buru, Maluku",MALUKU,,Indonesia,82193356889.0,,,-3.2549839,127.0950499,https://maps.google.com/?cid=0x0:0x5aa77ee6247c4fcd,
cafe,Kafe,Four Palms Cafe,"Jl. Raja, Halong, Baru Atas, Kota Ambon, Maluku","Kota Ambon, Maluku",MALUKU,,Indonesia,811470599.0,,,-3.6551658,128.2342334,https://maps.google.com/?cid=0x0:0x3116d9e359ad016b,
cafe,Kafe,Dluku Cafee  Resort,"Jl. Ir . Mohammad Khosi, Waimital, Kec. Kairatu, Ambon, Maluku 97566","Waimital, Kec. Kairatu, Ambon",MALUKU,97566.0,Indonesia,81240221127.0,,,-3.3135564,128.3676982,https://maps.google.com/?cid=0x0:0xd71b08a0e37ca59a,
cafe,Studio Foto,Kawasan Leisela,"P4J5+9VG, Namlea, Kec. Namlea, Kabupaten Buru, Maluku","Kabupaten Buru, Maluku",MALUKU,,Indonesia,82345600772.0,,,-3.2690473,127.1097155,https://maps.google.com/?cid=0x0:0x85768b108b83bc67,
cafe,Indonesia,OLina caferesto,"97H4+2QG, Passo, Kec. Baguala, Kota Ambon, Maluku","Kota Ambon, Maluku",MALUKU,,Indonesia,82199231798.0,,,-3.6225066,128.2574029,https://maps.google.com/?cid=0x0:0xb19ebc731e4d5590,
cafe,Kafe,Coffee88__,"Namlea, Kec. Namlea, Kabupaten Buru, Maluku","Kabupaten Buru, Maluku",MALUKU,,Indonesia,85254209464.0,,,-3.2676599,127.0950814,https://maps.google.com/?cid=0x0:0x1bc59c4071bac8d6,
cafe,Kedai Kopi,Gallery Cafe,"P3GX+GQP, Namlea, Kec. Namlea, Kabupaten Buru, Maluku","Kabupaten Buru, Maluku",MALUKU,,Indonesia,,,,-3.2736511,127.0994385,https://maps.google.com/?cid=0x0:0x74e6249936b57e9,
cafe,Kafe,Dinasty Coffe,"P4M6+J8G, Unnamed Road, Namlea, Buru Regency, Maluku","Kabupaten Buru, Maluku",MALUKU,,Indonesia,81343301052.0,,,-3.2659411,127.1108287,https://maps.google.com/?cid=0x0:0x1d3bc75b3c773dd0,
cafe,Dapur Umum,KEDAI ERLIFFA,"HW4F+PR6, Grandeng, Kec. Waeapo, Kabupaten Buru, Maluku","Kabupaten Buru, Maluku",MALUKU,,Indonesia,81245365096.0,,,-3.4432161,126.9245261,https://maps.google.com/?cid=0x0:0x1f586b8c1197075f,
cafe,Komplek perumahan,Cafe 69,"Q33P+JQQ, Namlea, Kec. Namlea, Kabupaten Buru, Maluku","Kabupaten Buru, Maluku",MALUKU,,Indonesia,,,,-3.2459522,127.0870242,https://maps.google.com/?cid=0x0:0x2cf4a21bc7ff854f,
cafe,Kedai Kopi,Kedai Mely,"Namlea, Kec. Namlea, Kabupaten Buru, Maluku 97571","Kec. Namlea, Kabupaten Buru",MALUKU,97571.0,Indonesia,82211156665.0,,,-3.2749616,127.1049369,https://maps.google.com/?cid=0x0:0xe1c80a2c6016d0d4,
cafe,Kafe,Nyoklat Klasik Namlea,"P4G2+C72, Namlea, Kec. Namlea, Kabupaten Buru, Maluku","Kabupaten Buru, Maluku",MALUKU,,Indonesia,82248333604.0,,,-3.2733004,127.101027,https://maps.google.com/?cid=0x0:0xf67b621d7f23995f,
cafe,Kafe,INFINITY CAFE  EATERY,"85CV+M7G, Pandan Kasturi, Kec. Sirimau, Kota Ambon, Maluku","Kota Ambon, Maluku",MALUKU,,Indonesia,81241568878.0,,,-3.6783317,128.1931931,https://maps.google.com/?cid=0x0:0x619ec9a16acc810f,
cafe,Indonesia,VOILA DESSERT  EATERY,"Jl. Jend. A Yani, Kel Batu Meja, Kec. Sirimau, Kota Ambon, Maluku 97125","Kel Batu Meja, Kec. Sirimau, Kota Ambon",MALUKU,97125.0,Indonesia,82229911005.0,,,-3.69803,128.185768,https://maps.google.com/?cid=0x0:0x263c84f16d8e6461,
cafe,Kafe,Curva,"P3FX+GCC, Namlea, Kec. Namlea, Kabupaten Buru, Maluku","Kabupaten Buru, Maluku",MALUKU,,Indonesia,82393530961.0,,,-3.275977,127.0980906,https://maps.google.com/?cid=0x0:0xdcd50a8362ea3820,
cafe,Kafe,Kafe ' LL,"5P5Q+23M, Jl. Kabupaten, Labuang, Kec. Namrole, Kabupaten Buru Selatan, Maluku","Kabupaten Buru Selatan, Maluku",MALUKU,,Indonesia,85244477781.0,,,-3.842418,126.737683,https://maps.google.com/?cid=0x0:0xee253c96eb646544,
cafe,Kafe,Kafena Cafe  Resto,"Jl. Soekarno, Sukur, Kec. Dimembe, Kabupaten Minahasa Utara, Sulawesi Utara 95371","Sukur, Kec. Dimembe, Kabupaten Minahasa Utara",MALUKU,95371.0,Indonesia,85398937256.0,,,1.4655094,124.9619849,https://maps.google.com/?cid=0x0:0x34bd334bb7f248ff,
cafe,Kafe,AMSDAM,"Jl. Pintu Air V No.49, Ps. Baru, Kecamatan Sawah Besar, Kota Jakarta Pusat, Daerah Khusus Ibukota Jakarta 10710","Ps. Baru, Kecamatan Sawah Besar, Kota Jakarta Pusat",MALUKU,10710.0,Indonesia,,,,-6.1630962,106.8320799,https://maps.google.com/?cid=0x0:0xb6ddf32b7ffaaa51,
cafe,Kafe,CAFFE KITA,"P3JW+8CJ, Unnamed Road, Namlea, Kec. Namlea, Kabupaten Buru, Maluku","Kabupaten Buru, Maluku",MALUKU,,Indonesia,81211118852.0,,,-3.269161,127.0960199,https://maps.google.com/?cid=0x0:0xfd4fb772364ded72,
cafe,cafe,Tlk. Kaiely,"Kabupaten Buru, Maluku","Kabupaten Buru, Maluku",MALUKU,,Indonesia,,,,-3.3033929,126.5661908,https://maps.google.com/?cid=0x0:0x12b5aeb27efc20e0,
cafe,Kedai Kopi,Ndezo coffee and eatery,"JXXC+FJH, Jl. Propinsi, Waekerta, Kec. Namlea, Kabupaten Buru, Maluku","Kabupaten Buru, Maluku",MALUKU,,Indonesia,85243443076.0,,,-3.3513117,126.9715989,https://maps.google.com/?cid=0x0:0x802fd86b0f2cbe41,
cafe,Kedai Kopi,Gallery Cafe,"P3GX+GQP, Namlea, Kec. Namlea, Kabupaten Buru, Maluku","Kabupaten Buru, Maluku",MALUKU,,Indonesia,,,,-3.2736511,127.0994385,https://maps.google.com/?cid=0x0:0x74e6249936b57e9,
cafe,Kedai Kopi,Kaffe koffie Kesya,"JXRH+2R3, Unnamed Road, Waekasar, Kec. Waeapo, Kabupaten Buru, Maluku","Kabupaten Buru, Maluku",MALUKU,,Indonesia,,,,-3.3599885,126.9795467,https://maps.google.com/?cid=0x0:0xf352fdc1b90d144d,
cafe,Toko bahan makanan,I CLUB ANDIKA,"JXPM+9P5, Unnamed Road, Waekasar, Kec. Waeapo, Kabupaten Buru, Maluku","Kabupaten Buru, Maluku",MALUKU,,Indonesia,81293470980.0,,,-3.364116,126.9843735,https://maps.google.com/?cid=0x0:0x313da6dcfcf80766,
cafe,Kafe,De Ol One Cafe,"P4H5+J6Q, Namlea, Kec. Namlea, Kabupaten Buru, Maluku","Kabupaten Buru, Maluku",MALUKU,,Indonesia,,,,-3.2709152,127.1080972,https://maps.google.com/?cid=0x0:0x3679f3f5c127df23,
cafe,Brunch,Kedai BroSist,"Waenetat, Kec. Waeapo, Kabupaten Buru, Maluku","Kabupaten Buru, Maluku",MALUKU,,Indonesia,82315754614.0,,,-3.3540352,126.9781899,https://maps.google.com/?cid=0x0:0xf458cb3b6b79ec1c,
cafe,Kedai Kopi,Kyuu Coffee Shop,"P3PQ+HM6, Namlea, Kec. Namlea, Kabupaten Buru, Maluku","Kabupaten Buru, Maluku",MALUKU,,Indonesia,82290101993.0,,,-3.2635799,127.0891454,https://maps.google.com/?cid=0x0:0xb61c72d0a59ab72e,
cafe,Kafe,Kedei kenzo,"JXPM+FM9, Waenetat, Kec. Waeapo, Kabupaten Buru, Maluku","Kabupaten Buru, Maluku",MALUKU,,Indonesia,82312865141.0,,,-3.3638315,126.9842308,https://maps.google.com/?cid=0x0:0xa3be7d7ee84c1983,
cafe,Kafe,Dinasty Coffe,"P4M6+J8G, Unnamed Road, Namlea, Buru Regency, Maluku","Kabupaten Buru, Maluku",MALUKU,,Indonesia,81343301052.0,,,-3.2659411,127.1108287,https://maps.google.com/?cid=0x0:0x1d3bc75b3c773dd0,
cafe,Komplek perumahan,RM Wakatobi,"Fena Leisela, Jl. Propinsi No.KM 80, Wamlana, Tlk. Kaiely, Kabupaten Buru, Maluku","Kabupaten Buru, Maluku",MALUKU,,Indonesia,82239711790.0,,,-3.0754653,126.543609,https://maps.google.com/?cid=0x0:0x6c8960b03b027812,
cafe,Restoran,Warung Cafe Plus,"Unnamed Road, Waenetat, Kec. Waeapo, Kabupaten Buru, Maluku","Kabupaten Buru, Maluku",MALUKU,,Indonesia,85354517778.0,,,-3.3819394,126.9738775,https://maps.google.com/?cid=0x0:0x675f508f1d99992e,
cafe,Kedai Kopi,Nyoklat Klasik Fenaleisela,"WHHW+542, Waspait, Kec. Air Buaya, Kabupaten Buru, Maluku","Kabupaten Buru, Maluku",MALUKU,,Indonesia,82230122554.0,,,-3.0720972,126.5952391,https://maps.google.com/?cid=0x0:0x6d6ce94a8dd61a0d,
cafe,Kedai Kopi,Nyoklat Klasik Buru,"JXWH+JV4, Waekasar, Kec. Waeapo, Kabupaten Buru, Maluku","Kabupaten Buru, Maluku",MALUKU,,Indonesia,82248333604.0,,,-3.3541746,126.9794705,https://maps.google.com/?cid=0x0:0xc84cefdd29471108,
cafe,Kafe,FIAN AMBONES Coffee,"Unnamed Road, Namlea, Kec. Namlea, Kabupaten Buru, Maluku","Kabupaten Buru, Maluku",MALUKU,,Indonesia,81248009308.0,,,-3.2762626,127.1028349,https://maps.google.com/?cid=0x0:0x74de8834fab97800,
cafe,Nasi,Warung bpk kuseri,"H2VR+P5, Upt Wamsait, Teluk Kaiely, Kabupaten Buru, Maluku","Kabupaten Buru, Maluku",MALUKU,,Indonesia,82189365086.0,,,-3.4050467,127.0405059,https://maps.google.com/?cid=0x0:0xe6fd0b4e8dcadd24,
cafe,Restoran,Tuku Indonesia,"JXFP+642, Unnamed Road, Waenetat, Kec. Waeapo, Kabupaten Buru, Maluku","Kabupaten Buru, Maluku",MALUKU,,Indonesia,85245515542.0,,,-3.3769796,126.9852685,https://maps.google.com/?cid=0x0:0xd63a074a7a775021,
cafe,Kedai Kopi,Kedai Mely,"Namlea, Kec. Namlea, Kabupaten Buru, Maluku 97571","Kec. Namlea, Kabupaten Buru",MALUKU,97571.0,Indonesia,82211156665.0,,,-3.2749616,127.1049369,https://maps.google.com/?cid=0x0:0xe1c80a2c6016d0d4,
cafe,Kafe,Hallo Kopi,"Namlea, Kec. Namlea, Kabupaten Buru, Maluku","Kabupaten Buru, Maluku",MALUKU,,Indonesia,,,,-3.260268,127.0931325,https://maps.google.com/?cid=0x0:0x5cb50159c5f44be9,
cafe,cafe,RM BIRU,"H2WR+JW, Upt Wamsait, Teluk Kaiely, Kabupaten Buru, Maluku","Kabupaten Buru, Maluku",MALUKU,,Indonesia,,,,-3.4024667,127.0424521,https://maps.google.com/?cid=0x0:0xcc12415f7bf1cd49,
cafe,cafe,Bakso Kiky,"samping mushola Ar Rahman desa waekoseKabupaten, Jln lintas, Waspait, Kec. Air Buaya, Kabupaten Buru, Maluku","Kabupaten Buru, Maluku",MALUKU,,Indonesia,,,,-3.0721218,126.5953504,https://maps.google.com/?cid=0x0:0xb13f58448785f978,
cafe,Kedai Kopi,Bobba cingire,"JXJP+8V9, Waenetat, Kec. Waeapo, Kabupaten Buru, Maluku","Kabupaten Buru, Maluku",MALUKU,,Indonesia,82349850265.0,,,-3.3693629,126.9870766,https://maps.google.com/?cid=0x0:0x3ad56200ea77616a,
cafe,cafe,Kec. Lilialy,"Kabupaten Buru, Maluku","Kabupaten Buru, Maluku",MALUKU,,Indonesia,,,,-3.1452717,126.9901544,https://maps.google.com/?cid=0x0:0xa4098f1c5783ea97,
cafe,Kafe,De Ol One Cafe,"P4H5+J6Q, Namlea, Kec. Namlea, Kabupaten Buru, Maluku","Kabupaten Buru, Maluku",MALUKU,,Indonesia,,,,-3.2709152,127.1080972,https://maps.google.com/?cid=0x0:0x3679f3f5c127df23,
cafe,Kafe,FIAN AMBONES Coffee,"Unnamed Road, Namlea, Kec. Namlea, Kabupaten Buru, Maluku","Kabupaten Buru, Maluku",MALUKU,,Indonesia,81248009308.0,,,-3.2762626,127.1028349,https://maps.google.com/?cid=0x0:0x74de8834fab97800,
cafe,Kedai Kopi,Gallery Cafe,"P3GX+GQP, Namlea, Kec. Namlea, Kabupaten Buru, Maluku","Kabupaten Buru, Maluku",MALUKU,,Indonesia,,,,-3.2736511,127.0994385,https://maps.google.com/?cid=0x0:0x74e6249936b57e9,
cafe,Kafe,Dinasty Coffe,"P4M6+J8G, Unnamed Road, Namlea, Buru Regency, Maluku","Kabupaten Buru, Maluku",MALUKU,,Indonesia,81343301052.0,,,-3.2659411,127.1108287,https://maps.google.com/?cid=0x0:0x1d3bc75b3c773dd0,
cafe,Kedai Kopi,Kyuu Coffee Shop,"P3PQ+HM6, Namlea, Kec. Namlea, Kabupaten Buru, Maluku","Kabupaten Buru, Maluku",MALUKU,,Indonesia,82290101993.0,,,-3.2635799,127.0891454,https://maps.google.com/?cid=0x0:0xb61c72d0a59ab72e,
cafe,Kedai Kopi,Kedai Mely,"Namlea, Kec. Namlea, Kabupaten Buru, Maluku 97571","Kec. Namlea, Kabupaten Buru",MALUKU,97571.0,Indonesia,82211156665.0,,,-3.2749616,127.1049369,https://maps.google.com/?cid=0x0:0xe1c80a2c6016d0d4,
cafe,Kafe,Hallo Kopi,"Namlea, Kec. Namlea, Kabupaten Buru, Maluku","Kabupaten Buru, Maluku",MALUKU,,Indonesia,,,,-3.260268,127.0931325,https://maps.google.com/?cid=0x0:0x5cb50159c5f44be9,
cafe,Bar Karaoke,Slita Family Karaoke,"P3WV+CW9, Namlea, Kec. Namlea, Kabupaten Buru, Maluku","Kabupaten Buru, Maluku",MALUKU,,Indonesia,82319086714.0,,,-3.2539659,127.0948445,https://maps.google.com/?cid=0x0:0x8d829555207dee96,
cafe,cafe,RM. Dahlia,"P3HX+3MG, Jl. Pendidikan, Namlea, Kec. Namlea, Kabupaten Buru, Maluku","Kabupaten Buru, Maluku",MALUKU,,Indonesia,,,,-3.2723135,127.0992039,https://maps.google.com/?cid=0x0:0xec1bb5ecc2de3c10,
cafe,Restoran,"Citra Wangi Resto, Namlea, Buru","Namlea, Kec. Namlea, Kabupaten Buru, Maluku","Kabupaten Buru, Maluku",MALUKU,,Indonesia,85344427488.0,,,-3.2641228,127.0885197,https://maps.google.com/?cid=0x0:0xccef20463848c233,
cafe,Rumah Makan,KEDAI  CAFE A5,"P3VV+2V8, Namlea, Kec. Namlea, Kabupaten Buru, Maluku","Kabupaten Buru, Maluku",MALUKU,,Indonesia,82397074144.0,,,-3.2574665,127.0947126,https://maps.google.com/?cid=0x0:0xe2c2d2d13128eee3,
cafe,Kafe,CAFFE KITA,"P3JW+8CJ, Unnamed Road, Namlea, Kec. Namlea, Kabupaten Buru, Maluku","Kabupaten Buru, Maluku",MALUKU,,Indonesia,81211118852.0,,,-3.269161,127.0960199,https://maps.google.com/?cid=0x0:0xfd4fb772364ded72,
cafe,Toko bahan makanan,Jakaria jekson,"R2HG+55F, Jl. Propinsi, Jikumerasa, Kec. Namlea, Kabupaten Buru, Maluku","Kabupaten Buru, Maluku",MALUKU,,Indonesia,,,,-3.1717044,127.0255197,https://maps.google.com/?cid=0x0:0x8a1326329811b245,
cafe,Rumah Makan,RM Dewi Asih,"P3XV+9Q4, Namlea, Kec. Namlea, Kabupaten Buru, Maluku","Kabupaten Buru, Maluku",MALUKU,,Indonesia,812248990448.0,,,-3.2516178,127.0944555,https://maps.google.com/?cid=0x0:0x62423162adb2c1e6,
cafe,Kafe,Halo kopi,"Q38P+J9R, Jalan Bukit Permai BTN, Namlea, Kec. Namlea, Kabupaten Buru, Maluku 97571","Jalan Bukit Permai BTN, Namlea, Kec. Namlea, Kabupaten Buru",MALUKU,97571.0,Indonesia,81344412787.0,,,-3.233398,127.085899,https://maps.google.com/?cid=0x0:0x64448cea6e36de6f,
cafe,Sarapan,Warung Kendedes,"R2GH+2RF, Jl. Propinsi, Jikumerasa, Kec. Namlea, Kabupaten Buru, Maluku","Kabupaten Buru, Maluku",MALUKU,,Indonesia,81340917109.0,,,-3.1749305,127.0295341,https://maps.google.com/?cid=0x0:0x2ea509bbf753af8b,
cafe,Kafe,D'AtlantiSt Cafe,"P3PQ+43C, Jl. Syaikh Muhammad Al-Khidhir, Namlea, Kec. Namlea, Kabupaten Buru, Maluku","Kabupaten Buru, Maluku",MALUKU,,Indonesia,85343458686.0,,,-3.2646788,127.0876333,https://maps.google.com/?cid=0x0:0xab37e38be08b472,
cafe,Kafe,Markas Cafe,"P3FX+2GM, Unnamed Road,, Namlea, Kec. Namlea, Kabupaten Buru, Maluku","Kabupaten Buru, Maluku",MALUKU,,Indonesia,85343458686.0,,,-3.277402,127.0987903,https://maps.google.com/?cid=0x0:0x74fb510d1eb9e9eb,
cafe,Kedai Kopi,Akeba Coffee,"Samping Masjid Maulana Ibrahim, Namlea, Kec. Namlea, Kabupaten Buru, Maluku 97571","Namlea, Kec. Namlea, Kabupaten Buru",MALUKU,97571.0,Indonesia,82199045040.0,,,-3.2770656,127.1031713,https://maps.google.com/?cid=0x0:0x698c9b985c77474d,
cafe,Komplek perumahan,Cafe 69,"Q33P+JQQ, Namlea, Kec. Namlea, Kabupaten Buru, Maluku","Kabupaten Buru, Maluku",MALUKU,,Indonesia,,,,-3.2459522,127.0870242,https://maps.google.com/?cid=0x0:0x2cf4a21bc7ff854f,
cafe,Makanan Kecil,Warung mie ikan julung,"R2GG+R8Q, jalan, Jikumerasa, Kec. Lilialy, Kabupaten Buru, Maluku","Kabupaten Buru, Maluku",MALUKU,,Indonesia,,,,-3.1729058,127.0258597,https://maps.google.com/?cid=0x0:0x7e2c3d7ec7098afc,
cafe,Kafe,Kafe Arad Caffe,"P3RW+C8F, Namlea, Kec. Namlea, Kabupaten Buru, Maluku","Kabupaten Buru, Maluku",MALUKU,,Indonesia,,,,-3.2589013,127.0960488,https://maps.google.com/?cid=0x0:0x64d23d65e66ccbdb,
cafe,Toko sembako pemerintah,Jual jajanan,"R2JF+GJJ, Jikumerasa, Kec. Lilialy, Kabupaten Buru, Maluku","Kabupaten Buru, Maluku",MALUKU,,Indonesia,,,,-3.1686517,127.0240244,https://maps.google.com/?cid=0x0:0x4b63719bd442efcf,
cafe,cafe,Coffe Break,"P4J3+5JQ, Jalan baru, Namlea, Buru Regency, Maluku","Kabupaten Buru, Maluku",MALUKU,,Indonesia,85211391361.0,,,-3.2695364,127.1041121,https://maps.google.com/?cid=0x0:0x32dd06399eca936a,
cafe,cafe,Jikumerasa Beach Resort  Resto,"R2JG+VF6, Pulau, Jikumerasa, Kec. Lilialy, Kabupaten Buru, Maluku","Kabupaten Buru, Maluku",MALUKU,,Indonesia,,,,-3.1678457,127.0261521,https://maps.google.com/?cid=0x0:0x78b190bab6a0bd9d,
cafe,Kafe,KEDAI LIRWANA,"P3WW+223, Unnamed Road, Namlea, Kec. Namlea, Kabupaten Buru, Maluku","Kabupaten Buru, Maluku",MALUKU,,Indonesia,82193356889.0,,,-3.2549839,127.0950499,https://maps.google.com/?cid=0x0:0x5aa77ee6247c4fcd,
