Category,Real Category,Business Name,Address,City,State,Postal Code,Country,Phone,Email,Website,Latitude,Longitude,Map Link,Details Link
building materials,building materials,Namlea,"Namlea, Kec. Namlea, Kabupaten Buru, Maluku","Kabupaten Buru, Maluku",MALUKU,,Indonesia,,,,-3.233398,127.085899,https://maps.google.com/?cid=0x0:0xe52ca57740e74df,
building materials,Toko Bahan Bangunan,Toko Duta Bangunan,"Jl. Danau Rana, Namlea, Kec. Namlea, Kabupaten Buru, Maluku","Kabupaten Buru, Maluku",MALUKU,,Indonesia,91322010.0,,,-3.269268,127.1034228,https://maps.google.com/?cid=0x0:0x4d2e61629ea407b9,
building materials,Toko,TOKO FAJAR MAS,"P3CX+R5Q, Namlea, Kec. Namlea, Kabupaten Buru, Maluku","Kabupaten Buru, Maluku",MALUKU,,Indonesia,81316222080.0,,,-3.2779017,127.0979019,https://maps.google.com/?cid=0x0:0xce7d9cbd242800a3,
building materials,building materials,Kec. Air Buaya,"Kabupaten Buru, Maluku","Kabupaten Buru, Maluku",MALUKU,,Indonesia,,,,-3.0855583,126.4356478,https://maps.google.com/?cid=0x0:0xfabb1de62994f5b6,
building materials,Toko umum,Toko Tiga Putra,"Waimangit, Kec. Air Buaya, Kabupaten Buru, Maluku","Kabupaten Buru, Maluku",MALUKU,,Indonesia,82238217090.0,,,-3.0852552,126.4506514,https://maps.google.com/?cid=0x0:0x67e95f62768a257b,
building materials,Toko Pakaian,Toko NUR JAYA 2,"WGGP+FGG, Wamlana, Kec. Fena leisela, Kabupaten Buru, Maluku","Kabupaten Buru, Maluku",MALUKU,,Indonesia,,,,-3.0738216,126.5361835,https://maps.google.com/?cid=0x0:0xe7e254da140de542,
building materials,Kontraktor Insulasi,PT Tali Rejeki,"Jl. Taruma Jaya No.11, Setia Asih, Kec. Tarumajaya, Kota Bks, Jawa Barat 17215","Setia Asih, Kec. Tarumajaya, Kota Bks",MALUKU,17215.0,Indonesia,2122889956.0,,,-6.1652412,106.9900241,https://maps.google.com/?cid=0x0:0x15898fadc067eab7,
building materials,Toko Bahan Bangunan,DACON Aluminium,"HWQV+4WM, Wanaherang, Kec. Gn. Putri, Kabupaten Bogor, Jawa Barat 16965","Wanaherang, Kec. Gn. Putri, Kabupaten Bogor",MALUKU,16965.0,Indonesia,85169996229.0,,,-6.4121657,106.9447848,https://maps.google.com/?cid=0x0:0x40f22f1be43d7e0f,
building materials,Pemasok Pipa,Surya Utama Metalindo PT.,"Jl. Gunung Sahari Raya no.1 Mangga Dua Square lt 2 blok C 61, RT.11/RW.6, Ancol, Kec. Pademangan, Jkt Utara, Daerah Khusus Ibukota Jakarta 14420","RT.11/RW.6, Ancol, Kec. Pademangan, Jkt Utara",MALUKU,14420.0,Indonesia,82310999956.0,,,-6.1387824,106.8314329,https://maps.google.com/?cid=0x0:0x213f9340f3f4865,
building materials,Jasa Konstruksi dan Bangunan,PT. Tirta Citra Bara Persada,"Ruko Prima Sunter Jl. Agung Timur 8, kav D5-6. Sunter Agung, 14350, Sunter, Tanjung Priok, RT.10/RW.11, Sunter Jaya, Kec. Tj. Priok, Jkt Utara, Daerah Khusus Ibukota Jakarta 14450","kav D5-6. Sunter Agung, 14350, Sunter, Tanjung Priok, RT.10/RW.11, Sunter Jaya, Kec. Tj. Priok, Jkt Utara",MALUKU,14450.0,Indonesia,2165307671.0,,,-6.141923,106.88518,https://maps.google.com/?cid=0x0:0xed9a88afd6a7dd88,
building materials,Insinyur Teknik Lingkungan,PT Tetrasa Geosinindo,"ITC ROXY MAS, Business Center, Jl. Kh Hasyim Ashari No.18-20 Block C4, Cideng, Gambir, Central Jakarta City, Jakarta 10150","Business Center, Jl. Kh Hasyim Ashari No.18-20 Block C4, Cideng, Gambir, Central Jakarta City",MALUKU,10150.0,Indonesia,216330150.0,,,-6.1680063,106.8051124,https://maps.google.com/?cid=0x0:0x7c88f7e107a42fb8,
building materials,Perusahaan Konstruksi,PT Hutama Karya (Persero),"HK Tower, MT Haryono St No.Kav. 8, RT.12/RW.11, Cawang, Jatinegara, East Jakarta City, Jakarta 13340","MT Haryono St No.Kav. 8, RT.12/RW.11, Cawang, Jatinegara, East Jakarta City",MALUKU,13340.0,Indonesia,218193708.0,,,-6.2454771,106.8732563,https://maps.google.com/?cid=0x0:0x3fbbfb6f9bcf4e43,
building materials,building materials,Kec. Waeapo,"Kabupaten Buru, Maluku","Kabupaten Buru, Maluku",MALUKU,,Indonesia,,,,-3.4137528,126.925378,https://maps.google.com/?cid=0x0:0xf83f0231b9a9b5fd,
building materials,Toko Perlengkapan Rumah,Sinar terang,"MX26+F79, Waekerta, Kec. Waeapo, Kabupaten Buru, Maluku","Kabupaten Buru, Maluku",MALUKU,,Indonesia,,,,-3.3488488,126.9607264,https://maps.google.com/?cid=0x0:0xc43c6df2f32c3cb5,
building materials,Toko Bahan Bangunan,"Toko Besi dan Bangunan Hidayah""""","HWQJ+WRV, Trans Buru Mako-Modaumohe, Waegeren, Kec. Waeapo, Kabupaten Buru, Maluku","Kabupaten Buru, Maluku",MALUKU,,Indonesia,82238719115.0,,,-3.410132,126.9320456,https://maps.google.com/?cid=0x0:0x120a46875d558939,
building materials,Toko Bahan Bangunan,Toko GM Mandiri,"J22F+P58, Debowae, Kec. Waeapo, Kabupaten Buru, Maluku","Kabupaten Buru, Maluku",MALUKU,,Indonesia,81617551247.0,,,-3.3982034,127.0229567,https://maps.google.com/?cid=0x0:0x6bc026e5e22c238d,
building materials,Toko Bahan Bangunan,TOKO ROFI,"JXFQ+F2M, Jln Gatot Subroto, komplek Pasar Mako, Namlea, Kec. Namlea, Kabupaten Buru, Maluku 97578","Jln Gatot Subroto, komplek Pasar Mako, Namlea, Kec. Namlea, Kabupaten Buru",MALUKU,97578.0,Indonesia,9132325065.0,,,-3.3762805,126.987547,https://maps.google.com/?cid=0x0:0xb2084c57efa37e66,
building materials,Toko Bahan Bangunan,TOKO WARDACH,"MX25+V96, Waekerta, Kec. Waeapo, Kabupaten Buru, Maluku","Kabupaten Buru, Maluku",MALUKU,,Indonesia,81316222080.0,,,-3.3478436,126.9583886,https://maps.google.com/?cid=0x0:0xf46923c55a27c005,
building materials,Toko Bahan Bangunan,TB. BAHAGIA,"HWQH+695, Waegeren, Kec. Waeapo, Kabupaten Buru, Maluku","Kabupaten Buru, Maluku",MALUKU,,Indonesia,,,,-3.4114934,126.9291488,https://maps.google.com/?cid=0x0:0xef99cce735992bc0,
building materials,Komplek perumahan,Somel,"VV8V+RQ, Lamahang, Waplau, Kabupaten Buru, Maluku","Kabupaten Buru, Maluku",MALUKU,,Indonesia,,,,-3.1329653,126.8944841,https://maps.google.com/?cid=0x0:0x165cbbf869d197bf,
building materials,Komplek perumahan,Toko Suka Maju,"VX3R+PCM, Sawa, Kec. Namlea, Kabupaten Buru, Maluku","Kabupaten Buru, Maluku",MALUKU,,Indonesia,,,,-3.1456502,126.9910599,https://maps.google.com/?cid=0x0:0x11f7366046c704ba,
building materials,Kontraktor Insulasi,PT Tali Rejeki,"Jl. Taruma Jaya No.11, Setia Asih, Kec. Tarumajaya, Kota Bks, Jawa Barat 17215","Setia Asih, Kec. Tarumajaya, Kota Bks",MALUKU,17215.0,Indonesia,2122889956.0,,,-6.1652412,106.9900241,https://maps.google.com/?cid=0x0:0x15898fadc067eab7,
building materials,Jasa Konstruksi dan Bangunan,PT. Tirta Citra Bara Persada,"Ruko Prima Sunter Jl. Agung Timur 8, kav D5-6. Sunter Agung, 14350, Sunter, Tanjung Priok, RT.10/RW.11, Sunter Jaya, Kec. Tj. Priok, Jkt Utara, Daerah Khusus Ibukota Jakarta 14450","kav D5-6. Sunter Agung, 14350, Sunter, Tanjung Priok, RT.10/RW.11, Sunter Jaya, Kec. Tj. Priok, Jkt Utara",MALUKU,14450.0,Indonesia,2165307671.0,,,-6.141923,106.88518,https://maps.google.com/?cid=0x0:0xed9a88afd6a7dd88,
building materials,Perhimpunan Pengembang Perumahan,PT Waenibe Wood Industries,"Desa Waekose Jl. Cendrawasih III 2 Rijali Sirimau Ambon 97123, Waspait, Teluk Kaiely, Buru Regency, Maluku","Kabupaten Buru, Maluku",MALUKU,,Indonesia,,,,-3.0673049,126.5969659,https://maps.google.com/?cid=0x0:0xeb3ec47e6411832d,
building materials,Komplek perumahan,Wapeula,"8WFQ+J7X, Ureng, Kec. Leihitu, Kabupaten Maluku Tengah, Maluku","Kabupaten Maluku Tengah, Maluku",MALUKU,,Indonesia,,,,-3.675502,127.937846,https://maps.google.com/?cid=0x0:0x6426d94160655707,
building materials,building materials,Kec. Bata Bual,"Kabupaten Buru, Maluku","Kabupaten Buru, Maluku",MALUKU,,Indonesia,,,,-3.5268077,127.2494018,https://maps.google.com/?cid=0x0:0xbd920a24abdb7eed,
building materials,Jasa Konstruksi dan Bangunan,Bata Unit R,"HXW6+88R, Waenetat, Kec. Waeapo, Kabupaten Buru, Maluku","Kabupaten Buru, Maluku",MALUKU,,Indonesia,,,,-3.4041266,126.9607575,https://maps.google.com/?cid=0x0:0x399ab8531fbf4de9,
building materials,Toko Perlengkapan Rumah,toko bata bual,"P3CX+93V, Jl. Flamboyan, Namlea, Kec. Namlea, Kabupaten Buru, Maluku","Kabupaten Buru, Maluku",MALUKU,,Indonesia,81385661699.0,,,-3.2790186,127.0976607,https://maps.google.com/?cid=0x0:0x7dd073170585614c,
building materials,Pemasok Pipa,Surya Utama Metalindo PT.,"Jl. Gunung Sahari Raya no.1 Mangga Dua Square lt 2 blok C 61, RT.11/RW.6, Ancol, Kec. Pademangan, Jkt Utara, Daerah Khusus Ibukota Jakarta 14420","RT.11/RW.6, Ancol, Kec. Pademangan, Jkt Utara",MALUKU,14420.0,Indonesia,82310999956.0,,,-6.1387824,106.8314329,https://maps.google.com/?cid=0x0:0x213f9340f3f4865,
building materials,building materials,Maluku,,Maluku,MALUKU,,Indonesia,,,,-3.2384616,130.1452734,https://maps.google.com/?cid=0x0:0x5e30e8db04649a51,
building materials,Toko Bahan Bangunan,Toko Duta Bangunan,"Jl. Danau Rana, Namlea, Kec. Namlea, Kabupaten Buru, Maluku","Kabupaten Buru, Maluku",MALUKU,,Indonesia,91322010.0,,,-3.269268,127.1034228,https://maps.google.com/?cid=0x0:0x4d2e61629ea407b9,
building materials,Toko,TOKO FAJAR MAS,"P3CX+R5Q, Namlea, Kec. Namlea, Kabupaten Buru, Maluku","Kabupaten Buru, Maluku",MALUKU,,Indonesia,81316222080.0,,,-3.2779017,127.0979019,https://maps.google.com/?cid=0x0:0xce7d9cbd242800a3,
building materials,Pemasok Pipa,Surya Utama Metalindo PT.,"Jl. Gunung Sahari Raya no.1 Mangga Dua Square lt 2 blok C 61, RT.11/RW.6, Ancol, Kec. Pademangan, Jkt Utara, Daerah Khusus Ibukota Jakarta 14420","RT.11/RW.6, Ancol, Kec. Pademangan, Jkt Utara",MALUKU,14420.0,Indonesia,82310999956.0,,,-6.1387824,106.8314329,https://maps.google.com/?cid=0x0:0x213f9340f3f4865,
building materials,Badan sertifikasi,PT. Heritage Pijar Manajemen,"Jl. Raya Muchtar No.11, RW.2, Sawangan Baru, Kec. Sawangan, Kota Depok, Jawa Barat 16511","RW.2, Sawangan Baru, Kec. Sawangan, Kota Depok",MALUKU,16511.0,Indonesia,81110019915.0,,,-6.4060202,106.7609642,https://maps.google.com/?cid=0x0:0x27a31073fe6ecf96,
building materials,building materials,Kec. Waelata,"Kabupaten Buru, Maluku","Kabupaten Buru, Maluku",MALUKU,,Indonesia,,,,-3.4811436,126.9241917,https://maps.google.com/?cid=0x0:0xd5c06f16d8212c44,
building materials,Toko Bahan Bangunan,Toko GM Mandiri,"J22F+P58, Debowae, Kec. Waeapo, Kabupaten Buru, Maluku","Kabupaten Buru, Maluku",MALUKU,,Indonesia,81617551247.0,,,-3.3982034,127.0229567,https://maps.google.com/?cid=0x0:0x6bc026e5e22c238d,
building materials,Toko Bahan Bangunan,TOKO BANGUNAN INDAH,"H2XC+MG8, Debowae, Kec. Waeapo, Kabupaten Buru, Maluku","Kabupaten Buru, Maluku",MALUKU,,Indonesia,82378990826.0,,,-3.4009468,127.0213428,https://maps.google.com/?cid=0x0:0xf490914073a04836,
building materials,Toko Bahan Bangunan,"Toko Besi dan Bangunan Hidayah""""","HWQJ+WRV, Trans Buru Mako-Modaumohe, Waegeren, Kec. Waeapo, Kabupaten Buru, Maluku","Kabupaten Buru, Maluku",MALUKU,,Indonesia,82238719115.0,,,-3.410132,126.9320456,https://maps.google.com/?cid=0x0:0x120a46875d558939,
building materials,Toko Perlengkapan Rumah,Sinar terang,"MX26+F79, Waekerta, Kec. Waeapo, Kabupaten Buru, Maluku","Kabupaten Buru, Maluku",MALUKU,,Indonesia,,,,-3.3488488,126.9607264,https://maps.google.com/?cid=0x0:0xc43c6df2f32c3cb5,
building materials,Peternakan Sapi,Bangunan upo,"HX95+XQ9 Imron mustafa, Waeleman, Kec. Waelata, Kabupaten Buru, Maluku","Kabupaten Buru, Maluku",MALUKU,,Indonesia,,,,-3.4300922,126.9594804,https://maps.google.com/?cid=0x0:0xf28553d23f6179c0,
building materials,Toko Bahan Bangunan,TB. BAHAGIA,"HWQH+695, Waegeren, Kec. Waeapo, Kabupaten Buru, Maluku","Kabupaten Buru, Maluku",MALUKU,,Indonesia,,,,-3.4114934,126.9291488,https://maps.google.com/?cid=0x0:0xef99cce735992bc0,
building materials,Toko Bahan Bangunan,TOKO WARDACH,"MX25+V96, Waekerta, Kec. Waeapo, Kabupaten Buru, Maluku","Kabupaten Buru, Maluku",MALUKU,,Indonesia,81316222080.0,,,-3.3478436,126.9583886,https://maps.google.com/?cid=0x0:0xf46923c55a27c005,
building materials,building materials,PONDOK BAKTI,"HWPG+G4Q, Jalan Gatot Subroto Lorong Pertamina, RT.6/RW.2, Wanareja, Kec. Waeapo, Kabupaten Buru, Maluku","Kabupaten Buru, Maluku",MALUKU,,Indonesia,82132814320.0,,,-3.4136719,126.9253496,https://maps.google.com/?cid=0x0:0x8c66efd855173199,
building materials,building materials,TB Fajar Sahabat,"H284+HC, Parbulu, Kec. Waelata, Kabupaten Buru, Maluku","Kabupaten Buru, Maluku",MALUKU,,Indonesia,81343456071.0,,,-3.433533,127.0060254,https://maps.google.com/?cid=0x0:0xb64dd70adfe211eb,
building materials,building materials,Bos galak,"H2C6+X32, Parbulu, Kec. Waelata, Kabupaten Buru, Maluku","Kabupaten Buru, Maluku",MALUKU,,Indonesia,,,,-3.4276025,127.0101291,https://maps.google.com/?cid=0x0:0x1475fcb8719a9f6f,
building materials,building materials,Jaya best enterprise,"HW5X+V9Q, Waelo, Kec. Waeapo, Kabupaten Buru, Maluku","Kabupaten Buru, Maluku",MALUKU,,Indonesia,,,,-3.440289,126.948497,https://maps.google.com/?cid=0x0:0xa94c4e2116ae2c2e,
building materials,Kontraktor Insulasi,PT Tali Rejeki,"Jl. Taruma Jaya No.11, Setia Asih, Kec. Tarumajaya, Kota Bks, Jawa Barat 17215","Setia Asih, Kec. Tarumajaya, Kota Bks",MALUKU,17215.0,Indonesia,2122889956.0,,,-6.1652412,106.9900241,https://maps.google.com/?cid=0x0:0x15898fadc067eab7,
building materials,Pemasok Pipa,Surya Utama Metalindo PT.,"Jl. Gunung Sahari Raya no.1 Mangga Dua Square lt 2 blok C 61, RT.11/RW.6, Ancol, Kec. Pademangan, Jkt Utara, Daerah Khusus Ibukota Jakarta 14420","RT.11/RW.6, Ancol, Kec. Pademangan, Jkt Utara",MALUKU,14420.0,Indonesia,82310999956.0,,,-6.1387824,106.8314329,https://maps.google.com/?cid=0x0:0x213f9340f3f4865,
building materials,Jasa Konstruksi dan Bangunan,PT. Tirta Citra Bara Persada,"Ruko Prima Sunter Jl. Agung Timur 8, kav D5-6. Sunter Agung, 14350, Sunter, Tanjung Priok, RT.10/RW.11, Sunter Jaya, Kec. Tj. Priok, Jkt Utara, Daerah Khusus Ibukota Jakarta 14450","kav D5-6. Sunter Agung, 14350, Sunter, Tanjung Priok, RT.10/RW.11, Sunter Jaya, Kec. Tj. Priok, Jkt Utara",MALUKU,14450.0,Indonesia,2165307671.0,,,-6.141923,106.88518,https://maps.google.com/?cid=0x0:0xed9a88afd6a7dd88,
building materials,building materials,Maluku,,Maluku,MALUKU,,Indonesia,,,,-3.2384616,130.1452734,https://maps.google.com/?cid=0x0:0x5e30e8db04649a51,
building materials,Toko Bahan Bangunan,Toko Duta Bangunan,"Jl. Danau Rana, Namlea, Kec. Namlea, Kabupaten Buru, Maluku","Kabupaten Buru, Maluku",MALUKU,,Indonesia,91322010.0,,,-3.269268,127.1034228,https://maps.google.com/?cid=0x0:0x4d2e61629ea407b9,
building materials,Toko Pakaian,Toko NUR JAYA 2,"WGGP+FGG, Wamlana, Kec. Fena leisela, Kabupaten Buru, Maluku","Kabupaten Buru, Maluku",MALUKU,,Indonesia,,,,-3.0738216,126.5361835,https://maps.google.com/?cid=0x0:0xe7e254da140de542,
building materials,Kontraktor Insulasi,PT Tali Rejeki,"Jl. Taruma Jaya No.11, Setia Asih, Kec. Tarumajaya, Kota Bks, Jawa Barat 17215","Setia Asih, Kec. Tarumajaya, Kota Bks",MALUKU,17215.0,Indonesia,2122889956.0,,,-6.1652412,106.9900241,https://maps.google.com/?cid=0x0:0x15898fadc067eab7,
building materials,Toko Bahan Bangunan,DACON Aluminium,"HWQV+4WM, Wanaherang, Kec. Gn. Putri, Kabupaten Bogor, Jawa Barat 16965","Wanaherang, Kec. Gn. Putri, Kabupaten Bogor",MALUKU,16965.0,Indonesia,85169996229.0,,,-6.4121657,106.9447848,https://maps.google.com/?cid=0x0:0x40f22f1be43d7e0f,
building materials,Pemasok Pipa,Surya Utama Metalindo PT.,"Jl. Gunung Sahari Raya no.1 Mangga Dua Square lt 2 blok C 61, RT.11/RW.6, Ancol, Kec. Pademangan, Jkt Utara, Daerah Khusus Ibukota Jakarta 14420","RT.11/RW.6, Ancol, Kec. Pademangan, Jkt Utara",MALUKU,14420.0,Indonesia,82310999956.0,,,-6.1387824,106.8314329,https://maps.google.com/?cid=0x0:0x213f9340f3f4865,
building materials,Jasa Konstruksi dan Bangunan,PT. Tirta Citra Bara Persada,"Ruko Prima Sunter Jl. Agung Timur 8, kav D5-6. Sunter Agung, 14350, Sunter, Tanjung Priok, RT.10/RW.11, Sunter Jaya, Kec. Tj. Priok, Jkt Utara, Daerah Khusus Ibukota Jakarta 14450","kav D5-6. Sunter Agung, 14350, Sunter, Tanjung Priok, RT.10/RW.11, Sunter Jaya, Kec. Tj. Priok, Jkt Utara",MALUKU,14450.0,Indonesia,2165307671.0,,,-6.141923,106.88518,https://maps.google.com/?cid=0x0:0xed9a88afd6a7dd88,
building materials,Toko Bahan Bangunan,Inti Bangunan,"5, Jl. Sunter Permai Raya No.12B, RT.5/RW.18, Sunter Agung, Kec. Tj. Priok, Jkt Utara, Daerah Khusus Ibukota Jakarta 14350","Jl. Sunter Permai Raya No.12B, RT.5/RW.18, Sunter Agung, Kec. Tj. Priok, Jkt Utara",MALUKU,14350.0,Indonesia,87873253137.0,,,-6.1335615,106.8649626,https://maps.google.com/?cid=0x0:0x387c58d9572e0964,
building materials,building materials,Tlk. Kaiely,"Kabupaten Buru, Maluku","Kabupaten Buru, Maluku",MALUKU,,Indonesia,,,,-3.3033929,126.5661908,https://maps.google.com/?cid=0x0:0x12b5aeb27efc20e0,
building materials,Toko Bahan Bangunan,TOKO ROFI,"JXFQ+F2M, Jln Gatot Subroto, komplek Pasar Mako, Namlea, Kec. Namlea, Kabupaten Buru, Maluku 97578","Jln Gatot Subroto, komplek Pasar Mako, Namlea, Kec. Namlea, Kabupaten Buru",MALUKU,97578.0,Indonesia,9132325065.0,,,-3.3762805,126.987547,https://maps.google.com/?cid=0x0:0xb2084c57efa37e66,
building materials,Toko Bahan Bangunan,Toko GM Mandiri,"J22F+P58, Debowae, Kec. Waeapo, Kabupaten Buru, Maluku","Kabupaten Buru, Maluku",MALUKU,,Indonesia,81617551247.0,,,-3.3982034,127.0229567,https://maps.google.com/?cid=0x0:0x6bc026e5e22c238d,
building materials,Toko Bahan Bangunan,TOKO BANGUNAN INDAH,"H2XC+MG8, Debowae, Kec. Waeapo, Kabupaten Buru, Maluku","Kabupaten Buru, Maluku",MALUKU,,Indonesia,82378990826.0,,,-3.4009468,127.0213428,https://maps.google.com/?cid=0x0:0xf490914073a04836,
building materials,Toko Bahan Bangunan,Toko Duta Bangunan,"Jl. Danau Rana, Namlea, Kec. Namlea, Kabupaten Buru, Maluku","Kabupaten Buru, Maluku",MALUKU,,Indonesia,91322010.0,,,-3.269268,127.1034228,https://maps.google.com/?cid=0x0:0x4d2e61629ea407b9,
building materials,Toko Bahan Bangunan,TOKO WARDACH,"MX25+V96, Waekerta, Kec. Waeapo, Kabupaten Buru, Maluku","Kabupaten Buru, Maluku",MALUKU,,Indonesia,81316222080.0,,,-3.3478436,126.9583886,https://maps.google.com/?cid=0x0:0xf46923c55a27c005,
building materials,Toko Pakaian,Toko NUR JAYA 2,"WGGP+FGG, Wamlana, Kec. Fena leisela, Kabupaten Buru, Maluku","Kabupaten Buru, Maluku",MALUKU,,Indonesia,,,,-3.0738216,126.5361835,https://maps.google.com/?cid=0x0:0xe7e254da140de542,
building materials,Toko umum,Toko Tiga Putra,"Waimangit, Kec. Air Buaya, Kabupaten Buru, Maluku","Kabupaten Buru, Maluku",MALUKU,,Indonesia,82238217090.0,,,-3.0852552,126.4506514,https://maps.google.com/?cid=0x0:0x67e95f62768a257b,
building materials,Toko Bahan Bangunan,"Toko Besi dan Bangunan Hidayah""""","HWQJ+WRV, Trans Buru Mako-Modaumohe, Waegeren, Kec. Waeapo, Kabupaten Buru, Maluku","Kabupaten Buru, Maluku",MALUKU,,Indonesia,82238719115.0,,,-3.410132,126.9320456,https://maps.google.com/?cid=0x0:0x120a46875d558939,
building materials,Toko,TOKO FAJAR MAS,"P3CX+R5Q, Namlea, Kec. Namlea, Kabupaten Buru, Maluku","Kabupaten Buru, Maluku",MALUKU,,Indonesia,81316222080.0,,,-3.2779017,127.0979019,https://maps.google.com/?cid=0x0:0xce7d9cbd242800a3,
building materials,Toko Pakaian,Toko Nur Jaya,"WGGM+RQF, Wamlana, Kec. Air Buaya, Kabupaten Buru, Maluku","Kabupaten Buru, Maluku",MALUKU,,Indonesia,813540408061.0,,,-3.0729264,126.5344307,https://maps.google.com/?cid=0x0:0x6ecc7d9ee7d20b7f,
building materials,Komplek perumahan,Somel,"VV8V+RQ, Lamahang, Waplau, Kabupaten Buru, Maluku","Kabupaten Buru, Maluku",MALUKU,,Indonesia,,,,-3.1329653,126.8944841,https://maps.google.com/?cid=0x0:0x165cbbf869d197bf,
building materials,Toko Bahan Bangunan,TB. BAHAGIA,"HWQH+695, Waegeren, Kec. Waeapo, Kabupaten Buru, Maluku","Kabupaten Buru, Maluku",MALUKU,,Indonesia,,,,-3.4114934,126.9291488,https://maps.google.com/?cid=0x0:0xef99cce735992bc0,
building materials,Toko Perlengkapan Rumah,MR.DIY,"Jl. Kampus Iqra Buru, Namlea, Kec. Namlea, Kabupaten Buru, Maluku 97571","Namlea, Kec. Namlea, Kabupaten Buru",MALUKU,97571.0,Indonesia,,,,-3.2733058,127.0992124,https://maps.google.com/?cid=0x0:0x69153d22b15aaf2,
building materials,Perkebunan Pohon,LADANG PERMAI,"Namlea, Kec. Namlea, Kabupaten Buru, Maluku","Kabupaten Buru, Maluku",MALUKU,,Indonesia,82317411586.0,,,-3.2522213,127.0889445,https://maps.google.com/?cid=0x0:0xc17682f2e5628213,
building materials,Toko,Toko limbangan,"Unnamed Road, Namlea, Kec. Namlea, Kabupaten Buru, Maluku","Kabupaten Buru, Maluku",MALUKU,,Indonesia,81385661699.0,,,-3.2609073,127.0901353,https://maps.google.com/?cid=0x0:0x29a54d305b76ea67,
building materials,building materials,PONDOK BAKTI,"HWPG+G4Q, Jalan Gatot Subroto Lorong Pertamina, RT.6/RW.2, Wanareja, Kec. Waeapo, Kabupaten Buru, Maluku","Kabupaten Buru, Maluku",MALUKU,,Indonesia,82132814320.0,,,-3.4136719,126.9253496,https://maps.google.com/?cid=0x0:0x8c66efd855173199,
building materials,building materials,Kec. Lilialy,"Kabupaten Buru, Maluku","Kabupaten Buru, Maluku",MALUKU,,Indonesia,,,,-3.1452717,126.9901544,https://maps.google.com/?cid=0x0:0xa4098f1c5783ea97,
building materials,Komplek perumahan,Somel,"VV8V+RQ, Lamahang, Waplau, Kabupaten Buru, Maluku","Kabupaten Buru, Maluku",MALUKU,,Indonesia,,,,-3.1329653,126.8944841,https://maps.google.com/?cid=0x0:0x165cbbf869d197bf,
building materials,Toko Bahan Bangunan,Toko Duta Bangunan,"Jl. Danau Rana, Namlea, Kec. Namlea, Kabupaten Buru, Maluku","Kabupaten Buru, Maluku",MALUKU,,Indonesia,91322010.0,,,-3.269268,127.1034228,https://maps.google.com/?cid=0x0:0x4d2e61629ea407b9,
building materials,Kontraktor Insulasi,PT Tali Rejeki,"Jl. Taruma Jaya No.11, Setia Asih, Kec. Tarumajaya, Kota Bks, Jawa Barat 17215","Setia Asih, Kec. Tarumajaya, Kota Bks",MALUKU,17215.0,Indonesia,2122889956.0,,,-6.1652412,106.9900241,https://maps.google.com/?cid=0x0:0x15898fadc067eab7,
building materials,Pemasok Pipa,Surya Utama Metalindo PT.,"Jl. Gunung Sahari Raya no.1 Mangga Dua Square lt 2 blok C 61, RT.11/RW.6, Ancol, Kec. Pademangan, Jkt Utara, Daerah Khusus Ibukota Jakarta 14420","RT.11/RW.6, Ancol, Kec. Pademangan, Jkt Utara",MALUKU,14420.0,Indonesia,82310999956.0,,,-6.1387824,106.8314329,https://maps.google.com/?cid=0x0:0x213f9340f3f4865,
toko bangunan,toko bangunan,Namlea,"Namlea, Kec. Namlea, Kabupaten Buru, Maluku","Kabupaten Buru, Maluku",MALUKU,,Indonesia,,,,-3.233398,127.085899,https://maps.google.com/?cid=0x0:0xe52ca57740e74df,
toko bangunan,Toko Bahan Bangunan,Toko Duta Bangunan,"Jl. Danau Rana, Namlea, Kec. Namlea, Kabupaten Buru, Maluku","Kabupaten Buru, Maluku",MALUKU,,Indonesia,91322010.0,,,-3.269268,127.1034228,https://maps.google.com/?cid=0x0:0x4d2e61629ea407b9,
toko bangunan,Toko,TOKO FAJAR MAS,"P3CX+R5Q, Namlea, Kec. Namlea, Kabupaten Buru, Maluku","Kabupaten Buru, Maluku",MALUKU,,Indonesia,81316222080.0,,,-3.2779017,127.0979019,https://maps.google.com/?cid=0x0:0xce7d9cbd242800a3,
toko bangunan,toko bangunan,Kec. Air Buaya,"Kabupaten Buru, Maluku","Kabupaten Buru, Maluku",MALUKU,,Indonesia,,,,-3.0855583,126.4356478,https://maps.google.com/?cid=0x0:0xfabb1de62994f5b6,
toko bangunan,Toko umum,Toko Tiga Putra,"Waimangit, Kec. Air Buaya, Kabupaten Buru, Maluku","Kabupaten Buru, Maluku",MALUKU,,Indonesia,82238217090.0,,,-3.0852552,126.4506514,https://maps.google.com/?cid=0x0:0x67e95f62768a257b,
toko bangunan,Toko Pakaian,Toko NUR JAYA 2,"WGGP+FGG, Wamlana, Kec. Fena leisela, Kabupaten Buru, Maluku","Kabupaten Buru, Maluku",MALUKU,,Indonesia,,,,-3.0738216,126.5361835,https://maps.google.com/?cid=0x0:0xe7e254da140de542,
toko bangunan,Toko Pakaian,Toko Nur Jaya,"WGGM+RQF, Wamlana, Kec. Air Buaya, Kabupaten Buru, Maluku","Kabupaten Buru, Maluku",MALUKU,,Indonesia,813540408061.0,,,-3.0729264,126.5344307,https://maps.google.com/?cid=0x0:0x6ecc7d9ee7d20b7f,
toko bangunan,toko bangunan,Kec. Waeapo,"Kabupaten Buru, Maluku","Kabupaten Buru, Maluku",MALUKU,,Indonesia,,,,-3.4137528,126.925378,https://maps.google.com/?cid=0x0:0xf83f0231b9a9b5fd,
toko bangunan,Toko Bahan Bangunan,"Toko Besi dan Bangunan Hidayah""""","HWQJ+WRV, Trans Buru Mako-Modaumohe, Waegeren, Kec. Waeapo, Kabupaten Buru, Maluku","Kabupaten Buru, Maluku",MALUKU,,Indonesia,82238719115.0,,,-3.410132,126.9320456,https://maps.google.com/?cid=0x0:0x120a46875d558939,
toko bangunan,Toko Bahan Bangunan,TOKO BANGUNAN INDAH,"H2XC+MG8, Debowae, Kec. Waeapo, Kabupaten Buru, Maluku","Kabupaten Buru, Maluku",MALUKU,,Indonesia,82378990826.0,,,-3.4009468,127.0213428,https://maps.google.com/?cid=0x0:0xf490914073a04836,
toko bangunan,Toko Bahan Bangunan,Toko GM Mandiri,"J22F+P58, Debowae, Kec. Waeapo, Kabupaten Buru, Maluku","Kabupaten Buru, Maluku",MALUKU,,Indonesia,81617551247.0,,,-3.3982034,127.0229567,https://maps.google.com/?cid=0x0:0x6bc026e5e22c238d,
toko bangunan,Toko Bahan Bangunan,TOKO WARDACH,"MX25+V96, Waekerta, Kec. Waeapo, Kabupaten Buru, Maluku","Kabupaten Buru, Maluku",MALUKU,,Indonesia,81316222080.0,,,-3.3478436,126.9583886,https://maps.google.com/?cid=0x0:0xf46923c55a27c005,
toko bangunan,Toko Bahan Bangunan,TOKO ROFI,"JXFQ+F2M, Jln Gatot Subroto, komplek Pasar Mako, Namlea, Kec. Namlea, Kabupaten Buru, Maluku 97578","Jln Gatot Subroto, komplek Pasar Mako, Namlea, Kec. Namlea, Kabupaten Buru",MALUKU,97578.0,Indonesia,9132325065.0,,,-3.3762805,126.987547,https://maps.google.com/?cid=0x0:0xb2084c57efa37e66,
toko bangunan,Toko Bahan Bangunan,TB. BAHAGIA,"HWQH+695, Waegeren, Kec. Waeapo, Kabupaten Buru, Maluku","Kabupaten Buru, Maluku",MALUKU,,Indonesia,,,,-3.4114934,126.9291488,https://maps.google.com/?cid=0x0:0xef99cce735992bc0,
toko bangunan,Toko Bahan Bangunan,Toko Sinar Terang,"HWQJ+P94, Unnamed Road, Waegeren, Kec. Waeapo, Kabupaten Buru, Maluku","Kabupaten Buru, Maluku",MALUKU,,Indonesia,,,,-3.4107258,126.9309381,https://maps.google.com/?cid=0x0:0x313f03e1f07b8a8b,
toko bangunan,Toko Bahan Bangunan,Toko Duta Bangunan,"Jl. Danau Rana, Namlea, Kec. Namlea, Kabupaten Buru, Maluku","Kabupaten Buru, Maluku",MALUKU,,Indonesia,91322010.0,,,-3.269268,127.1034228,https://maps.google.com/?cid=0x0:0x4d2e61629ea407b9,
toko bangunan,Jasa Konstruksi dan Bangunan,Toko DANUR,"Pasar unit 6, Waegeren, Kec. Waeapo, Kabupaten Buru, Maluku","Kabupaten Buru, Maluku",MALUKU,,Indonesia,,,,-3.4147201,126.9251747,https://maps.google.com/?cid=0x0:0xf1c9d2e8d1cdfca3,
toko bangunan,Toko Swalayan,Toko bude Sri,"GW8F+937, Waetina, Pulau, Kabupaten Buru, Maluku","Kabupaten Buru, Maluku",MALUKU,,Indonesia,,,,-3.4840996,126.9226593,https://maps.google.com/?cid=0x0:0xadc6113b0c4b5117,
toko bangunan,Toko Perlengkapan Rumah,Toko UD.Bersatu,"P3HX+J42, Namlea, Kec. Namlea, Kabupaten Buru, Maluku","Kabupaten Buru, Maluku",MALUKU,,Indonesia,81385661699.0,,,-3.2709938,127.0977623,https://maps.google.com/?cid=0x0:0x79155edd2e9f51c6,
toko bangunan,Komplek perumahan,Wapeula,"8WFQ+J7X, Ureng, Kec. Leihitu, Kabupaten Maluku Tengah, Maluku","Kabupaten Maluku Tengah, Maluku",MALUKU,,Indonesia,,,,-3.675502,127.937846,https://maps.google.com/?cid=0x0:0x6426d94160655707,
toko bangunan,toko bangunan,PONDOK BAKTI,"HWPG+G4Q, Jalan Gatot Subroto Lorong Pertamina, RT.6/RW.2, Wanareja, Kec. Waeapo, Kabupaten Buru, Maluku","Kabupaten Buru, Maluku",MALUKU,,Indonesia,82132814320.0,,,-3.4136719,126.9253496,https://maps.google.com/?cid=0x0:0x8c66efd855173199,
toko bangunan,Toko,Toko limbangan,"Unnamed Road, Namlea, Kec. Namlea, Kabupaten Buru, Maluku","Kabupaten Buru, Maluku",MALUKU,,Indonesia,81385661699.0,,,-3.2609073,127.0901353,https://maps.google.com/?cid=0x0:0x29a54d305b76ea67,
toko bangunan,Komplek perumahan,Somel,"VV8V+RQ, Lamahang, Waplau, Kabupaten Buru, Maluku","Kabupaten Buru, Maluku",MALUKU,,Indonesia,,,,-3.1329653,126.8944841,https://maps.google.com/?cid=0x0:0x165cbbf869d197bf,
toko bangunan,Komplek perumahan,Somel,"VV8V+RQ, Lamahang, Waplau, Kabupaten Buru, Maluku","Kabupaten Buru, Maluku",MALUKU,,Indonesia,,,,-3.1329653,126.8944841,https://maps.google.com/?cid=0x0:0x165cbbf869d197bf,
toko bangunan,Komplek perumahan,Toko Suka Maju,"VX3R+PCM, Sawa, Kec. Namlea, Kabupaten Buru, Maluku","Kabupaten Buru, Maluku",MALUKU,,Indonesia,,,,-3.1456502,126.9910599,https://maps.google.com/?cid=0x0:0x11f7366046c704ba,
toko bangunan,toko bangunan,Kec. Bata Bual,"Kabupaten Buru, Maluku","Kabupaten Buru, Maluku",MALUKU,,Indonesia,,,,-3.5268077,127.2494018,https://maps.google.com/?cid=0x0:0xbd920a24abdb7eed,
toko bangunan,Toko Bahan Bangunan,Toko Duta Bangunan,"Jl. Danau Rana, Namlea, Kec. Namlea, Kabupaten Buru, Maluku","Kabupaten Buru, Maluku",MALUKU,,Indonesia,91322010.0,,,-3.269268,127.1034228,https://maps.google.com/?cid=0x0:0x4d2e61629ea407b9,
toko bangunan,Toko Perlengkapan Rumah,toko bata bual,"P3CX+93V, Jl. Flamboyan, Namlea, Kec. Namlea, Kabupaten Buru, Maluku","Kabupaten Buru, Maluku",MALUKU,,Indonesia,81385661699.0,,,-3.2790186,127.0976607,https://maps.google.com/?cid=0x0:0x7dd073170585614c,
toko bangunan,Toko Bahan Bangunan,Toko bangunan Dinda Barokah,"P85C+XWC, Waihatu, Kec. Kairatu Bar., Kabupaten Seram Bagian Barat, Maluku","Kabupaten Seram Bagian Barat, Maluku",MALUKU,,Indonesia,81356194953.0,,,-3.2900692,128.3222692,https://maps.google.com/?cid=0x0:0x634ca5cb31d21d51,
toko bangunan,Toko Bahan Bangunan,TOKO ELDY BANGUNAN,"Bobong, Kec. Taliabu Bar., Pulau Taliabu, Maluku Utara","Pulau Taliabu, Maluku Utara",MALUKU,,Indonesia,85342270869.0,,,-1.942625,124.381349,https://maps.google.com/?cid=0x0:0xaf82dabb011de311,
toko bangunan,Toko Perlengkapan Rumah,Toko Duta Bangunan,"Jl. A.R Unawekla, Bula, Kec. Bula, Kabupaten Seram Bagian Timur, Maluku","Kabupaten Seram Bagian Timur, Maluku",MALUKU,,Indonesia,81272987200.0,,,-3.1021843,130.4885667,https://maps.google.com/?cid=0x0:0x799165d536f28f53,
toko bangunan,Toko Bahan Bangunan,Toko bangunan Al Mubarak,"279W+294, Pasar, Olilit, Tanimbar Sel., Kab. Kepulauan Tanimbar, Maluku","Kab. Kepulauan Tanimbar, Maluku",MALUKU,,Indonesia,8123746174.0,,,-7.9824933,131.2959625,https://maps.google.com/?cid=0x0:0xd6b97f6e48819bac,
toko bangunan,Toko Bahan Bangunan,Toko Bata/batako,"J9QC+8G8, Kairatu, Kec. Kairatu, Kabupaten Seram Bagian Barat, Maluku","Kabupaten Seram Bagian Barat, Maluku",MALUKU,,Indonesia,81316222080.0,,,-3.3617156,128.3713198,https://maps.google.com/?cid=0x0:0x481586af2d254d67,
toko bangunan,Toko,TOKO FAJAR MAS,"P3CX+R5Q, Namlea, Kec. Namlea, Kabupaten Buru, Maluku","Kabupaten Buru, Maluku",MALUKU,,Indonesia,81316222080.0,,,-3.2779017,127.0979019,https://maps.google.com/?cid=0x0:0xce7d9cbd242800a3,
toko bangunan,Toko Bahan Bangunan,"Toko Besi dan Bangunan Hidayah""""","HWQJ+WRV, Trans Buru Mako-Modaumohe, Waegeren, Kec. Waeapo, Kabupaten Buru, Maluku","Kabupaten Buru, Maluku",MALUKU,,Indonesia,82238719115.0,,,-3.410132,126.9320456,https://maps.google.com/?cid=0x0:0x120a46875d558939,
toko bangunan,Toko Bahan Bangunan,Makmur Utama Supermarket Bahan Bangunan,"Jl. Yasin Gamsungi No.2 Kec. ternate tengah, Kel, Makassar Tim., Makassar Timur, Kota Ternate, Maluku Utara 97724","Kel, Makassar Tim., Makassar Timur, Kota Ternate",MALUKU,97724.0,Indonesia,8114313799.0,,,0.7940352,127.3876695,https://maps.google.com/?cid=0x0:0x2f492ae87bf64247,
toko bangunan,Toko Bahan Bangunan,TOKO WARDACH,"MX25+V96, Waekerta, Kec. Waeapo, Kabupaten Buru, Maluku","Kabupaten Buru, Maluku",MALUKU,,Indonesia,81316222080.0,,,-3.3478436,126.9583886,https://maps.google.com/?cid=0x0:0xf46923c55a27c005,
toko bangunan,Toko Bahan Bangunan,Toko Duta Bangunan,"Jl. Danau Rana, Namlea, Kec. Namlea, Kabupaten Buru, Maluku","Kabupaten Buru, Maluku",MALUKU,,Indonesia,91322010.0,,,-3.269268,127.1034228,https://maps.google.com/?cid=0x0:0x4d2e61629ea407b9,
toko bangunan,toko bangunan,Maluku,,Maluku,MALUKU,,Indonesia,,,,-3.2384616,130.1452734,https://maps.google.com/?cid=0x0:0x5e30e8db04649a51,
toko bangunan,Toko Bahan Bangunan,Toko bangunan Dinda Barokah,"P85C+XWC, Waihatu, Kec. Kairatu Bar., Kabupaten Seram Bagian Barat, Maluku","Kabupaten Seram Bagian Barat, Maluku",MALUKU,,Indonesia,81356194953.0,,,-3.2900692,128.3222692,https://maps.google.com/?cid=0x0:0x634ca5cb31d21d51,
toko bangunan,Toko Bahan Bangunan,Eka Pratama,"JWQV+6P5, Luhu, Kec. Huamual Belakang, Kabupaten Seram Bagian Barat, Maluku","Kabupaten Seram Bagian Barat, Maluku",MALUKU,,Indonesia,8161999912.0,,,-3.3619763,127.9443737,https://maps.google.com/?cid=0x0:0x9297fa79318e74fa,
toko bangunan,Toko Bahan Bangunan,TOKO ILHAM,"28R5+VPH, Unnamed Road, Sifnana, Tanimbar Sel., Kab. Kepulauan Tanimbar, Maluku","Kab. Kepulauan Tanimbar, Maluku",MALUKU,,Indonesia,83125236425.0,,,-7.9578237,131.3093484,https://maps.google.com/?cid=0x0:0xdc8ca2706d30ea1a,
toko bangunan,Toko,Toko Rifky Jkt Bru,"P385+MC7, Lokki, Kec. Huamual Belakang, Kabupaten Seram Bagian Barat, Maluku","Kabupaten Seram Bagian Barat, Maluku",MALUKU,,Indonesia,82378990826.0,,,-3.2833419,128.0585336,https://maps.google.com/?cid=0x0:0xfc53f32c414a25a3,
toko bangunan,Toko Bahan Bangunan,Toko BANDA NAIRA,"tenggara, Jl. Fid, Fiditan, Kec. Pulau Dullah Utara, Kota Tual, Maluku","Kota Tual, Maluku",MALUKU,,Indonesia,91621539.0,,,-5.6348247,132.7425416,https://maps.google.com/?cid=0x0:0x7c2d6fd44077fb1d,
toko bangunan,Toko Bahan Bangunan,Toko Bata/batako,"J9QC+8G8, Kairatu, Kec. Kairatu, Kabupaten Seram Bagian Barat, Maluku","Kabupaten Seram Bagian Barat, Maluku",MALUKU,,Indonesia,81316222080.0,,,-3.3617156,128.3713198,https://maps.google.com/?cid=0x0:0x481586af2d254d67,
toko bangunan,Toko Bahan Bangunan,Toko Platinum,"9Q33+23V, Taar, Pulau Dullah Sel., Kota Tual, Maluku","Kota Tual, Maluku",MALUKU,,Indonesia,91623959.0,,,-5.6473959,132.752685,https://maps.google.com/?cid=0x0:0x5243a3d0d523d49e,
toko bangunan,Toko,Toko Cahaya Buton,"Olilit, Tanimbar Sel., Kab. Kepulauan Tanimbar, Maluku","Kab. Kepulauan Tanimbar, Maluku",MALUKU,,Indonesia,82199324920.0,,,-7.9824365,131.2957106,https://maps.google.com/?cid=0x0:0x70e9a7624be9ac83,
toko bangunan,Minimarket,TOKO AMAL JAYA,"278V+WF6, Olilit, Tanimbar Sel., Kab. Kepulauan Tanimbar, Maluku","Kab. Kepulauan Tanimbar, Maluku",MALUKU,,Indonesia,82199324920.0,,,-7.9836129,131.2936666,https://maps.google.com/?cid=0x0:0xcb311d7ebcd8c172,
toko bangunan,Toko Perlengkapan Rumah,Toko subhan,"9QC5+M3R, Kel. Lodar El, Pulau Dullah Sel., Kota Tual, Maluku","Kota Tual, Maluku",MALUKU,,Indonesia,87861101462.0,,,-5.6282552,132.7576479,https://maps.google.com/?cid=0x0:0x66a03758835bbb9c,
toko bangunan,Toko Bahan Bangunan,Toko Aneka Guna Rumah Tiga,"Unnamed Road, Rumah Tiga, Kec. Tlk. Ambon, Kota Ambon, Maluku","Kota Ambon, Maluku",MALUKU,,Indonesia,82397301030.0,,,-3.660478,128.1926583,https://maps.google.com/?cid=0x0:0x370ddbc5c103c9e,
toko bangunan,toko bangunan,Aneka Teknik,"Ruko Yamdena Plaza, Jl. Mathilda Batlayeri No.11 Blok A No 9, Kecamatan, Tanimbar Sel., Kab. Kepulauan Tanimbar, Maluku 97471","Jl. Mathilda Batlayeri No.11 Blok A No 9, Kecamatan, Tanimbar Sel., Kab. Kepulauan Tanimbar",MALUKU,97471.0,Indonesia,81356537291.0,,,-7.9825994,131.296232,https://maps.google.com/?cid=0x0:0x6ea3ba9c7a220db5,
toko bangunan,Pemasok Bahan Bangunan,Toko Aneka Guna Passo,"Passo, Kec. Baguala, Kota Ambon, Maluku","Kota Ambon, Maluku",MALUKU,,Indonesia,82397301030.0,,,-3.6331734,128.2504202,https://maps.google.com/?cid=0x0:0xae7002ec9b542f86,
toko bangunan,Toko Perlengkapan Rumah,Toko Berdikari Jaya,"W6H2+GHW, Jl. Trans Seram, Piru, Kec. Seram Bar., Kabupaten Seram Bagian Barat, Maluku","Kabupaten Seram Bagian Barat, Maluku",MALUKU,,Indonesia,,,,-3.0711298,128.2014526,https://maps.google.com/?cid=0x0:0x493d9b22726b068d,
toko bangunan,Toko,Inti Bangunan Indonesia,"Jl. Philip Latumahina, Kel Honipopu, Kec. Sirimau, Kota Ambon, Maluku 97126","Kel Honipopu, Kec. Sirimau, Kota Ambon",MALUKU,97126.0,Indonesia,82199047262.0,,,-3.6977847,128.1799421,https://maps.google.com/?cid=0x0:0x91b23ce42f513ef8,
toko bangunan,Toko Bahan Bangunan,Inti Bangunan,"5, Jl. Sunter Permai Raya No.12B, RT.5/RW.18, Sunter Agung, Kec. Tj. Priok, Jkt Utara, Daerah Khusus Ibukota Jakarta 14350","Jl. Sunter Permai Raya No.12B, RT.5/RW.18, Sunter Agung, Kec. Tj. Priok, Jkt Utara",MALUKU,14350.0,Indonesia,87873253137.0,,,-6.1335615,106.8649626,https://maps.google.com/?cid=0x0:0x387c58d9572e0964,
toko bangunan,,PT Timor Otsuki Mutiara,"Jl. Cililin I No.11a, Petogogan, Kec. Kby. Baru, Jakarta, Daerah Khusus Ibukota Jakarta 12170","Petogogan, Kec. Kby. Baru, Jakarta",MALUKU,12170.0,Indonesia,217237339.0,,,-6.2418333,106.8092373,https://maps.google.com/?cid=0x0:0x67e0a773d1a27051,
toko bangunan,toko bangunan,Kec. Waelata,"Kabupaten Buru, Maluku","Kabupaten Buru, Maluku",MALUKU,,Indonesia,,,,-3.4811436,126.9241917,https://maps.google.com/?cid=0x0:0xd5c06f16d8212c44,
toko bangunan,Toko Bahan Bangunan,TOKO BANGUNAN INDAH,"H2XC+MG8, Debowae, Kec. Waeapo, Kabupaten Buru, Maluku","Kabupaten Buru, Maluku",MALUKU,,Indonesia,82378990826.0,,,-3.4009468,127.0213428,https://maps.google.com/?cid=0x0:0xf490914073a04836,
toko bangunan,Toko Bahan Bangunan,Toko GM Mandiri,"J22F+P58, Debowae, Kec. Waeapo, Kabupaten Buru, Maluku","Kabupaten Buru, Maluku",MALUKU,,Indonesia,81617551247.0,,,-3.3982034,127.0229567,https://maps.google.com/?cid=0x0:0x6bc026e5e22c238d,
toko bangunan,Toko Bahan Bangunan,Toko Duta Bangunan,"Jl. Danau Rana, Namlea, Kec. Namlea, Kabupaten Buru, Maluku","Kabupaten Buru, Maluku",MALUKU,,Indonesia,91322010.0,,,-3.269268,127.1034228,https://maps.google.com/?cid=0x0:0x4d2e61629ea407b9,
toko bangunan,Toko Bahan Bangunan,TOKO ROFI,"JXFQ+F2M, Jln Gatot Subroto, komplek Pasar Mako, Namlea, Kec. Namlea, Kabupaten Buru, Maluku 97578","Jln Gatot Subroto, komplek Pasar Mako, Namlea, Kec. Namlea, Kabupaten Buru",MALUKU,97578.0,Indonesia,9132325065.0,,,-3.3762805,126.987547,https://maps.google.com/?cid=0x0:0xb2084c57efa37e66,
toko bangunan,Toko Perlengkapan Rumah,Sinar terang,"MX26+F79, Waekerta, Kec. Waeapo, Kabupaten Buru, Maluku","Kabupaten Buru, Maluku",MALUKU,,Indonesia,,,,-3.3488488,126.9607264,https://maps.google.com/?cid=0x0:0xc43c6df2f32c3cb5,
toko bangunan,Toko Bahan Bangunan,TOKO WARDACH,"MX25+V96, Waekerta, Kec. Waeapo, Kabupaten Buru, Maluku","Kabupaten Buru, Maluku",MALUKU,,Indonesia,81316222080.0,,,-3.3478436,126.9583886,https://maps.google.com/?cid=0x0:0xf46923c55a27c005,
toko bangunan,Toko Bahan Bangunan,Toko Sinar Terang,"HWQJ+P94, Unnamed Road, Waegeren, Kec. Waeapo, Kabupaten Buru, Maluku","Kabupaten Buru, Maluku",MALUKU,,Indonesia,,,,-3.4107258,126.9309381,https://maps.google.com/?cid=0x0:0x313f03e1f07b8a8b,
toko bangunan,Toko Swalayan,Toko bude Sri,"GW8F+937, Waetina, Pulau, Kabupaten Buru, Maluku","Kabupaten Buru, Maluku",MALUKU,,Indonesia,,,,-3.4840996,126.9226593,https://maps.google.com/?cid=0x0:0xadc6113b0c4b5117,
toko bangunan,Toko Bahan Bangunan,TB. BAHAGIA,"HWQH+695, Waegeren, Kec. Waeapo, Kabupaten Buru, Maluku","Kabupaten Buru, Maluku",MALUKU,,Indonesia,,,,-3.4114934,126.9291488,https://maps.google.com/?cid=0x0:0xef99cce735992bc0,
toko bangunan,Jasa Konstruksi dan Bangunan,Toko DANUR,"Pasar unit 6, Waegeren, Kec. Waeapo, Kabupaten Buru, Maluku","Kabupaten Buru, Maluku",MALUKU,,Indonesia,,,,-3.4147201,126.9251747,https://maps.google.com/?cid=0x0:0xf1c9d2e8d1cdfca3,
toko bangunan,toko bangunan,TB Fajar Sahabat,"H284+HC, Parbulu, Kec. Waelata, Kabupaten Buru, Maluku","Kabupaten Buru, Maluku",MALUKU,,Indonesia,81343456071.0,,,-3.433533,127.0060254,https://maps.google.com/?cid=0x0:0xb64dd70adfe211eb,
toko bangunan,toko bangunan,Bos galak,"H2C6+X32, Parbulu, Kec. Waelata, Kabupaten Buru, Maluku","Kabupaten Buru, Maluku",MALUKU,,Indonesia,,,,-3.4276025,127.0101291,https://maps.google.com/?cid=0x0:0x1475fcb8719a9f6f,
toko bangunan,toko bangunan,Maluku,,Maluku,MALUKU,,Indonesia,,,,-3.2384616,130.1452734,https://maps.google.com/?cid=0x0:0x5e30e8db04649a51,
toko bangunan,Toko Bahan Bangunan,Toko Duta Bangunan,"Jl. Danau Rana, Namlea, Kec. Namlea, Kabupaten Buru, Maluku","Kabupaten Buru, Maluku",MALUKU,,Indonesia,91322010.0,,,-3.269268,127.1034228,https://maps.google.com/?cid=0x0:0x4d2e61629ea407b9,
toko bangunan,Toko Pakaian,Toko NUR JAYA 2,"WGGP+FGG, Wamlana, Kec. Fena leisela, Kabupaten Buru, Maluku","Kabupaten Buru, Maluku",MALUKU,,Indonesia,,,,-3.0738216,126.5361835,https://maps.google.com/?cid=0x0:0xe7e254da140de542,
toko bangunan,Toko,Toko Serba Bangunan Ambon,"Jl. Philip Latumahina No.10, Kel Honipopu, Kec. Sirimau, Kota Ambon, Maluku","Kota Ambon, Maluku",MALUKU,,Indonesia,81283093876.0,,,-3.696513,128.1813331,https://maps.google.com/?cid=0x0:0x38f3a5a63eb288ff,
toko bangunan,Toko Bahan Bangunan,Toko Bangunan Lestari Baru,"Waihatu, Kec. Kairatu Bar., Kabupaten Seram Bagian Barat, Maluku","Kabupaten Seram Bagian Barat, Maluku",MALUKU,,Indonesia,82238832490.0,,,-3.2864381,128.3222819,https://maps.google.com/?cid=0x0:0xb14d86a65046c260,
toko bangunan,Toko Bahan Bangunan,Toko bangunan Dinda Barokah,"P85C+XWC, Waihatu, Kec. Kairatu Bar., Kabupaten Seram Bagian Barat, Maluku","Kabupaten Seram Bagian Barat, Maluku",MALUKU,,Indonesia,81356194953.0,,,-3.2900692,128.3222692,https://maps.google.com/?cid=0x0:0x634ca5cb31d21d51,
toko bangunan,Toko,TOKO FAJAR MAS,"P3CX+R5Q, Namlea, Kec. Namlea, Kabupaten Buru, Maluku","Kabupaten Buru, Maluku",MALUKU,,Indonesia,81316222080.0,,,-3.2779017,127.0979019,https://maps.google.com/?cid=0x0:0xce7d9cbd242800a3,
toko bangunan,Toko Bahan Bangunan,Toko Bangunan Utama,"Jl. Karel Satsuitubun Batugong, Ambon, Passo, Kec. Baguala, Kota Ambon, Maluku 97232","Ambon, Passo, Kec. Baguala, Kota Ambon",MALUKU,97232.0,Indonesia,85102851565.0,,,-3.6377789,128.2574061,https://maps.google.com/?cid=0x0:0x7640e512aa59b277,
toko bangunan,Toko Bahan Bangunan,TOKO ILHAM,"28R5+VPH, Unnamed Road, Sifnana, Tanimbar Sel., Kab. Kepulauan Tanimbar, Maluku","Kab. Kepulauan Tanimbar, Maluku",MALUKU,,Indonesia,83125236425.0,,,-7.9578237,131.3093484,https://maps.google.com/?cid=0x0:0xdc8ca2706d30ea1a,
toko bangunan,toko bangunan,Tlk. Kaiely,"Kabupaten Buru, Maluku","Kabupaten Buru, Maluku",MALUKU,,Indonesia,,,,-3.3033929,126.5661908,https://maps.google.com/?cid=0x0:0x12b5aeb27efc20e0,
toko bangunan,Toko Bahan Bangunan,TOKO ROFI,"JXFQ+F2M, Jln Gatot Subroto, komplek Pasar Mako, Namlea, Kec. Namlea, Kabupaten Buru, Maluku 97578","Jln Gatot Subroto, komplek Pasar Mako, Namlea, Kec. Namlea, Kabupaten Buru",MALUKU,97578.0,Indonesia,9132325065.0,,,-3.3762805,126.987547,https://maps.google.com/?cid=0x0:0xb2084c57efa37e66,
toko bangunan,Toko Bahan Bangunan,TOKO BANGUNAN INDAH,"H2XC+MG8, Debowae, Kec. Waeapo, Kabupaten Buru, Maluku","Kabupaten Buru, Maluku",MALUKU,,Indonesia,82378990826.0,,,-3.4009468,127.0213428,https://maps.google.com/?cid=0x0:0xf490914073a04836,
toko bangunan,Toko Bahan Bangunan,Toko Duta Bangunan,"Jl. Danau Rana, Namlea, Kec. Namlea, Kabupaten Buru, Maluku","Kabupaten Buru, Maluku",MALUKU,,Indonesia,91322010.0,,,-3.269268,127.1034228,https://maps.google.com/?cid=0x0:0x4d2e61629ea407b9,
toko bangunan,Toko Perlengkapan Rumah,Sinar terang,"MX26+F79, Waekerta, Kec. Waeapo, Kabupaten Buru, Maluku","Kabupaten Buru, Maluku",MALUKU,,Indonesia,,,,-3.3488488,126.9607264,https://maps.google.com/?cid=0x0:0xc43c6df2f32c3cb5,
toko bangunan,Toko umum,Toko Tiga Putra,"Waimangit, Kec. Air Buaya, Kabupaten Buru, Maluku","Kabupaten Buru, Maluku",MALUKU,,Indonesia,82238217090.0,,,-3.0852552,126.4506514,https://maps.google.com/?cid=0x0:0x67e95f62768a257b,
toko bangunan,Toko Pakaian,Toko NUR JAYA 2,"WGGP+FGG, Wamlana, Kec. Fena leisela, Kabupaten Buru, Maluku","Kabupaten Buru, Maluku",MALUKU,,Indonesia,,,,-3.0738216,126.5361835,https://maps.google.com/?cid=0x0:0xe7e254da140de542,
toko bangunan,Toko Bahan Bangunan,"Toko Besi dan Bangunan Hidayah""""","HWQJ+WRV, Trans Buru Mako-Modaumohe, Waegeren, Kec. Waeapo, Kabupaten Buru, Maluku","Kabupaten Buru, Maluku",MALUKU,,Indonesia,82238719115.0,,,-3.410132,126.9320456,https://maps.google.com/?cid=0x0:0x120a46875d558939,
toko bangunan,Toko Bahan Bangunan,TOKO WARDACH,"MX25+V96, Waekerta, Kec. Waeapo, Kabupaten Buru, Maluku","Kabupaten Buru, Maluku",MALUKU,,Indonesia,81316222080.0,,,-3.3478436,126.9583886,https://maps.google.com/?cid=0x0:0xf46923c55a27c005,
toko bangunan,Toko,TOKO FAJAR MAS,"P3CX+R5Q, Namlea, Kec. Namlea, Kabupaten Buru, Maluku","Kabupaten Buru, Maluku",MALUKU,,Indonesia,81316222080.0,,,-3.2779017,127.0979019,https://maps.google.com/?cid=0x0:0xce7d9cbd242800a3,
toko bangunan,Toko Perlengkapan Rumah,Toko UD.Bersatu,"P3HX+J42, Namlea, Kec. Namlea, Kabupaten Buru, Maluku","Kabupaten Buru, Maluku",MALUKU,,Indonesia,81385661699.0,,,-3.2709938,127.0977623,https://maps.google.com/?cid=0x0:0x79155edd2e9f51c6,
toko bangunan,Toko Pakaian,Toko Nur Jaya,"WGGM+RQF, Wamlana, Kec. Air Buaya, Kabupaten Buru, Maluku","Kabupaten Buru, Maluku",MALUKU,,Indonesia,813540408061.0,,,-3.0729264,126.5344307,https://maps.google.com/?cid=0x0:0x6ecc7d9ee7d20b7f,
toko bangunan,toko bangunan,Kec. Lilialy,"Kabupaten Buru, Maluku","Kabupaten Buru, Maluku",MALUKU,,Indonesia,,,,-3.1452717,126.9901544,https://maps.google.com/?cid=0x0:0xa4098f1c5783ea97,
toko bangunan,Toko Bahan Bangunan,Toko Duta Bangunan,"Jl. Danau Rana, Namlea, Kec. Namlea, Kabupaten Buru, Maluku","Kabupaten Buru, Maluku",MALUKU,,Indonesia,91322010.0,,,-3.269268,127.1034228,https://maps.google.com/?cid=0x0:0x4d2e61629ea407b9,
toko bangunan,Toko Bahan Bangunan,TOKO ELDY BANGUNAN,"Bobong, Kec. Taliabu Bar., Pulau Taliabu, Maluku Utara","Pulau Taliabu, Maluku Utara",MALUKU,,Indonesia,85342270869.0,,,-1.942625,124.381349,https://maps.google.com/?cid=0x0:0xaf82dabb011de311,
toko bangunan,Toko Pakaian,TOKO DYA UTAMA atribut tni polri,"Q422+7Q3, Namlea, Kec. Namlea, Kabupaten Buru, Maluku","Kabupaten Buru, Maluku",MALUKU,,Indonesia,82199251987.0,,,-3.2494428,127.1018265,https://maps.google.com/?cid=0x0:0xc6a06576407b374a,
toko bangunan,Komplek perumahan,Somel,"VV8V+RQ, Lamahang, Waplau, Kabupaten Buru, Maluku","Kabupaten Buru, Maluku",MALUKU,,Indonesia,,,,-3.1329653,126.8944841,https://maps.google.com/?cid=0x0:0x165cbbf869d197bf,
toko bangunan,Toko,Toko limbangan,"Unnamed Road, Namlea, Kec. Namlea, Kabupaten Buru, Maluku","Kabupaten Buru, Maluku",MALUKU,,Indonesia,81385661699.0,,,-3.2609073,127.0901353,https://maps.google.com/?cid=0x0:0x29a54d305b76ea67,
toko bangunan,Toko Perlengkapan Rumah,Toko UD.Bersatu,"P3HX+J42, Namlea, Kec. Namlea, Kabupaten Buru, Maluku","Kabupaten Buru, Maluku",MALUKU,,Indonesia,81385661699.0,,,-3.2709938,127.0977623,https://maps.google.com/?cid=0x0:0x79155edd2e9f51c6,
toko bangunan,Toko,TOKO FAJAR MAS,"P3CX+R5Q, Namlea, Kec. Namlea, Kabupaten Buru, Maluku","Kabupaten Buru, Maluku",MALUKU,,Indonesia,81316222080.0,,,-3.2779017,127.0979019,https://maps.google.com/?cid=0x0:0xce7d9cbd242800a3,
hardware store,hardware store,Namlea,"Namlea, Kec. Namlea, Kabupaten Buru, Maluku","Kabupaten Buru, Maluku",MALUKU,,Indonesia,,,,-3.233398,127.085899,https://maps.google.com/?cid=0x0:0xe52ca57740e74df,
hardware store,Toko Perlengkapan Rumah,MR.DIY,"Jl. Kampus Iqra Buru, Namlea, Kec. Namlea, Kabupaten Buru, Maluku 97571","Namlea, Kec. Namlea, Kabupaten Buru",MALUKU,97571.0,Indonesia,,,,-3.2733058,127.0992124,https://maps.google.com/?cid=0x0:0x69153d22b15aaf2,
hardware store,Toko,Toko limbangan,"Unnamed Road, Namlea, Kec. Namlea, Kabupaten Buru, Maluku","Kabupaten Buru, Maluku",MALUKU,,Indonesia,81385661699.0,,,-3.2609073,127.0901353,https://maps.google.com/?cid=0x0:0x29a54d305b76ea67,
hardware store,Toko,Depot Raja RO,"P4M3+96Q, Namlea, Kec. Namlea, Kabupaten Buru, Maluku","Kabupaten Buru, Maluku",MALUKU,,Indonesia,82399855292.0,,,-3.2665481,127.1031233,https://maps.google.com/?cid=0x0:0x61fdff86e2e98502,
hardware store,Toko,RH 2 - Namlea(PT. RAHMAT LIE UTAMA),"rh 2 namlea, Namlea, Kec. Namlea, Kabupaten Buru, Maluku","Kabupaten Buru, Maluku",MALUKU,,Indonesia,82154968356.0,,,-3.2684673,127.1035294,https://maps.google.com/?cid=0x0:0x20716bfbae456dbd,
hardware store,Toko,TOKO FAJAR MAS,"P3CX+R5Q, Namlea, Kec. Namlea, Kabupaten Buru, Maluku","Kabupaten Buru, Maluku",MALUKU,,Indonesia,81316222080.0,,,-3.2779017,127.0979019,https://maps.google.com/?cid=0x0:0xce7d9cbd242800a3,
hardware store,Toko Bahan Bangunan,Toko Duta Bangunan,"Jl. Danau Rana, Namlea, Kec. Namlea, Kabupaten Buru, Maluku","Kabupaten Buru, Maluku",MALUKU,,Indonesia,91322010.0,,,-3.269268,127.1034228,https://maps.google.com/?cid=0x0:0x4d2e61629ea407b9,
hardware store,Toko Perlengkapan Rumah,SINAR ELEKTRONIK NAMLEA,"BTN BUKIT PERMAI, Namlea, Kec. Namlea, Kabupaten Buru, Maluku","Kabupaten Buru, Maluku",MALUKU,,Indonesia,81344655969.0,,,-3.2572091,127.0874888,https://maps.google.com/?cid=0x0:0xbda96f4e80bca0e4,
hardware store,Komplek perumahan,Jalan baru lorong arab,"Q38P+HCR, Namlea, Kec. Namlea, Kabupaten Buru, Maluku","Kabupaten Buru, Maluku",MALUKU,,Indonesia,,,,-3.2335148,127.0860196,https://maps.google.com/?cid=0x0:0xbab23ac9e042843c,
hardware store,Apotek,Toko ubay,"P4G9+P4Q, Jln jiku kecil, Namlea, Kec. Namlea, Kabupaten Buru, Maluku","Kabupaten Buru, Maluku",MALUKU,,Indonesia,81286316397.0,,,-3.273171,127.1178642,https://maps.google.com/?cid=0x0:0x886432a959ed3274,
hardware store,Praktisi Pengobatan Alternatif,Pusat Minyak Kayu Putih Murni Asli Namlea Pulau Buru,"Jln, Pertamina, Bandar Angin, Kec. Namlea, Kabupaten Buru, Maluku 97571","Pertamina, Bandar Angin, Kec. Namlea, Kabupaten Buru",MALUKU,97571.0,Indonesia,83160635299.0,,,-3.2687434,127.0928415,https://maps.google.com/?cid=0x0:0x882f273bfa91f545,
hardware store,Toko,Toko NN,"P4C7+HFC, Namlea, Kec. Namlea, Kabupaten Buru, Maluku","Kabupaten Buru, Maluku",MALUKU,,Indonesia,82233591649.0,,,-3.278553,127.1136343,https://maps.google.com/?cid=0x0:0x200c3be881ec362e,
hardware store,Toko umum,Toko Tiga Putra,"Waimangit, Kec. Air Buaya, Kabupaten Buru, Maluku","Kabupaten Buru, Maluku",MALUKU,,Indonesia,82238217090.0,,,-3.0852552,126.4506514,https://maps.google.com/?cid=0x0:0x67e95f62768a257b,
hardware store,Toko umum,Toko Suri,"WC7J+XR, Air Buaya, Kec. Air Buaya, Kabupaten Buru, Maluku","Kabupaten Buru, Maluku",MALUKU,,Indonesia,,,,-3.0843584,126.4324227,https://maps.google.com/?cid=0x0:0xc3760633f9e9498e,
hardware store,Toko Alat-Alat,R Hardware,"Jalan Buaran Raya No.14, Klender, Duren Sawit, RT.8/RW.15, Duren Sawit, Kec. Duren Sawit, Kota Jakarta Timur, Daerah Khusus Ibukota Jakarta 13470","Klender, Duren Sawit, RT.8/RW.15, Duren Sawit, Kec. Duren Sawit, Kota Jakarta Timur",MALUKU,13470.0,Indonesia,2186617280.0,,,-6.2206585,106.921238,https://maps.google.com/?cid=0x0:0x2eb6bbca842d3c29,
hardware store,hardware store,Kec. Waeapo,"Kabupaten Buru, Maluku","Kabupaten Buru, Maluku",MALUKU,,Indonesia,,,,-3.4137528,126.925378,https://maps.google.com/?cid=0x0:0xf83f0231b9a9b5fd,
hardware store,Toko Bahan Bangunan,TOKO WARDACH,"MX25+V96, Waekerta, Kec. Waeapo, Kabupaten Buru, Maluku","Kabupaten Buru, Maluku",MALUKU,,Indonesia,81316222080.0,,,-3.3478436,126.9583886,https://maps.google.com/?cid=0x0:0xf46923c55a27c005,
hardware store,Toko Bahan Bangunan,Toko GM Mandiri,"J22F+P58, Debowae, Kec. Waeapo, Kabupaten Buru, Maluku","Kabupaten Buru, Maluku",MALUKU,,Indonesia,81617551247.0,,,-3.3982034,127.0229567,https://maps.google.com/?cid=0x0:0x6bc026e5e22c238d,
hardware store,Toko Bahan Bangunan,TB. BAHAGIA,"HWQH+695, Waegeren, Kec. Waeapo, Kabupaten Buru, Maluku","Kabupaten Buru, Maluku",MALUKU,,Indonesia,,,,-3.4114934,126.9291488,https://maps.google.com/?cid=0x0:0xef99cce735992bc0,
hardware store,Toko,Toko Finacy Bagus,"GWCG+2H8, Waetina, Kec. Waeapo, Kabupaten Buru, Maluku","Kabupaten Buru, Maluku",MALUKU,,Indonesia,85344600675.0,,,-3.4799679,126.9264449,https://maps.google.com/?cid=0x0:0x2f3a0d6fefbd0008,
hardware store,Toko,Toko Harjo,"RT.:05/Rw:03, Waekasar, Kec. Waeapo, Kabupaten Buru, Maluku 97574","Waekasar, Kec. Waeapo, Kabupaten Buru",MALUKU,97574.0,Indonesia,81273965450.0,,,-3.3484377,126.9790775,https://maps.google.com/?cid=0x0:0x26f92899437b0190,
hardware store,hardware store,Waplau,"Kabupaten Buru, Maluku","Kabupaten Buru, Maluku",MALUKU,,Indonesia,,,,-3.1224517,126.8821197,https://maps.google.com/?cid=0x0:0xa108369a69306737,
hardware store,Toko Fotokopi,TOKO DUA MARGA,"VVFJ+4X, Waplau, Kabupaten Buru, Maluku","Kabupaten Buru, Maluku",MALUKU,,Indonesia,81248131979.0,,,-3.1272031,126.882392,https://maps.google.com/?cid=0x0:0x4fb67d01425e01e1,
hardware store,Toko Bahan Bangunan,TOKO WARDACH,"MX25+V96, Waekerta, Kec. Waeapo, Kabupaten Buru, Maluku","Kabupaten Buru, Maluku",MALUKU,,Indonesia,81316222080.0,,,-3.3478436,126.9583886,https://maps.google.com/?cid=0x0:0xf46923c55a27c005,
hardware store,Komplek perumahan,Dusun waepula,"8WFQ+J7X, Ureng, Kec. Leihitu, Kabupaten Maluku Tengah, Maluku","Kabupaten Maluku Tengah, Maluku",MALUKU,,Indonesia,,,,-3.6758796,127.9382212,https://maps.google.com/?cid=0x0:0x39d8c88a06686556,
hardware store,Komplek perumahan,Pasar Mega Regency,"Sukaragam, Kec. Serang Baru, Kabupaten Bekasi, Jawa Barat 17330","Kec. Serang Baru, Kabupaten Bekasi",MALUKU,17330.0,Indonesia,,,,-6.3821811,107.1179558,https://maps.google.com/?cid=0x0:0xa1db099ed9bfa5df,
hardware store,Komplek perumahan,MEGA REGENCY,BLOK M14.1,"Kabupaten Bekasi, Jawa Barat",MALUKU,,Indonesia,,,,-6.3794772,107.1264387,https://maps.google.com/?cid=0x0:0x673938139eaefb7d,
hardware store,Toko,TOKO PUTRI SEMBAKO,"Blok H1, Jl. Mega Raya No.Pasar Kapling 31, Sukaragam, Kec. Serang Baru, Kabupaten Bekasi, Jawa Barat 17330","Jl. Mega Raya No.Pasar Kapling 31, Sukaragam, Kec. Serang Baru, Kabupaten Bekasi",MALUKU,17330.0,Indonesia,83813970070.0,,,-6.3824477,107.1179324,https://maps.google.com/?cid=0x0:0xcbd667b1cf3fb69a,
hardware store,Toko Perlengkapan Rumah,toko bata bual,"P3CX+93V, Jl. Flamboyan, Namlea, Kec. Namlea, Kabupaten Buru, Maluku","Kabupaten Buru, Maluku",MALUKU,,Indonesia,81385661699.0,,,-3.2790186,127.0976607,https://maps.google.com/?cid=0x0:0x7dd073170585614c,
hardware store,Toko Perlengkapan Rumah,Toko UD.Bersatu,"P3HX+J42, Namlea, Kec. Namlea, Kabupaten Buru, Maluku","Kabupaten Buru, Maluku",MALUKU,,Indonesia,,,,-3.2709938,127.0977623,https://maps.google.com/?cid=0x0:0x79155edd2e9f51c6,
hardware store,Toko Bahan Bangunan,Toko Duta Bangunan,"Jl. Danau Rana, Namlea, Kec. Namlea, Kabupaten Buru, Maluku","Kabupaten Buru, Maluku",MALUKU,,Indonesia,91322010.0,,,-3.269268,127.1034228,https://maps.google.com/?cid=0x0:0x4d2e61629ea407b9,
hardware store,Toko,TOKO FAJAR MAS,"P3CX+R5Q, Namlea, Kec. Namlea, Kabupaten Buru, Maluku","Kabupaten Buru, Maluku",MALUKU,,Indonesia,81316222080.0,,,-3.2779017,127.0979019,https://maps.google.com/?cid=0x0:0xce7d9cbd242800a3,
hardware store,Toko Perlengkapan Rumah,Gope Hardware  Tools,"Jl. Sunter Hijau VII No.2, RT.9/RW.13, Sunter Jaya, Kec. Tj. Priok, Jkt Utara, Daerah Khusus Ibukota Jakarta 14350","RT.9/RW.13, Sunter Jaya, Kec. Tj. Priok, Jkt Utara",MALUKU,14350.0,Indonesia,81383340735.0,,,-6.1550118,106.8788533,https://maps.google.com/?cid=0x0:0xd8076c52080bb59c,
hardware store,Pemasok Bahan Bangunan,TB. Gloria Jaya,"14, Jl. Sunter Hijau VII No.9, RT.14/RW.10, Sunter Jaya, Kec. Tj. Priok, Jkt Utara, Daerah Khusus Ibukota Jakarta 14360","Jl. Sunter Hijau VII No.9, RT.14/RW.10, Sunter Jaya, Kec. Tj. Priok, Jkt Utara",MALUKU,14360.0,Indonesia,216512326.0,,,-6.1551255,106.8781133,https://maps.google.com/?cid=0x0:0x39f404a46eb10045,
hardware store,hardware store,Kec. Waelata,"Kabupaten Buru, Maluku","Kabupaten Buru, Maluku",MALUKU,,Indonesia,,,,-3.4811436,126.9241917,https://maps.google.com/?cid=0x0:0xd5c06f16d8212c44,
hardware store,Toko Bahan Bangunan,Toko GM Mandiri,"J22F+P58, Debowae, Kec. Waeapo, Kabupaten Buru, Maluku","Kabupaten Buru, Maluku",MALUKU,,Indonesia,81617551247.0,,,-3.3982034,127.0229567,https://maps.google.com/?cid=0x0:0x6bc026e5e22c238d,
hardware store,Toko Swalayan,Toko LUWES,"JXGQ+XJ2, Waenetat, Kec. Waeapo, Kabupaten Buru, Maluku","Kabupaten Buru, Maluku",MALUKU,,Indonesia,,,,-3.3726043,126.9890095,https://maps.google.com/?cid=0x0:0x4be2520916b3af42,
hardware store,Toko Bahan Bangunan,TOKO WARDACH,"MX25+V96, Waekerta, Kec. Waeapo, Kabupaten Buru, Maluku","Kabupaten Buru, Maluku",MALUKU,,Indonesia,81316222080.0,,,-3.3478436,126.9583886,https://maps.google.com/?cid=0x0:0xf46923c55a27c005,
hardware store,Toko Bahan Bangunan,TB. BAHAGIA,"HWQH+695, Waegeren, Kec. Waeapo, Kabupaten Buru, Maluku","Kabupaten Buru, Maluku",MALUKU,,Indonesia,,,,-3.4114934,126.9291488,https://maps.google.com/?cid=0x0:0xef99cce735992bc0,
hardware store,Toko Pakaian,Toko NUR JAYA 2,"WGGP+FGG, Wamlana, Kec. Fena leisela, Kabupaten Buru, Maluku","Kabupaten Buru, Maluku",MALUKU,,Indonesia,,,,-3.0738216,126.5361835,https://maps.google.com/?cid=0x0:0xe7e254da140de542,
hardware store,Toko Pakaian,Toko Nur Jaya,"WGGM+RQF, Wamlana, Kec. Air Buaya, Kabupaten Buru, Maluku","Kabupaten Buru, Maluku",MALUKU,,Indonesia,813540408061.0,,,-3.0729264,126.5344307,https://maps.google.com/?cid=0x0:0x6ecc7d9ee7d20b7f,
hardware store,hardware store,Tlk. Kaiely,"Kabupaten Buru, Maluku","Kabupaten Buru, Maluku",MALUKU,,Indonesia,,,,-3.3033929,126.5661908,https://maps.google.com/?cid=0x0:0x12b5aeb27efc20e0,
hardware store,Toko umum,Toko Tiga Putra,"Waimangit, Kec. Air Buaya, Kabupaten Buru, Maluku","Kabupaten Buru, Maluku",MALUKU,,Indonesia,82238217090.0,,,-3.0852552,126.4506514,https://maps.google.com/?cid=0x0:0x67e95f62768a257b,
hardware store,Toko Bahan Bangunan,Toko GM Mandiri,"J22F+P58, Debowae, Kec. Waeapo, Kabupaten Buru, Maluku","Kabupaten Buru, Maluku",MALUKU,,Indonesia,81617551247.0,,,-3.3982034,127.0229567,https://maps.google.com/?cid=0x0:0x6bc026e5e22c238d,
hardware store,Toko Bahan Bangunan,Toko Duta Bangunan,"Jl. Danau Rana, Namlea, Kec. Namlea, Kabupaten Buru, Maluku","Kabupaten Buru, Maluku",MALUKU,,Indonesia,91322010.0,,,-3.269268,127.1034228,https://maps.google.com/?cid=0x0:0x4d2e61629ea407b9,
hardware store,Toko Swalayan,Toko LUWES,"JXGQ+XJ2, Waenetat, Kec. Waeapo, Kabupaten Buru, Maluku","Kabupaten Buru, Maluku",MALUKU,,Indonesia,,,,-3.3726043,126.9890095,https://maps.google.com/?cid=0x0:0x4be2520916b3af42,
hardware store,Toko Bahan Bangunan,TOKO WARDACH,"MX25+V96, Waekerta, Kec. Waeapo, Kabupaten Buru, Maluku","Kabupaten Buru, Maluku",MALUKU,,Indonesia,81316222080.0,,,-3.3478436,126.9583886,https://maps.google.com/?cid=0x0:0xf46923c55a27c005,
hardware store,hardware store,Kec. Lilialy,"Kabupaten Buru, Maluku","Kabupaten Buru, Maluku",MALUKU,,Indonesia,,,,-3.1452717,126.9901544,https://maps.google.com/?cid=0x0:0xa4098f1c5783ea97,
hardware store,Toko Perlengkapan Rumah,MR.DIY,"Jl. Kampus Iqra Buru, Namlea, Kec. Namlea, Kabupaten Buru, Maluku 97571","Namlea, Kec. Namlea, Kabupaten Buru",MALUKU,97571.0,Indonesia,,,,-3.2733058,127.0992124,https://maps.google.com/?cid=0x0:0x69153d22b15aaf2,
hardware store,Toko Bahan Bangunan,Toko Duta Bangunan,"Jl. Danau Rana, Namlea, Kec. Namlea, Kabupaten Buru, Maluku","Kabupaten Buru, Maluku",MALUKU,,Indonesia,91322010.0,,,-3.269268,127.1034228,https://maps.google.com/?cid=0x0:0x4d2e61629ea407b9,
hardware store,Toko Perlengkapan Rumah,TOKO YUSLAN GORDEN,"Q32V+MJF, Namlea, Kec. Namlea, Kabupaten Buru, Maluku","Kabupaten Buru, Maluku",MALUKU,,Indonesia,81343466201.0,,,-3.2476718,127.0942266,https://maps.google.com/?cid=0x0:0x7b4a362ed1df6b91,
hardware store,Toko Elektronik,Wakatobi Computer,"Q33V+CMC, Jl. Propinsi, Namlea, Kec. Namlea, Kabupaten Buru, Maluku","Kabupaten Buru, Maluku",MALUKU,,Indonesia,81385661699.0,,,-3.2464433,127.0941478,https://maps.google.com/?cid=0x0:0xe578b8ea3349a9aa,
hardware store,Toko,HTS Digital Centre,"P3PQ+5R5, Namlea, Kec. Namlea, Kabupaten Buru, Maluku","Kabupaten Buru, Maluku",MALUKU,,Indonesia,,,,-3.2646146,127.0896056,https://maps.google.com/?cid=0x0:0xb11bafc1907ed0b2,
hardware store,Toko,SAWERIGADING FOTOCOPY,"Jalan Jiku Besar, Namlea, Kec. Namlea, Kabupaten Buru, Maluku 97571","Namlea, Kec. Namlea, Kabupaten Buru",MALUKU,97571.0,Indonesia,82197581928.0,,,-3.2688545,127.1041881,https://maps.google.com/?cid=0x0:0x9efbccb06e420ce3,
hardware store,Toko,Toko fayra,"P4G3+7HF, Jl. Kampus Iqra Buru, Namlea, Kec. Namlea, Kabupaten Buru, Maluku","Kabupaten Buru, Maluku",MALUKU,,Indonesia,82332925872.0,,,-3.2743246,127.10392,https://maps.google.com/?cid=0x0:0xdceb1e75532724eb,
home improvement,home improvement,Namlea,"Namlea, Kec. Namlea, Kabupaten Buru, Maluku","Kabupaten Buru, Maluku",MALUKU,,Indonesia,,,,-3.233398,127.085899,https://maps.google.com/?cid=0x0:0xe52ca57740e74df,
home improvement,Toko Perlengkapan Rumah,MR.DIY,"Jl. Kampus Iqra Buru, Namlea, Kec. Namlea, Kabupaten Buru, Maluku 97571","Namlea, Kec. Namlea, Kabupaten Buru",MALUKU,97571.0,Indonesia,,,,-3.2733058,127.0992124,https://maps.google.com/?cid=0x0:0x69153d22b15aaf2,
home improvement,Toko Perlengkapan Rumah,Namlea mebel,"P3PM+RWG, Jl . pelabuhan besar, Namlea, Kec. Namlea, Kabupaten Buru, Maluku","Kabupaten Buru, Maluku",MALUKU,,Indonesia,81240271694.0,,,-3.2629316,127.0848399,https://maps.google.com/?cid=0x0:0x4ce8087cfeffca5c,
home improvement,Toko,RH 3 - Namlea,"P4J3+GF8, Namlea, Kec. Namlea, Kabupaten Buru, Maluku","Kabupaten Buru, Maluku",MALUKU,,Indonesia,,,,-3.2687106,127.1037021,https://maps.google.com/?cid=0x0:0x79f220c6c18cc3cc,
home improvement,Toko Mebel,Sinar Mebel Namlea,"P3VP+4WX Harmin Mursalim SHI, Namlea, Kec. Namlea, Kabupaten Buru, Maluku","Kabupaten Buru, Maluku",MALUKU,,Indonesia,81247588537.0,,,-3.2571422,127.0873499,https://maps.google.com/?cid=0x0:0x5467a9ab0ee46d4b,
home improvement,Toko Bahan Bangunan,Toko Duta Bangunan,"Jl. Danau Rana, Namlea, Kec. Namlea, Kabupaten Buru, Maluku","Kabupaten Buru, Maluku",MALUKU,,Indonesia,91322010.0,,,-3.269268,127.1034228,https://maps.google.com/?cid=0x0:0x4d2e61629ea407b9,
home improvement,Komplek perumahan,My home,"P4C3+547, Namlea, Kec. Namlea, Kabupaten Buru, Maluku","Kabupaten Buru, Maluku",MALUKU,,Indonesia,,,,-3.279392,127.101881,https://maps.google.com/?cid=0x0:0x3357f098cfaf1475,
home improvement,Komplek perumahan,Ebay home,"P4M5+FMC, Namlea, Kec. Namlea, Kabupaten Buru, Maluku","Kabupaten Buru, Maluku",MALUKU,,Indonesia,,,,-3.2663039,127.1091538,https://maps.google.com/?cid=0x0:0xc8bda9336ec755b2,
home improvement,Toko Mebel,Meubel Dwi,"P4W5+R77, Namlea, Kec. Namlea, Kabupaten Buru, Maluku","Kabupaten Buru, Maluku",MALUKU,,Indonesia,82197673991.0,,,-3.2529675,127.1081582,https://maps.google.com/?cid=0x0:0x2bbc4fd96bc2bc0,
home improvement,Jasa Konstruksi dan Bangunan,"Baja Ringan dan Las, ALe Rete Mena","Jalan Baru pendopo wakil, Namlea, Kec. Namlea, Kabupaten Buru, Maluku 97571","Namlea, Kec. Namlea, Kabupaten Buru",MALUKU,97571.0,Indonesia,81240737906.0,,,-3.2772775,127.1078589,https://maps.google.com/?cid=0x0:0x2b6897e02e6b94f,
home improvement,Toko Mebel,VICTORY STORE NAMLEA,"Jl. Flamboyan No.004, Namlea, Kec. Namlea, Kabupaten Buru, Maluku 97571","Namlea, Kec. Namlea, Kabupaten Buru",MALUKU,97571.0,Indonesia,,,,-3.279822,127.0977058,https://maps.google.com/?cid=0x0:0x53d9984a84448d13,
home improvement,Toko Komputer,Finisi Komputer Namlea,"Namlea, Kec. Namlea, Kabupaten Buru, Maluku","Kabupaten Buru, Maluku",MALUKU,,Indonesia,81231606484.0,,,-3.2711167,127.1013994,https://maps.google.com/?cid=0x0:0x4f2d6733b1c36a36,
home improvement,Praktisi Pengobatan Alternatif,Pusat Minyak Kayu Putih Murni Asli Namlea Pulau Buru,"Jln, Pertamina, Bandar Angin, Kec. Namlea, Kabupaten Buru, Maluku 97571","Pertamina, Bandar Angin, Kec. Namlea, Kabupaten Buru",MALUKU,97571.0,Indonesia,83160635299.0,,,-3.2687434,127.0928415,https://maps.google.com/?cid=0x0:0x882f273bfa91f545,
home improvement,Pembangunan Perumahan,Izan Home,"P3WX+6GC, Jl. SMK 7, Namlea, Kec. Namlea, Kabupaten Buru, Maluku","Kabupaten Buru, Maluku",MALUKU,,Indonesia,,,,-3.2549508,127.098401,https://maps.google.com/?cid=0x0:0xeea9de00c3f05939,
home improvement,Toko Alat Tulis Kantor,TOKO MD NAMLEA,"Jl.BTN TATANGGO No.1, Namlea, Kec. Namlea, Kabupaten Buru, Maluku","Kabupaten Buru, Maluku",MALUKU,,Indonesia,,,,-3.2575312,127.0881969,https://maps.google.com/?cid=0x0:0xd4815afc1695a214,
home improvement,Toko Mebel,Toko Lia Indah,"Q32V+JMR, Unnamed Road, Namlea, Kec. Namlea, Kabupaten Buru, Maluku","Kabupaten Buru, Maluku",MALUKU,,Indonesia,,,,-3.2483927,127.0941356,https://maps.google.com/?cid=0x0:0xec0c35930fc41d29,
home improvement,Toko,TOKO FAJAR MAS,"P3CX+R5Q, Namlea, Kec. Namlea, Kabupaten Buru, Maluku","Kabupaten Buru, Maluku",MALUKU,,Indonesia,81316222080.0,,,-3.2779017,127.0979019,https://maps.google.com/?cid=0x0:0xce7d9cbd242800a3,
home improvement,Toko Perlengkapan Rumah,TB GALLERY,"P3GX+GP2, Namlea, Kec. Namlea, Kabupaten Buru, Maluku","Kabupaten Buru, Maluku",MALUKU,,Indonesia,,,,-3.2737429,127.0992549,https://maps.google.com/?cid=0x0:0x226494b9d0fa651,
home improvement,Toko bahan makanan,HMS RISKY,"P4P3+93M, Unnamed Road, Namlea, Kec. Namlea, Kabupaten Buru, Maluku","Kabupaten Buru, Maluku",MALUKU,,Indonesia,,,,-3.2640309,127.1026598,https://maps.google.com/?cid=0x0:0x3a8c3d3a2d5085e9,
home improvement,Toko,Toko fayra,"P4G3+7HF, Jl. Kampus Iqra Buru, Namlea, Kec. Namlea, Kabupaten Buru, Maluku","Kabupaten Buru, Maluku",MALUKU,,Indonesia,82332925872.0,,,-3.2743246,127.10392,https://maps.google.com/?cid=0x0:0xdceb1e75532724eb,
home improvement,Komplek perumahan,Kimmy home,"Q492+5G2, Perumnas, Lala, Kec. Namlea, Kabupaten Buru, Maluku","Kabupaten Buru, Maluku",MALUKU,,Indonesia,,,,-3.2321232,127.1012609,https://maps.google.com/?cid=0x0:0x7f0e910c5298d367,
home improvement,Komplek perumahan,Iyan Marasabessy Home,"P3WX+646, Unnamed Road, Namlea, Kec. Namlea, Kabupaten Buru, Maluku","Kabupaten Buru, Maluku",MALUKU,,Indonesia,,,,-3.2544631,127.0977724,https://maps.google.com/?cid=0x0:0x24de8642c176995e,
home improvement,Komplek perumahan,Eby home,"P3WR+8CC, Namlea, Kec. Namlea, Kabupaten Buru, Maluku","Kabupaten Buru, Maluku",MALUKU,,Indonesia,,,,-3.2541102,127.0911155,https://maps.google.com/?cid=0x0:0x3c50094ddf715206,
home improvement,Jasa Konstruksi dan Bangunan,Bengkel las flamboyan,"Namlea, Kec. Waeapo, Kabupaten Buru, Maluku Utara","Kabupaten Buru, Maluku Utara",MALUKU,,Indonesia,82396006376.0,,,-3.233398,127.085899,https://maps.google.com/?cid=0x0:0x31171ed479c700bc,
home improvement,home improvement,,,,MALUKU,,Indonesia,,,,,,https://maps.google.com/?cid=0x0:0xfabb1de62994f5b6,
home improvement,home improvement,,,,MALUKU,,Indonesia,,,,,,https://maps.google.com/?cid=0x0:0x69153d22b15aaf2,
home improvement,home improvement,,,,MALUKU,,Indonesia,,,,,,https://maps.google.com/?cid=0x0:0xdceb1e75532724eb,
home improvement,home improvement,,,,MALUKU,,Indonesia,,,,,,https://maps.google.com/?cid=0x0:0x7a12444bf77aabcb,
home improvement,home improvement,,,,MALUKU,,Indonesia,,,,,,https://maps.google.com/?cid=0x0:0xf83f0231b9a9b5fd,
home improvement,home improvement,,,,MALUKU,,Indonesia,,,,,,https://maps.google.com/?cid=0x0:0x1a9ec9ef4e15c2de,
home improvement,home improvement,,,,MALUKU,,Indonesia,,,,,,https://maps.google.com/?cid=0x0:0x705bbe1d1946b70b,
home improvement,home improvement,,,,MALUKU,,Indonesia,,,,,,https://maps.google.com/?cid=0x0:0x9433539cc4aa5eaf,
home improvement,home improvement,,,,MALUKU,,Indonesia,,,,,,https://maps.google.com/?cid=0x0:0x165cbbf869d197bf,
home improvement,home improvement,,,,MALUKU,,Indonesia,,,,,,https://maps.google.com/?cid=0x0:0x11f7366046c704ba,
home improvement,home improvement,,,,MALUKU,,Indonesia,,,,,,https://maps.google.com/?cid=0x0:0xa108369a69306737,
home improvement,home improvement,,,,MALUKU,,Indonesia,,,,,,https://maps.google.com/?cid=0x0:0xbd920a24abdb7eed,
home improvement,home improvement,,,,MALUKU,,Indonesia,,,,,,https://maps.google.com/?cid=0x0:0x7dd073170585614c,
home improvement,home improvement,,,,MALUKU,,Indonesia,,,,,,https://maps.google.com/?cid=0x0:0x399ab8531fbf4de9,
home improvement,home improvement,,,,MALUKU,,Indonesia,,,,,,https://maps.google.com/?cid=0x0:0x7f780225044b18c5,
home improvement,home improvement,,,,MALUKU,,Indonesia,,,,,,https://maps.google.com/?cid=0x0:0x4d2e61629ea407b9,
home improvement,home improvement,,,,MALUKU,,Indonesia,,,,,,https://maps.google.com/?cid=0x0:0x5e30e8db04649a51,
home improvement,home improvement,,,,MALUKU,,Indonesia,,,,,,https://maps.google.com/?cid=0x0:0x705bbe1d1946b70b,
home improvement,home improvement,,,,MALUKU,,Indonesia,,,,,,https://maps.google.com/?cid=0x0:0xd5c06f16d8212c44,
home improvement,home improvement,,,,MALUKU,,Indonesia,,,,,,https://maps.google.com/?cid=0x0:0xc1549bff37bdfd3d,
home improvement,home improvement,,,,MALUKU,,Indonesia,,,,,,https://maps.google.com/?cid=0x0:0x41d8062c030f5fac,
home improvement,home improvement,,,,MALUKU,,Indonesia,,,,,,https://maps.google.com/?cid=0x0:0x5e30e8db04649a51,
home improvement,home improvement,,,,MALUKU,,Indonesia,,,,,,https://maps.google.com/?cid=0x0:0xc8bda9336ec755b2,
home improvement,home improvement,,,,MALUKU,,Indonesia,,,,,,https://maps.google.com/?cid=0x0:0x85768b108b83bc67,
home improvement,home improvement,,,,MALUKU,,Indonesia,,,,,,https://maps.google.com/?cid=0x0:0x2b6897e02e6b94f,
home improvement,home improvement,,,,MALUKU,,Indonesia,,,,,,https://maps.google.com/?cid=0x0:0xf4e5d69f3ca1011f,
home improvement,home improvement,,,,MALUKU,,Indonesia,,,,,,https://maps.google.com/?cid=0x0:0x705bbe1d1946b70b,
home improvement,home improvement,,,,MALUKU,,Indonesia,,,,,,https://maps.google.com/?cid=0x0:0xa4098f1c5783ea97,
home improvement,home improvement,,,,MALUKU,,Indonesia,,,,,,https://maps.google.com/?cid=0x0:0x69153d22b15aaf2,
home improvement,home improvement,,,,MALUKU,,Indonesia,,,,,,https://maps.google.com/?cid=0x0:0xc8bda9336ec755b2,
