Category,Real Category,Business Name,Address,City,State,Postal Code,Country,Phone,Email,Website,Latitude,Longitude,Map Link,Details Link
mall,mall,Namlea,"Namlea, Kec. Namlea, Kabupaten Buru, Maluku","Kabupaten Buru, Maluku",MALUKU,,Indonesia,,,,-3.233398,127.085899,https://maps.google.com/?cid=0x0:0xe52ca57740e74df,
mall,Pusat Perbelanjaan,RH MART,"Namlea, Kec. Namlea, Kabupaten Buru, Maluku","Kabupaten Buru, Maluku",MALUKU,,Indonesia,,,,-3.2688462,127.1039438,https://maps.google.com/?cid=0x0:0x35578fd3befce5e6,
mall,Toko Perlengkapan Rumah,Namlea,"P38X+8MF, Namlea, Kec. Namlea, Kabupaten Buru, Maluku","Kabupaten Buru, Maluku",MALUKU,,Indonesia,,,,-3.2843073,127.0997045,https://maps.google.com/?cid=0x0:0x542ac4d9d83535b4,
mall,Pusat Perbelanjaan,Motoshop,"P3PR+W4M, Unnamed Road, Namlea, Kec. Namlea, Kabupaten Buru, Maluku","Kabupaten Buru, Maluku",MALUKU,,Indonesia,85242119912.0,,,-3.2626723,127.0902921,https://maps.google.com/?cid=0x0:0xa52e9fe9f045b4ec,
mall,Toko Swalayan,Kios dilla,"P4M3+FQ4, Namlea, Kec. Namlea, Kabupaten Buru, Maluku","Kabupaten Buru, Maluku",MALUKU,,Indonesia,85771135875.0,,,-3.2663571,127.1044412,https://maps.google.com/?cid=0x0:0xc104d390320c6d,
mall,mall,Kec. Namlea,"Kabupaten Buru, Maluku","Kabupaten Buru, Maluku",MALUKU,,Indonesia,,,,-3.2723515,127.0988246,https://maps.google.com/?cid=0x0:0xdf672102eb46af96,
mall,Toko bahan makanan,Pasar Inpres Namlea,"Pasar Inpres, Namlea, Kec. Namlea, Kabupaten Buru, Maluku","Kabupaten Buru, Maluku",MALUKU,,Indonesia,81329472927.0,,,-3.2828191,127.0971125,https://maps.google.com/?cid=0x0:0xd1eb53eb08a04c0c,
mall,Perusahaan Operasi Pelabuhan,Pelabuhan Besar Namlea,"P3JM+7CG, Pelabuhan, Namlea, Kec. Namlea, Kabupaten Buru, Maluku","Kabupaten Buru, Maluku",MALUKU,,Indonesia,,,,-3.2693235,127.0835795,https://maps.google.com/?cid=0x0:0xd217fc479e34c6d4,
mall,Toko,City Mart,"P3JX+J48, Jl. Jenderal Ahmad Yani, Namlea, Kec. Namlea, Kabupaten Buru, Maluku","Kabupaten Buru, Maluku",MALUKU,,Indonesia,,,,-3.2684582,127.0978186,https://maps.google.com/?cid=0x0:0x44944d7152b21c2d,
mall,Bandara Regional,Bandar Udara Namlea,"Q36X+JMJ, Unnamed Road, Namlea, Kec. Namlea, Kabupaten Buru, Maluku","Kabupaten Buru, Maluku",MALUKU,,Indonesia,,,,-3.2384068,127.0991434,https://maps.google.com/?cid=0x0:0x7433724aee16f61d,
mall,Bank,Bank Maluku Kantor Bupati Buru,"Jl. Jend. Ahmad Yani, Namlea, Buru Regency, Maluku 97571","Namlea, Buru Regency",MALUKU,97571.0,Indonesia,91321024.0,,,-3.233398,127.085899,https://maps.google.com/?cid=0x0:0xa785da62a85917e0,
mall,Pusat Perbelanjaan,Kios ahmad,"P3HV+PWG, Namlea, Kec. Namlea, Kabupaten Buru, Maluku","Kabupaten Buru, Maluku",MALUKU,,Indonesia,82248401506.0,,,-3.2706771,127.0948359,https://maps.google.com/?cid=0x0:0xaa79639ec0a9d3ca,
mall,Toko,Kios Jihan,"P39X+QG2, Namlea, Kec. Namlea, Kabupaten Buru, Maluku","Kabupaten Buru, Maluku",MALUKU,,Indonesia,82238513131.0,,,-3.2806204,127.0987523,https://maps.google.com/?cid=0x0:0x75d184515ba701be,
mall,Pusat Perbelanjaan,Kios fitri,"P493+7QJ, Namlea, Kec. Namlea, Kabupaten Buru, Maluku","Kabupaten Buru, Maluku",MALUKU,,Indonesia,,,,-3.2817778,127.104387,https://maps.google.com/?cid=0x0:0x8cbe6252217f257b,
mall,Komplek perumahan,Namlea kabupaten buru,"MM9W+P75, Waegeren, Kec. Waeapo, Kabupaten Buru, Maluku","Kabupaten Buru, Maluku",MALUKU,,Indonesia,,,,-3.3307379,126.6957216,https://maps.google.com/?cid=0x0:0x947dc08df4cdbafa,
mall,mall,Namlea,"Kec. Namlea, Kabupaten Buru, Maluku","Kabupaten Buru, Maluku",MALUKU,,Indonesia,,,,-3.275735,127.09954,https://maps.google.com/?cid=0x0:0xc65ad713a9e31eff,
mall,Otoritas Pelabuhan,Pasar Namrole,"KOPRASI BARASEHE 6 ROLE, Labuang, Kec. Namrole, Kabupaten Buru Selatan, Maluku","Kabupaten Buru Selatan, Maluku",MALUKU,,Indonesia,,,,-3.8397116,126.7371249,https://maps.google.com/?cid=0x0:0x1eacf00fd32fc390,
mall,mall,Kec. Air Buaya,"Kabupaten Buru, Maluku","Kabupaten Buru, Maluku",MALUKU,,Indonesia,,,,-3.0855583,126.4356478,https://maps.google.com/?cid=0x0:0xfabb1de62994f5b6,
mall,Toko Pakaian,Pasar Wamlana,"WGGP+49V, Wamlana, Kec. Air Buaya, Kabupaten Buru, Maluku","Kabupaten Buru, Maluku",MALUKU,,Indonesia,82293819914.0,,,-3.0746476,126.5359102,https://maps.google.com/?cid=0x0:0xfaa10ac6302faf10,
mall,Toko umum,Toko Mogi,"WC7X+MWJ, Waimangit, Kec. Air Buaya, Kabupaten Buru, Maluku","Kabupaten Buru, Maluku",MALUKU,,Indonesia,,,,-3.0857768,126.4497582,https://maps.google.com/?cid=0x0:0x400cc4e86d1b0b45,
mall,Toko bahan makanan,Toko papandayan,"JXFQ+G99, Waenetat, Kec. Waeapo, Kabupaten Buru, Maluku","Kabupaten Buru, Maluku",MALUKU,,Indonesia,,,,-3.3762049,126.9884805,https://maps.google.com/?cid=0x0:0xe8225f7f845541d1,
mall,mall,Kec. Waeapo,"Kabupaten Buru, Maluku","Kabupaten Buru, Maluku",MALUKU,,Indonesia,,,,-3.4137528,126.925378,https://maps.google.com/?cid=0x0:0xf83f0231b9a9b5fd,
mall,Pusat Perbelanjaan,Pasar Tradisional Mako,"-3.377158,126.986981, Waenetat, Kec. Waeapo, Kabupaten Buru, Maluku","Kabupaten Buru, Maluku",MALUKU,,Indonesia,,,,-3.3771436,126.9870367,https://maps.google.com/?cid=0x0:0xf2f325963ea6a2c9,
mall,Pasar,Pasar Tradisional 16,"MX25+RFM, Waekerta, Kec. Waeapo, Kabupaten Buru, Maluku","Kabupaten Buru, Maluku",MALUKU,,Indonesia,,,,-3.3479167,126.9586667,https://maps.google.com/?cid=0x0:0xa7543e32fe1da8a0,
mall,Toko,Toko Amelia jaya,"HX62+PHR, Waelo, Kec. Waelata, Kabupaten Buru, Maluku","Kabupaten Buru, Maluku",MALUKU,,Indonesia,,,,-3.4381389,126.9513824,https://maps.google.com/?cid=0x0:0x8a688eae3dbe0751,
mall,Toko,JEJE ALL SHOPP Widit,"H2J9+96C, Parbulu, Kec. Waelata, Kabupaten Buru, Maluku","Kabupaten Buru, Maluku",MALUKU,,Indonesia,,,,-3.4190747,127.0180307,https://maps.google.com/?cid=0x0:0xd2d3fc7c9eb58694,
mall,Toko,Toko Cinta,"MM9W+P75, Waegeren, Kec. Waeapo, Kabupaten Buru, Maluku","Kabupaten Buru, Maluku",MALUKU,,Indonesia,81343244484.0,,,-3.3307379,126.6957216,https://maps.google.com/?cid=0x0:0x7bbf2a5d3c91863c,
mall,Toko Swalayan,SRC AmI,"HW4F+Q3J, Trans Buru Grandeng-Modaumohe, Grandeng, Kec. Waeapo, Kabupaten Buru, Maluku","Kabupaten Buru, Maluku",MALUKU,,Indonesia,,,,-3.4430353,126.9226509,https://maps.google.com/?cid=0x0:0xc41ebb6b645cab6f,
mall,Toko,MITSUKI CELLULAR,"JXGQ+MJC, Jalan Gatot Subroto, Waenetat, Kec. Waeapo, Kabupaten Buru, Maluku 97574","Jalan Gatot Subroto, Waenetat, Kec. Waeapo, Kabupaten Buru",MALUKU,97574.0,Indonesia,81341083247.0,,,-3.373299,126.9890258,https://maps.google.com/?cid=0x0:0x8a8a67b09b8f29d2,
mall,Pedagang ternak,Marning jagung goreng,"JXGP+5VR, Waenetat, Kec. Waeapo, Kabupaten Buru, Maluku","Kabupaten Buru, Maluku",MALUKU,,Indonesia,81315099080.0,,,-3.3745016,126.9871261,https://maps.google.com/?cid=0x0:0x76dc5406bb44c256,
mall,Pusat Perbelanjaan,Motoshop,"P3PR+W4M, Unnamed Road, Namlea, Kec. Namlea, Kabupaten Buru, Maluku","Kabupaten Buru, Maluku",MALUKU,,Indonesia,85242119912.0,,,-3.2626723,127.0902921,https://maps.google.com/?cid=0x0:0xa52e9fe9f045b4ec,
mall,Toko,Depot Raja RO,"P4M3+96Q, Namlea, Kec. Namlea, Kabupaten Buru, Maluku","Kabupaten Buru, Maluku",MALUKU,,Indonesia,82399855292.0,,,-3.2665481,127.1031233,https://maps.google.com/?cid=0x0:0x61fdff86e2e98502,
mall,Toko Swalayan,TOKO UD. SAHADI,"HWPG+933, Waegeren, Kec. Waeapo, Kabupaten Buru, Maluku","Kabupaten Buru, Maluku",MALUKU,,Indonesia,81369849624.0,,,-3.4141239,126.925172,https://maps.google.com/?cid=0x0:0x9e4ac8a4bdd9f039,
mall,mall,Bariklana,"J239+4HR, Unnamed Road, Debowae, Kec. Waeapo, Kabupaten Buru, Maluku","Kabupaten Buru, Maluku",MALUKU,,Indonesia,82218318000.0,,,-3.3971251,127.0189,https://maps.google.com/?cid=0x0:0x57eedf70a0a71144,
mall,mall,Waplau,"Kabupaten Buru, Maluku","Kabupaten Buru, Maluku",MALUKU,,Indonesia,,,,-3.1224517,126.8821197,https://maps.google.com/?cid=0x0:0xa108369a69306737,
mall,Pusat Perbelanjaan,Wailola Shop,"Jalan Bhayangkari, Bula, East Seram, Maluku","Kabupaten Seram Bagian Timur, Maluku",MALUKU,,Indonesia,81331422430.0,,,-3.106128,130.495989,https://maps.google.com/?cid=0x0:0x6c0e86a4807da275,
mall,Toko Pakaian,Pasar Wamlana,"WGGP+49V, Wamlana, Kec. Air Buaya, Kabupaten Buru, Maluku","Kabupaten Buru, Maluku",MALUKU,,Indonesia,82293819914.0,,,-3.0746476,126.5359102,https://maps.google.com/?cid=0x0:0xfaa10ac6302faf10,
mall,Toko,Toko Cinta,"MM9W+P75, Waegeren, Kec. Waeapo, Kabupaten Buru, Maluku","Kabupaten Buru, Maluku",MALUKU,,Indonesia,81343244484.0,,,-3.3307379,126.6957216,https://maps.google.com/?cid=0x0:0x7bbf2a5d3c91863c,
mall,Pusat Perbelanjaan,Maluku City Mall (MCM),"Jl. Jenderal Sudirman No.1, Hative Kecil, Kec. Sirimau, Kota Ambon, Maluku","Kota Ambon, Maluku",MALUKU,,Indonesia,911352871.0,,,-3.6702679,128.1981163,https://maps.google.com/?cid=0x0:0x2f29bf0afe09144e,
mall,mall,Kec. Bata Bual,"Kabupaten Buru, Maluku","Kabupaten Buru, Maluku",MALUKU,,Indonesia,,,,-3.5268077,127.2494018,https://maps.google.com/?cid=0x0:0xbd920a24abdb7eed,
mall,mall,Tasya Store,"P38W+VR3, Unnamed Road, Namlea, Kec. Namlea, Kabupaten Buru, Maluku","Kabupaten Buru, Maluku",MALUKU,,Indonesia,81342108900.0,,,-3.2828521,127.0970445,https://maps.google.com/?cid=0x0:0xe486b166e62f0fda,
mall,Pusat Perbelanjaan,Maluku City Mall (MCM),"Jl. Jenderal Sudirman No.1, Hative Kecil, Kec. Sirimau, Kota Ambon, Maluku","Kota Ambon, Maluku",MALUKU,,Indonesia,911352871.0,,,-3.6702679,128.1981163,https://maps.google.com/?cid=0x0:0x2f29bf0afe09144e,
mall,mall,Maluku,,Maluku,MALUKU,,Indonesia,,,,-3.2384616,130.1452734,https://maps.google.com/?cid=0x0:0x5e30e8db04649a51,
mall,Pusat Perbelanjaan,Gramedia Maluku City Mall,"Jalan Jenderal Sudirman. 1 Tantui Ambon UP Floor Blok UG No. 2, Jl. Jenderal Sudirman, Hative Kecil, Kec. Sirimau, Kota Ambon, Maluku 97128","Jl. Jenderal Sudirman, Hative Kecil, Kec. Sirimau, Kota Ambon",MALUKU,97128.0,Indonesia,81248557414.0,,,-3.6703427,128.1983406,https://maps.google.com/?cid=0x0:0xe751f5e37fa0f5c3,
mall,mall,Maluku City Mall Tantui,"8633+38H, Unnamed Road, Soya, Kec. Sirimau, Kota Ambon, Maluku","Kota Ambon, Maluku",MALUKU,,Indonesia,82199223279.0,,,-3.6973048,128.2033559,https://maps.google.com/?cid=0x0:0x549d176470665edf,
mall,Toko,Toko Amelia jaya,"HX62+PHR, Waelo, Kec. Waelata, Kabupaten Buru, Maluku","Kabupaten Buru, Maluku",MALUKU,,Indonesia,,,,-3.4381389,126.9513824,https://maps.google.com/?cid=0x0:0x8a688eae3dbe0751,
mall,mall,Kec. Waelata,"Kabupaten Buru, Maluku","Kabupaten Buru, Maluku",MALUKU,,Indonesia,,,,-3.4811436,126.9241917,https://maps.google.com/?cid=0x0:0xd5c06f16d8212c44,
mall,Toko,JEJE ALL SHOPP Widit,"H2J9+96C, Parbulu, Kec. Waelata, Kabupaten Buru, Maluku","Kabupaten Buru, Maluku",MALUKU,,Indonesia,,,,-3.4190747,127.0180307,https://maps.google.com/?cid=0x0:0xd2d3fc7c9eb58694,
mall,Toko bahan makanan,Toko papandayan,"JXFQ+G99, Waenetat, Kec. Waeapo, Kabupaten Buru, Maluku","Kabupaten Buru, Maluku",MALUKU,,Indonesia,,,,-3.3762049,126.9884805,https://maps.google.com/?cid=0x0:0xe8225f7f845541d1,
mall,Toko Swalayan,SRC AmI,"HW4F+Q3J, Trans Buru Grandeng-Modaumohe, Grandeng, Kec. Waeapo, Kabupaten Buru, Maluku","Kabupaten Buru, Maluku",MALUKU,,Indonesia,,,,-3.4430353,126.9226509,https://maps.google.com/?cid=0x0:0xc41ebb6b645cab6f,
mall,Toko,MITSUKI CELLULAR,"JXGQ+MJC, Jalan Gatot Subroto, Waenetat, Kec. Waeapo, Kabupaten Buru, Maluku 97574","Jalan Gatot Subroto, Waenetat, Kec. Waeapo, Kabupaten Buru",MALUKU,97574.0,Indonesia,81341083247.0,,,-3.373299,126.9890258,https://maps.google.com/?cid=0x0:0x8a8a67b09b8f29d2,
mall,mall,Maluku,,Maluku,MALUKU,,Indonesia,,,,-3.2384616,130.1452734,https://maps.google.com/?cid=0x0:0x5e30e8db04649a51,
mall,Pusat Perbelanjaan,Maluku City Mall (MCM),"Jl. Jenderal Sudirman No.1, Hative Kecil, Kec. Sirimau, Kota Ambon, Maluku","Kota Ambon, Maluku",MALUKU,,Indonesia,911352871.0,,,-3.6702679,128.1981163,https://maps.google.com/?cid=0x0:0x2f29bf0afe09144e,
mall,Pusat Perbelanjaan,Gramedia Maluku City Mall,"Jalan Jenderal Sudirman. 1 Tantui Ambon UP Floor Blok UG No. 2, Jl. Jenderal Sudirman, Hative Kecil, Kec. Sirimau, Kota Ambon, Maluku 97128","Jl. Jenderal Sudirman, Hative Kecil, Kec. Sirimau, Kota Ambon",MALUKU,97128.0,Indonesia,81248557414.0,,,-3.6703427,128.1983406,https://maps.google.com/?cid=0x0:0xe751f5e37fa0f5c3,
mall,Kantor Perusahaan,PT DUTA BHAKTI,"JL Dr setia Budhi No.37, Hative Kecil, Sirimau, Kota Ambon, Maluku 97127","Hative Kecil, Sirimau, Kota Ambon",MALUKU,97127.0,Indonesia,911352871.0,,,-3.66924,128.197166,https://maps.google.com/?cid=0x0:0xac3f2e3739b7d72f,
mall,Toko,Kios Jihan,"P39X+QG2, Namlea, Kec. Namlea, Kabupaten Buru, Maluku","Kabupaten Buru, Maluku",MALUKU,,Indonesia,82238513131.0,,,-3.2806204,127.0987523,https://maps.google.com/?cid=0x0:0x75d184515ba701be,
mall,Toko,SafiraShop,"5P26+GWJ, Fatmite, Kec. Namrole, Kabupaten Buru Selatan, Maluku","Kabupaten Buru Selatan, Maluku",MALUKU,,Indonesia,82248555229.0,,,-3.8486678,126.7122715,https://maps.google.com/?cid=0x0:0x454756fb659b3543,
mall,Gedung Apartemen,Mall@Bassura,"Jl. Jenderal Basuki Rachmat No.1A, Cipinang Besar Sel., Kecamatan Jatinegara, Kota Jakarta Timur, Daerah Khusus Ibukota Jakarta 13410","Cipinang Besar Sel., Kecamatan Jatinegara, Kota Jakarta Timur",MALUKU,13410.0,Indonesia,2122807300.0,,,-6.2240597,106.8778851,https://maps.google.com/?cid=0x0:0x610648e929845480,
mall,Pusat Perbelanjaan,Blok M Square,"Jl. Melawai 5, RT.3/RW.1, Melawai, Kec. Kby. Baru, Kota Jakarta Selatan, Daerah Khusus Ibukota Jakarta 12160","RT.3/RW.1, Melawai, Kec. Kby. Baru, Kota Jakarta Selatan",MALUKU,12160.0,Indonesia,2172802000.0,,,-6.244593,106.800649,https://maps.google.com/?cid=0x0:0x8f10b22d03d7c9db,
mall,mall,Tlk. Kaiely,"Kabupaten Buru, Maluku","Kabupaten Buru, Maluku",MALUKU,,Indonesia,,,,-3.3033929,126.5661908,https://maps.google.com/?cid=0x0:0x12b5aeb27efc20e0,
mall,Toko Pakaian,Pasar Wamlana,"WGGP+49V, Wamlana, Kec. Air Buaya, Kabupaten Buru, Maluku","Kabupaten Buru, Maluku",MALUKU,,Indonesia,82293819914.0,,,-3.0746476,126.5359102,https://maps.google.com/?cid=0x0:0xfaa10ac6302faf10,
mall,Toko bahan makanan,Toko papandayan,"JXFQ+G99, Waenetat, Kec. Waeapo, Kabupaten Buru, Maluku","Kabupaten Buru, Maluku",MALUKU,,Indonesia,,,,-3.3762049,126.9884805,https://maps.google.com/?cid=0x0:0xe8225f7f845541d1,
mall,Pusat Perbelanjaan,RH MART,"Namlea, Kec. Namlea, Kabupaten Buru, Maluku","Kabupaten Buru, Maluku",MALUKU,,Indonesia,,,,-3.2688462,127.1039438,https://maps.google.com/?cid=0x0:0x35578fd3befce5e6,
mall,Pusat Perbelanjaan,Pasar Tradisional Mako,"-3.377158,126.986981, Waenetat, Kec. Waeapo, Kabupaten Buru, Maluku","Kabupaten Buru, Maluku",MALUKU,,Indonesia,,,,-3.3771436,126.9870367,https://maps.google.com/?cid=0x0:0xf2f325963ea6a2c9,
mall,Toko,Depot Raja RO,"P4M3+96Q, Namlea, Kec. Namlea, Kabupaten Buru, Maluku","Kabupaten Buru, Maluku",MALUKU,,Indonesia,82399855292.0,,,-3.2665481,127.1031233,https://maps.google.com/?cid=0x0:0x61fdff86e2e98502,
mall,Toko umum,Toko Mogi,"WC7X+MWJ, Waimangit, Kec. Air Buaya, Kabupaten Buru, Maluku","Kabupaten Buru, Maluku",MALUKU,,Indonesia,,,,-3.0857768,126.4497582,https://maps.google.com/?cid=0x0:0x400cc4e86d1b0b45,
mall,Pusat Perbelanjaan,Motoshop,"P3PR+W4M, Unnamed Road, Namlea, Kec. Namlea, Kabupaten Buru, Maluku","Kabupaten Buru, Maluku",MALUKU,,Indonesia,85242119912.0,,,-3.2626723,127.0902921,https://maps.google.com/?cid=0x0:0xa52e9fe9f045b4ec,
mall,Toko,RH 2 - Namlea(PT. RAHMAT LIE UTAMA),"rh 2 namlea, Namlea, Kec. Namlea, Kabupaten Buru, Maluku","Kabupaten Buru, Maluku",MALUKU,,Indonesia,82154968356.0,,,-3.2684673,127.1035294,https://maps.google.com/?cid=0x0:0x20716bfbae456dbd,
mall,Toko,JEJE ALL SHOPP Widit,"H2J9+96C, Parbulu, Kec. Waelata, Kabupaten Buru, Maluku","Kabupaten Buru, Maluku",MALUKU,,Indonesia,,,,-3.4190747,127.0180307,https://maps.google.com/?cid=0x0:0xd2d3fc7c9eb58694,
mall,Toko,MITSUKI CELLULAR,"JXGQ+MJC, Jalan Gatot Subroto, Waenetat, Kec. Waeapo, Kabupaten Buru, Maluku 97574","Jalan Gatot Subroto, Waenetat, Kec. Waeapo, Kabupaten Buru",MALUKU,97574.0,Indonesia,81341083247.0,,,-3.373299,126.9890258,https://maps.google.com/?cid=0x0:0x8a8a67b09b8f29d2,
mall,Pusat Perbelanjaan,Kios fitri,"P493+7QJ, Namlea, Kec. Namlea, Kabupaten Buru, Maluku","Kabupaten Buru, Maluku",MALUKU,,Indonesia,,,,-3.2817778,127.104387,https://maps.google.com/?cid=0x0:0x8cbe6252217f257b,
mall,Toko,Toko Cinta,"MM9W+P75, Waegeren, Kec. Waeapo, Kabupaten Buru, Maluku","Kabupaten Buru, Maluku",MALUKU,,Indonesia,81343244484.0,,,-3.3307379,126.6957216,https://maps.google.com/?cid=0x0:0x7bbf2a5d3c91863c,
mall,Toko,Toko Disel lestari alat motor,"JXMP+966, Waenetat, Kec. Waeapo, Kabupaten Buru, Maluku","Kabupaten Buru, Maluku",MALUKU,,Indonesia,85231398611.0,,,-3.3665802,126.9855093,https://maps.google.com/?cid=0x0:0x28ec261f76f72da0,
mall,Toko,Iken Diamond Keyla Shop,"P4H2+MF5, Jl. Pendidikan, Namlea, Kec. Namlea, Kabupaten Buru, Maluku","Kabupaten Buru, Maluku",MALUKU,,Indonesia,82248134318.0,,,-3.2708691,127.1012496,https://maps.google.com/?cid=0x0:0xe424bb0ff478536e,
mall,Toko Swalayan,Tk.Ida Jaya,"Harmin Mursalim SHI, Namlea, Kec. Namlea, Kabupaten Buru, Maluku","Kabupaten Buru, Maluku",MALUKU,,Indonesia,85243502901.0,,,-3.256975,127.0871154,https://maps.google.com/?cid=0x0:0xfdbef210237f75f7,
mall,Pedagang ternak,Marning jagung goreng,"JXGP+5VR, Waenetat, Kec. Waeapo, Kabupaten Buru, Maluku","Kabupaten Buru, Maluku",MALUKU,,Indonesia,81315099080.0,,,-3.3745016,126.9871261,https://maps.google.com/?cid=0x0:0x76dc5406bb44c256,
mall,Pusat Perbelanjaan,Maluku City Mall (MCM),"Jl. Jenderal Sudirman No.1, Hative Kecil, Kec. Sirimau, Kota Ambon, Maluku","Kota Ambon, Maluku",MALUKU,,Indonesia,911352871.0,,,-3.6702679,128.1981163,https://maps.google.com/?cid=0x0:0x2f29bf0afe09144e,
mall,Toko Swalayan,Ion Mart,"Jl. Dermaga, Namlea, Buru Regency, Maluku","Kabupaten Buru, Maluku",MALUKU,,Indonesia,,,,-3.260586,127.093052,https://maps.google.com/?cid=0x0:0x4ed12b24bcb1b6e6,
mall,Toko bahan makanan,Toko VIANDA,"Jl. Jenderal Ahmad Yani, Namlea, Kec. Namlea, Kabupaten Buru, Maluku","Kabupaten Buru, Maluku",MALUKU,,Indonesia,81242105001.0,,,-3.2595815,127.0952122,https://maps.google.com/?cid=0x0:0x1e1d13c3d33a3cab,
mall,Toko bahan makanan,Stockis Milagros Pilar,"P3PX+2GQ, jl. Kantor BPS, Namlea, Kec. Namlea, Kabupaten Buru, Maluku","Kabupaten Buru, Maluku",MALUKU,,Indonesia,812471612561.0,,,-3.264916,127.0988681,https://maps.google.com/?cid=0x0:0xc76b4dce24fb9769,
mall,Kios,Kios Yus,"HQ46+P5R dusun 2, Lele, Kec. Waeapo, Kabupaten Buru, Maluku","Kabupaten Buru, Maluku",MALUKU,,Indonesia,,,,-3.4431376,126.7604027,https://maps.google.com/?cid=0x0:0xe6029a6b9465b708,
mall,Toko Swalayan,Kios dilla,"P4M3+FQ4, Namlea, Kec. Namlea, Kabupaten Buru, Maluku","Kabupaten Buru, Maluku",MALUKU,,Indonesia,85771135875.0,,,-3.2663571,127.1044412,https://maps.google.com/?cid=0x0:0xc104d390320c6d,
mall,mall,Kec. Lilialy,"Kabupaten Buru, Maluku","Kabupaten Buru, Maluku",MALUKU,,Indonesia,,,,-3.1452717,126.9901544,https://maps.google.com/?cid=0x0:0xa4098f1c5783ea97,
mall,Toko,Depot Raja RO,"P4M3+96Q, Namlea, Kec. Namlea, Kabupaten Buru, Maluku","Kabupaten Buru, Maluku",MALUKU,,Indonesia,82399855292.0,,,-3.2665481,127.1031233,https://maps.google.com/?cid=0x0:0x61fdff86e2e98502,
mall,Pusat Perbelanjaan,Motoshop,"P3PR+W4M, Unnamed Road, Namlea, Kec. Namlea, Kabupaten Buru, Maluku","Kabupaten Buru, Maluku",MALUKU,,Indonesia,85242119912.0,,,-3.2626723,127.0902921,https://maps.google.com/?cid=0x0:0xa52e9fe9f045b4ec,
mall,Toko,RH 2 - Namlea(PT. RAHMAT LIE UTAMA),"rh 2 namlea, Namlea, Kec. Namlea, Kabupaten Buru, Maluku","Kabupaten Buru, Maluku",MALUKU,,Indonesia,82154968356.0,,,-3.2684673,127.1035294,https://maps.google.com/?cid=0x0:0x20716bfbae456dbd,
mall,Pusat Perbelanjaan,RH MART,"Namlea, Kec. Namlea, Kabupaten Buru, Maluku","Kabupaten Buru, Maluku",MALUKU,,Indonesia,,,,-3.2688462,127.1039438,https://maps.google.com/?cid=0x0:0x35578fd3befce5e6,
mall,Pusat Perbelanjaan,Maluku City Mall (MCM),"Jl. Jenderal Sudirman No.1, Hative Kecil, Kec. Sirimau, Kota Ambon, Maluku","Kota Ambon, Maluku",MALUKU,,Indonesia,911352871.0,,,-3.6702679,128.1981163,https://maps.google.com/?cid=0x0:0x2f29bf0afe09144e,
mall,Pusat Perbelanjaan,Kios fitri,"P493+7QJ, Namlea, Kec. Namlea, Kabupaten Buru, Maluku","Kabupaten Buru, Maluku",MALUKU,,Indonesia,,,,-3.2817778,127.104387,https://maps.google.com/?cid=0x0:0x8cbe6252217f257b,
mall,Toko,Iken Diamond Keyla Shop,"P4H2+MF5, Jl. Pendidikan, Namlea, Kec. Namlea, Kabupaten Buru, Maluku","Kabupaten Buru, Maluku",MALUKU,,Indonesia,82248134318.0,,,-3.2708691,127.1012496,https://maps.google.com/?cid=0x0:0xe424bb0ff478536e,
mall,Toko Swalayan,Ion Mart,"Jl. Dermaga, Namlea, Buru Regency, Maluku","Kabupaten Buru, Maluku",MALUKU,,Indonesia,,,,-3.260586,127.093052,https://maps.google.com/?cid=0x0:0x4ed12b24bcb1b6e6,
mall,Toko bahan makanan,Toko VIANDA,"Jl. Jenderal Ahmad Yani, Namlea, Kec. Namlea, Kabupaten Buru, Maluku","Kabupaten Buru, Maluku",MALUKU,,Indonesia,81242105001.0,,,-3.2595815,127.0952122,https://maps.google.com/?cid=0x0:0x1e1d13c3d33a3cab,
mall,Toko Perlengkapan Rumah,TOKO SENANGHATI,"Q33V+GJP, Namlea, Kec. Namlea, Kabupaten Buru, Maluku","Kabupaten Buru, Maluku",MALUKU,,Indonesia,81386068067.0,,,-3.246251,127.0941246,https://maps.google.com/?cid=0x0:0x9b60a353a67dbcfb,
mall,Toko Swalayan,Kios dilla,"P4M3+FQ4, Namlea, Kec. Namlea, Kabupaten Buru, Maluku","Kabupaten Buru, Maluku",MALUKU,,Indonesia,85771135875.0,,,-3.2663571,127.1044412,https://maps.google.com/?cid=0x0:0xc104d390320c6d,
mall,Pusat Perbelanjaan,Gramedia Maluku City Mall,"Jalan Jenderal Sudirman. 1 Tantui Ambon UP Floor Blok UG No. 2, Jl. Jenderal Sudirman, Hative Kecil, Kec. Sirimau, Kota Ambon, Maluku 97128","Jl. Jenderal Sudirman, Hative Kecil, Kec. Sirimau, Kota Ambon",MALUKU,97128.0,Indonesia,81248557414.0,,,-3.6703427,128.1983406,https://maps.google.com/?cid=0x0:0xe751f5e37fa0f5c3,
mall,Toko bahan makanan,Stockis Milagros Pilar,"P3PX+2GQ, jl. Kantor BPS, Namlea, Kec. Namlea, Kabupaten Buru, Maluku","Kabupaten Buru, Maluku",MALUKU,,Indonesia,812471612561.0,,,-3.264916,127.0988681,https://maps.google.com/?cid=0x0:0xc76b4dce24fb9769,
mall,Toko,Kios Jihan,"P39X+QG2, Namlea, Kec. Namlea, Kabupaten Buru, Maluku","Kabupaten Buru, Maluku",MALUKU,,Indonesia,82238513131.0,,,-3.2806204,127.0987523,https://maps.google.com/?cid=0x0:0x75d184515ba701be,
mall,Pusat Perbelanjaan,Kios ahmad,"P3HV+PWG, Namlea, Kec. Namlea, Kabupaten Buru, Maluku","Kabupaten Buru, Maluku",MALUKU,,Indonesia,82248401506.0,,,-3.2706771,127.0948359,https://maps.google.com/?cid=0x0:0xaa79639ec0a9d3ca,
mall,Toko Elektronik,Toko Surya Motor,"P3MW+7VG, Jl. Jenderal Ahmad Yani, Namlea, Kec. Namlea, Kabupaten Buru, Maluku","Kabupaten Buru, Maluku",MALUKU,,Indonesia,81230292099.0,,,-3.2668088,127.0972115,https://maps.google.com/?cid=0x0:0x665c3cc5eddbc6b1,
mall,Toko,Fotocopy Bintang,"P4G3+G5R, Jl. Kampus Iqra Buru, Namlea, Kec. Namlea, Kabupaten Buru, Maluku","Kabupaten Buru, Maluku",MALUKU,,Indonesia,,,,-3.2736298,127.1028934,https://maps.google.com/?cid=0x0:0x4376756a4344d0e0,
mall,Pusat Perbelanjaan,Toko Lia,"6XCX+RWG, Allang, acamami, Kabupaten Maluku Tengah, Maluku","Kabupaten Maluku Tengah, Maluku",MALUKU,,Indonesia,82398953672.0,,,-3.7779392,127.9998168,https://maps.google.com/?cid=0x0:0xc73d4222c3ba0504,
mall,Toko Pakaian,Distro D'inbox,"P4J3+5M3, Namlea, Kec. Namlea, Kabupaten Buru, Maluku","Kabupaten Buru, Maluku",MALUKU,,Indonesia,82346089276.0,,,-3.2696017,127.1041865,https://maps.google.com/?cid=0x0:0xe3e846b667d624bf,
mall,Pusat Perbelanjaan,Tangcity Mall,"Jl. Jenderal Sudirman No.1, Cikokol, Kec. Tangerang, Kota Tangerang, Banten 15117","Cikokol, Kec. Tangerang, Kota Tangerang",MALUKU,15117.0,Indonesia,2155733333.0,,,-6.1939327,106.6341002,https://maps.google.com/?cid=0x0:0xdcbd7b5bf0b8b249,
mall,Toko,Toko lea lea,"868F+639, Jl. Raya Stain, Batu Merah, Kec. Sirimau, Kota Ambon, Maluku","Kota Ambon, Maluku",MALUKU,,Indonesia,85244601212.0,,,-3.6844667,128.222745,https://maps.google.com/?cid=0x0:0x2af95f08fe1982ee,
mall,mall,Kios Ilhan~Lily,"5P5Q+Q98, Labuang, Kec. Namrole, Kabupaten Buru Selatan, Maluku","Kabupaten Buru Selatan, Maluku",MALUKU,,Indonesia,,,,-3.841047,126.738457,https://maps.google.com/?cid=0x0:0xf537d4d9221e164c,
supermarket,supermarket,Namlea,"Namlea, Kec. Namlea, Kabupaten Buru, Maluku","Kabupaten Buru, Maluku",MALUKU,,Indonesia,,,,-3.233398,127.085899,https://maps.google.com/?cid=0x0:0xe52ca57740e74df,
supermarket,Pusat Perbelanjaan,RH MART,"Namlea, Kec. Namlea, Kabupaten Buru, Maluku","Kabupaten Buru, Maluku",MALUKU,,Indonesia,,,,-3.2688462,127.1039438,https://maps.google.com/?cid=0x0:0x35578fd3befce5e6,
supermarket,Toko bahan makanan,Alfamidi Tatanggo,"BTN bukit permai, Namlea, Kec. Namlea, Kabupaten Buru, Maluku 97571","Namlea, Kec. Namlea, Kabupaten Buru",MALUKU,97571.0,Indonesia,,,,-3.2575436,127.0879608,https://maps.google.com/?cid=0x0:0xaa769af3068df90,
supermarket,Toko,Toko ANDA JAYA,"Q3GW+PM2, RT.: 04/RW.02, Lala, Kec. Namlea, Kabupaten Buru, Maluku","Kabupaten Buru, Maluku",MALUKU,,Indonesia,81240295495.0,,,-3.2232391,127.0966292,https://maps.google.com/?cid=0x0:0xe6d3c3e94523603a,
supermarket,Pasar,Toko Semangat Baru,"P3FW+3RR, Namlea, Kec. Namlea, Kabupaten Buru, Maluku","Kabupaten Buru, Maluku",MALUKU,,Indonesia,,,,-3.2772534,127.0970063,https://maps.google.com/?cid=0x0:0x60fda9f9aa6034f9,
supermarket,Toko Swalayan,Toko Gita Baru,"P3FW+FXX, Namlea, Kec. Namlea, Kabupaten Buru, Maluku","Kabupaten Buru, Maluku",MALUKU,,Indonesia,,,,-3.2762697,127.09748,https://maps.google.com/?cid=0x0:0xdc9b0c08269ca35e,
supermarket,Toko,Kios Berkah,"P4J3+8MR, Unnamed Road, Namlea, Kec. Namlea, Kabupaten Buru, Maluku","Kabupaten Buru, Maluku",MALUKU,,Indonesia,85255701616.0,,,-3.2691297,127.1041379,https://maps.google.com/?cid=0x0:0xa4ad958c7fa36616,
supermarket,Pasar,( PASAR LAMA ),"P39X+R27, Jl. Flamboyan, Namlea, Kec. Namlea, Kabupaten Buru, Maluku","Kabupaten Buru, Maluku",MALUKU,,Indonesia,,,,-3.2797784,127.097487,https://maps.google.com/?cid=0x0:0xc44538b7b274128d,
supermarket,Toko,Swalayan Green,"5P4M+8HM, Jl. Kabupaten, Elfule, Kec. Namrole, Kabupaten Buru Selatan, Maluku","Kabupaten Buru Selatan, Maluku",MALUKU,,Indonesia,,,,-3.8441514,126.7339139,https://maps.google.com/?cid=0x0:0xee9fc6a85768adb2,
supermarket,Minimarket,Indomaret dekat Pelabuhan Namlea,"P3PQ+HRG, Namlea, Kec. Namlea, Kabupaten Buru, Maluku","Kabupaten Buru, Maluku",MALUKU,,Indonesia,,,,-3.2634115,127.0895128,https://maps.google.com/?cid=0x0:0x200623284a71eaca,
supermarket,Toko bahan makanan,Alfamidi Pendidikan,"P3MX+44P, Jl. Pendidikan, Namlea, Kec. Namlea, Kabupaten Buru, Maluku","Kabupaten Buru, Maluku",MALUKU,,Indonesia,,,,-3.2695843,127.1042194,https://maps.google.com/?cid=0x0:0xb245e569b26eda14,
supermarket,Toko Perlengkapan Rumah,Toko Mely Namlea,"P4G4+M5R, Jl. Kampus Iqra Buru, Namlea, Kec. Namlea, Kabupaten Buru, Maluku","Kabupaten Buru, Maluku",MALUKU,,Indonesia,,,,-3.2732694,127.1053773,https://maps.google.com/?cid=0x0:0x79be1e3221daca6d,
supermarket,Toko bahan makanan,Toko Navie,"Jl. Bandar Angin, Namlea, Kec. Namlea, Kabupaten Buru, Maluku 97571","Namlea, Kec. Namlea, Kabupaten Buru",MALUKU,97571.0,Indonesia,82399908299.0,,,-3.2700678,127.0941916,https://maps.google.com/?cid=0x0:0x884b63458b420d04,
supermarket,Toko bahan makanan,Alfamidi Jiku Besar Namlea,"P4W5+998, Jl. Propinsi, Lala, Kec. Namlea, Kabupaten Buru, Maluku","Kabupaten Buru, Maluku",MALUKU,,Indonesia,,,,-3.2540828,127.1084482,https://maps.google.com/?cid=0x0:0x6083f31541428253,
supermarket,Toko,Toko NN,"P4C7+HFC, Namlea, Kec. Namlea, Kabupaten Buru, Maluku","Kabupaten Buru, Maluku",MALUKU,,Indonesia,82233591649.0,,,-3.278553,127.1136343,https://maps.google.com/?cid=0x0:0x200c3be881ec362e,
supermarket,Toko,City Mart,"P3JX+J48, Jl. Jenderal Ahmad Yani, Namlea, Kec. Namlea, Kabupaten Buru, Maluku","Kabupaten Buru, Maluku",MALUKU,,Indonesia,,,,-3.2684582,127.0978186,https://maps.google.com/?cid=0x0:0x44944d7152b21c2d,
supermarket,Toko bahan makanan,TOKO RANA BARU II,"Ubung, Kec. Namlea, Kabupaten Buru, Maluku 97571","Kec. Namlea, Kabupaten Buru",MALUKU,97571.0,Indonesia,,,,-3.2028141,127.0783726,https://maps.google.com/?cid=0x0:0xe969d20b7b74e451,
supermarket,Toko bahan makanan,Pasar Inpres Namlea,"Pasar Inpres, Namlea, Kec. Namlea, Kabupaten Buru, Maluku","Kabupaten Buru, Maluku",MALUKU,,Indonesia,81329472927.0,,,-3.2828191,127.0971125,https://maps.google.com/?cid=0x0:0xd1eb53eb08a04c0c,
supermarket,Toko,penjual buah,"Namlea, Kec. Namlea, Kabupaten Buru, Maluku","Kabupaten Buru, Maluku",MALUKU,,Indonesia,82174981442.0,,,-3.233398,127.085899,https://maps.google.com/?cid=0x0:0xb6324ca8618136cb,
supermarket,Toko bahan makanan,Toko tomia raya,"P3RQ+W74, Jl. BTN Bukit Permai, Namlea, Kec. Namlea, Kabupaten Buru, Maluku","Kabupaten Buru, Maluku",MALUKU,,Indonesia,,,,-3.2577267,127.0882036,https://maps.google.com/?cid=0x0:0xe39855ebd4a0d2cf,
supermarket,Toko Swalayan,Toko Andika pratama,"P4H2+W9R, Jl Pilar, Namlea, Kec. Namlea, Kabupaten Buru, Maluku","Kabupaten Buru, Maluku",MALUKU,,Indonesia,,,,-3.2701302,127.1008863,https://maps.google.com/?cid=0x0:0xf60258ac117f0b27,
supermarket,Toko Swalayan,TOKO DUA SAUDARA,"P3HX+49J, Unnamed Road, Namlea, Kec. Namlea, Kabupaten Buru, Maluku","Kabupaten Buru, Maluku",MALUKU,,Indonesia,81344000342.0,,,-3.2721714,127.0983785,https://maps.google.com/?cid=0x0:0xceab0f3dbd90cc90,
supermarket,supermarket,Kec. Air Buaya,"Kabupaten Buru, Maluku","Kabupaten Buru, Maluku",MALUKU,,Indonesia,,,,-3.0855583,126.4356478,https://maps.google.com/?cid=0x0:0xfabb1de62994f5b6,
supermarket,Toko,Kios aqsan,"V7RM+3CQ, Tj. Karang, Kec. Air Buaya, Kabupaten Buru, Maluku","Kabupaten Buru, Maluku",MALUKU,,Indonesia,,,,-3.1097936,126.283612,https://maps.google.com/?cid=0x0:0xc8677e52147bb85f,
supermarket,Toko Swalayan,Ion Mart,"Jl. Dermaga, Namlea, Buru Regency, Maluku","Kabupaten Buru, Maluku",MALUKU,,Indonesia,,,,-3.260586,127.093052,https://maps.google.com/?cid=0x0:0x4ed12b24bcb1b6e6,
supermarket,Toko,City Mart,"P3JX+J48, Jl. Jenderal Ahmad Yani, Namlea, Kec. Namlea, Kabupaten Buru, Maluku","Kabupaten Buru, Maluku",MALUKU,,Indonesia,,,,-3.2684582,127.0978186,https://maps.google.com/?cid=0x0:0x44944d7152b21c2d,
supermarket,Toko,YANMart Talagasari Cikupa,"Talagasari, Kec. Cikupa, Kabupaten Tangerang, Banten 15710","Kec. Cikupa, Kabupaten Tangerang",MALUKU,15710.0,Indonesia,2122028972.0,,,-6.2272768,106.5196286,https://maps.google.com/?cid=0x0:0xd1e4cf77e60ffe96,
supermarket,supermarket,Toko 2 Putri,"P4G5+23M, Jl. Lintas, Waipure, Air Buaya, Kabupaten Buru, Maluku","Kabupaten Buru, Maluku",MALUKU,,Indonesia,,,,-3.2749249,127.1076848,https://maps.google.com/?cid=0x0:0x5b052096175ae,
supermarket,Toko Swalayan,PASAR RAKYAT WAEGEREN,"HWMF+XCP, Waegeren, Kec. Waeapo, Kabupaten Buru, Maluku","Kabupaten Buru, Maluku",MALUKU,,Indonesia,,,,-3.4150481,126.9235766,https://maps.google.com/?cid=0x0:0xd2b991fa71ef9c4f,
supermarket,Toko Swalayan,Toko LUWES,"JXGQ+XJ2, Waenetat, Kec. Waeapo, Kabupaten Buru, Maluku","Kabupaten Buru, Maluku",MALUKU,,Indonesia,,,,-3.3726043,126.9890095,https://maps.google.com/?cid=0x0:0x4be2520916b3af42,
supermarket,supermarket,Kec. Waeapo,"Kabupaten Buru, Maluku","Kabupaten Buru, Maluku",MALUKU,,Indonesia,,,,-3.4137528,126.925378,https://maps.google.com/?cid=0x0:0xf83f0231b9a9b5fd,
supermarket,Toko Swalayan,Toko adellia unt 6,"HWPF+5MM, Waegeren, Kec. Waeapo, Kabupaten Buru, Maluku","Kabupaten Buru, Maluku",MALUKU,,Indonesia,,,,-3.4142211,126.9241427,https://maps.google.com/?cid=0x0:0x98fdcc4bc62ed378,
supermarket,Toko Swalayan,toko adellia,"JXFP+8GX, Waenetat, Kec. Waeapo, Kabupaten Buru, Maluku","Kabupaten Buru, Maluku",MALUKU,,Indonesia,82398445185.0,,,-3.3766348,126.9863443,https://maps.google.com/?cid=0x0:0x95f24423f2592fd0,
supermarket,Toko Swalayan,Alibaba Mart,"JXFQ+G57 Mako, Jalan Gatot Subroto, Waenetat, Waeapo, Buru Regency, Maluku","Kabupaten Buru, Maluku",MALUKU,,Indonesia,,,,-3.3762114,126.9879132,https://maps.google.com/?cid=0x0:0x4e92dd2b280e625c,
supermarket,Toko bahan makanan,Toko MBM,"JXFQ+PHC, Waenetat, Kec. Waeapo, Kabupaten Buru, Maluku","Kabupaten Buru, Maluku",MALUKU,,Indonesia,,,,-3.3756898,126.9888839,https://maps.google.com/?cid=0x0:0x9910771f937cd62c,
supermarket,Toko bahan makanan,Toko barokah,"HX62+9WX, Unnamed Road, Waeleman, Kec. Waelata, Kabupaten Buru, Maluku","Kabupaten Buru, Maluku",MALUKU,,Indonesia,,,,-3.4390232,126.9523487,https://maps.google.com/?cid=0x0:0xe00ccaf649aab2be,
supermarket,Toko bahan makanan,Toko Hairun,"HWRP+M23, Unnamed Road, Waenetat, Kec. Waeapo, Kabupaten Buru, Maluku","Kabupaten Buru, Maluku",MALUKU,,Indonesia,,,,-3.4083671,126.9350407,https://maps.google.com/?cid=0x0:0xc8fb348e6f76e800,
supermarket,Toko,TOKO ALL-FATIH MART,"HW5X+RGG, RT.014/RW.005, Dusun sidomulyo, Waelo, Kec. Waelata, Kabupaten Buru, Maluku","Kabupaten Buru, Maluku",MALUKU,,Indonesia,82211157715.0,,,-3.4404278,126.9488355,https://maps.google.com/?cid=0x0:0xee15b8db7d0efe77,
supermarket,Toko Kertas,Rafa Studio,"JXFQ+MF9, Waenetat, Kec. Waeapo, Kabupaten Buru, Maluku","Kabupaten Buru, Maluku",MALUKU,,Indonesia,,,,-3.3758349,126.988726,https://maps.google.com/?cid=0x0:0x93c3744257f46238,
supermarket,Pusat Perbelanjaan,TOKO H. SAHADI,"HWPG+C3G, Desa, Waegeren, Kecamatan Lolong Guba, Kabupaten Buru, Maluku","Kabupaten Buru, Maluku",MALUKU,,Indonesia,81369849624.0,,,-3.4139281,126.925201,https://maps.google.com/?cid=0x0:0x5a7bce0180fe447a,
supermarket,Toko Swalayan,Toko bude Sri,"GW8F+937, Waetina, Pulau, Kabupaten Buru, Maluku","Kabupaten Buru, Maluku",MALUKU,,Indonesia,,,,-3.4840996,126.9226593,https://maps.google.com/?cid=0x0:0xadc6113b0c4b5117,
supermarket,Minimarket,Toko Vichvin,"Unnamed Road, Waegeren, Waeapo, Buru Regency, Maluku","Kabupaten Buru, Maluku",MALUKU,,Indonesia,85244576284.0,,,-3.4161352,126.9200289,https://maps.google.com/?cid=0x0:0x7b79a93513f7e141,
supermarket,Kios,Kios Tiga Berlian,"Savanajaya, Kec. Waeapo, Kabupaten Buru, Maluku","Kabupaten Buru, Maluku",MALUKU,,Indonesia,,,,-3.2989117,127.0184174,https://maps.google.com/?cid=0x0:0xce497512e2424a37,
supermarket,Toko Swalayan,Toko Haji Mahmud,"JXFP+9J2, Waenetat, Kec. Waeapo, Kabupaten Buru, Maluku","Kabupaten Buru, Maluku",MALUKU,,Indonesia,,,,-3.3766068,126.9865074,https://maps.google.com/?cid=0x0:0x6db791bb25bcc267,
supermarket,Toko,AIF STUDIO 56,"HWRJ+8W7, Trans Buru Mako-Modaumohe, Waegeren, Kec. Waeapo, Kabupaten Buru, Maluku","Kabupaten Buru, Maluku",MALUKU,,Indonesia,82238248111.0,,,-3.4092145,126.9322914,https://maps.google.com/?cid=0x0:0x54777050466184d0,
supermarket,Kios,KIOS RIA,"Rawamangun, Kec. Waeapo, Kabupaten Buru, Maluku","Kabupaten Buru, Maluku",MALUKU,,Indonesia,,,,-3.3609819,126.985244,https://maps.google.com/?cid=0x0:0x1df568606ccea94b,
supermarket,Toko,Toko Sembako Nanda,"HWP9+52W, Unnamed Road, Waegeren, Kec. Waeapo, Kabupaten Buru, Maluku","Kabupaten Buru, Maluku",MALUKU,,Indonesia,85244573287.0,,,-3.4145101,126.9175668,https://maps.google.com/?cid=0x0:0x3f4d6a044f261ccd,
supermarket,Toko,Kios Adila Jaya,"HW5W+GQH, Unnamed Road, Grandeng, Waeapo, Buru Regency, Maluku","Kabupaten Buru, Maluku",MALUKU,,Indonesia,,,,-3.441181,126.9469982,https://maps.google.com/?cid=0x0:0x8eaaebcd18ec42b7,
supermarket,Toko bahan makanan,Toko Aulia,"MX3M+GH2, Waetele, Kec. Waeapo, Kabupaten Buru, Maluku","Kabupaten Buru, Maluku",MALUKU,,Indonesia,,,,-3.345923,126.9817273,https://maps.google.com/?cid=0x0:0xb843dbbbb85bc321,
supermarket,supermarket,Waplau,"Kabupaten Buru, Maluku","Kabupaten Buru, Maluku",MALUKU,,Indonesia,,,,-3.1224517,126.8821197,https://maps.google.com/?cid=0x0:0xa108369a69306737,
supermarket,Asosiasi/organisasi,Pasar Waplau,"VVCM+C47, Waplau, Kabupaten Buru, Maluku","Kabupaten Buru, Maluku",MALUKU,,Indonesia,,,,-3.1289677,126.8828024,https://maps.google.com/?cid=0x0:0xbee6c799325c2ac0,
supermarket,Kios,Kios A  A,"WPQM+WXP, Jl. Propinsi, Waprea, Waplau, Kabupaten Buru, Maluku","Kabupaten Buru, Maluku",MALUKU,,Indonesia,,,,-3.0602891,126.7363162,https://maps.google.com/?cid=0x0:0x47c2756836297f0f,
supermarket,Toko Swalayan,PASAR RAKYAT WAEGEREN,"HWMF+XCP, Waegeren, Kec. Waeapo, Kabupaten Buru, Maluku","Kabupaten Buru, Maluku",MALUKU,,Indonesia,,,,-3.4150481,126.9235766,https://maps.google.com/?cid=0x0:0xd2b991fa71ef9c4f,
supermarket,Toko Swalayan,Toko LUWES,"JXGQ+XJ2, Waenetat, Kec. Waeapo, Kabupaten Buru, Maluku","Kabupaten Buru, Maluku",MALUKU,,Indonesia,,,,-3.3726043,126.9890095,https://maps.google.com/?cid=0x0:0x4be2520916b3af42,
supermarket,Toko Swalayan,toko adellia,"JXFP+8GX, Waenetat, Kec. Waeapo, Kabupaten Buru, Maluku","Kabupaten Buru, Maluku",MALUKU,,Indonesia,82398445185.0,,,-3.3766348,126.9863443,https://maps.google.com/?cid=0x0:0x95f24423f2592fd0,
supermarket,Toko,TOKO ALL-FATIH MART,"HW5X+RGG, RT.014/RW.005, Dusun sidomulyo, Waelo, Kec. Waelata, Kabupaten Buru, Maluku","Kabupaten Buru, Maluku",MALUKU,,Indonesia,82211157715.0,,,-3.4404278,126.9488355,https://maps.google.com/?cid=0x0:0xee15b8db7d0efe77,
supermarket,Toko Swalayan,Toko adellia unt 6,"HWPF+5MM, Waegeren, Kec. Waeapo, Kabupaten Buru, Maluku","Kabupaten Buru, Maluku",MALUKU,,Indonesia,,,,-3.4142211,126.9241427,https://maps.google.com/?cid=0x0:0x98fdcc4bc62ed378,
supermarket,supermarket,Indomaret Raya Waplau 96,"VVFJ+4X, Waplau, Kabupaten Buru, Maluku","Kabupaten Buru, Maluku",MALUKU,,Indonesia,,,,-3.1263273,126.8823243,https://maps.google.com/?cid=0x0:0xccc564b8f47d0534,
supermarket,supermarket,Kec. Bata Bual,"Kabupaten Buru, Maluku","Kabupaten Buru, Maluku",MALUKU,,Indonesia,,,,-3.5268077,127.2494018,https://maps.google.com/?cid=0x0:0xbd920a24abdb7eed,
supermarket,Toko,TOKO ALL-FATIH MART,"HW5X+RGG, RT.014/RW.005, Dusun sidomulyo, Waelo, Kec. Waelata, Kabupaten Buru, Maluku","Kabupaten Buru, Maluku",MALUKU,,Indonesia,82211157715.0,,,-3.4404278,126.9488355,https://maps.google.com/?cid=0x0:0xee15b8db7d0efe77,
supermarket,Toko,Toko ANDA JAYA,"Q3GW+PM2, RT.: 04/RW.02, Lala, Kec. Namlea, Kabupaten Buru, Maluku","Kabupaten Buru, Maluku",MALUKU,,Indonesia,81240295495.0,,,-3.2232391,127.0966292,https://maps.google.com/?cid=0x0:0xe6d3c3e94523603a,
supermarket,Toko bahan makanan,Alfamidi Tatanggo,"BTN bukit permai, Namlea, Kec. Namlea, Kabupaten Buru, Maluku 97571","Namlea, Kec. Namlea, Kabupaten Buru",MALUKU,97571.0,Indonesia,,,,-3.2575436,127.0879608,https://maps.google.com/?cid=0x0:0xaa769af3068df90,
supermarket,Minimarket,GOTA Supermarket,"8PXR+5C6, Kel. Ohoijang Watdek, Kec. Kei Kecil, Kabupaten Maluku Tenggara, Maluku","Kabupaten Maluku Tenggara, Maluku",MALUKU,,Indonesia,,,,-5.652084,132.7410211,https://maps.google.com/?cid=0x0:0xcce642eed6fb72d5,
supermarket,Toko Perlengkapan Rumah,toko bata bual,"P3CX+93V, Jl. Flamboyan, Namlea, Kec. Namlea, Kabupaten Buru, Maluku","Kabupaten Buru, Maluku",MALUKU,,Indonesia,91321007.0,,,-3.2790186,127.0976607,https://maps.google.com/?cid=0x0:0x7dd073170585614c,
supermarket,Toko Swalayan,Toko bude Sri,"GW8F+937, Waetina, Pulau, Kabupaten Buru, Maluku","Kabupaten Buru, Maluku",MALUKU,,Indonesia,,,,-3.4840996,126.9226593,https://maps.google.com/?cid=0x0:0xadc6113b0c4b5117,
supermarket,Toko Swalayan,Dusun Wayasel,"J433+WRH, Kayeli, Kec. Waeapo, Kabupaten Buru, Maluku","Kabupaten Buru, Maluku",MALUKU,,Indonesia,,,,-3.3951797,127.1046006,https://maps.google.com/?cid=0x0:0x1bd44e5602d94486,
supermarket,Toko bahan makanan,Alfamidi Pendidikan,"P3MX+44P, Jl. Pendidikan, Namlea, Kec. Namlea, Kabupaten Buru, Maluku","Kabupaten Buru, Maluku",MALUKU,,Indonesia,,,,-3.2695843,127.1042194,https://maps.google.com/?cid=0x0:0xb245e569b26eda14,
supermarket,Toko Swalayan,Alfamidi Waenetat,"JXFP+9XF, Waenetat, Kec. Waeapo, Kabupaten Buru, Maluku","Kabupaten Buru, Maluku",MALUKU,,Indonesia,,,,-3.3765233,126.9874516,https://maps.google.com/?cid=0x0:0xfecff2e0df8c112a,
supermarket,Pusat Perbelanjaan,Hypermart Maluku City Mall,"Jalan Jend. Sudirman, Hative Kecil, Kec. Sirimau, Kota Ambon, Maluku","Kota Ambon, Maluku",MALUKU,,Indonesia,911319999.0,,,-3.6702679,128.1981163,https://maps.google.com/?cid=0x0:0xf361af34b2474744,
supermarket,Minimarket,Alfamidi,"P3GX+PMW, Namlea, Kec. Namlea, Kabupaten Buru, Maluku","Kabupaten Buru, Maluku",MALUKU,,Indonesia,,,,-3.2731328,127.0992178,https://maps.google.com/?cid=0x0:0xc562b327210e740b,
supermarket,Toko bahan makanan,Toko Mawambunga,"278V+RQ7, Olilit, Tanimbar Sel., Kab. Kepulauan Tanimbar, Maluku","Kab. Kepulauan Tanimbar, Maluku",MALUKU,,Indonesia,,,,-7.9829599,131.2944242,https://maps.google.com/?cid=0x0:0xcc3b45e351ba860c,
supermarket,Hipermarket,Hypermart Ambon City Center,"Desa, Passo, Kec. Baguala, Kota Ambon, Maluku","Kota Ambon, Maluku",MALUKU,,Indonesia,911361739.0,,,-3.6316235,128.2496246,https://maps.google.com/?cid=0x0:0xa5054eb80169380e,
supermarket,Minimarket,Planet Mart,"PX25+5HG, Jl. Binaya, Namaelo, Kec. Kota Masohi, Kabupaten Maluku Tengah, Maluku","Kabupaten Maluku Tengah, Maluku",MALUKU,,Indonesia,,,,-3.2995726,128.9589677,https://maps.google.com/?cid=0x0:0x5512bb9edc8557f9,
supermarket,Toko Swalayan,Winkel Supermarket,"96FG+323, Waiheru, Kec. Baguala, Kota Ambon, Maluku","Kota Ambon, Maluku",MALUKU,,Indonesia,9113869351.0,,,-3.6273656,128.2250609,https://maps.google.com/?cid=0x0:0xec37cd1cfdfa6412,
supermarket,Minimarket,RUNDUMA MART,"29XM+7V2, Wayo, Kec. Taliabu Bar., Pulau Taliabu, Maluku Utara","Pulau Taliabu, Maluku Utara",MALUKU,,Indonesia,,,,-1.9518652,124.3846335,https://maps.google.com/?cid=0x0:0x8d768aae5a2dc2da,
supermarket,Toko bahan makanan,AMAT JUTA,"F8VH+3PJ Waihula, Liang, Kec. Salahutu, Kabupaten Maluku Tengah, Maluku","Kabupaten Maluku Tengah, Maluku",MALUKU,,Indonesia,,,,-3.5064985,128.3282701,https://maps.google.com/?cid=0x0:0xd4d0cda71881935a,
supermarket,supermarket,SAMSINAR,"J455+WX9, Jl. Kabupaten, Kayeli, Kec. Waeapo, Kabupaten Buru, Maluku","Kabupaten Buru, Maluku",MALUKU,,Indonesia,82199897930.0,,,-3.390224,127.1099877,https://maps.google.com/?cid=0x0:0xedb9daab195e6d2e,
supermarket,supermarket,Dua Basudara,"P3GX+WGR, Namlea, Kec. Namlea, Kabupaten Buru, Maluku","Kabupaten Buru, Maluku",MALUKU,,Indonesia,81344000342.0,,,-3.2726368,127.0987534,https://maps.google.com/?cid=0x0:0x1d2d1c925a86939e,
supermarket,Pusat Perbelanjaan,TOKO H. SAHADI,"HWPG+C3G, Desa, Waegeren, Kecamatan Lolong Guba, Kabupaten Buru, Maluku","Kabupaten Buru, Maluku",MALUKU,,Indonesia,81369849624.0,,,-3.4139281,126.925201,https://maps.google.com/?cid=0x0:0x5a7bce0180fe447a,
supermarket,Minimarket,GOTA Supermarket,"8PXR+5C6, Kel. Ohoijang Watdek, Kec. Kei Kecil, Kabupaten Maluku Tenggara, Maluku","Kabupaten Maluku Tenggara, Maluku",MALUKU,,Indonesia,,,,-5.652084,132.7410211,https://maps.google.com/?cid=0x0:0xcce642eed6fb72d5,
supermarket,supermarket,Maluku,,Maluku,MALUKU,,Indonesia,,,,-3.2384616,130.1452734,https://maps.google.com/?cid=0x0:0x5e30e8db04649a51,
supermarket,supermarket,Kec. Waelata,"Kabupaten Buru, Maluku","Kabupaten Buru, Maluku",MALUKU,,Indonesia,,,,-3.4811436,126.9241917,https://maps.google.com/?cid=0x0:0xd5c06f16d8212c44,
supermarket,Toko,TOKO ALL-FATIH MART,"HW5X+RGG, RT.014/RW.005, Dusun sidomulyo, Waelo, Kec. Waelata, Kabupaten Buru, Maluku","Kabupaten Buru, Maluku",MALUKU,,Indonesia,82211157715.0,,,-3.4404278,126.9488355,https://maps.google.com/?cid=0x0:0xee15b8db7d0efe77,
supermarket,Toko bahan makanan,Toko barokah,"HX62+9WX, Unnamed Road, Waeleman, Kec. Waelata, Kabupaten Buru, Maluku","Kabupaten Buru, Maluku",MALUKU,,Indonesia,,,,-3.4390232,126.9523487,https://maps.google.com/?cid=0x0:0xe00ccaf649aab2be,
supermarket,Toko Swalayan,Toko LUWES,"JXGQ+XJ2, Waenetat, Kec. Waeapo, Kabupaten Buru, Maluku","Kabupaten Buru, Maluku",MALUKU,,Indonesia,,,,-3.3726043,126.9890095,https://maps.google.com/?cid=0x0:0x4be2520916b3af42,
supermarket,Toko Swalayan,toko adellia,"JXFP+8GX, Waenetat, Kec. Waeapo, Kabupaten Buru, Maluku","Kabupaten Buru, Maluku",MALUKU,,Indonesia,82398445185.0,,,-3.3766348,126.9863443,https://maps.google.com/?cid=0x0:0x95f24423f2592fd0,
supermarket,Toko Swalayan,PASAR RAKYAT WAEGEREN,"HWMF+XCP, Waegeren, Kec. Waeapo, Kabupaten Buru, Maluku","Kabupaten Buru, Maluku",MALUKU,,Indonesia,,,,-3.4150481,126.9235766,https://maps.google.com/?cid=0x0:0xd2b991fa71ef9c4f,
supermarket,Toko Swalayan,Toko argina,"HX74+83, Waeleman, Kec. Waelata, Kabupaten Buru, Maluku","Kabupaten Buru, Maluku",MALUKU,,Indonesia,,,,-3.4366875,126.9551875,https://maps.google.com/?cid=0x0:0xf738547e8a6b6537,
supermarket,Toko Swalayan,Toko adellia unt 6,"HWPF+5MM, Waegeren, Kec. Waeapo, Kabupaten Buru, Maluku","Kabupaten Buru, Maluku",MALUKU,,Indonesia,,,,-3.4142211,126.9241427,https://maps.google.com/?cid=0x0:0x98fdcc4bc62ed378,
supermarket,Toko bahan makanan,Toko MBM,"JXFQ+PHC, Waenetat, Kec. Waeapo, Kabupaten Buru, Maluku","Kabupaten Buru, Maluku",MALUKU,,Indonesia,,,,-3.3756898,126.9888839,https://maps.google.com/?cid=0x0:0x9910771f937cd62c,
supermarket,Toko Swalayan,Alibaba Mart,"JXFQ+G57 Mako, Jalan Gatot Subroto, Waenetat, Waeapo, Buru Regency, Maluku","Kabupaten Buru, Maluku",MALUKU,,Indonesia,,,,-3.3762114,126.9879132,https://maps.google.com/?cid=0x0:0x4e92dd2b280e625c,
supermarket,Toko,Kios Adila Jaya,"HW5W+GQH, Unnamed Road, Grandeng, Waeapo, Buru Regency, Maluku","Kabupaten Buru, Maluku",MALUKU,,Indonesia,,,,-3.441181,126.9469982,https://maps.google.com/?cid=0x0:0x8eaaebcd18ec42b7,
supermarket,Pusat Perbelanjaan,TOKO H. SAHADI,"HWPG+C3G, Desa, Waegeren, Kecamatan Lolong Guba, Kabupaten Buru, Maluku","Kabupaten Buru, Maluku",MALUKU,,Indonesia,81369849624.0,,,-3.4139281,126.925201,https://maps.google.com/?cid=0x0:0x5a7bce0180fe447a,
supermarket,Toko Kertas,Rafa Studio,"JXFQ+MF9, Waenetat, Kec. Waeapo, Kabupaten Buru, Maluku","Kabupaten Buru, Maluku",MALUKU,,Indonesia,,,,-3.3758349,126.988726,https://maps.google.com/?cid=0x0:0x93c3744257f46238,
supermarket,Toko,Jastip Jenifer Isnawati,"GX5P+QGP, Waelo, Kec. Waelata, Kabupaten Buru, Maluku","Kabupaten Buru, Maluku",MALUKU,,Indonesia,,,,-3.4905453,126.9863415,https://maps.google.com/?cid=0x0:0x3a39b43ecfe078c5,
supermarket,Toko,Toko Sinar Harapan,"JXWH+92F, Unnamed Road, Waetele, Kec. Waeapo, Kabupaten Buru, Maluku","Kabupaten Buru, Maluku",MALUKU,,Indonesia,82198953555.0,,,-3.3540703,126.9775334,https://maps.google.com/?cid=0x0:0x1e760dc6d5cd6f0c,
supermarket,Minimarket,Toko Vichvin,"Unnamed Road, Waegeren, Waeapo, Buru Regency, Maluku","Kabupaten Buru, Maluku",MALUKU,,Indonesia,85244576284.0,,,-3.4161352,126.9200289,https://maps.google.com/?cid=0x0:0x7b79a93513f7e141,
supermarket,Toko Buah Kering,Toko Buah Fara,"H2WC+G4P, Debowae, Kec. Waeapo, Kabupaten Buru, Maluku","Kabupaten Buru, Maluku",MALUKU,,Indonesia,82174981442.0,,,-3.4043268,127.0197848,https://maps.google.com/?cid=0x0:0x128d85276363d179,
supermarket,Toko Swalayan,Toko Haji Mahmud,"JXFP+9J2, Waenetat, Kec. Waeapo, Kabupaten Buru, Maluku","Kabupaten Buru, Maluku",MALUKU,,Indonesia,,,,-3.3766068,126.9865074,https://maps.google.com/?cid=0x0:0x6db791bb25bcc267,
supermarket,Toko Swalayan,Dusun Wayasel,"J433+WRH, Kayeli, Kec. Waeapo, Kabupaten Buru, Maluku","Kabupaten Buru, Maluku",MALUKU,,Indonesia,,,,-3.3951797,127.1046006,https://maps.google.com/?cid=0x0:0x1bd44e5602d94486,
supermarket,Toko bahan makanan,Toko Hairun,"HWRP+M23, Unnamed Road, Waenetat, Kec. Waeapo, Kabupaten Buru, Maluku","Kabupaten Buru, Maluku",MALUKU,,Indonesia,,,,-3.4083671,126.9350407,https://maps.google.com/?cid=0x0:0xc8fb348e6f76e800,
supermarket,Toko,Toko Sembako Nanda,"HWP9+52W, Unnamed Road, Waegeren, Kec. Waeapo, Kabupaten Buru, Maluku","Kabupaten Buru, Maluku",MALUKU,,Indonesia,85244573287.0,,,-3.4145101,126.9175668,https://maps.google.com/?cid=0x0:0x3f4d6a044f261ccd,
supermarket,supermarket,Maluku,,Maluku,MALUKU,,Indonesia,,,,-3.2384616,130.1452734,https://maps.google.com/?cid=0x0:0x5e30e8db04649a51,
supermarket,Toko,Swalayan Green,"5P4M+8HM, Jl. Kabupaten, Elfule, Kec. Namrole, Kabupaten Buru Selatan, Maluku","Kabupaten Buru Selatan, Maluku",MALUKU,,Indonesia,,,,-3.8441514,126.7339139,https://maps.google.com/?cid=0x0:0xee9fc6a85768adb2,
supermarket,Toko Swalayan,Ion Mart,"Jl. Dermaga, Namlea, Buru Regency, Maluku","Kabupaten Buru, Maluku",MALUKU,,Indonesia,,,,-3.260586,127.093052,https://maps.google.com/?cid=0x0:0x4ed12b24bcb1b6e6,
supermarket,Toko,Kios Berkah,"P4J3+8MR, Unnamed Road, Namlea, Kec. Namlea, Kabupaten Buru, Maluku","Kabupaten Buru, Maluku",MALUKU,,Indonesia,85255701616.0,,,-3.2691297,127.1041379,https://maps.google.com/?cid=0x0:0xa4ad958c7fa36616,
supermarket,Toko Swalayan,toko adellia,"JXFP+8GX, Waenetat, Kec. Waeapo, Kabupaten Buru, Maluku","Kabupaten Buru, Maluku",MALUKU,,Indonesia,82398445185.0,,,-3.3766348,126.9863443,https://maps.google.com/?cid=0x0:0x95f24423f2592fd0,
supermarket,Toko bahan makanan,Toko Niar's,"WF69+GMR, Jl. Wailola, Bula, Kec. Bula, Kabupaten Seram Bagian Timur, Maluku","Kabupaten Seram Bagian Timur, Maluku",MALUKU,,Indonesia,,,,-3.0886403,130.469127,https://maps.google.com/?cid=0x0:0xea09b41d510f6cce,
supermarket,,Toko Kayla,"WGFR+RQP, Wamlana, Kec. Fena leisela, Kabupaten Buru, Maluku","Kabupaten Buru, Maluku",MALUKU,,Indonesia,,,,-3.075367,126.5410789,https://maps.google.com/?cid=0x0:0x7c93aa2483684279,
supermarket,Minimarket,Alfamidi,"P3GX+PMW, Namlea, Kec. Namlea, Kabupaten Buru, Maluku","Kabupaten Buru, Maluku",MALUKU,,Indonesia,,,,-3.2731328,127.0992178,https://maps.google.com/?cid=0x0:0xc562b327210e740b,
supermarket,Toko bahan makanan,Alfamidi Jiku Besar Namlea,"P4W5+998, Jl. Propinsi, Lala, Kec. Namlea, Kabupaten Buru, Maluku","Kabupaten Buru, Maluku",MALUKU,,Indonesia,,,,-3.2540828,127.1084482,https://maps.google.com/?cid=0x0:0x6083f31541428253,
supermarket,Toko bahan makanan,Alfamidi Pendidikan,"P3MX+44P, Jl. Pendidikan, Namlea, Kec. Namlea, Kabupaten Buru, Maluku","Kabupaten Buru, Maluku",MALUKU,,Indonesia,,,,-3.2695843,127.1042194,https://maps.google.com/?cid=0x0:0xb245e569b26eda14,
supermarket,Toko Swalayan,Winkel Supermarket,"96FG+323, Waiheru, Kec. Baguala, Kota Ambon, Maluku","Kota Ambon, Maluku",MALUKU,,Indonesia,9113869351.0,,,-3.6273656,128.2250609,https://maps.google.com/?cid=0x0:0xec37cd1cfdfa6412,
supermarket,supermarket,Toko Farhan,"P3GX+MH5, Namlea, Kec. Namlea, Kabupaten Buru, Maluku","Kabupaten Buru, Maluku",MALUKU,,Indonesia,,,,-3.273359,127.0989775,https://maps.google.com/?cid=0x0:0x94adac4d2076aa98,
supermarket,Pusat Perbelanjaan,Hypermart Maluku City Mall,"Jalan Jend. Sudirman, Hative Kecil, Kec. Sirimau, Kota Ambon, Maluku","Kota Ambon, Maluku",MALUKU,,Indonesia,911319999.0,,,-3.6702679,128.1981163,https://maps.google.com/?cid=0x0:0xf361af34b2474744,
supermarket,Hipermarket,Hypermart Ambon City Center,"Desa, Passo, Kec. Baguala, Kota Ambon, Maluku","Kota Ambon, Maluku",MALUKU,,Indonesia,911361739.0,,,-3.6316235,128.2496246,https://maps.google.com/?cid=0x0:0xa5054eb80169380e,
supermarket,Toko bahan makanan,Fajar Frozen Food,"4, Jl. Jelambar Fajar No.83 A, RT.4/RW.6, Pejagalan, Kec. Penjaringan, Jkt Utara, Daerah Khusus Ibukota Jakarta 14440","Jl. Jelambar Fajar No.83 A, RT.4/RW.6, Pejagalan, Kec. Penjaringan, Jkt Utara",MALUKU,14440.0,Indonesia,82210479898.0,,,-6.1430525,106.7836064,https://maps.google.com/?cid=0x0:0xc2c84d8ef6d47b8d,
supermarket,Toko,Toko fajar frozen food,"Jl. Tlk. Gong Sel. (Fajar) No.12A, RT.2/RW.17, Pejagalan, Kec. Penjaringan, Jkt Utara, Daerah Khusus Ibukota Jakarta 14450","RT.2/RW.17, Pejagalan, Kec. Penjaringan, Jkt Utara",MALUKU,14450.0,Indonesia,82122476619.0,,,-6.1419264,106.7831943,https://maps.google.com/?cid=0x0:0x6e749fd799b887cd,
supermarket,Toko Swalayan,Toko LUWES,"JXGQ+XJ2, Waenetat, Kec. Waeapo, Kabupaten Buru, Maluku","Kabupaten Buru, Maluku",MALUKU,,Indonesia,,,,-3.3726043,126.9890095,https://maps.google.com/?cid=0x0:0x4be2520916b3af42,
supermarket,supermarket,Tlk. Kaiely,"Kabupaten Buru, Maluku","Kabupaten Buru, Maluku",MALUKU,,Indonesia,,,,-3.3033929,126.5661908,https://maps.google.com/?cid=0x0:0x12b5aeb27efc20e0,
supermarket,Toko,Toko Sinar Harapan,"JXWH+92F, Unnamed Road, Waetele, Kec. Waeapo, Kabupaten Buru, Maluku","Kabupaten Buru, Maluku",MALUKU,,Indonesia,82198953555.0,,,-3.3540703,126.9775334,https://maps.google.com/?cid=0x0:0x1e760dc6d5cd6f0c,
supermarket,Toko Swalayan,toko adellia,"JXFP+8GX, Waenetat, Kec. Waeapo, Kabupaten Buru, Maluku","Kabupaten Buru, Maluku",MALUKU,,Indonesia,82398445185.0,,,-3.3766348,126.9863443,https://maps.google.com/?cid=0x0:0x95f24423f2592fd0,
supermarket,Toko Swalayan,Dusun Wayasel,"J433+WRH, Kayeli, Kec. Waeapo, Kabupaten Buru, Maluku","Kabupaten Buru, Maluku",MALUKU,,Indonesia,,,,-3.3951797,127.1046006,https://maps.google.com/?cid=0x0:0x1bd44e5602d94486,
supermarket,Toko Swalayan,Ion Mart,"Jl. Dermaga, Namlea, Buru Regency, Maluku","Kabupaten Buru, Maluku",MALUKU,,Indonesia,,,,-3.260586,127.093052,https://maps.google.com/?cid=0x0:0x4ed12b24bcb1b6e6,
supermarket,Toko Swalayan,Alibaba Mart,"JXFQ+G57 Mako, Jalan Gatot Subroto, Waenetat, Waeapo, Buru Regency, Maluku","Kabupaten Buru, Maluku",MALUKU,,Indonesia,,,,-3.3762114,126.9879132,https://maps.google.com/?cid=0x0:0x4e92dd2b280e625c,
supermarket,Toko,Toko NFADILA,"H2WV+JP8, Namlea, Tlk. Kaiely, Kabupaten Buru, Maluku","Kabupaten Buru, Maluku",MALUKU,,Indonesia,,,,-3.4034579,127.0443328,https://maps.google.com/?cid=0x0:0x1475a6d100180659,
supermarket,Pusat Perbelanjaan,RH MART,"Namlea, Kec. Namlea, Kabupaten Buru, Maluku","Kabupaten Buru, Maluku",MALUKU,,Indonesia,,,,-3.2688462,127.1039438,https://maps.google.com/?cid=0x0:0x35578fd3befce5e6,
supermarket,Toko bahan makanan,Toko MBM,"JXFQ+PHC, Waenetat, Kec. Waeapo, Kabupaten Buru, Maluku","Kabupaten Buru, Maluku",MALUKU,,Indonesia,,,,-3.3756898,126.9888839,https://maps.google.com/?cid=0x0:0x9910771f937cd62c,
supermarket,Kios,KIOS RIA,"Rawamangun, Kec. Waeapo, Kabupaten Buru, Maluku","Kabupaten Buru, Maluku",MALUKU,,Indonesia,,,,-3.3609819,126.985244,https://maps.google.com/?cid=0x0:0x1df568606ccea94b,
supermarket,Toko bahan makanan,Toko tomia raya,"P3RQ+W74, Jl. BTN Bukit Permai, Namlea, Kec. Namlea, Kabupaten Buru, Maluku","Kabupaten Buru, Maluku",MALUKU,,Indonesia,,,,-3.2577267,127.0882036,https://maps.google.com/?cid=0x0:0xe39855ebd4a0d2cf,
supermarket,Toko Kertas,Rafa Studio,"JXFQ+MF9, Waenetat, Kec. Waeapo, Kabupaten Buru, Maluku","Kabupaten Buru, Maluku",MALUKU,,Indonesia,,,,-3.3758349,126.988726,https://maps.google.com/?cid=0x0:0x93c3744257f46238,
supermarket,Toko,Kios Berkah,"P4J3+8MR, Unnamed Road, Namlea, Kec. Namlea, Kabupaten Buru, Maluku","Kabupaten Buru, Maluku",MALUKU,,Indonesia,85255701616.0,,,-3.2691297,127.1041379,https://maps.google.com/?cid=0x0:0xa4ad958c7fa36616,
supermarket,Toko Buah Kering,Toko Buah Fara,"H2WC+G4P, Debowae, Kec. Waeapo, Kabupaten Buru, Maluku","Kabupaten Buru, Maluku",MALUKU,,Indonesia,82174981442.0,,,-3.4043268,127.0197848,https://maps.google.com/?cid=0x0:0x128d85276363d179,
supermarket,Toko Swalayan,Toko Haji Mahmud,"JXFP+9J2, Waenetat, Kec. Waeapo, Kabupaten Buru, Maluku","Kabupaten Buru, Maluku",MALUKU,,Indonesia,,,,-3.3766068,126.9865074,https://maps.google.com/?cid=0x0:0x6db791bb25bcc267,
supermarket,Toko bahan makanan,Alfamidi Tatanggo,"BTN bukit permai, Namlea, Kec. Namlea, Kabupaten Buru, Maluku 97571","Namlea, Kec. Namlea, Kabupaten Buru",MALUKU,97571.0,Indonesia,,,,-3.2575436,127.0879608,https://maps.google.com/?cid=0x0:0xaa769af3068df90,
supermarket,Toko Swalayan,Toko Balya,"Toko Balya, Flamboyan, RT.07/RW.02, Waenetat, Kec. Waeapo, Kabupaten Buru, Maluku","Kabupaten Buru, Maluku",MALUKU,,Indonesia,,,,-3.3660897,126.9852182,https://maps.google.com/?cid=0x0:0x2ded719904badded,
supermarket,Pusat Perbelanjaan,TOKO H. SAHADI,"HWPG+C3G, Desa, Waegeren, Kecamatan Lolong Guba, Kabupaten Buru, Maluku","Kabupaten Buru, Maluku",MALUKU,,Indonesia,81369849624.0,,,-3.4139281,126.925201,https://maps.google.com/?cid=0x0:0x5a7bce0180fe447a,
supermarket,Toko bahan makanan,Toko Aulia,"MX3M+GH2, Waetele, Kec. Waeapo, Kabupaten Buru, Maluku","Kabupaten Buru, Maluku",MALUKU,,Indonesia,,,,-3.345923,126.9817273,https://maps.google.com/?cid=0x0:0xb843dbbbb85bc321,
supermarket,Sekolah Dasar,SD NEGERI 1 TELUK KAIELY,"J465+5V4, Kayeli, Teluk Kaiely, Kabupaten Buru, Maluku","Kabupaten Buru, Maluku",MALUKU,,Indonesia,,,,-3.3896103,127.1097108,https://maps.google.com/?cid=0x0:0x753032ee35adf9b3,
supermarket,Pasar,Toko Semangat Baru,"P3FW+3RR, Namlea, Kec. Namlea, Kabupaten Buru, Maluku","Kabupaten Buru, Maluku",MALUKU,,Indonesia,,,,-3.2772534,127.0970063,https://maps.google.com/?cid=0x0:0x60fda9f9aa6034f9,
supermarket,Toko,TOKO ALL-FATIH MART,"HW5X+RGG, RT.014/RW.005, Dusun sidomulyo, Waelo, Kec. Waelata, Kabupaten Buru, Maluku","Kabupaten Buru, Maluku",MALUKU,,Indonesia,82211157715.0,,,-3.4404278,126.9488355,https://maps.google.com/?cid=0x0:0xee15b8db7d0efe77,
supermarket,Toko,City Mart,"P3JX+J48, Jl. Jenderal Ahmad Yani, Namlea, Kec. Namlea, Kabupaten Buru, Maluku","Kabupaten Buru, Maluku",MALUKU,,Indonesia,,,,-3.2684582,127.0978186,https://maps.google.com/?cid=0x0:0x44944d7152b21c2d,
supermarket,Toko Swalayan,Toko Gita Baru,"P3FW+FXX, Namlea, Kec. Namlea, Kabupaten Buru, Maluku","Kabupaten Buru, Maluku",MALUKU,,Indonesia,,,,-3.2762697,127.09748,https://maps.google.com/?cid=0x0:0xdc9b0c08269ca35e,
supermarket,Toko sembako pemerintah,MINI COPY,"R2HG+JGQ, Jikumerasa, Kec. Lilialy, Kabupaten Buru, Maluku","Kabupaten Buru, Maluku",MALUKU,,Indonesia,81336763447.0,,,-3.170918,127.0263592,https://maps.google.com/?cid=0x0:0x7c22329644bd28b8,
supermarket,Komplek perumahan,Kabupaten Namlea,"H3WV+HFM, Kayeli, Kec. Waeapo, Kabupaten Buru, Maluku","Kabupaten Buru, Maluku",MALUKU,,Indonesia,81248989941.0,,,-3.4035479,127.0936867,https://maps.google.com/?cid=0x0:0x33a2cafb3fedbdb6,
supermarket,Toko Swalayan,PASAR RAKYAT WAEGEREN,"HWMF+XCP, Waegeren, Kec. Waeapo, Kabupaten Buru, Maluku","Kabupaten Buru, Maluku",MALUKU,,Indonesia,,,,-3.4150481,126.9235766,https://maps.google.com/?cid=0x0:0xd2b991fa71ef9c4f,
supermarket,supermarket,Kec. Lilialy,"Kabupaten Buru, Maluku","Kabupaten Buru, Maluku",MALUKU,,Indonesia,,,,-3.1452717,126.9901544,https://maps.google.com/?cid=0x0:0xa4098f1c5783ea97,
supermarket,Toko sembako pemerintah,MINI COPY,"R2HG+JGQ, Jikumerasa, Kec. Lilialy, Kabupaten Buru, Maluku","Kabupaten Buru, Maluku",MALUKU,,Indonesia,81336763447.0,,,-3.170918,127.0263592,https://maps.google.com/?cid=0x0:0x7c22329644bd28b8,
supermarket,Toko Swalayan,Ion Mart,"Jl. Dermaga, Namlea, Buru Regency, Maluku","Kabupaten Buru, Maluku",MALUKU,,Indonesia,,,,-3.260586,127.093052,https://maps.google.com/?cid=0x0:0x4ed12b24bcb1b6e6,
supermarket,Toko,Toko ANDA JAYA,"Q3GW+PM2, RT.: 04/RW.02, Lala, Kec. Namlea, Kabupaten Buru, Maluku","Kabupaten Buru, Maluku",MALUKU,,Indonesia,81240295495.0,,,-3.2232391,127.0966292,https://maps.google.com/?cid=0x0:0xe6d3c3e94523603a,
supermarket,Toko bahan makanan,Alfamidi Tatanggo,"BTN bukit permai, Namlea, Kec. Namlea, Kabupaten Buru, Maluku 97571","Namlea, Kec. Namlea, Kabupaten Buru",MALUKU,97571.0,Indonesia,,,,-3.2575436,127.0879608,https://maps.google.com/?cid=0x0:0xaa769af3068df90,
supermarket,Toko sembako pemerintah,Kios delo,"R2GG+7R9, Jikumerasa, Kec. Lilialy, Kabupaten Buru, Maluku","Kabupaten Buru, Maluku",MALUKU,,Indonesia,,,,-3.1743375,127.0271094,https://maps.google.com/?cid=0x0:0x63cec9a0694804aa,
supermarket,Pusat Perbelanjaan,RH MART,"Namlea, Kec. Namlea, Kabupaten Buru, Maluku","Kabupaten Buru, Maluku",MALUKU,,Indonesia,,,,-3.2688462,127.1039438,https://maps.google.com/?cid=0x0:0x35578fd3befce5e6,
supermarket,Toko umum,Toko Putra,"Q3GW+PP5, Jl. Propinsi, Lala, Kec. Namlea, Kabupaten Buru, Maluku","Kabupaten Buru, Maluku",MALUKU,,Indonesia,82199433456.0,,,-3.2232358,127.0968502,https://maps.google.com/?cid=0x0:0xd3377e55160ce8d8,
supermarket,Pusat Perbelanjaan,TOKO SRC UNTUNG,"R2HG+55F, Jl. Propinsi, Jikumerasa, Kec. Namlea, Kabupaten Buru, Maluku","Kabupaten Buru, Maluku",MALUKU,,Indonesia,81240810410.0,,,-3.1720606,127.0254183,https://maps.google.com/?cid=0x0:0x9d7675a68ea79937,
supermarket,Toko,Kios Berkah,"P4J3+8MR, Unnamed Road, Namlea, Kec. Namlea, Kabupaten Buru, Maluku","Kabupaten Buru, Maluku",MALUKU,,Indonesia,85255701616.0,,,-3.2691297,127.1041379,https://maps.google.com/?cid=0x0:0xa4ad958c7fa36616,
supermarket,Kedai Kopi,Abdullah Jakaria jekson,"R2HG+55F, Jl. Propinsi, Jikumerasa, Kec. Namlea, Kabupaten Buru, Maluku","Kabupaten Buru, Maluku",MALUKU,,Indonesia,,,,-3.1736467,127.0394144,https://maps.google.com/?cid=0x0:0x375df862ca9d96a,
supermarket,Toko Swalayan,Toko Gita Baru,"P3FW+FXX, Namlea, Kec. Namlea, Kabupaten Buru, Maluku","Kabupaten Buru, Maluku",MALUKU,,Indonesia,,,,-3.2762697,127.09748,https://maps.google.com/?cid=0x0:0xdc9b0c08269ca35e,
supermarket,Toko bahan makanan,KIOS FEMI,"Q38P+J9R DUSUN MENA, Namlea, Kec. Namlea, Kabupaten Buru, Maluku","Kabupaten Buru, Maluku",MALUKU,,Indonesia,,,,-3.233398,127.085899,https://maps.google.com/?cid=0x0:0x3286acb6056e3200,
supermarket,Pasar,( PASAR LAMA ),"P39X+R27, Jl. Flamboyan, Namlea, Kec. Namlea, Kabupaten Buru, Maluku","Kabupaten Buru, Maluku",MALUKU,,Indonesia,,,,-3.2797784,127.097487,https://maps.google.com/?cid=0x0:0xc44538b7b274128d,
supermarket,Toko,Toko limbangan,"Unnamed Road, Namlea, Kec. Namlea, Kabupaten Buru, Maluku","Kabupaten Buru, Maluku",MALUKU,,Indonesia,91322119.0,,,-3.2609073,127.0901353,https://maps.google.com/?cid=0x0:0x29a54d305b76ea67,
supermarket,Pasar,Toko Semangat Baru,"P3FW+3RR, Namlea, Kec. Namlea, Kabupaten Buru, Maluku","Kabupaten Buru, Maluku",MALUKU,,Indonesia,,,,-3.2772534,127.0970063,https://maps.google.com/?cid=0x0:0x60fda9f9aa6034f9,
supermarket,Toko bahan makanan,Kios diva,"Q38P+J9R, Namlea, Kec. Namlea, Kabupaten Buru, Maluku","Kabupaten Buru, Maluku",MALUKU,,Indonesia,,,,-3.233398,127.085899,https://maps.google.com/?cid=0x0:0xe8882f3a43bb4bb1,
supermarket,Kios,Kios Tiga Berlian,"Savanajaya, Kec. Waeapo, Kabupaten Buru, Maluku","Kabupaten Buru, Maluku",MALUKU,,Indonesia,,,,-3.2989117,127.0184174,https://maps.google.com/?cid=0x0:0xce497512e2424a37,
supermarket,Toko,City Mart,"P3JX+J48, Jl. Jenderal Ahmad Yani, Namlea, Kec. Namlea, Kabupaten Buru, Maluku","Kabupaten Buru, Maluku",MALUKU,,Indonesia,,,,-3.2684582,127.0978186,https://maps.google.com/?cid=0x0:0x44944d7152b21c2d,
supermarket,Toko,Showroom ALSYARISKI,"P3QX+263, Pilar, Namlea, Kec. Namlea, Kabupaten Buru, Maluku","Kabupaten Buru, Maluku",MALUKU,,Indonesia,81344212597.0,,,-3.2624917,127.0980392,https://maps.google.com/?cid=0x0:0x80f338c4d8145b0,
supermarket,Toko Buah Kering,Lilisalika shop,"Jl. Raya Pd. Gede No.12 15, RT.15/RW.11, Kramat Jati, Kec. Kramat jati, Kota Jakarta Timur, Daerah Khusus Ibukota Jakarta 13830","RT.15/RW.11, Kramat Jati, Kec. Kramat jati, Kota Jakarta Timur",MALUKU,13830.0,Indonesia,89501245190.0,,,-6.2869159,106.8710642,https://maps.google.com/?cid=0x0:0x75f24068d0f82290,
supermarket,Pusat Perbelanjaan,Winkel Supermarket,"VFXR+3QM, Bula, Kec. Bula, Kabupaten Seram Bagian Timur, Maluku","Kabupaten Seram Bagian Timur, Maluku",MALUKU,,Indonesia,81240251423.0,,,-3.1022975,130.4919094,https://maps.google.com/?cid=0x0:0xcc0933f2fab5253f,
