Category,Real Category,Business Name,Address,City,State,Postal Code,Country,Phone,Latitude,Longitude,Map Link
cafe,cafe,Kec. Wasile,"Kabupaten Halmahera Timur, Maluku Utara","Kabupaten Halmahera Timur, Maluku Utara",MALUKU UTARA,,Indonesia,,1.0775041,128.133943,https://maps.google.com/?cid=0x0:0x21de040486bfe03f
cafe,Kedai Kopi,TRANS COFFE,"34JV+785, Batu Raja, Kec. Wasile, Kabupaten Halmahera Timur, Maluku Utara","Kabupaten Halmahera Timur, Maluku Utara",MALUKU UTARA,,Indonesia,,1.0806485,128.1433537,https://maps.google.com/?cid=0x0:0x6b9da33798e1cd79
cafe,Kedai Kopi,MURIA COFFE,"Batu Raja, Kec. Wasile, Kabupaten Halmahera Timur, Maluku Utara","Kabupaten Halmahera Timur, Maluku Utara",MALUKU UTARA,,Indonesia,85366652344.0,1.0845795,128.1545119,https://maps.google.com/?cid=0x0:0xfdd1c57ac03c0b24
cafe,Kedai Kopi,Warung Ampiran,"35RG+MGF, Mekar Sari, Kec. Wasile, Kabupaten Halmahera Timur, Maluku Utara","Kabupaten Halmahera Timur, Maluku Utara",MALUKU UTARA,,Indonesia,82348012205.0,1.0917105,128.176299,https://maps.google.com/?cid=0x0:0xf0b55830f475a34e
cafe,Kafe,Warung Sunda,"34JJ+F49, Batu Raja, Kec. Wasile, Kabupaten Halmahera Timur, Maluku Utara","Kabupaten Halmahera Timur, Maluku Utara",MALUKU UTARA,,Indonesia,81313834077.0,1.0815969,128.1300584,https://maps.google.com/?cid=0x0:0xbc2d1be5b2febe7b
cafe,Taman,Simpang Tiga Subaim,"447H+WQM, Jl. Trans Halmahera Tim., Subaim, Kec. Wasile, Kabupaten Halmahera Timur, Maluku Utara","Kabupaten Halmahera Timur, Maluku Utara",MALUKU UTARA,,Indonesia,,1.1148378,128.129419,https://maps.google.com/?cid=0x0:0xcbc9e8ada28a2704
cafe,Brunch,Kedai ACF,"34PJ+P4M, Jl. Trans Halmahera, Cemara Jaya, Kec. Wasile, Kabupaten Halmahera Timur, Maluku Utara","Kabupaten Halmahera Timur, Maluku Utara",MALUKU UTARA,,Indonesia,81279889664.0,1.0868454,128.1302971,https://maps.google.com/?cid=0x0:0x7069316bcfff5cbd
cafe,Kedai Kopi,Angkringan Yunizda N.S,"35RG+J8X, Mekar Sari, Kec. Wasile, Kabupaten Halmahera Timur, Maluku Utara","Kabupaten Halmahera Timur, Maluku Utara",MALUKU UTARA,,Indonesia,,1.0916042,128.1758526,https://maps.google.com/?cid=0x0:0x5976fb1cf4f65006
cafe,Kedai Kopi,KEDAI LARISO,"35VP+W6M, Mekar Sari, Kec. Wasile, Kabupaten Halmahera Timur, Maluku Utara","Kabupaten Halmahera Timur, Maluku Utara",MALUKU UTARA,,Indonesia,82311011546.0,1.0948349,128.1855493,https://maps.google.com/?cid=0x0:0x44e704f95e807b09
cafe,Kedai Kopi,Kedai Hijrah,"Bumi Restu, Kec. Wasile, Kabupaten Halmahera Timur, Maluku Utara","Kabupaten Halmahera Timur, Maluku Utara",MALUKU UTARA,,Indonesia,82220502060.0,1.0868853,128.1602084,https://maps.google.com/?cid=0x0:0xda9a5a197649d293
cafe,Indonesia,Afiqa Club,"SP 2 b, Batu Raja, Kec. Wasile, Kabupaten Halmahera Timur, Maluku Utara","Kabupaten Halmahera Timur, Maluku Utara",MALUKU UTARA,,Indonesia,81347474743.0,1.0782006,128.1333683,https://maps.google.com/?cid=0x0:0x868bf7be9d819207
cafe,Makanan Kecil,Warung Makan Mbak Yem,"34VH+68Q, Cemara Jaya, Kec. Wasile, Kabupaten Halmahera Timur, Maluku Utara","Kabupaten Halmahera Timur, Maluku Utara",MALUKU UTARA,,Indonesia,82187041733.0,1.0930975,128.1283592,https://maps.google.com/?cid=0x0:0x4889d1caea1a12e7
cafe,Kedai Kopi,WARUNG KOPI,"4697+WV, Ake Daga, Kec. Wasile Tim., Kabupaten Halmahera Timur, Maluku Utara","Kabupaten Halmahera Timur, Maluku Utara",MALUKU UTARA,,Indonesia,,1.1198121,128.2146196,https://maps.google.com/?cid=0x0:0xddfe209abcb6dae9
cafe,Hotel,BAROKAH PENGINAPAN  RUMAH MAKAN,"35WQ+PJW, Daka Ino, Kec. Wasile Tim., Kabupaten Halmahera Timur, Maluku Utara","Kabupaten Halmahera Timur, Maluku Utara",MALUKU UTARA,,Indonesia,,1.0968536,128.1890672,https://maps.google.com/?cid=0x0:0x290326e4c7e1023e
cafe,Kedai Kopi,Pojok Coffe,"Maba, Jl. 40, Soa Gimalaha, Kec. Kota Maba, Kabupaten Halmahera Timur, Maluku Utara","Kabupaten Halmahera Timur, Maluku Utara",MALUKU UTARA,,Indonesia,82260459321.0,0.6848771,128.2802353,https://maps.google.com/?cid=0x0:0x65e473727075d315
cafe,cafe,Maba,"Maba Sangaji, Kec. Kota Maba, Kabupaten Halmahera Timur, Maluku Utara","Kabupaten Halmahera Timur, Maluku Utara",MALUKU UTARA,,Indonesia,,0.689218,128.277206,https://maps.google.com/?cid=0x0:0xadf03d8fc22db37a
cafe,Hotel,Cafe Mab@Net  Penginapan Marfa,"M7MP+VV4, Soa Gimalaha, Kec. Kota Maba, Kabupaten Halmahera Timur, Maluku Utara","Kabupaten Halmahera Timur, Maluku Utara",MALUKU UTARA,,Indonesia,85299999493.0,0.6846437,128.28719,https://maps.google.com/?cid=0x0:0x162f15d6d7fbbadc
cafe,Kafe,Shansisters Coffee,"V7HV+XJJ, Unnamed Road, Sailal, Kec. Maba, Kabupaten Halmahera Timur, Maluku Utara","Kabupaten Halmahera Timur, Maluku Utara",MALUKU UTARA,,Indonesia,82290058006.0,0.87996,128.2940155,https://maps.google.com/?cid=0x0:0x5c545f6f76f9e83b
cafe,Restoran,Garage.Coffee,"Jl. Iyantoa RT/RW 001, 001, Sailal, Kec. Maba, Kabupaten Halmahera Timur, Maluku Utara","Kabupaten Halmahera Timur, Maluku Utara",MALUKU UTARA,,Indonesia,85340031999.0,0.8801648,128.2951792,https://maps.google.com/?cid=0x0:0x9cf91ef80cd4283f
cafe,Kedai Kopi,Cafe D'Thaz,"R6FR+X37, Soa Laipoh, Kec. Kota Maba, Kabupaten Halmahera Timur, Maluku Utara","Kabupaten Halmahera Timur, Maluku Utara",MALUKU UTARA,,Indonesia,,0.824794,128.2394308,https://maps.google.com/?cid=0x0:0xa90c6f8574876522
cafe,Kedai Kopi,Point Coffee,"Buli - Maba, Buli, Kec. Maba, Kabupaten Halmahera Timur, Maluku Utara 97862","Buli, Kec. Maba, Kabupaten Halmahera Timur",MALUKU UTARA,97862.0,Indonesia,1500280.0,0.8835066,128.2955305,https://maps.google.com/?cid=0x0:0x1af33515ad8d9558
cafe,Bakso,Marsawa Coffee dan Resto,"R6CR+GM2, Soa Sangaji, Kec. Kota Maba, Kabupaten Halmahera Timur, Maluku Utara","Kabupaten Halmahera Timur, Maluku Utara",MALUKU UTARA,,Indonesia,82214516528.0,0.8212606,128.2416349,https://maps.google.com/?cid=0x0:0x88acde884b8e9fbf
cafe,Kafe,Fain Room,"J7CF+QMP, Soa Gimalaha, Kec. Kota Maba, Kabupaten Halmahera Timur, Maluku Utara","Kabupaten Halmahera Timur, Maluku Utara",MALUKU UTARA,,Indonesia,,0.6219589,128.2742016,https://maps.google.com/?cid=0x0:0xb5b0a2c0243aa712
cafe,Bar,Kedai Walespopo Buli,"V7MW+P8V, Unnamed Rd, Buli, Kec. Maba, Kabupaten Halmahera Timur, Maluku Utara","Kabupaten Halmahera Timur, Maluku Utara",MALUKU UTARA,,Indonesia,,0.8843626,128.2958035,https://maps.google.com/?cid=0x0:0xe8463cffbfe947cf
cafe,Minimarket,Alfamidi Maba Soagimalaha,"M7WR+6Q7, Soa Gimalaha, Kec. Kota Maba, Kabupaten Halmahera Timur, Maluku Utara","Kabupaten Halmahera Timur, Maluku Utara",MALUKU UTARA,,Indonesia,82125319681.0,0.6950721,128.2924665,https://maps.google.com/?cid=0x0:0x2673313756be292
cafe,Restoran,Twenty kafe,"Wayafli, Kec. Maba, Kabupaten Halmahera Timur, Maluku Utara 97862","Kec. Maba, Kabupaten Halmahera Timur",MALUKU UTARA,97862.0,Indonesia,81111111000.0,0.8739069,128.2769668,https://maps.google.com/?cid=0x0:0xa35a72993da72dea
cafe,Dapur Umum,Warung coto maba sangaji,"M7QG+MVP, Maba Sangaji, Kec. Kota Maba, Kabupaten Halmahera Timur, Maluku Utara","Kabupaten Halmahera Timur, Maluku Utara",MALUKU UTARA,,Indonesia,,0.689218,128.277206,https://maps.google.com/?cid=0x0:0x863ff7f85584fefd
cafe,Kedai Kopi,Warung mabas,"Jl. H. Amil No.12 1, RT.2/RW.3, Pejaten Bar., Ps. Minggu, Kota Jakarta Selatan, Daerah Khusus Ibukota Jakarta 12510","RT.2/RW.3, Pejaten Bar., Ps. Minggu, Kota Jakarta Selatan",MALUKU UTARA,12510.0,Indonesia,8558794847.0,-6.2735665,106.8375331,https://maps.google.com/?cid=0x0:0x7a7424e94ca34702
cafe,Kedai Kopi,Pasir putih coffee,"JCJH+R95, Gotowasi, Kec. Maba Sel., Kabupaten Halmahera Timur, Maluku Utara","Kabupaten Halmahera Timur, Maluku Utara",MALUKU UTARA,,Indonesia,,0.6331146,128.4287878,https://maps.google.com/?cid=0x0:0x33c07e5c7a81d92b
cafe,Kedai Kopi,Pojok Coffe,"Maba, Jl. 40, Soa Gimalaha, Kec. Kota Maba, Kabupaten Halmahera Timur, Maluku Utara","Kabupaten Halmahera Timur, Maluku Utara",MALUKU UTARA,,Indonesia,82260459321.0,0.6848771,128.2802353,https://maps.google.com/?cid=0x0:0x65e473727075d315
cafe,cafe,Kec. Wasile Sel.,"Kabupaten Halmahera Timur, Maluku Utara","Kabupaten Halmahera Timur, Maluku Utara",MALUKU UTARA,,Indonesia,,0.8641952,128.0208151,https://maps.google.com/?cid=0x0:0x476106d8340eeedb
cafe,Kedai Kopi,TRANS COFFE,"34JV+785, Batu Raja, Kec. Wasile, Kabupaten Halmahera Timur, Maluku Utara","Kabupaten Halmahera Timur, Maluku Utara",MALUKU UTARA,,Indonesia,,1.0806485,128.1433537,https://maps.google.com/?cid=0x0:0x6b9da33798e1cd79
cafe,Taman,Simpang Tiga Subaim,"447H+WQM, Jl. Trans Halmahera Tim., Subaim, Kec. Wasile, Kabupaten Halmahera Timur, Maluku Utara","Kabupaten Halmahera Timur, Maluku Utara",MALUKU UTARA,,Indonesia,,1.1148378,128.129419,https://maps.google.com/?cid=0x0:0xcbc9e8ada28a2704
cafe,Kafe,A'FREZTO CAFE,"34MX+5PF, Jl. Trans Hal-Tim, Batu Raja, Kec. Wasile, Kabupaten Halmahera Timur, Maluku Utara","Kabupaten Halmahera Timur, Maluku Utara",MALUKU UTARA,,Indonesia,82292680606.0,1.0829477,128.1492942,https://maps.google.com/?cid=0x0:0x914e903987e3ea3f
cafe,Kedai Kopi,MURIA COFFE,"Batu Raja, Kec. Wasile, Kabupaten Halmahera Timur, Maluku Utara","Kabupaten Halmahera Timur, Maluku Utara",MALUKU UTARA,,Indonesia,85366652344.0,1.0845795,128.1545119,https://maps.google.com/?cid=0x0:0xfdd1c57ac03c0b24
cafe,Kafe,Warung Sunda,"34JJ+F49, Batu Raja, Kec. Wasile, Kabupaten Halmahera Timur, Maluku Utara","Kabupaten Halmahera Timur, Maluku Utara",MALUKU UTARA,,Indonesia,81313834077.0,1.0815969,128.1300584,https://maps.google.com/?cid=0x0:0xbc2d1be5b2febe7b
cafe,Makanan Kecil,Warung Makan Mbak Yem,"34VH+68Q, Cemara Jaya, Kec. Wasile, Kabupaten Halmahera Timur, Maluku Utara","Kabupaten Halmahera Timur, Maluku Utara",MALUKU UTARA,,Indonesia,82187041733.0,1.0930975,128.1283592,https://maps.google.com/?cid=0x0:0x4889d1caea1a12e7
cafe,Indonesia,Afiqa Club,"SP 2 b, Batu Raja, Kec. Wasile, Kabupaten Halmahera Timur, Maluku Utara","Kabupaten Halmahera Timur, Maluku Utara",MALUKU UTARA,,Indonesia,81347474743.0,1.0782006,128.1333683,https://maps.google.com/?cid=0x0:0x868bf7be9d819207
cafe,Toko Perlengkapan Rumah,Home Ngemil,"RR3P+GRG, Nusa Jaya, Kec. Wasile Sel., Kabupaten Halmahera Timur, Maluku Utara","Kabupaten Halmahera Timur, Maluku Utara",MALUKU UTARA,,Indonesia,,0.8038036,127.837076,https://maps.google.com/?cid=0x0:0x3cc414195c809ff7
cafe,Nasi,Warung Blessing KOKOSea,"Tetewang, Kec. Kao Tlk., Kabupaten Halmahera Utara, Maluku Utara","Kabupaten Halmahera Utara, Maluku Utara",MALUKU UTARA,,Indonesia,82298186876.0,0.8963378,127.6509974,https://maps.google.com/?cid=0x0:0x34e4da34af857506
cafe,Jawa Timur,ChoffeeShop Binagara,"QR88+7HC, Binagara, Kec. Wasile Sel., Kabupaten Halmahera Timur, Maluku Utara","Kabupaten Halmahera Timur, Maluku Utara",MALUKU UTARA,,Indonesia,82395205367.0,0.7657131,127.8164051,https://maps.google.com/?cid=0x0:0x31087e4005ccabb5
cafe,Restoran,Garage.Coffee,"Jl. Iyantoa RT/RW 001, 001, Sailal, Kec. Maba, Kabupaten Halmahera Timur, Maluku Utara","Kabupaten Halmahera Timur, Maluku Utara",MALUKU UTARA,,Indonesia,85340031999.0,0.8801648,128.2951792,https://maps.google.com/?cid=0x0:0x9cf91ef80cd4283f
cafe,Kedai Kopi,KEDAI LARISO,"35VP+W6M, Mekar Sari, Kec. Wasile, Kabupaten Halmahera Timur, Maluku Utara","Kabupaten Halmahera Timur, Maluku Utara",MALUKU UTARA,,Indonesia,82311011546.0,1.0948349,128.1855493,https://maps.google.com/?cid=0x0:0x44e704f95e807b09
cafe,Kedai Kopi,Emejea cafe,"4RWC+2J7, Unnamed Road, Tahane, Kec. Malifut, Kabupaten Halmahera Utara, Maluku Utara","Kabupaten Halmahera Utara, Maluku Utara",MALUKU UTARA,,Indonesia,81298724100.0,1.1450413,127.8215568,https://maps.google.com/?cid=0x0:0x60d5f55437d5e2d4
cafe,Kedai Kopi,MURIA COFFE,"Batu Raja, Kec. Wasile, Kabupaten Halmahera Timur, Maluku Utara","Kabupaten Halmahera Timur, Maluku Utara",MALUKU UTARA,,Indonesia,85366652344.0,1.0845795,128.1545119,https://maps.google.com/?cid=0x0:0xfdd1c57ac03c0b24
cafe,cafe,Kec. Wasile Tengah,"Kabupaten Halmahera Timur, Maluku Utara","Kabupaten Halmahera Timur, Maluku Utara",MALUKU UTARA,,Indonesia,,1.2482149,128.1175021,https://maps.google.com/?cid=0x0:0xab5a8dcd2bdeb346
cafe,Bakso,Warung Bakso Pak Kumis,"Kakaraino, Kec. Wasile Tengah, Kabupaten Halmahera Timur, Maluku Utara","Kabupaten Halmahera Timur, Maluku Utara",MALUKU UTARA,,Indonesia,81340719911.0,1.3121235,128.4849923,https://maps.google.com/?cid=0x0:0x512611e4b71337ee
cafe,cafe,Coffee Holic Liga Bintang,"8F6M+VX2, Kakaraino, Kec. Wasile Tengah, Kabupaten Halmahera Timur, Maluku Utara","Kabupaten Halmahera Timur, Maluku Utara",MALUKU UTARA,,Indonesia,,1.3121285,128.4848907,https://maps.google.com/?cid=0x0:0x9ddb3e63c9fad5ed
cafe,cafe,BATAYA BEACH,"84GV+49, Kakaraino, Kec. Wasile Tengah, Kabupaten Halmahera Timur, Maluku Utara","Kabupaten Halmahera Timur, Maluku Utara",MALUKU UTARA,,Indonesia,,1.325372,128.143449,https://maps.google.com/?cid=0x0:0x74aa39c347bc228f
cafe,cafe,Kec. Wasile Utara,"Kabupaten Halmahera Timur, Maluku Utara","Kabupaten Halmahera Timur, Maluku Utara",MALUKU UTARA,,Indonesia,,1.4649455,128.3488444,https://maps.google.com/?cid=0x0:0x3c7417c6f2357f8e
cafe,Kedai Kopi,Warkop Babe,"GGWR+38X, Bololo, Kec. Wasile Utara, Kabupaten Halmahera Timur, Maluku Utara","Kabupaten Halmahera Timur, Maluku Utara",MALUKU UTARA,,Indonesia,,1.5452321,128.5408545,https://maps.google.com/?cid=0x0:0x4d6c271d2e64afef
cafe,Kafe,PREDATOR Carwash  Cafe,"M2Q6+X8H, Lina Ino, Kec. Tobelo Tengah, Kabupaten Halmahera Utara, Maluku Utara","Kabupaten Halmahera Utara, Maluku Utara",MALUKU UTARA,,Indonesia,81399433332.0,1.6901403,128.0107795,https://maps.google.com/?cid=0x0:0xef0393b9dc3f1307
cafe,Bakso,Warung Bakso Pak Kumis,"Kakaraino, Kec. Wasile Tengah, Kabupaten Halmahera Timur, Maluku Utara","Kabupaten Halmahera Timur, Maluku Utara",MALUKU UTARA,,Indonesia,81340719911.0,1.3121235,128.4849923,https://maps.google.com/?cid=0x0:0x512611e4b71337ee
cafe,Kedai Kopi,WARUNG KOPI,"4697+WV, Ake Daga, Kec. Wasile Tim., Kabupaten Halmahera Timur, Maluku Utara","Kabupaten Halmahera Timur, Maluku Utara",MALUKU UTARA,,Indonesia,,1.1198121,128.2146196,https://maps.google.com/?cid=0x0:0xddfe209abcb6dae9
cafe,cafe,Kec. Wasile Tim.,"Kabupaten Halmahera Timur, Maluku Utara","Kabupaten Halmahera Timur, Maluku Utara",MALUKU UTARA,,Indonesia,,1.1252456,128.206102,https://maps.google.com/?cid=0x0:0xc82c1b2c21ca079e
cafe,Kedai Kopi,TRANS COFFE,"34JV+785, Batu Raja, Kec. Wasile, Kabupaten Halmahera Timur, Maluku Utara","Kabupaten Halmahera Timur, Maluku Utara",MALUKU UTARA,,Indonesia,,1.0806485,128.1433537,https://maps.google.com/?cid=0x0:0x6b9da33798e1cd79
cafe,Kedai Kopi,Warung Ampiran,"35RG+MGF, Mekar Sari, Kec. Wasile, Kabupaten Halmahera Timur, Maluku Utara","Kabupaten Halmahera Timur, Maluku Utara",MALUKU UTARA,,Indonesia,82348012205.0,1.0917105,128.176299,https://maps.google.com/?cid=0x0:0xf0b55830f475a34e
cafe,Kedai Kopi,KEDAI LARISO,"35VP+W6M, Mekar Sari, Kec. Wasile, Kabupaten Halmahera Timur, Maluku Utara","Kabupaten Halmahera Timur, Maluku Utara",MALUKU UTARA,,Indonesia,82311011546.0,1.0948349,128.1855493,https://maps.google.com/?cid=0x0:0x44e704f95e807b09
cafe,Kafe,A'FREZTO CAFE,"34MX+5PF, Jl. Trans Hal-Tim, Batu Raja, Kec. Wasile, Kabupaten Halmahera Timur, Maluku Utara","Kabupaten Halmahera Timur, Maluku Utara",MALUKU UTARA,,Indonesia,82292680606.0,1.0829477,128.1492942,https://maps.google.com/?cid=0x0:0x914e903987e3ea3f
cafe,Kedai Kopi,WARUNG KOPI,"4697+WV, Ake Daga, Kec. Wasile Tim., Kabupaten Halmahera Timur, Maluku Utara","Kabupaten Halmahera Timur, Maluku Utara",MALUKU UTARA,,Indonesia,,1.1198121,128.2146196,https://maps.google.com/?cid=0x0:0xddfe209abcb6dae9
cafe,Kedai Kopi,Angkringan Yunizda N.S,"35RG+J8X, Mekar Sari, Kec. Wasile, Kabupaten Halmahera Timur, Maluku Utara","Kabupaten Halmahera Timur, Maluku Utara",MALUKU UTARA,,Indonesia,,1.0916042,128.1758526,https://maps.google.com/?cid=0x0:0x5976fb1cf4f65006
cafe,Brunch,Kedai ACF,"34PJ+P4M, Jl. Trans Halmahera, Cemara Jaya, Kec. Wasile, Kabupaten Halmahera Timur, Maluku Utara","Kabupaten Halmahera Timur, Maluku Utara",MALUKU UTARA,,Indonesia,81279889664.0,1.0868454,128.1302971,https://maps.google.com/?cid=0x0:0x7069316bcfff5cbd
cafe,Taman,Simpang Tiga Subaim,"447H+WQM, Jl. Trans Halmahera Tim., Subaim, Kec. Wasile, Kabupaten Halmahera Timur, Maluku Utara","Kabupaten Halmahera Timur, Maluku Utara",MALUKU UTARA,,Indonesia,,1.1148378,128.129419,https://maps.google.com/?cid=0x0:0xcbc9e8ada28a2704
cafe,Hotel,BAROKAH PENGINAPAN  RUMAH MAKAN,"35WQ+PJW, Daka Ino, Kec. Wasile Tim., Kabupaten Halmahera Timur, Maluku Utara","Kabupaten Halmahera Timur, Maluku Utara",MALUKU UTARA,,Indonesia,,1.0968536,128.1890672,https://maps.google.com/?cid=0x0:0x290326e4c7e1023e
cafe,Kafe,Warung Sunda,"34JJ+F49, Batu Raja, Kec. Wasile, Kabupaten Halmahera Timur, Maluku Utara","Kabupaten Halmahera Timur, Maluku Utara",MALUKU UTARA,,Indonesia,81313834077.0,1.0815969,128.1300584,https://maps.google.com/?cid=0x0:0xbc2d1be5b2febe7b
cafe,Restoran,Dapur seblak barokah,"46C3+7V2, Sidomulyo, Kec. Wasile Tim., Kabupaten Halmahera Timur, Maluku Utara","Kabupaten Halmahera Timur, Maluku Utara",MALUKU UTARA,,Indonesia,,1.1206375,128.2046406,https://maps.google.com/?cid=0x0:0x49916ef07a769f0e
cafe,Kafe,Loka East caffe,"46V8+R85, Toboino, Kec. Wasile Tim., Kabupaten Halmahera Timur, Maluku Utara","Kabupaten Halmahera Timur, Maluku Utara",MALUKU UTARA,,Indonesia,,1.1446233,128.2158569,https://maps.google.com/?cid=0x0:0x5f74d12ebe2d3a49
cafe,Kedai Kopi,Kedai Hijrah,"Bumi Restu, Kec. Wasile, Kabupaten Halmahera Timur, Maluku Utara","Kabupaten Halmahera Timur, Maluku Utara",MALUKU UTARA,,Indonesia,82220502060.0,1.0868853,128.1602084,https://maps.google.com/?cid=0x0:0xda9a5a197649d293
cafe,cafe,Kec. Maba Tengah,"Kabupaten Halmahera Timur, Maluku Utara","Kabupaten Halmahera Timur, Maluku Utara",MALUKU UTARA,,Indonesia,,0.9790308,128.4735869,https://maps.google.com/?cid=0x0:0xaa0e36e52fc413d2
cafe,Kedai Kopi,MURIA COFFE,"Batu Raja, Kec. Wasile, Kabupaten Halmahera Timur, Maluku Utara","Kabupaten Halmahera Timur, Maluku Utara",MALUKU UTARA,,Indonesia,85366652344.0,1.0845795,128.1545119,https://maps.google.com/?cid=0x0:0xfdd1c57ac03c0b24
cafe,Restoran,Garage.Coffee,"Jl. Iyantoa RT/RW 001, 001, Sailal, Kec. Maba, Kabupaten Halmahera Timur, Maluku Utara","Kabupaten Halmahera Timur, Maluku Utara",MALUKU UTARA,,Indonesia,85340031999.0,0.8801648,128.2951792,https://maps.google.com/?cid=0x0:0x9cf91ef80cd4283f
cafe,Brunch,kedai syamsurya,"38P8+7XW, Geltoli, Kec. Maba, Kabupaten Halmahera Timur, Maluku Utara","Kabupaten Halmahera Timur, Maluku Utara",MALUKU UTARA,,Indonesia,82154515352.0,1.0857435,128.3174415,https://maps.google.com/?cid=0x0:0xaee812794c5cc79
cafe,Kedai Kopi,Cafe D'Thaz,"R6FR+X37, Soa Laipoh, Kec. Kota Maba, Kabupaten Halmahera Timur, Maluku Utara","Kabupaten Halmahera Timur, Maluku Utara",MALUKU UTARA,,Indonesia,,0.824794,128.2394308,https://maps.google.com/?cid=0x0:0xa90c6f8574876522
cafe,Kedai Kopi,Warung Ampiran,"35RG+MGF, Mekar Sari, Kec. Wasile, Kabupaten Halmahera Timur, Maluku Utara","Kabupaten Halmahera Timur, Maluku Utara",MALUKU UTARA,,Indonesia,82348012205.0,1.0917105,128.176299,https://maps.google.com/?cid=0x0:0xf0b55830f475a34e
cafe,Layanan Transportasi,TUGU YAWANLI,"XGC9+P7F, Jln.sekolah SDN, Wayamli, Kec. Maba Tengah, Kabupaten Halmahera Timur, Maluku Utara","Kabupaten Halmahera Timur, Maluku Utara",MALUKU UTARA,,Indonesia,,0.9718099,128.5181593,https://maps.google.com/?cid=0x0:0x7455970eeec40ece
cafe,Kedai Kopi,Acrual Coffee,"Jalan perumahan DPRD, Belakang RSUD, Kec. Kota Maba, Kabupaten Halmahera Timur, Maluku Utara 97862","Belakang RSUD, Kec. Kota Maba, Kabupaten Halmahera Timur",MALUKU UTARA,97862.0,Indonesia,81298830190.0,0.6855788,128.2940999,https://maps.google.com/?cid=0x0:0xc9f1240dd4753844
cafe,Kafe,A'FREZTO CAFE,"34MX+5PF, Jl. Trans Hal-Tim, Batu Raja, Kec. Wasile, Kabupaten Halmahera Timur, Maluku Utara","Kabupaten Halmahera Timur, Maluku Utara",MALUKU UTARA,,Indonesia,82292680606.0,1.0829477,128.1492942,https://maps.google.com/?cid=0x0:0x914e903987e3ea3f
cafe,Kedai Kopi,Point Coffee,"Buli - Maba, Buli, Kec. Maba, Kabupaten Halmahera Timur, Maluku Utara 97862","Buli, Kec. Maba, Kabupaten Halmahera Timur",MALUKU UTARA,97862.0,Indonesia,1500280.0,0.8835066,128.2955305,https://maps.google.com/?cid=0x0:0x1af33515ad8d9558
cafe,Kedai Kopi,TRANS COFFE,"34JV+785, Batu Raja, Kec. Wasile, Kabupaten Halmahera Timur, Maluku Utara","Kabupaten Halmahera Timur, Maluku Utara",MALUKU UTARA,,Indonesia,,1.0806485,128.1433537,https://maps.google.com/?cid=0x0:0x6b9da33798e1cd79
cafe,Bakso,Marsawa Coffee dan Resto,"R6CR+GM2, Soa Sangaji, Kec. Kota Maba, Kabupaten Halmahera Timur, Maluku Utara","Kabupaten Halmahera Timur, Maluku Utara",MALUKU UTARA,,Indonesia,82214516528.0,0.8212606,128.2416349,https://maps.google.com/?cid=0x0:0x88acde884b8e9fbf
cafe,Taman,Simpang Tiga Subaim,"447H+WQM, Jl. Trans Halmahera Tim., Subaim, Kec. Wasile, Kabupaten Halmahera Timur, Maluku Utara","Kabupaten Halmahera Timur, Maluku Utara",MALUKU UTARA,,Indonesia,,1.1148378,128.129419,https://maps.google.com/?cid=0x0:0xcbc9e8ada28a2704
cafe,Bar,Kedai Walespopo Buli,"V7MW+P8V, Unnamed Rd, Buli, Kec. Maba, Kabupaten Halmahera Timur, Maluku Utara","Kabupaten Halmahera Timur, Maluku Utara",MALUKU UTARA,,Indonesia,,0.8843626,128.2958035,https://maps.google.com/?cid=0x0:0xe8463cffbfe947cf
cafe,Kedai Kopi,Pojok Coffe,"Maba, Jl. 40, Soa Gimalaha, Kec. Kota Maba, Kabupaten Halmahera Timur, Maluku Utara","Kabupaten Halmahera Timur, Maluku Utara",MALUKU UTARA,,Indonesia,82260459321.0,0.6848771,128.2802353,https://maps.google.com/?cid=0x0:0x65e473727075d315
cafe,cafe,Kec. Maba Utara,"Kabupaten Halmahera Timur, Maluku Utara","Kabupaten Halmahera Timur, Maluku Utara",MALUKU UTARA,,Indonesia,,1.3822173,128.7506632,https://maps.google.com/?cid=0x0:0x65fb9a232e52ab67
cafe,Restoran,Garage.Coffee,"Jl. Iyantoa RT/RW 001, 001, Sailal, Kec. Maba, Kabupaten Halmahera Timur, Maluku Utara","Kabupaten Halmahera Timur, Maluku Utara",MALUKU UTARA,,Indonesia,85340031999.0,0.8801648,128.2951792,https://maps.google.com/?cid=0x0:0x9cf91ef80cd4283f
cafe,Hotel,Cafe Mab@Net  Penginapan Marfa,"M7MP+VV4, Soa Gimalaha, Kec. Kota Maba, Kabupaten Halmahera Timur, Maluku Utara","Kabupaten Halmahera Timur, Maluku Utara",MALUKU UTARA,,Indonesia,85299999493.0,0.6846437,128.28719,https://maps.google.com/?cid=0x0:0x162f15d6d7fbbadc
cafe,Kafe,Shansisters Coffee,"V7HV+XJJ, Unnamed Road, Sailal, Kec. Maba, Kabupaten Halmahera Timur, Maluku Utara","Kabupaten Halmahera Timur, Maluku Utara",MALUKU UTARA,,Indonesia,82290058006.0,0.87996,128.2940155,https://maps.google.com/?cid=0x0:0x5c545f6f76f9e83b
cafe,Kedai Kopi,Point Coffee,"Buli - Maba, Buli, Kec. Maba, Kabupaten Halmahera Timur, Maluku Utara 97862","Buli, Kec. Maba, Kabupaten Halmahera Timur",MALUKU UTARA,97862.0,Indonesia,1500280.0,0.8835066,128.2955305,https://maps.google.com/?cid=0x0:0x1af33515ad8d9558
cafe,Kedai Kopi,Cafe D'Thaz,"R6FR+X37, Soa Laipoh, Kec. Kota Maba, Kabupaten Halmahera Timur, Maluku Utara","Kabupaten Halmahera Timur, Maluku Utara",MALUKU UTARA,,Indonesia,,0.824794,128.2394308,https://maps.google.com/?cid=0x0:0xa90c6f8574876522
cafe,Bakso,Marsawa Coffee dan Resto,"R6CR+GM2, Soa Sangaji, Kec. Kota Maba, Kabupaten Halmahera Timur, Maluku Utara","Kabupaten Halmahera Timur, Maluku Utara",MALUKU UTARA,,Indonesia,82214516528.0,0.8212606,128.2416349,https://maps.google.com/?cid=0x0:0x88acde884b8e9fbf
cafe,Kedai Kopi,Warkop Babe,"GGWR+38X, Bololo, Kec. Wasile Utara, Kabupaten Halmahera Timur, Maluku Utara","Kabupaten Halmahera Timur, Maluku Utara",MALUKU UTARA,,Indonesia,,1.5452321,128.5408545,https://maps.google.com/?cid=0x0:0x4d6c271d2e64afef
cafe,cafe,RENTAL AFG,"CMJF+445, Wasileo, Kec. Maba Utara, Kabupaten Halmahera Timur, Maluku Utara","Kabupaten Halmahera Timur, Maluku Utara",MALUKU UTARA,,Indonesia,,1.4302584,128.6728627,https://maps.google.com/?cid=0x0:0x807721c5fc425d48
cafe,cafe,Rumah Tete coffee,"HP9F+H5, Jara Jara, Kec. Maba Utara, Kabupaten Halmahera Timur, Maluku Utara","Kabupaten Halmahera Timur, Maluku Utara",MALUKU UTARA,,Indonesia,,1.5698064,128.7232544,https://maps.google.com/?cid=0x0:0x31c19ed1f127328d
cafe,cafe,Coffee Holic Liga Bintang,"8F6M+VX2, Kakaraino, Kec. Wasile Tengah, Kabupaten Halmahera Timur, Maluku Utara","Kabupaten Halmahera Timur, Maluku Utara",MALUKU UTARA,,Indonesia,,1.3121285,128.4848907,https://maps.google.com/?cid=0x0:0x9ddb3e63c9fad5ed
cafe,Restoran,Twenty kafe,"Wayafli, Kec. Maba, Kabupaten Halmahera Timur, Maluku Utara 97862","Kec. Maba, Kabupaten Halmahera Timur",MALUKU UTARA,97862.0,Indonesia,81111111000.0,0.8739069,128.2769668,https://maps.google.com/?cid=0x0:0xa35a72993da72dea
cafe,cafe,Maluku Utara,,Maluku Utara,MALUKU UTARA,,Indonesia,,1.5709993,127.8087693,https://maps.google.com/?cid=0x0:0x1030bfbcaf71ac0
cafe,Kedai Kopi,Pojok Coffe,"Maba, Jl. 40, Soa Gimalaha, Kec. Kota Maba, Kabupaten Halmahera Timur, Maluku Utara","Kabupaten Halmahera Timur, Maluku Utara",MALUKU UTARA,,Indonesia,82260459321.0,0.6848771,128.2802353,https://maps.google.com/?cid=0x0:0x65e473727075d315
cafe,Restoran,Twenty kafe,"Wayafli, Kec. Maba, Kabupaten Halmahera Timur, Maluku Utara 97862","Kec. Maba, Kabupaten Halmahera Timur",MALUKU UTARA,97862.0,Indonesia,81111111000.0,0.8739069,128.2769668,https://maps.google.com/?cid=0x0:0xa35a72993da72dea
cafe,Hotel,Cafe Mab@Net  Penginapan Marfa,"M7MP+VV4, Soa Gimalaha, Kec. Kota Maba, Kabupaten Halmahera Timur, Maluku Utara","Kabupaten Halmahera Timur, Maluku Utara",MALUKU UTARA,,Indonesia,85299999493.0,0.6846437,128.28719,https://maps.google.com/?cid=0x0:0x162f15d6d7fbbadc
cafe,Kedai Kopi,Acrual Coffee,"Jalan perumahan DPRD, Belakang RSUD, Kec. Kota Maba, Kabupaten Halmahera Timur, Maluku Utara 97862","Belakang RSUD, Kec. Kota Maba, Kabupaten Halmahera Timur",MALUKU UTARA,97862.0,Indonesia,81298830190.0,0.6855788,128.2940999,https://maps.google.com/?cid=0x0:0xc9f1240dd4753844
cafe,Kafe,Shansisters Coffee,"V7HV+XJJ, Unnamed Road, Sailal, Kec. Maba, Kabupaten Halmahera Timur, Maluku Utara","Kabupaten Halmahera Timur, Maluku Utara",MALUKU UTARA,,Indonesia,82290058006.0,0.87996,128.2940155,https://maps.google.com/?cid=0x0:0x5c545f6f76f9e83b
cafe,Kedai Kopi,Point Coffee,"Buli - Maba, Buli, Kec. Maba, Kabupaten Halmahera Timur, Maluku Utara 97862","Buli, Kec. Maba, Kabupaten Halmahera Timur",MALUKU UTARA,97862.0,Indonesia,1500280.0,0.8835066,128.2955305,https://maps.google.com/?cid=0x0:0x1af33515ad8d9558
cafe,Kedai Kopi,Cafe D'Thaz,"R6FR+X37, Soa Laipoh, Kec. Kota Maba, Kabupaten Halmahera Timur, Maluku Utara","Kabupaten Halmahera Timur, Maluku Utara",MALUKU UTARA,,Indonesia,,0.824794,128.2394308,https://maps.google.com/?cid=0x0:0xa90c6f8574876522
cafe,Bakso,Marsawa Coffee dan Resto,"R6CR+GM2, Soa Sangaji, Kec. Kota Maba, Kabupaten Halmahera Timur, Maluku Utara","Kabupaten Halmahera Timur, Maluku Utara",MALUKU UTARA,,Indonesia,82214516528.0,0.8212606,128.2416349,https://maps.google.com/?cid=0x0:0x88acde884b8e9fbf
cafe,Kafe,KOpi goroBA (BAKO),"Rumah DD, JL. HALEK HAKIM, RT./Rw/RW.001/001, Soa Laipoh, Kec. Kota Maba, Maluku Utara 97862","JL. HALEK HAKIM, RT./Rw/RW.001/001, Soa Laipoh, Kec. Kota Maba",MALUKU UTARA,97862.0,Indonesia,,0.8236795,128.2392845,https://maps.google.com/?cid=0x0:0xcfb9b815c8e08b04
cafe,Bar,Kedai Walespopo Buli,"V7MW+P8V, Unnamed Rd, Buli, Kec. Maba, Kabupaten Halmahera Timur, Maluku Utara","Kabupaten Halmahera Timur, Maluku Utara",MALUKU UTARA,,Indonesia,,0.8843626,128.2958035,https://maps.google.com/?cid=0x0:0xe8463cffbfe947cf
cafe,Kafe,Fain Room,"J7CF+QMP, Soa Gimalaha, Kec. Kota Maba, Kabupaten Halmahera Timur, Maluku Utara","Kabupaten Halmahera Timur, Maluku Utara",MALUKU UTARA,,Indonesia,,0.6219589,128.2742016,https://maps.google.com/?cid=0x0:0xb5b0a2c0243aa712
cafe,Kafe,Siteel caffe,"Depan kantor PT.TTPS ,desa soagimalaha. kab. Halmahera timur, Kec. Kota Maba, soagimalaha, Maluku Utara 97862","Kec. Kota Maba, soagimalaha",MALUKU UTARA,97862.0,Indonesia,82191168388.0,0.6855829,128.2869744,https://maps.google.com/?cid=0x0:0xdef4d834ac9304a5
cafe,Kedai Kopi,MATINAT COFFE,"8VGF+HWM, Were, Kec. Weda, Kabupaten Halmahera Tengah, Maluku Utara","Kabupaten Halmahera Tengah, Maluku Utara",MALUKU UTARA,,Indonesia,,0.3264522,127.8747855,https://maps.google.com/?cid=0x0:0xba9dbf1582b2048b
hotel,hotel,Kec. Wasile,"Kabupaten Halmahera Timur, Maluku Utara","Kabupaten Halmahera Timur, Maluku Utara",MALUKU UTARA,,Indonesia,,1.0775041,128.133943,https://maps.google.com/?cid=0x0:0x21de040486bfe03f
hotel,hotel,The SALT Guest House,"Jl. Trans Halmahera, Geltoli, Kec. Maba, Kabupaten Halmahera Timur, Maluku Utara 97862","Geltoli, Kec. Maba, Kabupaten Halmahera Timur",MALUKU UTARA,97862.0,Indonesia,81399332022.0,0.8941716,128.2947661,https://maps.google.com/?cid=0x0:0x255947e72b8cabc9
hotel,hotel,Bela Hotel Ternate,"Jalan Jati Raya No.500, Jati, Kec. Ternate Sel., Kota Ternate, Maluku Utara","Kota Ternate, Maluku Utara",MALUKU UTARA,,Indonesia,9213121800.0,0.778607,127.376382,https://maps.google.com/?cid=0x0:0xadc0715ea2e729ec
hotel,hotel,HOTEL SIMORE WEDA,"depan SPBU kompak, Nurweda, Kec. Weda, Kabupaten Halmahera Tengah, Maluku Utara 97853","Nurweda, Kec. Weda, Kabupaten Halmahera Tengah",MALUKU UTARA,97853.0,Indonesia,85136412778.0,0.3216514,127.8723579,https://maps.google.com/?cid=0x0:0x3e6c86eb9ef28d79
hotel,hotel,Kartika Buli Resort,"V7FF+PVH, Wayafli, Kec. Maba, Kabupaten Halmahera Timur, Maluku Utara","Kabupaten Halmahera Timur, Maluku Utara",MALUKU UTARA,,Indonesia,81223363636.0,0.8743162,128.2747495,https://maps.google.com/?cid=0x0:0x1500f0be2a96753c
hotel,hotel,Buli Beach Hotel,"V7HV+VXV, Buli, Kec. Maba, Kabupaten Halmahera Timur, Maluku Utara","Kabupaten Halmahera Timur, Maluku Utara",MALUKU UTARA,,Indonesia,,0.8797347,128.2949107,https://maps.google.com/?cid=0x0:0xb296680f8f217799
hotel,hotel,Rumah Pantai Patang,"Jl. Trans, Patang, Kec. Kao, Kabupaten Halmahera Utara, Maluku Utara 97764","Patang, Kec. Kao, Kabupaten Halmahera Utara",MALUKU UTARA,97764.0,Indonesia,82115529248.0,1.2316621,127.9218175,https://maps.google.com/?cid=0x0:0x4724a182f266d38a
hotel,hotel,Saloi inn,"3FXQ+VR2, Tedeng, Kec. Jailolo, Kabupaten Halmahera Barat, Maluku Utara","Kabupaten Halmahera Barat, Maluku Utara",MALUKU UTARA,,Indonesia,8111020812.0,1.0996348,127.4895301,https://maps.google.com/?cid=0x0:0x1139fc5cb3804c4
hotel,hotel,Hotel Astonia Tobelo,"Gosoma, Kec. Tobelo, Kabupaten Halmahera Utara, Maluku Utara","Kabupaten Halmahera Utara, Maluku Utara",MALUKU UTARA,,Indonesia,9242621900.0,1.7223761,127.9947995,https://maps.google.com/?cid=0x0:0x99ff7dd9ff5c49af
hotel,hotel,Wisma Mulia,"P286+P48, Rawajaya, Kec. Tobelo, Kabupaten Halmahera Utara, Maluku Utara","Kabupaten Halmahera Utara, Maluku Utara",MALUKU UTARA,,Indonesia,,1.7167897,128.0103356,https://maps.google.com/?cid=0x0:0x611811aff0d3d758
hotel,hotel,Juliana Hotel,"Gamsungi, Kec. Tobelo, Kabupaten Halmahera Utara, Maluku Utara","Kabupaten Halmahera Utara, Maluku Utara",MALUKU UTARA,,Indonesia,82191159141.0,1.7272579,128.0105717,https://maps.google.com/?cid=0x0:0x97231ba37bd2cf65
hotel,hotel,Hotel Elizabeth,"Jl. Kemakmuran, Gura, Kec. Tobelo, Kabupaten Halmahera Utara, Maluku Utara 97762","Gura, Kec. Tobelo, Kabupaten Halmahera Utara",MALUKU UTARA,97762.0,Indonesia,,1.7308941,128.0102163,https://maps.google.com/?cid=0x0:0x64ae6c4240cbb4c7
hotel,hotel,New Elshinta Hotel,"Jl. Pahlawan Revolusi No.58-60, Gamalama, Kec. Ternate Tengah, Kota Ternate, Maluku Utara 97721","Gamalama, Kec. Ternate Tengah, Kota Ternate",MALUKU UTARA,97721.0,Indonesia,9213121059.0,0.7876913,127.3886475,https://maps.google.com/?cid=0x0:0x389548d6595850cd
hotel,hotel,Hotel President,"P2H6+3F9, Jl. Kemakmuran, RT.02/RW.03, Gamsungi, Kec. Tobelo, Kabupaten Halmahera Utara, Maluku Utara 97762","Jl. Kemakmuran, RT.02/RW.03, Gamsungi, Kec. Tobelo, Kabupaten Halmahera Utara",MALUKU UTARA,97762.0,Indonesia,9242621353.0,1.7276524,128.0112339,https://maps.google.com/?cid=0x0:0x48545677de481d5
hotel,hotel,Maba,"Maba Sangaji, Kec. Kota Maba, Kabupaten Halmahera Timur, Maluku Utara","Kabupaten Halmahera Timur, Maluku Utara",MALUKU UTARA,,Indonesia,,0.689218,128.277206,https://maps.google.com/?cid=0x0:0xadf03d8fc22db37a
hotel,hotel,Hotel Gamalama Indah,"Q9QQ+RX6, Gamalama, Kec. Ternate Tengah, Kota Ternate, Maluku Utara","Kota Ternate, Maluku Utara",MALUKU UTARA,,Indonesia,81380008545.0,0.7895272,127.3898938,https://maps.google.com/?cid=0x0:0x2029c9b62509c39
hotel,hotel,Muara Inn Ternate,"Jl. Seruni, Kp. Pisang, Kec. Ternate Tengah, Kota Ternate, Maluku Utara 97712","Kp. Pisang, Kec. Ternate Tengah, Kota Ternate",MALUKU UTARA,97712.0,Indonesia,9216205200.0,0.7834742,127.3826265,https://maps.google.com/?cid=0x0:0x126e3446c8f963cb
hotel,hotel,Muara Hotel and Mall Ternate,"Jl. Merdeka No.19, Gamalama, Kec. Ternate Tengah, Kota Ternate, Maluku Utara","Kota Ternate, Maluku Utara",MALUKU UTARA,,Indonesia,9213125553.0,0.7911445,127.3861909,https://maps.google.com/?cid=0x0:0x67cf3fcc0f55895
hotel,hotel,,,,MALUKU UTARA,,Indonesia,,,,https://maps.google.com/?cid=0x0:0x126e3446c8f963cb%7C/g/11fhrgz5r3%7Cid-ID
hotel,hotel,Buli Beach Hotel,"V7HV+VXV, Buli, Kec. Maba, Kabupaten Halmahera Timur, Maluku Utara","Kabupaten Halmahera Timur, Maluku Utara",MALUKU UTARA,,Indonesia,,0.8797347,128.2949107,https://maps.google.com/?cid=0x0:0xb296680f8f217799
hotel,hotel,Juliana Hotel,"Gamsungi, Kec. Tobelo, Kabupaten Halmahera Utara, Maluku Utara","Kabupaten Halmahera Utara, Maluku Utara",MALUKU UTARA,,Indonesia,82191159141.0,1.7272579,128.0105717,https://maps.google.com/?cid=0x0:0x97231ba37bd2cf65
hotel,hotel,Hotel Astonia Tobelo,"Gosoma, Kec. Tobelo, Kabupaten Halmahera Utara, Maluku Utara","Kabupaten Halmahera Utara, Maluku Utara",MALUKU UTARA,,Indonesia,9242621900.0,1.7223761,127.9947995,https://maps.google.com/?cid=0x0:0x99ff7dd9ff5c49af
hotel,hotel,Hotel Kusu-Kusu,"M2W5+HC7, Lina Ino, Kec. Tobelo Tengah, Kabupaten Halmahera Utara, Maluku Utara","Kabupaten Halmahera Utara, Maluku Utara",MALUKU UTARA,,Indonesia,,1.6964035,128.0085551,https://maps.google.com/?cid=0x0:0xde51ba868745d615
hotel,hotel,Wisma Mulia,"P286+P48, Rawajaya, Kec. Tobelo, Kabupaten Halmahera Utara, Maluku Utara","Kabupaten Halmahera Utara, Maluku Utara",MALUKU UTARA,,Indonesia,,1.7167897,128.0103356,https://maps.google.com/?cid=0x0:0x611811aff0d3d758
hotel,hotel,Marahai Park Hotel,"Jl. Kemakmuran, Wosia, Kec. Tobelo, Kabupaten Halmahera Utara, Maluku Utara 97762","Wosia, Kec. Tobelo, Kabupaten Halmahera Utara",MALUKU UTARA,97762.0,Indonesia,9242321470.0,1.7123424,128.0113095,https://maps.google.com/?cid=0x0:0x1773edc1a70bea03
hotel,hotel,The SALT Guest House,"Jl. Trans Halmahera, Geltoli, Kec. Maba, Kabupaten Halmahera Timur, Maluku Utara 97862","Geltoli, Kec. Maba, Kabupaten Halmahera Timur",MALUKU UTARA,97862.0,Indonesia,81399332022.0,0.8941716,128.2947661,https://maps.google.com/?cid=0x0:0x255947e72b8cabc9
hotel,Hotel,Hotel Ciriliyati,"Jalan Trans Halmahera, Soa Gimalaha, Kec. Kota Maba, Kabupaten Halmahera Timur, Maluku Utara 97862","Soa Gimalaha, Kec. Kota Maba, Kabupaten Halmahera Timur",MALUKU UTARA,97862.0,Indonesia,82196651700.0,0.6844255,128.2813342,https://maps.google.com/?cid=0x0:0x735c00a66fb37afd
hotel,hotel,Puncak Buli,"V7F9+3CV, Unnamed Road, Wayafli, Kec. Maba, Kabupaten Halmahera Timur, Maluku Utara","Kabupaten Halmahera Timur, Maluku Utara",MALUKU UTARA,,Indonesia,,0.872734,128.2685314,https://maps.google.com/?cid=0x0:0xf36608897408b724
hotel,hotel,Kec. Maba Sel.,"Kabupaten Halmahera Timur, Maluku Utara","Kabupaten Halmahera Timur, Maluku Utara",MALUKU UTARA,,Indonesia,,0.6311669,128.4249841,https://maps.google.com/?cid=0x0:0x8622114f0d1a22ac
hotel,hotel,The SALT Guest House,"Jl. Trans Halmahera, Geltoli, Kec. Maba, Kabupaten Halmahera Timur, Maluku Utara 97862","Geltoli, Kec. Maba, Kabupaten Halmahera Timur",MALUKU UTARA,97862.0,Indonesia,81399332022.0,0.8941716,128.2947661,https://maps.google.com/?cid=0x0:0x255947e72b8cabc9
hotel,hotel,Kartika Buli Resort,"V7FF+PVH, Wayafli, Kec. Maba, Kabupaten Halmahera Timur, Maluku Utara","Kabupaten Halmahera Timur, Maluku Utara",MALUKU UTARA,,Indonesia,81223363636.0,0.8743162,128.2747495,https://maps.google.com/?cid=0x0:0x1500f0be2a96753c
hotel,hotel,Juliana Hotel,"Gamsungi, Kec. Tobelo, Kabupaten Halmahera Utara, Maluku Utara","Kabupaten Halmahera Utara, Maluku Utara",MALUKU UTARA,,Indonesia,82191159141.0,1.7272579,128.0105717,https://maps.google.com/?cid=0x0:0x97231ba37bd2cf65
hotel,hotel,Kec. Wasile Sel.,"Kabupaten Halmahera Timur, Maluku Utara","Kabupaten Halmahera Timur, Maluku Utara",MALUKU UTARA,,Indonesia,,0.8641952,128.0208151,https://maps.google.com/?cid=0x0:0x476106d8340eeedb
hotel,hotel,HOTEL SIMORE WEDA,"depan SPBU kompak, Nurweda, Kec. Weda, Kabupaten Halmahera Tengah, Maluku Utara 97853","Nurweda, Kec. Weda, Kabupaten Halmahera Tengah",MALUKU UTARA,97853.0,Indonesia,85136412778.0,0.3216514,127.8723579,https://maps.google.com/?cid=0x0:0x3e6c86eb9ef28d79
hotel,hotel,Penginapan Visal Tidore  Meeting Room,"JL. Sultan Zainal Abidin Syah, Gamtufkange, Tidore, Kota Tidore Kepulauan, Maluku Utara 97812","Gamtufkange, Tidore, Kota Tidore Kepulauan",MALUKU UTARA,97812.0,Indonesia,81380000155.0,0.6573605,127.4485832,https://maps.google.com/?cid=0x0:0xcd95aa95f3406d6a
hotel,hotel,Wisma Mulia,"P286+P48, Rawajaya, Kec. Tobelo, Kabupaten Halmahera Utara, Maluku Utara","Kabupaten Halmahera Utara, Maluku Utara",MALUKU UTARA,,Indonesia,,1.7167897,128.0103356,https://maps.google.com/?cid=0x0:0x611811aff0d3d758
hotel,hotel,Juliana Hotel,"Gamsungi, Kec. Tobelo, Kabupaten Halmahera Utara, Maluku Utara","Kabupaten Halmahera Utara, Maluku Utara",MALUKU UTARA,,Indonesia,82191159141.0,1.7272579,128.0105717,https://maps.google.com/?cid=0x0:0x97231ba37bd2cf65
hotel,hotel,New Elshinta Hotel,"Jl. Pahlawan Revolusi No.58-60, Gamalama, Kec. Ternate Tengah, Kota Ternate, Maluku Utara 97721","Gamalama, Kec. Ternate Tengah, Kota Ternate",MALUKU UTARA,97721.0,Indonesia,9213121059.0,0.7876913,127.3886475,https://maps.google.com/?cid=0x0:0x389548d6595850cd
hotel,hotel,Homestay Grand Teluk Weda,"Desa Wedana, Nurweda, Kec. Weda, Kabupaten Halmahera Tengah, Maluku Utara 97853","Nurweda, Kec. Weda, Kabupaten Halmahera Tengah",MALUKU UTARA,97853.0,Indonesia,85236358315.0,0.3258973,127.8647391,https://maps.google.com/?cid=0x0:0xfcfa652b498e186c
hotel,hotel,Saloi inn,"3FXQ+VR2, Tedeng, Kec. Jailolo, Kabupaten Halmahera Barat, Maluku Utara","Kabupaten Halmahera Barat, Maluku Utara",MALUKU UTARA,,Indonesia,8111020812.0,1.0996348,127.4895301,https://maps.google.com/?cid=0x0:0x1139fc5cb3804c4
hotel,hotel,Homestay Shari-Inn2 Ternate,"ka Dara.Lorong Masuk di samping Mie Ayam  Bakso, Kedaton Tidore, Jl. Ahmad Yani, Muhajirin, Kec. Ternate Tengah, Kota Ternate, Maluku Utara 97711","Kedaton Tidore, Jl. Ahmad Yani, Muhajirin, Kec. Ternate Tengah, Kota Ternate",MALUKU UTARA,97711.0,Indonesia,82285578277.0,0.7833536,127.3868407,https://maps.google.com/?cid=0x0:0x6882d3e8ba12ec96
hotel,hotel,Kec. Wasile Tengah,"Kabupaten Halmahera Timur, Maluku Utara","Kabupaten Halmahera Timur, Maluku Utara",MALUKU UTARA,,Indonesia,,1.2482149,128.1175021,https://maps.google.com/?cid=0x0:0xab5a8dcd2bdeb346
hotel,hotel,Rumah Pantai Patang,"Jl. Trans, Patang, Kec. Kao, Kabupaten Halmahera Utara, Maluku Utara 97764","Patang, Kec. Kao, Kabupaten Halmahera Utara",MALUKU UTARA,97764.0,Indonesia,82115529248.0,1.2316621,127.9218175,https://maps.google.com/?cid=0x0:0x4724a182f266d38a
hotel,hotel,HOTEL SIMORE WEDA,"depan SPBU kompak, Nurweda, Kec. Weda, Kabupaten Halmahera Tengah, Maluku Utara 97853","Nurweda, Kec. Weda, Kabupaten Halmahera Tengah",MALUKU UTARA,97853.0,Indonesia,85136412778.0,0.3216514,127.8723579,https://maps.google.com/?cid=0x0:0x3e6c86eb9ef28d79
hotel,hotel,Wisma Mulia,"P286+P48, Rawajaya, Kec. Tobelo, Kabupaten Halmahera Utara, Maluku Utara","Kabupaten Halmahera Utara, Maluku Utara",MALUKU UTARA,,Indonesia,,1.7167897,128.0103356,https://maps.google.com/?cid=0x0:0x611811aff0d3d758
hotel,hotel,Saloi inn,"3FXQ+VR2, Tedeng, Kec. Jailolo, Kabupaten Halmahera Barat, Maluku Utara","Kabupaten Halmahera Barat, Maluku Utara",MALUKU UTARA,,Indonesia,8111020812.0,1.0996348,127.4895301,https://maps.google.com/?cid=0x0:0x1139fc5cb3804c4
hotel,hotel,Juliana Hotel,"Gamsungi, Kec. Tobelo, Kabupaten Halmahera Utara, Maluku Utara","Kabupaten Halmahera Utara, Maluku Utara",MALUKU UTARA,,Indonesia,82191159141.0,1.7272579,128.0105717,https://maps.google.com/?cid=0x0:0x97231ba37bd2cf65
hotel,hotel,Kec. Wasile Utara,"Kabupaten Halmahera Timur, Maluku Utara","Kabupaten Halmahera Timur, Maluku Utara",MALUKU UTARA,,Indonesia,,1.4649455,128.3488444,https://maps.google.com/?cid=0x0:0x3c7417c6f2357f8e
hotel,hotel,Marahai Park Hotel,"Jl. Kemakmuran, Wosia, Kec. Tobelo, Kabupaten Halmahera Utara, Maluku Utara 97762","Wosia, Kec. Tobelo, Kabupaten Halmahera Utara",MALUKU UTARA,97762.0,Indonesia,9242321470.0,1.7123424,128.0113095,https://maps.google.com/?cid=0x0:0x1773edc1a70bea03
hotel,hotel,HOTEL SIMORE WEDA,"depan SPBU kompak, Nurweda, Kec. Weda, Kabupaten Halmahera Tengah, Maluku Utara 97853","Nurweda, Kec. Weda, Kabupaten Halmahera Tengah",MALUKU UTARA,97853.0,Indonesia,85136412778.0,0.3216514,127.8723579,https://maps.google.com/?cid=0x0:0x3e6c86eb9ef28d79
hotel,hotel,Juliana Hotel,"Gamsungi, Kec. Tobelo, Kabupaten Halmahera Utara, Maluku Utara","Kabupaten Halmahera Utara, Maluku Utara",MALUKU UTARA,,Indonesia,82191159141.0,1.7272579,128.0105717,https://maps.google.com/?cid=0x0:0x97231ba37bd2cf65
hotel,hotel,Bianda Hotel,"P2G6+VGM, Jl. Kemakmuran, Gamsungi, Kec. Tobelo, Kabupaten Halmahera Utara, Maluku Utara","Kabupaten Halmahera Utara, Maluku Utara",MALUKU UTARA,,Indonesia,,1.7272204,128.011288,https://maps.google.com/?cid=0x0:0x94545d064d6051e5
hotel,hotel,Johana Hotel,"P2F6+F4F, Gosoma, Kec. Tobelo, Kabupaten Halmahera Utara, Maluku Utara","Kabupaten Halmahera Utara, Maluku Utara",MALUKU UTARA,,Indonesia,9242623343.0,1.7236844,128.0102915,https://maps.google.com/?cid=0x0:0x1b997a52170a6c31
hotel,hotel,Meti Cottage,"H394+338, Pulau, Meti, Kec. Tobelo Tim., Kabupaten Halmahera Utara, Maluku Utara 97762","Pulau, Meti, Kec. Tobelo Tim., Kabupaten Halmahera Utara",MALUKU UTARA,97762.0,Indonesia,81376508128.0,1.567672,128.055211,https://maps.google.com/?cid=0x0:0x90cdc64d1b9faf2c
hotel,hotel,Saloi inn,"3FXQ+VR2, Tedeng, Kec. Jailolo, Kabupaten Halmahera Barat, Maluku Utara","Kabupaten Halmahera Barat, Maluku Utara",MALUKU UTARA,,Indonesia,8111020812.0,1.0996348,127.4895301,https://maps.google.com/?cid=0x0:0x1139fc5cb3804c4
hotel,hotel,Hotel Astonia Tobelo,"Gosoma, Kec. Tobelo, Kabupaten Halmahera Utara, Maluku Utara","Kabupaten Halmahera Utara, Maluku Utara",MALUKU UTARA,,Indonesia,9242621900.0,1.7223761,127.9947995,https://maps.google.com/?cid=0x0:0x99ff7dd9ff5c49af
hotel,hotel,Hotel Kusu-Kusu,"M2W5+HC7, Lina Ino, Kec. Tobelo Tengah, Kabupaten Halmahera Utara, Maluku Utara","Kabupaten Halmahera Utara, Maluku Utara",MALUKU UTARA,,Indonesia,,1.6964035,128.0085551,https://maps.google.com/?cid=0x0:0xde51ba868745d615
hotel,hotel,Hotel President,"P2H6+3F9, Jl. Kemakmuran, RT.02/RW.03, Gamsungi, Kec. Tobelo, Kabupaten Halmahera Utara, Maluku Utara 97762","Jl. Kemakmuran, RT.02/RW.03, Gamsungi, Kec. Tobelo, Kabupaten Halmahera Utara",MALUKU UTARA,97762.0,Indonesia,9242621353.0,1.7276524,128.0112339,https://maps.google.com/?cid=0x0:0x48545677de481d5
hotel,hotel,Wisma Anggrek Tobelo,"Gamsungi, Kec. Tobelo, Kabupaten Halmahera Utara, Maluku Utara","Kabupaten Halmahera Utara, Maluku Utara",MALUKU UTARA,,Indonesia,2180629666.0,1.7253125,128.0086875,https://maps.google.com/?cid=0x0:0x7f0bee62851b33a6
hotel,hotel,Wisma Mulia,"P286+P48, Rawajaya, Kec. Tobelo, Kabupaten Halmahera Utara, Maluku Utara","Kabupaten Halmahera Utara, Maluku Utara",MALUKU UTARA,,Indonesia,,1.7167897,128.0103356,https://maps.google.com/?cid=0x0:0x611811aff0d3d758
hotel,hotel,D'Lodge Village Tobelo,"PXFM+G47, Jl Dukono, Gamsungi, Kec. Tobelo, Kabupaten Halmahera Utara, Maluku Utara","Kabupaten Halmahera Utara, Maluku Utara",MALUKU UTARA,,Indonesia,82187899793.0,1.7237953,127.9828016,https://maps.google.com/?cid=0x0:0x97255e7444041343
hotel,hotel,Kec. Wasile Tim.,"Kabupaten Halmahera Timur, Maluku Utara","Kabupaten Halmahera Timur, Maluku Utara",MALUKU UTARA,,Indonesia,,1.1252456,128.206102,https://maps.google.com/?cid=0x0:0xc82c1b2c21ca079e
hotel,Hostel,Wisma Kita,"Bumi Restu, Kec. Wasile, Kabupaten Halmahera Timur, Maluku Utara","Kabupaten Halmahera Timur, Maluku Utara",MALUKU UTARA,,Indonesia,81252619468.0,1.0860865,128.158978,https://maps.google.com/?cid=0x0:0xe645d4d6219a4ee7
hotel,Hostel,PENGINAPAN SENGKANG,"34WG+GRH, Cemara Jaya, Kec. Wasile, Kabupaten Halmahera Timur, Maluku Utara","Kabupaten Halmahera Timur, Maluku Utara",MALUKU UTARA,,Indonesia,81355562450.0,1.0963119,128.1271019,https://maps.google.com/?cid=0x0:0xe8bf348db17d4b6f
hotel,Hotel,WISMA NADIA,"Batu Raja, Kec. Wasile, Kabupaten Halmahera Timur, Maluku Utara","Kabupaten Halmahera Timur, Maluku Utara",MALUKU UTARA,,Indonesia,82192086777.0,1.0797626,128.1353185,https://maps.google.com/?cid=0x0:0xb10f2e74a8797417
hotel,Hotel,Penginpan dan kos empat saudara,"Jlan trans, Batu Raja, Kec. Wasile, Kabupaten Halmahera Timur, Maluku Utara 97865","Batu Raja, Kec. Wasile, Kabupaten Halmahera Timur",MALUKU UTARA,97865.0,Indonesia,82226545193.0,1.0789008,128.1321033,https://maps.google.com/?cid=0x0:0x223802af19cf2476
hotel,Hotel,Hotel,"8F6M+RXX, Kakaraino, Kec. Wasile Tengah, Kabupaten Halmahera Timur, Maluku Utara","Kabupaten Halmahera Timur, Maluku Utara",MALUKU UTARA,,Indonesia,,1.3121235,128.4849923,https://maps.google.com/?cid=0x0:0x7c39973e762f8966
hotel,Restoran,Penginapan  Rumah Makan SEDERHANA,"34WG+HR7, Cemara Jaya, Kec. Wasile, Kabupaten Halmahera Timur, Maluku Utara","Kabupaten Halmahera Timur, Maluku Utara",MALUKU UTARA,,Indonesia,81355562450.0,1.0964104,128.1270617,https://maps.google.com/?cid=0x0:0x7c1c7cdc1b85337a
hotel,Hotel,New Barokah House,"35WQ+RJ3, Daka Ino, Kec. Wasile Tim., Kabupaten Halmahera Timur, Maluku Utara","Kabupaten Halmahera Timur, Maluku Utara",MALUKU UTARA,,Indonesia,81269381589.0,1.0970242,128.1890499,https://maps.google.com/?cid=0x0:0x19da70c7734626d1
hotel,Hostel,Guil ff Diki stl,"5639+4CF, Jalan kenanga Blok I, Toboino, Kec. Wasile Tim., Kabupaten Halmahera Timur, Maluku Utara","Kabupaten Halmahera Timur, Maluku Utara",MALUKU UTARA,,Indonesia,,1.1528082,128.2185468,https://maps.google.com/?cid=0x0:0x605783a60e2b0bba
hotel,hotel,Apa nama tempat ny,"4496+3F, Subaim, Kec. Wasile, Kabupaten Halmahera Timur, Maluku Utara","Kabupaten Halmahera Timur, Maluku Utara",MALUKU UTARA,,Indonesia,,1.117653,128.111231,https://maps.google.com/?cid=0x0:0x9b5bc018d0abd64d
hotel,hotel,HOTEL SIMORE WEDA,"depan SPBU kompak, Nurweda, Kec. Weda, Kabupaten Halmahera Tengah, Maluku Utara 97853","Nurweda, Kec. Weda, Kabupaten Halmahera Tengah",MALUKU UTARA,97853.0,Indonesia,85136412778.0,0.3216514,127.8723579,https://maps.google.com/?cid=0x0:0x3e6c86eb9ef28d79
hotel,hotel,Wisma Mulia,"P286+P48, Rawajaya, Kec. Tobelo, Kabupaten Halmahera Utara, Maluku Utara","Kabupaten Halmahera Utara, Maluku Utara",MALUKU UTARA,,Indonesia,,1.7167897,128.0103356,https://maps.google.com/?cid=0x0:0x611811aff0d3d758
hotel,hotel,Buli Beach Hotel,"V7HV+VXV, Buli, Kec. Maba, Kabupaten Halmahera Timur, Maluku Utara","Kabupaten Halmahera Timur, Maluku Utara",MALUKU UTARA,,Indonesia,,0.8797347,128.2949107,https://maps.google.com/?cid=0x0:0xb296680f8f217799
hotel,hotel,Saloi inn,"3FXQ+VR2, Tedeng, Kec. Jailolo, Kabupaten Halmahera Barat, Maluku Utara","Kabupaten Halmahera Barat, Maluku Utara",MALUKU UTARA,,Indonesia,8111020812.0,1.0996348,127.4895301,https://maps.google.com/?cid=0x0:0x1139fc5cb3804c4
hotel,hotel,Kec. Maba Tengah,"Kabupaten Halmahera Timur, Maluku Utara","Kabupaten Halmahera Timur, Maluku Utara",MALUKU UTARA,,Indonesia,,0.9790308,128.4735869,https://maps.google.com/?cid=0x0:0xaa0e36e52fc413d2
hotel,hotel,Bela Hotel Ternate,"Jalan Jati Raya No.500, Jati, Kec. Ternate Sel., Kota Ternate, Maluku Utara","Kota Ternate, Maluku Utara",MALUKU UTARA,,Indonesia,9213121800.0,0.778607,127.376382,https://maps.google.com/?cid=0x0:0xadc0715ea2e729ec
hotel,hotel,The SALT Guest House,"Jl. Trans Halmahera, Geltoli, Kec. Maba, Kabupaten Halmahera Timur, Maluku Utara 97862","Geltoli, Kec. Maba, Kabupaten Halmahera Timur",MALUKU UTARA,97862.0,Indonesia,81399332022.0,0.8941716,128.2947661,https://maps.google.com/?cid=0x0:0x255947e72b8cabc9
hotel,hotel,The Batik Hotel,"Jl. Kapitan Pattimura, Stadion, Kec. Ternate Tengah, Kota Ternate, Maluku Utara","Kota Ternate, Maluku Utara",MALUKU UTARA,,Indonesia,8114343343.0,0.7877576,127.3845077,https://maps.google.com/?cid=0x0:0x328d07a18d098e8d
hotel,hotel,Bianda Hotel,"P2G6+VGM, Jl. Kemakmuran, Gamsungi, Kec. Tobelo, Kabupaten Halmahera Utara, Maluku Utara","Kabupaten Halmahera Utara, Maluku Utara",MALUKU UTARA,,Indonesia,,1.7272204,128.011288,https://maps.google.com/?cid=0x0:0x94545d064d6051e5
hotel,hotel,,,,MALUKU UTARA,,Indonesia,,,,https://maps.google.com/?cid=0x0:0x328d07a18d098e8d%7C/g/11b7wc8rqw%7Cid-ID
hotel,hotel,Hotel Gamalama Indah,"Q9QQ+RX6, Gamalama, Kec. Ternate Tengah, Kota Ternate, Maluku Utara","Kota Ternate, Maluku Utara",MALUKU UTARA,,Indonesia,81380008545.0,0.7895272,127.3898938,https://maps.google.com/?cid=0x0:0x2029c9b62509c39
hotel,hotel,Muara Inn Ternate,"Jl. Seruni, Kp. Pisang, Kec. Ternate Tengah, Kota Ternate, Maluku Utara 97712","Kp. Pisang, Kec. Ternate Tengah, Kota Ternate",MALUKU UTARA,97712.0,Indonesia,9216205200.0,0.7834742,127.3826265,https://maps.google.com/?cid=0x0:0x126e3446c8f963cb
hotel,hotel,Muara Hotel and Mall Ternate,"Jl. Merdeka No.19, Gamalama, Kec. Ternate Tengah, Kota Ternate, Maluku Utara","Kota Ternate, Maluku Utara",MALUKU UTARA,,Indonesia,9213125553.0,0.7911445,127.3861909,https://maps.google.com/?cid=0x0:0x67cf3fcc0f55895
hotel,hotel,,,,MALUKU UTARA,,Indonesia,,,,https://maps.google.com/?cid=0x0:0x67cf3fcc0f55895%7C/g/11b6d93y9z%7Cid-ID
hotel,hotel,,,,MALUKU UTARA,,Indonesia,,,,https://maps.google.com/?cid=0x0:0x126e3446c8f963cb%7C/g/11fhrgz5r3%7Cid-ID
hotel,hotel,Hotel Astonia Tobelo,"Gosoma, Kec. Tobelo, Kabupaten Halmahera Utara, Maluku Utara","Kabupaten Halmahera Utara, Maluku Utara",MALUKU UTARA,,Indonesia,9242621900.0,1.7223761,127.9947995,https://maps.google.com/?cid=0x0:0x99ff7dd9ff5c49af
hotel,hotel,Buli Beach Hotel,"V7HV+VXV, Buli, Kec. Maba, Kabupaten Halmahera Timur, Maluku Utara","Kabupaten Halmahera Timur, Maluku Utara",MALUKU UTARA,,Indonesia,,0.8797347,128.2949107,https://maps.google.com/?cid=0x0:0xb296680f8f217799
hotel,hotel,Kartika Buli Resort,"V7FF+PVH, Wayafli, Kec. Maba, Kabupaten Halmahera Timur, Maluku Utara","Kabupaten Halmahera Timur, Maluku Utara",MALUKU UTARA,,Indonesia,81223363636.0,0.8743162,128.2747495,https://maps.google.com/?cid=0x0:0x1500f0be2a96753c
hotel,hotel,Kec. Maba Utara,"Kabupaten Halmahera Timur, Maluku Utara","Kabupaten Halmahera Timur, Maluku Utara",MALUKU UTARA,,Indonesia,,1.3822173,128.7506632,https://maps.google.com/?cid=0x0:0x65fb9a232e52ab67
hotel,hotel,Marahai Park Hotel,"Jl. Kemakmuran, Wosia, Kec. Tobelo, Kabupaten Halmahera Utara, Maluku Utara 97762","Wosia, Kec. Tobelo, Kabupaten Halmahera Utara",MALUKU UTARA,97762.0,Indonesia,9242321470.0,1.7123424,128.0113095,https://maps.google.com/?cid=0x0:0x1773edc1a70bea03
hotel,hotel,The SALT Guest House,"Jl. Trans Halmahera, Geltoli, Kec. Maba, Kabupaten Halmahera Timur, Maluku Utara 97862","Geltoli, Kec. Maba, Kabupaten Halmahera Timur",MALUKU UTARA,97862.0,Indonesia,81399332022.0,0.8941716,128.2947661,https://maps.google.com/?cid=0x0:0x255947e72b8cabc9
hotel,hotel,Muara Inn Ternate,"Jl. Seruni, Kp. Pisang, Kec. Ternate Tengah, Kota Ternate, Maluku Utara 97712","Kp. Pisang, Kec. Ternate Tengah, Kota Ternate",MALUKU UTARA,97712.0,Indonesia,9216205200.0,0.7834742,127.3826265,https://maps.google.com/?cid=0x0:0x126e3446c8f963cb
hotel,hotel,,,,MALUKU UTARA,,Indonesia,,,,https://maps.google.com/?cid=0x0:0x126e3446c8f963cb%7C/g/11fhrgz5r3%7Cid-ID
hotel,hotel,Juliana Hotel,"Gamsungi, Kec. Tobelo, Kabupaten Halmahera Utara, Maluku Utara","Kabupaten Halmahera Utara, Maluku Utara",MALUKU UTARA,,Indonesia,82191159141.0,1.7272579,128.0105717,https://maps.google.com/?cid=0x0:0x97231ba37bd2cf65
hotel,hotel,Buli Beach Hotel,"V7HV+VXV, Buli, Kec. Maba, Kabupaten Halmahera Timur, Maluku Utara","Kabupaten Halmahera Timur, Maluku Utara",MALUKU UTARA,,Indonesia,,0.8797347,128.2949107,https://maps.google.com/?cid=0x0:0xb296680f8f217799
hotel,hotel,Hotel Astonia Tobelo,"Gosoma, Kec. Tobelo, Kabupaten Halmahera Utara, Maluku Utara","Kabupaten Halmahera Utara, Maluku Utara",MALUKU UTARA,,Indonesia,9242621900.0,1.7223761,127.9947995,https://maps.google.com/?cid=0x0:0x99ff7dd9ff5c49af
hotel,hotel,Hotel Kusu-Kusu,"M2W5+HC7, Lina Ino, Kec. Tobelo Tengah, Kabupaten Halmahera Utara, Maluku Utara","Kabupaten Halmahera Utara, Maluku Utara",MALUKU UTARA,,Indonesia,,1.6964035,128.0085551,https://maps.google.com/?cid=0x0:0xde51ba868745d615
hotel,hotel,Hotel President,"P2H6+3F9, Jl. Kemakmuran, RT.02/RW.03, Gamsungi, Kec. Tobelo, Kabupaten Halmahera Utara, Maluku Utara 97762","Jl. Kemakmuran, RT.02/RW.03, Gamsungi, Kec. Tobelo, Kabupaten Halmahera Utara",MALUKU UTARA,97762.0,Indonesia,9242621353.0,1.7276524,128.0112339,https://maps.google.com/?cid=0x0:0x48545677de481d5
hotel,hotel,Wisma Mulia,"P286+P48, Rawajaya, Kec. Tobelo, Kabupaten Halmahera Utara, Maluku Utara","Kabupaten Halmahera Utara, Maluku Utara",MALUKU UTARA,,Indonesia,,1.7167897,128.0103356,https://maps.google.com/?cid=0x0:0x611811aff0d3d758
hotel,hotel,Johana Hotel,"P2F6+F4F, Gosoma, Kec. Tobelo, Kabupaten Halmahera Utara, Maluku Utara","Kabupaten Halmahera Utara, Maluku Utara",MALUKU UTARA,,Indonesia,9242623343.0,1.7236844,128.0102915,https://maps.google.com/?cid=0x0:0x1b997a52170a6c31
hotel,hotel,Kec. Kota Maba,"Kabupaten Halmahera Timur, Maluku Utara","Kabupaten Halmahera Timur, Maluku Utara",MALUKU UTARA,,Indonesia,,0.6760128,128.2875055,https://maps.google.com/?cid=0x0:0x3bda60336c220486
hotel,hotel,The SALT Guest House,"Jl. Trans Halmahera, Geltoli, Kec. Maba, Kabupaten Halmahera Timur, Maluku Utara 97862","Geltoli, Kec. Maba, Kabupaten Halmahera Timur",MALUKU UTARA,97862.0,Indonesia,81399332022.0,0.8941716,128.2947661,https://maps.google.com/?cid=0x0:0x255947e72b8cabc9
hotel,hotel,Marahai Park Hotel,"Jl. Kemakmuran, Wosia, Kec. Tobelo, Kabupaten Halmahera Utara, Maluku Utara 97762","Wosia, Kec. Tobelo, Kabupaten Halmahera Utara",MALUKU UTARA,97762.0,Indonesia,9242321470.0,1.7123424,128.0113095,https://maps.google.com/?cid=0x0:0x1773edc1a70bea03
hotel,hotel,Buli Beach Hotel,"V7HV+VXV, Buli, Kec. Maba, Kabupaten Halmahera Timur, Maluku Utara","Kabupaten Halmahera Timur, Maluku Utara",MALUKU UTARA,,Indonesia,,0.8797347,128.2949107,https://maps.google.com/?cid=0x0:0xb296680f8f217799
hotel,hotel,Juliana Hotel,"Gamsungi, Kec. Tobelo, Kabupaten Halmahera Utara, Maluku Utara","Kabupaten Halmahera Utara, Maluku Utara",MALUKU UTARA,,Indonesia,82191159141.0,1.7272579,128.0105717,https://maps.google.com/?cid=0x0:0x97231ba37bd2cf65
hotel,hotel,Weda Resort,"CWC3+WQR, Sawai Itepo, Kec. Weda Tengah, Kabupaten Halmahera Tengah, Maluku Utara","Kabupaten Halmahera Tengah, Maluku Utara",MALUKU UTARA,,Indonesia,8124433754.0,0.4223656,127.9044058,https://maps.google.com/?cid=0x0:0xe2414953297afc97
hotel,hotel,Hotel Astonia Tobelo,"Gosoma, Kec. Tobelo, Kabupaten Halmahera Utara, Maluku Utara","Kabupaten Halmahera Utara, Maluku Utara",MALUKU UTARA,,Indonesia,9242621900.0,1.7223761,127.9947995,https://maps.google.com/?cid=0x0:0x99ff7dd9ff5c49af
hotel,hotel,Hotel Kusu-Kusu,"M2W5+HC7, Lina Ino, Kec. Tobelo Tengah, Kabupaten Halmahera Utara, Maluku Utara","Kabupaten Halmahera Utara, Maluku Utara",MALUKU UTARA,,Indonesia,,1.6964035,128.0085551,https://maps.google.com/?cid=0x0:0xde51ba868745d615
hotel,hotel,Wisma Mulia,"P286+P48, Rawajaya, Kec. Tobelo, Kabupaten Halmahera Utara, Maluku Utara","Kabupaten Halmahera Utara, Maluku Utara",MALUKU UTARA,,Indonesia,,1.7167897,128.0103356,https://maps.google.com/?cid=0x0:0x611811aff0d3d758
hotel,hotel,Homestay Grand Teluk Weda,"Desa Wedana, Nurweda, Kec. Weda, Kabupaten Halmahera Tengah, Maluku Utara 97853","Nurweda, Kec. Weda, Kabupaten Halmahera Tengah",MALUKU UTARA,97853.0,Indonesia,85236358315.0,0.3258973,127.8647391,https://maps.google.com/?cid=0x0:0xfcfa652b498e186c
restaurant,Hotel,BAROKAH PENGINAPAN  RUMAH MAKAN,"35WQ+PJW, Daka Ino, Kec. Wasile Tim., Kabupaten Halmahera Timur, Maluku Utara","Kabupaten Halmahera Timur, Maluku Utara",MALUKU UTARA,,Indonesia,,1.0968536,128.1890672,https://maps.google.com/?cid=0x0:0x290326e4c7e1023e
restaurant,restaurant,Kec. Wasile,"Kabupaten Halmahera Timur, Maluku Utara","Kabupaten Halmahera Timur, Maluku Utara",MALUKU UTARA,,Indonesia,,1.0775041,128.133943,https://maps.google.com/?cid=0x0:0x21de040486bfe03f
restaurant,Brunch,RM. Lamongan,"35WP+6RV, Mekar Sari, Kec. Wasile, Kabupaten Halmahera Timur, Maluku Utara","Kabupaten Halmahera Timur, Maluku Utara",MALUKU UTARA,,Indonesia,,1.0956193,128.1870406,https://maps.google.com/?cid=0x0:0xf853624d3be5505
restaurant,Makanan Kecil,PONDOK CEMARA,"Jl. Trans Halmahera No.Timur, Batu Raja, Kec. Wasile, Kabupaten Halmahera Timur, Maluku Utara","Kabupaten Halmahera Timur, Maluku Utara",MALUKU UTARA,,Indonesia,,1.0698743,128.1441652,https://maps.google.com/?cid=0x0:0x3f0f716e6bf16fcc
restaurant,Brunch,Kedai ACF,"34PJ+P4M, Jl. Trans Halmahera, Cemara Jaya, Kec. Wasile, Kabupaten Halmahera Timur, Maluku Utara","Kabupaten Halmahera Timur, Maluku Utara",MALUKU UTARA,,Indonesia,81279889664.0,1.0868454,128.1302971,https://maps.google.com/?cid=0x0:0x7069316bcfff5cbd
restaurant,Rumah Makan,RM.empat saudara,"Unnamed Road, Ake Daga, Kec. Wasile Tim., Kabupaten Halmahera Timur, Maluku Utara","Kabupaten Halmahera Timur, Maluku Utara",MALUKU UTARA,,Indonesia,85217064501.0,1.1241624,128.2052203,https://maps.google.com/?cid=0x0:0x85265402b48327c1
restaurant,Restoran,Penginapan  Rumah Makan SEDERHANA,"34WG+HR7, Cemara Jaya, Kec. Wasile, Kabupaten Halmahera Timur, Maluku Utara","Kabupaten Halmahera Timur, Maluku Utara",MALUKU UTARA,,Indonesia,81355562450.0,1.0964104,128.1270617,https://maps.google.com/?cid=0x0:0x7c1c7cdc1b85337a
restaurant,Kedai Kopi,TRANS COFFE,"34JV+785, Batu Raja, Kec. Wasile, Kabupaten Halmahera Timur, Maluku Utara","Kabupaten Halmahera Timur, Maluku Utara",MALUKU UTARA,,Indonesia,,1.0806485,128.1433537,https://maps.google.com/?cid=0x0:0x6b9da33798e1cd79
restaurant,Kedai Kopi,MURIA COFFE,"Batu Raja, Kec. Wasile, Kabupaten Halmahera Timur, Maluku Utara","Kabupaten Halmahera Timur, Maluku Utara",MALUKU UTARA,,Indonesia,85366652344.0,1.0845795,128.1545119,https://maps.google.com/?cid=0x0:0xfdd1c57ac03c0b24
restaurant,Makanan Kecil,Saung Pusaka,"35HC+MV6, Bumi Restu, Kec. Wasile, Kabupaten Halmahera Timur, Maluku Utara","Kabupaten Halmahera Timur, Maluku Utara",MALUKU UTARA,,Indonesia,82292610505.0,1.0791741,128.1721428,https://maps.google.com/?cid=0x0:0xe6d34727b7f6c53f
restaurant,Kedai Kopi,Warung Ampiran,"35RG+MGF, Mekar Sari, Kec. Wasile, Kabupaten Halmahera Timur, Maluku Utara","Kabupaten Halmahera Timur, Maluku Utara",MALUKU UTARA,,Indonesia,82348012205.0,1.0917105,128.176299,https://maps.google.com/?cid=0x0:0xf0b55830f475a34e
restaurant,Kafe,A'FREZTO CAFE,"34MX+5PF, Jl. Trans Hal-Tim, Batu Raja, Kec. Wasile, Kabupaten Halmahera Timur, Maluku Utara","Kabupaten Halmahera Timur, Maluku Utara",MALUKU UTARA,,Indonesia,82292680606.0,1.0829477,128.1492942,https://maps.google.com/?cid=0x0:0x914e903987e3ea3f
restaurant,Makanan Kecil,Warung Bakso Pak Suhem,"35Q8+FH3, Kaplingan, Mekar Sari, Kec. Wasile, Kabupaten Halmahera Timur, Maluku Utara","Kabupaten Halmahera Timur, Maluku Utara",MALUKU UTARA,,Indonesia,,1.0886375,128.1664219,https://maps.google.com/?cid=0x0:0xa65c02fff144518
restaurant,Brunch,Warung Makan Bude Sarmi,"Cemara Jaya, Kec. Wasile, Kabupaten Halmahera Timur, Maluku Utara 97865","Kec. Wasile, Kabupaten Halmahera Timur",MALUKU UTARA,97865.0,Indonesia,82259902129.0,1.0931987,128.1279367,https://maps.google.com/?cid=0x0:0xffe3a77196998a63
restaurant,restaurant,Maba,"Maba Sangaji, Kec. Kota Maba, Kabupaten Halmahera Timur, Maluku Utara","Kabupaten Halmahera Timur, Maluku Utara",MALUKU UTARA,,Indonesia,,0.689218,128.277206,https://maps.google.com/?cid=0x0:0xadf03d8fc22db37a
restaurant,Restoran,RM. Lumintu,"M7RV+5H2, Soa Gimalaha, Kec. Kota Maba, Kabupaten Halmahera Timur, Maluku Utara","Kabupaten Halmahera Timur, Maluku Utara",MALUKU UTARA,,Indonesia,,0.6903847,128.2939029,https://maps.google.com/?cid=0x0:0x84484c4e04928934
restaurant,Indonesia,Warung Maba Pura,"R6HR+F8R, Unnamed Road, Soa Laipoh, Kec. Kota Maba, Kabupaten Halmahera Timur, Maluku Utara","Kabupaten Halmahera Timur, Maluku Utara",MALUKU UTARA,,Indonesia,,0.8287453,128.2407632,https://maps.google.com/?cid=0x0:0x12f46ad6698fda10
restaurant,Dapur Umum,Warung coto maba sangaji,"M7QG+MVP, Maba Sangaji, Kec. Kota Maba, Kabupaten Halmahera Timur, Maluku Utara","Kabupaten Halmahera Timur, Maluku Utara",MALUKU UTARA,,Indonesia,,0.689218,128.277206,https://maps.google.com/?cid=0x0:0x863ff7f85584fefd
restaurant,Rumah Makan,Rumah Makan Lumintu,"Buli, Kec. Maba, Kabupaten Halmahera Timur, Maluku Utara","Kabupaten Halmahera Timur, Maluku Utara",MALUKU UTARA,,Indonesia,81312450716.0,0.8829831,128.2940597,https://maps.google.com/?cid=0x0:0x3cf80e9a6fedc7b9
restaurant,Hotel,Cafe Mab@Net  Penginapan Marfa,"M7MP+VV4, Soa Gimalaha, Kec. Kota Maba, Kabupaten Halmahera Timur, Maluku Utara","Kabupaten Halmahera Timur, Maluku Utara",MALUKU UTARA,,Indonesia,85299999493.0,0.6846437,128.28719,https://maps.google.com/?cid=0x0:0x162f15d6d7fbbadc
restaurant,Sesuai untuk keluarga,Rumah Makan Lesehan,"W6FW+F5J, Buli, Kec. Maba, Kabupaten Halmahera Timur, Maluku Utara","Kabupaten Halmahera Timur, Maluku Utara",MALUKU UTARA,,Indonesia,82110125822.0,0.9237199,128.2453926,https://maps.google.com/?cid=0x0:0x497a93513b2937de
restaurant,Masakan Asia,Berkah89' Cafe  Resto,"M7PV+5H6, Jl. Kompleks perumahan dewan, Soa Gimalaha, Kec. Kota Maba, Kabupaten Halmahera Timur, Maluku Utara","Kabupaten Halmahera Timur, Maluku Utara",MALUKU UTARA,,Indonesia,81355463881.0,0.6854141,128.2938954,https://maps.google.com/?cid=0x0:0xdf2222a061f7b7e
restaurant,Indonesia,Warung Makan Bude,"M7QQ+V9Q, Soa Gimalaha, Kec. Kota Maba, Kabupaten Halmahera Timur, Maluku Utara","Kabupaten Halmahera Timur, Maluku Utara",MALUKU UTARA,,Indonesia,,0.6897101,128.2884918,https://maps.google.com/?cid=0x0:0x9cd071aa936ec2f0
restaurant,Restoran,RM. Moro Seneng,"M7PJ+23Q, Soa Gimalaha, Kec. Kota Maba, Kabupaten Halmahera Timur, Maluku Utara","Kabupaten Halmahera Timur, Maluku Utara",MALUKU UTARA,,Indonesia,,0.6850772,128.2802416,https://maps.google.com/?cid=0x0:0xc4ea86b21baa9494
restaurant,Indonesia,Warung Makan Anugrah,"V7FJ+QXJ, Jln.Lintas, Wayafli, Kec. Maba, Kabupaten Halmahera Timur, Maluku Utara","Kabupaten Halmahera Timur, Maluku Utara",MALUKU UTARA,,Indonesia,85260635062.0,0.8744658,128.2823955,https://maps.google.com/?cid=0x0:0xa6c39cb6213f8341
restaurant,Restoran,Warung Makan Djawi,"V7RX+449, Unnamed Road, Geltoli, Maba, East Halmahera Regency, North Maluku","Kabupaten Halmahera Timur, Maluku Utara",MALUKU UTARA,,Indonesia,,0.8902976,128.2978745,https://maps.google.com/?cid=0x0:0xd55c6b664e083f88
restaurant,Dapur Umum,R.M Mama Adisa,"XGF8+47H, Jl. Raya Wayamli, Wayamli, Kec. Maba Tengah, Kabupaten Halmahera Timur, Maluku Utara","Kabupaten Halmahera Timur, Maluku Utara",MALUKU UTARA,,Indonesia,,0.9728019,128.5157295,https://maps.google.com/?cid=0x0:0x57f5270dbd2bb791
restaurant,Rumah Makan,Rumah Makan Fagogoru,"V7QX+79P, Geltoli, Kec. Maba, Kabupaten Halmahera Timur, Maluku Utara","Kabupaten Halmahera Timur, Maluku Utara",MALUKU UTARA,,Indonesia,81247684075.0,0.8882048,128.2984481,https://maps.google.com/?cid=0x0:0x7eaecb816a981ac2
restaurant,restaurant,Kec. Maba Sel.,"Kabupaten Halmahera Timur, Maluku Utara","Kabupaten Halmahera Timur, Maluku Utara",MALUKU UTARA,,Indonesia,,0.6311669,128.4249841,https://maps.google.com/?cid=0x0:0x8622114f0d1a22ac
restaurant,Indonesia,Warung Maba Pura,"R6HR+F8R, Unnamed Road, Soa Laipoh, Kec. Kota Maba, Kabupaten Halmahera Timur, Maluku Utara","Kabupaten Halmahera Timur, Maluku Utara",MALUKU UTARA,,Indonesia,,0.8287453,128.2407632,https://maps.google.com/?cid=0x0:0x12f46ad6698fda10
restaurant,Kedai Kopi,Pasir putih coffee,"JCJH+R95, Gotowasi, Kec. Maba Sel., Kabupaten Halmahera Timur, Maluku Utara","Kabupaten Halmahera Timur, Maluku Utara",MALUKU UTARA,,Indonesia,,0.6331146,128.4287878,https://maps.google.com/?cid=0x0:0x33c07e5c7a81d92b
restaurant,Tujuan Wisata,Limau Jiko Eco Culture Resort,"Bobanehena, Kec. Jailolo, Kabupaten Halmahera Barat, Maluku Utara","Kabupaten Halmahera Barat, Maluku Utara",MALUKU UTARA,,Indonesia,82258085588.0,1.051123,127.446605,https://maps.google.com/?cid=0x0:0xbe87d8ffd59d3fd5
restaurant,,Bualawa Resto,"3C3W+4XM, Bobanehena, Kec. Jailolo, Kabupaten Halmahera Barat, Maluku Utara","Kabupaten Halmahera Barat, Maluku Utara",MALUKU UTARA,,Indonesia,,1.0516385,127.4473055,https://maps.google.com/?cid=0x0:0x1072845be258038f
restaurant,Restoran,RM. Lumintu,"M7RV+5H2, Soa Gimalaha, Kec. Kota Maba, Kabupaten Halmahera Timur, Maluku Utara","Kabupaten Halmahera Timur, Maluku Utara",MALUKU UTARA,,Indonesia,,0.6903847,128.2939029,https://maps.google.com/?cid=0x0:0x84484c4e04928934
restaurant,Masakan Asia,Berkah89' Cafe  Resto,"M7PV+5H6, Jl. Kompleks perumahan dewan, Soa Gimalaha, Kec. Kota Maba, Kabupaten Halmahera Timur, Maluku Utara","Kabupaten Halmahera Timur, Maluku Utara",MALUKU UTARA,,Indonesia,81355463881.0,0.6854141,128.2938954,https://maps.google.com/?cid=0x0:0xdf2222a061f7b7e
restaurant,Rumah Makan,Rumah Makan Lumintu,"Buli, Kec. Maba, Kabupaten Halmahera Timur, Maluku Utara","Kabupaten Halmahera Timur, Maluku Utara",MALUKU UTARA,,Indonesia,81312450716.0,0.8829831,128.2940597,https://maps.google.com/?cid=0x0:0x3cf80e9a6fedc7b9
restaurant,Restoran,RM Solo khas jawa,"V7PW+6GG, Buli, Kec. Maba, Kabupaten Halmahera Timur, Maluku Utara","Kabupaten Halmahera Timur, Maluku Utara",MALUKU UTARA,,Indonesia,82138540415.0,0.8855641,128.2963151,https://maps.google.com/?cid=0x0:0xf7c809cccae334b2
restaurant,Indonesia,Warung Makan Bude,"M7QQ+V9Q, Soa Gimalaha, Kec. Kota Maba, Kabupaten Halmahera Timur, Maluku Utara","Kabupaten Halmahera Timur, Maluku Utara",MALUKU UTARA,,Indonesia,,0.6897101,128.2884918,https://maps.google.com/?cid=0x0:0x9cd071aa936ec2f0
restaurant,Sesuai untuk keluarga,Rumah Makan Lesehan,"W6FW+F5J, Buli, Kec. Maba, Kabupaten Halmahera Timur, Maluku Utara","Kabupaten Halmahera Timur, Maluku Utara",MALUKU UTARA,,Indonesia,82110125822.0,0.9237199,128.2453926,https://maps.google.com/?cid=0x0:0x497a93513b2937de
restaurant,Restoran,Warung Makan Djawi,"V7RX+449, Unnamed Road, Geltoli, Maba, East Halmahera Regency, North Maluku","Kabupaten Halmahera Timur, Maluku Utara",MALUKU UTARA,,Indonesia,,0.8902976,128.2978745,https://maps.google.com/?cid=0x0:0xd55c6b664e083f88
restaurant,Indonesia,RM bakso spesial pak Sardo,"Unnamed Road, Buli, Kec. Kota Maba, Kabupaten Halmahera Timur, Maluku Utara","Kabupaten Halmahera Timur, Maluku Utara",MALUKU UTARA,,Indonesia,82117049562.0,0.8850854,128.2959222,https://maps.google.com/?cid=0x0:0x7dcc2f6235cddf73
restaurant,Rumah Makan,Rumah Makan Fagogoru,"V7QX+79P, Geltoli, Kec. Maba, Kabupaten Halmahera Timur, Maluku Utara","Kabupaten Halmahera Timur, Maluku Utara",MALUKU UTARA,,Indonesia,81247684075.0,0.8882048,128.2984481,https://maps.google.com/?cid=0x0:0x7eaecb816a981ac2
restaurant,restaurant,Kec. Wasile Sel.,"Kabupaten Halmahera Timur, Maluku Utara","Kabupaten Halmahera Timur, Maluku Utara",MALUKU UTARA,,Indonesia,,0.8641952,128.0208151,https://maps.google.com/?cid=0x0:0x476106d8340eeedb
restaurant,Makanan Kecil,Warung Makan Mbak Yem,"34VH+68Q, Cemara Jaya, Kec. Wasile, Kabupaten Halmahera Timur, Maluku Utara","Kabupaten Halmahera Timur, Maluku Utara",MALUKU UTARA,,Indonesia,82187041733.0,1.0930975,128.1283592,https://maps.google.com/?cid=0x0:0x4889d1caea1a12e7
restaurant,Makanan Kecil,PONDOK CEMARA,"Jl. Trans Halmahera No.Timur, Batu Raja, Kec. Wasile, Kabupaten Halmahera Timur, Maluku Utara","Kabupaten Halmahera Timur, Maluku Utara",MALUKU UTARA,,Indonesia,,1.0698743,128.1441652,https://maps.google.com/?cid=0x0:0x3f0f716e6bf16fcc
restaurant,Brunch,Kedai ACF,"34PJ+P4M, Jl. Trans Halmahera, Cemara Jaya, Kec. Wasile, Kabupaten Halmahera Timur, Maluku Utara","Kabupaten Halmahera Timur, Maluku Utara",MALUKU UTARA,,Indonesia,81279889664.0,1.0868454,128.1302971,https://maps.google.com/?cid=0x0:0x7069316bcfff5cbd
restaurant,Pengolahan Ikan,RM SEAFOOD AZILLA SARAMAAKE,"Saramaake, Kec. Wasile Sel., Kabupaten Halmahera Timur, Maluku Utara","Kabupaten Halmahera Timur, Maluku Utara",MALUKU UTARA,,Indonesia,82295358658.0,1.0485051,127.9672375,https://maps.google.com/?cid=0x0:0x18bd37c248b74d8b
restaurant,Restoran,Penginapan  Rumah Makan SEDERHANA,"34WG+HR7, Cemara Jaya, Kec. Wasile, Kabupaten Halmahera Timur, Maluku Utara","Kabupaten Halmahera Timur, Maluku Utara",MALUKU UTARA,,Indonesia,81355562450.0,1.0964104,128.1270617,https://maps.google.com/?cid=0x0:0x7c1c7cdc1b85337a
restaurant,Rumah Makan,Rumah Makan Najwa 2,"Nusa Jaya, Kec. Wasile Sel., Kabupaten Halmahera Timur, Maluku Utara","Kabupaten Halmahera Timur, Maluku Utara",MALUKU UTARA,,Indonesia,85282750011.0,0.7987836,127.8428592,https://maps.google.com/?cid=0x0:0x1d6e197f3849bd2
restaurant,Hotel,BAROKAH PENGINAPAN  RUMAH MAKAN,"35WQ+PJW, Daka Ino, Kec. Wasile Tim., Kabupaten Halmahera Timur, Maluku Utara","Kabupaten Halmahera Timur, Maluku Utara",MALUKU UTARA,,Indonesia,,1.0968536,128.1890672,https://maps.google.com/?cid=0x0:0x290326e4c7e1023e
restaurant,Brunch,RM. Lamongan,"35WP+6RV, Mekar Sari, Kec. Wasile, Kabupaten Halmahera Timur, Maluku Utara","Kabupaten Halmahera Timur, Maluku Utara",MALUKU UTARA,,Indonesia,,1.0956193,128.1870406,https://maps.google.com/?cid=0x0:0xf853624d3be5505
restaurant,Brunch,Warung Makan Bude Sarmi,"Cemara Jaya, Kec. Wasile, Kabupaten Halmahera Timur, Maluku Utara 97865","Kec. Wasile, Kabupaten Halmahera Timur",MALUKU UTARA,97865.0,Indonesia,82259902129.0,1.0931987,128.1279367,https://maps.google.com/?cid=0x0:0xffe3a77196998a63
restaurant,Makanan Kecil,Saung Pusaka,"35HC+MV6, Bumi Restu, Kec. Wasile, Kabupaten Halmahera Timur, Maluku Utara","Kabupaten Halmahera Timur, Maluku Utara",MALUKU UTARA,,Indonesia,82292610505.0,1.0791741,128.1721428,https://maps.google.com/?cid=0x0:0xe6d34727b7f6c53f
restaurant,Rumah Makan,Rumah Makan Miranda,"QRF9+FP, Binagara, Kec. Wasile Sel., Kabupaten Halmahera Timur, Maluku Utara","Kabupaten Halmahera Timur, Maluku Utara",MALUKU UTARA,,Indonesia,,0.7746487,127.8196205,https://maps.google.com/?cid=0x0:0x37dd757917910d4b
restaurant,Restoran,Rumah Makan Mas Deni,"QR99+G2F, Binagara, Kec. Wasile Sel., Kabupaten Halmahera Timur, Maluku Utara","Kabupaten Halmahera Timur, Maluku Utara",MALUKU UTARA,,Indonesia,8888866467.0,0.7688021,127.8175389,https://maps.google.com/?cid=0x0:0x9cd1c4e111889497
restaurant,Restoran,Rumah Makan Banyuwangi,"QR67+GG2, Binagara, Kec. Wasile Sel., Kabupaten Halmahera Timur, Maluku Utara","Kabupaten Halmahera Timur, Maluku Utara",MALUKU UTARA,,Indonesia,86546784648.0,0.7612676,127.8137513,https://maps.google.com/?cid=0x0:0x9ca6d8c13dafdbec
restaurant,Makanan Kecil,Warung Bakso Pak Suhem,"35Q8+FH3, Kaplingan, Mekar Sari, Kec. Wasile, Kabupaten Halmahera Timur, Maluku Utara","Kabupaten Halmahera Timur, Maluku Utara",MALUKU UTARA,,Indonesia,,1.0886375,128.1664219,https://maps.google.com/?cid=0x0:0xa65c02fff144518
restaurant,Bakso,Warung Bakso Pak Kumis,"Kakaraino, Kec. Wasile Tengah, Kabupaten Halmahera Timur, Maluku Utara","Kabupaten Halmahera Timur, Maluku Utara",MALUKU UTARA,,Indonesia,81340719911.0,1.3121235,128.4849923,https://maps.google.com/?cid=0x0:0x512611e4b71337ee
restaurant,restaurant,,,,MALUKU UTARA,,Indonesia,,,,https://maps.google.com/?cid=0x0:0x512611e4b71337eeu0026onu003dEs+Tehu0026midu003d/g/11c6df6ql9
restaurant,restaurant,,,,MALUKU UTARA,,Indonesia,,,,https://maps.google.com/?cid=0x0:0x512611e4b71337eeu0026onu003dEs+Jeruk+Manisu0026midu003d/g/11c6df6ql9
restaurant,restaurant,,,,MALUKU UTARA,,Indonesia,,,,https://maps.google.com/?cid=0x0:0x512611e4b71337eeu0026onu003dMie+Ayam+Biasau0026midu003d/g/11c6df6ql9
restaurant,restaurant,,,,MALUKU UTARA,,Indonesia,,,,https://maps.google.com/?cid=0x0:0x512611e4b71337eeu0026onu003dBakso+Beranaku0026midu003d/g/11c6df6ql9
restaurant,restaurant,,,,MALUKU UTARA,,Indonesia,,,,https://maps.google.com/?cid=0x0:0x512611e4b71337eeu0026onu003dBakso+Tenis+Biasau0026midu003d/g/11c6df6ql9
restaurant,restaurant,,,,MALUKU UTARA,,Indonesia,,,,https://maps.google.com/?cid=0x0:0x512611e4b71337eeu0026onu0026midu003d/g/11c6df6ql9
restaurant,restaurant,Kec. Wasile Utara,"Kabupaten Halmahera Timur, Maluku Utara","Kabupaten Halmahera Timur, Maluku Utara",MALUKU UTARA,,Indonesia,,1.4649455,128.3488444,https://maps.google.com/?cid=0x0:0x3c7417c6f2357f8e
restaurant,Bakso,Warung Bakso Pak Kumis,"Kakaraino, Kec. Wasile Tengah, Kabupaten Halmahera Timur, Maluku Utara","Kabupaten Halmahera Timur, Maluku Utara",MALUKU UTARA,,Indonesia,81340719911.0,1.3121235,128.4849923,https://maps.google.com/?cid=0x0:0x512611e4b71337ee
restaurant,Kedai Kopi,Warkop Babe,"GGWR+38X, Bololo, Kec. Wasile Utara, Kabupaten Halmahera Timur, Maluku Utara","Kabupaten Halmahera Timur, Maluku Utara",MALUKU UTARA,,Indonesia,,1.5452321,128.5408545,https://maps.google.com/?cid=0x0:0x4d6c271d2e64afef
restaurant,restaurant,Kec. Wasile Tim.,"Kabupaten Halmahera Timur, Maluku Utara","Kabupaten Halmahera Timur, Maluku Utara",MALUKU UTARA,,Indonesia,,1.1252456,128.206102,https://maps.google.com/?cid=0x0:0xc82c1b2c21ca079e
restaurant,Makanan Kecil,Warung Makan Mbak Yem,"34VH+68Q, Cemara Jaya, Kec. Wasile, Kabupaten Halmahera Timur, Maluku Utara","Kabupaten Halmahera Timur, Maluku Utara",MALUKU UTARA,,Indonesia,82187041733.0,1.0930975,128.1283592,https://maps.google.com/?cid=0x0:0x4889d1caea1a12e7
restaurant,Hotel,BAROKAH PENGINAPAN  RUMAH MAKAN,"35WQ+PJW, Daka Ino, Kec. Wasile Tim., Kabupaten Halmahera Timur, Maluku Utara","Kabupaten Halmahera Timur, Maluku Utara",MALUKU UTARA,,Indonesia,,1.0968536,128.1890672,https://maps.google.com/?cid=0x0:0x290326e4c7e1023e
restaurant,Brunch,RM. Lamongan,"35WP+6RV, Mekar Sari, Kec. Wasile, Kabupaten Halmahera Timur, Maluku Utara","Kabupaten Halmahera Timur, Maluku Utara",MALUKU UTARA,,Indonesia,,1.0956193,128.1870406,https://maps.google.com/?cid=0x0:0xf853624d3be5505
restaurant,Restoran,Penginapan  Rumah Makan SEDERHANA,"34WG+HR7, Cemara Jaya, Kec. Wasile, Kabupaten Halmahera Timur, Maluku Utara","Kabupaten Halmahera Timur, Maluku Utara",MALUKU UTARA,,Indonesia,81355562450.0,1.0964104,128.1270617,https://maps.google.com/?cid=0x0:0x7c1c7cdc1b85337a
restaurant,Kedai Kopi,Warung Ampiran,"35RG+MGF, Mekar Sari, Kec. Wasile, Kabupaten Halmahera Timur, Maluku Utara","Kabupaten Halmahera Timur, Maluku Utara",MALUKU UTARA,,Indonesia,82348012205.0,1.0917105,128.176299,https://maps.google.com/?cid=0x0:0xf0b55830f475a34e
restaurant,Brunch,Kedai ACF,"34PJ+P4M, Jl. Trans Halmahera, Cemara Jaya, Kec. Wasile, Kabupaten Halmahera Timur, Maluku Utara","Kabupaten Halmahera Timur, Maluku Utara",MALUKU UTARA,,Indonesia,81279889664.0,1.0868454,128.1302971,https://maps.google.com/?cid=0x0:0x7069316bcfff5cbd
restaurant,Makanan Kecil,Saung Pusaka,"35HC+MV6, Bumi Restu, Kec. Wasile, Kabupaten Halmahera Timur, Maluku Utara","Kabupaten Halmahera Timur, Maluku Utara",MALUKU UTARA,,Indonesia,82292610505.0,1.0791741,128.1721428,https://maps.google.com/?cid=0x0:0xe6d34727b7f6c53f
restaurant,Makanan Kecil,Warung Bakso Pak Suhem,"35Q8+FH3, Kaplingan, Mekar Sari, Kec. Wasile, Kabupaten Halmahera Timur, Maluku Utara","Kabupaten Halmahera Timur, Maluku Utara",MALUKU UTARA,,Indonesia,,1.0886375,128.1664219,https://maps.google.com/?cid=0x0:0xa65c02fff144518
restaurant,Kedai Kopi,TRANS COFFE,"34JV+785, Batu Raja, Kec. Wasile, Kabupaten Halmahera Timur, Maluku Utara","Kabupaten Halmahera Timur, Maluku Utara",MALUKU UTARA,,Indonesia,,1.0806485,128.1433537,https://maps.google.com/?cid=0x0:0x6b9da33798e1cd79
restaurant,Bakso,Bakso ojo lali 02,"4692+4HV sp4 desa Sidomulyo, Subaim, Kec. Wasile Tim., Kabupaten Halmahera Timur, Maluku Utara","Kabupaten Halmahera Timur, Maluku Utara",MALUKU UTARA,,Indonesia,82188643304.0,1.1178574,128.2014102,https://maps.google.com/?cid=0x0:0xe78051cf2173c663
restaurant,Kedai Kopi,MURIA COFFE,"Batu Raja, Kec. Wasile, Kabupaten Halmahera Timur, Maluku Utara","Kabupaten Halmahera Timur, Maluku Utara",MALUKU UTARA,,Indonesia,85366652344.0,1.0845795,128.1545119,https://maps.google.com/?cid=0x0:0xfdd1c57ac03c0b24
restaurant,Kedai Kopi,Kedai D.S.B,"46C3+7V2, Ake Daga, Kec. Wasile Tim., Kabupaten Halmahera Timur, Maluku Utara","Kabupaten Halmahera Timur, Maluku Utara",MALUKU UTARA,,Indonesia,,1.1199962,128.2051735,https://maps.google.com/?cid=0x0:0x3e7ef77eb20444da
restaurant,Kedai Kopi,KEDAI LARISO,"35VP+W6M, Mekar Sari, Kec. Wasile, Kabupaten Halmahera Timur, Maluku Utara","Kabupaten Halmahera Timur, Maluku Utara",MALUKU UTARA,,Indonesia,82311011546.0,1.0948349,128.1855493,https://maps.google.com/?cid=0x0:0x44e704f95e807b09
restaurant,restaurant,Kec. Maba Tengah,"Kabupaten Halmahera Timur, Maluku Utara","Kabupaten Halmahera Timur, Maluku Utara",MALUKU UTARA,,Indonesia,,0.9790308,128.4735869,https://maps.google.com/?cid=0x0:0xaa0e36e52fc413d2
restaurant,Layanan Transportasi,TUGU YAWANLI,"XGC9+P7F, Jln.sekolah SDN, Wayamli, Kec. Maba Tengah, Kabupaten Halmahera Timur, Maluku Utara","Kabupaten Halmahera Timur, Maluku Utara",MALUKU UTARA,,Indonesia,,0.9718099,128.5181593,https://maps.google.com/?cid=0x0:0x7455970eeec40ece
restaurant,Brunch,kedai syamsurya,"38P8+7XW, Geltoli, Kec. Maba, Kabupaten Halmahera Timur, Maluku Utara","Kabupaten Halmahera Timur, Maluku Utara",MALUKU UTARA,,Indonesia,82154515352.0,1.0857435,128.3174415,https://maps.google.com/?cid=0x0:0xaee812794c5cc79
restaurant,restaurant,RM. Moro Tresno,"XF96+VXF, Bangul, Kec. Maba Tengah, Kabupaten Halmahera Timur, Maluku Utara","Kabupaten Halmahera Timur, Maluku Utara",MALUKU UTARA,,Indonesia,,0.9696842,128.4624076,https://maps.google.com/?cid=0x0:0xc58ab04006fc5ec2
restaurant,restaurant,Warung Ichy Acha,"XFHF+VVC, Beringin Lamo, Kec. Maba Tengah, Kabupaten Halmahera Timur, Maluku Utara","Kabupaten Halmahera Timur, Maluku Utara",MALUKU UTARA,,Indonesia,,0.9796854,128.474625,https://maps.google.com/?cid=0x0:0x8c76677c1cdcc346
restaurant,restaurant,Rumah Makan ABADI,"XFHF+937, Beringin Lamo, Kec. Maba Tengah, Kabupaten Halmahera Timur, Maluku Utara","Kabupaten Halmahera Timur, Maluku Utara",MALUKU UTARA,,Indonesia,,0.9784186,128.4726864,https://maps.google.com/?cid=0x0:0x897c03f8d9d731ea
restaurant,restaurant,Warung Makan Bersaudara,"XFHF+F76, Beringin Lamo, Kec. Maba Tengah, Kabupaten Halmahera Timur, Maluku Utara","Kabupaten Halmahera Timur, Maluku Utara",MALUKU UTARA,,Indonesia,,0.9786591,128.4731391,https://maps.google.com/?cid=0x0:0x2b0496b9c04c2d65
restaurant,Indonesia,Warung Maba Pura,"R6HR+F8R, Unnamed Road, Soa Laipoh, Kec. Kota Maba, Kabupaten Halmahera Timur, Maluku Utara","Kabupaten Halmahera Timur, Maluku Utara",MALUKU UTARA,,Indonesia,,0.8287453,128.2407632,https://maps.google.com/?cid=0x0:0x12f46ad6698fda10
restaurant,Hidangan Laut,SMORGAN Resto,"PXJV+JGQ, Jl. Pemerintahan, depan KODIM, Halut, Mkcm, Tobelo, North Halmahera Regency, North Maluku","Kabupaten Halmahera Utara, Maluku Utara",MALUKU UTARA,,Indonesia,85201115150.0,1.7315784,127.9938588,https://maps.google.com/?cid=0x0:0xd45d6fcd651f0c5c
restaurant,restaurant,Kec. Maba Utara,"Kabupaten Halmahera Timur, Maluku Utara","Kabupaten Halmahera Timur, Maluku Utara",MALUKU UTARA,,Indonesia,,1.3822173,128.7506632,https://maps.google.com/?cid=0x0:0x65fb9a232e52ab67
restaurant,Bakso,Warung Bakso Pak Kumis,"Kakaraino, Kec. Wasile Tengah, Kabupaten Halmahera Timur, Maluku Utara","Kabupaten Halmahera Timur, Maluku Utara",MALUKU UTARA,,Indonesia,81340719911.0,1.3121235,128.4849923,https://maps.google.com/?cid=0x0:0x512611e4b71337ee
restaurant,Restoran,RM. Lumintu,"M7RV+5H2, Soa Gimalaha, Kec. Kota Maba, Kabupaten Halmahera Timur, Maluku Utara","Kabupaten Halmahera Timur, Maluku Utara",MALUKU UTARA,,Indonesia,,0.6903847,128.2939029,https://maps.google.com/?cid=0x0:0x84484c4e04928934
restaurant,Layanan Transportasi,TUGU YAWANLI,"XGC9+P7F, Jln.sekolah SDN, Wayamli, Kec. Maba Tengah, Kabupaten Halmahera Timur, Maluku Utara","Kabupaten Halmahera Timur, Maluku Utara",MALUKU UTARA,,Indonesia,,0.9718099,128.5181593,https://maps.google.com/?cid=0x0:0x7455970eeec40ece
restaurant,restaurant,Rumah Tete coffee,"HP9F+H5, Jara Jara, Kec. Maba Utara, Kabupaten Halmahera Timur, Maluku Utara","Kabupaten Halmahera Timur, Maluku Utara",MALUKU UTARA,,Indonesia,,1.5698064,128.7232544,https://maps.google.com/?cid=0x0:0x31c19ed1f127328d
restaurant,Indonesia,Warung Maba Pura,"R6HR+F8R, Unnamed Road, Soa Laipoh, Kec. Kota Maba, Kabupaten Halmahera Timur, Maluku Utara","Kabupaten Halmahera Timur, Maluku Utara",MALUKU UTARA,,Indonesia,,0.8287453,128.2407632,https://maps.google.com/?cid=0x0:0x12f46ad6698fda10
restaurant,restaurant,Kec. Kota Maba,"Kabupaten Halmahera Timur, Maluku Utara","Kabupaten Halmahera Timur, Maluku Utara",MALUKU UTARA,,Indonesia,,0.6760128,128.2875055,https://maps.google.com/?cid=0x0:0x3bda60336c220486
restaurant,Indonesia,Warung Makan Bude,"M7QQ+V9Q, Soa Gimalaha, Kec. Kota Maba, Kabupaten Halmahera Timur, Maluku Utara","Kabupaten Halmahera Timur, Maluku Utara",MALUKU UTARA,,Indonesia,,0.6897101,128.2884918,https://maps.google.com/?cid=0x0:0x9cd071aa936ec2f0
restaurant,Masakan Asia,Rumah Makan Az Zahra,"M7MQ+28W, Jl. Pendidikan, Soa Gimalaha, Kec. Kota Maba, Kabupaten Halmahera Timur, Maluku Utara","Kabupaten Halmahera Timur, Maluku Utara",MALUKU UTARA,,Indonesia,,0.6826111,128.2883225,https://maps.google.com/?cid=0x0:0x467f9d172d0ed961
restaurant,Restoran,RM. Moro Seneng,"M7PJ+23Q, Soa Gimalaha, Kec. Kota Maba, Kabupaten Halmahera Timur, Maluku Utara","Kabupaten Halmahera Timur, Maluku Utara",MALUKU UTARA,,Indonesia,,0.6850772,128.2802416,https://maps.google.com/?cid=0x0:0xc4ea86b21baa9494
restaurant,Masakan Asia,Berkah89' Cafe  Resto,"M7PV+5H6, Jl. Kompleks perumahan dewan, Soa Gimalaha, Kec. Kota Maba, Kabupaten Halmahera Timur, Maluku Utara","Kabupaten Halmahera Timur, Maluku Utara",MALUKU UTARA,,Indonesia,81355463881.0,0.6854141,128.2938954,https://maps.google.com/?cid=0x0:0xdf2222a061f7b7e
restaurant,Rumah Makan,Rumah Makan Lumintu,"Buli, Kec. Maba, Kabupaten Halmahera Timur, Maluku Utara","Kabupaten Halmahera Timur, Maluku Utara",MALUKU UTARA,,Indonesia,81312450716.0,0.8829831,128.2940597,https://maps.google.com/?cid=0x0:0x3cf80e9a6fedc7b9
restaurant,Hotel,Cafe Mab@Net  Penginapan Marfa,"M7MP+VV4, Soa Gimalaha, Kec. Kota Maba, Kabupaten Halmahera Timur, Maluku Utara","Kabupaten Halmahera Timur, Maluku Utara",MALUKU UTARA,,Indonesia,85299999493.0,0.6846437,128.28719,https://maps.google.com/?cid=0x0:0x162f15d6d7fbbadc
restaurant,Restoran,RM. Lumintu,"M7RV+5H2, Soa Gimalaha, Kec. Kota Maba, Kabupaten Halmahera Timur, Maluku Utara","Kabupaten Halmahera Timur, Maluku Utara",MALUKU UTARA,,Indonesia,,0.6903847,128.2939029,https://maps.google.com/?cid=0x0:0x84484c4e04928934
restaurant,Brunch,RM Warung IJO,"M7RW+629, Unnamed Road, Soa Gimalaha, Kec. Kota Maba, Kabupaten Halmahera Timur, Maluku Utara","Kabupaten Halmahera Timur, Maluku Utara",MALUKU UTARA,,Indonesia,,0.6905283,128.29511,https://maps.google.com/?cid=0x0:0x921675e07073009c
restaurant,Restoran,Warung serba 20 ribu,"M7RV+8PF, Soa Gimalaha, Kec. Kota Maba, Kabupaten Halmahera Timur, Maluku Utara","Kabupaten Halmahera Timur, Maluku Utara",MALUKU UTARA,,Indonesia,82138340678.0,0.6908184,128.2942887,https://maps.google.com/?cid=0x0:0x6706224a46c0dd29
restaurant,Indonesia,Kartika Resto,"V7FF+PVH, Wayafli, Kec. Maba, Kabupaten Halmahera Timur, Maluku Utara","Kabupaten Halmahera Timur, Maluku Utara",MALUKU UTARA,,Indonesia,,0.873689,128.2744578,https://maps.google.com/?cid=0x0:0x43490cb59068333a
restaurant,Padang,WARUNG MAKAN PADANG KHAS NUSANTARA,"Maba Sangaji, Kec. Kota Maba, Kabupaten Halmahera Timur, Maluku Utara","Kabupaten Halmahera Timur, Maluku Utara",MALUKU UTARA,,Indonesia,,0.6999598,128.2891945,https://maps.google.com/?cid=0x0:0xdd18506450a1c695
restaurant,Kedai Kopi,Pojok Coffe,"Maba, Jl. 40, Soa Gimalaha, Kec. Kota Maba, Kabupaten Halmahera Timur, Maluku Utara","Kabupaten Halmahera Timur, Maluku Utara",MALUKU UTARA,,Indonesia,82260459321.0,0.6848771,128.2802353,https://maps.google.com/?cid=0x0:0x65e473727075d315
