Category,Real Category,Business Name,Address,City,State,Postal Code,Country,Phone,Latitude,Longitude,Map Link
perumahan,perumahan,Kec. Wasile,"Kabupaten Halmahera Timur, Maluku Utara","Kabupaten Halmahera Timur, Maluku Utara",MALUKU UTARA,,Indonesia,,1.0775041,128.133943,https://maps.google.com/?cid=0x0:0x21de040486bfe03f
perumahan,perumahan,Maba,"44GJ+3V4, Subaim, Kec. Wasile, Kabupaten Halmahera Timur, Maluku Utara","Kabupaten Halmahera Timur, Maluku Utara",MALUKU UTARA,,Indonesia,,1.1251646,128.1321618,https://maps.google.com/?cid=0x0:0x452b59efdb4625
perumahan,Komplek perumahan,AgusEvi Home,"46F3+2J9, Sidomulyo, Kec. Wasile Tim., Kabupaten Halmahera Timur, Maluku Utara","Kabupaten Halmahera Timur, Maluku Utara",MALUKU UTARA,,Indonesia,,1.1225346,128.2041236,https://maps.google.com/?cid=0x0:0x83ce7639c5e73bb5
perumahan,Komplek perumahan,Rumah Nita,"35R7+687, Bumi Restu, Kec. Wasile, Kabupaten Halmahera Timur, Maluku Utara","Kabupaten Halmahera Timur, Maluku Utara",MALUKU UTARA,,Indonesia,,1.090289,128.1626476,https://maps.google.com/?cid=0x0:0x3fa0d4feae5bc01e
perumahan,Komplek perumahan,Perumahan 50 Baturaja,"Batu Raja, Kec. Wasile, Kabupaten Halmahera Timur, Maluku Utara","Kabupaten Halmahera Timur, Maluku Utara",MALUKU UTARA,,Indonesia,,1.0669442,128.1464028,https://maps.google.com/?cid=0x0:0xe2439b27550cfd64
perumahan,Kantor Perusahaan,blok B desa bumirestu kec wasile kab halmahera timur,"35J5+5JV, Batu Raja, Kec. Wasile, Kabupaten Halmahera Timur, Maluku Utara","Kabupaten Halmahera Timur, Maluku Utara",MALUKU UTARA,,Indonesia,,1.0795619,128.1592712,https://maps.google.com/?cid=0x0:0xc4d7b0260e2b912
perumahan,Komplek perumahan,MAS JAWA FARM,"35M8+G6X, Bumi Restu, Kec. Wasile, Kabupaten Halmahera Timur, Maluku Utara","Kabupaten Halmahera Timur, Maluku Utara",MALUKU UTARA,,Indonesia,,1.0838501,128.1656207,https://maps.google.com/?cid=0x0:0x59f86cbdf526cc69
perumahan,Pembangunan Perumahan,Pertanian,"4529+W4, Gulapapo, Kec. Wasile, Kabupaten Halmahera Timur, Maluku Utara","Kabupaten Halmahera Timur, Maluku Utara",MALUKU UTARA,,Indonesia,,1.102362,128.167855,https://maps.google.com/?cid=0x0:0x31e907b82764bd6a
perumahan,Komplek perumahan,Desa wasile,"3X9H+PXW, Wasile, Kec. Wasile Sel., Kabupaten Halmahera Timur, Maluku Utara","Kabupaten Halmahera Timur, Maluku Utara",MALUKU UTARA,,Indonesia,,1.0693616,127.9799459,https://maps.google.com/?cid=0x0:0x60262e1c358eb638
perumahan,Komplek perumahan,Rumah ku,"34JR+6C, Batu Raja, Kec. Wasile, Kabupaten Halmahera Timur, Maluku Utara","Kabupaten Halmahera Timur, Maluku Utara",MALUKU UTARA,,Indonesia,,1.0808031,128.1406005,https://maps.google.com/?cid=0x0:0xe4b0821cd9270381
perumahan,Pembangunan Perumahan,ambon maluku,"458F+W94, Gulapapo, Kec. Wasile, Kabupaten Halmahera Timur, Maluku Utara","Kabupaten Halmahera Timur, Maluku Utara",MALUKU UTARA,,Indonesia,,1.1172603,128.1734455,https://maps.google.com/?cid=0x0:0xf8af2baefe055743
perumahan,Komplek perumahan,Indonesia Maluku Utara,"448C+MG7, Subaim, Kec. Wasile, Kabupaten Halmahera Timur, Maluku Utara","Kabupaten Halmahera Timur, Maluku Utara",MALUKU UTARA,,Indonesia,,1.1166679,128.1213066,https://maps.google.com/?cid=0x0:0x115a29a169db0035
perumahan,Komplek perumahan,rumah nabila,"34QM+V2, Cemara Jaya, Kec. Wasile, Kabupaten Halmahera Timur, Maluku Utara","Kabupaten Halmahera Timur, Maluku Utara",MALUKU UTARA,,Indonesia,,1.0896679,128.1325766,https://maps.google.com/?cid=0x0:0xf16c245117beb23d
perumahan,Komplek perumahan,Humam family,"35Q9+QXG, Bumi Restu, Kec. Wasile, Kabupaten Halmahera Timur, Maluku Utara","Kabupaten Halmahera Timur, Maluku Utara",MALUKU UTARA,,Indonesia,,1.0886904,128.1707267,https://maps.google.com/?cid=0x0:0x5aeecfb409011a6e
perumahan,perumahan,Maba,"Maba Sangaji, Kec. Kota Maba, Kabupaten Halmahera Timur, Maluku Utara","Kabupaten Halmahera Timur, Maluku Utara",MALUKU UTARA,,Indonesia,,0.689218,128.277206,https://maps.google.com/?cid=0x0:0xadf03d8fc22db37a
perumahan,Komplek perumahan,Perumahan Pemda Haltim,"M7VG+QJC, Unnamed Road, Maba Sangaji, Kec. Kota Maba, Kabupaten Halmahera Timur, Maluku Utara","Kabupaten Halmahera Timur, Maluku Utara",MALUKU UTARA,,Indonesia,,0.6944393,128.2765156,https://maps.google.com/?cid=0x0:0x6c5abbce9c97d7a0
perumahan,Komplek perumahan,"Maba, Halmahera timur","V7PW+QRC, Unnamed Road, Geltoli, Kec. Maba, Kabupaten Halmahera Timur, Maluku Utara","Kabupaten Halmahera Timur, Maluku Utara",MALUKU UTARA,,Indonesia,,0.88695,128.2970267,https://maps.google.com/?cid=0x0:0xb18e76c50935f65d
perumahan,Tujuan Wisata,Areal berburu suku dalam Desa Baburino,"V7QX+69F, Geltoli, Kec. Maba, Kabupaten Halmahera Timur, Maluku Utara","Kabupaten Halmahera Timur, Maluku Utara",MALUKU UTARA,,Indonesia,,0.8880625,128.2984219,https://maps.google.com/?cid=0x0:0xa0fe649279a70ea0
perumahan,perumahan,Kec. Maba Sel.,"Kabupaten Halmahera Timur, Maluku Utara","Kabupaten Halmahera Timur, Maluku Utara",MALUKU UTARA,,Indonesia,,0.6311669,128.4249841,https://maps.google.com/?cid=0x0:0x8622114f0d1a22ac
perumahan,Komplek perumahan,Rumah (Alm) Hi. Baksir Hasan,"HFXG+8J7, Waci, Kec. Maba Sel., Kabupaten Halmahera Timur, Maluku Utara","Kabupaten Halmahera Timur, Maluku Utara",MALUKU UTARA,,Indonesia,,0.598288,128.4765354,https://maps.google.com/?cid=0x0:0xce26661317fde253
perumahan,Komplek perumahan,House Chaliem,"HFXF+97J, Peteley, Kec. Maba Sel., Kabupaten Halmahera Timur, Maluku Utara","Kabupaten Halmahera Timur, Maluku Utara",MALUKU UTARA,,Indonesia,,0.5984708,128.4731258,https://maps.google.com/?cid=0x0:0xd7c92ad6835ea6a2
perumahan,Perhimpunan Pengembang Perumahan,Hi Salahuddin Hasan,"HFXF+RFQ, Peteley, Kec. Maba Sel., Kabupaten Halmahera Timur, Maluku Utara","Kabupaten Halmahera Timur, Maluku Utara",MALUKU UTARA,,Indonesia,,0.5991746,128.4740859,https://maps.google.com/?cid=0x0:0x2dd401059db8ad1e
perumahan,Pembangunan Perumahan,Muhammad Hasan,"HFXF+RFQ, Peteley, Kec. Maba Sel., Kabupaten Halmahera Timur, Maluku Utara","Kabupaten Halmahera Timur, Maluku Utara",MALUKU UTARA,,Indonesia,,0.5989602,128.4742388,https://maps.google.com/?cid=0x0:0x7ed077af006f39bd
perumahan,Perhimpunan Pengembang Perumahan,WIFI_KIOS KAIFA,"HFXF+97J, Peteley, Kec. Maba Sel., Kabupaten Halmahera Timur, Maluku Utara","Kabupaten Halmahera Timur, Maluku Utara",MALUKU UTARA,,Indonesia,,0.598672,128.473415,https://maps.google.com/?cid=0x0:0x85c4702f3a93d727
perumahan,Gedung Apartemen,Rumah ainullahhhh,"HGQ8+Q4G, Peteley, Kec. Maba Sel., Kabupaten Halmahera Timur, Maluku Utara","Kabupaten Halmahera Timur, Maluku Utara",MALUKU UTARA,,Indonesia,,0.5894375,128.5153281,https://maps.google.com/?cid=0x0:0x5606ee3391d0cbc6
perumahan,Komplek perumahan,Sekdes,"HFXF+97J, Peteley, Kec. Maba Sel., Kabupaten Halmahera Timur, Maluku Utara","Kabupaten Halmahera Timur, Maluku Utara",MALUKU UTARA,,Indonesia,,0.5984842,128.4733225,https://maps.google.com/?cid=0x0:0xe93efcc4651f10f1
perumahan,Kantor Pemerintah,Desa momole,"HGR6+W2P, Momole, Kec. Maba Sel., Kabupaten Halmahera Timur, Maluku Utara","Kabupaten Halmahera Timur, Maluku Utara",MALUKU UTARA,,Indonesia,,0.5923375,128.5100781,https://maps.google.com/?cid=0x0:0x1ffb92ee8b5c99e9
perumahan,Komplek perumahan,Sinta,"HGR8+63G, Bicoli, Kec. Maba Sel., Kabupaten Halmahera Timur, Maluku Utara","Kabupaten Halmahera Timur, Maluku Utara",MALUKU UTARA,,Indonesia,,0.5905701,128.5152178,https://maps.google.com/?cid=0x0:0x519b481809cd1632
perumahan,Komplek perumahan,Ismunandar Hasan,"HFXG+7C9, Waci, Kec. Maba Sel., Kabupaten Halmahera Timur, Maluku Utara","Kabupaten Halmahera Timur, Maluku Utara",MALUKU UTARA,,Indonesia,,0.598174,128.476111,https://maps.google.com/?cid=0x0:0x931024a8855ad6e6
perumahan,Kebun Buah,Kebun cengkeh,"HFWG+C44, Waci, Kec. Maba Sel., Kabupaten Halmahera Timur, Maluku Utara","Kabupaten Halmahera Timur, Maluku Utara",MALUKU UTARA,,Indonesia,,0.5948178,128.4748792,https://maps.google.com/?cid=0x0:0x650a2a4d5c298dad
perumahan,Komplek perumahan,Hamdi House,"HFXG+7PR, Waci, Kec. Maba Sel., Kabupaten Halmahera Timur, Maluku Utara","Kabupaten Halmahera Timur, Maluku Utara",MALUKU UTARA,,Indonesia,,0.5977508,128.4766841,https://maps.google.com/?cid=0x0:0xbe33338af5cb318e
perumahan,Komplek perumahan,azish house,"HGQ8+Q4G, Peteley, Kec. Maba Sel., Kabupaten Halmahera Timur, Maluku Utara","Kabupaten Halmahera Timur, Maluku Utara",MALUKU UTARA,,Indonesia,,0.5889233,128.5165939,https://maps.google.com/?cid=0x0:0x4d4d4d00faf0a24a
perumahan,perumahan,Kec. Wasile Sel.,"Kabupaten Halmahera Timur, Maluku Utara","Kabupaten Halmahera Timur, Maluku Utara",MALUKU UTARA,,Indonesia,,0.8641952,128.0208151,https://maps.google.com/?cid=0x0:0x476106d8340eeedb
perumahan,Komplek perumahan,Desa wasile,"3X9H+PXW, Wasile, Kec. Wasile Sel., Kabupaten Halmahera Timur, Maluku Utara","Kabupaten Halmahera Timur, Maluku Utara",MALUKU UTARA,,Indonesia,,1.0693616,127.9799459,https://maps.google.com/?cid=0x0:0x60262e1c358eb638
perumahan,Balai masyarakat,Desa Ekor Kec. Wasile Selatan Kab. Haltim,"RR3Q+JV9, Nusa Jaya, Kec. Wasile Sel., Kabupaten Halmahera Timur, Maluku Utara","Kabupaten Halmahera Timur, Maluku Utara",MALUKU UTARA,,Indonesia,,0.8040126,127.8396162,https://maps.google.com/?cid=0x0:0x8800e509454e6e20
perumahan,perumahan,Maba,"44GJ+3V4, Subaim, Kec. Wasile, Kabupaten Halmahera Timur, Maluku Utara","Kabupaten Halmahera Timur, Maluku Utara",MALUKU UTARA,,Indonesia,,1.1251646,128.1321618,https://maps.google.com/?cid=0x0:0x452b59efdb4625
perumahan,Komplek perumahan,Ararat,"3XJR+2GG, Wasile, Kec. Wasile Sel., Kabupaten Halmahera Timur, Maluku Utara","Kabupaten Halmahera Timur, Maluku Utara",MALUKU UTARA,,Indonesia,,1.0800728,127.9913396,https://maps.google.com/?cid=0x0:0xc88ca30303ff21fe
perumahan,Komplek perumahan,Perumahan 50 Baturaja,"Batu Raja, Kec. Wasile, Kabupaten Halmahera Timur, Maluku Utara","Kabupaten Halmahera Timur, Maluku Utara",MALUKU UTARA,,Indonesia,,1.0669442,128.1464028,https://maps.google.com/?cid=0x0:0xe2439b27550cfd64
perumahan,Bendungan,Bendungan,"448C+MG7, Subaim, Kec. Wasile, Kabupaten Halmahera Timur, Maluku Utara","Kabupaten Halmahera Timur, Maluku Utara",MALUKU UTARA,,Indonesia,,1.1166679,128.1213066,https://maps.google.com/?cid=0x0:0xf99e3c3bfb859990
perumahan,Komplek perumahan,Duwi aSHter,"PRX4+6X2, Binagara, Kec. Wasile Sel., Kabupaten Halmahera Timur, Maluku Utara","Kabupaten Halmahera Timur, Maluku Utara",MALUKU UTARA,,Indonesia,,0.7480931,127.8065297,https://maps.google.com/?cid=0x0:0x7425046624ca8db2
perumahan,Perhimpunan Pengembang Perumahan,NILUS NURU,"3XJR+2GG, Wasile, Kec. Wasile Sel., Kabupaten Halmahera Timur, Maluku Utara","Kabupaten Halmahera Timur, Maluku Utara",MALUKU UTARA,,Indonesia,,1.0801401,127.9913048,https://maps.google.com/?cid=0x0:0x6889006103fec389
perumahan,Komplek perumahan,rumah nabila,"34QM+V2, Cemara Jaya, Kec. Wasile, Kabupaten Halmahera Timur, Maluku Utara","Kabupaten Halmahera Timur, Maluku Utara",MALUKU UTARA,,Indonesia,,1.0896679,128.1325766,https://maps.google.com/?cid=0x0:0xf16c245117beb23d
perumahan,Pembangunan Perumahan,Fauji,"25WW+W42, Bumi Restu, Kec. Wasile, Kabupaten Halmahera Timur, Maluku Utara","Kabupaten Halmahera Timur, Maluku Utara",MALUKU UTARA,,Indonesia,,1.0472648,128.1952577,https://maps.google.com/?cid=0x0:0xd8b16ab47734f4b6
perumahan,Komplek perumahan,Rumah ku,"34JR+6C, Batu Raja, Kec. Wasile, Kabupaten Halmahera Timur, Maluku Utara","Kabupaten Halmahera Timur, Maluku Utara",MALUKU UTARA,,Indonesia,,1.0808031,128.1406005,https://maps.google.com/?cid=0x0:0xe4b0821cd9270381
perumahan,Komplek perumahan,Transmigrasi baru,"462H+8JQ, Mekar Sari, Kec. Wasile, Kabupaten Halmahera Timur, Maluku Utara","Kabupaten Halmahera Timur, Maluku Utara",MALUKU UTARA,,Indonesia,,1.1008282,128.2291073,https://maps.google.com/?cid=0x0:0x8ab175c34685bb89
perumahan,Komplek perumahan,Habib Abu,"3X2C+R43, Saramaake, Kec. Wasile Sel., Kabupaten Halmahera Timur, Maluku Utara","Kabupaten Halmahera Timur, Maluku Utara",MALUKU UTARA,,Indonesia,,1.052003,127.9702944,https://maps.google.com/?cid=0x0:0xa22b3c1e9a31ed24
perumahan,perumahan,Kec. Wasile Tengah,"Kabupaten Halmahera Timur, Maluku Utara","Kabupaten Halmahera Timur, Maluku Utara",MALUKU UTARA,,Indonesia,,1.2482149,128.1175021,https://maps.google.com/?cid=0x0:0xab5a8dcd2bdeb346
perumahan,Komplek perumahan,Rumah Hidhayat,"7428+CHX, Bokimaake, Kec. Wasile Tengah, Kabupaten Halmahera Timur, Maluku Utara","Kabupaten Halmahera Timur, Maluku Utara",MALUKU UTARA,,Indonesia,,1.2511046,128.1164827,https://maps.google.com/?cid=0x0:0xd6cbeaa8107bf6b
perumahan,Pembangunan Perumahan,DESA PUAO,"74Q9+83R, Puao, Kec. Wasile Tengah, Kabupaten Halmahera Timur, Maluku Utara","Kabupaten Halmahera Timur, Maluku Utara",MALUKU UTARA,,Indonesia,,1.2883529,128.117634,https://maps.google.com/?cid=0x0:0x6f4a286c84dc6065
perumahan,Komplek perumahan,Tursito,"8F6M+RXX, Kakaraino, Kec. Wasile Tengah, Kabupaten Halmahera Timur, Maluku Utara","Kabupaten Halmahera Timur, Maluku Utara",MALUKU UTARA,,Indonesia,,1.3121235,128.4849923,https://maps.google.com/?cid=0x0:0x5eb9daee41d54ef2
perumahan,Pembangunan Perumahan,Garasi mobil rajwa,"64X9+P77, Lolobata, Kec. Wasile Tengah, Kabupaten Halmahera Timur, Maluku Utara","Kabupaten Halmahera Timur, Maluku Utara",MALUKU UTARA,,Indonesia,,1.2492954,128.1181839,https://maps.google.com/?cid=0x0:0xe1d81f031027c3bf
perumahan,Perumahan guru,DEPOT HAFIS,"64X8+8X5, Lolobata, Kec. Wasile Tengah, Kabupaten Halmahera Timur, Maluku Utara","Kabupaten Halmahera Timur, Maluku Utara",MALUKU UTARA,,Indonesia,,1.2482509,128.1174723,https://maps.google.com/?cid=0x0:0x95054b676f9ce7f
perumahan,Komplek perumahan,Rumah hani,"8F6M+RXX Sidomulyo sp 4 blok N, Kakaraino, Kec. Wasile Tengah, Kabupaten Halmahera Timur, Maluku Utara","Kabupaten Halmahera Timur, Maluku Utara",MALUKU UTARA,,Indonesia,,1.3121235,128.4849923,https://maps.google.com/?cid=0x0:0x96c23aa539ba31fa
perumahan,Komplek perumahan,Marthenson Laleda,"986Q+63J, Kakaraino, Kec. Wasile Tengah, Kabupaten Halmahera Timur, Maluku Utara","Kabupaten Halmahera Timur, Maluku Utara",MALUKU UTARA,,Indonesia,,1.3605815,128.3376483,https://maps.google.com/?cid=0x0:0xcff4ac169d17b63b
perumahan,Komplek perumahan,Desa baturaja,"8F6M+RXX, Kakaraino, Kec. Wasile Tengah, Kabupaten Halmahera Timur, Maluku Utara","Kabupaten Halmahera Timur, Maluku Utara",MALUKU UTARA,,Indonesia,,1.3121235,128.4849923,https://maps.google.com/?cid=0x0:0x98e38635960a7e91
perumahan,Komplek perumahan,Rumah Aqila,"56XC+233, Tutuling Jaya, Kec. Wasile Tim., Kabupaten Halmahera Timur, Maluku Utara","Kabupaten Halmahera Timur, Maluku Utara",MALUKU UTARA,,Indonesia,,1.1971652,128.2217742,https://maps.google.com/?cid=0x0:0xb8188a0463863f0d
perumahan,Perumahan guru,Desa Hilaitetor,"95MP+77, Hilaitetor, Kec. Wasile Utara, Kabupaten Halmahera Timur, Maluku Utara","Kabupaten Halmahera Timur, Maluku Utara",MALUKU UTARA,,Indonesia,,1.3831596,128.1856465,https://maps.google.com/?cid=0x0:0xf0d84be31d48ece8
perumahan,Pembangunan Perumahan,Selsion ambalao desa silalayang,"74H6+6HX, Silalayang, Kec. Wasile Tengah, Kabupaten Halmahera Timur, Maluku Utara","Kabupaten Halmahera Timur, Maluku Utara",MALUKU UTARA,,Indonesia,,1.278101,128.111496,https://maps.google.com/?cid=0x0:0x3ca1580fe8cd0b6f
perumahan,Komplek perumahan,Rahman lossen,"8F6M+RXX, Kakaraino, Kec. Wasile Tengah, Kabupaten Halmahera Timur, Maluku Utara","Kabupaten Halmahera Timur, Maluku Utara",MALUKU UTARA,,Indonesia,,1.3121235,128.4849923,https://maps.google.com/?cid=0x0:0x884f995d5431d7e0
perumahan,Toko Ponsel,Adan cell,"64X9+M3W, Bokimaake, Kec. Wasile Tengah, Kabupaten Halmahera Timur, Maluku Utara","Kabupaten Halmahera Timur, Maluku Utara",MALUKU UTARA,,Indonesia,,1.249235,128.1176883,https://maps.google.com/?cid=0x0:0xf8041057f5656364
perumahan,Komplek perumahan,Rumah FRANSIUS GODURU,"F88X+3Q2, Dowongi Jaya, Kec. Wasile Utara, Kabupaten Halmahera Timur, Maluku Utara","Kabupaten Halmahera Timur, Maluku Utara",MALUKU UTARA,,Indonesia,,1.4653985,128.3498389,https://maps.google.com/?cid=0x0:0x19208895b068d818
perumahan,Perumahan guru,Desa Hilaitetor,"95MP+77, Hilaitetor, Kec. Wasile Utara, Kabupaten Halmahera Timur, Maluku Utara","Kabupaten Halmahera Timur, Maluku Utara",MALUKU UTARA,,Indonesia,,1.3831596,128.1856465,https://maps.google.com/?cid=0x0:0xf0d84be31d48ece8
perumahan,perumahan,Kec. Wasile Utara,"Kabupaten Halmahera Timur, Maluku Utara","Kabupaten Halmahera Timur, Maluku Utara",MALUKU UTARA,,Indonesia,,1.4649455,128.3488444,https://maps.google.com/?cid=0x0:0x3c7417c6f2357f8e
perumahan,Komplek perumahan,Tursito,"8F6M+RXX, Kakaraino, Kec. Wasile Tengah, Kabupaten Halmahera Timur, Maluku Utara","Kabupaten Halmahera Timur, Maluku Utara",MALUKU UTARA,,Indonesia,,1.3121235,128.4849923,https://maps.google.com/?cid=0x0:0x5eb9daee41d54ef2
perumahan,Komplek perumahan,Labi labi,"F88W+4X, Labi Labi, Kabupaten Halmahera Timur, Maluku Utara","Kabupaten Halmahera Timur, Maluku Utara",MALUKU UTARA,,Indonesia,,1.4653526,128.3474652,https://maps.google.com/?cid=0x0:0x90222ed4d3cfd5fb
perumahan,Komplek perumahan,Bapa Yulipson woyo,"F982+67P, Labi Labi, Kec. Wasile Utara, Kabupaten Halmahera Timur, Maluku Utara","Kabupaten Halmahera Timur, Maluku Utara",MALUKU UTARA,,Indonesia,,1.465294,128.350739,https://maps.google.com/?cid=0x0:0x22d4a515530b6084
perumahan,Komplek perumahan,Desa baturaja,"8F6M+RXX, Kakaraino, Kec. Wasile Tengah, Kabupaten Halmahera Timur, Maluku Utara","Kabupaten Halmahera Timur, Maluku Utara",MALUKU UTARA,,Indonesia,,1.3121235,128.4849923,https://maps.google.com/?cid=0x0:0x98e38635960a7e91
perumahan,Komplek perumahan,Rumah hani,"8F6M+RXX Sidomulyo sp 4 blok N, Kakaraino, Kec. Wasile Tengah, Kabupaten Halmahera Timur, Maluku Utara","Kabupaten Halmahera Timur, Maluku Utara",MALUKU UTARA,,Indonesia,,1.3121235,128.4849923,https://maps.google.com/?cid=0x0:0x96c23aa539ba31fa
perumahan,Komplek perumahan,Natalyo kalong,"C79R+39R, Jl. Raya Labi-labi, Iga, Kec. Wasile Utara, Kabupaten Halmahera Timur, Maluku Utara","Kabupaten Halmahera Timur, Maluku Utara",MALUKU UTARA,,Indonesia,,1.4177404,128.2908791,https://maps.google.com/?cid=0x0:0xfb22cbfacaf0f690
perumahan,Komplek perumahan,Rahman lossen,"8F6M+RXX, Kakaraino, Kec. Wasile Tengah, Kabupaten Halmahera Timur, Maluku Utara","Kabupaten Halmahera Timur, Maluku Utara",MALUKU UTARA,,Indonesia,,1.3121235,128.4849923,https://maps.google.com/?cid=0x0:0x884f995d5431d7e0
perumahan,Komplek perumahan,Ruma Bapa Ariya woyo,"F982+67P, Labi Labi, Kec. Wasile Utara, Kabupaten Halmahera Timur, Maluku Utara","Kabupaten Halmahera Timur, Maluku Utara",MALUKU UTARA,,Indonesia,,1.4652686,128.3507505,https://maps.google.com/?cid=0x0:0x7c1dbfbc7552660
perumahan,Perhimpunan Pengembang Perumahan,Tete BASO,"HP46+57C, Jara Jara, Kec. Maba Utara, Kabupaten Halmahera Timur, Maluku Utara","Kabupaten Halmahera Timur, Maluku Utara",MALUKU UTARA,,Indonesia,,1.5554483,128.710632,https://maps.google.com/?cid=0x0:0x36c40df10d3fc743
perumahan,perumahan,Rumah ken,"HPCC+CPV, Jara Jara, Kec. Maba Utara, Kabupaten Halmahera Timur, Maluku Utara","Kabupaten Halmahera Timur, Maluku Utara",MALUKU UTARA,,Indonesia,,1.5697462,128.7214773,https://maps.google.com/?cid=0x0:0x15527bd66552d8ac
perumahan,Komplek perumahan,Kebon Raja Bicoli,"8F6M+RXX, Kakaraino, Kec. Wasile Tengah, Kabupaten Halmahera Timur, Maluku Utara","Kabupaten Halmahera Timur, Maluku Utara",MALUKU UTARA,,Indonesia,,1.3121235,128.4849923,https://maps.google.com/?cid=0x0:0x924faa13f206affb
perumahan,perumahan,Kec. Wasile Tim.,"Kabupaten Halmahera Timur, Maluku Utara","Kabupaten Halmahera Timur, Maluku Utara",MALUKU UTARA,,Indonesia,,1.1252456,128.206102,https://maps.google.com/?cid=0x0:0xc82c1b2c21ca079e
perumahan,Komplek perumahan,Perumahan,"563G+6Q3, Toboino, Kec. Wasile Tim., Kabupaten Halmahera Timur, Maluku Utara","Kabupaten Halmahera Timur, Maluku Utara",MALUKU UTARA,,Indonesia,,1.1530244,128.2269262,https://maps.google.com/?cid=0x0:0xd2a765e72ce4f751
perumahan,Komplek perumahan,AgusEvi Home,"46F3+2J9, Sidomulyo, Kec. Wasile Tim., Kabupaten Halmahera Timur, Maluku Utara","Kabupaten Halmahera Timur, Maluku Utara",MALUKU UTARA,,Indonesia,,1.1225346,128.2041236,https://maps.google.com/?cid=0x0:0x83ce7639c5e73bb5
perumahan,Komplek perumahan,Rumah Ibu Siti Dullahe,"46X8+6HC, Toboino, Kec. Wasile Tim., Kabupaten Halmahera Timur, Maluku Utara","Kabupaten Halmahera Timur, Maluku Utara",MALUKU UTARA,,Indonesia,,1.1477032,128.2158183,https://maps.google.com/?cid=0x0:0x3f06e128f6dd6f09
perumahan,Komplek perumahan,Rumah pak muksin,"56Q9+R8F, Tutuling Jaya, Kec. Wasile Tim., Kabupaten Halmahera Timur, Maluku Utara","Kabupaten Halmahera Timur, Maluku Utara",MALUKU UTARA,,Indonesia,,1.1895567,128.2182917,https://maps.google.com/?cid=0x0:0x9cba2356cf5ee3d2
perumahan,Layanan Transfer Uang,BRILINK TANTI UTAMA,"Dodaga, Kec. Wasile Tim., Kabupaten Halmahera Timur, Maluku Utara","Kabupaten Halmahera Timur, Maluku Utara",MALUKU UTARA,,Indonesia,,1.1482238,128.1904681,https://maps.google.com/?cid=0x0:0x4a98e187dc519a05
perumahan,Pembangunan Perumahan,Iwan jual beli sapi,"46H5+H8M, Ake Daga, Kec. Wasile Tim., Kabupaten Halmahera Timur, Maluku Utara","Kabupaten Halmahera Timur, Maluku Utara",MALUKU UTARA,,Indonesia,,1.1284228,128.208425,https://maps.google.com/?cid=0x0:0xa667358233d76784
perumahan,Pembangunan Perumahan,ambon maluku,"458F+W94, Gulapapo, Kec. Wasile, Kabupaten Halmahera Timur, Maluku Utara","Kabupaten Halmahera Timur, Maluku Utara",MALUKU UTARA,,Indonesia,,1.1172603,128.1734455,https://maps.google.com/?cid=0x0:0xf8af2baefe055743
perumahan,Kantor Hubungan Masyarakat,Desa mekarsari,"35RC+565, Mekar Sari, Kec. Wasile, Kabupaten Halmahera Timur, Maluku Utara","Kabupaten Halmahera Timur, Maluku Utara",MALUKU UTARA,,Indonesia,,1.0903802,128.1706034,https://maps.google.com/?cid=0x0:0x5379580984343d30
perumahan,Pembangunan Perumahan,Pertanian,"4529+W4, Gulapapo, Kec. Wasile, Kabupaten Halmahera Timur, Maluku Utara","Kabupaten Halmahera Timur, Maluku Utara",MALUKU UTARA,,Indonesia,,1.102362,128.167855,https://maps.google.com/?cid=0x0:0x31e907b82764bd6a
perumahan,Komplek perumahan,Humam family,"35Q9+QXG, Bumi Restu, Kec. Wasile, Kabupaten Halmahera Timur, Maluku Utara","Kabupaten Halmahera Timur, Maluku Utara",MALUKU UTARA,,Indonesia,,1.0886904,128.1707267,https://maps.google.com/?cid=0x0:0x5aeecfb409011a6e
perumahan,Perhimpunan Pengembang Perumahan,Desa Gulapapo,"4539+GW8, Gulapapo, Kec. Wasile, Kabupaten Halmahera Timur, Maluku Utara","Kabupaten Halmahera Timur, Maluku Utara",MALUKU UTARA,,Indonesia,,1.1037754,128.1698131,https://maps.google.com/?cid=0x0:0xb4b980ae352433b4
perumahan,Pembangunan Perumahan,Katemin,"35WR+PGP, Jl. Trans Hal-Tim, Daka Ino, Kec. Wasile Tim., Kabupaten Halmahera Timur, Maluku Utara","Kabupaten Halmahera Timur, Maluku Utara",MALUKU UTARA,,Indonesia,,1.0966873,128.1922552,https://maps.google.com/?cid=0x0:0xd449c29c8df7e3dd
perumahan,Komplek perumahan,RUMAH PAK SARIJAN.,"4693+H2W, Ake Daga, Kec. Wasile Tim., Kabupaten Halmahera Timur, Maluku Utara","Kabupaten Halmahera Timur, Maluku Utara",MALUKU UTARA,,Indonesia,,1.1189786,128.2025682,https://maps.google.com/?cid=0x0:0xd1d54630fdda9d2c
perumahan,perumahan,Kec. Maba Tengah,"Kabupaten Halmahera Timur, Maluku Utara","Kabupaten Halmahera Timur, Maluku Utara",MALUKU UTARA,,Indonesia,,0.9790308,128.4735869,https://maps.google.com/?cid=0x0:0xaa0e36e52fc413d2
perumahan,Komplek perumahan,Desa Tatangapu,"2JW6+84, Miaf, Kec. Maba Tengah, Kabupaten Halmahera Timur, Maluku Utara","Kabupaten Halmahera Timur, Maluku Utara",MALUKU UTARA,,Indonesia,,1.0447949,128.6105443,https://maps.google.com/?cid=0x0:0xa227515cfa224058
perumahan,Komplek perumahan,kompleks Lorhit,"XGC8+CXF, Wayamli, Kec. Maba Tengah, Kabupaten Halmahera Timur, Maluku Utara","Kabupaten Halmahera Timur, Maluku Utara",MALUKU UTARA,,Indonesia,,0.9710506,128.5174277,https://maps.google.com/?cid=0x0:0x5b249187068d8111
perumahan,Komplek perumahan,Ruma,"XFHG+536, Beringin Lamo, Kec. Maba Tengah, Kabupaten Halmahera Timur, Maluku Utara","Kabupaten Halmahera Timur, Maluku Utara",MALUKU UTARA,,Indonesia,,0.977199,128.4753868,https://maps.google.com/?cid=0x0:0x2fd39a896f3ed347
perumahan,Perhimpunan Pengembang Perumahan,Desa SOSOLAT,"4M5R+26J, Unnamed Road, Sosolat, Kec. Maba Utara, Kabupaten Halmahera Timur, Maluku Utara","Kabupaten Halmahera Timur, Maluku Utara",MALUKU UTARA,,Indonesia,,1.1075901,128.6905106,https://maps.google.com/?cid=0x0:0x20c65a172205c880
perumahan,Komplek perumahan,Desa geltoli,"X75M+JXG, Geltoli, Kec. Maba, Kabupaten Halmahera Timur, Maluku Utara","Kabupaten Halmahera Timur, Maluku Utara",MALUKU UTARA,,Indonesia,,0.959052,128.2849463,https://maps.google.com/?cid=0x0:0x34237453f4e7b342
perumahan,Komplek perumahan,Aje Ria,"WCF3+79, Pekaulang, Kec. Maba, Kabupaten Halmahera Timur, Maluku Utara","Kabupaten Halmahera Timur, Maluku Utara",MALUKU UTARA,,Indonesia,,0.923146,128.403376,https://maps.google.com/?cid=0x0:0x17034a3e0de96332
perumahan,Pembangunan Perumahan,Iwan jual beli sapi,"46H5+H8M, Ake Daga, Kec. Wasile Tim., Kabupaten Halmahera Timur, Maluku Utara","Kabupaten Halmahera Timur, Maluku Utara",MALUKU UTARA,,Indonesia,,1.1284228,128.208425,https://maps.google.com/?cid=0x0:0xa667358233d76784
perumahan,Komplek perumahan,Dusun Waisango,"5MQM+HM, Sosolat, Kec. Maba Utara, Kabupaten Halmahera Timur, Maluku Utara","Kabupaten Halmahera Timur, Maluku Utara",MALUKU UTARA,,Indonesia,,1.1890493,128.6842428,https://maps.google.com/?cid=0x0:0xb0998f47b40765a8
perumahan,Komplek perumahan,Ronis,"W9C5+29, Pekaulang, Kec. Maba, Kabupaten Halmahera Timur, Maluku Utara","Kabupaten Halmahera Timur, Maluku Utara",MALUKU UTARA,,Indonesia,,0.9201321,128.3577665,https://maps.google.com/?cid=0x0:0x6f047d6a5c485d40
perumahan,Komplek perumahan,Rumah Ibu Siti Dullahe,"46X8+6HC, Toboino, Kec. Wasile Tim., Kabupaten Halmahera Timur, Maluku Utara","Kabupaten Halmahera Timur, Maluku Utara",MALUKU UTARA,,Indonesia,,1.1477032,128.2158183,https://maps.google.com/?cid=0x0:0x3f06e128f6dd6f09
perumahan,Komplek perumahan,Pati gua,"WCJ9+JV, Pekaulang, Kec. Maba, Kabupaten Halmahera Timur, Maluku Utara","Kabupaten Halmahera Timur, Maluku Utara",MALUKU UTARA,,Indonesia,,0.9315625,128.4196875,https://maps.google.com/?cid=0x0:0x4e3ac46eed07c11e
perumahan,Pembangunan Perumahan,Rumah jiitro,"W996+R5, Pekaulang, Kec. Maba, Kabupaten Halmahera Timur, Maluku Utara","Kabupaten Halmahera Timur, Maluku Utara",MALUKU UTARA,,Indonesia,,0.9195626,128.3604025,https://maps.google.com/?cid=0x0:0x274803f26c73ba20
perumahan,Pembangunan Perumahan,Pertanian,"4529+W4, Gulapapo, Kec. Wasile, Kabupaten Halmahera Timur, Maluku Utara","Kabupaten Halmahera Timur, Maluku Utara",MALUKU UTARA,,Indonesia,,1.102362,128.167855,https://maps.google.com/?cid=0x0:0x31e907b82764bd6a
perumahan,perumahan,Kec. Maba Utara,"Kabupaten Halmahera Timur, Maluku Utara","Kabupaten Halmahera Timur, Maluku Utara",MALUKU UTARA,,Indonesia,,1.3822173,128.7506632,https://maps.google.com/?cid=0x0:0x65fb9a232e52ab67
perumahan,Perhimpunan Pengembang Perumahan,Desa SOSOLAT,"4M5R+26J, Unnamed Road, Sosolat, Kec. Maba Utara, Kabupaten Halmahera Timur, Maluku Utara","Kabupaten Halmahera Timur, Maluku Utara",MALUKU UTARA,,Indonesia,,1.1075901,128.6905106,https://maps.google.com/?cid=0x0:0x20c65a172205c880
perumahan,Komplek perumahan,Dusun Waisango,"5MQM+HM, Sosolat, Kec. Maba Utara, Kabupaten Halmahera Timur, Maluku Utara","Kabupaten Halmahera Timur, Maluku Utara",MALUKU UTARA,,Indonesia,,1.1890493,128.6842428,https://maps.google.com/?cid=0x0:0xb0998f47b40765a8
perumahan,Pembangunan Perumahan,SP5,"9PPF+VPV, Wasileo, Kec. Maba Utara, Kabupaten Halmahera Timur, Maluku Utara","Kabupaten Halmahera Timur, Maluku Utara",MALUKU UTARA,,Indonesia,,1.3872391,128.7242874,https://maps.google.com/?cid=0x0:0x36f8161c648fa359
perumahan,perumahan,PP yohan,"FM24+R4P, Upt Patlian Sp II, Kec. Maba Utara, Kabupaten Halmahera Timur, Maluku Utara","Kabupaten Halmahera Timur, Maluku Utara",MALUKU UTARA,,Indonesia,,1.4520777,128.6553305,https://maps.google.com/?cid=0x0:0x6c489f05ea226282
perumahan,Perhimpunan Pengembang Perumahan,Podi Home,"HPCF+86Q, Jara Jara, Kec. Maba Utara, Kabupaten Halmahera Timur, Maluku Utara","Kabupaten Halmahera Timur, Maluku Utara",MALUKU UTARA,,Indonesia,,1.5707947,128.7231458,https://maps.google.com/?cid=0x0:0x43fddfe0567f6cf4
perumahan,Komplek perumahan,Desa Tatangapu,"2JW6+84, Miaf, Kec. Maba Tengah, Kabupaten Halmahera Timur, Maluku Utara","Kabupaten Halmahera Timur, Maluku Utara",MALUKU UTARA,,Indonesia,,1.0447949,128.6105443,https://maps.google.com/?cid=0x0:0xa227515cfa224058
perumahan,Komplek perumahan,RUMAH mama Ismit,"CMX3+HX, Upt Patlian Sp II, Kec. Maba Utara, Kabupaten Halmahera Timur, Maluku Utara","Kabupaten Halmahera Timur, Maluku Utara",MALUKU UTARA,,Indonesia,,1.4489827,128.6550001,https://maps.google.com/?cid=0x0:0xf17cd9c79aa915a3
perumahan,Komplek perumahan,Perumahan Pemda Haltim,"M7VG+QJC, Unnamed Road, Maba Sangaji, Kec. Kota Maba, Kabupaten Halmahera Timur, Maluku Utara","Kabupaten Halmahera Timur, Maluku Utara",MALUKU UTARA,,Indonesia,,0.6944393,128.2765156,https://maps.google.com/?cid=0x0:0x6c5abbce9c97d7a0
perumahan,perumahan,Rumah ken,"HPCC+CPV, Jara Jara, Kec. Maba Utara, Kabupaten Halmahera Timur, Maluku Utara","Kabupaten Halmahera Timur, Maluku Utara",MALUKU UTARA,,Indonesia,,1.5697462,128.7214773,https://maps.google.com/?cid=0x0:0x15527bd66552d8ac
perumahan,Balai masyarakat,Desa lili,"7PX7+43, Dorosago, Kec. Maba Utara, Kabupaten Halmahera Timur, Maluku Utara","Kabupaten Halmahera Timur, Maluku Utara",MALUKU UTARA,,Indonesia,,1.2977717,128.7127294,https://maps.google.com/?cid=0x0:0x3363915339ec43c7
perumahan,Pembangunan Perumahan,Anin wi-fian,"CMJC+88, Wasileo, Kec. Maba Utara, Kabupaten Halmahera Timur, Maluku Utara","Kabupaten Halmahera Timur, Maluku Utara",MALUKU UTARA,,Indonesia,,1.4308545,128.670771,https://maps.google.com/?cid=0x0:0x88bc0c1669bfd217
perumahan,Komplek perumahan,om TORING,"FM23+JWQ, Upt Patlian Sp II, Kec. Maba Utara, Kabupaten Halmahera Timur, Maluku Utara","Kabupaten Halmahera Timur, Maluku Utara",MALUKU UTARA,,Indonesia,,1.4515829,128.6553422,https://maps.google.com/?cid=0x0:0xc22fd92b7e8be814
perumahan,Perhimpunan Pengembang Perumahan,Tete BASO,"HP46+57C, Jara Jara, Kec. Maba Utara, Kabupaten Halmahera Timur, Maluku Utara","Kabupaten Halmahera Timur, Maluku Utara",MALUKU UTARA,,Indonesia,,1.5554483,128.710632,https://maps.google.com/?cid=0x0:0x36c40df10d3fc743
perumahan,perumahan,Kec. Kota Maba,"Kabupaten Halmahera Timur, Maluku Utara","Kabupaten Halmahera Timur, Maluku Utara",MALUKU UTARA,,Indonesia,,0.6760128,128.2875055,https://maps.google.com/?cid=0x0:0x3bda60336c220486
perumahan,Komplek perumahan,Perumahan Pemda Haltim,"M7VG+QJC, Unnamed Road, Maba Sangaji, Kec. Kota Maba, Kabupaten Halmahera Timur, Maluku Utara","Kabupaten Halmahera Timur, Maluku Utara",MALUKU UTARA,,Indonesia,,0.6944393,128.2765156,https://maps.google.com/?cid=0x0:0x6c5abbce9c97d7a0
perumahan,Komplek perumahan,Perumahan 50,"M79W+9CF, Soa Gimalaha, Kec. Kota Maba, Kabupaten Halmahera Timur, Maluku Utara","Kabupaten Halmahera Timur, Maluku Utara",MALUKU UTARA,,Indonesia,,0.6684344,128.2960383,https://maps.google.com/?cid=0x0:0xbf712d45ea418b65
perumahan,Komplek perumahan,KostBuIda,"M7PR+X42, Soa Gimalaha, Kec. Kota Maba, Kabupaten Halmahera Timur, Maluku Utara","Kabupaten Halmahera Timur, Maluku Utara",MALUKU UTARA,,Indonesia,,0.6875785,128.2901038,https://maps.google.com/?cid=0x0:0xbabd1a04182bc2fe
perumahan,Komplek perumahan,Rumah Arumi,"J6R4+688, Maba Sangaji, Kec. Kota Maba, Kabupaten Halmahera Timur, Maluku Utara","Kabupaten Halmahera Timur, Maluku Utara",MALUKU UTARA,,Indonesia,,0.6405307,128.2058155,https://maps.google.com/?cid=0x0:0xe89c59e3d23f9ae
perumahan,Komplek perumahan,"Maba, Halmahera timur","V7PW+QRC, Unnamed Road, Geltoli, Kec. Maba, Kabupaten Halmahera Timur, Maluku Utara","Kabupaten Halmahera Timur, Maluku Utara",MALUKU UTARA,,Indonesia,,0.88695,128.2970267,https://maps.google.com/?cid=0x0:0xb18e76c50935f65d
perumahan,Pembangunan Perumahan,Atpatf,"M7WG+4X6, Maba Sangaji, Kec. Kota Maba, Kabupaten Halmahera Timur, Maluku Utara","Kabupaten Halmahera Timur, Maluku Utara",MALUKU UTARA,,Indonesia,,0.6951604,128.2774377,https://maps.google.com/?cid=0x0:0x5b48d868d64b39d1
perumahan,Komplek perumahan,Perumahan BTN PRAJA MABA,"J6R4+JHC, Maba Sangaji, Kec. Kota Maba, Kabupaten Halmahera Timur, Maluku Utara","Kabupaten Halmahera Timur, Maluku Utara",MALUKU UTARA,,Indonesia,,0.6415556,128.206378,https://maps.google.com/?cid=0x0:0x63b36cbd1ac437b5
perumahan,Komplek perumahan,Uchin,"R6GR+6J6, Jl. H. Salim Marsaoly, Soa Sangaji, Kec. Kota Maba, Kabupaten Halmahera Timur, Maluku Utara","Kabupaten Halmahera Timur, Maluku Utara",MALUKU UTARA,,Indonesia,,0.8255481,128.2415028,https://maps.google.com/?cid=0x0:0xa27592283f370288
perumahan,Komplek perumahan,Perumahan TNI,"V7MW+PGC, Buli, Kec. Maba, Kabupaten Halmahera Timur, Maluku Utara","Kabupaten Halmahera Timur, Maluku Utara",MALUKU UTARA,,Indonesia,,0.8843211,128.2962702,https://maps.google.com/?cid=0x0:0xd3c02e3679d1294b
perumahan,perumahan,Dily home,"M876+F2C, Soa Gimalaha, Kec. Kota Maba, Kabupaten Halmahera Timur, Maluku Utara","Kabupaten Halmahera Timur, Maluku Utara",MALUKU UTARA,,Indonesia,,0.663789,128.310231,https://maps.google.com/?cid=0x0:0xc9e910ddddcfe695
perumahan,Pembangunan Perumahan,Geltoli halmahera Timur,"V7QW+QR5, Geltoli, Kec. Maba, Kabupaten Halmahera Timur, Maluku Utara","Kabupaten Halmahera Timur, Maluku Utara",MALUKU UTARA,,Indonesia,,0.889394,128.2971038,https://maps.google.com/?cid=0x0:0x838593e35e08463c
perumahan,Kantor Perusahaan,Desa Tewil,"M7GQ+C22, Soa Gimalaha, Kec. Kota Maba, Kabupaten Halmahera Timur, Maluku Utara","Kabupaten Halmahera Timur, Maluku Utara",MALUKU UTARA,,Indonesia,,0.6760128,128.2875055,https://maps.google.com/?cid=0x0:0x6f2bc6df9a119e96
perumahan,Bumi perkemahan,Camp wailukum,"P62X+HW, Wailukum, Kec. Kota Maba, Kabupaten Halmahera Timur, Maluku Utara","Kabupaten Halmahera Timur, Maluku Utara",MALUKU UTARA,,Indonesia,,0.7014519,128.2498056,https://maps.google.com/?cid=0x0:0xa6f88510addc4beb
housing complex,Komplek perumahan,Irul home,"Jalan Trans Halmahera Timur, Rawamangun, Kec. Wasile Tim., Kabupaten Halmahera Timur, Maluku Utara 97863","Rawamangun, Kec. Wasile Tim., Kabupaten Halmahera Timur",MALUKU UTARA,97863.0,Indonesia,,1.1046115,128.1906696,https://maps.google.com/?cid=0x0:0xcebf6a5aaf4e413a
housing complex,Komplek perumahan,Sukaryo Home,"35VP+V3G, Jl. Trans Hal-Tim, Mekar Sari, Kec. Wasile, Kabupaten Halmahera Timur, Maluku Utara","Kabupaten Halmahera Timur, Maluku Utara",MALUKU UTARA,,Indonesia,,1.094742,128.1851989,https://maps.google.com/?cid=0x0:0xc12e4ef0b4f07acf
housing complex,Komplek perumahan,Yoga,"56GG+8QM, Woka Jaya, Kec. Wasile Tim., Kabupaten Halmahera Timur, Maluku Utara","Kabupaten Halmahera Timur, Maluku Utara",MALUKU UTARA,,Indonesia,,1.1758294,128.2269262,https://maps.google.com/?cid=0x0:0x81415b74fbdd904
housing complex,housing complex,Maba,"Maba Sangaji, Kec. Kota Maba, Kabupaten Halmahera Timur, Maluku Utara","Kabupaten Halmahera Timur, Maluku Utara",MALUKU UTARA,,Indonesia,,0.689218,128.277206,https://maps.google.com/?cid=0x0:0xadf03d8fc22db37a
housing complex,housing complex,Kec. Tebet,"Kota Jakarta Selatan, Daerah Khusus Ibukota Jakarta","Kota Jakarta Selatan, Daerah Khusus Ibukota Jakarta",MALUKU UTARA,,Indonesia,,-6.2251223,106.8549881,https://maps.google.com/?cid=0x0:0xd575e31c807295f9
housing complex,housing complex,Kec. Maba Sel.,"Kabupaten Halmahera Timur, Maluku Utara","Kabupaten Halmahera Timur, Maluku Utara",MALUKU UTARA,,Indonesia,,0.6311669,128.4249841,https://maps.google.com/?cid=0x0:0x8622114f0d1a22ac
housing complex,Komplek perumahan,Perumahan 50,"M79W+9CF, Soa Gimalaha, Kec. Kota Maba, Kabupaten Halmahera Timur, Maluku Utara","Kabupaten Halmahera Timur, Maluku Utara",MALUKU UTARA,,Indonesia,,0.6684344,128.2960383,https://maps.google.com/?cid=0x0:0xbf712d45ea418b65
housing complex,Komplek perumahan,SIGILAPO,"M7VV+RRH, Soa Gimalaha, Soagimalaha, Kabupaten Halmahera Timur, Maluku Utara","Kabupaten Halmahera Timur, Maluku Utara",MALUKU UTARA,,Indonesia,,0.6945259,128.2947773,https://maps.google.com/?cid=0x0:0x504a26cc5c0cd095
housing complex,Komplek perumahan,Irul home,"Jalan Trans Halmahera Timur, Rawamangun, Kec. Wasile Tim., Kabupaten Halmahera Timur, Maluku Utara 97863","Rawamangun, Kec. Wasile Tim., Kabupaten Halmahera Timur",MALUKU UTARA,97863.0,Indonesia,,1.1046115,128.1906696,https://maps.google.com/?cid=0x0:0xcebf6a5aaf4e413a
housing complex,Komplek perumahan,Sukaryo Home,"35VP+V3G, Jl. Trans Hal-Tim, Mekar Sari, Kec. Wasile, Kabupaten Halmahera Timur, Maluku Utara","Kabupaten Halmahera Timur, Maluku Utara",MALUKU UTARA,,Indonesia,,1.094742,128.1851989,https://maps.google.com/?cid=0x0:0xc12e4ef0b4f07acf
housing complex,housing complex,Kec. Wasile Tengah,"Kabupaten Halmahera Timur, Maluku Utara","Kabupaten Halmahera Timur, Maluku Utara",MALUKU UTARA,,Indonesia,,1.2482149,128.1175021,https://maps.google.com/?cid=0x0:0xab5a8dcd2bdeb346
housing complex,housing complex,Kec. Wasile Utara,"Kabupaten Halmahera Timur, Maluku Utara","Kabupaten Halmahera Timur, Maluku Utara",MALUKU UTARA,,Indonesia,,1.4649455,128.3488444,https://maps.google.com/?cid=0x0:0x3c7417c6f2357f8e
housing complex,Komplek perumahan,Yoga,"56GG+8QM, Woka Jaya, Kec. Wasile Tim., Kabupaten Halmahera Timur, Maluku Utara","Kabupaten Halmahera Timur, Maluku Utara",MALUKU UTARA,,Indonesia,,1.1758294,128.2269262,https://maps.google.com/?cid=0x0:0x81415b74fbdd904
housing complex,Komplek perumahan,Rumah Yoga,"56V9+923, Tutuling Jaya, Kec. Wasile Tim., Kabupaten Halmahera Timur, Maluku Utara","Kabupaten Halmahera Timur, Maluku Utara",MALUKU UTARA,,Indonesia,,1.1931776,128.2175014,https://maps.google.com/?cid=0x0:0x254d0382bfce1630
housing complex,Komplek perumahan,Irul home,"Jalan Trans Halmahera Timur, Rawamangun, Kec. Wasile Tim., Kabupaten Halmahera Timur, Maluku Utara 97863","Rawamangun, Kec. Wasile Tim., Kabupaten Halmahera Timur",MALUKU UTARA,97863.0,Indonesia,,1.1046115,128.1906696,https://maps.google.com/?cid=0x0:0xcebf6a5aaf4e413a
housing complex,Komplek perumahan,Yoga,"56GG+8QM, Woka Jaya, Kec. Wasile Tim., Kabupaten Halmahera Timur, Maluku Utara","Kabupaten Halmahera Timur, Maluku Utara",MALUKU UTARA,,Indonesia,,1.1758294,128.2269262,https://maps.google.com/?cid=0x0:0x81415b74fbdd904
housing complex,housing complex,Kec. Wasile Tim.,"Kabupaten Halmahera Timur, Maluku Utara","Kabupaten Halmahera Timur, Maluku Utara",MALUKU UTARA,,Indonesia,,1.1252456,128.206102,https://maps.google.com/?cid=0x0:0xc82c1b2c21ca079e
housing complex,housing complex,Kec. Maba Tengah,"Kabupaten Halmahera Timur, Maluku Utara","Kabupaten Halmahera Timur, Maluku Utara",MALUKU UTARA,,Indonesia,,0.9790308,128.4735869,https://maps.google.com/?cid=0x0:0xaa0e36e52fc413d2
housing complex,housing complex,Kec. Maba Utara,"Kabupaten Halmahera Timur, Maluku Utara","Kabupaten Halmahera Timur, Maluku Utara",MALUKU UTARA,,Indonesia,,1.3822173,128.7506632,https://maps.google.com/?cid=0x0:0x65fb9a232e52ab67
housing complex,Pembangunan Perumahan,Kosan Fanisa,"Desa Wayafli, Buli, Kec. Maba, Kabupaten Halmahera Timur, Maluku Utara 97862","Buli, Kec. Maba, Kabupaten Halmahera Timur",MALUKU UTARA,97862.0,Indonesia,85240417282.0,0.875908,128.2813102,https://maps.google.com/?cid=0x0:0x4f270f1171bad99b
housing complex,Komplek perumahan,Kos kosan Dua Putri Makian,"V7HJ+XRM Kos kosan Dua Putri makian, Buli Karya, Kec. Maba, Kabupaten Halmahera Timur, Maluku Utara","Kabupaten Halmahera Timur, Maluku Utara",MALUKU UTARA,,Indonesia,,0.8799667,128.2820333,https://maps.google.com/?cid=0x0:0xca785e8f426fe980
housing complex,housing complex,Kec. Kota Maba,"Kabupaten Halmahera Timur, Maluku Utara","Kabupaten Halmahera Timur, Maluku Utara",MALUKU UTARA,,Indonesia,,0.6760128,128.2875055,https://maps.google.com/?cid=0x0:0x3bda60336c220486
housing complex,Perusahaan Konstruksi,Gudang Material 2,"FXHQ+WR, Lelilef Sawai, Kec. Weda Tengah, Kabupaten Halmahera Tengah, Maluku Utara","Kabupaten Halmahera Tengah, Maluku Utara",MALUKU UTARA,,Indonesia,,0.4789528,127.9892159,https://maps.google.com/?cid=0x0:0x8db934b57586dceb
