Category;Real Category;Business Name;Address;City;State;Postal Code;Country;Phone;Email;Website;Latitude;Longitude;Map Link;Details Link
"mall";"mall";"Amahai";"Soahuku, Kec. Amahai, Kabupaten Maluku Tengah, Maluku";"Kabupaten Maluku Tengah, Maluku";"MALUKU";"";"Indonesia";"";"";"";"-3.3393615";"128.9229993";"https://maps.google.com/?cid=0x0:0x193d78dcfa97a670";""
"mall";"Pusat Perbelanjaan";"Maluku City Mall (MCM)";"Jl. Jenderal Sudirman No.1, Hative Kecil, Kec. Sirimau, Kota Ambon, Maluku";"Kota Ambon, Maluku";"MALUKU";"";"Indonesia";" 0911352871";"";"";"-3.6702679";"128.1981163";"https://maps.google.com/?cid=0x0:0x2f29bf0afe09144e";""
"mall";"Toko";"Kios Andi";"Q785+X8G, Tamilouw, Kec. Amahai, Kabupaten Maluku Tengah, Maluku";"Kabupaten Maluku Tengah, Maluku";"MALUKU";"";"Indonesia";"";"";"";"-3.232556";"129.2583293";"https://maps.google.com/?cid=0x0:0xb628d78c90734e48";""
"mall";"Pusat Perbelanjaan";"Gramedia Maluku City Mall";"Jalan Jenderal Sudirman. 1 Tantui Ambon UP Floor Blok UG No. 2, Jl. Jenderal Sudirman, Hative Kecil, Kec. Sirimau, Kota Ambon, Maluku 97128";"Jl. Jenderal Sudirman, Hative Kecil, Kec. Sirimau, Kota Ambon";"MALUKU";"97128";"Indonesia";" 081248557414";"";"";"-3.6703427";"128.1983406";"https://maps.google.com/?cid=0x0:0xe751f5e37fa0f5c3";""
"mall";"Jembatan";"Pelabuhan Speedboat Namano, Amahai";"MWHJ+WCF, Amahai, Kec. Kota Masohi, Kabupaten Maluku Tengah, Maluku";"Kabupaten Maluku Tengah, Maluku";"MALUKU";"";"Indonesia";"";"";"";"-3.3201999";"128.9310498";"https://maps.google.com/?cid=0x0:0x72cd60e5c3118c66";""
"mall";"Toko";"Kios kristo";"MW8J+GRP, Amahai, Kec. Amahai, Kabupaten Maluku Tengah, Maluku";"Kabupaten Maluku Tengah, Maluku";"MALUKU";"";"Indonesia";"";"";"";"-3.3336738";"128.9320733";"https://maps.google.com/?cid=0x0:0x7bbcb8245c439b82";""
"mall";"Toko";"KIOS CLARESTA";"MXV6+HJG, Jl Geser, RT.007/RW.000, Namaelo, Kec. Kota Masohi, Kabupaten Maluku Tengah, Maluku";"Kabupaten Maluku Tengah, Maluku";"MALUKU";"";"Indonesia";"";"";"";"-3.3060598";"128.9615888";"https://maps.google.com/?cid=0x0:0xc0e2ab8f85bc684f";""
"mall";"Bandara";"Kantor Unit Penyelenggara Bandar Udara Amahai";"MW3G+FXV, Bandar Udara, Soahuku, Kec. Amahai, Kabupaten Maluku Tengah, Maluku";"Kabupaten Maluku Tengah, Maluku";"MALUKU";"";"Indonesia";" 09142310136";"";"";"-3.3460254";"128.9272837";"https://maps.google.com/?cid=0x0:0x25dfedd0e9d01670";""
"mall";"Toko bahan makanan";"Toko efendi";"J57W+8MH, Tamilouw, Kec. Amahai, Kabupaten Maluku Tengah, Maluku";"Kabupaten Maluku Tengah, Maluku";"MALUKU";"";"Indonesia";"";"";"";"-3.3876885";"129.1968188";"https://maps.google.com/?cid=0x0:0x737140e0d8bc24dc";""
"mall";"mall";"Sufyan";"J2X9+9JP, Rutah, Kec. Amahai, Kabupaten Maluku Tengah, Maluku";"Kabupaten Maluku Tengah, Maluku";"MALUKU";"";"Indonesia";"";"";"";"-3.3515478";"129.0190731";"https://maps.google.com/?cid=0x0:0xe5b60ae77c9480a2";""
"mall";"mall";"Kios ifha";"PX59+F35, Haruru, Kec. Amahai, Kabupaten Maluku Tengah, Maluku";"Kabupaten Maluku Tengah, Maluku";"MALUKU";"";"Indonesia";"";"";"";"-3.2913521";"128.9677472";"https://maps.google.com/?cid=0x0:0xc94cc53f33229c5d";""
"mall";"mall";"Kec. Teon Nila Serua";"Kabupaten Maluku Tengah, Maluku";"Kabupaten Maluku Tengah, Maluku";"MALUKU";"";"Indonesia";"";"";"";"-3.206515";"129.0223992";"https://maps.google.com/?cid=0x0:0x19c309dd11357808";""
"mall";"Komplek perumahan";"KIOS KRISYE";"Q2PF+R4V, Sifluru, Kec. Teon Nila Serua, Kabupaten Maluku Tengah, Maluku";"Kabupaten Maluku Tengah, Maluku";"MALUKU";"";"Indonesia";"";"";"";"-3.2124482";"129.0228055";"https://maps.google.com/?cid=0x0:0x543dd837df3b24ca";""
"mall";"mall";"KIOS JADE";"Q2P2+422, Unnamed Road, Mesa, Kec. Teon Nila Serua, Kabupaten Maluku Tengah, Maluku";"Kabupaten Maluku Tengah, Maluku";"MALUKU";"";"Indonesia";"";"";"";"-3.2147291";"129.0000043";"https://maps.google.com/?cid=0x0:0xec292b2c86111c08";""
"mall";"Sekolah";"SMTK TEON NILA SERUA WAIPIA";"Q2VC+CFM, Layeni, Kec. Teon Nila Serua, Kabupaten Maluku Tengah, Maluku";"Kabupaten Maluku Tengah, Maluku";"MALUKU";"";"Indonesia";"";"";"";"-3.2064172";"129.0211863";"https://maps.google.com/?cid=0x0:0x356dc87b461c2fe";""
"mall";"Kantor Perusahaan";"Kantor Camat TNS Waipia";"Q2VC+797, Layeni, Kec. Teon Nila Serua, Kabupaten Maluku Tengah, Maluku";"Kabupaten Maluku Tengah, Maluku";"MALUKU";"";"Indonesia";"";"";"";"-3.2068339";"129.0209155";"https://maps.google.com/?cid=0x0:0x4e089a42c8823c54";""
"mall";"Komplek perumahan";"Layei";"Q2W4+CQ4, Waru, Kec. Teon Nila Serua, Kabupaten Maluku Tengah, Maluku";"Kabupaten Maluku Tengah, Maluku";"MALUKU";"";"Indonesia";"";"";"";"-3.2039968";"129.0067785";"https://maps.google.com/?cid=0x0:0x279292816074f95b";""
"mall";"mall";"Kec. Seram Utara Tim. Kobi";"Kabupaten Maluku Tengah, Maluku";"Kabupaten Maluku Tengah, Maluku";"MALUKU";"";"Indonesia";"";"";"";"-2.9958071";"129.8345109";"https://maps.google.com/?cid=0x0:0x7d5c902227229a42";""
"mall";"Toko";"Indah Store";"2V8J+CQ, Waitonipa, Kec. Seram Utara Tim. Kobi, Kabupaten Maluku Tengah, Maluku";"Kabupaten Maluku Tengah, Maluku";"MALUKU";"";"Indonesia";"";"";"";"-2.9845562";"129.8803024";"https://maps.google.com/?cid=0x0:0xc7bbdbd588786cd6";""
"mall";"mall";"Manzone Maluku city mall";"3QVP+MG5, Jl. Lintas Seram, Maneo Rendah, Kec. Seram Utara Tim. Kobi, Kabupaten Maluku Tengah, Maluku";"Kabupaten Maluku Tengah, Maluku";"MALUKU";"";"Indonesia";" 081293865812";"";"";"-2.9058626";"129.7863602";"https://maps.google.com/?cid=0x0:0x5980c8cdc2f6263e";""
"mall";"Pembangunan Perumahan";"Seram Utara Timur Kobi";"XQ7G+R63, Maneo Rendah, Kec. Seram Utara Tim. Kobi, Kabupaten Maluku Tengah, Maluku";"Kabupaten Maluku Tengah, Maluku";"MALUKU";"";"Indonesia";"";"";"";"-3.0354877";"129.7755571";"https://maps.google.com/?cid=0x0:0x2d80c0151e375331";""
"mall";"Toko Swalayan";"Kios mbak ELLA ASHTER";"Jl. Pendidikan No.RT 09, Kobi Mukti, Kec. Seram Utara Tim. Kobi, Kabupaten Maluku Tengah, Maluku";"Kabupaten Maluku Tengah, Maluku";"MALUKU";"";"Indonesia";"";"";"";"-2.9228011";"129.7954391";"https://maps.google.com/?cid=0x0:0x91a707638f55fd89";""
"mall";"mall";"Kec. Banda";"Kabupaten Maluku Tengah, Maluku";"Kabupaten Maluku Tengah, Maluku";"MALUKU";"";"Indonesia";"";"";"";"-4.5245505";"129.9028597";"https://maps.google.com/?cid=0x0:0xbe4d870d31ccb97d";""
"mall";"Toko umum";"Beta";"Jln. Wanjar Tua RT 02, Desa, Selamon, Kec. Banda, Kabupaten Maluku Tengah, Maluku";"Kabupaten Maluku Tengah, Maluku";"MALUKU";"";"Indonesia";" 082236167141";"";"";"-4.5273827";"129.9391805";"https://maps.google.com/?cid=0x0:0x9e0d6d444b6addb1";""
"mall";"mall";"banda Plaza";"FVFW+8G4, Nusantara, Kec. Banda, Kabupaten Maluku Tengah, Maluku";"Kabupaten Maluku Tengah, Maluku";"MALUKU";"";"Indonesia";"";"";"";"-4.5267306";"129.8963202";"https://maps.google.com/?cid=0x0:0x17198e32ff0882e4";""
"mall";"mall";"Kec. Tehoru";"Kabupaten Maluku Tengah, Maluku";"Kabupaten Maluku Tengah, Maluku";"MALUKU";"";"Indonesia";"";"";"";"-3.300989";"129.5157974";"https://maps.google.com/?cid=0x0:0x747431514523047b";""
"mall";"mall";"M kios";"JGRH+M9J, Tehoru, Kec. Tehoru, Kabupaten Maluku Tengah, Maluku";"Kabupaten Maluku Tengah, Maluku";"MALUKU";"";"Indonesia";"";"";"";"-3.3582959";"129.5283781";"https://maps.google.com/?cid=0x0:0xb699f21e83aea1fb";""
"mall";"Toko";"Toko Maya Usaha";"Tehoru, Kec. Tehoru, Kabupaten Maluku Tengah, Maluku";"Kabupaten Maluku Tengah, Maluku";"MALUKU";"";"Indonesia";"";"";"";"-3.3782683";"129.5418945";"https://maps.google.com/?cid=0x0:0x9fdf06274ce70aaa";""
"mall";"Pusat Perbelanjaan";"Maluku City Mall (MCM)";"Jl. Jenderal Sudirman No.1, Hative Kecil, Kec. Sirimau, Kota Ambon, Maluku";"Kota Ambon, Maluku";"MALUKU";"";"Indonesia";" 0911352871";"";"";"-3.6702679";"128.1981163";"https://maps.google.com/?cid=0x0:0x2f29bf0afe09144e";""
"mall";"mall";"PERMATA BARU SAPARUA";"CMH3+4G4, jalan terminal, Tiouw, Kec. Saparua, Kabupaten Maluku Tengah, Maluku";"Kabupaten Maluku Tengah, Maluku";"MALUKU";"";"Indonesia";"";"";"";"-3.5722305";"128.6538271";"https://maps.google.com/?cid=0x0:0xcb34c25c64726ba7";""
"mall";"mall";"Tk karya jaya";"CMH5+363, Saparua, Kec. Saparua, Kabupaten Maluku Tengah, Maluku";"Kabupaten Maluku Tengah, Maluku";"MALUKU";"";"Indonesia";"";"";"";"-3.5723744";"128.6580539";"https://maps.google.com/?cid=0x0:0xa23d4cdefcba20c8";""
"mall";"mall";"Toko Nelayan";"CMG5+R2C, Saparua, Kec. Saparua, Kabupaten Maluku Tengah, Maluku";"Kabupaten Maluku Tengah, Maluku";"MALUKU";"";"Indonesia";"";"";"";"-3.5729389";"128.6575013";"https://maps.google.com/?cid=0x0:0x58ec4ae3dce4c13b";""
"mall";"mall";"Kec. Saparua";"Kabupaten Maluku Tengah, Maluku";"Kabupaten Maluku Tengah, Maluku";"MALUKU";"";"Indonesia";"";"";"";"-3.5718109";"128.6544355";"https://maps.google.com/?cid=0x0:0x1d9b1f8124612946";""
"mall";"Pusat Perbelanjaan";"Kios Alfatih (Ani Amahoru)";"FHW7+6QR, Negeri, Kulur, Kec. Saparua, Kabupaten Maluku Tengah, Maluku";"Kabupaten Maluku Tengah, Maluku";"MALUKU";"";"Indonesia";" 082199519938";"";"";"-3.5043909";"128.5643902";"https://maps.google.com/?cid=0x0:0xfb8c3b6cddbbf1bc";""
"mall";"Kios";"kios.NIELMICKY";"CJHR+4MX, Haria - Amaratu, Tiouw, Kec. Saparua, Kabupaten Maluku Tengah, Maluku";"Kabupaten Maluku Tengah, Maluku";"MALUKU";"";"Indonesia";"";"";"";"-3.5721486";"128.6417434";"https://maps.google.com/?cid=0x0:0x15b972897945b6dd";""
"mall";"Restoran";"GRAHA SAPARUA";"Jl. Ambon No.15, Citarum, Kec. Bandung Wetan, Kota Bandung, Jawa Barat 40115";"Citarum, Kec. Bandung Wetan, Kota Bandung";"MALUKU";"40115";"Indonesia";" 085221330033";"";"";"-6.9071592";"107.6167037";"https://maps.google.com/?cid=0x0:0x6761ea2b8e0d9446";""
"mall";"Pujasera";"Saparua food court";"Jl. Ambon No.5-7, Citarum, Kec. Bandung Wetan, Kota Bandung, Jawa Barat 40115";"Citarum, Kec. Bandung Wetan, Kota Bandung";"MALUKU";"40115";"Indonesia";"";"";"";"-6.9081713";"107.615345";"https://maps.google.com/?cid=0x0:0xf5bcd6a83e983813";""
"mall";"mall";"Pulau Haruku";"Kec. Pulau Haruku, Kabupaten Maluku Tengah, Maluku";"Kabupaten Maluku Tengah, Maluku";"MALUKU";"";"Indonesia";"";"";"";"-3.559121";"128.4639632";"https://maps.google.com/?cid=0x0:0x447057b7bfb22ab3";""
"mall";"Pasar";"toko latuamury";"FFH9+GFV, Pelauw, Kec. Pulau Haruku, Kabupaten Maluku Tengah, Maluku";"Kabupaten Maluku Tengah, Maluku";"MALUKU";"";"Indonesia";"";"";"";"-3.5211396";"128.4686671";"https://maps.google.com/?cid=0x0:0xddc328276dd0c30d";""
"mall";"Pasar";"Pondok gede";"FFH8+PGJ, Pelauw, Kec. Pulau Haruku, Kabupaten Maluku Tengah, Maluku";"Kabupaten Maluku Tengah, Maluku";"MALUKU";"";"Indonesia";"";"";"";"-3.5206509";"128.4662529";"https://maps.google.com/?cid=0x0:0x336fe74f842a5f54";""
"mall";"mall";"Kec. Salahutu";"Kabupaten Maluku Tengah, Maluku";"Kabupaten Maluku Tengah, Maluku";"MALUKU";"";"Indonesia";"";"";"";"-3.5871515";"128.3279426";"https://maps.google.com/?cid=0x0:0xe1f3659f501ed8f1";""
"mall";"Perhimpunan Pengembang Perumahan";"TULEHU PLAZA";"C85R+M2Q, Tulehu, Kec. Salahutu, Kabupaten Maluku Tengah, Maluku";"Kabupaten Maluku Tengah, Maluku";"MALUKU";"";"Indonesia";"";"";"";"-3.5907937";"128.3400958";"https://maps.google.com/?cid=0x0:0x5ccf2248b7bc99f8";""
"mall";"Toko umum";"Rustam Nawawi Samual";"F8Q8+W83, Unnamed Road, Liang, Kec. Salahutu, Kabupaten Maluku Tengah, Maluku";"Kabupaten Maluku Tengah, Maluku";"MALUKU";"";"Indonesia";" 081344261655";"";"";"-3.5102317";"128.3157993";"https://maps.google.com/?cid=0x0:0xb0143305a4c1a575";""
"mall";"Toko Pakaian";"galeri Ratwo flanel n aksesoris";"C85R+M4M Tuplas, Tulehu, Kec. Salahutu, Kabupaten Maluku Tengah, Maluku";"Kabupaten Maluku Tengah, Maluku";"MALUKU";"";"Indonesia";" 081343389685";"";"";"-3.5907955";"128.3403018";"https://maps.google.com/?cid=0x0:0x77294332cad73d8b";""
"mall";"mall";"Pondok sulu 24 jam";"C8R4+FCV, Waai, Kec. Salahutu, Kabupaten Maluku Tengah, Maluku";"Kabupaten Maluku Tengah, Maluku";"MALUKU";"";"Indonesia";"";"";"";"-3.55877";"128.3060321";"https://maps.google.com/?cid=0x0:0x933f9bb771fe07a5";""
"mall";"Pusat Perbelanjaan";"KHareza Shop.";"F8Q8+W8R, Unnamed Road, Liang, Kec. Salahutu, Kabupaten Maluku Tengah, Maluku";"Kabupaten Maluku Tengah, Maluku";"MALUKU";"";"Indonesia";" 081344261655";"";"";"-3.5101435";"128.3157771";"https://maps.google.com/?cid=0x0:0x5b0aca356462ade2";""
"mall";"mall";"Pondok 24 jam";"C8PC+J8H, Waai, Kec. Salahutu, Kabupaten Maluku Tengah, Maluku";"Kabupaten Maluku Tengah, Maluku";"MALUKU";"";"Indonesia";"";"";"";"-3.5634417";"128.3208525";"https://maps.google.com/?cid=0x0:0x2cbbb79e264307d6";""
"mall";"Perumahan";"Sulfan gapura fashion";"98RH+G6P, Jl. Propinsi, Tulehu, Kec. Salahutu, Kabupaten Maluku Tengah, Maluku";"Kabupaten Maluku Tengah, Maluku";"MALUKU";"";"Indonesia";" 082198441544";"";"";"-3.6086555";"128.3280725";"https://maps.google.com/?cid=0x0:0x8b83eec17b0cf619";""
"mall";"Pembangunan Perumahan";"TANAH HITAM SULI ATAS AMBON";"98J2+847, Jl. Propinsi, Suli, Kec. Salahutu, Kabupaten Maluku Tengah, Maluku";"Kabupaten Maluku Tengah, Maluku";"MALUKU";"";"Indonesia";"";"";"";"-3.6192086";"128.3003077";"https://maps.google.com/?cid=0x0:0xed053d500cb0c2fb";""
"mall";"Toko";"Kios abdul";"98WP+XC3, Jl. Propinsi, Tulehu, Kec. Salahutu, Kabupaten Maluku Tengah, Maluku";"Kabupaten Maluku Tengah, Maluku";"MALUKU";"";"Indonesia";" 082291487668";"";"";"-3.6026245";"128.3360374";"https://maps.google.com/?cid=0x0:0xf014edc5142a4284";""
"mall";"Pusat Perbelanjaan";"Ambon City Center (ACC)";"Jl. Wolter Monginsidi, Passo, Kec. Baguala, Kota Ambon, Maluku 97232";"Passo, Kec. Baguala, Kota Ambon";"MALUKU";"97232";"Indonesia";" 09113869522";"";"";"-3.6320889";"128.2495582";"https://maps.google.com/?cid=0x0:0x91b8ed9da337adeb";""
"mall";"Kios";"Kios mama misa";"98XW+W2G, Tulehu, Kec. Salahutu, Kabupaten Maluku Tengah, Maluku";"Kabupaten Maluku Tengah, Maluku";"MALUKU";"";"Indonesia";" 085343202465";"";"";"-3.6001837";"128.3450679";"https://maps.google.com/?cid=0x0:0xeb19319ed0cb4e90";""
"mall";"Pusat Perbelanjaan";"Maluku City Mall (MCM)";"Jl. Jenderal Sudirman No.1, Hative Kecil, Kec. Sirimau, Kota Ambon, Maluku";"Kota Ambon, Maluku";"MALUKU";"";"Indonesia";" 0911352871";"";"";"-3.6702679";"128.1981163";"https://maps.google.com/?cid=0x0:0x2f29bf0afe09144e";""
"mall";"Es Krim";"ES Kristal Atlas";"C8MC+HCC, Waai, Kec. Salahutu, Kabupaten Maluku Tengah, Maluku";"Kabupaten Maluku Tengah, Maluku";"MALUKU";"";"Indonesia";"";"";"";"-3.5660589";"128.3210095";"https://maps.google.com/?cid=0x0:0x14cc72d427b4624e";""
"mall";"Pusat Perbelanjaan";"Gramedia Maluku City Mall";"Jalan Jenderal Sudirman. 1 Tantui Ambon UP Floor Blok UG No. 2, Jl. Jenderal Sudirman, Hative Kecil, Kec. Sirimau, Kota Ambon, Maluku 97128";"Jl. Jenderal Sudirman, Hative Kecil, Kec. Sirimau, Kota Ambon";"MALUKU";"97128";"Indonesia";" 081248557414";"";"";"-3.6703427";"128.1983406";"https://maps.google.com/?cid=0x0:0xe751f5e37fa0f5c3";""
"mall";"Tujuan Wisata";"Belut Raksasa Morea";"C8P9+3GF, Waai, Kec. Salahutu, Kabupaten Maluku Tengah, Maluku";"Kabupaten Maluku Tengah, Maluku";"MALUKU";"";"Indonesia";"";"";"";"-3.5648206";"128.3188058";"https://maps.google.com/?cid=0x0:0x169f30c553bf872a";""
"mall";"Toko Kesehatan dan Kecantikan";"Minyak Kayu Putih Asli Namlea Dean Melo";"Jl. Propinsi, Suli, Kec. Salahutu, Kota Ambon, Maluku";"Kota Ambon, Maluku";"MALUKU";"";"Indonesia";" 081240155415";"";"";"-3.6167267";"128.2735882";"https://maps.google.com/?cid=0x0:0x7121d9937477ce3d";""
"mall";"mall";"RochelleGwen Matulessy";"Sektor Fajar, Kecamatan Salahutu Kabupaten Maluku Tengah, Waai, Kec. Salahutu, Kota Ambon, Maluku 97582";"Kecamatan Salahutu Kabupaten Maluku Tengah, Waai, Kec. Salahutu, Kota Ambon";"MALUKU";"97582";"Indonesia";"";"";"";"-3.5650435";"128.3212461";"https://maps.google.com/?cid=0x0:0x3e84b88d6a1d562e";""
"mall";"mall";"Kec. Leihitu";"Kabupaten Maluku Tengah, Maluku";"Kabupaten Maluku Tengah, Maluku";"MALUKU";"";"Indonesia";"";"";"";"-3.5841059";"128.0844985";"https://maps.google.com/?cid=0x0:0x70c3041186d04c92";""
"mall";"Pusat Perbelanjaan";"Ambon City Center (ACC)";"Jl. Wolter Monginsidi, Passo, Kec. Baguala, Kota Ambon, Maluku 97232";"Passo, Kec. Baguala, Kota Ambon";"MALUKU";"97232";"Indonesia";" 09113869522";"";"";"-3.6320889";"128.2495582";"https://maps.google.com/?cid=0x0:0x91b8ed9da337adeb";""
"mall";"Pusat Perbelanjaan";"Maluku City Mall (MCM)";"Jl. Jenderal Sudirman No.1, Hative Kecil, Kec. Sirimau, Kota Ambon, Maluku";"Kota Ambon, Maluku";"MALUKU";"";"Indonesia";" 0911352871";"";"";"-3.6702679";"128.1981163";"https://maps.google.com/?cid=0x0:0x2f29bf0afe09144e";""
"mall";"Toko";"TOKO AMANANG";"Hila, Kec. Leihitu, Kabupaten Maluku Tengah, Maluku";"Kabupaten Maluku Tengah, Maluku";"MALUKU";"";"Indonesia";"";"";"";"-3.5887263";"128.096557";"https://maps.google.com/?cid=0x0:0x97018ca0e9d5dd0d";""
"mall";"Pusat Perbelanjaan";"Kios Sul Assililu";"8WCJ+JMJ, Asilulu, Kec. Leihitu, Kabupaten Maluku Tengah, Maluku";"Kabupaten Maluku Tengah, Maluku";"MALUKU";"";"Indonesia";" 081343457241";"";"";"-3.6784106";"127.9316543";"https://maps.google.com/?cid=0x0:0xe7177c1b088e8f32";""
"mall";"Toko";"Indriyani shop";"C53F+FJG, Unnamed Road, Hitu Mesing, Kec. Leihitu, Kabupaten Maluku Tengah, Maluku";"Kabupaten Maluku Tengah, Maluku";"MALUKU";"";"Indonesia";" 082198420545";"";"";"-3.5963152";"128.1740835";"https://maps.google.com/?cid=0x0:0xd20b824dff7e6cdd";""
"mall";"Toko";"Toko 3 Putri";"C36X+GG6, Jl. Propinsi, Hila, Kec. Leihitu, Kabupaten Maluku Tengah, Maluku";"Kabupaten Maluku Tengah, Maluku";"MALUKU";"";"Indonesia";" 081344592339";"";"";"-3.5887167";"128.0987617";"https://maps.google.com/?cid=0x0:0xa236a29778b3553d";""
"mall";"Pusat Perbelanjaan";"Ambon Manise Square";"85CV+FMF, Batu Merah, Kec. Sirimau, Kota Ambon, Maluku";"Kota Ambon, Maluku";"MALUKU";"";"Indonesia";"";"";"";"-3.6788224";"128.1941743";"https://maps.google.com/?cid=0x0:0x838fd46baa874f08";""
"mall";"Pusat Perbelanjaan";"Gramedia Maluku City Mall";"Jalan Jenderal Sudirman. 1 Tantui Ambon UP Floor Blok UG No. 2, Jl. Jenderal Sudirman, Hative Kecil, Kec. Sirimau, Kota Ambon, Maluku 97128";"Jl. Jenderal Sudirman, Hative Kecil, Kec. Sirimau, Kota Ambon";"MALUKU";"97128";"Indonesia";" 081248557414";"";"";"-3.6703427";"128.1983406";"https://maps.google.com/?cid=0x0:0xe751f5e37fa0f5c3";""
"mall";"Pusat Perbelanjaan";"TOKO RIANTY W";"C36X+X9R, Hila, Kec. Leihitu, Kabupaten Maluku Tengah, Maluku";"Kabupaten Maluku Tengah, Maluku";"MALUKU";"";"Indonesia";" 085283967462";"";"";"-3.5873936";"128.0985813";"https://maps.google.com/?cid=0x0:0xadad4722677807af";""
"mall";"Toko";"Kios Fitry";"C352+XM6, Dusun kalauly, Kaitetu, Kec. Leihitu, Kabupaten Maluku Tengah, Maluku";"Kabupaten Maluku Tengah, Maluku";"MALUKU";"";"Indonesia";"";"";"";"-3.5900839";"128.0516547";"https://maps.google.com/?cid=0x0:0x124672a145112c1b";""
"mall";"Toko bahan makanan";"Masariku_Tactical";"96CG+XH3, Waiheru, Kec. Baguala, Kota Ambon, Maluku";"Kota Ambon, Maluku";"MALUKU";"";"Indonesia";"";"";"";"-3.6276036";"128.226411";"https://maps.google.com/?cid=0x0:0x6e1b3be333ef152d";""
"mall";"Toko";"Kios Rizal";"C36X+G65, Jl. Propinsi, Hila, Kec. Leihitu, Kabupaten Maluku Tengah, Maluku";"Kabupaten Maluku Tengah, Maluku";"MALUKU";"";"Indonesia";" 082199488922";"";"";"-3.5887472";"128.0981132";"https://maps.google.com/?cid=0x0:0xf11fa75dad73fc16";""
"mall";"Pusat Perbelanjaan";"Ambon Plaza";"Kel Honipopu, Kec. Sirimau, Kota Ambon, Maluku";"Kota Ambon, Maluku";"MALUKU";"";"Indonesia";"";"";"";"-3.6936069";"128.1798425";"https://maps.google.com/?cid=0x0:0x11baeb2193b2344c";""
"mall";"Pusat Perbelanjaan";"Kios AFIRA";"Asilulu, Kec. Leihitu, Kabupaten Maluku Tengah, Maluku";"Kabupaten Maluku Tengah, Maluku";"MALUKU";"";"Indonesia";" 085211418799";"";"";"-3.6771927";"127.9350059";"https://maps.google.com/?cid=0x0:0x5bcd28170d0318a4";""
"mall";"Toko Pakaian";"Hemollucas DISTRO";"Hitu Lama, Jampestreet420, Kota Ambon, Maluku 97580";"Jampestreet420, Kota Ambon";"MALUKU";"97580";"Indonesia";" 085254360001";"";"";"-3.5857325";"128.1776227";"https://maps.google.com/?cid=0x0:0xb23cb249e47a9ee4";""
"mall";"Toko";"Toko lea lea";"868F+639, Jl. Raya Stain, Batu Merah, Kec. Sirimau, Kota Ambon, Maluku";"Kota Ambon, Maluku";"MALUKU";"";"Indonesia";" 085244601212";"";"";"-3.6844667";"128.222745";"https://maps.google.com/?cid=0x0:0x2af95f08fe1982ee";""
"mall";"Toko umum";"Serena Foto Copy";"Waiheru, Kec. Baguala, Kota Ambon, Maluku";"Kota Ambon, Maluku";"MALUKU";"";"Indonesia";"";"";"";"-3.6307129";"128.2143446";"https://maps.google.com/?cid=0x0:0x385c29f6ff8b3a78";""
"mall";"Toko Alat Pancing";"Toko Pancing Nelayan Pro";"C468+XWV, Jl. Propinsi, Hila, Kec. Leihitu, Kabupaten Maluku Tengah, Maluku";"Kabupaten Maluku Tengah, Maluku";"MALUKU";"";"Indonesia";" 081248050006";"";"";"-3.5875045";"128.1173086";"https://maps.google.com/?cid=0x0:0x8baef35099dafcad";""
"mall";"Perhimpunan Pengembang Perumahan";"LORONG ANSGER";"73H8+G34, Hatu, Kec. Leihitu Bar., Kabupaten Maluku Tengah, Maluku";"Kabupaten Maluku Tengah, Maluku";"MALUKU";"";"Indonesia";"";"";"";"-3.721245";"128.0651992";"https://maps.google.com/?cid=0x0:0xadaf9535a9b3a4d8";""
"mall";"Toko";"Toko Nur Hasmi";"Jln. Batu, Asilulu, Kec. Leihitu, Kabupaten Maluku Tengah, Maluku 97580";"Asilulu, Kec. Leihitu, Kabupaten Maluku Tengah";"MALUKU";"97580";"Indonesia";" 081354129099";"";"";"-3.6805794";"127.9333601";"https://maps.google.com/?cid=0x0:0x2e769c4b7fa06a52";""
"mall";"Toko bahan makanan";"Planet Wainitu";"75VC+V92, Jl. DR. Siwabessy, Kel Wainitu, Kec. Nusaniwe, Kota Ambon, Maluku";"Kota Ambon, Maluku";"MALUKU";"";"Indonesia";"";"";"";"-3.7053726";"128.1708863";"https://maps.google.com/?cid=0x0:0xf513d347b051a3de";""
"mall";"Taman bermain";"Waiheru BIP biliard";"96C7+P54, Waiheru, Kec. Baguala, Kota Ambon, Maluku";"Kota Ambon, Maluku";"MALUKU";"";"Indonesia";"";"";"";"-3.6282375";"128.2129531";"https://maps.google.com/?cid=0x0:0x888d04c83ec02024";""
"mall";"Perumahan";"Ruko PERUMNAS O'DEWA WAIHERU";"96CF+GHV, Waiheru, Kec. Baguala, Kota Ambon, Maluku";"Kota Ambon, Maluku";"MALUKU";"";"Indonesia";"";"";"";"-3.628637";"128.2239288";"https://maps.google.com/?cid=0x0:0xcf95c20866363ea3";""
"mall";"Minimarket";"TOSERBA YURA";"Kel Amantelu, Kec. Sirimau, Kota Ambon, Maluku";"Kota Ambon, Maluku";"MALUKU";"";"Indonesia";" 082248382037";"";"";"-3.6867543";"128.1889466";"https://maps.google.com/?cid=0x0:0x4704a6d73b49aa57";""
"mall";"mall";"Maluku 97511";"Ampera, Kec. Kota Masohi, Kabupaten Maluku Tengah, Maluku";"Kabupaten Maluku Tengah, Maluku";"MALUKU";"";"Indonesia";"";"";"";"-3.2986837";"128.9559293";"https://maps.google.com/?cid=0x0:0x208f85b200ee57be";""
"mall";"Pusat Perbelanjaan";"Maluku City Mall (MCM)";"Jl. Jenderal Sudirman No.1, Hative Kecil, Kec. Sirimau, Kota Ambon, Maluku";"Kota Ambon, Maluku";"MALUKU";"";"Indonesia";" 0911352871";"";"";"-3.6702679";"128.1981163";"https://maps.google.com/?cid=0x0:0x2f29bf0afe09144e";""
"mall";"Pusat Perbelanjaan";"Gramedia Maluku City Mall";"Jalan Jenderal Sudirman. 1 Tantui Ambon UP Floor Blok UG No. 2, Jl. Jenderal Sudirman, Hative Kecil, Kec. Sirimau, Kota Ambon, Maluku 97128";"Jl. Jenderal Sudirman, Hative Kecil, Kec. Sirimau, Kota Ambon";"MALUKU";"97128";"Indonesia";" 081248557414";"";"";"-3.6703427";"128.1983406";"https://maps.google.com/?cid=0x0:0xe751f5e37fa0f5c3";""
"mall";"mall";"Kec. Nusalaut";"Kabupaten Maluku Tengah, Maluku";"Kabupaten Maluku Tengah, Maluku";"MALUKU";"";"Indonesia";"";"";"";"-3.67799";"128.7623442";"https://maps.google.com/?cid=0x0:0x5d191d10cde9fb21";""
"mall";"mall";"Maluku 97511";"Ampera, Kec. Kota Masohi, Kabupaten Maluku Tengah, Maluku";"Kabupaten Maluku Tengah, Maluku";"MALUKU";"";"Indonesia";"";"";"";"-3.2986837";"128.9559293";"https://maps.google.com/?cid=0x0:0x208f85b200ee57be";""
"mall";"Pasar";"Pasar Binaya Masohi";"Namaelo, Kec. Kota Masohi, Kabupaten Maluku Tengah, Maluku 97511";"Kec. Kota Masohi, Kabupaten Maluku Tengah";"MALUKU";"97511";"Indonesia";" 081343304423";"";"";"-3.2990378";"128.9562757";"https://maps.google.com/?cid=0x0:0xa5e95d9b0c5f0eff";""
"mall";"Toko";"Toko setia baru";"Namaelo, Kec. Kota Masohi, Kabupaten Maluku Tengah, Maluku";"Kabupaten Maluku Tengah, Maluku";"MALUKU";"";"Indonesia";" 082248360600";"";"";"-3.3009258";"128.9540058";"https://maps.google.com/?cid=0x0:0x15cfe5f3146bb43d";""
"mall";"Toko bahan makanan";"Toko Nanda777";"PX24+67F, Namaelo, Kec. Kota Masohi, Kabupaten Maluku Tengah, Maluku";"Kabupaten Maluku Tengah, Maluku";"MALUKU";"";"Indonesia";" 082110789112";"";"";"-3.2994494";"128.9556826";"https://maps.google.com/?cid=0x0:0xb0da49066e9e1843";""
"mall";"Kantor Perusahaan";"Terminal Masohi";"PX24+997, Namaelo, Kec. Kota Masohi, Kabupaten Maluku Tengah, Maluku 97511";"Namaelo, Kec. Kota Masohi, Kabupaten Maluku Tengah";"MALUKU";"97511";"Indonesia";"";"";"";"-3.299096";"128.9559159";"https://maps.google.com/?cid=0x0:0x4070737e95afc27b";""
"mall";"Toko Perlengkapan Rumah";"MY HOME MASOHI";"MXX3+22V, Namaelo, Kec. Kota Masohi, Kabupaten Maluku Tengah, Maluku 97511";"Namaelo, Kec. Kota Masohi, Kabupaten Maluku Tengah";"MALUKU";"97511";"Indonesia";" 081248735116";"";"";"-3.302386";"128.9525454";"https://maps.google.com/?cid=0x0:0xeada06bd0e603532";""
"mall";"Toko Obat-Obatan Herbal";"Agen Fiforlif Maluku";"Letwaru, Kec. Kota Masohi, Kabupaten Maluku Tengah, Maluku 97500";"Kec. Kota Masohi, Kabupaten Maluku Tengah";"MALUKU";"97500";"Indonesia";" 081343482919";"";"";"-3.293835";"128.963118";"https://maps.google.com/?cid=0x0:0x37e73e9bfb023a8b";""
"mall";"Kantor Pemerintah";"Kantor Pelayanan Perbendaharaan Negara (KPPN) Tipe A1 Masohi";"Jl. Pattimura No.36, Namaelo, Kec. Kota Masohi, Kabupaten Maluku Tengah, Maluku 97511";"Namaelo, Kec. Kota Masohi, Kabupaten Maluku Tengah";"MALUKU";"97511";"Indonesia";" 091422721";"";"";"-3.3024026";"128.9561313";"https://maps.google.com/?cid=0x0:0xd9d88d92cfea6632";""
"mall";"Pembangunan Perumahan";"Masohi";"PX26+C67, Lesane, Kec. Kota Masohi, Kabupaten Maluku Tengah, Maluku";"Kabupaten Maluku Tengah, Maluku";"MALUKU";"";"Indonesia";"";"";"";"-3.2989635";"128.960532";"https://maps.google.com/?cid=0x0:0x1615b493297306e7";""
"mall";"Pusat Perbelanjaan";"Maluku City Mall (MCM)";"Jl. Jenderal Sudirman No.1, Hative Kecil, Kec. Sirimau, Kota Ambon, Maluku";"Kota Ambon, Maluku";"MALUKU";"";"Indonesia";" 0911352871";"";"";"-3.6702679";"128.1981163";"https://maps.google.com/?cid=0x0:0x2f29bf0afe09144e";""
"mall";"Tempat Istirahat";"Kantor Bupati Kabupaten Maluku Tengah";"Jalan Geser No.4, Namaelo, Kec. Kota Masohi, Kabupaten Maluku Tengah, Maluku";"Kabupaten Maluku Tengah, Maluku";"MALUKU";"";"Indonesia";"";"";"";"-3.3042802";"128.9540856";"https://maps.google.com/?cid=0x0:0x44fd8ad2e9aa207e";""
"mall";"Fotografer";"samping terminal masohi";"MXX4+MMW, Jl. Kopra, Namaelo, Kec. Kota Masohi, Kabupaten Maluku Tengah, Maluku 97511";"Jl. Kopra, Namaelo, Kec. Kota Masohi, Kabupaten Maluku Tengah";"MALUKU";"97511";"Indonesia";" 081343105717";"";"";"-3.300752";"128.9566893";"https://maps.google.com/?cid=0x0:0x503f6e5ee493d847";""
"mall";"mall";"Kec. Kota Masohi";"Kabupaten Maluku Tengah, Maluku";"Kabupaten Maluku Tengah, Maluku";"MALUKU";"";"Indonesia";"";"";"";"-3.3000615";"128.9542861";"https://maps.google.com/?cid=0x0:0x22d2194857d48769";""
"mall";"Toko Swalayan";"Matahari Mart";"Jl. Trans Seram, Haruru, Kec. Amahai, Kabupaten Maluku Tengah, Maluku";"Kabupaten Maluku Tengah, Maluku";"MALUKU";"";"Indonesia";" 082198281372";"";"";"-3.2909027";"128.9680723";"https://maps.google.com/?cid=0x0:0x8c6c9d9f38aa725";""
"mall";"Toko Elektronik";"Discovery Computer";"PX24+MCF, Jl. Abdullah Solissa, Ampera, Kec. Kota Masohi, Kabupaten Maluku Tengah, Maluku 97511";"Jl. Abdullah Solissa, Ampera, Kec. Kota Masohi, Kabupaten Maluku Tengah";"MALUKU";"97511";"Indonesia";" 091421703";"";"";"-3.2983166";"128.9560476";"https://maps.google.com/?cid=0x0:0x6be3648bf64ab26c";""
"mall";"Pasar";"Pasar Binaya Masohi";"Namaelo, Kec. Kota Masohi, Kabupaten Maluku Tengah, Maluku 97511";"Kec. Kota Masohi, Kabupaten Maluku Tengah";"MALUKU";"97511";"Indonesia";" 081343304423";"";"";"-3.2990378";"128.9562757";"https://maps.google.com/?cid=0x0:0xa5e95d9b0c5f0eff";""
"mall";"Pusat Perbelanjaan";"Toko Bangunan ACIM BARU";"Namaelo, Kec. Kota Masohi, Kabupaten Maluku Tengah, Maluku";"Kabupaten Maluku Tengah, Maluku";"MALUKU";"";"Indonesia";" 082399119777";"";"";"-3.299574";"128.9570793";"https://maps.google.com/?cid=0x0:0xe6f69ec76d2fd7b0";""
"mall";"Used store fixture supplier";"Depar Collection";"MXX9+87W, Letwaru, Kec. Kota Masohi, Kabupaten Maluku Tengah, Maluku";"Kabupaten Maluku Tengah, Maluku";"MALUKU";"";"Indonesia";" 082398632243";"";"";"-3.3016325";"128.9682108";"https://maps.google.com/?cid=0x0:0xbd4f996e5f6dc6ec";""
"mall";"Toko";"Toko setia baru";"Namaelo, Kec. Kota Masohi, Kabupaten Maluku Tengah, Maluku";"Kabupaten Maluku Tengah, Maluku";"MALUKU";"";"Indonesia";" 082248360600";"";"";"-3.3009258";"128.9540058";"https://maps.google.com/?cid=0x0:0x15cfe5f3146bb43d";""
"mall";"Minimarket";"Planet Mart";"PX25+5HG, Jl. Binaya, Namaelo, Kec. Kota Masohi, Kabupaten Maluku Tengah, Maluku";"Kabupaten Maluku Tengah, Maluku";"MALUKU";"";"Indonesia";"";"";"";"-3.2995726";"128.9589677";"https://maps.google.com/?cid=0x0:0x5512bb9edc8557f9";""
"mall";"Toko Mebel";"DEPOT JIHAN";"MXV7+2M4, Namaelo, Kec. Kota Masohi, Kabupaten Maluku Tengah, Maluku 97511";"Namaelo, Kec. Kota Masohi, Kabupaten Maluku Tengah";"MALUKU";"97511";"Indonesia";" 082198336714";"";"";"-3.3074904";"128.9642106";"https://maps.google.com/?cid=0x0:0x5fe0673a350a87c8";""
"mall";"Pasar";"MAPLAZ";"PX24+9QR, Namaelo, Kec. Kota Masohi, Kabupaten Maluku Tengah, Maluku";"Kabupaten Maluku Tengah, Maluku";"MALUKU";"";"Indonesia";"";"";"";"-3.2989464";"128.9563746";"https://maps.google.com/?cid=0x0:0xa26dc17d34fe3196";""
"mall";"Agen Sewa Mobil";"Rental  Travel";"PX25+WXF, Lesane, Kec. Kota Masohi, Kabupaten Maluku Tengah, Maluku";"Kabupaten Maluku Tengah, Maluku";"MALUKU";"";"Indonesia";" 081247537396";"";"";"-3.2976997";"128.9599067";"https://maps.google.com/?cid=0x0:0x6f8aa9029200689e";""
"mall";"Toko Obat-Obatan Herbal";"Agen Fiforlif Maluku";"Letwaru, Kec. Kota Masohi, Kabupaten Maluku Tengah, Maluku 97500";"Kec. Kota Masohi, Kabupaten Maluku Tengah";"MALUKU";"97500";"Indonesia";" 081343482919";"";"";"-3.293835";"128.963118";"https://maps.google.com/?cid=0x0:0x37e73e9bfb023a8b";""
"mall";"Layanan Pengelolaan Limbah";"Risky cell (wahda)";"MWVW+3GG, Namasina, Kec. Kota Masohi, Kabupaten Maluku Tengah, Maluku";"Kabupaten Maluku Tengah, Maluku";"MALUKU";"";"Indonesia";"";"";"";"-3.3078173";"128.9463829";"https://maps.google.com/?cid=0x0:0x88e9c150c510a09a";""
"mall";"Toko Pakaian";"Loket Nazar";"MXX3+825, Ampera, Kec. Kota Masohi, Kabupaten Maluku Tengah, Maluku";"Kabupaten Maluku Tengah, Maluku";"MALUKU";"";"Indonesia";" 091421742";"";"";"-3.301727";"128.9526187";"https://maps.google.com/?cid=0x0:0xe482aae3adc54d9e";""
"mall";"Komplek perumahan";"Awal penghulu";"MXX6+VGW, Unnamed Road, Lesane, Namaelo, Kec. Kota Masohi, Kabupaten Maluku Tengah, Maluku 97511";"Unnamed Road, Lesane, Namaelo, Kec. Kota Masohi, Kabupaten Maluku Tengah";"MALUKU";"97511";"Indonesia";" 0821986064411";"";"";"-3.300274";"128.9613231";"https://maps.google.com/?cid=0x0:0xf9082bf1aa440b7e";""
"mall";"Toko bahan makanan";"Toko Nanda777";"PX24+67F, Namaelo, Kec. Kota Masohi, Kabupaten Maluku Tengah, Maluku";"Kabupaten Maluku Tengah, Maluku";"MALUKU";"";"Indonesia";" 082110789112";"";"";"-3.2994494";"128.9556826";"https://maps.google.com/?cid=0x0:0xb0da49066e9e1843";""
"mall";"Toko Perlengkapan Rumah";"MY HOME MASOHI";"MXX3+22V, Namaelo, Kec. Kota Masohi, Kabupaten Maluku Tengah, Maluku 97511";"Namaelo, Kec. Kota Masohi, Kabupaten Maluku Tengah";"MALUKU";"97511";"Indonesia";" 081248735116";"";"";"-3.302386";"128.9525454";"https://maps.google.com/?cid=0x0:0xeada06bd0e603532";""
"mall";"Pusat Perbelanjaan";"Mall Senayan City";"Jl. Asia Afrika No.Lot 19, Gelora, Kecamatan Tanah Abang, Kota Jakarta Pusat, Daerah Khusus Ibukota Jakarta 10270";"Gelora, Kecamatan Tanah Abang, Kota Jakarta Pusat";"MALUKU";"10270";"Indonesia";" 02172781000";"";"";"-6.2271953";"106.7970117";"https://maps.google.com/?cid=0x0:0x300c043104acc004";""
"mall";"Pusat Perbelanjaan";"Maluku City Mall (MCM)";"Jl. Jenderal Sudirman No.1, Hative Kecil, Kec. Sirimau, Kota Ambon, Maluku";"Kota Ambon, Maluku";"MALUKU";"";"Indonesia";" 0911352871";"";"";"-3.6702679";"128.1981163";"https://maps.google.com/?cid=0x0:0x2f29bf0afe09144e";""
"mall";"Pembangunan Perumahan";"Masohi";"PX26+C67, Lesane, Kec. Kota Masohi, Kabupaten Maluku Tengah, Maluku";"Kabupaten Maluku Tengah, Maluku";"MALUKU";"";"Indonesia";"";"";"";"-3.2989635";"128.960532";"https://maps.google.com/?cid=0x0:0x1615b493297306e7";""
"mall";"Toko Pakaian";"Distro Rahma";"MXX4+PX2, Namaelo, Kec. Kota Masohi, Kabupaten Maluku Tengah, Maluku";"Kabupaten Maluku Tengah, Maluku";"MALUKU";"";"Indonesia";"";"";"";"-3.3007488";"128.9574012";"https://maps.google.com/?cid=0x0:0x1c3c10b4d5d390a3";""
"mall";"Kantor Perusahaan";"Terminal Masohi";"PX24+997, Namaelo, Kec. Kota Masohi, Kabupaten Maluku Tengah, Maluku 97511";"Namaelo, Kec. Kota Masohi, Kabupaten Maluku Tengah";"MALUKU";"97511";"Indonesia";"";"";"";"-3.299096";"128.9559159";"https://maps.google.com/?cid=0x0:0x4070737e95afc27b";""
"mall";"Perumahan";"PT Telkom Kancatel Masohi";"MXW3+F29, Namaelo, Kec. Kota Masohi, Kabupaten Maluku Tengah, Maluku";"Kabupaten Maluku Tengah, Maluku";"MALUKU";"";"Indonesia";" 091421334";"";"";"-3.3038441";"128.9525938";"https://maps.google.com/?cid=0x0:0x2a5e1ffdb018e0c0";""
"mall";"mall";"Kec. Kota Masohi";"Kabupaten Maluku Tengah, Maluku";"Kabupaten Maluku Tengah, Maluku";"MALUKU";"";"Indonesia";"";"";"";"-3.3000615";"128.9542861";"https://maps.google.com/?cid=0x0:0x22d2194857d48769";""
"mall";"Toko Swalayan";"Matahari Mart";"Jl. Trans Seram, Haruru, Kec. Amahai, Kabupaten Maluku Tengah, Maluku";"Kabupaten Maluku Tengah, Maluku";"MALUKU";"";"Indonesia";" 082198281372";"";"";"-3.2909027";"128.9680723";"https://maps.google.com/?cid=0x0:0x8c6c9d9f38aa725";""
"mall";"Toko Elektronik";"Discovery Computer";"PX24+MCF, Jl. Abdullah Solissa, Ampera, Kec. Kota Masohi, Kabupaten Maluku Tengah, Maluku 97511";"Jl. Abdullah Solissa, Ampera, Kec. Kota Masohi, Kabupaten Maluku Tengah";"MALUKU";"97511";"Indonesia";" 091421703";"";"";"-3.2983166";"128.9560476";"https://maps.google.com/?cid=0x0:0x6be3648bf64ab26c";""
"mall";"Pasar";"Pasar Binaya Masohi";"Namaelo, Kec. Kota Masohi, Kabupaten Maluku Tengah, Maluku 97511";"Kec. Kota Masohi, Kabupaten Maluku Tengah";"MALUKU";"97511";"Indonesia";" 081343304423";"";"";"-3.2990378";"128.9562757";"https://maps.google.com/?cid=0x0:0xa5e95d9b0c5f0eff";""
"mall";"Pusat Perbelanjaan";"Toko Bangunan ACIM BARU";"Namaelo, Kec. Kota Masohi, Kabupaten Maluku Tengah, Maluku";"Kabupaten Maluku Tengah, Maluku";"MALUKU";"";"Indonesia";" 082399119777";"";"";"-3.299574";"128.9570793";"https://maps.google.com/?cid=0x0:0xe6f69ec76d2fd7b0";""
"mall";"Toko";"Toko setia baru";"Namaelo, Kec. Kota Masohi, Kabupaten Maluku Tengah, Maluku";"Kabupaten Maluku Tengah, Maluku";"MALUKU";"";"Indonesia";" 082248360600";"";"";"-3.3009258";"128.9540058";"https://maps.google.com/?cid=0x0:0x15cfe5f3146bb43d";""
"mall";"Used store fixture supplier";"Depar Collection";"MXX9+87W, Letwaru, Kec. Kota Masohi, Kabupaten Maluku Tengah, Maluku";"Kabupaten Maluku Tengah, Maluku";"MALUKU";"";"Indonesia";" 082398632243";"";"";"-3.3016325";"128.9682108";"https://maps.google.com/?cid=0x0:0xbd4f996e5f6dc6ec";""
"mall";"Minimarket";"Planet Mart";"PX25+5HG, Jl. Binaya, Namaelo, Kec. Kota Masohi, Kabupaten Maluku Tengah, Maluku";"Kabupaten Maluku Tengah, Maluku";"MALUKU";"";"Indonesia";"";"";"";"-3.2995726";"128.9589677";"https://maps.google.com/?cid=0x0:0x5512bb9edc8557f9";""
"mall";"Toko Mebel";"DEPOT JIHAN";"MXV7+2M4, Namaelo, Kec. Kota Masohi, Kabupaten Maluku Tengah, Maluku 97511";"Namaelo, Kec. Kota Masohi, Kabupaten Maluku Tengah";"MALUKU";"97511";"Indonesia";" 082198336714";"";"";"-3.3074904";"128.9642106";"https://maps.google.com/?cid=0x0:0x5fe0673a350a87c8";""
"mall";"Agen Sewa Mobil";"Rental  Travel";"PX25+WXF, Lesane, Kec. Kota Masohi, Kabupaten Maluku Tengah, Maluku";"Kabupaten Maluku Tengah, Maluku";"MALUKU";"";"Indonesia";" 081247537396";"";"";"-3.2976997";"128.9599067";"https://maps.google.com/?cid=0x0:0x6f8aa9029200689e";""
"mall";"Pasar";"MAPLAZ";"PX24+9QR, Namaelo, Kec. Kota Masohi, Kabupaten Maluku Tengah, Maluku";"Kabupaten Maluku Tengah, Maluku";"MALUKU";"";"Indonesia";"";"";"";"-3.2989464";"128.9563746";"https://maps.google.com/?cid=0x0:0xa26dc17d34fe3196";""
"mall";"Toko bahan makanan";"Toko Nanda777";"PX24+67F, Namaelo, Kec. Kota Masohi, Kabupaten Maluku Tengah, Maluku";"Kabupaten Maluku Tengah, Maluku";"MALUKU";"";"Indonesia";" 082110789112";"";"";"-3.2994494";"128.9556826";"https://maps.google.com/?cid=0x0:0xb0da49066e9e1843";""
"mall";"Komplek perumahan";"Awal penghulu";"MXX6+VGW, Unnamed Road, Lesane, Namaelo, Kec. Kota Masohi, Kabupaten Maluku Tengah, Maluku 97511";"Unnamed Road, Lesane, Namaelo, Kec. Kota Masohi, Kabupaten Maluku Tengah";"MALUKU";"97511";"Indonesia";" 0821986064411";"";"";"-3.300274";"128.9613231";"https://maps.google.com/?cid=0x0:0xf9082bf1aa440b7e";""
"mall";"Layanan Pengelolaan Limbah";"Risky cell (wahda)";"MWVW+3GG, Namasina, Kec. Kota Masohi, Kabupaten Maluku Tengah, Maluku";"Kabupaten Maluku Tengah, Maluku";"MALUKU";"";"Indonesia";"";"";"";"-3.3078173";"128.9463829";"https://maps.google.com/?cid=0x0:0x88e9c150c510a09a";""
"mall";"Toko Obat-Obatan Herbal";"Agen Fiforlif Maluku";"Letwaru, Kec. Kota Masohi, Kabupaten Maluku Tengah, Maluku 97500";"Kec. Kota Masohi, Kabupaten Maluku Tengah";"MALUKU";"97500";"Indonesia";" 081343482919";"";"";"-3.293835";"128.963118";"https://maps.google.com/?cid=0x0:0x37e73e9bfb023a8b";""
"mall";"Toko Pakaian";"Loket Nazar";"MXX3+825, Ampera, Kec. Kota Masohi, Kabupaten Maluku Tengah, Maluku";"Kabupaten Maluku Tengah, Maluku";"MALUKU";"";"Indonesia";" 091421742";"";"";"-3.301727";"128.9526187";"https://maps.google.com/?cid=0x0:0xe482aae3adc54d9e";""
"mall";"Toko Perlengkapan Rumah";"MY HOME MASOHI";"MXX3+22V, Namaelo, Kec. Kota Masohi, Kabupaten Maluku Tengah, Maluku 97511";"Namaelo, Kec. Kota Masohi, Kabupaten Maluku Tengah";"MALUKU";"97511";"Indonesia";" 081248735116";"";"";"-3.302386";"128.9525454";"https://maps.google.com/?cid=0x0:0xeada06bd0e603532";""
"mall";"Pusat Perbelanjaan";"Mall Senayan City";"Jl. Asia Afrika No.Lot 19, Gelora, Kecamatan Tanah Abang, Kota Jakarta Pusat, Daerah Khusus Ibukota Jakarta 10270";"Gelora, Kecamatan Tanah Abang, Kota Jakarta Pusat";"MALUKU";"10270";"Indonesia";" 02172781000";"";"";"-6.2271953";"106.7970117";"https://maps.google.com/?cid=0x0:0x300c043104acc004";""
"mall";"Pusat Perbelanjaan";"Maluku City Mall (MCM)";"Jl. Jenderal Sudirman No.1, Hative Kecil, Kec. Sirimau, Kota Ambon, Maluku";"Kota Ambon, Maluku";"MALUKU";"";"Indonesia";" 0911352871";"";"";"-3.6702679";"128.1981163";"https://maps.google.com/?cid=0x0:0x2f29bf0afe09144e";""
"mall";"Toko Pakaian";"Distro Rahma";"MXX4+PX2, Namaelo, Kec. Kota Masohi, Kabupaten Maluku Tengah, Maluku";"Kabupaten Maluku Tengah, Maluku";"MALUKU";"";"Indonesia";"";"";"";"-3.3007488";"128.9574012";"https://maps.google.com/?cid=0x0:0x1c3c10b4d5d390a3";""
"mall";"Kantor Perusahaan";"Terminal Masohi";"PX24+997, Namaelo, Kec. Kota Masohi, Kabupaten Maluku Tengah, Maluku 97511";"Namaelo, Kec. Kota Masohi, Kabupaten Maluku Tengah";"MALUKU";"97511";"Indonesia";"";"";"";"-3.299096";"128.9559159";"https://maps.google.com/?cid=0x0:0x4070737e95afc27b";""
"mall";"Pembangunan Perumahan";"Masohi";"PX26+C67, Lesane, Kec. Kota Masohi, Kabupaten Maluku Tengah, Maluku";"Kabupaten Maluku Tengah, Maluku";"MALUKU";"";"Indonesia";"";"";"";"-3.2989635";"128.960532";"https://maps.google.com/?cid=0x0:0x1615b493297306e7";""
"mall";"mall";"Kec. Kota Masohi";"Kabupaten Maluku Tengah, Maluku";"Kabupaten Maluku Tengah, Maluku";"MALUKU";"";"Indonesia";"";"";"";"-3.3000615";"128.9542861";"https://maps.google.com/?cid=0x0:0x22d2194857d48769";""
"mall";"Toko Swalayan";"Matahari Mart";"Jl. Trans Seram, Haruru, Kec. Amahai, Kabupaten Maluku Tengah, Maluku";"Kabupaten Maluku Tengah, Maluku";"MALUKU";"";"Indonesia";" 082198281372";"";"";"-3.2909027";"128.9680723";"https://maps.google.com/?cid=0x0:0x8c6c9d9f38aa725";""
"mall";"Toko Elektronik";"Discovery Computer";"PX24+MCF, Jl. Abdullah Solissa, Ampera, Kec. Kota Masohi, Kabupaten Maluku Tengah, Maluku 97511";"Jl. Abdullah Solissa, Ampera, Kec. Kota Masohi, Kabupaten Maluku Tengah";"MALUKU";"97511";"Indonesia";" 091421703";"";"";"-3.2983166";"128.9560476";"https://maps.google.com/?cid=0x0:0x6be3648bf64ab26c";""
"mall";"Pusat Perbelanjaan";"Toko Bangunan ACIM BARU";"Namaelo, Kec. Kota Masohi, Kabupaten Maluku Tengah, Maluku";"Kabupaten Maluku Tengah, Maluku";"MALUKU";"";"Indonesia";" 082399119777";"";"";"-3.299574";"128.9570793";"https://maps.google.com/?cid=0x0:0xe6f69ec76d2fd7b0";""
"mall";"Pasar";"Pasar Binaya Masohi";"Namaelo, Kec. Kota Masohi, Kabupaten Maluku Tengah, Maluku 97511";"Kec. Kota Masohi, Kabupaten Maluku Tengah";"MALUKU";"97511";"Indonesia";" 081343304423";"";"";"-3.2990378";"128.9562757";"https://maps.google.com/?cid=0x0:0xa5e95d9b0c5f0eff";""
"mall";"Used store fixture supplier";"Depar Collection";"MXX9+87W, Letwaru, Kec. Kota Masohi, Kabupaten Maluku Tengah, Maluku";"Kabupaten Maluku Tengah, Maluku";"MALUKU";"";"Indonesia";" 082398632243";"";"";"-3.3016325";"128.9682108";"https://maps.google.com/?cid=0x0:0xbd4f996e5f6dc6ec";""
"mall";"Toko";"Toko setia baru";"Namaelo, Kec. Kota Masohi, Kabupaten Maluku Tengah, Maluku";"Kabupaten Maluku Tengah, Maluku";"MALUKU";"";"Indonesia";" 082248360600";"";"";"-3.3009258";"128.9540058";"https://maps.google.com/?cid=0x0:0x15cfe5f3146bb43d";""
"mall";"Toko Mebel";"DEPOT JIHAN";"MXV7+2M4, Namaelo, Kec. Kota Masohi, Kabupaten Maluku Tengah, Maluku 97511";"Namaelo, Kec. Kota Masohi, Kabupaten Maluku Tengah";"MALUKU";"97511";"Indonesia";" 082198336714";"";"";"-3.3074904";"128.9642106";"https://maps.google.com/?cid=0x0:0x5fe0673a350a87c8";""
"mall";"Pusat Perbelanjaan";"Maluku City Mall (MCM)";"Jl. Jenderal Sudirman No.1, Hative Kecil, Kec. Sirimau, Kota Ambon, Maluku";"Kota Ambon, Maluku";"MALUKU";"";"Indonesia";" 0911352871";"";"";"-3.6702679";"128.1981163";"https://maps.google.com/?cid=0x0:0x2f29bf0afe09144e";""
"mall";"Layanan Pengelolaan Limbah";"Risky cell (wahda)";"MWVW+3GG, Namasina, Kec. Kota Masohi, Kabupaten Maluku Tengah, Maluku";"Kabupaten Maluku Tengah, Maluku";"MALUKU";"";"Indonesia";"";"";"";"-3.3078173";"128.9463829";"https://maps.google.com/?cid=0x0:0x88e9c150c510a09a";""
"mall";"Pasar";"MAPLAZ";"PX24+9QR, Namaelo, Kec. Kota Masohi, Kabupaten Maluku Tengah, Maluku";"Kabupaten Maluku Tengah, Maluku";"MALUKU";"";"Indonesia";"";"";"";"-3.2989464";"128.9563746";"https://maps.google.com/?cid=0x0:0xa26dc17d34fe3196";""
"mall";"Agen Sewa Mobil";"Rental  Travel";"PX25+WXF, Lesane, Kec. Kota Masohi, Kabupaten Maluku Tengah, Maluku";"Kabupaten Maluku Tengah, Maluku";"MALUKU";"";"Indonesia";" 081247537396";"";"";"-3.2976997";"128.9599067";"https://maps.google.com/?cid=0x0:0x6f8aa9029200689e";""
"mall";"Toko Obat-Obatan Herbal";"Agen Fiforlif Maluku";"Letwaru, Kec. Kota Masohi, Kabupaten Maluku Tengah, Maluku 97500";"Kec. Kota Masohi, Kabupaten Maluku Tengah";"MALUKU";"97500";"Indonesia";" 081343482919";"";"";"-3.293835";"128.963118";"https://maps.google.com/?cid=0x0:0x37e73e9bfb023a8b";""
"mall";"Minimarket";"Planet Mart";"PX25+5HG, Jl. Binaya, Namaelo, Kec. Kota Masohi, Kabupaten Maluku Tengah, Maluku";"Kabupaten Maluku Tengah, Maluku";"MALUKU";"";"Indonesia";"";"";"";"-3.2995726";"128.9589677";"https://maps.google.com/?cid=0x0:0x5512bb9edc8557f9";""
"mall";"Toko bahan makanan";"Toko Nanda777";"PX24+67F, Namaelo, Kec. Kota Masohi, Kabupaten Maluku Tengah, Maluku";"Kabupaten Maluku Tengah, Maluku";"MALUKU";"";"Indonesia";" 082110789112";"";"";"-3.2994494";"128.9556826";"https://maps.google.com/?cid=0x0:0xb0da49066e9e1843";""
"mall";"Toko Pakaian";"Loket Nazar";"MXX3+825, Ampera, Kec. Kota Masohi, Kabupaten Maluku Tengah, Maluku";"Kabupaten Maluku Tengah, Maluku";"MALUKU";"";"Indonesia";" 091421742";"";"";"-3.301727";"128.9526187";"https://maps.google.com/?cid=0x0:0xe482aae3adc54d9e";""
"mall";"Toko Pakaian";"Distro Rahma";"MXX4+PX2, Namaelo, Kec. Kota Masohi, Kabupaten Maluku Tengah, Maluku";"Kabupaten Maluku Tengah, Maluku";"MALUKU";"";"Indonesia";"";"";"";"-3.3007488";"128.9574012";"https://maps.google.com/?cid=0x0:0x1c3c10b4d5d390a3";""
"mall";"Komplek perumahan";"Awal penghulu";"MXX6+VGW, Unnamed Road, Lesane, Namaelo, Kec. Kota Masohi, Kabupaten Maluku Tengah, Maluku 97511";"Unnamed Road, Lesane, Namaelo, Kec. Kota Masohi, Kabupaten Maluku Tengah";"MALUKU";"97511";"Indonesia";" 0821986064411";"";"";"-3.300274";"128.9613231";"https://maps.google.com/?cid=0x0:0xf9082bf1aa440b7e";""
"mall";"Toko Roti";"Whietri CAKERY";"PX36+VCH, Lesane, Kec. Kota Masohi, Kabupaten Maluku Tengah, Maluku";"Kabupaten Maluku Tengah, Maluku";"MALUKU";"";"Indonesia";" 081344973642";"";"";"-3.2953209";"128.9611141";"https://maps.google.com/?cid=0x0:0x70c005c2327dca2c";""
"mall";"Toko Pakaian";"Butik kwin FGH";"MXW3+3VQ, Namaelo, Kec. Kota Masohi, Kabupaten Maluku Tengah, Maluku 97511";"Namaelo, Kec. Kota Masohi, Kabupaten Maluku Tengah";"MALUKU";"97511";"Indonesia";"";"";"";"-3.3044943";"128.9543939";"https://maps.google.com/?cid=0x0:0x3871337b58352c6e";""
"mall";"Kantor Perusahaan";"Terminal Masohi";"PX24+997, Namaelo, Kec. Kota Masohi, Kabupaten Maluku Tengah, Maluku 97511";"Namaelo, Kec. Kota Masohi, Kabupaten Maluku Tengah";"MALUKU";"97511";"Indonesia";"";"";"";"-3.299096";"128.9559159";"https://maps.google.com/?cid=0x0:0x4070737e95afc27b";""
"mall";"mall";"Kec. Kota Masohi";"Kabupaten Maluku Tengah, Maluku";"Kabupaten Maluku Tengah, Maluku";"MALUKU";"";"Indonesia";"";"";"";"-3.3000615";"128.9542861";"https://maps.google.com/?cid=0x0:0x22d2194857d48769";""
"mall";"Toko Swalayan";"Matahari Mart";"Jl. Trans Seram, Haruru, Kec. Amahai, Kabupaten Maluku Tengah, Maluku";"Kabupaten Maluku Tengah, Maluku";"MALUKU";"";"Indonesia";" 082198281372";"";"";"-3.2909027";"128.9680723";"https://maps.google.com/?cid=0x0:0x8c6c9d9f38aa725";""
"mall";"Toko Elektronik";"Discovery Computer";"PX24+MCF, Jl. Abdullah Solissa, Ampera, Kec. Kota Masohi, Kabupaten Maluku Tengah, Maluku 97511";"Jl. Abdullah Solissa, Ampera, Kec. Kota Masohi, Kabupaten Maluku Tengah";"MALUKU";"97511";"Indonesia";" 091421703";"";"";"-3.2983166";"128.9560476";"https://maps.google.com/?cid=0x0:0x6be3648bf64ab26c";""
"mall";"Pasar";"Pasar Binaya Masohi";"Namaelo, Kec. Kota Masohi, Kabupaten Maluku Tengah, Maluku 97511";"Kec. Kota Masohi, Kabupaten Maluku Tengah";"MALUKU";"97511";"Indonesia";" 081343304423";"";"";"-3.2990378";"128.9562757";"https://maps.google.com/?cid=0x0:0xa5e95d9b0c5f0eff";""
"mall";"Pusat Perbelanjaan";"Toko Bangunan ACIM BARU";"Namaelo, Kec. Kota Masohi, Kabupaten Maluku Tengah, Maluku";"Kabupaten Maluku Tengah, Maluku";"MALUKU";"";"Indonesia";" 082399119777";"";"";"-3.299574";"128.9570793";"https://maps.google.com/?cid=0x0:0xe6f69ec76d2fd7b0";""
"mall";"Used store fixture supplier";"Depar Collection";"MXX9+87W, Letwaru, Kec. Kota Masohi, Kabupaten Maluku Tengah, Maluku";"Kabupaten Maluku Tengah, Maluku";"MALUKU";"";"Indonesia";" 082398632243";"";"";"-3.3016325";"128.9682108";"https://maps.google.com/?cid=0x0:0xbd4f996e5f6dc6ec";""
"mall";"Toko";"Toko setia baru";"Namaelo, Kec. Kota Masohi, Kabupaten Maluku Tengah, Maluku";"Kabupaten Maluku Tengah, Maluku";"MALUKU";"";"Indonesia";" 082248360600";"";"";"-3.3009258";"128.9540058";"https://maps.google.com/?cid=0x0:0x15cfe5f3146bb43d";""
"mall";"Minimarket";"Planet Mart";"PX25+5HG, Jl. Binaya, Namaelo, Kec. Kota Masohi, Kabupaten Maluku Tengah, Maluku";"Kabupaten Maluku Tengah, Maluku";"MALUKU";"";"Indonesia";"";"";"";"-3.2995726";"128.9589677";"https://maps.google.com/?cid=0x0:0x5512bb9edc8557f9";""
"mall";"Agen Sewa Mobil";"Rental  Travel";"PX25+WXF, Lesane, Kec. Kota Masohi, Kabupaten Maluku Tengah, Maluku";"Kabupaten Maluku Tengah, Maluku";"MALUKU";"";"Indonesia";" 081247537396";"";"";"-3.2976997";"128.9599067";"https://maps.google.com/?cid=0x0:0x6f8aa9029200689e";""
"mall";"Toko Mebel";"DEPOT JIHAN";"MXV7+2M4, Namaelo, Kec. Kota Masohi, Kabupaten Maluku Tengah, Maluku 97511";"Namaelo, Kec. Kota Masohi, Kabupaten Maluku Tengah";"MALUKU";"97511";"Indonesia";" 082198336714";"";"";"-3.3074904";"128.9642106";"https://maps.google.com/?cid=0x0:0x5fe0673a350a87c8";""
"mall";"Pasar";"MAPLAZ";"PX24+9QR, Namaelo, Kec. Kota Masohi, Kabupaten Maluku Tengah, Maluku";"Kabupaten Maluku Tengah, Maluku";"MALUKU";"";"Indonesia";"";"";"";"-3.2989464";"128.9563746";"https://maps.google.com/?cid=0x0:0xa26dc17d34fe3196";""
"mall";"Toko Obat-Obatan Herbal";"Agen Fiforlif Maluku";"Letwaru, Kec. Kota Masohi, Kabupaten Maluku Tengah, Maluku 97500";"Kec. Kota Masohi, Kabupaten Maluku Tengah";"MALUKU";"97500";"Indonesia";" 081343482919";"";"";"-3.293835";"128.963118";"https://maps.google.com/?cid=0x0:0x37e73e9bfb023a8b";""
"mall";"Layanan Pengelolaan Limbah";"Risky cell (wahda)";"MWVW+3GG, Namasina, Kec. Kota Masohi, Kabupaten Maluku Tengah, Maluku";"Kabupaten Maluku Tengah, Maluku";"MALUKU";"";"Indonesia";"";"";"";"-3.3078173";"128.9463829";"https://maps.google.com/?cid=0x0:0x88e9c150c510a09a";""
"mall";"Komplek perumahan";"Awal penghulu";"MXX6+VGW, Unnamed Road, Lesane, Namaelo, Kec. Kota Masohi, Kabupaten Maluku Tengah, Maluku 97511";"Unnamed Road, Lesane, Namaelo, Kec. Kota Masohi, Kabupaten Maluku Tengah";"MALUKU";"97511";"Indonesia";" 0821986064411";"";"";"-3.300274";"128.9613231";"https://maps.google.com/?cid=0x0:0xf9082bf1aa440b7e";""
"mall";"Toko bahan makanan";"Toko Nanda777";"PX24+67F, Namaelo, Kec. Kota Masohi, Kabupaten Maluku Tengah, Maluku";"Kabupaten Maluku Tengah, Maluku";"MALUKU";"";"Indonesia";" 082110789112";"";"";"-3.2994494";"128.9556826";"https://maps.google.com/?cid=0x0:0xb0da49066e9e1843";""
"mall";"Toko Pakaian";"Loket Nazar";"MXX3+825, Ampera, Kec. Kota Masohi, Kabupaten Maluku Tengah, Maluku";"Kabupaten Maluku Tengah, Maluku";"MALUKU";"";"Indonesia";" 091421742";"";"";"-3.301727";"128.9526187";"https://maps.google.com/?cid=0x0:0xe482aae3adc54d9e";""
"mall";"Toko Perlengkapan Rumah";"MY HOME MASOHI";"MXX3+22V, Namaelo, Kec. Kota Masohi, Kabupaten Maluku Tengah, Maluku 97511";"Namaelo, Kec. Kota Masohi, Kabupaten Maluku Tengah";"MALUKU";"97511";"Indonesia";" 081248735116";"";"";"-3.302386";"128.9525454";"https://maps.google.com/?cid=0x0:0xeada06bd0e603532";""
"mall";"Toko Pakaian";"Distro Rahma";"MXX4+PX2, Namaelo, Kec. Kota Masohi, Kabupaten Maluku Tengah, Maluku";"Kabupaten Maluku Tengah, Maluku";"MALUKU";"";"Indonesia";"";"";"";"-3.3007488";"128.9574012";"https://maps.google.com/?cid=0x0:0x1c3c10b4d5d390a3";""
"mall";"Pusat Perbelanjaan";"Maluku City Mall (MCM)";"Jl. Jenderal Sudirman No.1, Hative Kecil, Kec. Sirimau, Kota Ambon, Maluku";"Kota Ambon, Maluku";"MALUKU";"";"Indonesia";" 0911352871";"";"";"-3.6702679";"128.1981163";"https://maps.google.com/?cid=0x0:0x2f29bf0afe09144e";""
"mall";"Kantor Perusahaan";"Terminal Masohi";"PX24+997, Namaelo, Kec. Kota Masohi, Kabupaten Maluku Tengah, Maluku 97511";"Namaelo, Kec. Kota Masohi, Kabupaten Maluku Tengah";"MALUKU";"97511";"Indonesia";"";"";"";"-3.299096";"128.9559159";"https://maps.google.com/?cid=0x0:0x4070737e95afc27b";""
"mall";"Pembangunan Perumahan";"Masohi";"PX26+C67, Lesane, Kec. Kota Masohi, Kabupaten Maluku Tengah, Maluku";"Kabupaten Maluku Tengah, Maluku";"MALUKU";"";"Indonesia";"";"";"";"-3.2989635";"128.960532";"https://maps.google.com/?cid=0x0:0x1615b493297306e7";""
"mall";"mall";"Maluku";"";"Maluku";"MALUKU";"";"Indonesia";"";"";"";"-3.2384616";"130.1452734";"https://maps.google.com/?cid=0x0:0x5e30e8db04649a51";""
"mall";"Pusat Perbelanjaan";"Maluku City Mall (MCM)";"Jl. Jenderal Sudirman No.1, Hative Kecil, Kec. Sirimau, Kota Ambon, Maluku";"Kota Ambon, Maluku";"MALUKU";"";"Indonesia";" 0911352871";"";"";"-3.6702679";"128.1981163";"https://maps.google.com/?cid=0x0:0x2f29bf0afe09144e";""
"mall";"Pusat Perbelanjaan";"Gramedia Maluku City Mall";"Jalan Jenderal Sudirman. 1 Tantui Ambon UP Floor Blok UG No. 2, Jl. Jenderal Sudirman, Hative Kecil, Kec. Sirimau, Kota Ambon, Maluku 97128";"Jl. Jenderal Sudirman, Hative Kecil, Kec. Sirimau, Kota Ambon";"MALUKU";"97128";"Indonesia";" 081248557414";"";"";"-3.6703427";"128.1983406";"https://maps.google.com/?cid=0x0:0xe751f5e37fa0f5c3";""
"mall";"Pusat Perbelanjaan";"Saltar";"GGV7+H72, Jl. Trans Seram, Tihulale, Kec. Amalatu, Kabupaten Seram Bagian Barat, Maluku";"Kabupaten Seram Bagian Barat, Maluku";"MALUKU";"";"Indonesia";" 082198404648";"";"";"-3.4561105";"128.5131281";"https://maps.google.com/?cid=0x0:0x444c5c06613e24c9";""
"mall";"Pusat Perbelanjaan";"Toko Datuk Center";"Jl. Trans Seram No.14, Kamal, Kec. Kairatu Bar., Kabupaten Seram Bagian Barat, Maluku";"Kabupaten Seram Bagian Barat, Maluku";"MALUKU";"";"Indonesia";" 082222205041";"";"";"-3.212288";"128.278925";"https://maps.google.com/?cid=0x0:0xaf7f9c8a1531922";""
"mall";"Toko umum";"Kios ILDA";"Negeri Kawa, Kec. Seram Bar., Kabupaten Seram Bagian Barat, Maluku";"Kabupaten Seram Bagian Barat, Maluku";"MALUKU";"";"Indonesia";"";"";"";"-2.9580756";"128.1243274";"https://maps.google.com/?cid=0x0:0x17521554bf21fa65";""
"mall";"Kantor Perusahaan";"PT DUTA BHAKTI";"JL Dr setia Budhi No.37, Hative Kecil, Sirimau, Kota Ambon, Maluku 97127";"Hative Kecil, Sirimau, Kota Ambon";"MALUKU";"97127";"Indonesia";" 0911352871";"";"";"-3.66924";"128.197166";"https://maps.google.com/?cid=0x0:0xac3f2e3739b7d72f";""
"mall";"Toko bahan makanan";"Kios mm anawati";"52P5+77J, Gale-Gale, Kec. Seram Utara Bar., Kabupaten Maluku Tengah, Maluku";"Kabupaten Maluku Tengah, Maluku";"MALUKU";"";"Indonesia";"";"";"";"-2.8142789";"129.0081523";"https://maps.google.com/?cid=0x0:0x9f003dc34995695c";""
"mall";"Toko";"Kios gege";"43CC+RFV, Jl. Kabupaten, Wailulu, Kec. Seram Utara Bar., Kabupaten Maluku Tengah, Maluku";"Kabupaten Maluku Tengah, Maluku";"MALUKU";"";"Indonesia";"";"";"";"-2.8778935";"129.071161";"https://maps.google.com/?cid=0x0:0xe8421e9ab088ce4d";""
"mall";"mall";"Kec. Tlk. Elpaputih";"Kabupaten Maluku Tengah, Maluku";"Kabupaten Maluku Tengah, Maluku";"MALUKU";"";"Indonesia";"";"";"";"-3.2207692";"128.8534865";"https://maps.google.com/?cid=0x0:0xb2d65ac40b141752";""
"mall";"Toko Swalayan";"Matahari Mart";"Jl. Trans Seram, Haruru, Kec. Amahai, Kabupaten Maluku Tengah, Maluku";"Kabupaten Maluku Tengah, Maluku";"MALUKU";"";"Indonesia";" 082198281372";"";"";"-3.2909027";"128.9680723";"https://maps.google.com/?cid=0x0:0x8c6c9d9f38aa725";""
"mall";"Pusat Perbelanjaan";"Maluku City Mall (MCM)";"Jl. Jenderal Sudirman No.1, Hative Kecil, Kec. Sirimau, Kota Ambon, Maluku";"Kota Ambon, Maluku";"MALUKU";"";"Indonesia";" 0911352871";"";"";"-3.6702679";"128.1981163";"https://maps.google.com/?cid=0x0:0x2f29bf0afe09144e";""
"mall";"Komplek perumahan";"KIOS KRISYE";"Q2PF+R4V, Sifluru, Kec. Teon Nila Serua, Kabupaten Maluku Tengah, Maluku";"Kabupaten Maluku Tengah, Maluku";"MALUKU";"";"Indonesia";"";"";"";"-3.2124482";"129.0228055";"https://maps.google.com/?cid=0x0:0x543dd837df3b24ca";""
"mall";"mall";"Usliapan";"Kec. Teon Nila Serua, Kabupaten Maluku Tengah, Maluku";"Kabupaten Maluku Tengah, Maluku";"MALUKU";"";"Indonesia";"";"";"";"-3.2076916";"128.9746328";"https://maps.google.com/?cid=0x0:0x3fcfca78b0f2811f";""
"mall";"Toko Elektronik";"AM PRINT UPDATE";"PX9F+92J, Jl. Propinsi, Haruru, Kec. Amahai, Kabupaten Maluku Tengah, Maluku";"Kabupaten Maluku Tengah, Maluku";"MALUKU";"";"Indonesia";" 082199212585";"";"";"-3.2815257";"128.9725168";"https://maps.google.com/?cid=0x0:0x9696647bda961b6";""
"mall";"Toko Obat-Obatan Herbal";"Agen Fiforlif Maluku";"Letwaru, Kec. Kota Masohi, Kabupaten Maluku Tengah, Maluku 97500";"Kec. Kota Masohi, Kabupaten Maluku Tengah";"MALUKU";"97500";"Indonesia";" 081343482919";"";"";"-3.293835";"128.963118";"https://maps.google.com/?cid=0x0:0x37e73e9bfb023a8b";""
"mall";"mall";"Mm Syg";"QXQH+QXM, Usliapan, Kec. Teon Nila Serua, Kabupaten Maluku Tengah, Maluku";"Kabupaten Maluku Tengah, Maluku";"MALUKU";"";"Indonesia";"";"";"";"-3.210535";"128.9799367";"https://maps.google.com/?cid=0x0:0x3fea990beb760bde";""
"mall";"mall";"KIOS JADE";"Q2P2+422, Unnamed Road, Mesa, Kec. Teon Nila Serua, Kabupaten Maluku Tengah, Maluku";"Kabupaten Maluku Tengah, Maluku";"MALUKU";"";"Indonesia";"";"";"";"-3.2147291";"129.0000043";"https://maps.google.com/?cid=0x0:0xec292b2c86111c08";""
"mall";"mall";"Rajawali Kios";"Q2RC+386, Jl. Trans Seram, Sifluru, Waipia, Kabupaten Maluku Tengah, Maluku";"Kabupaten Maluku Tengah, Maluku";"MALUKU";"";"Indonesia";"";"";"";"-3.2098472";"129.0207613";"https://maps.google.com/?cid=0x0:0x2bbd1a4642e2576b";""
"mall";"Pusat Perbelanjaan";"Ambon City Center (ACC)";"Jl. Wolter Monginsidi, Passo, Kec. Baguala, Kota Ambon, Maluku 97232";"Passo, Kec. Baguala, Kota Ambon";"MALUKU";"97232";"Indonesia";" 09113869522";"";"";"-3.6320889";"128.2495582";"https://maps.google.com/?cid=0x0:0x91b8ed9da337adeb";""
"mall";"Jepang";"Ichiban Sushi - Maluku City Mall";"Jl. Jenderal Sudirman No.1, Lantai No.9 UG Blok G, No 8A, Hative Kecil, Sirimau, Kota Ambon, Maluku";"Kota Ambon, Maluku";"MALUKU";"";"Indonesia";" 0895357270204";"";"";"-3.6699578";"128.198051";"https://maps.google.com/?cid=0x0:0xf2c6c9f7bce048b8";""
"mall";"mall";"Kec. Leihitu Bar.";"Kabupaten Maluku Tengah, Maluku";"Kabupaten Maluku Tengah, Maluku";"MALUKU";"";"Indonesia";"";"";"";"-3.7450972";"127.9996401";"https://maps.google.com/?cid=0x0:0x99f9b56e99c233dc";""
"mall";"Pusat Perbelanjaan";"Maluku City Mall (MCM)";"Jl. Jenderal Sudirman No.1, Hative Kecil, Kec. Sirimau, Kota Ambon, Maluku";"Kota Ambon, Maluku";"MALUKU";"";"Indonesia";" 0911352871";"";"";"-3.6702679";"128.1981163";"https://maps.google.com/?cid=0x0:0x2f29bf0afe09144e";""
"mall";"Perhimpunan Pengembang Perumahan";"LORONG ANSGER";"73H8+G34, Hatu, Kec. Leihitu Bar., Kabupaten Maluku Tengah, Maluku";"Kabupaten Maluku Tengah, Maluku";"MALUKU";"";"Indonesia";"";"";"";"-3.721245";"128.0651992";"https://maps.google.com/?cid=0x0:0xadaf9535a9b3a4d8";""
"mall";"Pusat Perbelanjaan";"Toko Lia";"6XCX+RWG, Allang, acamami, Kabupaten Maluku Tengah, Maluku";"Kabupaten Maluku Tengah, Maluku";"MALUKU";"";"Indonesia";" 082398953672";"";"";"-3.7779392";"127.9998168";"https://maps.google.com/?cid=0x0:0xc73d4222c3ba0504";""
"mall";"Pusat Perbelanjaan";"Gramedia Maluku City Mall";"Jalan Jenderal Sudirman. 1 Tantui Ambon UP Floor Blok UG No. 2, Jl. Jenderal Sudirman, Hative Kecil, Kec. Sirimau, Kota Ambon, Maluku 97128";"Jl. Jenderal Sudirman, Hative Kecil, Kec. Sirimau, Kota Ambon";"MALUKU";"97128";"Indonesia";" 081248557414";"";"";"-3.6703427";"128.1983406";"https://maps.google.com/?cid=0x0:0xe751f5e37fa0f5c3";""
"mall";"Pusat Perbelanjaan";"Kios Sul Assililu";"8WCJ+JMJ, Asilulu, Kec. Leihitu, Kabupaten Maluku Tengah, Maluku";"Kabupaten Maluku Tengah, Maluku";"MALUKU";"";"Indonesia";" 081343457241";"";"";"-3.6784106";"127.9316543";"https://maps.google.com/?cid=0x0:0xe7177c1b088e8f32";""
"mall";"Toko";"Toko Nur Hasmi";"Jln. Batu, Asilulu, Kec. Leihitu, Kabupaten Maluku Tengah, Maluku 97580";"Asilulu, Kec. Leihitu, Kabupaten Maluku Tengah";"MALUKU";"97580";"Indonesia";" 081354129099";"";"";"-3.6805794";"127.9333601";"https://maps.google.com/?cid=0x0:0x2e769c4b7fa06a52";""
"mall";"Toko";"TOKO AMANANG";"Hila, Kec. Leihitu, Kabupaten Maluku Tengah, Maluku";"Kabupaten Maluku Tengah, Maluku";"MALUKU";"";"Indonesia";"";"";"";"-3.5887263";"128.096557";"https://maps.google.com/?cid=0x0:0x97018ca0e9d5dd0d";""
"mall";"Pusat Perbelanjaan";"Kios AFIRA";"Asilulu, Kec. Leihitu, Kabupaten Maluku Tengah, Maluku";"Kabupaten Maluku Tengah, Maluku";"MALUKU";"";"Indonesia";" 085211418799";"";"";"-3.6771927";"127.9350059";"https://maps.google.com/?cid=0x0:0x5bcd28170d0318a4";""
"mall";"Pusat Perbelanjaan";"TOKO RIANTY W";"C36X+X9R, Hila, Kec. Leihitu, Kabupaten Maluku Tengah, Maluku";"Kabupaten Maluku Tengah, Maluku";"MALUKU";"";"Indonesia";" 085283967462";"";"";"-3.5873936";"128.0985813";"https://maps.google.com/?cid=0x0:0xadad4722677807af";""
"mall";"Pusat Perbelanjaan";"Grand Indonesia Shopping Town";"Jl. M.H. Thamrin No.1, Menteng, Kec. Menteng, Kota Jakarta Pusat, Daerah Khusus Ibukota Jakarta 10310";"Menteng, Kec. Menteng, Kota Jakarta Pusat";"MALUKU";"10310";"Indonesia";" 02123580001";"";"";"-6.1965848";"106.8224882";"https://maps.google.com/?cid=0x0:0xccfcc89b95aaf1ae";""
"mall";"Toko";"Kios Fitry";"C352+XM6, Dusun kalauly, Kaitetu, Kec. Leihitu, Kabupaten Maluku Tengah, Maluku";"Kabupaten Maluku Tengah, Maluku";"MALUKU";"";"Indonesia";"";"";"";"-3.5900839";"128.0516547";"https://maps.google.com/?cid=0x0:0x124672a145112c1b";""
"mall";"Percetakan Komersial";"Toko Meyke";"635W+CGR, Jl. Amanlanite, Latuhalat, Kec. Nusaniwe, Kota Ambon, Maluku";"Kota Ambon, Maluku";"MALUKU";"";"Indonesia";" 085244756012";"";"";"-3.7913857";"128.0962648";"https://maps.google.com/?cid=0x0:0xcfdc9ed65ddd7c89";""
"mall";"Toko";"Indriyani shop";"C53F+FJG, Unnamed Road, Hitu Mesing, Kec. Leihitu, Kabupaten Maluku Tengah, Maluku";"Kabupaten Maluku Tengah, Maluku";"MALUKU";"";"Indonesia";" 082198420545";"";"";"-3.5963152";"128.1740835";"https://maps.google.com/?cid=0x0:0xd20b824dff7e6cdd";""
"mall";"Kantor Perusahaan";"PT DUTA BHAKTI";"JL Dr setia Budhi No.37, Hative Kecil, Sirimau, Kota Ambon, Maluku 97127";"Hative Kecil, Sirimau, Kota Ambon";"MALUKU";"97127";"Indonesia";" 0911352871";"";"";"-3.66924";"128.197166";"https://maps.google.com/?cid=0x0:0xac3f2e3739b7d72f";""
"mall";"Toko umum";"Rumah Sandra";"8XV6+WHW, Negeri Lima, dusun waimuli, Kabupaten Maluku Tengah, Maluku";"Kabupaten Maluku Tengah, Maluku";"MALUKU";"";"Indonesia";"";"";"";"-3.6551391";"127.9614669";"https://maps.google.com/?cid=0x0:0xe7b3100c908a8f0b";""
"mall";"Pusat Perbelanjaan";"Pondok Indah Mall 1";"Jl. Metro Pondok Indah No.Kav. 4, RT.1/RW.16, Pd. Pinang, Kec. Kby. Lama, Kota Jakarta Selatan, Daerah Khusus Ibukota Jakarta 12310";"RT.1/RW.16, Pd. Pinang, Kec. Kby. Lama, Kota Jakarta Selatan";"MALUKU";"12310";"Indonesia";" 0217506750";"";"";"-6.2652166";"106.7843165";"https://maps.google.com/?cid=0x0:0x682837113c4ea854";""
"mall";"Toko";"Kios Rizal";"C36X+G65, Jl. Propinsi, Hila, Kec. Leihitu, Kabupaten Maluku Tengah, Maluku";"Kabupaten Maluku Tengah, Maluku";"MALUKU";"";"Indonesia";" 082199488922";"";"";"-3.5887472";"128.0981132";"https://maps.google.com/?cid=0x0:0xf11fa75dad73fc16";""
"mall";"Polisi Sipil";"Polsek Leihitu Barat";"6XFC+5H5, Wakasihu, Kec. Leihitu Bar., Kabupaten Maluku Tengah, Maluku";"Kabupaten Maluku Tengah, Maluku";"MALUKU";"";"Indonesia";" 091134711";"";"";"-3.7771215";"127.971475";"https://maps.google.com/?cid=0x0:0xf1b3ca46fc254865";""
"mall";"Pusat Perbelanjaan";"Ambon Plaza";"Kel Honipopu, Kec. Sirimau, Kota Ambon, Maluku";"Kota Ambon, Maluku";"MALUKU";"";"Indonesia";"";"";"";"-3.6936069";"128.1798425";"https://maps.google.com/?cid=0x0:0x11baeb2193b2344c";""
"mall";"mall";"Kec. Telutih";"Kabupaten Maluku Tengah, Maluku";"Kabupaten Maluku Tengah, Maluku";"MALUKU";"";"Indonesia";"";"";"";"-3.3265855";"129.7841976";"https://maps.google.com/?cid=0x0:0x43575c604a0bf9a4";""
"mall";"Toko";"Kios Ari";"MQFP+GV4 PLTD, Laimu, Kec. Telutih, Kabupaten Maluku Tengah, Maluku";"Kabupaten Maluku Tengah, Maluku";"MALUKU";"";"Indonesia";"";"";"";"-3.3262484";"129.7872009";"https://maps.google.com/?cid=0x0:0x66128a8fea44f2ec";""
"mall";"Pusat Perbelanjaan";"Mall Of Indonesia";"Jl. Boulevard Bar. Raya No.12, RT.18/RW.19, Klp. Gading Bar., Kec. Klp. Gading, Jkt Utara, Daerah Khusus Ibukota Jakarta 14240";"RT.18/RW.19, Klp. Gading Bar., Kec. Klp. Gading, Jkt Utara";"MALUKU";"14240";"Indonesia";" 02145867888";"";"";"-6.1514549";"106.8918949";"https://maps.google.com/?cid=0x0:0x3431c7aaadd1f1b6";""
"mall";"Pusat Perbelanjaan";"Jatiland Mall";"Jl. Pahlawan Revolusi, Gamalama, Kec. Ternate Tengah, Kota Ternate, Maluku Utara";"Kota Ternate, Maluku Utara";"MALUKU";"";"Indonesia";"";"";"";"0.7913034";"127.3904651";"https://maps.google.com/?cid=0x0:0xc88fc50abd8f2993";""
"mall";"Pusat Perbelanjaan";"Grand Indonesia Shopping Town";"Jl. M.H. Thamrin No.1, Menteng, Kec. Menteng, Kota Jakarta Pusat, Daerah Khusus Ibukota Jakarta 10310";"Menteng, Kec. Menteng, Kota Jakarta Pusat";"MALUKU";"10310";"Indonesia";" 02123580001";"";"";"-6.1965848";"106.8224882";"https://maps.google.com/?cid=0x0:0xccfcc89b95aaf1ae";""
"mall";"Pembangunan Perumahan";"SD Negeri Tehua";"MPM3+2CF, Tehua, Kec. Telutih, Kabupaten Maluku Tengah, Maluku";"Kabupaten Maluku Tengah, Maluku";"MALUKU";"";"Indonesia";" 081248222145";"";"";"-3.3174349";"129.7035559";"https://maps.google.com/?cid=0x0:0xa479324a1271abcb";""
"mall";"Toko Swalayan";"Toko Usaha Baru";"Atiahu, Werinama, Kabupaten Seram Bagian Timur, Maluku";"Kabupaten Seram Bagian Timur, Maluku";"MALUKU";"";"Indonesia";" 081343235656";"";"";"-3.3649354";"129.963071";"https://maps.google.com/?cid=0x0:0xfce1f9a32991b08d";""
"mall";"Sekolah Dasar";"SD Negeri 47 Maluku Tengah";"MJQG+97G, Teluti Baru, Kec. Tehoru, Kabupaten Maluku Tengah, Maluku";"Kabupaten Maluku Tengah, Maluku";"MALUKU";"";"Indonesia";"";"";"";"-3.311552";"129.6257178";"https://maps.google.com/?cid=0x0:0xac210f04af92f827";""
"mall";"Minimarket";"Rumah wanter";"MQQ8+74J, Laimu, Kec. Telutih, Kabupaten Maluku Tengah, Maluku";"Kabupaten Maluku Tengah, Maluku";"MALUKU";"";"Indonesia";"";"";"";"-3.3117983";"129.765255";"https://maps.google.com/?cid=0x0:0x58079460736ee8a4";""
"mall";"Perhimpunan Pengembang Perumahan";"TULEHU PLAZA";"C85R+M2Q, Tulehu, Kec. Salahutu, Kabupaten Maluku Tengah, Maluku";"Kabupaten Maluku Tengah, Maluku";"MALUKU";"";"Indonesia";"";"";"";"-3.5907937";"128.3400958";"https://maps.google.com/?cid=0x0:0x5ccf2248b7bc99f8";""
"mall";"Pusat Perbelanjaan";"Maluku City Mall (MCM)";"Jl. Jenderal Sudirman No.1, Hative Kecil, Kec. Sirimau, Kota Ambon, Maluku";"Kota Ambon, Maluku";"MALUKU";"";"Indonesia";" 0911352871";"";"";"-3.6702679";"128.1981163";"https://maps.google.com/?cid=0x0:0x2f29bf0afe09144e";""
"mall";"Toko";"Toko Elvita";"XWVM+C7G, Jl. Lintas Seram, Kobisonta, Kec. Seram Utara Tim. Seti, Kabupaten Maluku Tengah, Maluku";"Kabupaten Maluku Tengah, Maluku";"MALUKU";"";"Indonesia";"";"";"";"-3.0064322";"129.9332019";"https://maps.google.com/?cid=0x0:0xda44ca59a8d408b0";""
"mall";"Toko";"Toko Maya Usaha";"Tehoru, Kec. Tehoru, Kabupaten Maluku Tengah, Maluku";"Kabupaten Maluku Tengah, Maluku";"MALUKU";"";"Indonesia";"";"";"";"-3.3782683";"129.5418945";"https://maps.google.com/?cid=0x0:0x9fdf06274ce70aaa";""
"mall";"Pusat Perbelanjaan";"Gramedia Maluku City Mall";"Jalan Jenderal Sudirman. 1 Tantui Ambon UP Floor Blok UG No. 2, Jl. Jenderal Sudirman, Hative Kecil, Kec. Sirimau, Kota Ambon, Maluku 97128";"Jl. Jenderal Sudirman, Hative Kecil, Kec. Sirimau, Kota Ambon";"MALUKU";"97128";"Indonesia";" 081248557414";"";"";"-3.6703427";"128.1983406";"https://maps.google.com/?cid=0x0:0xe751f5e37fa0f5c3";""
"mall";"mall";"Kec. Seram Utara Tim. Seti";"Kabupaten Maluku Tengah, Maluku";"Kabupaten Maluku Tengah, Maluku";"MALUKU";"";"Indonesia";"";"";"";"-2.9914278";"129.9266389";"https://maps.google.com/?cid=0x0:0xf1f031938308f20f";""
"mall";"Toko";"Toko Elvita";"XWVM+C7G, Jl. Lintas Seram, Kobisonta, Kec. Seram Utara Tim. Seti, Kabupaten Maluku Tengah, Maluku";"Kabupaten Maluku Tengah, Maluku";"MALUKU";"";"Indonesia";"";"";"";"-3.0064322";"129.9332019";"https://maps.google.com/?cid=0x0:0xda44ca59a8d408b0";""
"mall";"Toko";"Toko Wilian Jaya Dua";"XWPM+4QQ, Jl. Lintas Seram, Wailoping, Kec. Seram Utara Tim. Seti, Kabupaten Maluku Tengah, Maluku";"Kabupaten Maluku Tengah, Maluku";"MALUKU";"";"Indonesia";"";"";"";"-3.0146689";"129.9344752";"https://maps.google.com/?cid=0x0:0x7c1fe7fd073a388b";""
"mall";"Toserba";"Toko samy - kobisonta";"2W2M+23F, Unnamed Road, Kobisonta, Kec. Seram Utara Tim. Seti, Kabupaten Maluku Tengah, Maluku";"Kabupaten Maluku Tengah, Maluku";"MALUKU";"";"Indonesia";"";"";"";"-2.9999367";"129.9326671";"https://maps.google.com/?cid=0x0:0xac825637710b59cc";""
"mall";"Toko Swalayan";"Warung Bu Soleh";"2W4H+FG2, Kobisonta, Kec. Seram Utara Tim. Seti, Kabupaten Maluku Tengah, Maluku";"Kabupaten Maluku Tengah, Maluku";"MALUKU";"";"Indonesia";" 082213803462";"";"";"-2.9938704";"129.9287805";"https://maps.google.com/?cid=0x0:0x193eba60e0ba29a0";""
"mall";"Toserba";"Toko sinar abadi";"2W3M+23X, Unnamed Road, Kobisonta, Kec. Seram Utara Tim. Seti, Kabupaten Maluku Tengah, Maluku";"Kabupaten Maluku Tengah, Maluku";"MALUKU";"";"Indonesia";" 081240355613";"";"";"-2.9973891";"129.9327251";"https://maps.google.com/?cid=0x0:0x9e51133fcc3dfbfc";""
"mall";"Toko";"Kios";"X43W+H4J, Waimatakabu, Bula, Kabupaten Seram Bagian Timur, Maluku";"Kabupaten Seram Bagian Timur, Maluku";"MALUKU";"";"Indonesia";" 081248812201";"";"";"-3.0460434";"130.1452768";"https://maps.google.com/?cid=0x0:0xe5608da97d7c81e6";""
"mall";"Pusat Perbelanjaan";"Toko Wiliam Jaya";"X539+F4M, jalan lintas seram, Benggoi, Kec. Bula Barat, Kabupaten Seram Bagian Timur, Maluku";"Kabupaten Seram Bagian Timur, Maluku";"MALUKU";"";"Indonesia";"";"";"";"-3.04628";"130.1677978";"https://maps.google.com/?cid=0x0:0x217df7aec4769d63";""
"mall";"Toko umum";"Pak Tani 13";"2VX4+MJV, Samal, Kec. Seram Utara Tim. Kobi, Kabupaten Maluku Tengah, Maluku";"Kabupaten Maluku Tengah, Maluku";"MALUKU";"";"Indonesia";" 085391017692";"";"";"-2.9507505";"129.8565374";"https://maps.google.com/?cid=0x0:0xa7723887b04cae36";""
"mall";"mall";"Toko Rusli";"2W2M+235, Kobisonta, Kec. Seram Utara Tim. Seti, Kabupaten Maluku Tengah, Maluku";"Kabupaten Maluku Tengah, Maluku";"MALUKU";"";"Indonesia";" 082239046923";"";"";"-2.9999708";"129.9327645";"https://maps.google.com/?cid=0x0:0xec270b8a0eaf330a";""
"mall";"mall";"warung Mba Tum";"2W5F+QJH, a1, Kobisonta, Kec. Seram Utara Tim. Seti, Kabupaten Maluku Tengah, Maluku";"Kabupaten Maluku Tengah, Maluku";"MALUKU";"";"Indonesia";"";"";"";"-2.9905536";"129.9241233";"https://maps.google.com/?cid=0x0:0x947bc2fcc63e9bcf";""
"mall";"mall";"Kec. Seram Utara Tim. Kobi";"Kabupaten Maluku Tengah, Maluku";"Kabupaten Maluku Tengah, Maluku";"MALUKU";"";"Indonesia";"";"";"";"-2.9958071";"129.8345109";"https://maps.google.com/?cid=0x0:0x7d5c902227229a42";""
"mall";"Toko";"Indah Store";"2V8J+CQ, Waitonipa, Kec. Seram Utara Tim. Kobi, Kabupaten Maluku Tengah, Maluku";"Kabupaten Maluku Tengah, Maluku";"MALUKU";"";"Indonesia";"";"";"";"-2.9845562";"129.8803024";"https://maps.google.com/?cid=0x0:0xc7bbdbd588786cd6";""
"mall";"Pembangunan Perumahan";"Seram Utara Timur Kobi";"XQ7G+R63, Maneo Rendah, Kec. Seram Utara Tim. Kobi, Kabupaten Maluku Tengah, Maluku";"Kabupaten Maluku Tengah, Maluku";"MALUKU";"";"Indonesia";"";"";"";"-3.0354877";"129.7755571";"https://maps.google.com/?cid=0x0:0x2d80c0151e375331";""
"mall";"Toko";"Pusat perbelanjaan";"2VV7+467, Samal, Kec. Seram Utara Tim. Kobi, Kabupaten Maluku Tengah, Maluku";"Kabupaten Maluku Tengah, Maluku";"MALUKU";"";"Indonesia";"";"";"";"-2.9572064";"129.8630553";"https://maps.google.com/?cid=0x0:0xa713457045ae8d40";""
"mall";"Toko Swalayan";"Kios mbak ELLA ASHTER";"Jl. Pendidikan No.RT 09, Kobi Mukti, Kec. Seram Utara Tim. Kobi, Kabupaten Maluku Tengah, Maluku";"Kabupaten Maluku Tengah, Maluku";"MALUKU";"";"Indonesia";"";"";"";"-2.9228011";"129.7954391";"https://maps.google.com/?cid=0x0:0x91a707638f55fd89";""
"mall";"Toko umum";"Pak Tani 13";"2VX4+MJV, Samal, Kec. Seram Utara Tim. Kobi, Kabupaten Maluku Tengah, Maluku";"Kabupaten Maluku Tengah, Maluku";"MALUKU";"";"Indonesia";" 085391017692";"";"";"-2.9507505";"129.8565374";"https://maps.google.com/?cid=0x0:0xa7723887b04cae36";""
"mall";"Pusat Perbelanjaan";"Maluku City Mall (MCM)";"Jl. Jenderal Sudirman No.1, Hative Kecil, Kec. Sirimau, Kota Ambon, Maluku";"Kota Ambon, Maluku";"MALUKU";"";"Indonesia";" 0911352871";"";"";"-3.6702679";"128.1981163";"https://maps.google.com/?cid=0x0:0x2f29bf0afe09144e";""
"mall";"Pembangunan Perumahan";"Kobi";"3QFW+JG4, Negeri, Kobi, Kec. Seram Utara Tim. Kobi, Kabupaten Maluku Tengah, Maluku";"Kabupaten Maluku Tengah, Maluku";"MALUKU";"";"Indonesia";"";"";"";"-2.9259942";"129.796324";"https://maps.google.com/?cid=0x0:0x53d39dbb26692112";""
"mall";"Pembangunan Perumahan";"Desa Kobi Mukti";"3QCR+WW8, Jl. Pendidikan, Kobi Mukti, Kec. Seram Utara Tim. Kobi, Kabupaten Maluku Tengah, Maluku";"Kabupaten Maluku Tengah, Maluku";"MALUKU";"";"Indonesia";"";"";"";"-2.9277075";"129.7923347";"https://maps.google.com/?cid=0x0:0x35c10ae97ca679a2";""
"mall";"Kantor Pemerintah";"Kantor Camat Seram Utara Timur Kobi";"3RC4+389, Kobi, Kec. Seram Utara Tim. Kobi, Kabupaten Maluku Tengah, Maluku";"Kabupaten Maluku Tengah, Maluku";"MALUKU";"";"Indonesia";" 081216405423";"";"";"-2.9298306";"129.8058468";"https://maps.google.com/?cid=0x0:0x1dab990dfb2fa9db";""
"mall";"Kantor Pemerintah";"Kantor Desa Kobisonta Kec Seram Utara Timur Seti";"2WFH+F6C, Kobisonta, Kec. Seram Utara Tim. Seti, Kabupaten Maluku Tengah, Maluku";"Kabupaten Maluku Tengah, Maluku";"MALUKU";"";"Indonesia";"";"";"";"-2.9763236";"129.9280241";"https://maps.google.com/?cid=0x0:0xfa8db7381a216fd2";""
"mall";"Komplek perumahan";"Pelabuhan Kobi Sadar";"3RM8+WF3, Sadar, Kobi, Kec. Seram Utara Tim. Kobi, Kabupaten Maluku Tengah, Maluku";"Kabupaten Maluku Tengah, Maluku";"MALUKU";"";"Indonesia";"";"";"";"-2.9152417";"129.8161773";"https://maps.google.com/?cid=0x0:0xab8e5e863e3f5c7";""
"mall";"mall";"Kec. Saparua Timur";"Kabupaten Maluku Tengah, Maluku";"Kabupaten Maluku Tengah, Maluku";"MALUKU";"";"Indonesia";"";"";"";"-3.5384417";"128.6908479";"https://maps.google.com/?cid=0x0:0x9d3049fe902a98a3";""
"mall";"Pusat Perbelanjaan";"Kios Alfatih (Ani Amahoru)";"FHW7+6QR, Negeri, Kulur, Kec. Saparua, Kabupaten Maluku Tengah, Maluku";"Kabupaten Maluku Tengah, Maluku";"MALUKU";"";"Indonesia";" 082199519938";"";"";"-3.5043909";"128.5643902";"https://maps.google.com/?cid=0x0:0xfb8c3b6cddbbf1bc";""
"mall";"Kios";"kios.NIELMICKY";"CJHR+4MX, Haria - Amaratu, Tiouw, Kec. Saparua, Kabupaten Maluku Tengah, Maluku";"Kabupaten Maluku Tengah, Maluku";"MALUKU";"";"Indonesia";"";"";"";"-3.5721486";"128.6417434";"https://maps.google.com/?cid=0x0:0x15b972897945b6dd";""
"mall";"mall";"Tk karya jaya";"CMH5+363, Saparua, Kec. Saparua, Kabupaten Maluku Tengah, Maluku";"Kabupaten Maluku Tengah, Maluku";"MALUKU";"";"Indonesia";"";"";"";"-3.5723744";"128.6580539";"https://maps.google.com/?cid=0x0:0xa23d4cdefcba20c8";""
"mall";"mall";"Toko Nelayan";"CMG5+R2C, Saparua, Kec. Saparua, Kabupaten Maluku Tengah, Maluku";"Kabupaten Maluku Tengah, Maluku";"MALUKU";"";"Indonesia";"";"";"";"-3.5729389";"128.6575013";"https://maps.google.com/?cid=0x0:0x58ec4ae3dce4c13b";""
"mall";"Pusat Perbelanjaan";"Maluku City Mall (MCM)";"Jl. Jenderal Sudirman No.1, Hative Kecil, Kec. Sirimau, Kota Ambon, Maluku";"Kota Ambon, Maluku";"MALUKU";"";"Indonesia";" 0911352871";"";"";"-3.6702679";"128.1981163";"https://maps.google.com/?cid=0x0:0x2f29bf0afe09144e";""
"supermarket";"supermarket";"Amahai";"Soahuku, Kec. Amahai, Kabupaten Maluku Tengah, Maluku";"Kabupaten Maluku Tengah, Maluku";"MALUKU";"";"Indonesia";"";"";"";"-3.3393615";"128.9229993";"https://maps.google.com/?cid=0x0:0x193d78dcfa97a670";""
"supermarket";"Toko Swalayan";"Winkel Supermarket";"96FG+323, Waiheru, Kec. Baguala, Kota Ambon, Maluku";"Kota Ambon, Maluku";"MALUKU";"";"Indonesia";" 09113869351";"";"";"-3.6273656";"128.2250609";"https://maps.google.com/?cid=0x0:0xec37cd1cfdfa6412";""
"supermarket";"supermarket";"Toko Egi Wijaya";"MW6F+PXJ, Soahuku, Kec. Amahai, Kabupaten Maluku Tengah, Maluku";"Kabupaten Maluku Tengah, Maluku";"MALUKU";"";"Indonesia";"";"";"";"-3.3383854";"128.9249277";"https://maps.google.com/?cid=0x0:0x1aad42ff5d3bd26e";""
"supermarket";"Pusat Perbelanjaan";"Hypermart Maluku City Mall";"Jalan Jend. Sudirman, Hative Kecil, Kec. Sirimau, Kota Ambon, Maluku";"Kota Ambon, Maluku";"MALUKU";"";"Indonesia";" 0911319999";"";"";"-3.6702679";"128.1981163";"https://maps.google.com/?cid=0x0:0xf361af34b2474744";""
"supermarket";"Toko";"Toko ina ama";"PX37+73, Lesane, Kec. Kota Masohi, Kabupaten Maluku Tengah, Maluku";"Kabupaten Maluku Tengah, Maluku";"MALUKU";"";"Indonesia";"";"";"";"-3.2968197";"128.9626455";"https://maps.google.com/?cid=0x0:0x504ccb3864aac246";""
"supermarket";"supermarket";"Toko Opan";"PX8C+6P4, Jl. Propinsi, Haruru, Kec. Amahai, Kabupaten Maluku Tengah, Maluku";"Kabupaten Maluku Tengah, Maluku";"MALUKU";"";"Indonesia";"";"";"";"-3.2844837";"128.9718402";"https://maps.google.com/?cid=0x0:0xfebd826f83a2c18e";""
"supermarket";"supermarket";"Kec. Teon Nila Serua";"Kabupaten Maluku Tengah, Maluku";"Kabupaten Maluku Tengah, Maluku";"MALUKU";"";"Indonesia";"";"";"";"-3.206515";"129.0223992";"https://maps.google.com/?cid=0x0:0x19c309dd11357808";""
"supermarket";"Toko bahan makanan";"Toko Merkuri";"Q28V+RXG, Watludan, Kec. Teon Nila Serua, Kabupaten Maluku Tengah, Maluku";"Kabupaten Maluku Tengah, Maluku";"MALUKU";"";"Indonesia";"";"";"";"-3.2329434";"129.0449666";"https://maps.google.com/?cid=0x0:0x1d521b91cda71445";""
"supermarket";"Minimarket";"JR Supermarket";"PXVH+HG8, Jl. Trans Seram, Makariki, Kec. Kota Masohi, Kabupaten Maluku Tengah, Maluku";"Kabupaten Maluku Tengah, Maluku";"MALUKU";"";"Indonesia";" 081340904340";"";"";"-3.2560937";"128.9788224";"https://maps.google.com/?cid=0x0:0x8917e8a1f6b2c8bf";""
"supermarket";"Toko bahan makanan";"mahulette home";"Q2V7+6X, Bumey, Kec. Teon Nila Serua, Kabupaten Maluku Tengah, Maluku";"Kabupaten Maluku Tengah, Maluku";"MALUKU";"";"Indonesia";"";"";"";"-3.2069896";"129.0149602";"https://maps.google.com/?cid=0x0:0xb39447042f28c955";""
"supermarket";"Toko bahan makanan";"Supermarket lovely";"PXXX+269, Makariki, Kec. Amahai, Kabupaten Maluku Tengah, Maluku";"Kabupaten Maluku Tengah, Maluku";"MALUKU";"";"Indonesia";"";"";"";"-3.2524724";"128.9981052";"https://maps.google.com/?cid=0x0:0xd6f51b8cd3561a94";""
"supermarket";"supermarket";"Kec. Seram Utara Tim. Kobi";"Kabupaten Maluku Tengah, Maluku";"Kabupaten Maluku Tengah, Maluku";"MALUKU";"";"Indonesia";"";"";"";"-2.9958071";"129.8345109";"https://maps.google.com/?cid=0x0:0x7d5c902227229a42";""
"supermarket";"Toko Swalayan";"Toko mandiri";"2VJF+J7W, Morokay, Kec. Seram Utara Tim. Kobi, Kabupaten Maluku Tengah, Maluku";"Kabupaten Maluku Tengah, Maluku";"MALUKU";"";"Indonesia";" 085213333423";"";"";"-2.9683908";"129.8731968";"https://maps.google.com/?cid=0x0:0xb49adb1f62515510";""
"supermarket";"Toko Swalayan";"Selepan Dewi Sri";"2VG9+44W, Morokay, Kec. Seram Utara Tim. Kobi, Kabupaten Maluku Tengah, Maluku";"Kabupaten Maluku Tengah, Maluku";"MALUKU";"";"Indonesia";"";"";"";"-2.9746499";"129.8678343";"https://maps.google.com/?cid=0x0:0xe8f6e8139da0ab5d";""
"supermarket";"Toko";"Toko GEBI";"3RH2+624, Jl. Lintas Seram, Kobi, Kec. Seram Utara Tim. Kobi, Kabupaten Maluku Tengah, Maluku";"Kabupaten Maluku Tengah, Maluku";"MALUKU";"";"Indonesia";"";"";"";"-2.9219842";"129.8000804";"https://maps.google.com/?cid=0x0:0x316521ebd73676aa";""
"supermarket";"Toko bahan makanan";"Kios mbak sri";"XVXG+VP, Marasahua, Kec. Seram Utara Tim. Kobi, Kabupaten Maluku Tengah, Maluku";"Kabupaten Maluku Tengah, Maluku";"MALUKU";"";"Indonesia";"";"";"";"-3.0002496";"129.8767747";"https://maps.google.com/?cid=0x0:0xfadb9fe14167fd35";""
"supermarket";"Pembangunan Perumahan";"Seram Utara Timur Kobi";"XQ7G+R63, Maneo Rendah, Kec. Seram Utara Tim. Kobi, Kabupaten Maluku Tengah, Maluku";"Kabupaten Maluku Tengah, Maluku";"MALUKU";"";"Indonesia";"";"";"";"-3.0354877";"129.7755571";"https://maps.google.com/?cid=0x0:0x2d80c0151e375331";""
"supermarket";"Toko Swalayan";"Toko Bu Netti";"XWWX+5QG, Unnamed Road, Wailoping, Kec. Seram Utara Tim. Seti, Kabupaten Maluku Tengah, Maluku";"Kabupaten Maluku Tengah, Maluku";"MALUKU";"";"Indonesia";" 082228003242";"";"";"-3.004556";"129.949467";"https://maps.google.com/?cid=0x0:0xc396e96e853eb8f3";""
"supermarket";"Toko Swalayan";"Winkel Supermarket";"96FG+323, Waiheru, Kec. Baguala, Kota Ambon, Maluku";"Kota Ambon, Maluku";"MALUKU";"";"Indonesia";" 09113869351";"";"";"-3.6273656";"128.2250609";"https://maps.google.com/?cid=0x0:0xec37cd1cfdfa6412";""
"supermarket";"Toserba";"Inafut Swalayan";"M982+FXH, Waimital, Kec. Kairatu, Kabupaten Seram Bagian Barat, Maluku";"Kabupaten Seram Bagian Barat, Maluku";"MALUKU";"";"Indonesia";"";"";"";"-3.3338178";"128.3524887";"https://maps.google.com/?cid=0x0:0x73bd5cabf20bb96c";""
"supermarket";"Toko Swalayan";"Toko sindy";"XX7H+FFF, Waitila, Kec. Seram Utara Tim. Seti, Kabupaten Maluku Tengah, Maluku";"Kabupaten Maluku Tengah, Maluku";"MALUKU";"";"Indonesia";"";"";"";"-3.0363151";"129.978668";"https://maps.google.com/?cid=0x0:0xad5312dbe60f0903";""
"supermarket";"supermarket";"TOKO FITRA";"2VJC+X24, Morokay, Kec. Seram Utara Tim. Kobi, Kabupaten Maluku Tengah, Maluku";"Kabupaten Maluku Tengah, Maluku";"MALUKU";"";"Indonesia";"";"";"";"-2.9676004";"129.8700892";"https://maps.google.com/?cid=0x0:0xabce903e709221c0";""
"supermarket";"Pusat Perbelanjaan";"Fajar Mart";"W5MV+PFF, Piru, Kec. Seram Bar., Kabupaten Seram Bagian Barat, Maluku";"Kabupaten Seram Bagian Barat, Maluku";"MALUKU";"";"Indonesia";"";"";"";"-3.0656914";"128.1936727";"https://maps.google.com/?cid=0x0:0x40a2277adf2e3d56";""
"supermarket";"supermarket";"Kec. Banda";"Kabupaten Maluku Tengah, Maluku";"Kabupaten Maluku Tengah, Maluku";"MALUKU";"";"Indonesia";"";"";"";"-4.5245505";"129.9028597";"https://maps.google.com/?cid=0x0:0xbe4d870d31ccb97d";""
"supermarket";"Toko";"Banda Mart";"FWC3+J2V, Unnamed Road, Dwi Warna, Kec. Banda, Kabupaten Maluku Tengah, Maluku";"Kabupaten Maluku Tengah, Maluku";"MALUKU";"";"Indonesia";"";"";"";"-4.5283931";"129.9025499";"https://maps.google.com/?cid=0x0:0x530404dad4b2f2cd";""
"supermarket";"Toko";"Ciao Mini Mart";"RT3, No 7A, Jl. Mesjid Hatta Syahrir, Nusantara, Banda, Neira, Maluku";"Neira, Maluku";"MALUKU";"";"Indonesia";"";"";"";"-4.5240232";"129.8979707";"https://maps.google.com/?cid=0x0:0x61dd58a419bf2cf7";""
"supermarket";"Toko bahan makanan";"YW Mart";"FWF3+9VH, Kp. Baru, Kec. Banda, Kabupaten Maluku Tengah, Maluku";"Kabupaten Maluku Tengah, Maluku";"MALUKU";"";"Indonesia";" 08124007706";"";"";"-4.5265738";"129.904729";"https://maps.google.com/?cid=0x0:0x4081c18505989a77";""
"supermarket";"Toko";"Kios Nouval";"FW2X+2GH, Waer, Kec. Banda, Kabupaten Maluku Tengah, Maluku";"Kabupaten Maluku Tengah, Maluku";"MALUKU";"";"Indonesia";"";"";"";"-4.5499422";"129.9488522";"https://maps.google.com/?cid=0x0:0x49cf1eeb5d1032d2";""
"supermarket";"Toko bahan makanan";"Kios Irna Baeng";"FVFW+622, Nusantara, Kec. Banda, Kabupaten Maluku Tengah, Maluku";"Kabupaten Maluku Tengah, Maluku";"MALUKU";"";"Indonesia";"";"";"";"-4.5269783";"129.895029";"https://maps.google.com/?cid=0x0:0xa22dd9ff4ec0d674";""
"supermarket";"Toko bahan makanan";"Kios Zidan Lapele";"CMWH+FXJ, Pulau Rhun, Kec. Banda, Kabupaten Maluku Tengah, Maluku";"Kabupaten Maluku Tengah, Maluku";"MALUKU";"";"Indonesia";"";"";"";"-4.5537911";"129.6798783";"https://maps.google.com/?cid=0x0:0x1369244beddbc055";""
"supermarket";"Toko bahan makanan";"Kios hj La anggu";"FVFW+75G, Nusantara, Kec. Banda, Kabupaten Maluku Tengah, Maluku";"Kabupaten Maluku Tengah, Maluku";"MALUKU";"";"Indonesia";"";"";"";"-4.5269031";"129.8955286";"https://maps.google.com/?cid=0x0:0x2bbf5537ad9b5d3f";""
"supermarket";"Kios";"Kios Abi";"FWC4+986, Kp. Baru, Kec. Banda, Kabupaten Maluku Tengah, Maluku";"Kabupaten Maluku Tengah, Maluku";"MALUKU";"";"Indonesia";"";"";"";"-4.5290875";"129.9057656";"https://maps.google.com/?cid=0x0:0x3b10f8eff5b4969f";""
"supermarket";"Indonesia";"Penjual Gula Merah Dender 2";"FX52+MCG, Dender, Kec. Banda, Kabupaten Maluku Tengah, Maluku";"Kabupaten Maluku Tengah, Maluku";"MALUKU";"";"Indonesia";"";"";"";"-4.5408206";"129.9510775";"https://maps.google.com/?cid=0x0:0x20aa984ff2c2f74d";""
"supermarket";"Toko bahan makanan";"New Mitra Mart";"Nusantara, Kec. Banda, Kabupaten Maluku Tengah, Maluku";"Kabupaten Maluku Tengah, Maluku";"MALUKU";"";"Indonesia";"";"";"";"-4.5281632";"129.8964909";"https://maps.google.com/?cid=0x0:0xf01b9f28c8bf3534";""
"supermarket";"Toko Swalayan";"GS THE FRESH JATIBENING";"Jl. Caman Raya No.7-24, RT.004/RW.003, Jatibening, Kec. Pd. Gede, Kota Bks, Jawa Barat 17412";"RT.004/RW.003, Jatibening, Kec. Pd. Gede, Kota Bks";"MALUKU";"17412";"Indonesia";" 02184982211";"";"";"-6.2676455";"106.9436409";"https://maps.google.com/?cid=0x0:0x2cdb50c3ee3206c";""
"supermarket";"Toko Swalayan";"Gs supermarket";"Jl. KH. Hasyim Ashari No.93, RT.002/RW.003, Poris Plawad Utara, Kec. Cipondoh, Kota Tangerang, Banten 15148";"RT.002/RW.003, Poris Plawad Utara, Kec. Cipondoh, Kota Tangerang";"MALUKU";"15148";"Indonesia";" 02155712070";"";"";"-6.1879187";"106.661738";"https://maps.google.com/?cid=0x0:0x86a83e6d17a220b2";""
"supermarket";"Toko Swalayan";"GS Supermarket Jatiasih";"GsSupermarket :, Jl. Wibawa Mukti II No.125, RT.002/ RW017/RW.017, Jatiasih, Kec. Jatiasih, Kota Bks, Jawa Barat 17423";"Jl. Wibawa Mukti II No.125, RT.002/ RW017/RW.017, Jatiasih, Kec. Jatiasih, Kota Bks";"MALUKU";"17423";"Indonesia";" 02182736918";"";"";"-6.3070579";"106.955731";"https://maps.google.com/?cid=0x0:0x74efd6ce433268e6";""
"supermarket";"Toko Swalayan";"GS The Fresh Mampang";"Jl. Buncit Raya No.301, Duren Tiga, Kec. Pancoran, Kota Jakarta Selatan, Daerah Khusus Ibukota Jakarta 12760";"Duren Tiga, Kec. Pancoran, Kota Jakarta Selatan";"MALUKU";"12760";"Indonesia";" 02126961986";"";"";"-6.256991";"106.828987";"https://maps.google.com/?cid=0x0:0x47a84d3b86619147";""
"supermarket";"Toko Swalayan";"Banda Raya";"Jl. Wedana No.142, Lhong Raya, Kec. Banda Raya, Kota Banda Aceh, Aceh 23231";"Lhong Raya, Kec. Banda Raya, Kota Banda Aceh";"MALUKU";"23231";"Indonesia";"";"";"";"5.5255052";"95.3192746";"https://maps.google.com/?cid=0x0:0xb8387a3e3a7169f5";""
"supermarket";"Toko Swalayan";"GS The Fresh Supermarket Kemang Pratama";"Linc Square Kemang Pratama, Jl. Kemang Pratama Raya, RT.004/RW.001, Bojong Rawalumbu, Kec. Rawalumbu, Kota Bks, Jawa Barat 17116";"Jl. Kemang Pratama Raya, RT.004/RW.001, Bojong Rawalumbu, Kec. Rawalumbu, Kota Bks";"MALUKU";"17116";"Indonesia";" 02182416910";"";"";"-6.2779418";"106.9910558";"https://maps.google.com/?cid=0x0:0x4ce692f4b9ef21ee";""
"supermarket";"supermarket";"Kec. Tehoru";"Kabupaten Maluku Tengah, Maluku";"Kabupaten Maluku Tengah, Maluku";"MALUKU";"";"Indonesia";"";"";"";"-3.300989";"129.5157974";"https://maps.google.com/?cid=0x0:0x747431514523047b";""
"supermarket";"Toko";"IRFAN JAYA TEHORU SHOP";"Tehoru, Kec. Tehoru, Kabupaten Maluku Tengah, Maluku 97553";"Kec. Tehoru, Kabupaten Maluku Tengah";"MALUKU";"97553";"Indonesia";" 081240528733";"";"";"-3.3808201";"129.5480159";"https://maps.google.com/?cid=0x0:0x4de0479055765f83";""
"supermarket";"supermarket";"Toko pertiwi";"MHWF+2MQ, Jl. Trans Seram, Kec. Tehoru, Kabupaten Maluku Tengah, Maluku";"Kabupaten Maluku Tengah, Maluku";"MALUKU";"";"Indonesia";"";"";"";"-3.3049136";"129.574221";"https://maps.google.com/?cid=0x0:0xb5209fff0ef148f2";""
"supermarket";"Minimarket";"JR Supermarket";"PXVH+HG8, Jl. Trans Seram, Makariki, Kec. Kota Masohi, Kabupaten Maluku Tengah, Maluku";"Kabupaten Maluku Tengah, Maluku";"MALUKU";"";"Indonesia";" 081340904340";"";"";"-3.2560937";"128.9788224";"https://maps.google.com/?cid=0x0:0x8917e8a1f6b2c8bf";""
"supermarket";"Toko Swalayan";"Toko mandiri";"2VJF+J7W, Morokay, Kec. Seram Utara Tim. Kobi, Kabupaten Maluku Tengah, Maluku";"Kabupaten Maluku Tengah, Maluku";"MALUKU";"";"Indonesia";" 085213333423";"";"";"-2.9683908";"129.8731968";"https://maps.google.com/?cid=0x0:0xb49adb1f62515510";""
"supermarket";"Toko Swalayan";"Toko Fajar Timur";"RQRQ+QJJ, Wakarleli, Kec. Moa Lakor, Kabupaten Maluku Barat Daya, Maluku";"Kabupaten Maluku Barat Daya, Maluku";"MALUKU";"";"Indonesia";"";"";"";"-8.1580268";"127.7890034";"https://maps.google.com/?cid=0x0:0x7c7cc122e197ca";""
"supermarket";"Pusat Perbelanjaan";"Batumary";"H7V4+RW, Tamilouw, Kec. Amahai, Kabupaten Maluku Tengah, Maluku";"Kabupaten Maluku Tengah, Maluku";"MALUKU";"";"Indonesia";"";"";"";"-3.4054818";"129.2573737";"https://maps.google.com/?cid=0x0:0x49cf9424dac468f1";""
"supermarket";"supermarket";"Toko Bone Indah - Tehoru";"JGCR+QF8, Jl. Trans Seram, Tehoru, Kec. Tehoru, Kabupaten Maluku Tengah, Maluku";"Kabupaten Maluku Tengah, Maluku";"MALUKU";"";"Indonesia";"";"";"";"-3.3780999";"129.5412108";"https://maps.google.com/?cid=0x0:0xf733be677a97a5ea";""
"supermarket";"supermarket";"KIos gher";"GGPW+3X8, Haya, Kec. Tehoru, Kabupaten Maluku Tengah, Maluku";"Kabupaten Maluku Tengah, Maluku";"MALUKU";"";"Indonesia";"";"";"";"-3.4648737";"129.547487";"https://maps.google.com/?cid=0x0:0x710e1c87d05557d2";""
"supermarket";"supermarket";"Kec. Saparua";"Kabupaten Maluku Tengah, Maluku";"Kabupaten Maluku Tengah, Maluku";"MALUKU";"";"Indonesia";"";"";"";"-3.5718109";"128.6544355";"https://maps.google.com/?cid=0x0:0x1d9b1f8124612946";""
"supermarket";"Toko umum";"MEGA TOPS";"CMH3+3CM, Tiouw, Kec. Saparua, Kabupaten Maluku Tengah, Maluku";"Kabupaten Maluku Tengah, Maluku";"MALUKU";"";"Indonesia";"";"";"";"-3.5722777";"128.6535434";"https://maps.google.com/?cid=0x0:0xd643bd96b8343e22";""
"supermarket";"Toko bahan makanan";"SRC ALE";"Tiouw, Kec. Saparua, Kabupaten Maluku Tengah, Maluku";"Kabupaten Maluku Tengah, Maluku";"MALUKU";"";"Indonesia";" 082199424645";"";"";"-3.5720958";"128.6467917";"https://maps.google.com/?cid=0x0:0x8adb1cbf9ae3581e";""
"supermarket";"Tempat Cukur Rambut";"Pangkas Rambut";"Raya Saparua, Saparua, Kec. Saparua, Kabupaten Maluku Tengah, Maluku";"Kabupaten Maluku Tengah, Maluku";"MALUKU";"";"Indonesia";" 085211995095";"";"";"-3.5730257";"128.6598818";"https://maps.google.com/?cid=0x0:0x66d3b6e00df499d2";""
"supermarket";"supermarket";"Toko Usaha Baru";"Raya Saparua, Saparua, Kec. Saparua, Kabupaten Maluku Tengah, Maluku";"Kabupaten Maluku Tengah, Maluku";"MALUKU";"";"Indonesia";"";"";"";"-3.5728345";"128.657216";"https://maps.google.com/?cid=0x0:0x2096054aa56cc017";""
"supermarket";"Toko Swalayan";"GS THE FRESH JATIBENING";"Jl. Caman Raya No.7-24, RT.004/RW.003, Jatibening, Kec. Pd. Gede, Kota Bks, Jawa Barat 17412";"RT.004/RW.003, Jatibening, Kec. Pd. Gede, Kota Bks";"MALUKU";"17412";"Indonesia";" 02184982211";"";"";"-6.2676455";"106.9436409";"https://maps.google.com/?cid=0x0:0x2cdb50c3ee3206c";""
"supermarket";"Toko Swalayan";"GS The Fresh Mampang";"Jl. Buncit Raya No.301, Duren Tiga, Kec. Pancoran, Kota Jakarta Selatan, Daerah Khusus Ibukota Jakarta 12760";"Duren Tiga, Kec. Pancoran, Kota Jakarta Selatan";"MALUKU";"12760";"Indonesia";" 02126961986";"";"";"-6.256991";"106.828987";"https://maps.google.com/?cid=0x0:0x47a84d3b86619147";""
"supermarket";"Kompleks Olahraga";"Lapangan Saparua";"Jl. Ambon No.11-15, Citarum, Kec. Bandung Wetan, Kota Bandung, Jawa Barat 40115";"Citarum, Kec. Bandung Wetan, Kota Bandung";"MALUKU";"40115";"Indonesia";"";"";"";"-6.908508";"107.6167496";"https://maps.google.com/?cid=0x0:0xbbcfd7910bd19172";""
"supermarket";"Toko Swalayan";"GS Supermarket Jatiasih";"GsSupermarket :, Jl. Wibawa Mukti II No.125, RT.002/ RW017/RW.017, Jatiasih, Kec. Jatiasih, Kota Bks, Jawa Barat 17423";"Jl. Wibawa Mukti II No.125, RT.002/ RW017/RW.017, Jatiasih, Kec. Jatiasih, Kota Bks";"MALUKU";"17423";"Indonesia";" 02182736918";"";"";"-6.3070579";"106.955731";"https://maps.google.com/?cid=0x0:0x74efd6ce433268e6";""
"supermarket";"Toko Swalayan";"GS The Fresh Supermarket Kemang Pratama";"Linc Square Kemang Pratama, Jl. Kemang Pratama Raya, RT.004/RW.001, Bojong Rawalumbu, Kec. Rawalumbu, Kota Bks, Jawa Barat 17116";"Jl. Kemang Pratama Raya, RT.004/RW.001, Bojong Rawalumbu, Kec. Rawalumbu, Kota Bks";"MALUKU";"17116";"Indonesia";" 02182416910";"";"";"-6.2779418";"106.9910558";"https://maps.google.com/?cid=0x0:0x4ce692f4b9ef21ee";""
"supermarket";"Toko Swalayan";"Gs supermarket";"Jl. KH. Hasyim Ashari No.93, RT.002/RW.003, Poris Plawad Utara, Kec. Cipondoh, Kota Tangerang, Banten 15148";"RT.002/RW.003, Poris Plawad Utara, Kec. Cipondoh, Kota Tangerang";"MALUKU";"15148";"Indonesia";" 02155712070";"";"";"-6.1879187";"106.661738";"https://maps.google.com/?cid=0x0:0x86a83e6d17a220b2";""
"supermarket";"Toko sembako pemerintah";"Kios Mama Ake";"GM2V+QCV, Noloth, Kec. Saparua, Kabupaten Maluku Tengah, Maluku";"Kabupaten Maluku Tengah, Maluku";"MALUKU";"";"Indonesia";"";"";"";"-3.4980045";"128.6935351";"https://maps.google.com/?cid=0x0:0x75ca211b7084f451";""
"supermarket";"Toserba";"Toko Makmur Jaya";"CMG4+WCH, Jl. Muka Pasar Saparua Toko Makmur Jaya, Saparua, Kec. Saparua, Kabupaten Maluku Tengah, Maluku 97592";"Jl. Muka Pasar Saparua Toko Makmur Jaya, Saparua, Kec. Saparua, Kabupaten Maluku Tengah";"MALUKU";"97592";"Indonesia";" 06293121014";"";"";"-3.5726804";"128.6561123";"https://maps.google.com/?cid=0x0:0xa098c7ef6326ea7a";""
"supermarket";"Toserba";"Rambla Super Departement Store";"Jl. Boulevard Raya No.19, RT.13/RW.18, Klp. Gading Tim., Kec. Klp. Gading, Jkt Utara, Daerah Khusus Ibukota Jakarta 14240";"RT.13/RW.18, Klp. Gading Tim., Kec. Klp. Gading, Jkt Utara";"MALUKU";"14240";"Indonesia";" 081908192582";"";"";"-6.158576";"106.907394";"https://maps.google.com/?cid=0x0:0x9bc0c4ec24d3878f";""
"supermarket";"supermarket";"Pulau Haruku";"Kec. Pulau Haruku, Kabupaten Maluku Tengah, Maluku";"Kabupaten Maluku Tengah, Maluku";"MALUKU";"";"Indonesia";"";"";"";"-3.559121";"128.4639632";"https://maps.google.com/?cid=0x0:0x447057b7bfb22ab3";""
"supermarket";"Toko";"Toko Analessy";"Pelauw, Kec. Pulau Haruku, Kabupaten Maluku Tengah, Maluku";"Kabupaten Maluku Tengah, Maluku";"MALUKU";"";"Indonesia";" 082191197869";"";"";"-3.5184842";"128.4636357";"https://maps.google.com/?cid=0x0:0x88c36a619fce250f";""
"supermarket";"Toko umum";"Kios Dubers";"CC3Q+733, Desa, Kec P, Kec. Pulau Haruku, Kabupaten Maluku Tengah, Maluku";"Kabupaten Maluku Tengah, Maluku";"MALUKU";"";"Indonesia";" 081343391929";"";"";"-3.5968682";"128.4376673";"https://maps.google.com/?cid=0x0:0xdd0d8701c2a73475";""
"supermarket";"supermarket";"Kec. Salahutu";"Kabupaten Maluku Tengah, Maluku";"Kabupaten Maluku Tengah, Maluku";"MALUKU";"";"Indonesia";"";"";"";"-3.5871515";"128.3279426";"https://maps.google.com/?cid=0x0:0xe1f3659f501ed8f1";""
"supermarket";"Minimarket";"Toko Bintang Fajar";"Jl. Propinsi, Tulehu, Kec. Salahutu, Kabupaten Maluku Tengah, Maluku";"Kabupaten Maluku Tengah, Maluku";"MALUKU";"";"Indonesia";"";"";"";"-3.5857407";"128.3271245";"https://maps.google.com/?cid=0x0:0x195440ccd50864c3";""
"supermarket";"Kios";"Kios Nia";"C82P+3FQ Mursalim SHI, Jl. Ust Harmin, Tulehu, Kec. Salahutu, Kabupaten Maluku Tengah, Maluku";"Kabupaten Maluku Tengah, Maluku";"MALUKU";"";"Indonesia";"";"";"";"-3.5997832";"128.3362344";"https://maps.google.com/?cid=0x0:0x905a3f01a991d401";""
"supermarket";"Toko";"Toko Cahaya Baru";"98RH+8P2, Jl. Propinsi, Tulehu, Kec. Salahutu, Kabupaten Maluku Tengah, Maluku";"Kabupaten Maluku Tengah, Maluku";"MALUKU";"";"Indonesia";"";"";"";"-3.6092476";"128.3292778";"https://maps.google.com/?cid=0x0:0x170e6852e9fe4cf0";""
"supermarket";"Toko bahan makanan";"Kios Maudy";"97PG+V88, Unnamed Road, Suli, Kec. Salahutu, Kabupaten Maluku Tengah, Maluku";"Kabupaten Maluku Tengah, Maluku";"MALUKU";"";"Indonesia";"";"";"";"-3.6128494";"128.2758293";"https://maps.google.com/?cid=0x0:0x8a523cdfca8119d3";""
"supermarket";"Toko bahan makanan";"CV. INDOMULIA Cabang 2";"98H2+WPP, Jl. Suli Raya, Suli, Kec. Salahutu, Kabupaten Maluku Tengah, Maluku";"Kabupaten Maluku Tengah, Maluku";"MALUKU";"";"Indonesia";" 085282511276";"";"";"-3.6201542";"128.3018143";"https://maps.google.com/?cid=0x0:0xc3fbebcd9437c769";""
"supermarket";"Toko";"Toko sinar abadi";"C87H+RC8 hurnala 2, Tulehu, Kec. Salahutu, Kabupaten Maluku Tengah, Maluku";"Kabupaten Maluku Tengah, Maluku";"MALUKU";"";"Indonesia";"";"";"";"-3.5854709";"128.3285901";"https://maps.google.com/?cid=0x0:0x5d7da47268b8dd8c";""
"supermarket";"Komplek perumahan";"T MART WAITATIRI";"Waitatiri Ambon, Suli, Salahutu, Central Maluku Regency, Maluku";"Kabupaten Maluku Tengah, Maluku";"MALUKU";"";"Indonesia";"";"";"";"-3.6163765";"128.2752651";"https://maps.google.com/?cid=0x0:0x2fb959cc9bffa8ca";""
"supermarket";"Toko Perlengkapan Rumah";"TOKO RAHAYU";"98J3+22P, Jl. Propinsi, Suli, Kec. Salahutu, Kabupaten Maluku Tengah, Maluku";"Kabupaten Maluku Tengah, Maluku";"MALUKU";"";"Indonesia";"";"";"";"-3.6199102";"128.3025864";"https://maps.google.com/?cid=0x0:0x31e7e810b78c3520";""
"supermarket";"Toko Bahan Bangunan";"Toko Surya Indah Tulehu";"Dusun Mamokeng, Tulehu - Liang Desa, Tulehu, Kec. Salahutu, Kabupaten Maluku Tengah, Maluku 97582";"Tulehu - Liang Desa, Tulehu, Kec. Salahutu, Kabupaten Maluku Tengah";"MALUKU";"97582";"Indonesia";" 082397301030";"";"";"-3.5888792";"128.3312173";"https://maps.google.com/?cid=0x0:0x25b74c202399e8fa";""
"supermarket";"Perhimpunan Pengembang Perumahan";"TULEHU PLAZA";"C85R+M2Q, Tulehu, Kec. Salahutu, Kabupaten Maluku Tengah, Maluku";"Kabupaten Maluku Tengah, Maluku";"MALUKU";"";"Indonesia";"";"";"";"-3.5907937";"128.3400958";"https://maps.google.com/?cid=0x0:0x5ccf2248b7bc99f8";""
"supermarket";"Toko Swalayan";"Winkel Supermarket";"96FG+323, Waiheru, Kec. Baguala, Kota Ambon, Maluku";"Kota Ambon, Maluku";"MALUKU";"";"Indonesia";" 09113869351";"";"";"-3.6273656";"128.2250609";"https://maps.google.com/?cid=0x0:0xec37cd1cfdfa6412";""
"supermarket";"Tujuan Wisata";"Air Wailatu";"C85Q+2WW, Tulehu, Kec. Salahutu, Kabupaten Maluku Tengah, Maluku";"Kabupaten Maluku Tengah, Maluku";"MALUKU";"";"Indonesia";"";"";"";"-3.5923935";"128.3398229";"https://maps.google.com/?cid=0x0:0x240ddda0054e30c8";""
"supermarket";"Perhimpunan Pengembang Perumahan";"tulehu rt 1";"pohon mangga, tulehu raya No.rt 1, Tulehu, Kec. Salahutu, Kabupaten Maluku Tengah, Maluku";"Kabupaten Maluku Tengah, Maluku";"MALUKU";"";"Indonesia";"";"";"";"-3.5913452";"128.3354427";"https://maps.google.com/?cid=0x0:0x9285142b3540d8ba";""
"supermarket";"Hipermarket";"Hypermart Ambon City Center";"Desa, Passo, Kec. Baguala, Kota Ambon, Maluku";"Kota Ambon, Maluku";"MALUKU";"";"Indonesia";" 0911361739";"";"";"-3.6316235";"128.2496246";"https://maps.google.com/?cid=0x0:0xa5054eb80169380e";""
"supermarket";"Toko";"Winkel Xpress";"9792+JWJ, Passo, Kec. Baguala, Kota Ambon, Maluku";"Kota Ambon, Maluku";"MALUKU";"";"Indonesia";"";"";"";"-3.6309238";"128.2522702";"https://maps.google.com/?cid=0x0:0xecc0d241b9b11ca4";""
"supermarket";"Pusat Perbelanjaan";"Hypermart Maluku City Mall";"Jalan Jend. Sudirman, Hative Kecil, Kec. Sirimau, Kota Ambon, Maluku";"Kota Ambon, Maluku";"MALUKU";"";"Indonesia";" 0911319999";"";"";"-3.6702679";"128.1981163";"https://maps.google.com/?cid=0x0:0xf361af34b2474744";""
"supermarket";"Toko bahan makanan";"Ruko Afang Passo (PASSO RAYA)";"9793+98P, Passo, Kec. Baguala, Kota Ambon, Maluku";"Kota Ambon, Maluku";"MALUKU";"";"Indonesia";" 0911361340";"";"";"-3.6315256";"128.2533137";"https://maps.google.com/?cid=0x0:0xea0d5252da173d17";""
"supermarket";"Guest house";"VASA GUEST HSE";"Jl. Laksdya Leo Wattimena No.13, Nania, Kec. Baguala, Kota Ambon, Maluku";"Kota Ambon, Maluku";"MALUKU";"";"Indonesia";"";"";"";"-3.6257555";"128.2448834";"https://maps.google.com/?cid=0x0:0x1f7d507c3a42e980";""
"supermarket";"Toko Bahan Bangunan";"Makmur Utama Supermarket Bahan Bangunan";"Jl. Yasin Gamsungi No.2 Kec. ternate tengah, Kel, Makassar Tim., Makassar Timur, Kota Ternate, Maluku Utara 97724";"Kel, Makassar Tim., Makassar Timur, Kota Ternate";"MALUKU";"97724";"Indonesia";" 08114313799";"";"";"0.7940352";"127.3876695";"https://maps.google.com/?cid=0x0:0x2f492ae87bf64247";""
"supermarket";"Toko";"Toko mutiara (tulehu)";"C85Q+9JJ, Jl sahutian, Tulehu, Kec. Salahutu, Kabupaten Maluku Tengah, Maluku";"Kabupaten Maluku Tengah, Maluku";"MALUKU";"";"Indonesia";"";"";"";"-3.5915381";"128.3390006";"https://maps.google.com/?cid=0x0:0xd66d2808c435abd1";""
"supermarket";"Pusat Perbelanjaan";"Kios Anda";"Tulehu, Kec. Salahutu, Kabupaten Maluku Tengah, Maluku";"Kabupaten Maluku Tengah, Maluku";"MALUKU";"";"Indonesia";" 081343111574";"";"";"-3.5998751";"128.3361201";"https://maps.google.com/?cid=0x0:0xa8fa8056b24ddb44";""
"supermarket";"Toko";"KIOS FAJAR";"987P+JQR, Tial, Kec. Salahutu, Kabupaten Maluku Tengah, Maluku";"Kabupaten Maluku Tengah, Maluku";"MALUKU";"";"Indonesia";"";"";"";"-3.6359541";"128.3370586";"https://maps.google.com/?cid=0x0:0x2f89d07e7668992";""
"supermarket";"Toko umum";"Kedai Ananda";"Liang, Kec. Salahutu, Kabupaten Maluku Tengah, Maluku";"Kabupaten Maluku Tengah, Maluku";"MALUKU";"";"Indonesia";"";"";"";"-3.5060295";"128.3261635";"https://maps.google.com/?cid=0x0:0x6e9b082eb9395af2";""
"supermarket";"Jasa Pengiriman";"Toko Trisura  Lion Parcel Passo";"Sisingamangaraja, Passo, Kec. Baguala, Kota Ambon, Maluku";"Kota Ambon, Maluku";"MALUKU";"";"Indonesia";" 0811471515";"";"";"-3.6230973";"128.2569451";"https://maps.google.com/?cid=0x0:0xa2346fe91a1b4cf4";""
"supermarket";"Toko bahan makanan";"TOKO MAENUSU";"98VH+C4P, Jl. Al-Muhajirin, RT.03/RW.PENGUNGSIAN, Tulehu, Kec. Salahutu, Kota Ambon, Maluku Tengah";"Kota Ambon, Maluku Tengah";"MALUKU";"";"Indonesia";"";"";"";"-3.6064136";"128.3278143";"https://maps.google.com/?cid=0x0:0x8d9b2c4e38d119be";""
"supermarket";"supermarket";"Kec. Leihitu";"Kabupaten Maluku Tengah, Maluku";"Kabupaten Maluku Tengah, Maluku";"MALUKU";"";"Indonesia";"";"";"";"-3.5841059";"128.0844985";"https://maps.google.com/?cid=0x0:0x70c3041186d04c92";""
"supermarket";"Toko umum";"Kios ZILA H2W";"C24P+67H, Seith, Kec. Leihitu, Kabupaten Maluku Tengah, Maluku";"Kabupaten Maluku Tengah, Maluku";"MALUKU";"";"Indonesia";" 082198935391";"";"";"-3.59443";"128.0357386";"https://maps.google.com/?cid=0x0:0x828086738ed1ad84";""
"supermarket";"Toko bahan makanan";"SRC RIZKY (YOGIM)";"Hitu Lama, Kec. Leihitu, Kabupaten Maluku Tengah, Maluku";"Kabupaten Maluku Tengah, Maluku";"MALUKU";"";"Indonesia";" 081275939603";"";"";"-3.5855723";"128.1760499";"https://maps.google.com/?cid=0x0:0x1dfd88366bf4531b";""
"supermarket";"Kios";"Kios Sindi";"C24H+GCH, Seith,Kmpleks, kayumanis, Kec. Leihitu, Kabupaten Maluku Tengah, Maluku";"Kabupaten Maluku Tengah, Maluku";"MALUKU";"";"Indonesia";" 081381265905";"";"";"-3.593699";"128.0286216";"https://maps.google.com/?cid=0x0:0xc9f199a0a6d5bff6";""
"supermarket";"Toko umum";"Toko Monari Waewolong";"Hitu Mesing, Kec. Leihitu, Kabupaten Maluku Tengah, Maluku";"Kabupaten Maluku Tengah, Maluku";"MALUKU";"";"Indonesia";" 082143804250";"";"";"-3.5795038";"128.1802925";"https://maps.google.com/?cid=0x0:0x27a5a08594d41429";""
"supermarket";"Toko Swalayan";"Winkel Supermarket";"96FG+323, Waiheru, Kec. Baguala, Kota Ambon, Maluku";"Kota Ambon, Maluku";"MALUKU";"";"Indonesia";" 09113869351";"";"";"-3.6273656";"128.2250609";"https://maps.google.com/?cid=0x0:0xec37cd1cfdfa6412";""
"supermarket";"Toko bahan makanan";"Kios Amels";"73C2+M2C, Hatu, Kec. Leihitu Bar., Kabupaten Maluku Tengah, Maluku";"Kabupaten Maluku Tengah, Maluku";"MALUKU";"";"Indonesia";" 082238376043";"";"";"-3.7283036";"128.050012";"https://maps.google.com/?cid=0x0:0x81c2057efd71b918";""
"supermarket";"Toko bahan makanan";"Toko ajun";"C36X+X9R, Jl. Syaikh Muhammad Al-Khidhir, Komplek Pelabuhan Tahoku, Hila, Kec. Leihitu, Kabupaten Maluku Tengah, Maluku";"Kabupaten Maluku Tengah, Maluku";"MALUKU";"";"Indonesia";"";"";"";"-3.5876452";"128.0985387";"https://maps.google.com/?cid=0x0:0x645f790a0de028cb";""
"supermarket";"Toko Buku >>u0026 Alat Sekolah";"Dian Pertiwi Supermarket Toko Buku Toserba";"952V+6C8, Poka, Kec. Tlk. Ambon, Kota Ambon, Maluku";"Kota Ambon, Maluku";"MALUKU";"";"Indonesia";"";"";"";"-3.649472";"128.193567";"https://maps.google.com/?cid=0x0:0x32f588bfa75b913c";""
"supermarket";"Komplek perumahan";"DESA LARIKE";"6WXM+QVG, Larike, Kec. Leihitu Bar., Kabupaten Maluku Tengah, Maluku";"Kabupaten Maluku Tengah, Maluku";"MALUKU";"";"Indonesia";"";"";"";"-3.750552";"127.9346915";"https://maps.google.com/?cid=0x0:0xce73be9bd3136e89";""
"supermarket";"Pusat Perbelanjaan";"Hypermart Maluku City Mall";"Jalan Jend. Sudirman, Hative Kecil, Kec. Sirimau, Kota Ambon, Maluku";"Kota Ambon, Maluku";"MALUKU";"";"Indonesia";" 0911319999";"";"";"-3.6702679";"128.1981163";"https://maps.google.com/?cid=0x0:0xf361af34b2474744";""
"supermarket";"Toko Swalayan";"Swalayan JeMn'D";"85P9+F7J, Jl. Ir. M. Putuhena, Wayame, Kec. Tlk. Ambon, Kota Ambon, Maluku";"Kota Ambon, Maluku";"MALUKU";"";"Indonesia";" 082282044150";"";"";"-3.6637856";"128.1681357";"https://maps.google.com/?cid=0x0:0x92646924e2c4781c";""
"supermarket";"Toko bahan makanan";"FRiS Fresh Market";"854Q+F94, Jl. Rijali, Kel Karang Panjang, Kec. Sirimau, Kota Ambon, Maluku";"Kota Ambon, Maluku";"MALUKU";"";"Indonesia";"";"";"";"-3.6938692";"128.188438";"https://maps.google.com/?cid=0x0:0x899978b16c4578e5";""
"supermarket";"Toko bahan makanan";"Swalayan sobat kita";"75V9+RQ4, Kel Wainitu, Kec. Nusaniwe, Kota Ambon, Maluku";"Kota Ambon, Maluku";"MALUKU";"";"Indonesia";"";"";"";"-3.7054773";"128.1694597";"https://maps.google.com/?cid=0x0:0x53de40b23268d9fc";""
"supermarket";"Supermarket Diskon";"SUPER MART";"Jl. Diponegoro No.19, Kel Ahusen, Kec. Sirimau, Kota Ambon, Maluku 97127";"Kel Ahusen, Kec. Sirimau, Kota Ambon";"MALUKU";"97127";"Indonesia";" 09113820382";"";"";"-3.6991185";"128.181033";"https://maps.google.com/?cid=0x0:0xd3b2419f90382084";""
"supermarket";"Toserba";"Toko Mandala";"96GC+CG2, Jl. Laksdya Leo Wattimena, Negeri Lama, Kec. Baguala, Kota Ambon, Maluku";"Kota Ambon, Maluku";"MALUKU";"";"Indonesia";"";"";"";"-3.6239847";"128.2212569";"https://maps.google.com/?cid=0x0:0x65af54f5eaa53eb7";""
"supermarket";"Minimarket";"Swalayan Citra";"855P+R3G, Jl. Tulukabessy, Kel Rijali, Kec. Sirimau, Kota Ambon, Maluku";"Kota Ambon, Maluku";"MALUKU";"";"Indonesia";"";"";"";"-3.6904318";"128.1852018";"https://maps.google.com/?cid=0x0:0x76846ef34223e0aa";""
"supermarket";"Toko bahan makanan";"Swalayan Indo Jaya";"852M+XG8, Jl. Yan Paays, Uritetu, Kec. Sirimau, Kota Ambon, Maluku";"Kota Ambon, Maluku";"MALUKU";"";"Indonesia";"";"";"";"-3.697587";"128.1838404";"https://maps.google.com/?cid=0x0:0xd5ffb8bdb2c4f290";""
"supermarket";"Toko bahan makanan";"Toko Serikat Makmur Abadi";"Perumnas Ruko Blok I, Waiheru, Kec. Baguala, Kota Ambon, Maluku";"Kota Ambon, Maluku";"MALUKU";"";"Indonesia";" 082399122224";"";"";"-3.6159679";"128.2163717";"https://maps.google.com/?cid=0x0:0x4608b8d6f8eabe88";""
"supermarket";"Toko Swalayan";"Alfa Swalayan";"86WG+HQ8, Latta, Kec. Baguala, Kota Ambon, Maluku";"Kota Ambon, Maluku";"MALUKU";"";"Indonesia";"";"";"";"-3.6535841";"128.2269673";"https://maps.google.com/?cid=0x0:0x871db68ca000068b";""
"supermarket";"Toko bahan makanan";"Kios Afive";"Dalam Asrama Haji, Waiheru, Kec. Baguala, Kota Ambon, Maluku 97233";"Waiheru, Kec. Baguala, Kota Ambon";"MALUKU";"97233";"Indonesia";" 085213834322";"";"";"-3.6248582";"128.2234107";"https://maps.google.com/?cid=0x0:0x9c1d6203df837f16";""
"supermarket";"Toko bahan makanan";"Pondok Berkah";"Pondok Berkah, Waiheru, Kec. Baguala, Kota Ambon, Maluku";"Kota Ambon, Maluku";"MALUKU";"";"Indonesia";"";"";"";"-3.6296329";"128.2139603";"https://maps.google.com/?cid=0x0:0xbbc60b583fb95d67";""
"supermarket";"Toko bahan makanan";"La Daeng Mart";"Depan SMA N 2, Jalan Bar Sugiarto, Puncak, Kota Masohi, Central Maluku Regency, Maluku 97511";"Jalan Bar Sugiarto, Puncak, Kota Masohi, Central Maluku Regency";"MALUKU";"97511";"Indonesia";" 085244212897";"";"";"-3.2986837";"128.9559293";"https://maps.google.com/?cid=0x0:0x85175cb5eab82d42";""
"supermarket";"Toko";"Toko ina ama";"PX37+73, Lesane, Kec. Kota Masohi, Kabupaten Maluku Tengah, Maluku";"Kabupaten Maluku Tengah, Maluku";"MALUKU";"";"Indonesia";"";"";"";"-3.2968197";"128.9626455";"https://maps.google.com/?cid=0x0:0x504ccb3864aac246";""
"supermarket";"Pusat Perbelanjaan";"Hypermart Maluku City Mall";"Jalan Jend. Sudirman, Hative Kecil, Kec. Sirimau, Kota Ambon, Maluku";"Kota Ambon, Maluku";"MALUKU";"";"Indonesia";" 0911319999";"";"";"-3.6702679";"128.1981163";"https://maps.google.com/?cid=0x0:0xf361af34b2474744";""
"supermarket";"Rumah Makan";"RISKY BAKSO";"city Mall, Hative Kecil, Kec. Sirimau, Kota Ambon, Maluku 97123";"Hative Kecil, Kec. Sirimau, Kota Ambon";"MALUKU";"97123";"Indonesia";" 081247966077";"";"";"-3.6710572";"128.1989674";"https://maps.google.com/?cid=0x0:0x893574d0d52f8a4";""
"supermarket";"supermarket";"Maluku 97511";"Ampera, Kec. Kota Masohi, Kabupaten Maluku Tengah, Maluku";"Kabupaten Maluku Tengah, Maluku";"MALUKU";"";"Indonesia";"";"";"";"-3.2986837";"128.9559293";"https://maps.google.com/?cid=0x0:0x208f85b200ee57be";""
"supermarket";"Toko";"Swalayan Tomia Baru";"PX26+6W5, Unnamed Road, Namaelo, Kec. Kota Masohi, Kabupaten Maluku Tengah, Maluku 97511";"Unnamed Road, Namaelo, Kec. Kota Masohi, Kabupaten Maluku Tengah";"MALUKU";"97511";"Indonesia";"";"";"";"-3.2994848";"128.962353";"https://maps.google.com/?cid=0x0:0xf06af0ee4b8665d8";""
"supermarket";"Minimarket";"Planet Mart";"PX25+5HG, Jl. Binaya, Namaelo, Kec. Kota Masohi, Kabupaten Maluku Tengah, Maluku";"Kabupaten Maluku Tengah, Maluku";"MALUKU";"";"Indonesia";"";"";"";"-3.2995726";"128.9589677";"https://maps.google.com/?cid=0x0:0x5512bb9edc8557f9";""
"supermarket";"Toko bahan makanan";"La Daeng Mart";"Depan SMA N 2, Jalan Bar Sugiarto, Puncak, Kota Masohi, Central Maluku Regency, Maluku 97511";"Jalan Bar Sugiarto, Puncak, Kota Masohi, Central Maluku Regency";"MALUKU";"97511";"Indonesia";" 085244212897";"";"";"-3.2986837";"128.9559293";"https://maps.google.com/?cid=0x0:0x85175cb5eab82d42";""
"supermarket";"Pasar";"Pasar Binaya Masohi";"Namaelo, Kec. Kota Masohi, Kabupaten Maluku Tengah, Maluku 97511";"Kec. Kota Masohi, Kabupaten Maluku Tengah";"MALUKU";"97511";"Indonesia";" 081343304423";"";"";"-3.2990378";"128.9562757";"https://maps.google.com/?cid=0x0:0xa5e95d9b0c5f0eff";""
"supermarket";"Minimarket";"JR Supermarket";"PXVH+HG8, Jl. Trans Seram, Makariki, Kec. Kota Masohi, Kabupaten Maluku Tengah, Maluku";"Kabupaten Maluku Tengah, Maluku";"MALUKU";"";"Indonesia";" 081340904340";"";"";"-3.2560937";"128.9788224";"https://maps.google.com/?cid=0x0:0x8917e8a1f6b2c8bf";""
"supermarket";"Toko";"Hotel  Mini Market Wangi Wangi";"PX26+7FH, Unnamed Road, Lesane, Kec. Kota Masohi, Kabupaten Maluku Tengah, Maluku 97511";"Unnamed Road, Lesane, Kec. Kota Masohi, Kabupaten Maluku Tengah";"MALUKU";"97511";"Indonesia";" 0914021831";"";"";"-3.2991529";"128.9618986";"https://maps.google.com/?cid=0x0:0x70b6cb752d4099a";""
"supermarket";"Toko bahan makanan";"Ratu Balqis MiniMart";"Jl. Kopra, Namaelo, Kec. Kota Masohi, Kabupaten Maluku Tengah, Maluku 97511";"Namaelo, Kec. Kota Masohi, Kabupaten Maluku Tengah";"MALUKU";"97511";"Indonesia";" 082298614667";"";"";"-3.3003422";"128.9562441";"https://maps.google.com/?cid=0x0:0xf2c62fdd64ef29ad";""
"supermarket";"Minimarket";"Aulia Mart";"PX25+HJ2, Jl. Manusela, Namasina, Kec. Kota Masohi, Kabupaten Maluku Tengah, Maluku";"Kabupaten Maluku Tengah, Maluku";"MALUKU";"";"Indonesia";"";"";"";"-3.2986144";"128.9590189";"https://maps.google.com/?cid=0x0:0x9d2caec645dd3861";""
"supermarket";"Toko Swalayan";"Toko MM Baru";"Namaelo, Kec. Kota Masohi, Kabupaten Maluku Tengah, Maluku";"Kabupaten Maluku Tengah, Maluku";"MALUKU";"";"Indonesia";"";"";"";"-3.3090747";"128.9518116";"https://maps.google.com/?cid=0x0:0x9c91bba51a8cb042";""
"supermarket";"Toko";"TOKO SEMBAKO MADANI MASOHI";"Jl. Manusela, Namaelo, Kec. Kota Masohi, Kabupaten Maluku Tengah, Maluku 97511";"Namaelo, Kec. Kota Masohi, Kabupaten Maluku Tengah";"MALUKU";"97511";"Indonesia";" 08112510099";"";"";"-3.2990926";"128.9580091";"https://maps.google.com/?cid=0x0:0xd75a80866371948f";""
"supermarket";"supermarket";"Ayudes Masohi";"PX23+5Q9, Ampera, Kec. Kota Masohi, Kabupaten Maluku Tengah, Maluku";"Kabupaten Maluku Tengah, Maluku";"MALUKU";"";"Indonesia";"";"";"";"-3.2995863";"128.9544725";"https://maps.google.com/?cid=0x0:0xebb29b933bf039b2";""
"supermarket";"Toko bahan makanan";"Toko Mm Lama";"MXR3+89M, Namaelo, Kec. Kota Masohi, Kabupaten Maluku Tengah, Maluku";"Kabupaten Maluku Tengah, Maluku";"MALUKU";"";"Indonesia";"";"";"";"-3.3091728";"128.9534181";"https://maps.google.com/?cid=0x0:0x652c66c1528f981d";""
"supermarket";"Toko bahan makanan";"Toko Pardidu";"MXR2+253, Namaelo, Kec. Kota Masohi, Kabupaten Maluku Tengah, Maluku";"Kabupaten Maluku Tengah, Maluku";"MALUKU";"";"Indonesia";"";"";"";"-3.309984";"128.9504289";"https://maps.google.com/?cid=0x0:0xde86dbff8b445b0d";""
"supermarket";"Toko";"Swalayan MARS";"MWRW+WGP, Namasina, Kec. Kota Masohi, Kabupaten Maluku Tengah, Maluku";"Kabupaten Maluku Tengah, Maluku";"MALUKU";"";"Indonesia";"";"";"";"-3.307696";"128.9463397";"https://maps.google.com/?cid=0x0:0x3664bdf979cc5505";""
"supermarket";"Minimarket";"MARS MART";"Jl. Chr.M.Tiahahu, Namasina, Kec. Kota Masohi, Kabupaten Maluku Tengah, Maluku 97511";"Namasina, Kec. Kota Masohi, Kabupaten Maluku Tengah";"MALUKU";"97511";"Indonesia";" 081343433488";"";"";"-3.3094943";"128.9447218";"https://maps.google.com/?cid=0x0:0x1ead6a162b6b94e9";""
"supermarket";"Restoran";"Godaan Masohi";"Jl.Abd.Soulissa No.RT.10, Lesane, Kec. Kota Masohi, Kabupaten Maluku Tengah, Maluku 97511";"Lesane, Kec. Kota Masohi, Kabupaten Maluku Tengah";"MALUKU";"97511";"Indonesia";" 081241349973";"";"";"-3.2970683";"128.9594185";"https://maps.google.com/?cid=0x0:0x15838972073ac12c";""
"supermarket";"Toko umum";"Toko Fitrian";"Namaelo, Kec. Kota Masohi, Kabupaten Maluku Tengah, Maluku";"Kabupaten Maluku Tengah, Maluku";"MALUKU";"";"Indonesia";"";"";"";"-3.3010528";"128.9572671";"https://maps.google.com/?cid=0x0:0x85726b09ad53c914";""
"supermarket";"Minimarket";"Kios " Adit Cell "";"MXX9+6QX, Letwaru, Kec. Kota Masohi, Kabupaten Maluku Tengah, Maluku";"Kabupaten Maluku Tengah, Maluku";"MALUKU";"";"Indonesia";" 081247975038";"";"";"-3.3018799";"128.9694839";"https://maps.google.com/?cid=0x0:0x2d65bb8bd23b6835";""
"supermarket";"Toko bahan makanan";"one piece";"Soahuku, Kec. Kota Masohi, Kabupaten Maluku Tengah, Maluku 97511";"Kec. Kota Masohi, Kabupaten Maluku Tengah";"MALUKU";"97511";"Indonesia";"";"";"";"-3.3389777";"128.9204962";"https://maps.google.com/?cid=0x0:0x3b45b86b11f775eb";""
"supermarket";"Kios";"Sembako";"Jl. Durian, Ampera, Kec. Kota Masohi, Kabupaten Maluku Tengah, Maluku 97511";"Ampera, Kec. Kota Masohi, Kabupaten Maluku Tengah";"MALUKU";"97511";"Indonesia";" 085244745787";"";"";"-3.2973835";"128.9563289";"https://maps.google.com/?cid=0x0:0x89b7bb9b8c685c2c";""
"supermarket";"Restoran";"RIANTI MART GRUP";"Jl. Abdullah Solissa No.297, Ampera, Kec. Kota Masohi, Kabupaten Maluku Tengah, Maluku";"Kabupaten Maluku Tengah, Maluku";"MALUKU";"";"Indonesia";"";"";"";"-3.3039652";"128.9504838";"https://maps.google.com/?cid=0x0:0xcac65a5a0caa5ffb";""
"supermarket";"Minimarket";"Kios Dyla";"PX24+3CF, Unnamed Road, Namaelo, Namaelo, Kec. Kota Masohi, Kabupaten Maluku Tengah, Maluku 97511";"Unnamed Road, Namaelo, Namaelo, Kec. Kota Masohi, Kabupaten Maluku Tengah";"MALUKU";"97511";"Indonesia";" 082399912345";"";"";"-3.2998041";"128.9560419";"https://maps.google.com/?cid=0x0:0x13d99a9867ada215";""
"supermarket";"Minimarket";"UD.TITASOMI";"Sugiarto, Sebelum naik tanjakan lorong cinta, Jl. Trans Seram, RT./RW/RW.15, Namaelo, Kec. Kota Masohi, Kabupaten Maluku Tengah, Maluku 97511";"Sebelum naik tanjakan lorong cinta, Jl. Trans Seram, RT./RW/RW.15, Namaelo, Kec. Kota Masohi, Kabupaten Maluku Tengah";"MALUKU";"97511";"Indonesia";" 081240243835";"";"";"-3.3039163";"128.9672413";"https://maps.google.com/?cid=0x0:0xd593ba38119675ef";""
"supermarket";"supermarket";"Kec. Kota Masohi";"Kabupaten Maluku Tengah, Maluku";"Kabupaten Maluku Tengah, Maluku";"MALUKU";"";"Indonesia";"";"";"";"-3.3000615";"128.9542861";"https://maps.google.com/?cid=0x0:0x22d2194857d48769";""
"supermarket";"Toko";"Swalayan Tomia Baru";"PX26+6W5, Unnamed Road, Namaelo, Kec. Kota Masohi, Kabupaten Maluku Tengah, Maluku 97511";"Unnamed Road, Namaelo, Kec. Kota Masohi, Kabupaten Maluku Tengah";"MALUKU";"97511";"Indonesia";"";"";"";"-3.2994848";"128.962353";"https://maps.google.com/?cid=0x0:0xf06af0ee4b8665d8";""
"supermarket";"Minimarket";"Planet Mart";"PX25+5HG, Jl. Binaya, Namaelo, Kec. Kota Masohi, Kabupaten Maluku Tengah, Maluku";"Kabupaten Maluku Tengah, Maluku";"MALUKU";"";"Indonesia";"";"";"";"-3.2995726";"128.9589677";"https://maps.google.com/?cid=0x0:0x5512bb9edc8557f9";""
"supermarket";"Toko bahan makanan";"Kios Hamdan";"MXW6+J4F, Jalan Bangau, Namaelo, Kec. Kota Masohi, Kabupaten Maluku Tengah, Maluku 97511";"Jalan Bangau, Namaelo, Kec. Kota Masohi, Kabupaten Maluku Tengah";"MALUKU";"97511";"Indonesia";"";"";"";"-3.3034427";"128.9602849";"https://maps.google.com/?cid=0x0:0xd7a2c26bb28d695d";""
"supermarket";"Toko bahan makanan";"Toko Mm Lama";"MXR3+89M, Namaelo, Kec. Kota Masohi, Kabupaten Maluku Tengah, Maluku";"Kabupaten Maluku Tengah, Maluku";"MALUKU";"";"Indonesia";"";"";"";"-3.3091728";"128.9534181";"https://maps.google.com/?cid=0x0:0x652c66c1528f981d";""
"supermarket";"Pasar";"Pasar Binaya Masohi";"Namaelo, Kec. Kota Masohi, Kabupaten Maluku Tengah, Maluku 97511";"Kec. Kota Masohi, Kabupaten Maluku Tengah";"MALUKU";"97511";"Indonesia";" 081343304423";"";"";"-3.2990378";"128.9562757";"https://maps.google.com/?cid=0x0:0xa5e95d9b0c5f0eff";""
"supermarket";"Minimarket";"Aulia Mart";"PX25+HJ2, Jl. Manusela, Namasina, Kec. Kota Masohi, Kabupaten Maluku Tengah, Maluku";"Kabupaten Maluku Tengah, Maluku";"MALUKU";"";"Indonesia";"";"";"";"-3.2986144";"128.9590189";"https://maps.google.com/?cid=0x0:0x9d2caec645dd3861";""
"supermarket";"Minimarket";"JR Supermarket";"PXVH+HG8, Jl. Trans Seram, Makariki, Kec. Kota Masohi, Kabupaten Maluku Tengah, Maluku";"Kabupaten Maluku Tengah, Maluku";"MALUKU";"";"Indonesia";" 081340904340";"";"";"-3.2560937";"128.9788224";"https://maps.google.com/?cid=0x0:0x8917e8a1f6b2c8bf";""
"supermarket";"Toko bahan makanan";"La Daeng Mart";"Depan SMA N 2, Jalan Bar Sugiarto, Puncak, Kota Masohi, Central Maluku Regency, Maluku 97511";"Jalan Bar Sugiarto, Puncak, Kota Masohi, Central Maluku Regency";"MALUKU";"97511";"Indonesia";" 085244212897";"";"";"-3.2986837";"128.9559293";"https://maps.google.com/?cid=0x0:0x85175cb5eab82d42";""
"supermarket";"Toko";"Hotel  Mini Market Wangi Wangi";"PX26+7FH, Unnamed Road, Lesane, Kec. Kota Masohi, Kabupaten Maluku Tengah, Maluku 97511";"Unnamed Road, Lesane, Kec. Kota Masohi, Kabupaten Maluku Tengah";"MALUKU";"97511";"Indonesia";" 0914021831";"";"";"-3.2991529";"128.9618986";"https://maps.google.com/?cid=0x0:0x70b6cb752d4099a";""
"supermarket";"Toko";"Swalayan MARS";"MWRW+WGP, Namasina, Kec. Kota Masohi, Kabupaten Maluku Tengah, Maluku";"Kabupaten Maluku Tengah, Maluku";"MALUKU";"";"Indonesia";"";"";"";"-3.307696";"128.9463397";"https://maps.google.com/?cid=0x0:0x3664bdf979cc5505";""
"supermarket";"Toko bahan makanan";"Ratu Balqis MiniMart";"Jl. Kopra, Namaelo, Kec. Kota Masohi, Kabupaten Maluku Tengah, Maluku 97511";"Namaelo, Kec. Kota Masohi, Kabupaten Maluku Tengah";"MALUKU";"97511";"Indonesia";" 082298614667";"";"";"-3.3003422";"128.9562441";"https://maps.google.com/?cid=0x0:0xf2c62fdd64ef29ad";""
"supermarket";"Toko Swalayan";"ARKAN MART";"PX26+M22, jl salahutu, RT.05/RW.04, Lesane, Kota Masohi, Central Maluku Regency, Maluku";"Kabupaten Maluku Tengah, Maluku";"MALUKU";"";"Indonesia";"";"";"";"-3.2983694";"128.9600037";"https://maps.google.com/?cid=0x0:0x42c1637b5ba4521c";""
"supermarket";"Toko Perlengkapan Rumah";"Toko Sinar";"MXX4+WMM, Jl. Cengkeh, Namaelo, Kec. Kota Masohi, Kabupaten Maluku Tengah, Maluku 97511";"Jl. Cengkeh, Namaelo, Kec. Kota Masohi, Kabupaten Maluku Tengah";"MALUKU";"97511";"Indonesia";"";"";"";"-3.3001742";"128.9566619";"https://maps.google.com/?cid=0x0:0xe90926999d325903";""
"supermarket";"Toko";"Toko BETHA";"PX24+JVJ, Namaelo, Kec. Kota Masohi, Kabupaten Maluku Tengah, Maluku";"Kabupaten Maluku Tengah, Maluku";"MALUKU";"";"Indonesia";"";"";"";"-3.2984149";"128.9571423";"https://maps.google.com/?cid=0x0:0x5b5c59f6e2fe2fb7";""
"supermarket";"Toko bahan makanan";"Toko Pardidu";"MXR2+253, Namaelo, Kec. Kota Masohi, Kabupaten Maluku Tengah, Maluku";"Kabupaten Maluku Tengah, Maluku";"MALUKU";"";"Indonesia";"";"";"";"-3.309984";"128.9504289";"https://maps.google.com/?cid=0x0:0xde86dbff8b445b0d";""
"supermarket";"supermarket";"Ayudes Masohi";"PX23+5Q9, Ampera, Kec. Kota Masohi, Kabupaten Maluku Tengah, Maluku";"Kabupaten Maluku Tengah, Maluku";"MALUKU";"";"Indonesia";"";"";"";"-3.2995863";"128.9544725";"https://maps.google.com/?cid=0x0:0xebb29b933bf039b2";""
"supermarket";"Toko";"KIOS PELANGI KASIH";"MWQV+WPH, Namasina, Kec. Kota Masohi, Kabupaten Maluku Tengah, Maluku";"Kabupaten Maluku Tengah, Maluku";"MALUKU";"";"Indonesia";" 082197874849";"";"";"-3.310188";"128.9443641";"https://maps.google.com/?cid=0x0:0x44b163adf0adf";""
"supermarket";"Minimarket";"MARS MART";"Jl. Chr.M.Tiahahu, Namasina, Kec. Kota Masohi, Kabupaten Maluku Tengah, Maluku 97511";"Namasina, Kec. Kota Masohi, Kabupaten Maluku Tengah";"MALUKU";"97511";"Indonesia";" 081343433488";"";"";"-3.3094943";"128.9447218";"https://maps.google.com/?cid=0x0:0x1ead6a162b6b94e9";""
"supermarket";"Minimarket";"Kios " Adit Cell "";"MXX9+6QX, Letwaru, Kec. Kota Masohi, Kabupaten Maluku Tengah, Maluku";"Kabupaten Maluku Tengah, Maluku";"MALUKU";"";"Indonesia";" 081247975038";"";"";"-3.3018799";"128.9694839";"https://maps.google.com/?cid=0x0:0x2d65bb8bd23b6835";""
"supermarket";"Toko";"TOKO ISTANA KOSMETIK DAN ALUMINIUM";"MXX4+MHW, Namaelo, Kec. Kota Masohi, Kabupaten Maluku Tengah, Maluku";"Kabupaten Maluku Tengah, Maluku";"MALUKU";"";"Indonesia";"";"";"";"-3.3007505";"128.9564674";"https://maps.google.com/?cid=0x0:0x5b3d12aa6cf25420";""
"supermarket";"Toko umum";"Toko Fitrian";"Namaelo, Kec. Kota Masohi, Kabupaten Maluku Tengah, Maluku";"Kabupaten Maluku Tengah, Maluku";"MALUKU";"";"Indonesia";"";"";"";"-3.3010528";"128.9572671";"https://maps.google.com/?cid=0x0:0x85726b09ad53c914";""
"supermarket";"Toko Swalayan";"Matahari Mart";"Jl. Trans Seram, Haruru, Kec. Amahai, Kabupaten Maluku Tengah, Maluku";"Kabupaten Maluku Tengah, Maluku";"MALUKU";"";"Indonesia";" 082198281372";"";"";"-3.2909027";"128.9680723";"https://maps.google.com/?cid=0x0:0x8c6c9d9f38aa725";""
"supermarket";"Pusat Perbelanjaan";"Toko Bangunan ACIM BARU";"Namaelo, Kec. Kota Masohi, Kabupaten Maluku Tengah, Maluku";"Kabupaten Maluku Tengah, Maluku";"MALUKU";"";"Indonesia";" 082399119777";"";"";"-3.299574";"128.9570793";"https://maps.google.com/?cid=0x0:0xe6f69ec76d2fd7b0";""
"supermarket";"Minimarket";"Kios mabar";"MXX8+HM9, Letwaru, Kec. Kota Masohi, Kabupaten Maluku Tengah, Maluku";"Kabupaten Maluku Tengah, Maluku";"MALUKU";"";"Indonesia";"";"";"";"-3.3010818";"128.9667319";"https://maps.google.com/?cid=0x0:0x5d8be913f30ea25a";""
"supermarket";"supermarket";"Kec. Kota Masohi";"Kabupaten Maluku Tengah, Maluku";"Kabupaten Maluku Tengah, Maluku";"MALUKU";"";"Indonesia";"";"";"";"-3.3000615";"128.9542861";"https://maps.google.com/?cid=0x0:0x22d2194857d48769";""
"supermarket";"Toko";"Swalayan Tomia Baru";"PX26+6W5, Unnamed Road, Namaelo, Kec. Kota Masohi, Kabupaten Maluku Tengah, Maluku 97511";"Unnamed Road, Namaelo, Kec. Kota Masohi, Kabupaten Maluku Tengah";"MALUKU";"97511";"Indonesia";"";"";"";"-3.2994848";"128.962353";"https://maps.google.com/?cid=0x0:0xf06af0ee4b8665d8";""
"supermarket";"Minimarket";"Planet Mart";"PX25+5HG, Jl. Binaya, Namaelo, Kec. Kota Masohi, Kabupaten Maluku Tengah, Maluku";"Kabupaten Maluku Tengah, Maluku";"MALUKU";"";"Indonesia";"";"";"";"-3.2995726";"128.9589677";"https://maps.google.com/?cid=0x0:0x5512bb9edc8557f9";""
"supermarket";"Toko Swalayan";"Toko MM Baru";"Namaelo, Kec. Kota Masohi, Kabupaten Maluku Tengah, Maluku";"Kabupaten Maluku Tengah, Maluku";"MALUKU";"";"Indonesia";"";"";"";"-3.3090747";"128.9518116";"https://maps.google.com/?cid=0x0:0x9c91bba51a8cb042";""
"supermarket";"Toko bahan makanan";"Toko Mm Lama";"MXR3+89M, Namaelo, Kec. Kota Masohi, Kabupaten Maluku Tengah, Maluku";"Kabupaten Maluku Tengah, Maluku";"MALUKU";"";"Indonesia";"";"";"";"-3.3091728";"128.9534181";"https://maps.google.com/?cid=0x0:0x652c66c1528f981d";""
"supermarket";"Pasar";"Pasar Binaya Masohi";"Namaelo, Kec. Kota Masohi, Kabupaten Maluku Tengah, Maluku 97511";"Kec. Kota Masohi, Kabupaten Maluku Tengah";"MALUKU";"97511";"Indonesia";" 081343304423";"";"";"-3.2990378";"128.9562757";"https://maps.google.com/?cid=0x0:0xa5e95d9b0c5f0eff";""
"supermarket";"Minimarket";"Aulia Mart";"PX25+HJ2, Jl. Manusela, Namasina, Kec. Kota Masohi, Kabupaten Maluku Tengah, Maluku";"Kabupaten Maluku Tengah, Maluku";"MALUKU";"";"Indonesia";"";"";"";"-3.2986144";"128.9590189";"https://maps.google.com/?cid=0x0:0x9d2caec645dd3861";""
"supermarket";"Toko";"Hotel  Mini Market Wangi Wangi";"PX26+7FH, Unnamed Road, Lesane, Kec. Kota Masohi, Kabupaten Maluku Tengah, Maluku 97511";"Unnamed Road, Lesane, Kec. Kota Masohi, Kabupaten Maluku Tengah";"MALUKU";"97511";"Indonesia";" 0914021831";"";"";"-3.2991529";"128.9618986";"https://maps.google.com/?cid=0x0:0x70b6cb752d4099a";""
"supermarket";"Minimarket";"JR Supermarket";"PXVH+HG8, Jl. Trans Seram, Makariki, Kec. Kota Masohi, Kabupaten Maluku Tengah, Maluku";"Kabupaten Maluku Tengah, Maluku";"MALUKU";"";"Indonesia";" 081340904340";"";"";"-3.2560937";"128.9788224";"https://maps.google.com/?cid=0x0:0x8917e8a1f6b2c8bf";""
"supermarket";"Toko";"Swalayan MARS";"MWRW+WGP, Namasina, Kec. Kota Masohi, Kabupaten Maluku Tengah, Maluku";"Kabupaten Maluku Tengah, Maluku";"MALUKU";"";"Indonesia";"";"";"";"-3.307696";"128.9463397";"https://maps.google.com/?cid=0x0:0x3664bdf979cc5505";""
"supermarket";"Toko bahan makanan";"La Daeng Mart";"Depan SMA N 2, Jalan Bar Sugiarto, Puncak, Kota Masohi, Central Maluku Regency, Maluku 97511";"Jalan Bar Sugiarto, Puncak, Kota Masohi, Central Maluku Regency";"MALUKU";"97511";"Indonesia";" 085244212897";"";"";"-3.2986837";"128.9559293";"https://maps.google.com/?cid=0x0:0x85175cb5eab82d42";""
"supermarket";"Toko Swalayan";"ARKAN MART";"PX26+M22, jl salahutu, RT.05/RW.04, Lesane, Kota Masohi, Central Maluku Regency, Maluku";"Kabupaten Maluku Tengah, Maluku";"MALUKU";"";"Indonesia";"";"";"";"-3.2983694";"128.9600037";"https://maps.google.com/?cid=0x0:0x42c1637b5ba4521c";""
"supermarket";"Toko bahan makanan";"Ratu Balqis MiniMart";"Jl. Kopra, Namaelo, Kec. Kota Masohi, Kabupaten Maluku Tengah, Maluku 97511";"Namaelo, Kec. Kota Masohi, Kabupaten Maluku Tengah";"MALUKU";"97511";"Indonesia";" 082298614667";"";"";"-3.3003422";"128.9562441";"https://maps.google.com/?cid=0x0:0xf2c62fdd64ef29ad";""
"supermarket";"Toko Perlengkapan Rumah";"Toko Sinar";"MXX4+WMM, Jl. Cengkeh, Namaelo, Kec. Kota Masohi, Kabupaten Maluku Tengah, Maluku 97511";"Jl. Cengkeh, Namaelo, Kec. Kota Masohi, Kabupaten Maluku Tengah";"MALUKU";"97511";"Indonesia";"";"";"";"-3.3001742";"128.9566619";"https://maps.google.com/?cid=0x0:0xe90926999d325903";""
"supermarket";"Toko";"Toko BETHA";"PX24+JVJ, Namaelo, Kec. Kota Masohi, Kabupaten Maluku Tengah, Maluku";"Kabupaten Maluku Tengah, Maluku";"MALUKU";"";"Indonesia";"";"";"";"-3.2984149";"128.9571423";"https://maps.google.com/?cid=0x0:0x5b5c59f6e2fe2fb7";""
"supermarket";"Toko bahan makanan";"Toko Pardidu";"MXR2+253, Namaelo, Kec. Kota Masohi, Kabupaten Maluku Tengah, Maluku";"Kabupaten Maluku Tengah, Maluku";"MALUKU";"";"Indonesia";"";"";"";"-3.309984";"128.9504289";"https://maps.google.com/?cid=0x0:0xde86dbff8b445b0d";""
"supermarket";"supermarket";"Ayudes Masohi";"PX23+5Q9, Ampera, Kec. Kota Masohi, Kabupaten Maluku Tengah, Maluku";"Kabupaten Maluku Tengah, Maluku";"MALUKU";"";"Indonesia";"";"";"";"-3.2995863";"128.9544725";"https://maps.google.com/?cid=0x0:0xebb29b933bf039b2";""
"supermarket";"Toko";"KIOS PELANGI KASIH";"MWQV+WPH, Namasina, Kec. Kota Masohi, Kabupaten Maluku Tengah, Maluku";"Kabupaten Maluku Tengah, Maluku";"MALUKU";"";"Indonesia";" 082197874849";"";"";"-3.310188";"128.9443641";"https://maps.google.com/?cid=0x0:0x44b163adf0adf";""
"supermarket";"Minimarket";"Kios " Adit Cell "";"MXX9+6QX, Letwaru, Kec. Kota Masohi, Kabupaten Maluku Tengah, Maluku";"Kabupaten Maluku Tengah, Maluku";"MALUKU";"";"Indonesia";" 081247975038";"";"";"-3.3018799";"128.9694839";"https://maps.google.com/?cid=0x0:0x2d65bb8bd23b6835";""
"supermarket";"Minimarket";"MARS MART";"Jl. Chr.M.Tiahahu, Namasina, Kec. Kota Masohi, Kabupaten Maluku Tengah, Maluku 97511";"Namasina, Kec. Kota Masohi, Kabupaten Maluku Tengah";"MALUKU";"97511";"Indonesia";" 081343433488";"";"";"-3.3094943";"128.9447218";"https://maps.google.com/?cid=0x0:0x1ead6a162b6b94e9";""
"supermarket";"Restoran";"RIANTI MART GRUP";"Jl. Abdullah Solissa No.297, Ampera, Kec. Kota Masohi, Kabupaten Maluku Tengah, Maluku";"Kabupaten Maluku Tengah, Maluku";"MALUKU";"";"Indonesia";"";"";"";"-3.3039652";"128.9504838";"https://maps.google.com/?cid=0x0:0xcac65a5a0caa5ffb";""
"supermarket";"Toko";"TOKO ISTANA KOSMETIK DAN ALUMINIUM";"MXX4+MHW, Namaelo, Kec. Kota Masohi, Kabupaten Maluku Tengah, Maluku";"Kabupaten Maluku Tengah, Maluku";"MALUKU";"";"Indonesia";"";"";"";"-3.3007505";"128.9564674";"https://maps.google.com/?cid=0x0:0x5b3d12aa6cf25420";""
"supermarket";"Toko umum";"Toko Fitrian";"Namaelo, Kec. Kota Masohi, Kabupaten Maluku Tengah, Maluku";"Kabupaten Maluku Tengah, Maluku";"MALUKU";"";"Indonesia";"";"";"";"-3.3010528";"128.9572671";"https://maps.google.com/?cid=0x0:0x85726b09ad53c914";""
"supermarket";"Toko Swalayan";"Matahari Mart";"Jl. Trans Seram, Haruru, Kec. Amahai, Kabupaten Maluku Tengah, Maluku";"Kabupaten Maluku Tengah, Maluku";"MALUKU";"";"Indonesia";" 082198281372";"";"";"-3.2909027";"128.9680723";"https://maps.google.com/?cid=0x0:0x8c6c9d9f38aa725";""
"supermarket";"Pusat Perbelanjaan";"Toko Bangunan ACIM BARU";"Namaelo, Kec. Kota Masohi, Kabupaten Maluku Tengah, Maluku";"Kabupaten Maluku Tengah, Maluku";"MALUKU";"";"Indonesia";" 082399119777";"";"";"-3.299574";"128.9570793";"https://maps.google.com/?cid=0x0:0xe6f69ec76d2fd7b0";""
"supermarket";"supermarket";"Kec. Kota Masohi";"Kabupaten Maluku Tengah, Maluku";"Kabupaten Maluku Tengah, Maluku";"MALUKU";"";"Indonesia";"";"";"";"-3.3000615";"128.9542861";"https://maps.google.com/?cid=0x0:0x22d2194857d48769";""
"supermarket";"Toko";"Swalayan Tomia Baru";"PX26+6W5, Unnamed Road, Namaelo, Kec. Kota Masohi, Kabupaten Maluku Tengah, Maluku 97511";"Unnamed Road, Namaelo, Kec. Kota Masohi, Kabupaten Maluku Tengah";"MALUKU";"97511";"Indonesia";"";"";"";"-3.2994848";"128.962353";"https://maps.google.com/?cid=0x0:0xf06af0ee4b8665d8";""
"supermarket";"Toko Swalayan";"Toko MM Baru";"Namaelo, Kec. Kota Masohi, Kabupaten Maluku Tengah, Maluku";"Kabupaten Maluku Tengah, Maluku";"MALUKU";"";"Indonesia";"";"";"";"-3.3090747";"128.9518116";"https://maps.google.com/?cid=0x0:0x9c91bba51a8cb042";""
"supermarket";"Toko bahan makanan";"Toko Mm Lama";"MXR3+89M, Namaelo, Kec. Kota Masohi, Kabupaten Maluku Tengah, Maluku";"Kabupaten Maluku Tengah, Maluku";"MALUKU";"";"Indonesia";"";"";"";"-3.3091728";"128.9534181";"https://maps.google.com/?cid=0x0:0x652c66c1528f981d";""
"supermarket";"Toko bahan makanan";"Kios Hamdan";"MXW6+J4F, Jalan Bangau, Namaelo, Kec. Kota Masohi, Kabupaten Maluku Tengah, Maluku 97511";"Jalan Bangau, Namaelo, Kec. Kota Masohi, Kabupaten Maluku Tengah";"MALUKU";"97511";"Indonesia";"";"";"";"-3.3034427";"128.9602849";"https://maps.google.com/?cid=0x0:0xd7a2c26bb28d695d";""
"supermarket";"Minimarket";"Aulia Mart";"PX25+HJ2, Jl. Manusela, Namasina, Kec. Kota Masohi, Kabupaten Maluku Tengah, Maluku";"Kabupaten Maluku Tengah, Maluku";"MALUKU";"";"Indonesia";"";"";"";"-3.2986144";"128.9590189";"https://maps.google.com/?cid=0x0:0x9d2caec645dd3861";""
"supermarket";"Toko Swalayan";"ARKAN MART";"PX26+M22, jl salahutu, RT.05/RW.04, Lesane, Kota Masohi, Central Maluku Regency, Maluku";"Kabupaten Maluku Tengah, Maluku";"MALUKU";"";"Indonesia";"";"";"";"-3.2983694";"128.9600037";"https://maps.google.com/?cid=0x0:0x42c1637b5ba4521c";""
"supermarket";"Toko bahan makanan";"Ratu Balqis MiniMart";"Jl. Kopra, Namaelo, Kec. Kota Masohi, Kabupaten Maluku Tengah, Maluku 97511";"Namaelo, Kec. Kota Masohi, Kabupaten Maluku Tengah";"MALUKU";"97511";"Indonesia";" 082298614667";"";"";"-3.3003422";"128.9562441";"https://maps.google.com/?cid=0x0:0xf2c62fdd64ef29ad";""
"supermarket";"Toko bahan makanan";"La Daeng Mart";"Depan SMA N 2, Jalan Bar Sugiarto, Puncak, Kota Masohi, Central Maluku Regency, Maluku 97511";"Jalan Bar Sugiarto, Puncak, Kota Masohi, Central Maluku Regency";"MALUKU";"97511";"Indonesia";" 085244212897";"";"";"-3.2986837";"128.9559293";"https://maps.google.com/?cid=0x0:0x85175cb5eab82d42";""
"supermarket";"Minimarket";"JR Supermarket";"PXVH+HG8, Jl. Trans Seram, Makariki, Kec. Kota Masohi, Kabupaten Maluku Tengah, Maluku";"Kabupaten Maluku Tengah, Maluku";"MALUKU";"";"Indonesia";" 081340904340";"";"";"-3.2560937";"128.9788224";"https://maps.google.com/?cid=0x0:0x8917e8a1f6b2c8bf";""
"supermarket";"Pasar";"Pasar Binaya Masohi";"Namaelo, Kec. Kota Masohi, Kabupaten Maluku Tengah, Maluku 97511";"Kec. Kota Masohi, Kabupaten Maluku Tengah";"MALUKU";"97511";"Indonesia";" 081343304423";"";"";"-3.2990378";"128.9562757";"https://maps.google.com/?cid=0x0:0xa5e95d9b0c5f0eff";""
"supermarket";"Toko";"Hotel  Mini Market Wangi Wangi";"PX26+7FH, Unnamed Road, Lesane, Kec. Kota Masohi, Kabupaten Maluku Tengah, Maluku 97511";"Unnamed Road, Lesane, Kec. Kota Masohi, Kabupaten Maluku Tengah";"MALUKU";"97511";"Indonesia";" 0914021831";"";"";"-3.2991529";"128.9618986";"https://maps.google.com/?cid=0x0:0x70b6cb752d4099a";""
"supermarket";"Toko";"Swalayan MARS";"MWRW+WGP, Namasina, Kec. Kota Masohi, Kabupaten Maluku Tengah, Maluku";"Kabupaten Maluku Tengah, Maluku";"MALUKU";"";"Indonesia";"";"";"";"-3.307696";"128.9463397";"https://maps.google.com/?cid=0x0:0x3664bdf979cc5505";""
"supermarket";"Toko Perlengkapan Rumah";"Toko Sinar";"MXX4+WMM, Jl. Cengkeh, Namaelo, Kec. Kota Masohi, Kabupaten Maluku Tengah, Maluku 97511";"Jl. Cengkeh, Namaelo, Kec. Kota Masohi, Kabupaten Maluku Tengah";"MALUKU";"97511";"Indonesia";"";"";"";"-3.3001742";"128.9566619";"https://maps.google.com/?cid=0x0:0xe90926999d325903";""
"supermarket";"Toko";"Toko BETHA";"PX24+JVJ, Namaelo, Kec. Kota Masohi, Kabupaten Maluku Tengah, Maluku";"Kabupaten Maluku Tengah, Maluku";"MALUKU";"";"Indonesia";"";"";"";"-3.2984149";"128.9571423";"https://maps.google.com/?cid=0x0:0x5b5c59f6e2fe2fb7";""
"supermarket";"Toko bahan makanan";"Toko Pardidu";"MXR2+253, Namaelo, Kec. Kota Masohi, Kabupaten Maluku Tengah, Maluku";"Kabupaten Maluku Tengah, Maluku";"MALUKU";"";"Indonesia";"";"";"";"-3.309984";"128.9504289";"https://maps.google.com/?cid=0x0:0xde86dbff8b445b0d";""
"supermarket";"Restoran";"RIANTI MART GRUP";"Jl. Abdullah Solissa No.297, Ampera, Kec. Kota Masohi, Kabupaten Maluku Tengah, Maluku";"Kabupaten Maluku Tengah, Maluku";"MALUKU";"";"Indonesia";"";"";"";"-3.3039652";"128.9504838";"https://maps.google.com/?cid=0x0:0xcac65a5a0caa5ffb";""
"supermarket";"supermarket";"Ayudes Masohi";"PX23+5Q9, Ampera, Kec. Kota Masohi, Kabupaten Maluku Tengah, Maluku";"Kabupaten Maluku Tengah, Maluku";"MALUKU";"";"Indonesia";"";"";"";"-3.2995863";"128.9544725";"https://maps.google.com/?cid=0x0:0xebb29b933bf039b2";""
"supermarket";"Toko Swalayan";"Matahari Mart";"Jl. Trans Seram, Haruru, Kec. Amahai, Kabupaten Maluku Tengah, Maluku";"Kabupaten Maluku Tengah, Maluku";"MALUKU";"";"Indonesia";" 082198281372";"";"";"-3.2909027";"128.9680723";"https://maps.google.com/?cid=0x0:0x8c6c9d9f38aa725";""
"supermarket";"Minimarket";"Kios " Adit Cell "";"MXX9+6QX, Letwaru, Kec. Kota Masohi, Kabupaten Maluku Tengah, Maluku";"Kabupaten Maluku Tengah, Maluku";"MALUKU";"";"Indonesia";" 081247975038";"";"";"-3.3018799";"128.9694839";"https://maps.google.com/?cid=0x0:0x2d65bb8bd23b6835";""
"supermarket";"Toko";"TOKO ISTANA KOSMETIK DAN ALUMINIUM";"MXX4+MHW, Namaelo, Kec. Kota Masohi, Kabupaten Maluku Tengah, Maluku";"Kabupaten Maluku Tengah, Maluku";"MALUKU";"";"Indonesia";"";"";"";"-3.3007505";"128.9564674";"https://maps.google.com/?cid=0x0:0x5b3d12aa6cf25420";""
"supermarket";"Pusat Perbelanjaan";"Toko Bangunan ACIM BARU";"Namaelo, Kec. Kota Masohi, Kabupaten Maluku Tengah, Maluku";"Kabupaten Maluku Tengah, Maluku";"MALUKU";"";"Indonesia";" 082399119777";"";"";"-3.299574";"128.9570793";"https://maps.google.com/?cid=0x0:0xe6f69ec76d2fd7b0";""
"supermarket";"Toko";"Toko Mahkota Masohi";"MWRV+5VR, Jl. Chr.M.Tiahahu, Amahai, Kec. Amahai, Kabupaten Maluku Tengah, Maluku";"Kabupaten Maluku Tengah, Maluku";"MALUKU";"";"Indonesia";" 082198012265";"";"";"-3.3095212";"128.9446513";"https://maps.google.com/?cid=0x0:0x45d4fa9e28a05206";""
"supermarket";"Minimarket";"Toko Bisma";"RT.13, Haruru, Kec. Amahai, Kabupaten Maluku Tengah, Maluku";"Kabupaten Maluku Tengah, Maluku";"MALUKU";"";"Indonesia";"";"";"";"-3.2831312";"128.9720822";"https://maps.google.com/?cid=0x0:0x65da30d2310375f8";""
"supermarket";"Kios";"Sembako";"Jl. Durian, Ampera, Kec. Kota Masohi, Kabupaten Maluku Tengah, Maluku 97511";"Ampera, Kec. Kota Masohi, Kabupaten Maluku Tengah";"MALUKU";"97511";"Indonesia";" 085244745787";"";"";"-3.2973835";"128.9563289";"https://maps.google.com/?cid=0x0:0x89b7bb9b8c685c2c";""
"supermarket";"Toko";"KIOS PELANGI KASIH";"MWQV+WPH, Namasina, Kec. Kota Masohi, Kabupaten Maluku Tengah, Maluku";"Kabupaten Maluku Tengah, Maluku";"MALUKU";"";"Indonesia";" 082197874849";"";"";"-3.310188";"128.9443641";"https://maps.google.com/?cid=0x0:0x44b163adf0adf";""
"supermarket";"supermarket";"Kec. Kota Masohi";"Kabupaten Maluku Tengah, Maluku";"Kabupaten Maluku Tengah, Maluku";"MALUKU";"";"Indonesia";"";"";"";"-3.3000615";"128.9542861";"https://maps.google.com/?cid=0x0:0x22d2194857d48769";""
"supermarket";"Toko";"Swalayan Tomia Baru";"PX26+6W5, Unnamed Road, Namaelo, Kec. Kota Masohi, Kabupaten Maluku Tengah, Maluku 97511";"Unnamed Road, Namaelo, Kec. Kota Masohi, Kabupaten Maluku Tengah";"MALUKU";"97511";"Indonesia";"";"";"";"-3.2994848";"128.962353";"https://maps.google.com/?cid=0x0:0xf06af0ee4b8665d8";""
"supermarket";"Minimarket";"Planet Mart";"PX25+5HG, Jl. Binaya, Namaelo, Kec. Kota Masohi, Kabupaten Maluku Tengah, Maluku";"Kabupaten Maluku Tengah, Maluku";"MALUKU";"";"Indonesia";"";"";"";"-3.2995726";"128.9589677";"https://maps.google.com/?cid=0x0:0x5512bb9edc8557f9";""
"supermarket";"Toko bahan makanan";"Kios Hamdan";"MXW6+J4F, Jalan Bangau, Namaelo, Kec. Kota Masohi, Kabupaten Maluku Tengah, Maluku 97511";"Jalan Bangau, Namaelo, Kec. Kota Masohi, Kabupaten Maluku Tengah";"MALUKU";"97511";"Indonesia";"";"";"";"-3.3034427";"128.9602849";"https://maps.google.com/?cid=0x0:0xd7a2c26bb28d695d";""
"supermarket";"Toko bahan makanan";"Toko Mm Lama";"MXR3+89M, Namaelo, Kec. Kota Masohi, Kabupaten Maluku Tengah, Maluku";"Kabupaten Maluku Tengah, Maluku";"MALUKU";"";"Indonesia";"";"";"";"-3.3091728";"128.9534181";"https://maps.google.com/?cid=0x0:0x652c66c1528f981d";""
"supermarket";"Pasar";"Pasar Binaya Masohi";"Namaelo, Kec. Kota Masohi, Kabupaten Maluku Tengah, Maluku 97511";"Kec. Kota Masohi, Kabupaten Maluku Tengah";"MALUKU";"97511";"Indonesia";" 081343304423";"";"";"-3.2990378";"128.9562757";"https://maps.google.com/?cid=0x0:0xa5e95d9b0c5f0eff";""
"supermarket";"Toko";"Hotel  Mini Market Wangi Wangi";"PX26+7FH, Unnamed Road, Lesane, Kec. Kota Masohi, Kabupaten Maluku Tengah, Maluku 97511";"Unnamed Road, Lesane, Kec. Kota Masohi, Kabupaten Maluku Tengah";"MALUKU";"97511";"Indonesia";" 0914021831";"";"";"-3.2991529";"128.9618986";"https://maps.google.com/?cid=0x0:0x70b6cb752d4099a";""
"supermarket";"Minimarket";"Aulia Mart";"PX25+HJ2, Jl. Manusela, Namasina, Kec. Kota Masohi, Kabupaten Maluku Tengah, Maluku";"Kabupaten Maluku Tengah, Maluku";"MALUKU";"";"Indonesia";"";"";"";"-3.2986144";"128.9590189";"https://maps.google.com/?cid=0x0:0x9d2caec645dd3861";""
"supermarket";"Minimarket";"JR Supermarket";"PXVH+HG8, Jl. Trans Seram, Makariki, Kec. Kota Masohi, Kabupaten Maluku Tengah, Maluku";"Kabupaten Maluku Tengah, Maluku";"MALUKU";"";"Indonesia";" 081340904340";"";"";"-3.2560937";"128.9788224";"https://maps.google.com/?cid=0x0:0x8917e8a1f6b2c8bf";""
"supermarket";"Toko";"Swalayan MARS";"MWRW+WGP, Namasina, Kec. Kota Masohi, Kabupaten Maluku Tengah, Maluku";"Kabupaten Maluku Tengah, Maluku";"MALUKU";"";"Indonesia";"";"";"";"-3.307696";"128.9463397";"https://maps.google.com/?cid=0x0:0x3664bdf979cc5505";""
"supermarket";"Toko bahan makanan";"La Daeng Mart";"Depan SMA N 2, Jalan Bar Sugiarto, Puncak, Kota Masohi, Central Maluku Regency, Maluku 97511";"Jalan Bar Sugiarto, Puncak, Kota Masohi, Central Maluku Regency";"MALUKU";"97511";"Indonesia";" 085244212897";"";"";"-3.2986837";"128.9559293";"https://maps.google.com/?cid=0x0:0x85175cb5eab82d42";""
"supermarket";"Toko Perlengkapan Rumah";"Toko Sinar";"MXX4+WMM, Jl. Cengkeh, Namaelo, Kec. Kota Masohi, Kabupaten Maluku Tengah, Maluku 97511";"Jl. Cengkeh, Namaelo, Kec. Kota Masohi, Kabupaten Maluku Tengah";"MALUKU";"97511";"Indonesia";"";"";"";"-3.3001742";"128.9566619";"https://maps.google.com/?cid=0x0:0xe90926999d325903";""
"supermarket";"Toko bahan makanan";"Ratu Balqis MiniMart";"Jl. Kopra, Namaelo, Kec. Kota Masohi, Kabupaten Maluku Tengah, Maluku 97511";"Namaelo, Kec. Kota Masohi, Kabupaten Maluku Tengah";"MALUKU";"97511";"Indonesia";" 082298614667";"";"";"-3.3003422";"128.9562441";"https://maps.google.com/?cid=0x0:0xf2c62fdd64ef29ad";""
"supermarket";"Toko";"Toko BETHA";"PX24+JVJ, Namaelo, Kec. Kota Masohi, Kabupaten Maluku Tengah, Maluku";"Kabupaten Maluku Tengah, Maluku";"MALUKU";"";"Indonesia";"";"";"";"-3.2984149";"128.9571423";"https://maps.google.com/?cid=0x0:0x5b5c59f6e2fe2fb7";""
"supermarket";"Toko Swalayan";"ARKAN MART";"PX26+M22, jl salahutu, RT.05/RW.04, Lesane, Kota Masohi, Central Maluku Regency, Maluku";"Kabupaten Maluku Tengah, Maluku";"MALUKU";"";"Indonesia";"";"";"";"-3.2983694";"128.9600037";"https://maps.google.com/?cid=0x0:0x42c1637b5ba4521c";""
"supermarket";"Toko bahan makanan";"Toko Pardidu";"MXR2+253, Namaelo, Kec. Kota Masohi, Kabupaten Maluku Tengah, Maluku";"Kabupaten Maluku Tengah, Maluku";"MALUKU";"";"Indonesia";"";"";"";"-3.309984";"128.9504289";"https://maps.google.com/?cid=0x0:0xde86dbff8b445b0d";""
"supermarket";"supermarket";"Ayudes Masohi";"PX23+5Q9, Ampera, Kec. Kota Masohi, Kabupaten Maluku Tengah, Maluku";"Kabupaten Maluku Tengah, Maluku";"MALUKU";"";"Indonesia";"";"";"";"-3.2995863";"128.9544725";"https://maps.google.com/?cid=0x0:0xebb29b933bf039b2";""
"supermarket";"Toko";"KIOS PELANGI KASIH";"MWQV+WPH, Namasina, Kec. Kota Masohi, Kabupaten Maluku Tengah, Maluku";"Kabupaten Maluku Tengah, Maluku";"MALUKU";"";"Indonesia";" 082197874849";"";"";"-3.310188";"128.9443641";"https://maps.google.com/?cid=0x0:0x44b163adf0adf";""
"supermarket";"Minimarket";"Kios " Adit Cell "";"MXX9+6QX, Letwaru, Kec. Kota Masohi, Kabupaten Maluku Tengah, Maluku";"Kabupaten Maluku Tengah, Maluku";"MALUKU";"";"Indonesia";" 081247975038";"";"";"-3.3018799";"128.9694839";"https://maps.google.com/?cid=0x0:0x2d65bb8bd23b6835";""
"supermarket";"Minimarket";"MARS MART";"Jl. Chr.M.Tiahahu, Namasina, Kec. Kota Masohi, Kabupaten Maluku Tengah, Maluku 97511";"Namasina, Kec. Kota Masohi, Kabupaten Maluku Tengah";"MALUKU";"97511";"Indonesia";" 081343433488";"";"";"-3.3094943";"128.9447218";"https://maps.google.com/?cid=0x0:0x1ead6a162b6b94e9";""
"supermarket";"Toko";"TOKO ISTANA KOSMETIK DAN ALUMINIUM";"MXX4+MHW, Namaelo, Kec. Kota Masohi, Kabupaten Maluku Tengah, Maluku";"Kabupaten Maluku Tengah, Maluku";"MALUKU";"";"Indonesia";"";"";"";"-3.3007505";"128.9564674";"https://maps.google.com/?cid=0x0:0x5b3d12aa6cf25420";""
"supermarket";"Toko umum";"Toko Fitrian";"Namaelo, Kec. Kota Masohi, Kabupaten Maluku Tengah, Maluku";"Kabupaten Maluku Tengah, Maluku";"MALUKU";"";"Indonesia";"";"";"";"-3.3010528";"128.9572671";"https://maps.google.com/?cid=0x0:0x85726b09ad53c914";""
"supermarket";"Toko Swalayan";"Matahari Mart";"Jl. Trans Seram, Haruru, Kec. Amahai, Kabupaten Maluku Tengah, Maluku";"Kabupaten Maluku Tengah, Maluku";"MALUKU";"";"Indonesia";" 082198281372";"";"";"-3.2909027";"128.9680723";"https://maps.google.com/?cid=0x0:0x8c6c9d9f38aa725";""
"supermarket";"Pusat Perbelanjaan";"Toko Bangunan ACIM BARU";"Namaelo, Kec. Kota Masohi, Kabupaten Maluku Tengah, Maluku";"Kabupaten Maluku Tengah, Maluku";"MALUKU";"";"Indonesia";" 082399119777";"";"";"-3.299574";"128.9570793";"https://maps.google.com/?cid=0x0:0xe6f69ec76d2fd7b0";""
"supermarket";"Restoran";"Godaan Masohi";"Jl.Abd.Soulissa No.RT.10, Lesane, Kec. Kota Masohi, Kabupaten Maluku Tengah, Maluku 97511";"Lesane, Kec. Kota Masohi, Kabupaten Maluku Tengah";"MALUKU";"97511";"Indonesia";" 081241349973";"";"";"-3.2970683";"128.9594185";"https://maps.google.com/?cid=0x0:0x15838972073ac12c";""
"supermarket";"supermarket";"Kec. Seram Utara Bar.";"Kabupaten Maluku Tengah, Maluku";"Kabupaten Maluku Tengah, Maluku";"MALUKU";"";"Indonesia";"";"";"";"-2.8382969";"128.9688712";"https://maps.google.com/?cid=0x0:0x2813ca898f5d1a3b";""
"supermarket";"Toko Teh";"ZRN brother depot air";"53W5+JCC, Jl. Kabupaten, Pasanea, Kec. Seram Utara Bar., Kabupaten Maluku Tengah, Maluku";"Kabupaten Maluku Tengah, Maluku";"MALUKU";"";"Indonesia";" 081248668111";"";"";"-2.8034395";"129.0585145";"https://maps.google.com/?cid=0x0:0x9a155dc1138e1dd4";""
"supermarket";"Toko";"Kios Lextrimes";"4WW2+FJ, Latea, Kec. Seram Utara Bar., Kabupaten Maluku Tengah, Maluku";"Kabupaten Maluku Tengah, Maluku";"MALUKU";"";"Indonesia";"";"";"";"-2.8541571";"128.9012961";"https://maps.google.com/?cid=0x0:0xcc140a72ab2ebef4";""
"supermarket";"Ayam";"warung mba fira";"52R7+53, Gale-Gale, Kec. Seram Utara Bar., Kabupaten Maluku Tengah, Maluku";"Kabupaten Maluku Tengah, Maluku";"MALUKU";"";"Indonesia";"";"";"";"-2.8108427";"129.0122576";"https://maps.google.com/?cid=0x0:0x7e063edce103a46a";""
"supermarket";"Toko";"Kios gege";"43CC+RFV, Jl. Kabupaten, Wailulu, Kec. Seram Utara Bar., Kabupaten Maluku Tengah, Maluku";"Kabupaten Maluku Tengah, Maluku";"MALUKU";"";"Indonesia";"";"";"";"-2.8778935";"129.071161";"https://maps.google.com/?cid=0x0:0xe8421e9ab088ce4d";""
"supermarket";"supermarket";"Warung Samudra Trenggalek.desa Pa. A";"43VG+F85, Paa, kec pasanea, Kabupaten Maluku Tengah, Maluku";"Kabupaten Maluku Tengah, Maluku";"MALUKU";"";"Indonesia";" 081344706167";"";"";"-2.8563563";"129.0758723";"https://maps.google.com/?cid=0x0:0x433f56140ee3173f";""
"supermarket";"Pusat Perbelanjaan";"Fajar Mart";"W5MV+PFF, Piru, Kec. Seram Bar., Kabupaten Seram Bagian Barat, Maluku";"Kabupaten Seram Bagian Barat, Maluku";"MALUKU";"";"Indonesia";"";"";"";"-3.0656914";"128.1936727";"https://maps.google.com/?cid=0x0:0x40a2277adf2e3d56";""
"supermarket";"Pusat Perbelanjaan";"Winkel Supermarket";"VFXR+3QM, Bula, Kec. Bula, Kabupaten Seram Bagian Timur, Maluku";"Kabupaten Seram Bagian Timur, Maluku";"MALUKU";"";"Indonesia";" 081240251423";"";"";"-3.1022975";"130.4919094";"https://maps.google.com/?cid=0x0:0xcc0933f2fab5253f";""
"supermarket";"Toko Makanan";"DARREL CAMP";"Jl. Kabupaten, Seakasale, Kec. Taniwel Tim., Kabupaten Seram Bagian Barat, Maluku";"Kabupaten Seram Bagian Barat, Maluku";"MALUKU";"";"Indonesia";" 085259034531";"";"";"-2.862496";"128.7120751";"https://maps.google.com/?cid=0x0:0x4277bc338db0dfc4";""
"supermarket";"supermarket";"Kec. Tlk. Elpaputih";"Kabupaten Maluku Tengah, Maluku";"Kabupaten Maluku Tengah, Maluku";"MALUKU";"";"Indonesia";"";"";"";"-3.2207692";"128.8534865";"https://maps.google.com/?cid=0x0:0xb2d65ac40b141752";""
"supermarket";"Toko";"Kios Rensy";"RV2H+5FW, Jl. Trans Seram, Tananahu, Kec. Tlk. Elpaputih, Kabupaten Maluku Tengah, Maluku";"Kabupaten Maluku Tengah, Maluku";"MALUKU";"";"Indonesia";"";"";"";"-3.199147";"128.878358";"https://maps.google.com/?cid=0x0:0x156f91e47a1d00cc";""
"supermarket";"Kios";"Kios sisilia";"QVJ3+783, Tananahu, Kec. Tlk. Elpaputih, Kabupaten Maluku Tengah, Maluku";"Kabupaten Maluku Tengah, Maluku";"MALUKU";"";"Indonesia";"";"";"";"-3.2194014";"128.853288";"https://maps.google.com/?cid=0x0:0x11620caa6549e243";""
"supermarket";"supermarket";"KIOS ULA";"PQQJ+6MP, Samasuru, Kec. Tlk. Elpaputih, Kabupaten Maluku Tengah, Maluku";"Kabupaten Maluku Tengah, Maluku";"MALUKU";"";"Indonesia";"";"";"";"-3.261902";"128.7816983";"https://maps.google.com/?cid=0x0:0xf344f7e5ad297168";""
"supermarket";"Toko Swalayan";"Winkel Supermarket";"96FG+323, Waiheru, Kec. Baguala, Kota Ambon, Maluku";"Kota Ambon, Maluku";"MALUKU";"";"Indonesia";" 09113869351";"";"";"-3.6273656";"128.2250609";"https://maps.google.com/?cid=0x0:0xec37cd1cfdfa6412";""
"supermarket";"supermarket";"Samasuru";"Kec. Tlk. Elpaputih, Kabupaten Maluku Tengah, Maluku";"Kabupaten Maluku Tengah, Maluku";"MALUKU";"";"Indonesia";"";"";"";"-3.1482723";"128.7420548";"https://maps.google.com/?cid=0x0:0x1f6d46ac17a8a60b";""
"supermarket";"Pusat Perbelanjaan";"Hypermart Maluku City Mall";"Jalan Jend. Sudirman, Hative Kecil, Kec. Sirimau, Kota Ambon, Maluku";"Kota Ambon, Maluku";"MALUKU";"";"Indonesia";" 0911319999";"";"";"-3.6702679";"128.1981163";"https://maps.google.com/?cid=0x0:0xf361af34b2474744";""
"supermarket";"Toko bahan makanan";"Supermarket lovely";"PXXX+269, Makariki, Kec. Amahai, Kabupaten Maluku Tengah, Maluku";"Kabupaten Maluku Tengah, Maluku";"MALUKU";"";"Indonesia";"";"";"";"-3.2524724";"128.9981052";"https://maps.google.com/?cid=0x0:0xd6f51b8cd3561a94";""
"supermarket";"Minimarket";"Toko Bisma";"RT.13, Haruru, Kec. Amahai, Kabupaten Maluku Tengah, Maluku";"Kabupaten Maluku Tengah, Maluku";"MALUKU";"";"Indonesia";"";"";"";"-3.2831312";"128.9720822";"https://maps.google.com/?cid=0x0:0x65da30d2310375f8";""
"supermarket";"supermarket";"Kec. Leihitu Bar.";"Kabupaten Maluku Tengah, Maluku";"Kabupaten Maluku Tengah, Maluku";"MALUKU";"";"Indonesia";"";"";"";"-3.7450972";"127.9996401";"https://maps.google.com/?cid=0x0:0x99f9b56e99c233dc";""
"supermarket";"Toko bahan makanan";"Kios Amels";"73C2+M2C, Hatu, Kec. Leihitu Bar., Kabupaten Maluku Tengah, Maluku";"Kabupaten Maluku Tengah, Maluku";"MALUKU";"";"Indonesia";" 082238376043";"";"";"-3.7283036";"128.050012";"https://maps.google.com/?cid=0x0:0x81c2057efd71b918";""
"supermarket";"Toko bahan makanan";"Toko ECON";"62M5+6C4, Jln. Namakoli, Allang, Kec. Leihitu Bar., Kabupaten Maluku Tengah, Maluku";"Kabupaten Maluku Tengah, Maluku";"MALUKU";"";"Indonesia";" 082197962891";"";"";"-3.7669763";"128.0085702";"https://maps.google.com/?cid=0x0:0xd5d336f5eebe7281";""
"supermarket";"Toko bahan makanan";"Toko Anugerah Egenn Ennaaakk";"6XCW+9XJ, Allang, Kec. Leihitu Bar., Kabupaten Maluku Tengah, Maluku";"Kabupaten Maluku Tengah, Maluku";"MALUKU";"";"Indonesia";" 081356012077";"";"";"-3.7790313";"127.9973847";"https://maps.google.com/?cid=0x0:0xe58c33e7a4086cdd";""
"supermarket";"supermarket";"ONE SHOP";"6WQQ+QH3, Jl. Propinsi, Wakasihu, Kec. Leihitu Bar., Kabupaten Maluku Tengah, Maluku";"Kabupaten Maluku Tengah, Maluku";"MALUKU";"";"Indonesia";" 085243277548";"";"";"-3.7606842";"127.9389409";"https://maps.google.com/?cid=0x0:0xb7f8438ddd848a1a";""
"supermarket";"Toko umum";"KIOS JHO";"73C2+P5V, Hatu, Kec. Leihitu Bar., Kabupaten Maluku Tengah, Maluku";"Kabupaten Maluku Tengah, Maluku";"MALUKU";"";"Indonesia";"";"";"";"-3.7281476";"128.0504205";"https://maps.google.com/?cid=0x0:0x89b7084490828555";""
"supermarket";"Toko bahan makanan";"Kios Mace";"7WQF+R92, Larike, Kec. Leihitu Bar., Kabupaten Maluku Tengah, Maluku";"Kabupaten Maluku Tengah, Maluku";"MALUKU";"";"Indonesia";"";"";"";"-3.7108388";"127.9227358";"https://maps.google.com/?cid=0x0:0x218fb86da5978b9";""
"supermarket";"Toko bahan makanan";"AIRA KIOS";"Larike, Kec. Leihitu Bar., Kabupaten Maluku Tengah, Maluku";"Kabupaten Maluku Tengah, Maluku";"MALUKU";"";"Indonesia";" 082399228000";"";"";"-3.7473919";"127.9315372";"https://maps.google.com/?cid=0x0:0x2461ef265c2f87ee";""
"supermarket";"Minimarket";"Alfamidi Tawiri";"832X+9X8, Jl. Dr. J. Leimena, Tawiri, Kec. Tlk. Ambon, Kota Ambon, Maluku";"Kota Ambon, Maluku";"MALUKU";"";"Indonesia";"";"";"";"-3.6990806";"128.0999649";"https://maps.google.com/?cid=0x0:0xb30fbf7ed2ca6d4f";""
"supermarket";"Toserba";"Ely Chan";"Larike, Kec. Leihitu Bar., Kabupaten Maluku Tengah, Maluku";"Kabupaten Maluku Tengah, Maluku";"MALUKU";"";"Indonesia";" 082399228000";"";"";"-3.7470283";"127.9320239";"https://maps.google.com/?cid=0x0:0xe01ec840b133464f";""
"supermarket";"Pusat Perbelanjaan";"Hypermart Maluku City Mall";"Jalan Jend. Sudirman, Hative Kecil, Kec. Sirimau, Kota Ambon, Maluku";"Kota Ambon, Maluku";"MALUKU";"";"Indonesia";" 0911319999";"";"";"-3.6702679";"128.1981163";"https://maps.google.com/?cid=0x0:0xf361af34b2474744";""
"supermarket";"Toko umum";"Kios ZILA H2W";"C24P+67H, Seith, Kec. Leihitu, Kabupaten Maluku Tengah, Maluku";"Kabupaten Maluku Tengah, Maluku";"MALUKU";"";"Indonesia";" 082198935391";"";"";"-3.59443";"128.0357386";"https://maps.google.com/?cid=0x0:0x828086738ed1ad84";""
"supermarket";"Pasar";"PPI Leihitu";"8WJW+2VF, Ureng, Kec. Leihitu, Kabupaten Maluku Tengah, Maluku";"Kabupaten Maluku Tengah, Maluku";"MALUKU";"";"Indonesia";"";"";"";"-3.6699268";"127.9471596";"https://maps.google.com/?cid=0x0:0x4d4d1678abd046c4";""
"supermarket";"Toko bahan makanan";"Kios Daeng Iksan";"7WRF+9M6, Dusun Lai Negeri, Larike, Kec. Leihitu Bar., Kabupaten Maluku Tengah, Maluku";"Kabupaten Maluku Tengah, Maluku";"MALUKU";"";"Indonesia";"";"";"";"-3.70971";"127.9238535";"https://maps.google.com/?cid=0x0:0xb77201f68b87ccdb";""
"supermarket";"Minimarket";"Khayla kios";"73JP+XWX Air manis, Laha, Kec. Tlk. Ambon, Kota Ambon, Maluku";"Kota Ambon, Maluku";"MALUKU";"";"Indonesia";"";"";"";"-3.7175099";"128.087362";"https://maps.google.com/?cid=0x0:0xf8f149f4a6483b31";""
"supermarket";"Toko Swalayan";"Winkel Supermarket";"96FG+323, Waiheru, Kec. Baguala, Kota Ambon, Maluku";"Kota Ambon, Maluku";"MALUKU";"";"Indonesia";" 09113869351";"";"";"-3.6273656";"128.2250609";"https://maps.google.com/?cid=0x0:0xec37cd1cfdfa6412";""
"supermarket";"Toko umum";"TOKO AOZORA";"73VP+VH2, Laha, Kec. Tlk. Ambon, Kota Ambon, Maluku";"Kota Ambon, Maluku";"MALUKU";"";"Indonesia";" 081356324400";"";"";"-3.705374";"128.0864053";"https://maps.google.com/?cid=0x0:0xf0bd7377a694ee6a";""
"supermarket";"Kios";"Kios Sindi";"C24H+GCH, Seith,Kmpleks, kayumanis, Kec. Leihitu, Kabupaten Maluku Tengah, Maluku";"Kabupaten Maluku Tengah, Maluku";"MALUKU";"";"Indonesia";" 081381265905";"";"";"-3.593699";"128.0286216";"https://maps.google.com/?cid=0x0:0xc9f199a0a6d5bff6";""
"supermarket";"Toko bahan makanan";"SRC RIZKY (YOGIM)";"Hitu Lama, Kec. Leihitu, Kabupaten Maluku Tengah, Maluku";"Kabupaten Maluku Tengah, Maluku";"MALUKU";"";"Indonesia";" 081275939603";"";"";"-3.5855723";"128.1760499";"https://maps.google.com/?cid=0x0:0x1dfd88366bf4531b";""
"supermarket";"Toko";"Kios Sembako Mawar Fikram";"73MQ+859, Dusun Air Manis Negeri, Laha, Kec. Tlk. Ambon, Kota Ambon, Maluku";"Kota Ambon, Maluku";"MALUKU";"";"Indonesia";" 082238582259";"";"";"-3.7167098";"128.0879834";"https://maps.google.com/?cid=0x0:0x76216192b83790b1";""
"supermarket";"Kios";"KIOS SUTRA JAYA NET";"73PX+J97, Unnamed Road, Laha, Kec. Tlk. Ambon, Kota Ambon, Maluku";"Kota Ambon, Maluku";"MALUKU";"";"Indonesia";" 085244724434";"";"";"-3.7134563";"128.0984249";"https://maps.google.com/?cid=0x0:0x87ae7abae5995f1b";""
"supermarket";"Minimarket";"Indomaret Latuhalat";"64FC+2GH, Jl. Amanhuse, Latuhalat, Kec. Nusaniwe, Kota Ambon, Maluku";"Kota Ambon, Maluku";"MALUKU";"";"Indonesia";"";"";"";"-3.7774357";"128.1213537";"https://maps.google.com/?cid=0x0:0xf8b4e6111ea0d3c3";""
"supermarket";"supermarket";"Kec. Telutih";"Kabupaten Maluku Tengah, Maluku";"Kabupaten Maluku Tengah, Maluku";"MALUKU";"";"Indonesia";"";"";"";"-3.3265855";"129.7841976";"https://maps.google.com/?cid=0x0:0x43575c604a0bf9a4";""
"supermarket";"Toko";"Kios Ari";"MQFP+GV4 PLTD, Laimu, Kec. Telutih, Kabupaten Maluku Tengah, Maluku";"Kabupaten Maluku Tengah, Maluku";"MALUKU";"";"Indonesia";"";"";"";"-3.3262484";"129.7872009";"https://maps.google.com/?cid=0x0:0x66128a8fea44f2ec";""
"supermarket";"supermarket";"Kios Bapak Abu";"MR9M+RP7, Lahakaba, Kec. Telutih, Kabupaten Maluku Tengah, Maluku";"Kabupaten Maluku Tengah, Maluku";"MALUKU";"";"Indonesia";"";"";"";"-3.3303082";"129.8341749";"https://maps.google.com/?cid=0x0:0xc8b446b9f90d862c";""
"supermarket";"supermarket";"Kios Mita";"MR9Q+V26, Laha kaba, Kec. Telutih, Kabupaten Maluku Tengah, Maluku";"Kabupaten Maluku Tengah, Maluku";"MALUKU";"";"Indonesia";"";"";"";"-3.3303346";"129.8375224";"https://maps.google.com/?cid=0x0:0xdca2779ac11ea8fb";""
"supermarket";"Grosir";"Toko ian";"MQFM+8MQ, Dusun Latan, Baru, Kec. Telutih, Kabupaten Maluku Tengah, Maluku";"Kabupaten Maluku Tengah, Maluku";"MALUKU";"";"Indonesia";"";"";"";"-3.3266504";"129.7842311";"https://maps.google.com/?cid=0x0:0x4c726af95d27a6da";""
"supermarket";"Toko Swalayan";"Toko Bu Netti";"XWWX+5QG, Unnamed Road, Wailoping, Kec. Seram Utara Tim. Seti, Kabupaten Maluku Tengah, Maluku";"Kabupaten Maluku Tengah, Maluku";"MALUKU";"";"Indonesia";" 082228003242";"";"";"-3.004556";"129.949467";"https://maps.google.com/?cid=0x0:0xc396e96e853eb8f3";""
"supermarket";"supermarket";"Kec. Seram Utara Tim. Seti";"Kabupaten Maluku Tengah, Maluku";"Kabupaten Maluku Tengah, Maluku";"MALUKU";"";"Indonesia";"";"";"";"-2.9914278";"129.9266389";"https://maps.google.com/?cid=0x0:0xf1f031938308f20f";""
"supermarket";"Toko Swalayan";"TOKO SURYA BARU";"XWJR+6G6, Wailoping, Kec. Seram Utara Tim. Seti, Kabupaten Maluku Tengah, Maluku";"Kabupaten Maluku Tengah, Maluku";"MALUKU";"";"Indonesia";" 081234928881";"";"";"-3.0194538";"129.9412622";"https://maps.google.com/?cid=0x0:0xaf2e6172c5dac737";""
"supermarket";"Toko Swalayan";"Selepan Dewi Sri";"2VG9+44W, Morokay, Kec. Seram Utara Tim. Kobi, Kabupaten Maluku Tengah, Maluku";"Kabupaten Maluku Tengah, Maluku";"MALUKU";"";"Indonesia";"";"";"";"-2.9746499";"129.8678343";"https://maps.google.com/?cid=0x0:0xe8f6e8139da0ab5d";""
"supermarket";"Toko Swalayan";"Wingkel Kobisonta";"XWRM+G78, Wailoping, Kec. Seram Utara Tim. Seti, Kabupaten Maluku Tengah, Maluku";"Kabupaten Maluku Tengah, Maluku";"MALUKU";"";"Indonesia";"";"";"";"-3.0087042";"129.9332149";"https://maps.google.com/?cid=0x0:0x769721148dc92cfc";""
"supermarket";"Toko Swalayan";"KIOS SEPAI JAYA";"2V87+P6H, Morokay, Kec. Seram Utara Tim. Kobi, Kabupaten Maluku Tengah, Maluku";"Kabupaten Maluku Tengah, Maluku";"MALUKU";"";"Indonesia";" 082244693969";"";"";"-2.9831911";"129.8630987";"https://maps.google.com/?cid=0x0:0xdb7d49f9e2a9fa6d";""
"supermarket";"Toko Swalayan";"Toko Bu Netti";"XWWX+5QG, Unnamed Road, Wailoping, Kec. Seram Utara Tim. Seti, Kabupaten Maluku Tengah, Maluku";"Kabupaten Maluku Tengah, Maluku";"MALUKU";"";"Indonesia";" 082228003242";"";"";"-3.004556";"129.949467";"https://maps.google.com/?cid=0x0:0xc396e96e853eb8f3";""
"supermarket";"Toko bahan makanan";"Kios mbak sri";"XVXG+VP, Marasahua, Kec. Seram Utara Tim. Kobi, Kabupaten Maluku Tengah, Maluku";"Kabupaten Maluku Tengah, Maluku";"MALUKU";"";"Indonesia";"";"";"";"-3.0002496";"129.8767747";"https://maps.google.com/?cid=0x0:0xfadb9fe14167fd35";""
"supermarket";"Toko bahan makanan";"Toko ikshan mba win";"XWVM+48F, Unnamed Road, Kobisonta, Kec. Seram Utara Tim. Seti, Kabupaten Maluku Tengah, Maluku";"Kabupaten Maluku Tengah, Maluku";"MALUKU";"";"Indonesia";"";"";"";"-3.0071959";"129.9333046";"https://maps.google.com/?cid=0x0:0x5c3cb5ef3827d237";""
"supermarket";"Toko Swalayan";"Toko sindy";"XX7H+FFF, Waitila, Kec. Seram Utara Tim. Seti, Kabupaten Maluku Tengah, Maluku";"Kabupaten Maluku Tengah, Maluku";"MALUKU";"";"Indonesia";"";"";"";"-3.0363151";"129.978668";"https://maps.google.com/?cid=0x0:0xad5312dbe60f0903";""
"supermarket";"Toko Buah Kering";"ayam potong "sehat" kobisonta";"2W5G+PWR, Unnamed Road, Kobisonta, Kec. Seram Utara Tim. Seti, Kabupaten Maluku Tengah, Maluku";"Kabupaten Maluku Tengah, Maluku";"MALUKU";"";"Indonesia";" 082248991718";"";"";"-2.9906314";"129.9272658";"https://maps.google.com/?cid=0x0:0xda35072452838935";""
"supermarket";"Kios";"TOKO DIANA KOBISONTA (ANYONG)";"Jl. Lintas Seram, Kobisonta, Kec. Seram Utara Tim. Seti, Kabupaten Maluku Tengah, Maluku";"Kabupaten Maluku Tengah, Maluku";"MALUKU";"";"Indonesia";" 085281686493";"";"";"-2.9913266";"129.9262563";"https://maps.google.com/?cid=0x0:0x19733acf67c8ab3f";""
"supermarket";"supermarket";"Kios Adla";"X23M+8W, Tanah Merah, Kec. Seram Utara Tim. Seti, Kabupaten Maluku Tengah, Maluku";"Kabupaten Maluku Tengah, Maluku";"MALUKU";"";"Indonesia";"";"";"";"-3.0465922";"130.0359047";"https://maps.google.com/?cid=0x0:0x8dc2a41230a7ac04";""
"supermarket";"Toko Pertanian";"Toko Sumber Rezeki";"XXH3+7RX, Seti, Kec. Seram Utara Tim. Seti, Kabupaten Maluku Tengah, Maluku";"Kabupaten Maluku Tengah, Maluku";"MALUKU";"";"Indonesia";" 082325894287";"";"";"-3.021754";"129.9546236";"https://maps.google.com/?cid=0x0:0xf88f99c672238d44";""
"supermarket";"supermarket";"Toko Ibu Siti";"XWWW+HHG, Wailoping, Kec. Seram Utara Tim. Seti, Kabupaten Maluku Tengah, Maluku";"Kabupaten Maluku Tengah, Maluku";"MALUKU";"";"Indonesia";"";"";"";"-3.0048602";"129.9476466";"https://maps.google.com/?cid=0x0:0x7364fdbd4d1965b1";""
"supermarket";"Toko Swalayan";"Warung mbak Iis";"2VF8+2X2, Morokay, Kec. Seram Utara Tim. Kobi, Kabupaten Maluku Tengah, Maluku";"Kabupaten Maluku Tengah, Maluku";"MALUKU";"";"Indonesia";"";"";"";"-2.9774541";"129.8673847";"https://maps.google.com/?cid=0x0:0xc2c0de15d42072a0";""
"supermarket";"Komplek perumahan";"Rumah Bakul (K.M)";"XXC2+29M, Wailoping, Kec. Seram Utara Tim. Seti, Kabupaten Maluku Tengah, Maluku";"Kabupaten Maluku Tengah, Maluku";"MALUKU";"";"Indonesia";"";"";"";"-3.030199";"129.951414";"https://maps.google.com/?cid=0x0:0xbff2ac795f3a242";""
"supermarket";"Toko";"Warung wiwik";"Unnamed Road, Upt U. Airmatakabu, Bula, Kabupaten Seram Bagian Timur, Maluku";"Kabupaten Seram Bagian Timur, Maluku";"MALUKU";"";"Indonesia";" 081248304390";"";"";"-3.0293866";"130.1334641";"https://maps.google.com/?cid=0x0:0xd763f48878ef8cfd";""
"supermarket";"Toko bahan makanan";"Toko Nila";"2VJF+3RQ, Unnamed Road, Morokay, Kec. Seram Utara Tim. Kobi, Kabupaten Maluku Tengah, Maluku";"Kabupaten Maluku Tengah, Maluku";"MALUKU";"";"Indonesia";"";"";"";"-2.9697935";"129.8746131";"https://maps.google.com/?cid=0x0:0x2cd8e7d082dd35e4";""
"supermarket";"Toko Swalayan";"Kios p pardi";"2VV4+GQ7, a, Samal, Kec. Seram Utara Tim. Seti, Kabupaten Maluku Tengah, Maluku";"Kabupaten Maluku Tengah, Maluku";"MALUKU";"";"Indonesia";"";"";"";"-2.956218";"129.8569166";"https://maps.google.com/?cid=0x0:0x921fdce3c6fa8f20";""
"supermarket";"Toko Swalayan";"Dwi putra basirun";"W2XQ+GR9, Tanah Merah, K, tec, Kec. Seram Utara Tim. Seti, Kabupaten Maluku Tengah, Maluku";"Kabupaten Maluku Tengah, Maluku";"MALUKU";"";"Indonesia";"";"";"";"-3.0512125";"130.0396094";"https://maps.google.com/?cid=0x0:0x8f34e301f74e47c0";""
"supermarket";"supermarket";"TOKO FITRA";"2VJC+X24, Morokay, Kec. Seram Utara Tim. Kobi, Kabupaten Maluku Tengah, Maluku";"Kabupaten Maluku Tengah, Maluku";"MALUKU";"";"Indonesia";"";"";"";"-2.9676004";"129.8700892";"https://maps.google.com/?cid=0x0:0xabce903e709221c0";""
"supermarket";"supermarket";"Kec. Seram Utara Tim. Kobi";"Kabupaten Maluku Tengah, Maluku";"Kabupaten Maluku Tengah, Maluku";"MALUKU";"";"Indonesia";"";"";"";"-2.9958071";"129.8345109";"https://maps.google.com/?cid=0x0:0x7d5c902227229a42";""
"supermarket";"Toko Swalayan";"Selepan Dewi Sri";"2VG9+44W, Morokay, Kec. Seram Utara Tim. Kobi, Kabupaten Maluku Tengah, Maluku";"Kabupaten Maluku Tengah, Maluku";"MALUKU";"";"Indonesia";"";"";"";"-2.9746499";"129.8678343";"https://maps.google.com/?cid=0x0:0xe8f6e8139da0ab5d";""
"supermarket";"Toko Swalayan";"Toko mandiri";"2VJF+J7W, Morokay, Kec. Seram Utara Tim. Kobi, Kabupaten Maluku Tengah, Maluku";"Kabupaten Maluku Tengah, Maluku";"MALUKU";"";"Indonesia";" 085213333423";"";"";"-2.9683908";"129.8731968";"https://maps.google.com/?cid=0x0:0xb49adb1f62515510";""
"supermarket";"Toko Swalayan";"KIOS SEPAI JAYA";"2V87+P6H, Morokay, Kec. Seram Utara Tim. Kobi, Kabupaten Maluku Tengah, Maluku";"Kabupaten Maluku Tengah, Maluku";"MALUKU";"";"Indonesia";" 082244693969";"";"";"-2.9831911";"129.8630987";"https://maps.google.com/?cid=0x0:0xdb7d49f9e2a9fa6d";""
"supermarket";"Toko bahan makanan";"Kios mbak sri";"XVXG+VP, Marasahua, Kec. Seram Utara Tim. Kobi, Kabupaten Maluku Tengah, Maluku";"Kabupaten Maluku Tengah, Maluku";"MALUKU";"";"Indonesia";"";"";"";"-3.0002496";"129.8767747";"https://maps.google.com/?cid=0x0:0xfadb9fe14167fd35";""
"supermarket";"Toko Swalayan";"Toko Boi-boi";"2R48+WJ4, Waiasih, Kec. Seram Utara Tim. Kobi, Kabupaten Maluku Tengah, Maluku";"Kabupaten Maluku Tengah, Maluku";"MALUKU";"";"Indonesia";"";"";"";"-2.9927266";"129.8165641";"https://maps.google.com/?cid=0x0:0xb5d4ba5ac5fc51d";""
"supermarket";"Toko umum";"Toko Qulhu cak kung";"3P6X+R36, Maneo Rendah, Kec. Seram Utara Tim. Kobi, Kabupaten Maluku Tengah, Maluku";"Kabupaten Maluku Tengah, Maluku";"MALUKU";"";"Indonesia";"";"";"";"-2.9379735";"129.74765";"https://maps.google.com/?cid=0x0:0xcd3646615e39f7c8";""
"supermarket";"Toko bahan makanan";"Toko Nila";"2VJF+3RQ, Unnamed Road, Morokay, Kec. Seram Utara Tim. Kobi, Kabupaten Maluku Tengah, Maluku";"Kabupaten Maluku Tengah, Maluku";"MALUKU";"";"Indonesia";"";"";"";"-2.9697935";"129.8746131";"https://maps.google.com/?cid=0x0:0x2cd8e7d082dd35e4";""
"supermarket";"Toko Swalayan";"Warung mbak Iis";"2VF8+2X2, Morokay, Kec. Seram Utara Tim. Kobi, Kabupaten Maluku Tengah, Maluku";"Kabupaten Maluku Tengah, Maluku";"MALUKU";"";"Indonesia";"";"";"";"-2.9774541";"129.8673847";"https://maps.google.com/?cid=0x0:0xc2c0de15d42072a0";""
"supermarket";"Toko Swalayan";"Produsen tempe (mbk sri)";"3Q9X+26, Kobi Mukti, Kec. Seram Utara Tim. Kobi, Kabupaten Maluku Tengah, Maluku";"Kabupaten Maluku Tengah, Maluku";"MALUKU";"";"Indonesia";" 082210561203";"";"";"-2.9323958";"129.7980682";"https://maps.google.com/?cid=0x0:0x3d2aef8bc650c011";""
"supermarket";"Toko Swalayan";"Gilingan mandiri baru";"3QQV+77R, Sariputih, Kec. Seram Utara Tim. Kobi, Kabupaten Maluku Tengah, Maluku";"Kabupaten Maluku Tengah, Maluku";"MALUKU";"";"Indonesia";"";"";"";"-2.9117603";"129.7931262";"https://maps.google.com/?cid=0x0:0xe66d2f6d5a88a74a";""
"supermarket";"Toko Swalayan";"Kios p pardi";"2VV4+GQ7, a, Samal, Kec. Seram Utara Tim. Seti, Kabupaten Maluku Tengah, Maluku";"Kabupaten Maluku Tengah, Maluku";"MALUKU";"";"Indonesia";"";"";"";"-2.956218";"129.8569166";"https://maps.google.com/?cid=0x0:0x921fdce3c6fa8f20";""
"supermarket";"supermarket";"TOKO FITRA";"2VJC+X24, Morokay, Kec. Seram Utara Tim. Kobi, Kabupaten Maluku Tengah, Maluku";"Kabupaten Maluku Tengah, Maluku";"MALUKU";"";"Indonesia";"";"";"";"-2.9676004";"129.8700892";"https://maps.google.com/?cid=0x0:0xabce903e709221c0";""
"supermarket";"supermarket";"Kios lilis";"2V76+RMJ, Morokay, Kec. Seram Utara Tim. Kobi, Kabupaten Maluku Tengah, Maluku";"Kabupaten Maluku Tengah, Maluku";"MALUKU";"";"Indonesia";"";"";"";"-2.9854148";"129.8616344";"https://maps.google.com/?cid=0x0:0xfb3443812896aaf9";""
"supermarket";"Toko Swalayan";"GS The Fresh Mampang";"Jl. Buncit Raya No.301, Duren Tiga, Kec. Pancoran, Kota Jakarta Selatan, Daerah Khusus Ibukota Jakarta 12760";"Duren Tiga, Kec. Pancoran, Kota Jakarta Selatan";"MALUKU";"12760";"Indonesia";" 02126961986";"";"";"-6.256991";"106.828987";"https://maps.google.com/?cid=0x0:0x47a84d3b86619147";""
"supermarket";"Pembangunan Perumahan";"Seram Utara Timur Kobi";"XQ7G+R63, Maneo Rendah, Kec. Seram Utara Tim. Kobi, Kabupaten Maluku Tengah, Maluku";"Kabupaten Maluku Tengah, Maluku";"MALUKU";"";"Indonesia";"";"";"";"-3.0354877";"129.7755571";"https://maps.google.com/?cid=0x0:0x2d80c0151e375331";""
"supermarket";"Toko Swalayan";"GS THE FRESH JATIBENING";"Jl. Caman Raya No.7-24, RT.004/RW.003, Jatibening, Kec. Pd. Gede, Kota Bks, Jawa Barat 17412";"RT.004/RW.003, Jatibening, Kec. Pd. Gede, Kota Bks";"MALUKU";"17412";"Indonesia";" 02184982211";"";"";"-6.2676455";"106.9436409";"https://maps.google.com/?cid=0x0:0x2cdb50c3ee3206c";""
"supermarket";"Toko Swalayan";"GS The Fresh Supermarket Kemang Pratama";"Linc Square Kemang Pratama, Jl. Kemang Pratama Raya, RT.004/RW.001, Bojong Rawalumbu, Kec. Rawalumbu, Kota Bks, Jawa Barat 17116";"Jl. Kemang Pratama Raya, RT.004/RW.001, Bojong Rawalumbu, Kec. Rawalumbu, Kota Bks";"MALUKU";"17116";"Indonesia";" 02182416910";"";"";"-6.2779418";"106.9910558";"https://maps.google.com/?cid=0x0:0x4ce692f4b9ef21ee";""
"supermarket";"supermarket";"Kec. Saparua Timur";"Kabupaten Maluku Tengah, Maluku";"Kabupaten Maluku Tengah, Maluku";"MALUKU";"";"Indonesia";"";"";"";"-3.5384417";"128.6908479";"https://maps.google.com/?cid=0x0:0x9d3049fe902a98a3";""
"supermarket";"Toko umum";"MEGA TOPS";"CMH3+3CM, Tiouw, Kec. Saparua, Kabupaten Maluku Tengah, Maluku";"Kabupaten Maluku Tengah, Maluku";"MALUKU";"";"Indonesia";"";"";"";"-3.5722777";"128.6535434";"https://maps.google.com/?cid=0x0:0xd643bd96b8343e22";""
"supermarket";"Toko umum";"Keluarga ANES MATULESSY";"CM7W+WQ6, Siri-Sori Amalatu, Kec. Saparua, Kabupaten Maluku Tengah, Maluku";"Kabupaten Maluku Tengah, Maluku";"MALUKU";"";"Indonesia";"";"";"";"-3.5852494";"128.6967947";"https://maps.google.com/?cid=0x0:0xd6a284d0620152a5";""
"supermarket";"Toko bahan makanan";"SRC ALE";"Tiouw, Kec. Saparua, Kabupaten Maluku Tengah, Maluku";"Kabupaten Maluku Tengah, Maluku";"MALUKU";"";"Indonesia";" 082199424645";"";"";"-3.5720958";"128.6467917";"https://maps.google.com/?cid=0x0:0x8adb1cbf9ae3581e";""
"supermarket";"Toserba";"Toko Makmur Jaya";"CMG4+WCH, Jl. Muka Pasar Saparua Toko Makmur Jaya, Saparua, Kec. Saparua, Kabupaten Maluku Tengah, Maluku 97592";"Jl. Muka Pasar Saparua Toko Makmur Jaya, Saparua, Kec. Saparua, Kabupaten Maluku Tengah";"MALUKU";"97592";"Indonesia";" 06293121014";"";"";"-3.5726804";"128.6561123";"https://maps.google.com/?cid=0x0:0xa098c7ef6326ea7a";""
"supermarket";"supermarket";"Toko PERMATA MARET";"CMH3+4F3, jalan terminal, Tiouw, Kec. Saparua, Kabupaten Maluku Tengah, Maluku";"Kabupaten Maluku Tengah, Maluku";"MALUKU";"";"Indonesia";"";"";"";"-3.572235";"128.6536591";"https://maps.google.com/?cid=0x0:0x1ed932020a70f605";""
"supermarket";"Tempat Cukur Rambut";"Pangkas Rambut";"Raya Saparua, Saparua, Kec. Saparua, Kabupaten Maluku Tengah, Maluku";"Kabupaten Maluku Tengah, Maluku";"MALUKU";"";"Indonesia";" 085211995095";"";"";"-3.5730257";"128.6598818";"https://maps.google.com/?cid=0x0:0x66d3b6e00df499d2";""
"supermarket";"Toko";"Swalayan Tomia Baru";"PX26+6W5, Unnamed Road, Namaelo, Kec. Kota Masohi, Kabupaten Maluku Tengah, Maluku 97511";"Unnamed Road, Namaelo, Kec. Kota Masohi, Kabupaten Maluku Tengah";"MALUKU";"97511";"Indonesia";"";"";"";"-3.2994848";"128.962353";"https://maps.google.com/?cid=0x0:0xf06af0ee4b8665d8";""
"supermarket";"Toko Swalayan";"Kis mama ike matulessy";"CMQQ+XV7, Siri-Sori Amalatu, Kec. Saparua Timur, Kabupaten Maluku Tengah, Maluku";"Kabupaten Maluku Tengah, Maluku";"MALUKU";"";"Indonesia";"";"";"";"-3.5600889";"128.689675";"https://maps.google.com/?cid=0x0:0x470dedc98d5b05e3";""
"supermarket";"Toko";"Hotel  Mini Market Wangi Wangi";"PX26+7FH, Unnamed Road, Lesane, Kec. Kota Masohi, Kabupaten Maluku Tengah, Maluku 97511";"Unnamed Road, Lesane, Kec. Kota Masohi, Kabupaten Maluku Tengah";"MALUKU";"97511";"Indonesia";" 0914021831";"";"";"-3.2991529";"128.9618986";"https://maps.google.com/?cid=0x0:0x70b6cb752d4099a";""
"supermarket";"Toko";"Stfani.lokollo";"CJ2C+G7M, Haria, Kec. Saparua, Kabupaten Maluku Tengah, Maluku";"Kabupaten Maluku Tengah, Maluku";"MALUKU";"";"Indonesia";" 081290164655";"";"";"-3.5986692";"128.6206783";"https://maps.google.com/?cid=0x0:0x8ece67c4557c260b";""
"supermarket";"supermarket";"Kios TIMA";"CP44+FC7, Siri Sori, Kec. Saparua Timur, Kabupaten Maluku Tengah, Maluku";"Kabupaten Maluku Tengah, Maluku";"MALUKU";"";"Indonesia";"";"";"";"-3.5938375";"128.7060469";"https://maps.google.com/?cid=0x0:0xaa3d9ef9d8a79135";""
