Category;Real Category;Business Name;Address;City;State;Postal Code;Country;Phone;Email;Website;Latitude;Longitude;Map Link;Details Link
"komplek housing";"komplek housing";"Amahai";"Soahuku, Kec. Amahai, Kabupaten Maluku Tengah, Maluku";"Kabupaten Maluku Tengah, Maluku";"MALUKU";"";"Indonesia";"";"";"";"-3.3393615";"128.9229993";"https://maps.google.com/?cid=0x0:0x193d78dcfa97a670";""
"komplek housing";"komplek housing";"Kec. Tebet";"Kota Jakarta Selatan, Daerah Khusus Ibukota Jakarta";"Kota Jakarta Selatan, Daerah Khusus Ibukota Jakarta";"MALUKU";"";"Indonesia";"";"";"";"-6.2251223";"106.8549881";"https://maps.google.com/?cid=0x0:0xd575e31c807295f9";""
"komplek housing";"komplek housing";"Kec. Teon Nila Serua";"Kabupaten Maluku Tengah, Maluku";"Kabupaten Maluku Tengah, Maluku";"MALUKU";"";"Indonesia";"";"";"";"-3.206515";"129.0223992";"https://maps.google.com/?cid=0x0:0x19c309dd11357808";""
"komplek housing";"komplek housing";"Kec. Seram Utara Tim. Kobi";"Kabupaten Maluku Tengah, Maluku";"Kabupaten Maluku Tengah, Maluku";"MALUKU";"";"Indonesia";"";"";"";"-2.9958071";"129.8345109";"https://maps.google.com/?cid=0x0:0x7d5c902227229a42";""
"komplek housing";"Komplek perumahan";"hasnurzaky";"2WH6+7G9, Seti, Kec. Seram Utara Tim. Seti, Kabupaten Maluku Tengah, Maluku";"Kabupaten Maluku Tengah, Maluku";"MALUKU";"";"Indonesia";"";"";"";"-2.9718296";"129.9113509";"https://maps.google.com/?cid=0x0:0xb44ee0abf147d7a2";""
"komplek housing";"Komplek perumahan";"Rumah Siti Nurhasanah";"X26F+M5R, Aketernate, Kec. Seram Utara Tim. Seti, Kabupaten Maluku Tengah, Maluku";"Kabupaten Maluku Tengah, Maluku";"MALUKU";"";"Indonesia";"";"";"";"-3.0382619";"130.0228936";"https://maps.google.com/?cid=0x0:0x1d2f6d636c57ab76";""
"komplek housing";"komplek housing";"Kec. Banda";"Kabupaten Maluku Tengah, Maluku";"Kabupaten Maluku Tengah, Maluku";"MALUKU";"";"Indonesia";"";"";"";"-4.5245505";"129.9028597";"https://maps.google.com/?cid=0x0:0xbe4d870d31ccb97d";""
"komplek housing";"Komplek perumahan";"Pondok Gede Housing II";"Housing II, Jl. Raya Hankam, RT.001/RW.004, Jatirahayu, Pondok Gede, Bekasi, West Java";"Kota Bks, Jawa Barat";"MALUKU";"";"Indonesia";"";"";"";"-6.2876701";"106.9147674";"https://maps.google.com/?cid=0x0:0x2a52e601c20d18f2";""
"komplek housing";"Komplek perumahan";"Pondok Gede Housing 1";"Jl. Cipta Raya No.45-3, RT.001/RW.003, Jatirahayu, Kec. Pd. Melati, Kota Bks, Jawa Barat 17414";"RT.001/RW.003, Jatirahayu, Kec. Pd. Melati, Kota Bks";"MALUKU";"17414";"Indonesia";"";"";"";"-6.2852504";"106.9163397";"https://maps.google.com/?cid=0x0:0x3132afedbf38cd61";""
"komplek housing";"Komplek perumahan";"Tani Home";"JGVH+933, Jl. Trans Seram, Tehoru, Kec. Tehoru, Kabupaten Maluku Tengah, Maluku";"Kabupaten Maluku Tengah, Maluku";"MALUKU";"";"Indonesia";"";"";"";"-3.3374761";"129.5127856";"https://maps.google.com/?cid=0x0:0xab3fc879a372bef9";""
"komplek housing";"Komplek perumahan";"Wa Tani Home";"JGVH+933, Jl. Trans Seram, Tehoru, Kec. Tehoru, Kabupaten Maluku Tengah, Maluku";"Kabupaten Maluku Tengah, Maluku";"MALUKU";"";"Indonesia";"";"";"";"-3.3570475";"129.5272221";"https://maps.google.com/?cid=0x0:0xb50455bbe291c848";""
"komplek housing";"komplek housing";"Kec. Tehoru";"Kabupaten Maluku Tengah, Maluku";"Kabupaten Maluku Tengah, Maluku";"MALUKU";"";"Indonesia";"";"";"";"-3.300989";"129.5157974";"https://maps.google.com/?cid=0x0:0x747431514523047b";""
"komplek housing";"komplek housing";"Kec. Saparua";"Kabupaten Maluku Tengah, Maluku";"Kabupaten Maluku Tengah, Maluku";"MALUKU";"";"Indonesia";"";"";"";"-3.5718109";"128.6544355";"https://maps.google.com/?cid=0x0:0x1d9b1f8124612946";""
"komplek housing";"Perhimpunan Pengembang Perumahan";"Desa Itawaka";"GM3X+88M, Noloth, Kec. Saparua, Kabupaten Maluku Tengah, Maluku";"Kabupaten Maluku Tengah, Maluku";"MALUKU";"";"Indonesia";"";"";"";"-3.4966567";"128.6982979";"https://maps.google.com/?cid=0x0:0x4e30540c65eaf31";""
"komplek housing";"Komplek perumahan";"Rumah Raja Itawaka";"GM3W+FR5, Jl. Raya Nolot, Noloth, Kec. Saparua Timur, Kabupaten Maluku Tengah, Maluku";"Kabupaten Maluku Tengah, Maluku";"MALUKU";"";"Indonesia";"";"";"";"-3.4963727";"128.6971189";"https://maps.google.com/?cid=0x0:0x7ab063746dfcdd87";""
"komplek housing";"komplek housing";"Pulau Saparua";"Kabupaten Maluku Tengah, Maluku";"Kabupaten Maluku Tengah, Maluku";"MALUKU";"";"Indonesia";"";"";"";"-3.5508343";"128.6320086";"https://maps.google.com/?cid=0x0:0x4740799e02ec5d5d";""
"komplek housing";"Perhimpunan Pengembang Perumahan";"Negeri Haruku";"9CV9+P2F, Unnamed Road, Haruku, Kec. Pulau Haruku, Kabupaten Maluku Tengah, Maluku";"Kabupaten Maluku Tengah, Maluku";"MALUKU";"";"Indonesia";"";"";"";"-3.6056787";"128.4175436";"https://maps.google.com/?cid=0x0:0x9beec28daeceb0e";""
"komplek housing";"Kantor Pemerintah";"Negeri Oma";"9CFR+7F8, Haruku, Kec. Pulau Haruku, Kabupaten Maluku Tengah, Maluku";"Kabupaten Maluku Tengah, Maluku";"MALUKU";"";"Indonesia";" 082238530741";"";"";"-3.6268292";"128.4412086";"https://maps.google.com/?cid=0x0:0xf819a206c38cee7b";""
"komplek housing";"Perumahan";"Rumah BREMER";"9CV9+W8F, Haruku, Kec. Pulau Haruku, Kabupaten Maluku Tengah, Maluku";"Kabupaten Maluku Tengah, Maluku";"MALUKU";"";"Indonesia";"";"";"";"-3.6051972";"128.4182986";"https://maps.google.com/?cid=0x0:0x50db7bd52c021839";""
"komplek housing";"komplek housing";"Kec. Salahutu";"Kabupaten Maluku Tengah, Maluku";"Kabupaten Maluku Tengah, Maluku";"MALUKU";"";"Indonesia";"";"";"";"-3.5871515";"128.3279426";"https://maps.google.com/?cid=0x0:0xe1f3659f501ed8f1";""
"komplek housing";"Komplek perumahan";"AL";"F8R9+V7J, Liang, Kec. Salahutu, Kabupaten Maluku Tengah, Maluku 97582";"Liang, Kec. Salahutu, Kabupaten Maluku Tengah";"MALUKU";"97582";"Indonesia";"";"";"";"-3.5077976";"128.3181419";"https://maps.google.com/?cid=0x0:0x9612cdea0a6761a";""
"komplek housing";"Komplek perumahan";"Komplek Haurue";"99Q4+25C, Tengah-Tengah, Kec. Salahutu, Kabupaten Maluku Tengah, Maluku";"Kabupaten Maluku Tengah, Maluku";"MALUKU";"";"Indonesia";"";"";"";"-3.6124481";"128.355404";"https://maps.google.com/?cid=0x0:0x4b470d1350391de7";""
"komplek housing";"Komplek perumahan";"Waitatiri Dalam";"Waitatiri Dalam No.RT 048, Suli, Kec. Salahutu, Kabupaten Maluku Tengah, Maluku 97582";"Suli, Kec. Salahutu, Kabupaten Maluku Tengah";"MALUKU";"97582";"Indonesia";"";"";"";"-3.6155896";"128.2685792";"https://maps.google.com/?cid=0x0:0xe66ef496e9761535";""
"komplek housing";"Komplek perumahan";"Gapura Dusun Al-Muhajirin/Perumahan Pengungsi";"98RH+4GX, Tulehu, Kec. Salahutu, Kabupaten Maluku Tengah, Maluku";"Kabupaten Maluku Tengah, Maluku";"MALUKU";"";"Indonesia";" 082248635393";"";"";"-3.6096311";"128.3288698";"https://maps.google.com/?cid=0x0:0xd25846c11c4e7f53";""
"komplek housing";"Komplek perumahan";"Diana sultan";"F8R9+V6H, Liang, Kec. Salahutu, Kabupaten Maluku Tengah, Maluku 97582";"Liang, Kec. Salahutu, Kabupaten Maluku Tengah";"MALUKU";"97582";"Indonesia";"";"";"";"-3.5078094";"128.318098";"https://maps.google.com/?cid=0x0:0x3f4dd707a4b0ec8c";""
"komplek housing";"";"Kos depan hotel natsepa";"97HQ+X74, Jl. Natsepa No.36, Suli, Kec. Salahutu, Kabupaten Maluku Tengah, Maluku 97582";"Jl. Natsepa No.36, Suli, Kec. Salahutu, Kabupaten Maluku Tengah";"MALUKU";"97582";"Indonesia";"";"";"";"-3.6204805";"128.2881927";"https://maps.google.com/?cid=0x0:0x1e0d400e21f0b3f";""
"komplek housing";"Komplek perumahan";"HoH";"C88G+X82, Jl. Propinsi, Tulehu, Kec. Salahutu, Kabupaten Maluku Tengah, Maluku";"Kabupaten Maluku Tengah, Maluku";"MALUKU";"";"Indonesia";"";"";"";"-3.5825796";"128.3257704";"https://maps.google.com/?cid=0x0:0xb521eaaf435431cc";""
"komplek housing";"Komplek perumahan";"Zul";"F8RC+4JM, Liang, Kec. Salahutu, Kabupaten Maluku Tengah, Maluku";"Kabupaten Maluku Tengah, Maluku";"MALUKU";"";"Indonesia";"";"";"";"-3.5096563";"128.3215518";"https://maps.google.com/?cid=0x0:0x5b2daabf643c379b";""
"komplek housing";"Konsultan";"Multicare DC039";"Jl. Lorong Natsepa pantai DC39, Suli, Salahutu, Central Maluku Regency, Maluku 97582";"Suli, Salahutu, Central Maluku Regency";"MALUKU";"97582";"Indonesia";"";"";"";"-3.6223807";"128.2875419";"https://maps.google.com/?cid=0x0:0x1cd4b74e8292647b";""
"komplek housing";"Perhimpunan Pengembang Perumahan";"Rumah";"C82Q+74C, Tulehu, Kec. Salahutu, Kabupaten Maluku Tengah, Maluku";"Kabupaten Maluku Tengah, Maluku";"MALUKU";"";"Indonesia";"";"";"";"-3.5993636";"128.3378481";"https://maps.google.com/?cid=0x0:0x3294f72ec7f1dc0";""
"komplek housing";"Komplek perumahan";"yuyun samuall";"F8Q7+F85, Liang, Kec. Salahutu, Kota Ambon, Maluku 97582";"Liang, Kec. Salahutu, Kota Ambon";"MALUKU";"97582";"Indonesia";"";"";"";"-3.5114137";"128.3133817";"https://maps.google.com/?cid=0x0:0x4272621ef52083b3";""
"komplek housing";"Komplek perumahan";"My Home";"Jln,Yoga No.06, Kaitetu, Kec. Leihitu, Kota Ambon, Maluku 97581";"Kaitetu, Kec. Leihitu, Kota Ambon";"MALUKU";"97581";"Indonesia";"";"";"";"-3.5844353";"128.0825197";"https://maps.google.com/?cid=0x0:0x5a8988cbec37a2cd";""
"komplek housing";"Komplek perumahan";"My Home Pasir Putih Vilage B20";"956W+3PM, Poka, Kec. Tlk. Ambon, Kota Ambon, Maluku";"Kota Ambon, Maluku";"MALUKU";"";"Indonesia";"";"";"";"-3.6397784";"128.1967837";"https://maps.google.com/?cid=0x0:0x5cada83a1c19a59e";""
"komplek housing";"komplek housing";"Kec. Leihitu";"Kabupaten Maluku Tengah, Maluku";"Kabupaten Maluku Tengah, Maluku";"MALUKU";"";"Indonesia";"";"";"";"-3.5841059";"128.0844985";"https://maps.google.com/?cid=0x0:0x70c3041186d04c92";""
"komplek housing";"Komplek perumahan";"Barbershop";"9X9R+W3, Negeri Lima, Kec. Leihitu, Kabupaten Maluku Tengah, Maluku";"Kabupaten Maluku Tengah, Maluku";"MALUKU";"";"Indonesia";"";"";"";"-3.6307077";"127.9903676";"https://maps.google.com/?cid=0x0:0x4277956da81eaf1f";""
"komplek housing";"Komplek perumahan";"Lorong jati";"C38Q+Q73, Hila, Kec. Leihitu, Kabupaten Maluku Tengah, Maluku";"Kabupaten Maluku Tengah, Maluku";"MALUKU";"";"Indonesia";"";"";"";"-3.5831236";"128.0881846";"https://maps.google.com/?cid=0x0:0x88e792baee139ec";""
"komplek housing";"Komplek perumahan";"komplek MALVINAS";"8XM3+QFW, Ureng, Kec. Leihitu, Kabupaten Maluku Tengah, Maluku";"Kabupaten Maluku Tengah, Maluku";"MALUKU";"";"Indonesia";"";"";"";"-3.665521";"127.9536941";"https://maps.google.com/?cid=0x0:0x156b7a442915add8";""
"komplek housing";"Komplek perumahan";"Rumah Afanty U.";"C24P+H88, Jl. Propinsi, Seith, Kec. Leihitu, Kabupaten Maluku Tengah, Maluku";"Kabupaten Maluku Tengah, Maluku";"MALUKU";"";"Indonesia";"";"";"";"-3.5935896";"128.0358313";"https://maps.google.com/?cid=0x0:0x9f121d6473f41368";""
"komplek housing";"Komplek perumahan";"Rumh Nene AA";"C47J+F59, Desa, Dusun Mamua, Hila, Kec. Leihitu, Kota Ambon, Maluku 97581";"Desa, Dusun Mamua, Hila, Kec. Leihitu, Kota Ambon";"MALUKU";"97581";"Indonesia";"";"";"";"-3.5863675";"128.1298065";"https://maps.google.com/?cid=0x0:0x90a2b2f1fa84a3e8";""
"komplek housing";"komplek housing";"AKOON,Maluku,Indonesia";"8RQ5+X8C, Jl. Amalatu, Ameth, Kec. Nusalaut, Kabupaten Maluku Tengah, Maluku";"Kabupaten Maluku Tengah, Maluku";"MALUKU";"";"Indonesia";"";"";"";"-3.660069";"128.8082526";"https://maps.google.com/?cid=0x0:0x89957ce90d7e6812";""
"komplek housing";"komplek housing";"Kec. Nusalaut";"Kabupaten Maluku Tengah, Maluku";"Kabupaten Maluku Tengah, Maluku";"MALUKU";"";"Indonesia";"";"";"";"-3.67799";"128.7623442";"https://maps.google.com/?cid=0x0:0x5d191d10cde9fb21";""
"komplek housing";"komplek housing";"Maluku 97511";"Ampera, Kec. Kota Masohi, Kabupaten Maluku Tengah, Maluku";"Kabupaten Maluku Tengah, Maluku";"MALUKU";"";"Indonesia";"";"";"";"-3.2986837";"128.9559293";"https://maps.google.com/?cid=0x0:0x208f85b200ee57be";""
"komplek housing";"Perhimpunan Pengembang Perumahan";"Home Awa";"PX23+GP7, Ampera, Kec. Kota Masohi, Kabupaten Maluku Tengah, Maluku";"Kabupaten Maluku Tengah, Maluku";"MALUKU";"";"Indonesia";"";"";"";"-3.2987034";"128.9543097";"https://maps.google.com/?cid=0x0:0x422596434a9bbb2d";""
"komplek housing";"komplek housing";"Keluarga Ny. O Metaloy";"MXX3+XPF, Ampera, Kec. Kota Masohi, Kabupaten Maluku Tengah, Maluku";"Kabupaten Maluku Tengah, Maluku";"MALUKU";"";"Indonesia";"";"";"";"-3.3000615";"128.9542861";"https://maps.google.com/?cid=0x0:0x5c1a02659fd089ae";""
"komplek housing";"Komplek perumahan";"Fany";"PX23+CRX, Ampera, Kec. Kota Masohi, Kabupaten Maluku Tengah, Maluku 97511";"Ampera, Kec. Kota Masohi, Kabupaten Maluku Tengah";"MALUKU";"97511";"Indonesia";"";"";"";"-3.2988788";"128.9546183";"https://maps.google.com/?cid=0x0:0x8a63c4db24b12a83";""
"komplek housing";"Komplek perumahan";"Manan's Home";"MXX3+XPF, Ampera, Kec. Kota Masohi, Kabupaten Maluku Tengah, Maluku";"Kabupaten Maluku Tengah, Maluku";"MALUKU";"";"Indonesia";"";"";"";"-3.3000615";"128.9542861";"https://maps.google.com/?cid=0x0:0x7e938279843e8c0f";""
"komplek housing";"Pembangunan Perumahan";"Masohi";"PX26+C67, Lesane, Kec. Kota Masohi, Kabupaten Maluku Tengah, Maluku";"Kabupaten Maluku Tengah, Maluku";"MALUKU";"";"Indonesia";"";"";"";"-3.2989635";"128.960532";"https://maps.google.com/?cid=0x0:0x1615b493297306e7";""
"komplek housing";"Pembangunan Perumahan";"masohi kabupaten maluku tengah";"PX48+RJ6, Haruru, Kec. Amahai, Kabupaten Maluku Tengah, Maluku";"Kabupaten Maluku Tengah, Maluku";"MALUKU";"";"Indonesia";"";"";"";"-3.292975";"128.9665165";"https://maps.google.com/?cid=0x0:0x34f0dbb4a58a4515";""
"komplek housing";"Pembangunan Perumahan";"Kota Masohi";"MXXF+H2P, Haruru, Kec. Amahai, Kabupaten Maluku Tengah, Maluku";"Kabupaten Maluku Tengah, Maluku";"MALUKU";"";"Indonesia";"";"";"";"-3.3010354";"128.9725721";"https://maps.google.com/?cid=0x0:0xd74a825c6e1bc2ee";""
"komplek housing";"komplek housing";"Risma";"MXX3+XPF, Ampera, Kec. Kota Masohi, Kabupaten Maluku Tengah, Maluku";"Kabupaten Maluku Tengah, Maluku";"MALUKU";"";"Indonesia";"";"";"";"-3.3000615";"128.9542861";"https://maps.google.com/?cid=0x0:0xd389e9873d3cca39";""
"komplek housing";"Pembangunan Perumahan";"Masohi";"PX29+F6X, Letwaru, Kec. Kota Masohi, Kabupaten Maluku Tengah, Maluku";"Kabupaten Maluku Tengah, Maluku";"MALUKU";"";"Indonesia";"";"";"";"-3.2987644";"128.9681112";"https://maps.google.com/?cid=0x0:0xe8765fe9b1097853";""
"komplek housing";"Komplek perumahan";"Kios fauzan";"MXX3+XPF, Ampera, Kec. Kota Masohi, Kabupaten Maluku Tengah, Maluku";"Kabupaten Maluku Tengah, Maluku";"MALUKU";"";"Indonesia";"";"";"";"-3.3000615";"128.9542861";"https://maps.google.com/?cid=0x0:0x6fe3c50cf5a84c3b";""
"komplek housing";"Komplek perumahan";"Dzarvi";"MXX3+XPF, Ampera, Kec. Kota Masohi, Kabupaten Maluku Tengah, Maluku";"Kabupaten Maluku Tengah, Maluku";"MALUKU";"";"Indonesia";"";"";"";"-3.3000615";"128.9542861";"https://maps.google.com/?cid=0x0:0x45089038e98b7430";""
"komplek housing";"komplek housing";"Anto voth";"MXX3+XPF, Ampera, Kec. Kota Masohi, Kabupaten Maluku Tengah, Maluku";"Kabupaten Maluku Tengah, Maluku";"MALUKU";"";"Indonesia";"";"";"";"-3.3000615";"128.9542861";"https://maps.google.com/?cid=0x0:0xa9540dcd2b9553cc";""
"komplek housing";"Komplek perumahan";"Sabda";"MXX3+XPF, Ampera, Kec. Kota Masohi, Kabupaten Maluku Tengah, Maluku";"Kabupaten Maluku Tengah, Maluku";"MALUKU";"";"Indonesia";"";"";"";"-3.3000615";"128.9542861";"https://maps.google.com/?cid=0x0:0xbccd5df6054e0b2d";""
"komplek housing";"Pembangunan Perumahan";"Kota MASOHI";"PX47+JQP, Jl. Propinsi, Letwaru, Kec. Kota Masohi, Kabupaten Maluku Tengah, Maluku 97511";"Jl. Propinsi, Letwaru, Kec. Kota Masohi, Kabupaten Maluku Tengah";"MALUKU";"97511";"Indonesia";"";"";"";"-3.2934148";"128.9644588";"https://maps.google.com/?cid=0x0:0x8a64d1245adeedd9";""
"komplek housing";"Taman bermain";"Home Center Masohi";"PX26+WQQ, Jalan Kakatua, RT.3/RW.4, Lesane, Kec. Kota Masohi, Kabupaten Maluku Tengah, Maluku";"Kabupaten Maluku Tengah, Maluku";"MALUKU";"";"Indonesia";"";"";"";"-3.2976591";"128.9619733";"https://maps.google.com/?cid=0x0:0xfd468c05e4fdc499";""
"komplek housing";"Komplek perumahan";"Waimanate";"MXX3+XPF, Ampera, Kec. Kota Masohi, Kabupaten Maluku Tengah, Maluku";"Kabupaten Maluku Tengah, Maluku";"MALUKU";"";"Indonesia";"";"";"";"-3.3000615";"128.9542861";"https://maps.google.com/?cid=0x0:0x16c24d84f77299bd";""
"komplek housing";"Komplek perumahan";"Maluku tenga";"MXX3+XPF km7 dusun simalow desa kelurahan sela, Ampera, Kec. Kota Masohi, Kabupaten Maluku Tengah, Maluku";"Kabupaten Maluku Tengah, Maluku";"MALUKU";"";"Indonesia";"";"";"";"-3.3000615";"128.9542861";"https://maps.google.com/?cid=0x0:0x5d7dd62e2c05165";""
"komplek housing";"Komplek perumahan";"DEPOT AIR ISI ULANG MAULANA";"MXX4+HWF, Jl. Cengkeh, Namaelo, Kec. Kota Masohi, Kabupaten Maluku Tengah, Maluku";"Kabupaten Maluku Tengah, Maluku";"MALUKU";"";"Indonesia";" 082266905259";"";"";"-3.3010582";"128.957306";"https://maps.google.com/?cid=0x0:0xa2cd60c9950e465";""
"komplek housing";"Komplek perumahan";"Rhm mama onco kelanohon";"MXX3+XPF, Jln makam pahlawan, Ampera, Kec. Kota Masohi, Kabupaten Maluku Tengah, Maluku";"Kabupaten Maluku Tengah, Maluku";"MALUKU";"";"Indonesia";"";"";"";"-3.3000615";"128.9542861";"https://maps.google.com/?cid=0x0:0x99e7f57ff170d268";""
"komplek housing";"Komplek perumahan";"Rumah";"MXW8+WXX, Namaelo, Kec. Kota Masohi, Kabupaten Maluku Tengah, Maluku 97511";"Namaelo, Kec. Kota Masohi, Kabupaten Maluku Tengah";"MALUKU";"97511";"Indonesia";"";"";"";"-3.3026287";"128.9674923";"https://maps.google.com/?cid=0x0:0xa76b4e37b5e302be";""
"komplek housing";"Pembangunan Perumahan";"PT. MASOHI INDAH PERMAI";"Ruko Mutiara Superblok, Jl. Mutiara No.57 B-6, Mardika, Rijali, Kec. Sirimau, Kota Ambon, Maluku 97123";"Jl. Mutiara No.57 B-6, Mardika, Rijali, Kec. Sirimau, Kota Ambon";"MALUKU";"97123";"Indonesia";" 0911312745";"";"";"-3.6880835";"128.1873886";"https://maps.google.com/?cid=0x0:0x7f075fa61e6b7049";""
"komplek housing";"Komplek perumahan";"PT. MASOHI INDAH PERMAI";"Jl. Kesehatan Jl. Karang Panjang No.3, RT.003/RW.005, Kel Amantelu, Kec. Sirimau, Kota Ambon, Maluku";"Kota Ambon, Maluku";"MALUKU";"";"Indonesia";" 0811471499";"";"";"-3.6938209";"128.1909637";"https://maps.google.com/?cid=0x0:0xd8050ec9b25fb99d";""
"komplek housing";"komplek housing";"Kec. Kota Masohi";"Kabupaten Maluku Tengah, Maluku";"Kabupaten Maluku Tengah, Maluku";"MALUKU";"";"Indonesia";"";"";"";"-3.3000615";"128.9542861";"https://maps.google.com/?cid=0x0:0x22d2194857d48769";""
"komplek housing";"Komplek perumahan";"ARCHIBALD HOME";"MXV5+376, Namaelo, Kec. Kota Masohi, Kabupaten Maluku Tengah, Maluku 97511";"Namaelo, Kec. Kota Masohi, Kabupaten Maluku Tengah";"MALUKU";"97511";"Indonesia";"";"";"";"-3.308397";"128.957884";"https://maps.google.com/?cid=0x0:0x3fc373e0e82a67";""
"komplek housing";"Komplek perumahan";"kompleks mahoni";"MXR2+W8X, Namaelo, Kec. Kota Masohi, Kabupaten Maluku Tengah, Maluku 97511";"Namaelo, Kec. Kota Masohi, Kabupaten Maluku Tengah";"MALUKU";"97511";"Indonesia";" 082245446100";"";"";"-3.3076395";"128.9508612";"https://maps.google.com/?cid=0x0:0x40ff99378ddb3dfe";""
"komplek housing";"Komplek perumahan";"Kompleks Grj";"PX29+98X, Jln. Sultan Hasannudin, Letwaru, Kec. Kota Masohi, Kabupaten Maluku Tengah, Maluku 97511";"Jln. Sultan Hasannudin, Letwaru, Kec. Kota Masohi, Kabupaten Maluku Tengah";"MALUKU";"97511";"Indonesia";"";"";"";"-3.2993882";"128.9684613";"https://maps.google.com/?cid=0x0:0xe4b53c1652a67e55";""
"komplek housing";"komplek housing";"Perumahan TL";"MXW6+MVG, jl. bangau, Namaelo, Kec. Kota Masohi, Kabupaten Maluku Tengah, Maluku 97511";"jl. bangau, Namaelo, Kec. Kota Masohi, Kabupaten Maluku Tengah";"MALUKU";"97511";"Indonesia";"";"";"";"-3.303321";"128.9621933";"https://maps.google.com/?cid=0x0:0xb14502640557227b";""
"komplek housing";"Komplek perumahan";"Rumah Dinas 1 KPPN Masohi";"MXW8+MF5, Jl Kali Durian, Namaelo, Kec. Kota Masohi, Kabupaten Maluku Tengah, Maluku 97511";"Jl Kali Durian, Namaelo, Kec. Kota Masohi, Kabupaten Maluku Tengah";"MALUKU";"97511";"Indonesia";"";"";"";"-3.3033673";"128.966235";"https://maps.google.com/?cid=0x0:0x8c751513a724d57";""
"komplek housing";"komplek housing";"Kec. Kota Masohi";"Kabupaten Maluku Tengah, Maluku";"Kabupaten Maluku Tengah, Maluku";"MALUKU";"";"Indonesia";"";"";"";"-3.3000615";"128.9542861";"https://maps.google.com/?cid=0x0:0x22d2194857d48769";""
"komplek housing";"Pembangunan Perumahan";"Kota Masohi";"MXXF+H2P, Haruru, Kec. Amahai, Kabupaten Maluku Tengah, Maluku";"Kabupaten Maluku Tengah, Maluku";"MALUKU";"";"Indonesia";"";"";"";"-3.3010354";"128.9725721";"https://maps.google.com/?cid=0x0:0xd74a825c6e1bc2ee";""
"komplek housing";"Komplek perumahan";"Tamaela home_sWeet home";"Jl. Manusela No.97512, Namasina, Kec. Kota Masohi, Kabupaten Maluku Tengah, Maluku";"Kabupaten Maluku Tengah, Maluku";"MALUKU";"";"Indonesia";"";"";"";"-3.3097364";"128.9473394";"https://maps.google.com/?cid=0x0:0x862f0edffea6af8c";""
"komplek housing";"Pembangunan Perumahan";"Masohi";"PX26+C67, Lesane, Kec. Kota Masohi, Kabupaten Maluku Tengah, Maluku";"Kabupaten Maluku Tengah, Maluku";"MALUKU";"";"Indonesia";"";"";"";"-3.2989635";"128.960532";"https://maps.google.com/?cid=0x0:0x1615b493297306e7";""
"komplek housing";"Pembangunan Perumahan";"Masohi";"PX29+F6X, Letwaru, Kec. Kota Masohi, Kabupaten Maluku Tengah, Maluku";"Kabupaten Maluku Tengah, Maluku";"MALUKU";"";"Indonesia";"";"";"";"-3.2987644";"128.9681112";"https://maps.google.com/?cid=0x0:0xe8765fe9b1097853";""
"komplek housing";"Komplek perumahan";"DEPOT AIR ISI ULANG MAULANA";"MXX4+HWF, Jl. Cengkeh, Namaelo, Kec. Kota Masohi, Kabupaten Maluku Tengah, Maluku";"Kabupaten Maluku Tengah, Maluku";"MALUKU";"";"Indonesia";" 082266905259";"";"";"-3.3010582";"128.957306";"https://maps.google.com/?cid=0x0:0xa2cd60c9950e465";""
"komplek housing";"Pembangunan Perumahan";"VILLA MUTIARA MASOHI";"Jl. Lintas Seram, Kampung Baru, Haruru, Kec. Kota Masohi, Kabupaten Maluku Tengah, Maluku";"Kabupaten Maluku Tengah, Maluku";"MALUKU";"";"Indonesia";" 081271263277";"";"";"-3.2761412";"128.9831892";"https://maps.google.com/?cid=0x0:0xd851566b195916ee";""
"komplek housing";"Komplek perumahan";"Homebase PT.MAHAGA PRATAMA CLUSTER MASOHI";"MXX9+GP5, Unnamed Road, Letwaru, Kec. Kota Masohi, Kabupaten Maluku Tengah, Maluku 97511";"Unnamed Road, Letwaru, Kec. Kota Masohi, Kabupaten Maluku Tengah";"MALUKU";"97511";"Indonesia";"";"";"";"-3.3012403";"128.9693506";"https://maps.google.com/?cid=0x0:0xdbebdc6d51b26449";""
"komplek housing";"Taman bermain";"Home Center Masohi";"PX26+WQQ, Jalan Kakatua, RT.3/RW.4, Lesane, Kec. Kota Masohi, Kabupaten Maluku Tengah, Maluku";"Kabupaten Maluku Tengah, Maluku";"MALUKU";"";"Indonesia";"";"";"";"-3.2976591";"128.9619733";"https://maps.google.com/?cid=0x0:0xfd468c05e4fdc499";""
"komplek housing";"Pembangunan Perumahan";"Kota MASOHI";"PX47+JQP, Jl. Propinsi, Letwaru, Kec. Kota Masohi, Kabupaten Maluku Tengah, Maluku 97511";"Jl. Propinsi, Letwaru, Kec. Kota Masohi, Kabupaten Maluku Tengah";"MALUKU";"97511";"Indonesia";"";"";"";"-3.2934148";"128.9644588";"https://maps.google.com/?cid=0x0:0x8a64d1245adeedd9";""
"komplek housing";"Komplek perumahan";"Kel. M. Alfons";"PX48+P2C, Jl. Trans Seram, Letwaru, Kec. Kota Masohi, Kabupaten Maluku Tengah, Maluku";"Kabupaten Maluku Tengah, Maluku";"MALUKU";"";"Indonesia";"";"";"";"-3.2931843";"128.9650294";"https://maps.google.com/?cid=0x0:0x8e328ef5d557b6d2";""
"komplek housing";"Komplek perumahan";"Rumah";"MXW8+WXX, Namaelo, Kec. Kota Masohi, Kabupaten Maluku Tengah, Maluku 97511";"Namaelo, Kec. Kota Masohi, Kabupaten Maluku Tengah";"MALUKU";"97511";"Indonesia";"";"";"";"-3.3026287";"128.9674923";"https://maps.google.com/?cid=0x0:0xa76b4e37b5e302be";""
"komplek housing";"Komplek perumahan";"kampong tengah";"MWRW+2HC, Namasina, Kec. Kota Masohi, Kabupaten Maluku Tengah, Maluku";"Kabupaten Maluku Tengah, Maluku";"MALUKU";"";"Indonesia";"";"";"";"-3.3099476";"128.9463931";"https://maps.google.com/?cid=0x0:0x45d8d33f4d886fe9";""
"komplek housing";"komplek housing";"Kec. Kota Masohi";"Kabupaten Maluku Tengah, Maluku";"Kabupaten Maluku Tengah, Maluku";"MALUKU";"";"Indonesia";"";"";"";"-3.3000615";"128.9542861";"https://maps.google.com/?cid=0x0:0x22d2194857d48769";""
"komplek housing";"Pembangunan Perumahan";"Kota Masohi";"MXXF+H2P, Haruru, Kec. Amahai, Kabupaten Maluku Tengah, Maluku";"Kabupaten Maluku Tengah, Maluku";"MALUKU";"";"Indonesia";"";"";"";"-3.3010354";"128.9725721";"https://maps.google.com/?cid=0x0:0xd74a825c6e1bc2ee";""
"komplek housing";"Pembangunan Perumahan";"masohi kabupaten maluku tengah";"PX48+RJ6, Haruru, Kec. Amahai, Kabupaten Maluku Tengah, Maluku";"Kabupaten Maluku Tengah, Maluku";"MALUKU";"";"Indonesia";"";"";"";"-3.292975";"128.9665165";"https://maps.google.com/?cid=0x0:0x34f0dbb4a58a4515";""
"komplek housing";"Pembangunan Perumahan";"Masohi";"PX26+C67, Lesane, Kec. Kota Masohi, Kabupaten Maluku Tengah, Maluku";"Kabupaten Maluku Tengah, Maluku";"MALUKU";"";"Indonesia";"";"";"";"-3.2989635";"128.960532";"https://maps.google.com/?cid=0x0:0x1615b493297306e7";""
"komplek housing";"Komplek perumahan";"Homebase PT.MAHAGA PRATAMA CLUSTER MASOHI";"MXX9+GP5, Unnamed Road, Letwaru, Kec. Kota Masohi, Kabupaten Maluku Tengah, Maluku 97511";"Unnamed Road, Letwaru, Kec. Kota Masohi, Kabupaten Maluku Tengah";"MALUKU";"97511";"Indonesia";"";"";"";"-3.3012403";"128.9693506";"https://maps.google.com/?cid=0x0:0xdbebdc6d51b26449";""
"komplek housing";"Komplek perumahan";"kampong tengah";"MWRW+2HC, Namasina, Kec. Kota Masohi, Kabupaten Maluku Tengah, Maluku";"Kabupaten Maluku Tengah, Maluku";"MALUKU";"";"Indonesia";"";"";"";"-3.3099476";"128.9463931";"https://maps.google.com/?cid=0x0:0x45d8d33f4d886fe9";""
"komplek housing";"Pembangunan Perumahan";"VILLA MUTIARA MASOHI";"Jl. Lintas Seram, Kampung Baru, Haruru, Kec. Kota Masohi, Kabupaten Maluku Tengah, Maluku";"Kabupaten Maluku Tengah, Maluku";"MALUKU";"";"Indonesia";" 081271263277";"";"";"-3.2761412";"128.9831892";"https://maps.google.com/?cid=0x0:0xd851566b195916ee";""
"komplek housing";"Pembangunan Perumahan";"Kota MASOHI";"PX47+JQP, Jl. Propinsi, Letwaru, Kec. Kota Masohi, Kabupaten Maluku Tengah, Maluku 97511";"Jl. Propinsi, Letwaru, Kec. Kota Masohi, Kabupaten Maluku Tengah";"MALUKU";"97511";"Indonesia";"";"";"";"-3.2934148";"128.9644588";"https://maps.google.com/?cid=0x0:0x8a64d1245adeedd9";""
"komplek housing";"Taman bermain";"Home Center Masohi";"PX26+WQQ, Jalan Kakatua, RT.3/RW.4, Lesane, Kec. Kota Masohi, Kabupaten Maluku Tengah, Maluku";"Kabupaten Maluku Tengah, Maluku";"MALUKU";"";"Indonesia";"";"";"";"-3.2976591";"128.9619733";"https://maps.google.com/?cid=0x0:0xfd468c05e4fdc499";""
"komplek housing";"Komplek perumahan";"Kel. M. Alfons";"PX48+P2C, Jl. Trans Seram, Letwaru, Kec. Kota Masohi, Kabupaten Maluku Tengah, Maluku";"Kabupaten Maluku Tengah, Maluku";"MALUKU";"";"Indonesia";"";"";"";"-3.2931843";"128.9650294";"https://maps.google.com/?cid=0x0:0x8e328ef5d557b6d2";""
"komplek housing";"Komplek perumahan";"Rumah";"MXW8+WXX, Namaelo, Kec. Kota Masohi, Kabupaten Maluku Tengah, Maluku 97511";"Namaelo, Kec. Kota Masohi, Kabupaten Maluku Tengah";"MALUKU";"97511";"Indonesia";"";"";"";"-3.3026287";"128.9674923";"https://maps.google.com/?cid=0x0:0xa76b4e37b5e302be";""
"komplek housing";"Komplek perumahan";"sahalessy home";"MWVV+27V, Namasina, Kec. Kota Masohi, Kabupaten Maluku Tengah, Maluku";"Kabupaten Maluku Tengah, Maluku";"MALUKU";"";"Indonesia";"";"";"";"-3.307383";"128.9431597";"https://maps.google.com/?cid=0x0:0x46838dd31c6da112";""
"komplek housing";"Perhimpunan Pengembang Perumahan";"Walang Kota_Masohi";"MXWF+M4G, Letwaru, Kec. Kota Masohi, Kabupaten Maluku Tengah, Maluku";"Kabupaten Maluku Tengah, Maluku";"MALUKU";"";"Indonesia";"";"";"";"-3.3033222";"128.9728249";"https://maps.google.com/?cid=0x0:0x8634c19beb5a8af3";""
"komplek housing";"Pembangunan Perumahan";"Kota Masohi";"MXXF+H2P, Haruru, Kec. Amahai, Kabupaten Maluku Tengah, Maluku";"Kabupaten Maluku Tengah, Maluku";"MALUKU";"";"Indonesia";"";"";"";"-3.3010354";"128.9725721";"https://maps.google.com/?cid=0x0:0xd74a825c6e1bc2ee";""
"komplek housing";"Perhimpunan Pengembang Perumahan";"Walang Kota_Masohi";"MXWF+M4G, Letwaru, Kec. Kota Masohi, Kabupaten Maluku Tengah, Maluku";"Kabupaten Maluku Tengah, Maluku";"MALUKU";"";"Indonesia";"";"";"";"-3.3033222";"128.9728249";"https://maps.google.com/?cid=0x0:0x8634c19beb5a8af3";""
"komplek housing";"Pembangunan Perumahan";"VILLA MUTIARA MASOHI";"Jl. Lintas Seram, Kampung Baru, Haruru, Kec. Kota Masohi, Kabupaten Maluku Tengah, Maluku";"Kabupaten Maluku Tengah, Maluku";"MALUKU";"";"Indonesia";" 081271263277";"";"";"-3.2761412";"128.9831892";"https://maps.google.com/?cid=0x0:0xd851566b195916ee";""
"komplek housing";"Pembangunan Perumahan";"masohi kabupaten maluku tengah";"PX48+RJ6, Haruru, Kec. Amahai, Kabupaten Maluku Tengah, Maluku";"Kabupaten Maluku Tengah, Maluku";"MALUKU";"";"Indonesia";"";"";"";"-3.292975";"128.9665165";"https://maps.google.com/?cid=0x0:0x34f0dbb4a58a4515";""
"komplek housing";"komplek housing";"Kec. Kota Masohi";"Kabupaten Maluku Tengah, Maluku";"Kabupaten Maluku Tengah, Maluku";"MALUKU";"";"Indonesia";"";"";"";"-3.3000615";"128.9542861";"https://maps.google.com/?cid=0x0:0x22d2194857d48769";""
"komplek housing";"Pembangunan Perumahan";"Kota Masohi";"MXXF+H2P, Haruru, Kec. Amahai, Kabupaten Maluku Tengah, Maluku";"Kabupaten Maluku Tengah, Maluku";"MALUKU";"";"Indonesia";"";"";"";"-3.3010354";"128.9725721";"https://maps.google.com/?cid=0x0:0xd74a825c6e1bc2ee";""
"komplek housing";"Komplek perumahan";"Vivy's House";"JL. Baru, RT.016/RW.00, Letwaru, Kota Masohi, Central Maluku Regency, Maluku 97515";"RT.016/RW.00, Letwaru, Kota Masohi, Central Maluku Regency";"MALUKU";"97515";"Indonesia";"";"";"";"-3.3048561";"128.9718008";"https://maps.google.com/?cid=0x0:0x7294138d980d4c23";""
"komplek housing";"Pembangunan Perumahan";"VILLA MUTIARA MASOHI";"Jl. Lintas Seram, Kampung Baru, Haruru, Kec. Kota Masohi, Kabupaten Maluku Tengah, Maluku";"Kabupaten Maluku Tengah, Maluku";"MALUKU";"";"Indonesia";" 081271263277";"";"";"-3.2761412";"128.9831892";"https://maps.google.com/?cid=0x0:0xd851566b195916ee";""
"komplek housing";"Pembangunan Perumahan";"Masohi";"PX29+F6X, Letwaru, Kec. Kota Masohi, Kabupaten Maluku Tengah, Maluku";"Kabupaten Maluku Tengah, Maluku";"MALUKU";"";"Indonesia";"";"";"";"-3.2987644";"128.9681112";"https://maps.google.com/?cid=0x0:0xe8765fe9b1097853";""
"komplek housing";"Pembangunan Perumahan";"Masohi";"PX26+C67, Lesane, Kec. Kota Masohi, Kabupaten Maluku Tengah, Maluku";"Kabupaten Maluku Tengah, Maluku";"MALUKU";"";"Indonesia";"";"";"";"-3.2989635";"128.960532";"https://maps.google.com/?cid=0x0:0x1615b493297306e7";""
"komplek housing";"Komplek perumahan";"Homebase PT.MAHAGA PRATAMA CLUSTER MASOHI";"MXX9+GP5, Unnamed Road, Letwaru, Kec. Kota Masohi, Kabupaten Maluku Tengah, Maluku 97511";"Unnamed Road, Letwaru, Kec. Kota Masohi, Kabupaten Maluku Tengah";"MALUKU";"97511";"Indonesia";"";"";"";"-3.3012403";"128.9693506";"https://maps.google.com/?cid=0x0:0xdbebdc6d51b26449";""
"komplek housing";"Komplek perumahan";"Kel. M. Alfons";"PX48+P2C, Jl. Trans Seram, Letwaru, Kec. Kota Masohi, Kabupaten Maluku Tengah, Maluku";"Kabupaten Maluku Tengah, Maluku";"MALUKU";"";"Indonesia";"";"";"";"-3.2931843";"128.9650294";"https://maps.google.com/?cid=0x0:0x8e328ef5d557b6d2";""
"komplek housing";"Komplek perumahan";"kampong tengah";"MWRW+2HC, Namasina, Kec. Kota Masohi, Kabupaten Maluku Tengah, Maluku";"Kabupaten Maluku Tengah, Maluku";"MALUKU";"";"Indonesia";"";"";"";"-3.3099476";"128.9463931";"https://maps.google.com/?cid=0x0:0x45d8d33f4d886fe9";""
"komplek housing";"Pembangunan Perumahan";"Kota MASOHI";"PX47+JQP, Jl. Propinsi, Letwaru, Kec. Kota Masohi, Kabupaten Maluku Tengah, Maluku 97511";"Jl. Propinsi, Letwaru, Kec. Kota Masohi, Kabupaten Maluku Tengah";"MALUKU";"97511";"Indonesia";"";"";"";"-3.2934148";"128.9644588";"https://maps.google.com/?cid=0x0:0x8a64d1245adeedd9";""
"komplek housing";"Taman bermain";"Home Center Masohi";"PX26+WQQ, Jalan Kakatua, RT.3/RW.4, Lesane, Kec. Kota Masohi, Kabupaten Maluku Tengah, Maluku";"Kabupaten Maluku Tengah, Maluku";"MALUKU";"";"Indonesia";"";"";"";"-3.2976591";"128.9619733";"https://maps.google.com/?cid=0x0:0xfd468c05e4fdc499";""
"komplek housing";"Komplek perumahan";"DEPOT AIR ISI ULANG MAULANA";"MXX4+HWF, Jl. Cengkeh, Namaelo, Kec. Kota Masohi, Kabupaten Maluku Tengah, Maluku";"Kabupaten Maluku Tengah, Maluku";"MALUKU";"";"Indonesia";" 082266905259";"";"";"-3.3010582";"128.957306";"https://maps.google.com/?cid=0x0:0xa2cd60c9950e465";""
"komplek housing";"Komplek perumahan";"Rumah";"MXW8+WXX, Namaelo, Kec. Kota Masohi, Kabupaten Maluku Tengah, Maluku 97511";"Namaelo, Kec. Kota Masohi, Kabupaten Maluku Tengah";"MALUKU";"97511";"Indonesia";"";"";"";"-3.3026287";"128.9674923";"https://maps.google.com/?cid=0x0:0xa76b4e37b5e302be";""
"komplek housing";"Komplek perumahan";"Sultan";"PX29+F6X, RT.15, Letwaru, Kec. Kota Masohi, Kabupaten Maluku Tengah, Maluku";"Kabupaten Maluku Tengah, Maluku";"MALUKU";"";"Indonesia";"";"";"";"-3.2987644";"128.9681112";"https://maps.google.com/?cid=0x0:0xc1084be1e2c594de";""
"komplek housing";"Pembangunan Perumahan";"Dinas Perumahan dan Kawasan Permukiman Maluku Tengah";"MXV4+V5Q, Namaelo, Kec. Kota Masohi, Kabupaten Maluku Tengah, Maluku";"Kabupaten Maluku Tengah, Maluku";"MALUKU";"";"Indonesia";"";"";"";"-3.3053315";"128.9554314";"https://maps.google.com/?cid=0x0:0x2ccf9cb965a13bf9";""
"komplek housing";"Komplek perumahan";"Kosan";"MXV9+Q2X, Namaelo, Kec. Kota Masohi, Kabupaten Maluku Tengah, Maluku";"Kabupaten Maluku Tengah, Maluku";"MALUKU";"";"Indonesia";"";"";"";"-3.305504";"128.9675998";"https://maps.google.com/?cid=0x0:0x45019fa5900c7678";""
"komplek housing";"Pembangunan Perumahan";"KEL.MELSASAIL";"W5QX+74F, asrama tentara koramil, Piru, Kec. Seram Bar., Kabupaten Seram Bagian Barat, Maluku";"Kabupaten Seram Bagian Barat, Maluku";"MALUKU";"";"Indonesia";"";"";"";"-3.0618249";"128.1978003";"https://maps.google.com/?cid=0x0:0x8422f4054951c201";""
"komplek housing";"Komplek perumahan";"Kel.s.somae";"W6P4+X4P, Piru, Kec. Seram Bar., Kabupaten Seram Bagian Barat, Maluku";"Kabupaten Seram Bagian Barat, Maluku";"MALUKU";"";"Indonesia";"";"";"";"-3.0625311";"128.2053436";"https://maps.google.com/?cid=0x0:0xbccfd6ac1b49de";""
"komplek housing";"komplek housing";"Kec. Seram Utara Bar.";"Kabupaten Maluku Tengah, Maluku";"Kabupaten Maluku Tengah, Maluku";"MALUKU";"";"Indonesia";"";"";"";"-2.8382969";"128.9688712";"https://maps.google.com/?cid=0x0:0x2813ca898f5d1a3b";""
"komplek housing";"Komplek perumahan";"Kel.M.Latumahina";"Makariki km1, Kec. Kota Masohi, Maluku 97516";"Kec. Kota Masohi";"MALUKU";"97516";"Indonesia";" 082235852740";"";"";"-3.2571843";"128.9785189";"https://maps.google.com/?cid=0x0:0xae3142b6ba82c78c";""
"komplek housing";"Komplek perumahan";"Kel M.Tilaporu";"PXVH+JJ7, Makariki, Kec. Amahai, Kabupaten Maluku Tengah, Maluku";"Kabupaten Maluku Tengah, Maluku";"MALUKU";"";"Indonesia";"";"";"";"-3.2556966";"128.9789313";"https://maps.google.com/?cid=0x0:0xdb46dcfcc04637f3";""
"komplek housing";"Komplek perumahan";"Komplek Anloger";"73F2+22P, Hatu, Kec. Leihitu Bar., Kabupaten Maluku Tengah, Maluku";"Kabupaten Maluku Tengah, Maluku";"MALUKU";"";"Indonesia";"";"";"";"-3.727416";"128.0500809";"https://maps.google.com/?cid=0x0:0x8e67175cacae7018";""
"komplek housing";"Komplek perumahan";"Ardo Home";"62G2+2V6, Allang, Kec. Leihitu Bar., Kabupaten Maluku Tengah, Maluku";"Kabupaten Maluku Tengah, Maluku";"MALUKU";"";"Indonesia";"";"";"";"-3.7747069";"128.0030025";"https://maps.google.com/?cid=0x0:0xcdf40272eeedceef";""
"komplek housing";"Kantor Perusahaan";"Kantor Camat Leihitu Barat";"6XG8+G36, Dusun Tapi, Wakasihu, Kec. Leihitu Bar., Kabupaten Maluku Tengah, Maluku";"Kabupaten Maluku Tengah, Maluku";"MALUKU";"";"Indonesia";"";"";"";"-3.7737066";"127.9651407";"https://maps.google.com/?cid=0x0:0xc7c9f645e596c36e";""
"komplek housing";"komplek housing";"Kec. Telutih";"Kabupaten Maluku Tengah, Maluku";"Kabupaten Maluku Tengah, Maluku";"MALUKU";"";"Indonesia";"";"";"";"-3.3265855";"129.7841976";"https://maps.google.com/?cid=0x0:0x43575c604a0bf9a4";""
"komplek housing";"Komplek perumahan";"hasnurzaky";"2WH6+7G9, Seti, Kec. Seram Utara Tim. Seti, Kabupaten Maluku Tengah, Maluku";"Kabupaten Maluku Tengah, Maluku";"MALUKU";"";"Indonesia";"";"";"";"-2.9718296";"129.9113509";"https://maps.google.com/?cid=0x0:0xb44ee0abf147d7a2";""
"komplek housing";"Gedung Apartemen";"Abrisam House";"XXG6+G2, Seti, Kec. Seram Utara Tim. Seti, Kabupaten Maluku Tengah, Maluku";"Kabupaten Maluku Tengah, Maluku";"MALUKU";"";"Indonesia";"";"";"";"-3.0236901";"129.9600471";"https://maps.google.com/?cid=0x0:0x9c175f7610ad9bda";""
"komplek housing";"komplek housing";"Kec. Seram Utara Tim. Seti";"Kabupaten Maluku Tengah, Maluku";"Kabupaten Maluku Tengah, Maluku";"MALUKU";"";"Indonesia";"";"";"";"-2.9914278";"129.9266389";"https://maps.google.com/?cid=0x0:0xf1f031938308f20f";""
"komplek housing";"Komplek perumahan";"Rumah Siti Nurhasanah";"X26F+M5R, Aketernate, Kec. Seram Utara Tim. Seti, Kabupaten Maluku Tengah, Maluku";"Kabupaten Maluku Tengah, Maluku";"MALUKU";"";"Indonesia";"";"";"";"-3.0382619";"130.0228936";"https://maps.google.com/?cid=0x0:0x1d2f6d636c57ab76";""
"komplek housing";"komplek housing";"Kec. Seram Utara Tim. Kobi";"Kabupaten Maluku Tengah, Maluku";"Kabupaten Maluku Tengah, Maluku";"MALUKU";"";"Indonesia";"";"";"";"-2.9958071";"129.8345109";"https://maps.google.com/?cid=0x0:0x7d5c902227229a42";""
"komplek housing";"Pembangunan Perumahan";"Seram Utara Timur Kobi";"XQ7G+R63, Maneo Rendah, Kec. Seram Utara Tim. Kobi, Kabupaten Maluku Tengah, Maluku";"Kabupaten Maluku Tengah, Maluku";"MALUKU";"";"Indonesia";"";"";"";"-3.0354877";"129.7755571";"https://maps.google.com/?cid=0x0:0x2d80c0151e375331";""
"komplek housing";"Pembangunan Perumahan";"KOBI RAJA";"2WC5+QQ4, Seti, Kec. Seram Utara Tim. Seti, Kabupaten Maluku Tengah, Maluku";"Kabupaten Maluku Tengah, Maluku";"MALUKU";"";"Indonesia";"";"";"";"-2.9781162";"129.9094499";"https://maps.google.com/?cid=0x0:0x2f4ff13339a03cd1";""
"komplek housing";"Komplek perumahan";"Pelabuhan Kobi Sadar";"3RM8+WF3, Sadar, Kobi, Kec. Seram Utara Tim. Kobi, Kabupaten Maluku Tengah, Maluku";"Kabupaten Maluku Tengah, Maluku";"MALUKU";"";"Indonesia";"";"";"";"-2.9152417";"129.8161773";"https://maps.google.com/?cid=0x0:0xab8e5e863e3f5c7";""
"komplek housing";"Sekolah pendidikan umum";"MA Nurul Huda";"2VW4+552, Jl. Lintas Seram, Manusela, Kec. Seram Utara Tim. Kobi, Kabupaten Maluku Tengah, Maluku";"Kabupaten Maluku Tengah, Maluku";"MALUKU";"";"Indonesia";" 082248843867";"";"";"-2.9546049";"129.855396";"https://maps.google.com/?cid=0x0:0x254944a2f2d1434b";""
"komplek housing";"Pembangunan Perumahan";"Desa Kobi Mukti";"3QCR+WW8, Jl. Pendidikan, Kobi Mukti, Kec. Seram Utara Tim. Kobi, Kabupaten Maluku Tengah, Maluku";"Kabupaten Maluku Tengah, Maluku";"MALUKU";"";"Indonesia";"";"";"";"-2.9277075";"129.7923347";"https://maps.google.com/?cid=0x0:0x35c10ae97ca679a2";""
"komplek housing";"Perhimpunan Pengembang Perumahan";"Desa Itawaka";"GM3X+88M, Noloth, Kec. Saparua, Kabupaten Maluku Tengah, Maluku";"Kabupaten Maluku Tengah, Maluku";"MALUKU";"";"Indonesia";"";"";"";"-3.4966567";"128.6982979";"https://maps.google.com/?cid=0x0:0x4e30540c65eaf31";""
"komplek housing";"Komplek perumahan";"Rumah Raja Itawaka";"GM3W+FR5, Jl. Raya Nolot, Noloth, Kec. Saparua Timur, Kabupaten Maluku Tengah, Maluku";"Kabupaten Maluku Tengah, Maluku";"MALUKU";"";"Indonesia";"";"";"";"-3.4963727";"128.6971189";"https://maps.google.com/?cid=0x0:0x7ab063746dfcdd87";""
"komplek housing";"Komplek perumahan";"Rumah di desa";"GM3W+FR5, Jl. Raya Nolot, Noloth, Kec. Saparua Timur, Kabupaten Maluku Tengah, Maluku";"Kabupaten Maluku Tengah, Maluku";"MALUKU";"";"Indonesia";"";"";"";"-3.4954406";"128.6964691";"https://maps.google.com/?cid=0x0:0x99512f5e83a79cee";""
"komplek housing";"Pembangunan Perumahan";"Sektor Imanuel";"GM3X+7FG, Jl. Raya Nolot, Noloth, Kec. Saparua Timur, Kabupaten Maluku Tengah, Maluku";"Kabupaten Maluku Tengah, Maluku";"MALUKU";"";"Indonesia";"";"";"";"-3.4973295";"128.6995041";"https://maps.google.com/?cid=0x0:0x6fa620d9b7e37bc9";""
"komplek housing";"Komplek perumahan";"Rumah Kel. A. Siahaya";"FM8R+262, Jl. Raya Saparua-Nolot, Mahu, Kec. Saparua Timur, Kabupaten Maluku Tengah, Maluku";"Kabupaten Maluku Tengah, Maluku";"MALUKU";"";"Indonesia";"";"";"";"-3.5349921";"128.6905013";"https://maps.google.com/?cid=0x0:0xb6515950397517d5";""
"perumahan";"perumahan";"Amahai";"Soahuku, Kec. Amahai, Kabupaten Maluku Tengah, Maluku";"Kabupaten Maluku Tengah, Maluku";"MALUKU";"";"Indonesia";"";"";"";"-3.3393615";"128.9229993";"https://maps.google.com/?cid=0x0:0x193d78dcfa97a670";""
"perumahan";"perumahan";"Kec. Tebet";"Kota Jakarta Selatan, Daerah Khusus Ibukota Jakarta";"Kota Jakarta Selatan, Daerah Khusus Ibukota Jakarta";"MALUKU";"";"Indonesia";"";"";"";"-6.2251223";"106.8549881";"https://maps.google.com/?cid=0x0:0xd575e31c807295f9";""
"perumahan";"Komplek perumahan";"EGIN PICARIMA";"MW6F+69W, Soahuku, Kec. Amahai, Kabupaten Maluku Tengah, Maluku";"Kabupaten Maluku Tengah, Maluku";"MALUKU";"";"Indonesia";"";"";"";"-3.3393915";"128.9234615";"https://maps.google.com/?cid=0x0:0x865276b416fcb970";""
"perumahan";"Komplek perumahan";"Marsel Yunex Ruhupessy";"MW6F+7XP, Soahuku, Kec. Amahai, Kabupaten Maluku Tengah, Maluku";"Kabupaten Maluku Tengah, Maluku";"MALUKU";"";"Indonesia";"";"";"";"-3.3392797";"128.9249595";"https://maps.google.com/?cid=0x0:0x306d589945422952";""
"perumahan";"perumahan";"BMKG fautngilyanan home";"MW6F+759, Amahai - Tamilouw, Soahuku, Kec. Amahai, Kabupaten Maluku Tengah, Maluku";"Kabupaten Maluku Tengah, Maluku";"MALUKU";"";"Indonesia";"";"";"";"-3.3393322";"128.9229789";"https://maps.google.com/?cid=0x0:0x7c9e29c8bb309ce9";""
"perumahan";"Pembangunan Perumahan";"PCRM";"MW6F+7CX, Soahuku, Kec. Amahai, Kabupaten Maluku Tengah, Maluku";"Kabupaten Maluku Tengah, Maluku";"MALUKU";"";"Indonesia";"";"";"";"-3.3393862";"128.9234716";"https://maps.google.com/?cid=0x0:0xa37dae6cc2f8e0e7";""
"perumahan";"perumahan";"Tamaela home";"MW6F+36P, Soahuku, Kec. Amahai, Kabupaten Maluku Tengah, Maluku";"Kabupaten Maluku Tengah, Maluku";"MALUKU";"";"Indonesia";"";"";"";"-3.339804";"128.9230989";"https://maps.google.com/?cid=0x0:0xf5c62e6f9d663149";""
"perumahan";"Pembangunan Perumahan";"Valesto Wattimena";"MW6F+36P, Soahuku, Kec. Amahai, Kabupaten Maluku Tengah, Maluku";"Kabupaten Maluku Tengah, Maluku";"MALUKU";"";"Indonesia";"";"";"";"-3.3397667";"128.9230528";"https://maps.google.com/?cid=0x0:0x57262595955f53e6";""
"perumahan";"Komplek perumahan";"Kel: C.J.WATTIMENA";"MW6F+36P, Soahuku, Kec. Amahai, Kabupaten Maluku Tengah, Maluku";"Kabupaten Maluku Tengah, Maluku";"MALUKU";"";"Indonesia";"";"";"";"-3.3397722";"128.9230734";"https://maps.google.com/?cid=0x0:0xc6c37c48e81fe528";""
"perumahan";"perumahan";"Touwely in home";"MW6F+759, Alariano, Kec. Amahai, Kabupaten Maluku Tengah, Maluku";"Kabupaten Maluku Tengah, Maluku";"MALUKU";"";"Indonesia";"";"";"";"-3.3393322";"128.9229789";"https://maps.google.com/?cid=0x0:0xc9176b02da2f3ca2";""
"perumahan";"Pembangunan Perumahan";"Nita Tasane";"MW6F+7CX, Soahuku, Kec. Amahai, Kabupaten Maluku Tengah, Maluku";"Kabupaten Maluku Tengah, Maluku";"MALUKU";"";"Indonesia";"";"";"";"-3.3392518";"128.9235958";"https://maps.google.com/?cid=0x0:0xee26f25410a9cfa2";""
"perumahan";"Komplek perumahan";"Home El piso";"MW6F+8HC, Soahuku, Kec. Amahai, Kabupaten Maluku Tengah, Maluku";"Kabupaten Maluku Tengah, Maluku";"MALUKU";"";"Indonesia";"";"";"";"-3.3393129";"128.9241894";"https://maps.google.com/?cid=0x0:0xb8f90dd53f79a075";""
"perumahan";"Komplek perumahan";"Kel.P.Picanussa";"JLN.SD No.N.2, Soahuku, Kec. Amahai, Kabupaten Maluku Tengah, Maluku";"Kabupaten Maluku Tengah, Maluku";"MALUKU";"";"Indonesia";"";"";"";"-3.3393322";"128.9229789";"https://maps.google.com/?cid=0x0:0xc54a35e2de7e4a88";""
"perumahan";"Komplek perumahan";"Yondi Lohy home";"MW6F+759, Soahuku, Kec. Amahai, Kabupaten Maluku Tengah, Maluku";"Kabupaten Maluku Tengah, Maluku";"MALUKU";"";"Indonesia";"";"";"";"-3.3393322";"128.9229789";"https://maps.google.com/?cid=0x0:0x742457066dfb2659";""
"perumahan";"Komplek perumahan";"KAMPUNG GATHAM SSI";"MW6F+759 Kompleks, Uta, Amahai, Central Maluku Regency, Maluku";"Kabupaten Maluku Tengah, Maluku";"MALUKU";"";"Indonesia";"";"";"";"-3.3393322";"128.9229789";"https://maps.google.com/?cid=0x0:0x58c49a18b09b2e12";""
"perumahan";"Komplek perumahan";"Marcello matatula";"MW6F+7CX, Soahuku, Kec. Amahai, Kabupaten Maluku Tengah, Maluku";"Kabupaten Maluku Tengah, Maluku";"MALUKU";"";"Indonesia";"";"";"";"-3.3394414";"128.923596";"https://maps.google.com/?cid=0x0:0x95784c89f49eb452";""
"perumahan";"perumahan";"Keluarga Fanath Tiakoly";"MXX6+J72, Namaelo, Kec. Kota Masohi, Kabupaten Maluku Tengah, Maluku";"Kabupaten Maluku Tengah, Maluku";"MALUKU";"";"Indonesia";"";"";"";"-3.3009828";"128.9606517";"https://maps.google.com/?cid=0x0:0xe3ffb4b58679d93d";""
"perumahan";"Perhimpunan Pengembang Perumahan";"Home Awa";"PX23+GP7, Ampera, Kec. Kota Masohi, Kabupaten Maluku Tengah, Maluku";"Kabupaten Maluku Tengah, Maluku";"MALUKU";"";"Indonesia";"";"";"";"-3.2987034";"128.9543097";"https://maps.google.com/?cid=0x0:0x422596434a9bbb2d";""
"perumahan";"Perhimpunan Pengembang Perumahan";"Kilo 6";"MXX3+XPF, Ampera, Kec. Kota Masohi, Kabupaten Maluku Tengah, Maluku";"Kabupaten Maluku Tengah, Maluku";"MALUKU";"";"Indonesia";"";"";"";"-3.3000615";"128.9542861";"https://maps.google.com/?cid=0x0:0xf1e95c18eee7471f";""
"perumahan";"Komplek perumahan";"Eka";"MXX6+QP6, Namaelo, Kec. Kota Masohi, Kabupaten Maluku Tengah, Maluku 97511";"Namaelo, Kec. Kota Masohi, Kabupaten Maluku Tengah";"MALUKU";"97511";"Indonesia";"";"";"";"-3.3005755";"128.9617812";"https://maps.google.com/?cid=0x0:0x5a2f759117abf1bf";""
"perumahan";"Komplek perumahan";"Lorong arab";"MXX6+R39, Namaelo, Kec. Kota Masohi, Kabupaten Maluku Tengah, Maluku";"Kabupaten Maluku Tengah, Maluku";"MALUKU";"";"Indonesia";"";"";"";"-3.3004678";"128.9602467";"https://maps.google.com/?cid=0x0:0x33131fffa4c7a2c7";""
"perumahan";"Komplek perumahan";"Rumah saya";"PX25+8CJ, Namaelo, Kec. Kota Masohi, Kabupaten Maluku Tengah, Maluku";"Kabupaten Maluku Tengah, Maluku";"MALUKU";"";"Indonesia";"";"";"";"-3.2991516";"128.9584375";"https://maps.google.com/?cid=0x0:0xb711762cd74b16ce";""
"perumahan";"Komplek perumahan";"DHEMESRA";"MXW5+V8M, Jl. Cengkeh, Namaelo, Kec. Kota Masohi, Kabupaten Maluku Tengah, Maluku";"Kabupaten Maluku Tengah, Maluku";"MALUKU";"";"Indonesia";"";"";"";"-3.3027829";"128.9582616";"https://maps.google.com/?cid=0x0:0xae0ed401392d7e66";""
"perumahan";"Komplek perumahan";"Perumahan Guru";"MXX7+7C, Namaelo, Kec. Kota Masohi, Kabupaten Maluku Tengah, Maluku";"Kabupaten Maluku Tengah, Maluku";"MALUKU";"";"Indonesia";"";"";"";"-3.3017372";"128.9635759";"https://maps.google.com/?cid=0x0:0xc545aa35b90d9d41";""
"perumahan";"Komplek perumahan";"Ai";"MXX7+Q5C, Jl. Nuri, Namaelo, Kec. Kota Masohi, Kabupaten Maluku Tengah, Maluku 97511";"Jl. Nuri, Namaelo, Kec. Kota Masohi, Kabupaten Maluku Tengah";"MALUKU";"97511";"Indonesia";"";"";"";"-3.3005601";"128.9628906";"https://maps.google.com/?cid=0x0:0xda1edad22f12edfe";""
"perumahan";"Komplek perumahan";"Waimanate";"MXX3+XPF, Ampera, Kec. Kota Masohi, Kabupaten Maluku Tengah, Maluku";"Kabupaten Maluku Tengah, Maluku";"MALUKU";"";"Indonesia";"";"";"";"-3.3000615";"128.9542861";"https://maps.google.com/?cid=0x0:0x16c24d84f77299bd";""
"perumahan";"Komplek perumahan";"Rmh AFA";"MXW5+W3Q, Namaelo, Kec. Kota Masohi, Kabupaten Maluku Tengah, Maluku 97511";"Namaelo, Kec. Kota Masohi, Kabupaten Maluku Tengah";"MALUKU";"97511";"Indonesia";"";"";"";"-3.3026568";"128.9577482";"https://maps.google.com/?cid=0x0:0xe14cfa8901567502";""
"perumahan";"Komplek perumahan";"Komplex greter";"PX34+324, Dusun Ampera, desa, tamilouw, Kec. Amahai, Kabupaten Maluku Tengah";"Kabupaten Maluku Tengah, Maluku";"MALUKU";"";"Indonesia";"";"";"";"-3.2973613";"128.9550897";"https://maps.google.com/?cid=0x0:0xea0444c3c2cd3211";""
"perumahan";"Komplek perumahan";"152 LA BOA";"MXW5+XHC, Namaelo, Kec. Kota Masohi, Kabupaten Maluku Tengah, Maluku";"Kabupaten Maluku Tengah, Maluku";"MALUKU";"";"Indonesia";"";"";"";"-3.3025721";"128.9588819";"https://maps.google.com/?cid=0x0:0xa06f14c6c3475b56";""
"perumahan";"Pembangunan Perumahan";"Negeri Ameth. Kecamatan Teon Nila Serua";"Q2Q3+HM8, Ameth, Kec. Teon Nila Serua, Kabupaten Maluku Tengah, Maluku";"Kabupaten Maluku Tengah, Maluku";"MALUKU";"";"Indonesia";"";"";"";"-3.2110865";"129.0041998";"https://maps.google.com/?cid=0x0:0x2d7acc79a692da97";""
"perumahan";"perumahan";"Kec. Teon Nila Serua";"Kabupaten Maluku Tengah, Maluku";"Kabupaten Maluku Tengah, Maluku";"MALUKU";"";"Indonesia";"";"";"";"-3.206515";"129.0223992";"https://maps.google.com/?cid=0x0:0x19c309dd11357808";""
"perumahan";"perumahan";"Rumah El";"Q2JH+V8Q, Layeni, Kec. Teon Nila Serua, Kabupaten Maluku Tengah, Maluku";"Kabupaten Maluku Tengah, Maluku";"MALUKU";"";"Indonesia";"";"";"";"-3.2177821";"129.0283644";"https://maps.google.com/?cid=0x0:0x70778659788013ce";""
"perumahan";"Komplek perumahan";"Rumah Thewy";"Q2WM+3V, Layeni, Kec. Teon Nila Serua, Kabupaten Maluku Tengah, Maluku";"Kabupaten Maluku Tengah, Maluku";"MALUKU";"";"Indonesia";"";"";"";"-3.205002";"129.0347967";"https://maps.google.com/?cid=0x0:0x2590a863ab5bc152";""
"perumahan";"Komplek perumahan";"Dusun Ralmida";"Q393+4M, Trana, Kec. Teon Nila Serua, Kabupaten Maluku Tengah, Maluku";"Kabupaten Maluku Tengah, Maluku";"MALUKU";"";"Indonesia";"";"";"";"-3.2322407";"129.0541609";"https://maps.google.com/?cid=0x0:0x889a7f071fdc50ba";""
"perumahan";"Komplek perumahan";"Keluarga Mehlidan";"Q3G4+QX, Jerili, Kec. Teon Nila Serua, Kabupaten Maluku Tengah, Maluku";"Kabupaten Maluku Tengah, Maluku";"MALUKU";"";"Indonesia";"";"";"";"-3.2230955";"129.0574834";"https://maps.google.com/?cid=0x0:0xd5d6f10fd020ef6a";""
"perumahan";"Komplek perumahan";"Jalur 3 usliapan";"QXQH+QXM, Usliapan, Kec. Teon Nila Serua, Kabupaten Maluku Tengah, Maluku";"Kabupaten Maluku Tengah, Maluku";"MALUKU";"";"Indonesia";"";"";"";"-3.2098315";"128.9788418";"https://maps.google.com/?cid=0x0:0x3fb7fc90817a3607";""
"perumahan";"Komplek perumahan";"Rumah Pdt. Marthen Tewernussa";"Q2WM+67, Layeni, Kec. Teon Nila Serua, Kabupaten Maluku Tengah, Maluku";"Kabupaten Maluku Tengah, Maluku";"MALUKU";"";"Indonesia";"";"";"";"-3.205157";"129.032436";"https://maps.google.com/?cid=0x0:0x424a33db7b1496d6";""
"perumahan";"Komplek perumahan";"Keluarga teurupun";"Q2PM+XV, Layeni, Kec. Teon Nila Serua, Kabupaten Maluku Tengah, Maluku";"Kabupaten Maluku Tengah, Maluku";"MALUKU";"";"Indonesia";"";"";"";"-3.2123869";"129.0355695";"https://maps.google.com/?cid=0x0:0xc7a10c8333cce7af";""
"perumahan";"Komplek perumahan";"Arniel Home";"Q27R+QC4, Watludan, Kec. Teon Nila Serua, Kabupaten Maluku Tengah, Maluku";"Kabupaten Maluku Tengah, Maluku";"MALUKU";"";"Indonesia";"";"";"";"-3.235622";"129.0410911";"https://maps.google.com/?cid=0x0:0x693fe83b6265ac7d";""
"perumahan";"Komplek perumahan";"SoplantiLa / Leunufna";"Q2WM+3V, Layeni, Kec. Teon Nila Serua, Kabupaten Maluku Tengah, Maluku";"Kabupaten Maluku Tengah, Maluku";"MALUKU";"";"Indonesia";"";"";"";"-3.2066229";"129.0360613";"https://maps.google.com/?cid=0x0:0x412cc3a1b0dfe883";""
"perumahan";"Komplek perumahan";"Keluarga R. Diasz";"Q2G9+9H3, Wotay, Kec. Teon Nila Serua, Kabupaten Maluku Tengah, Maluku";"Kabupaten Maluku Tengah, Maluku";"MALUKU";"";"Indonesia";"";"";"";"-3.2245264";"129.0191613";"https://maps.google.com/?cid=0x0:0x68e27d9ec70c7e0c";""
"perumahan";"Komplek perumahan";"Lks";"Q2V3+CW, Waru, Kec. Teon Nila Serua, Kabupaten Maluku Tengah, Maluku";"Kabupaten Maluku Tengah, Maluku";"MALUKU";"";"Indonesia";"";"";"";"-3.2064876";"129.004835";"https://maps.google.com/?cid=0x0:0xd53a9619f92755f0";""
"perumahan";"Komplek perumahan";"Keluarga Alyoh";"Q2F8+4M7, Wotay, Kec. Teon Nila Serua, Kabupaten Maluku Tengah, Maluku";"Kabupaten Maluku Tengah, Maluku";"MALUKU";"";"Indonesia";"";"";"";"-3.2272182";"129.0166671";"https://maps.google.com/?cid=0x0:0x7efb32c72546083";""
"perumahan";"Komplek perumahan";"Supu house";"Q2XH+7RJ, Layeni, Kec. Teon Nila Serua, Kabupaten Maluku Tengah, Maluku";"Kabupaten Maluku Tengah, Maluku";"MALUKU";"";"Indonesia";"";"";"";"-3.2026762";"129.0287674";"https://maps.google.com/?cid=0x0:0xc1626863b1e40600";""
"perumahan";"perumahan";"Lionel";"Q2R6+CX8, Bumey, Kec. Teon Nila Serua, Kabupaten Maluku Tengah, Maluku";"Kabupaten Maluku Tengah, Maluku";"MALUKU";"";"Indonesia";"";"";"";"-3.2089692";"129.0124452";"https://maps.google.com/?cid=0x0:0x81b3acd2320ea83c";""
"perumahan";"Komplek perumahan";"Layei";"Q2W4+CQ4, Waru, Kec. Teon Nila Serua, Kabupaten Maluku Tengah, Maluku";"Kabupaten Maluku Tengah, Maluku";"MALUKU";"";"Indonesia";"";"";"";"-3.2039968";"129.0067785";"https://maps.google.com/?cid=0x0:0x279292816074f95b";""
"perumahan";"Komplek perumahan";"Oen Soplantila";"R22F+6M3, Layeni, Kec. Teon Nila Serua, Kabupaten Maluku Tengah, Maluku";"Kabupaten Maluku Tengah, Maluku";"MALUKU";"";"Indonesia";"";"";"";"-3.1994779";"129.0241756";"https://maps.google.com/?cid=0x0:0x7a914e18fc37eda";""
"perumahan";"Komplek perumahan";"TANATE";"QXRH+P5, Usliapan, Kec. Teon Nila Serua, Kabupaten Maluku Tengah, Maluku";"Kabupaten Maluku Tengah, Maluku";"MALUKU";"";"Indonesia";"";"";"";"-3.2081557";"128.9778956";"https://maps.google.com/?cid=0x0:0x8543db2717a15ad5";""
"perumahan";"Komplek perumahan";"Amos.Manuhua";"R234+F2, Upt Tonetanah, Kec. Teon Nila Serua, Kabupaten Maluku Tengah, Maluku";"Kabupaten Maluku Tengah, Maluku";"MALUKU";"";"Indonesia";"";"";"";"-3.1963637";"129.0050516";"https://maps.google.com/?cid=0x0:0xcccc2bfffd5839ed";""
"perumahan";"perumahan";"Kec. Seram Utara Tim. Kobi";"Kabupaten Maluku Tengah, Maluku";"Kabupaten Maluku Tengah, Maluku";"MALUKU";"";"Indonesia";"";"";"";"-2.9958071";"129.8345109";"https://maps.google.com/?cid=0x0:0x7d5c902227229a42";""
"perumahan";"Pembangunan Perumahan";"Seram Utara Timur Kobi";"XQ7G+R63, Maneo Rendah, Kec. Seram Utara Tim. Kobi, Kabupaten Maluku Tengah, Maluku";"Kabupaten Maluku Tengah, Maluku";"MALUKU";"";"Indonesia";"";"";"";"-3.0354877";"129.7755571";"https://maps.google.com/?cid=0x0:0x2d80c0151e375331";""
"perumahan";"Pembangunan Perumahan";"Rumah Khoirun";"3QFW+777, Kobi Mukti, Kec. Seram Utara Tim. Kobi, Kabupaten Maluku Tengah, Maluku";"Kabupaten Maluku Tengah, Maluku";"MALUKU";"";"Indonesia";"";"";"";"-2.9274737";"129.7954943";"https://maps.google.com/?cid=0x0:0x98df1f7e60a1452";""
"perumahan";"Komplek perumahan";"Rumah Pak Supardi";"2R56+MMC, Waiasih, Kec. Seram Utara Tim. Kobi, Kabupaten Maluku Tengah, Maluku";"Kabupaten Maluku Tengah, Maluku";"MALUKU";"";"Indonesia";"";"";"";"-2.9909884";"129.8124368";"https://maps.google.com/?cid=0x0:0x56546c0388be35aa";""
"perumahan";"Pembangunan Perumahan";"kobimukti city";"2RRR+9Q, Leawai, Kec. Seram Utara Tim. Kobi, Kabupaten Maluku Tengah, Maluku";"Kabupaten Maluku Tengah, Maluku";"MALUKU";"";"Indonesia";"";"";"";"-2.959037";"129.841992";"https://maps.google.com/?cid=0x0:0x70ab3f6a50e5d94b";""
"perumahan";"Komplek perumahan";"HASAN HATUALA";"2RXQ+3RP, Leawai, Kec. Seram Utara Tim. Kobi, Kabupaten Maluku Tengah, Maluku";"Kabupaten Maluku Tengah, Maluku";"MALUKU";"";"Indonesia";"";"";"";"-2.9522793";"129.8395931";"https://maps.google.com/?cid=0x0:0xdca92893041a2972";""
"perumahan";"Komplek perumahan";"Rumah ALFAZYA";"2R3M+M48, Waimusi, Kec. Seram Utara Tim. Kobi, Kabupaten Maluku Tengah, Maluku";"Kabupaten Maluku Tengah, Maluku";"MALUKU";"";"Indonesia";"";"";"";"-2.995814";"129.8329661";"https://maps.google.com/?cid=0x0:0xa4d00f74063eff9f";""
"perumahan";"Komplek perumahan";"Rumah Mufti Abqory Arrahmani";"2VX3+F78, Samal, Kec. Seram Utara Tim. Kobi, Kabupaten Maluku Tengah, Maluku";"Kabupaten Maluku Tengah, Maluku";"MALUKU";"";"Indonesia";"";"";"";"-2.9513347";"129.853207";"https://maps.google.com/?cid=0x0:0x514005fd731c40c7";""
"perumahan";"Komplek perumahan";"Desa Kabauhari";"VPPC+3FJ, Kabauhari, Kec. Seram Utara Tim. Kobi, Kabupaten Maluku Tengah, Maluku";"Kabupaten Maluku Tengah, Maluku";"MALUKU";"";"Indonesia";"";"";"";"-3.1147771";"129.7211407";"https://maps.google.com/?cid=0x0:0xee138a914dac38ed";""
"perumahan";"Komplek perumahan";"Rizky Bastian";"XVWF+FPR, Marasahua, Kec. Seram Utara Tim. Kobi, Kabupaten Maluku Tengah, Maluku";"Kabupaten Maluku Tengah, Maluku";"MALUKU";"";"Indonesia";"";"";"";"-3.0037634";"129.8742785";"https://maps.google.com/?cid=0x0:0x25fb4748bfec8e41";""
"perumahan";"Pembangunan Perumahan";"Rumah Makwek Haikal";"2VW4+MRV, Samal, Kec. Seram Utara Tim. Kobi, Kabupaten Maluku Tengah, Maluku";"Kabupaten Maluku Tengah, Maluku";"MALUKU";"";"Indonesia";"";"";"";"-2.9532536";"129.8570536";"https://maps.google.com/?cid=0x0:0x7b22ce68f7e12717";""
"perumahan";"Komplek perumahan";"Rumah Kel. Irsan Sabban";"2R4H+8RJ, Desa Waimusi, Kec. Seram Utara Timur, Kabupaten Maluku Tengah, Maluku";"Kabupaten Maluku Tengah, Maluku";"MALUKU";"";"Indonesia";"";"";"";"-2.9941596";"129.8295044";"https://maps.google.com/?cid=0x0:0xc6e6daa910a11e8b";""
"perumahan";"Komplek perumahan";"Rumah Hj. Nurul Qur'antinah";"3QFW+HPM, Kobi Mukti, Kec. Seram Utara Tim. Kobi, Kabupaten Maluku Tengah, Maluku";"Kabupaten Maluku Tengah, Maluku";"MALUKU";"";"Indonesia";"";"";"";"-2.9260398";"129.7968029";"https://maps.google.com/?cid=0x0:0x92b2c025d15afb80";""
"perumahan";"Komplek perumahan";"𝚁𝚞𝚖𝚊𝚑 𝙿𝚊𝚔 𝙷𝚊𝚖𝚍𝚊𝚗 𝙿𝚊𝚜𝚊𝚑𝚊𝚛𝚒";"3P6X+2GW, Maneo Rendah, Kec. Seram Utara Tim. Kobi, Kabupaten Maluku Tengah, Maluku";"Kabupaten Maluku Tengah, Maluku";"MALUKU";"";"Indonesia";"";"";"";"-2.9398815";"129.7488376";"https://maps.google.com/?cid=0x0:0x17ab49725ea15274";""
"perumahan";"Komplek perumahan";"Soeran House";"Jl. Sultan Nuku No.199, Waiasih, Kec. Seram Utara Tim. Kobi, Kabupaten Maluku Tengah, Maluku 97555";"Waiasih, Kec. Seram Utara Tim. Kobi, Kabupaten Maluku Tengah";"MALUKU";"97555";"Indonesia";"";"";"";"-2.987651";"129.8015909";"https://maps.google.com/?cid=0x0:0xd6689afc3e8379e7";""
"perumahan";"Komplek perumahan";"Omae kiki";"2V66+WRX, Morokay, Kec. Seram Utara Tim. Kobi, Kabupaten Maluku Tengah, Maluku";"Kabupaten Maluku Tengah, Maluku";"MALUKU";"";"Indonesia";"";"";"";"-2.9876402";"129.8621163";"https://maps.google.com/?cid=0x0:0xd0d1e604752d4fec";""
"perumahan";"Pembangunan Perumahan";"Ageng";"2VHC+999, Morokay, Kec. Seram Utara Tim. Kobi, Kabupaten Maluku Tengah, Maluku";"Kabupaten Maluku Tengah, Maluku";"MALUKU";"";"Indonesia";"";"";"";"-2.9715844";"129.8709912";"https://maps.google.com/?cid=0x0:0x4950bbd73baa0fc2";""
"perumahan";"Pembangunan Perumahan";"Kobi Sadar";"3RM8+RC, Kobi, Kec. Seram Utara Tim. Kobi, Kabupaten Maluku Tengah, Maluku";"Kabupaten Maluku Tengah, Maluku";"MALUKU";"";"Indonesia";"";"";"";"-2.9154603";"129.8159816";"https://maps.google.com/?cid=0x0:0xd18cb78431524835";""
"perumahan";"Perhimpunan Pengembang Perumahan";"UPT Sariputih 4";"3P7X+34J, Maneo Rendah, Kec. Seram Utara Tim. Kobi, Kabupaten Maluku Tengah, Maluku";"Kabupaten Maluku Tengah, Maluku";"MALUKU";"";"Indonesia";"";"";"";"-2.9372966";"129.7477734";"https://maps.google.com/?cid=0x0:0xf714cf3488382bb6";""
"perumahan";"Komplek perumahan";"Rumah Cahya Manik";"3QFW+9F8, Kobi Mukti, Kec. Seram Utara Tim. Kobi, Kabupaten Maluku Tengah, Maluku";"Kabupaten Maluku Tengah, Maluku";"MALUKU";"";"Indonesia";"";"";"";"-2.9265888";"129.7961958";"https://maps.google.com/?cid=0x0:0x28667550938425e9";""
"perumahan";"Pembangunan Perumahan";"Desa Kobi Mukti";"3QCR+WW8, Jl. Pendidikan, Kobi Mukti, Kec. Seram Utara Tim. Kobi, Kabupaten Maluku Tengah, Maluku";"Kabupaten Maluku Tengah, Maluku";"MALUKU";"";"Indonesia";"";"";"";"-2.9277075";"129.7923347";"https://maps.google.com/?cid=0x0:0x35c10ae97ca679a2";""
"perumahan";"Komplek perumahan";"Sari puti";"3R9G+FR3, Kobi, Kec. Seram Utara Tim. Kobi, Kabupaten Maluku Tengah, Maluku";"Kabupaten Maluku Tengah, Maluku";"MALUKU";"";"Indonesia";"";"";"";"-2.9313579";"129.8270419";"https://maps.google.com/?cid=0x0:0x4fbc3ae6c674a55";""
"perumahan";"Pembangunan Perumahan";"Iwan Setiawan";"3P8X+57, Maneo Rendah, Kec. Seram Utara Tim. Kobi, Kabupaten Maluku Tengah, Maluku";"Kabupaten Maluku Tengah, Maluku";"MALUKU";"";"Indonesia";"";"";"";"-2.9345411";"129.7481588";"https://maps.google.com/?cid=0x0:0xc1ea749e996e4c71";""
"perumahan";"perumahan";"Kec. Banda";"Kabupaten Maluku Tengah, Maluku";"Kabupaten Maluku Tengah, Maluku";"MALUKU";"";"Indonesia";"";"";"";"-4.5245505";"129.9028597";"https://maps.google.com/?cid=0x0:0xbe4d870d31ccb97d";""
"perumahan";"perumahan";"Hamdani kilwarany";"FWF4+C6M, Kp. Baru, Kec. Banda, Kabupaten Maluku Tengah, Maluku";"Kabupaten Maluku Tengah, Maluku";"MALUKU";"";"Indonesia";"";"";"";"-4.5261053";"129.9054967";"https://maps.google.com/?cid=0x0:0x77778a83c3fab7ef";""
"perumahan";"Pembangunan Perumahan";"KOMPLEKS NUSANTARA ( utara kota neira )";"Kampung nusantara No.RT 02, Kp. Baru, Kec. Banda, Kabupaten Maluku Tengah, Maluku";"Kabupaten Maluku Tengah, Maluku";"MALUKU";"";"Indonesia";"";"";"";"-4.5265241";"129.8973066";"https://maps.google.com/?cid=0x0:0xa769a47c3714f39";""
"perumahan";"Komplek perumahan";"Erni's Home";"Jalan bandara No.Rt 05, Kp. Baru, Kec. Banda, Kabupaten Maluku Tengah, Maluku";"Kabupaten Maluku Tengah, Maluku";"MALUKU";"";"Indonesia";"";"";"";"-4.5239739";"129.9077883";"https://maps.google.com/?cid=0x0:0x85a17aaf18c3710a";""
"perumahan";"Pembangunan Perumahan";"Tempat Mabar";"FVFX+X6M, Nusantara, Kec. Banda, Kabupaten Maluku Tengah, Maluku";"Kabupaten Maluku Tengah, Maluku";"MALUKU";"";"Indonesia";"";"";"";"-4.5250273";"129.8980498";"https://maps.google.com/?cid=0x0:0xa59c1dad27a80626";""
"perumahan";"Pembangunan Perumahan";"Nocha home";"FWG2+VWV, Merdeka, Kec. Banda, Kabupaten Maluku Tengah, Maluku";"Kabupaten Maluku Tengah, Maluku";"MALUKU";"";"Indonesia";"";"";"";"-4.5227577";"129.9023059";"https://maps.google.com/?cid=0x0:0xb1c01a7173684c53";""
"perumahan";"Pembangunan Perumahan";"Alfian pe home";"FWG5+R54, Kp. Baru, Kec. Banda, Kabupaten Maluku Tengah, Maluku";"Kabupaten Maluku Tengah, Maluku";"MALUKU";"";"Indonesia";"";"";"";"-4.5229805";"129.9079499";"https://maps.google.com/?cid=0x0:0x6aac878032028b9c";""
"perumahan";"Komplek perumahan";"Dusun mangkobatu";"FWR2+CG, Rajawali, Kec. Banda, Kabupaten Maluku Tengah, Maluku";"Kabupaten Maluku Tengah, Maluku";"MALUKU";"";"Indonesia";"";"";"";"-4.5089514";"129.9012833";"https://maps.google.com/?cid=0x0:0x4977a1a5bb5b7437";""
"perumahan";"Pembangunan Perumahan";"Hudzaifah home's";"FWM4+F5X, Kp. Baru, Kec. Banda, Kabupaten Maluku Tengah, Maluku";"Kabupaten Maluku Tengah, Maluku";"MALUKU";"";"Indonesia";"";"";"";"-4.5162559";"129.9054723";"https://maps.google.com/?cid=0x0:0xb238887482405db4";""
"perumahan";"Komplek perumahan";"Tempat Pulang";"FWF2+5Q9, RT./001/RW./000, Dwi Warna, Kec. Banda, Kabupaten Maluku Tengah, Maluku";"Kabupaten Maluku Tengah, Maluku";"MALUKU";"";"Indonesia";"";"";"";"-4.5270818";"129.9019846";"https://maps.google.com/?cid=0x0:0x84daa2ac8d39f94f";""
"perumahan";"Museum Pusaka";"Rumah Budaya Banda Neira";"FVFW+PXG, Nusantara, Kec. Banda, Kabupaten Maluku Tengah, Maluku";"Kabupaten Maluku Tengah, Maluku";"MALUKU";"";"Indonesia";"";"";"";"-4.5256932";"129.8974648";"https://maps.google.com/?cid=0x0:0x12d8fe1f8282feab";""
"perumahan";"Gedung Apartemen";"Rumah Dinas Dhanie Kid";"FW94+R2F, Kp. Baru, Kec. Banda, Kabupaten Maluku Tengah, Maluku";"Kabupaten Maluku Tengah, Maluku";"MALUKU";"";"Indonesia";"";"";"";"-4.5230581";"129.9066096";"https://maps.google.com/?cid=0x0:0x903c0827a499e689";""
"perumahan";"Komplek perumahan";"BANDA WAER";"CWXX+J39, Waer, Kec. Banda, Kabupaten Maluku Tengah, Maluku";"Kabupaten Maluku Tengah, Maluku";"MALUKU";"";"Indonesia";"";"";"";"-4.5509632";"129.9477448";"https://maps.google.com/?cid=0x0:0x1235552ae8bd9a77";""
"perumahan";"Pembangunan Perumahan";"Kel Besa Camerling";"FWF4+H32, Kp. Baru, Kec. Banda, Kabupaten Maluku Tengah, Maluku";"Kabupaten Maluku Tengah, Maluku";"MALUKU";"";"Indonesia";"";"";"";"-4.5261087";"129.9051462";"https://maps.google.com/?cid=0x0:0x233902864ae2782a";""
"perumahan";"Museum Pusaka";"Rumah Pengasingan Bung Hatta";"FVFX+2W7, Jl. Dr. Rehatta, Nusantara, Kec. Banda, Kabupaten Maluku Tengah, Maluku";"Kabupaten Maluku Tengah, Maluku";"MALUKU";"";"Indonesia";"";"";"";"-4.5274589";"129.8997923";"https://maps.google.com/?cid=0x0:0xa3c7e9dbe463e30c";""
"perumahan";"Tujuan Wisata";"Kampung Cina Banda Neira";"FVFV+5WQ, Kec. Banda, Kabupaten Maluku Tengah, Maluku";"Kabupaten Maluku Tengah, Maluku";"MALUKU";"";"Indonesia";"";"";"";"-4.5270294";"129.8948637";"https://maps.google.com/?cid=0x0:0x6830479a451df0f1";""
"perumahan";"Komplek perumahan";"Babinsa P. Hatta";"FWC3+3HV, Unnamed Road, Dwi Warna, Kec. Banda, Kabupaten Maluku Tengah, Maluku";"Kabupaten Maluku Tengah, Maluku";"MALUKU";"";"Indonesia";"";"";"";"-4.529772";"129.903912";"https://maps.google.com/?cid=0x0:0xc508392750d740f5";""
"perumahan";"Komplek perumahan";"nusantara no 3";"FVFX+X3G, Nusantara, Kec. Banda, Kabupaten Maluku Tengah, Maluku";"Kabupaten Maluku Tengah, Maluku";"MALUKU";"";"Indonesia";"";"";"";"-4.5250709";"129.8977126";"https://maps.google.com/?cid=0x0:0xb584cf2bb66a46cc";""
"perumahan";"perumahan";"Rumah Fatir Nasri";"CWM9+PX8, Desa, Uring, Kec. Banda, Kabupaten Maluku Tengah, Maluku";"Kabupaten Maluku Tengah, Maluku";"MALUKU";"";"Indonesia";"";"";"";"-4.5656768";"129.9202093";"https://maps.google.com/?cid=0x0:0x3f5c522ab588337e";""
"perumahan";"Pembangunan Perumahan";"Komplek Good Looking";"FWF3+MX2, Kp. Baru, Kec. Banda, Kabupaten Maluku Tengah, Maluku";"Kabupaten Maluku Tengah, Maluku";"MALUKU";"";"Indonesia";"";"";"";"-4.5258369";"129.9048816";"https://maps.google.com/?cid=0x0:0x305f4ce377882e65";""
"perumahan";"perumahan";"Mansyur";"FWM4+F5X, Kp. Baru, Kec. Banda, Kabupaten Maluku Tengah, Maluku";"Kabupaten Maluku Tengah, Maluku";"MALUKU";"";"Indonesia";"";"";"";"-4.5162559";"129.9054723";"https://maps.google.com/?cid=0x0:0x929445a38e81d0f8";""
"perumahan";"perumahan";"Bandung ( banda gunung)";"FW39+82F, Katoro, Kec. Banda, Kabupaten Maluku Tengah, Maluku";"Kabupaten Maluku Tengah, Maluku";"MALUKU";"";"Indonesia";"";"";"";"-4.5473303";"129.9179552";"https://maps.google.com/?cid=0x0:0x9cef0bd82fef153d";""
"perumahan";"Komplek perumahan";"KMP baru";"FWM4+F5X, Jln bandara, Kp. Baru, Kec. Banda, Kabupaten Maluku Tengah, Maluku";"Kabupaten Maluku Tengah, Maluku";"MALUKU";"";"Indonesia";"";"";"";"-4.5162559";"129.9054723";"https://maps.google.com/?cid=0x0:0x6466a75a32fc0719";""
"perumahan";"Komplek perumahan";"Perumahan Banda Asri";"Banda Sari, Bandasari, Kec. Cangkuang, Kabupaten Bandung, Jawa Barat 40238";"Bandasari, Kec. Cangkuang, Kabupaten Bandung";"MALUKU";"40238";"Indonesia";"";"";"";"-7.0572704";"107.5291385";"https://maps.google.com/?cid=0x0:0x4eec4ff7db91f005";""
"perumahan";"Perhimpunan Pengembang Perumahan";"Rumah";"Jl. Banda Asri, Bandasari, Kec. Cangkuang, Kabupaten Bandung, Jawa Barat 40238";"Bandasari, Kec. Cangkuang, Kabupaten Bandung";"MALUKU";"40238";"Indonesia";"";"";"";"-7.0496718";"107.5363494";"https://maps.google.com/?cid=0x0:0x4918d7896cdd90f3";""
"perumahan";"Toko Swalayan";"Warung Tante eka";"Perumahan Jl. Banda Asri No.28 B.8, Bandasari, Kec. Cangkuang, Kabupaten Bandung, Jawa Barat 40238";"Bandasari, Kec. Cangkuang, Kabupaten Bandung";"MALUKU";"40238";"Indonesia";"";"";"";"-7.056941";"107.5295696";"https://maps.google.com/?cid=0x0:0x4b2f72bd347c9e4f";""
"perumahan";"perumahan";"Kec. Tehoru";"Kabupaten Maluku Tengah, Maluku";"Kabupaten Maluku Tengah, Maluku";"MALUKU";"";"Indonesia";"";"";"";"-3.300989";"129.5157974";"https://maps.google.com/?cid=0x0:0x747431514523047b";""
"perumahan";"Komplek perumahan";"Komplek perteli";"GHQ3+3M2, Haya, Kec. Tehoru, Kabupaten Maluku Tengah, Maluku";"Kabupaten Maluku Tengah, Maluku";"MALUKU";"";"Indonesia";"";"";"";"-3.4623434";"129.5540592";"https://maps.google.com/?cid=0x0:0x3d6c856cfefb8930";""
"perumahan";"Komplek perumahan";"Amerika bagian Tehoru";"JG8X+QJ8, Tehoru - Laimu, Tehoru, Kec. Tehoru, Kabupaten Maluku Tengah, Maluku";"Kabupaten Maluku Tengah, Maluku";"MALUKU";"";"Indonesia";"";"";"";"-3.3830823";"129.549067";"https://maps.google.com/?cid=0x0:0x2f897242d2cf9e1f";""
"perumahan";"Komplek perumahan";"Sakanusa";"HHR6+VP, Tehoru, Kec. Tehoru, Kabupaten Maluku Tengah, Maluku";"Kabupaten Maluku Tengah, Maluku";"MALUKU";"";"Indonesia";"";"";"";"-3.4078564";"129.5618259";"https://maps.google.com/?cid=0x0:0x4d99551b6ed7c91d";""
"perumahan";"Komplek perumahan";"Ekano";"MF9X+7G, Tehoru, Kec. Tehoru, Kabupaten Maluku Tengah, Maluku";"Kabupaten Maluku Tengah, Maluku";"MALUKU";"";"Indonesia";"";"";"";"-3.331852";"129.4988309";"https://maps.google.com/?cid=0x0:0x716ee02682d31bee";""
"perumahan";"Perhimpunan Pengembang Perumahan";"Desa tehoru";"MGX8+J8M, Saunulu, Kec. Tehoru, Kabupaten Maluku Tengah, Maluku";"Kabupaten Maluku Tengah, Maluku";"MALUKU";"";"Indonesia";"";"";"";"-3.3009057";"129.515812";"https://maps.google.com/?cid=0x0:0xc4f31c46849937a3";""
"perumahan";"Pertanian";"Yaputih baru";"PG5C+M8V, Yaputih, Kec. Tehoru, Kabupaten Maluku Tengah, Maluku";"Kabupaten Maluku Tengah, Maluku";"MALUKU";"";"Indonesia";"";"";"";"-3.290761";"129.520798";"https://maps.google.com/?cid=0x0:0xc9c771f667d1d6f3";""
"perumahan";"Komplek perumahan";"Opha Gank";"JG9W+8VC, Tehoru, Kec. Tehoru, Kabupaten Maluku Tengah, Maluku";"Kabupaten Maluku Tengah, Maluku";"MALUKU";"";"Indonesia";"";"";"";"-3.3811942";"129.5471878";"https://maps.google.com/?cid=0x0:0x8c28bb21fef68ae1";""
"perumahan";"Komplek perumahan";"Rumah";"HHJ7+VJ, Tehoru, Kec. Tehoru, Kabupaten Maluku Tengah, Maluku";"Kabupaten Maluku Tengah, Maluku";"MALUKU";"";"Indonesia";"";"";"";"-3.4178594";"129.5640726";"https://maps.google.com/?cid=0x0:0x6ea2e502bf8a861e";""
"perumahan";"Komplek perumahan";"rumah Hikma";"JGXF+F23, Tehoru, Kec. Tehoru, Kabupaten Maluku Tengah, Maluku";"Kabupaten Maluku Tengah, Maluku";"MALUKU";"";"Indonesia";"";"";"";"-3.3510767";"129.5222617";"https://maps.google.com/?cid=0x0:0xa1f4d2b8cf95dccf";""
"perumahan";"Komplek perumahan";"RUMAH";"JGCW+6H7, Tehoru, Kec. Tehoru, Kabupaten Maluku Tengah, Maluku";"Kabupaten Maluku Tengah, Maluku";"MALUKU";"";"Indonesia";"";"";"";"-3.3794533";"129.5464337";"https://maps.google.com/?cid=0x0:0x1977d37f7974eb09";""
"perumahan";"Pembangunan Perumahan";"Dusun Sakanusa";"HHM7+VC6, Tehoru, Kec. Tehoru, Kabupaten Maluku Tengah, Maluku";"Kabupaten Maluku Tengah, Maluku";"MALUKU";"";"Indonesia";"";"";"";"-3.4153275";"129.5635144";"https://maps.google.com/?cid=0x0:0x3bc17d09a8ce316e";""
"perumahan";"Perhimpunan Pengembang Perumahan";"TPU Desa Hatulete";"PHJW+J2C, Hatumete, Kec. Tehoru, Kabupaten Maluku Tengah, Maluku";"Kabupaten Maluku Tengah, Maluku";"MALUKU";"";"Indonesia";"";"";"";"-3.2684468";"129.5950186";"https://maps.google.com/?cid=0x0:0x8c3638161b935a64";""
"perumahan";"Komplek perumahan";"Rumah asyam";"JGXF+F23, Tehoru, Kec. Tehoru, Kabupaten Maluku Tengah, Maluku";"Kabupaten Maluku Tengah, Maluku";"MALUKU";"";"Indonesia";"";"";"";"-3.3512836";"129.5225537";"https://maps.google.com/?cid=0x0:0xd2e9894f8e15f35d";""
"perumahan";"Komplek perumahan";"Iksan hatapayo";"MG93+5M3, Jl. Trans Seram, Tehoru, Kec. Tehoru, Kabupaten Maluku Tengah, Maluku";"Kabupaten Maluku Tengah, Maluku";"MALUKU";"";"Indonesia";"";"";"";"-3.3312213";"129.5054737";"https://maps.google.com/?cid=0x0:0x64279046b90965";""
"perumahan";"Pembangunan Perumahan";"SAILY";"MHRQ+7J5, Jl. Trans Seram, Hatumete, Kec. Tehoru, Kabupaten Maluku Tengah, Maluku";"Kabupaten Maluku Tengah, Maluku";"MALUKU";"";"Indonesia";"";"";"";"-3.3109825";"129.5894165";"https://maps.google.com/?cid=0x0:0x9a3103ecd7e451fb";""
"perumahan";"Komplek perumahan";"Arsat Tehuayo";"MFCW+GV7, Tehoru - Laimu, Tehoru, Kec. Tehoru, Kabupaten Maluku Tengah, Maluku";"Kabupaten Maluku Tengah, Maluku";"MALUKU";"";"Indonesia";" 085255954251";"";"";"-3.3287197";"129.4971572";"https://maps.google.com/?cid=0x0:0x180fb36094bcde49";""
"perumahan";"Komplek perumahan";"Suhuputi";"HCGF+76, Salamahu, Kec. Tehoru, Kabupaten Maluku Tengah, Maluku";"Kabupaten Maluku Tengah, Maluku";"MALUKU";"";"Indonesia";"";"";"";"-3.4243374";"129.4230789";"https://maps.google.com/?cid=0x0:0xfc0ddb8054a1555c";""
"perumahan";"Komplek perumahan";"Tanjong hatu";"MHW8+8J, Hatu, Kec. Tehoru, Kabupaten Maluku Tengah, Maluku";"Kabupaten Maluku Tengah, Maluku";"MALUKU";"";"Indonesia";"";"";"";"-3.3042439";"129.5665307";"https://maps.google.com/?cid=0x0:0x9b7716efc36f233b";""
"perumahan";"Komplek perumahan";"TRX 23";"M9V8+VVW, Haya, Kec. Tehoru, Kabupaten Maluku Tengah, Maluku";"Kabupaten Maluku Tengah, Maluku";"MALUKU";"";"Indonesia";"";"";"";"-3.3052746";"129.3672001";"https://maps.google.com/?cid=0x0:0x3d8df8130f0859b4";""
"perumahan";"Komplek perumahan";"Kecamatan tehoru";"XFMP+8HP, Kanikeh, Kec. Seram Utara, Kabupaten Maluku Tengah, Maluku";"Kabupaten Maluku Tengah, Maluku";"MALUKU";"";"Indonesia";"";"";"";"-3.0166501";"129.4864411";"https://maps.google.com/?cid=0x0:0xfff69804a59e09e6";""
"perumahan";"Komplek perumahan";"Negri HATUHENU";"XFMP+8HP, Kanikeh, Kec. Seram Utara, Kabupaten Maluku Tengah, Maluku";"Kabupaten Maluku Tengah, Maluku";"MALUKU";"";"Indonesia";"";"";"";"-3.0166501";"129.4864411";"https://maps.google.com/?cid=0x0:0x86b951b65a3b3fb7";""
"perumahan";"Perhimpunan Pengembang Perumahan";"M.ikbal hayoto";"GHR4+2C6, Haya, Kec. Tehoru, Kabupaten Maluku Tengah, Maluku";"Kabupaten Maluku Tengah, Maluku";"MALUKU";"";"Indonesia";"";"";"";"-3.459884";"129.556225";"https://maps.google.com/?cid=0x0:0x30d7409250f7a942";""
"perumahan";"Perhimpunan Pengembang Perumahan";"Desa Itawaka";"GM3X+88M, Noloth, Kec. Saparua, Kabupaten Maluku Tengah, Maluku";"Kabupaten Maluku Tengah, Maluku";"MALUKU";"";"Indonesia";"";"";"";"-3.4966567";"128.6982979";"https://maps.google.com/?cid=0x0:0x4e30540c65eaf31";""
"perumahan";"Komplek perumahan";"Rumah Raja Itawaka";"GM3W+FR5, Jl. Raya Nolot, Noloth, Kec. Saparua Timur, Kabupaten Maluku Tengah, Maluku";"Kabupaten Maluku Tengah, Maluku";"MALUKU";"";"Indonesia";"";"";"";"-3.4963727";"128.6971189";"https://maps.google.com/?cid=0x0:0x7ab063746dfcdd87";""
"perumahan";"Komplek perumahan";"Rumah di desa";"GM3W+FR5, Jl. Raya Nolot, Noloth, Kec. Saparua Timur, Kabupaten Maluku Tengah, Maluku";"Kabupaten Maluku Tengah, Maluku";"MALUKU";"";"Indonesia";"";"";"";"-3.4954406";"128.6964691";"https://maps.google.com/?cid=0x0:0x99512f5e83a79cee";""
"perumahan";"Komplek perumahan";"Rumah Kel. A. Siahaya";"FM8R+262, Jl. Raya Saparua-Nolot, Mahu, Kec. Saparua Timur, Kabupaten Maluku Tengah, Maluku";"Kabupaten Maluku Tengah, Maluku";"MALUKU";"";"Indonesia";"";"";"";"-3.5349921";"128.6905013";"https://maps.google.com/?cid=0x0:0xb6515950397517d5";""
"perumahan";"Pembangunan Perumahan";"Kel Junus Latupeirissa";"CJ8M+V2M, Haria, Kec. Saparua, Kabupaten Maluku Tengah, Maluku";"Kabupaten Maluku Tengah, Maluku";"MALUKU";"";"Indonesia";"";"";"";"-3.5826564";"128.6323738";"https://maps.google.com/?cid=0x0:0x63bbafeac68e1e9d";""
"perumahan";"Komplek perumahan";"Kel Souisa Kaluyu";"CJ9G+2J2, Haria, Kec. Saparua, Kabupaten Maluku Tengah, Maluku";"Kabupaten Maluku Tengah, Maluku";"MALUKU";"";"Indonesia";"";"";"";"-3.5824881";"128.626521";"https://maps.google.com/?cid=0x0:0x27ff63479338c909";""
"perumahan";"Komplek perumahan";"Rumah tua Pdt. Lopulalan";"CJ98+PJC, Jl. Pelabuhan Haria, Portho, Kec. Saparua, Kabupaten Maluku Tengah, Maluku";"Kabupaten Maluku Tengah, Maluku";"MALUKU";"";"Indonesia";"";"";"";"-3.5811914";"128.6169286";"https://maps.google.com/?cid=0x0:0x8e5b4a463ba2ab23";""
"perumahan";"Penjara";"Rumah Dinas Lapas Kelas III Saparua";"CMG7+XF5, Saparua, Kec. Saparua, Kabupaten Maluku Tengah, Maluku";"Kabupaten Maluku Tengah, Maluku";"MALUKU";"";"Indonesia";"";"";"";"-3.5726113";"128.6637403";"https://maps.google.com/?cid=0x0:0x6b00ee666e37e6c4";""
"perumahan";"Komplek perumahan";"O. Souhoka";"CJ9H+M8M, Haria, Kec. Saparua, Kabupaten Maluku Tengah, Maluku";"Kabupaten Maluku Tengah, Maluku";"MALUKU";"";"Indonesia";"";"";"";"-3.5807868";"128.6283044";"https://maps.google.com/?cid=0x0:0x127c2a0111235810";""
"perumahan";"Komplek perumahan";"Acuguru";"CJ9G+2J2, Haria, Kec. Saparua, Kabupaten Maluku Tengah, Maluku";"Kabupaten Maluku Tengah, Maluku";"MALUKU";"";"Indonesia";"";"";"";"-3.5824057";"128.6267713";"https://maps.google.com/?cid=0x0:0x4af6203ef9ab8366";""
"perumahan";"Komplek perumahan";"Kampung baru";"FM7R+3C5, Mahu, Kec. Saparua, Kabupaten Maluku Tengah, Maluku";"Kabupaten Maluku Tengah, Maluku";"MALUKU";"";"Indonesia";"";"";"";"-3.5385551";"128.6916884";"https://maps.google.com/?cid=0x0:0x86199896cb220a02";""
"perumahan";"Komplek perumahan";"Saul Manuputty Home";"CMM7+7P, Saparua, Kec. Saparua, Kabupaten Maluku Tengah, Maluku";"Kabupaten Maluku Tengah, Maluku";"MALUKU";"";"Indonesia";"";"";"";"-3.5668161";"128.6643515";"https://maps.google.com/?cid=0x0:0x3d6f4bf710fccfe4";""
"perumahan";"Komplek perumahan";"Tibel's";"CMH5+GVX, Raya Saparua, Saparua, Kec. Saparua, Kabupaten Maluku Tengah, Maluku";"Kabupaten Maluku Tengah, Maluku";"MALUKU";"";"Indonesia";"";"";"";"-3.5711353";"128.6591365";"https://maps.google.com/?cid=0x0:0x6c5fa2691c047283";""
"perumahan";"Pembangunan Perumahan";"Vansye Persulessy";"CJ7M+7V, Haria, Kec. Saparua, Kabupaten Maluku Tengah, Maluku";"Kabupaten Maluku Tengah, Maluku";"MALUKU";"";"Indonesia";"";"";"";"-3.586805";"128.634715";"https://maps.google.com/?cid=0x0:0xbb83bdf2547b0288";""
"perumahan";"Komplek perumahan";"SIRISORI";"CMPV+V2, Siri-Sori Amalatu, Kec. Saparua Timur, Kabupaten Maluku Tengah, Maluku";"Kabupaten Maluku Tengah, Maluku";"MALUKU";"";"Indonesia";"";"";"";"-3.5628423";"128.6925961";"https://maps.google.com/?cid=0x0:0x58e8829b8eaff852";""
"perumahan";"Komplek perumahan";"Biber Wattimena";"CMH4+6Q5, Saparua, Kec. Saparua, Kabupaten Maluku Tengah, Maluku";"Kabupaten Maluku Tengah, Maluku";"MALUKU";"";"Indonesia";"";"";"";"-3.572347";"128.6569384";"https://maps.google.com/?cid=0x0:0x3bada7b66087c5af";""
"perumahan";"Komplek perumahan";"Saparua";"9JXH+CQ6, Haria, Kec. Saparua, Kabupaten Maluku Tengah, Maluku";"Kabupaten Maluku Tengah, Maluku";"MALUKU";"";"Indonesia";"";"";"";"-3.6014687";"128.6293862";"https://maps.google.com/?cid=0x0:0xf9d35b1d7f552ccb";""
"perumahan";"Komplek perumahan";"Gunung Korbou";"CJ8C+V3H, Jalan Pelabuhan, Haria, Saparua, Central Maluku Regency, Maluku";"Kabupaten Maluku Tengah, Maluku";"MALUKU";"";"Indonesia";"";"";"";"-3.5828224";"128.6202499";"https://maps.google.com/?cid=0x0:0xb2f34a6926d4a7b2";""
"perumahan";"Komplek perumahan";"Saparua komplex Soalanda";"CMG6+M6F, Saparua, Kec. Saparua, Kabupaten Maluku Tengah, Maluku";"Kabupaten Maluku Tengah, Maluku";"MALUKU";"";"Indonesia";"";"";"";"-3.5733241";"128.6605526";"https://maps.google.com/?cid=0x0:0x340b7389bfabb25d";""
"perumahan";"Komplek perumahan";"Amahoni";"FM8Q+VP9, Mahu, Kec. Saparua Timur, Kabupaten Maluku Tengah, Maluku";"Kabupaten Maluku Tengah, Maluku";"MALUKU";"";"Indonesia";"";"";"";"-3.5328377";"128.6893604";"https://maps.google.com/?cid=0x0:0x506a2fcfa566ec96";""
"perumahan";"Komplek perumahan";"Saparua";"CMH3+7QV, Tiouw, Kec. Saparua, Kabupaten Maluku Tengah, Maluku";"Kabupaten Maluku Tengah, Maluku";"MALUKU";"";"Indonesia";"";"";"";"-3.5717657";"128.6544313";"https://maps.google.com/?cid=0x0:0xd52e4e1f09b80c2a";""
"perumahan";"Perhimpunan Pengembang Perumahan";"RUMAH SOHILAIT";"CMH4+83Q, Saparua, Kec. Saparua, Kabupaten Maluku Tengah, Maluku";"Kabupaten Maluku Tengah, Maluku";"MALUKU";"";"Indonesia";"";"";"";"-3.5716759";"128.6553291";"https://maps.google.com/?cid=0x0:0x19b1b64c6199b254";""
"perumahan";"Pembangunan Perumahan";"SIRISORI";"CMGC+F5, Saparua, Kec. Saparua, Kabupaten Maluku Tengah, Maluku";"Kabupaten Maluku Tengah, Maluku";"MALUKU";"";"Indonesia";"";"";"";"-3.5738424";"128.6703968";"https://maps.google.com/?cid=0x0:0x8fe737bb7e0a9373";""
"perumahan";"Komplek perumahan";"Gangpas";"FMRR+G4R, Ihamahu, Kec. Saparua Timur, Kabupaten Maluku Tengah, Maluku";"Kabupaten Maluku Tengah, Maluku";"MALUKU";"";"Indonesia";"";"";"";"-3.5086665";"128.6901783";"https://maps.google.com/?cid=0x0:0x4dbcaa42d241b1d8";""
"perumahan";"Pembangunan Perumahan";"Keluarga Noya/Sahertian";"CJ88+WQR, Portho, Kec. Saparua, Kabupaten Maluku Tengah, Maluku";"Kabupaten Maluku Tengah, Maluku";"MALUKU";"";"Indonesia";"";"";"";"-3.5826306";"128.6169014";"https://maps.google.com/?cid=0x0:0x158f0ffc7142989f";""
"perumahan";"Perhimpunan Pengembang Perumahan";"Saparua";"CMJ7+88 SMA PGRI saparua, Saparua, Kec. Saparua, Kabupaten Maluku Tengah, Maluku";"Kabupaten Maluku Tengah, Maluku";"MALUKU";"";"Indonesia";"";"";"";"-3.5724621";"128.6632654";"https://maps.google.com/?cid=0x0:0xee4e874755c5293";""
"perumahan";"Komplek perumahan";"Sait";"FHW8+RJR, Kulur, Kec. Saparua, Kabupaten Maluku Tengah, Maluku";"Kabupaten Maluku Tengah, Maluku";"MALUKU";"";"Indonesia";"";"";"";"-3.502884";"128.5665041";"https://maps.google.com/?cid=0x0:0xed50df4c574f9225";""
"perumahan";"perumahan";"Pulau Haruku";"Kec. Pulau Haruku, Kabupaten Maluku Tengah, Maluku";"Kabupaten Maluku Tengah, Maluku";"MALUKU";"";"Indonesia";"";"";"";"-3.559121";"128.4639632";"https://maps.google.com/?cid=0x0:0x447057b7bfb22ab3";""
"perumahan";"perumahan";"Kec. Pulau Haruku";"Kabupaten Maluku Tengah, Maluku";"Kabupaten Maluku Tengah, Maluku";"MALUKU";"";"Indonesia";"";"";"";"-3.5178742";"128.4713474";"https://maps.google.com/?cid=0x0:0x222339c9d4547200";""
"perumahan";"Komplek perumahan";"Perumahan";"FFJ8+FVX, Pelauw, Kec. Pulau Haruku, Kabupaten Maluku Tengah, Maluku";"Kabupaten Maluku Tengah, Maluku";"MALUKU";"";"Indonesia";"";"";"";"-3.5187625";"128.4672344";"https://maps.google.com/?cid=0x0:0xbf2fe60bf2a1d2f3";""
"perumahan";"Komplek perumahan";"Keluarga Opi Saya";"9GQ5+JC5, Aboru, Kec. Pulau Haruku, Kabupaten Maluku Tengah, Maluku";"Kabupaten Maluku Tengah, Maluku";"MALUKU";"";"Indonesia";"";"";"";"-3.6114128";"128.5071697";"https://maps.google.com/?cid=0x0:0x137eef0586bbc259";""
"perumahan";"Komplek perumahan";"Posyandu";"FCMR+4Q, Pelauw, Kec. Pulau Haruku, Kabupaten Maluku Tengah, Maluku";"Kabupaten Maluku Tengah, Maluku";"MALUKU";"";"Indonesia";"";"";"";"-3.5171601";"128.44185";"https://maps.google.com/?cid=0x0:0x151b46a7c8df6b09";""
"perumahan";"Kantor Pemerintah";"Negeri Oma";"9CFR+7F8, Haruku, Kec. Pulau Haruku, Kabupaten Maluku Tengah, Maluku";"Kabupaten Maluku Tengah, Maluku";"MALUKU";"";"Indonesia";" 082238530741";"";"";"-3.6268292";"128.4412086";"https://maps.google.com/?cid=0x0:0xf819a206c38cee7b";""
"perumahan";"Pusat Spiritis";"Rumah Pusaka Tuanany";"FC98+CF9, Dusun I Tanusamahu, Kailolo, Kec. Pulau Haruku, Maluku";"Maluku";"MALUKU";"";"Indonesia";"";"";"";"-3.5313485";"128.4162709";"https://maps.google.com/?cid=0x0:0xdc7ebf09dafc2d94";""
"perumahan";"Perhimpunan Pengembang Perumahan";"GERGENTER";"FFJM+754, ory, Pulau Haruku, Central Maluku Regency, Maluku";"Kabupaten Maluku Tengah, Maluku";"MALUKU";"";"Indonesia";"";"";"";"-3.5193711";"128.4829477";"https://maps.google.com/?cid=0x0:0xddb1ebbf6ce21970";""
"perumahan";"Komplek perumahan";"Rumah hetharia";"9CCJ+RJ6, Haruku, Kec. Pulau Haruku, Kabupaten Maluku Tengah, Maluku";"Kabupaten Maluku Tengah, Maluku";"MALUKU";"";"Indonesia";"";"";"";"-3.6287372";"128.4314062";"https://maps.google.com/?cid=0x0:0x19d35153f50944e7";""
"perumahan";"Komplek perumahan";"Abdussalam Latuamury";"FFH8+JCH, Pelauw, Kec. Pulau Haruku, Kabupaten Maluku Tengah, Maluku";"Kabupaten Maluku Tengah, Maluku";"MALUKU";"";"Indonesia";"";"";"";"-3.5209331";"128.4661073";"https://maps.google.com/?cid=0x0:0xb8a2143a625d003e";""
"perumahan";"Pembangunan Perumahan";"Negeri Kariu";"FFJH+78X, Pelauw, Kec. Pulau Haruku, Kabupaten Maluku Tengah, Maluku";"Kabupaten Maluku Tengah, Maluku";"MALUKU";"";"Indonesia";"";"";"";"-3.5187744";"128.4788981";"https://maps.google.com/?cid=0x0:0xc781025943ff39af";""
"perumahan";"Komplek perumahan";"Rumahnya bondan";"FFHV+259, Pelauw, Kec. Pulau Haruku, Kabupaten Maluku Tengah, Maluku";"Kabupaten Maluku Tengah, Maluku";"MALUKU";"";"Indonesia";"";"";"";"-3.5224581";"128.4929945";"https://maps.google.com/?cid=0x0:0x62cfc5d3ed8ee289";""
"perumahan";"Komplek perumahan";"Komplek Chimai";"CCWF+P94, Rohomoni, Kec. Pulau Haruku, Kabupaten Maluku Tengah, Maluku";"Kabupaten Maluku Tengah, Maluku";"MALUKU";"";"Indonesia";"";"";"";"-3.5539312";"128.4227804";"https://maps.google.com/?cid=0x0:0x5c3a544297372ece";""
"perumahan";"Komplek perumahan";"Ebel Home";"CCWG+3F, Kabau, Kec. Pulau Haruku, Kabupaten Maluku Tengah, Maluku";"Kabupaten Maluku Tengah, Maluku";"MALUKU";"";"Indonesia";"";"";"";"-3.5544765";"128.4257709";"https://maps.google.com/?cid=0x0:0x3c70db66e65c7fed";""
"perumahan";"Komplek perumahan";"Kampong Nama'ea";"FCJR+XPF, Pelauw, Kec. Pulau Haruku, Kabupaten Maluku Tengah, Maluku";"Kabupaten Maluku Tengah, Maluku";"MALUKU";"";"Indonesia";"";"";"";"-3.517575";"128.4418005";"https://maps.google.com/?cid=0x0:0x8b9deaf9917abac";""
"perumahan";"Komplek perumahan";"Aru'ut";"FC88+63W, Kailolo, Kec. Pulau Haruku, Kabupaten Maluku Tengah, Maluku";"Kabupaten Maluku Tengah, Maluku";"MALUKU";"";"Indonesia";"";"";"";"-3.5338563";"128.4149915";"https://maps.google.com/?cid=0x0:0x3c78f101d323441d";""
"perumahan";"Perhimpunan Pengembang Perumahan";"Kampis";"FCMR+64, Pelauw, Kec. Pulau Haruku, Kabupaten Maluku Tengah, Maluku";"Kabupaten Maluku Tengah, Maluku";"MALUKU";"";"Indonesia";"";"";"";"-3.5169519";"128.4402599";"https://maps.google.com/?cid=0x0:0x273e5ddcfab5d6da";""
"perumahan";"Komplek perumahan";"Perumahan guru";"FC77+3J2, Kailolo, Kec. Pulau Haruku, Kabupaten Maluku Tengah, Maluku";"Kabupaten Maluku Tengah, Maluku";"MALUKU";"";"Indonesia";"";"";"";"-3.5372967";"128.4145036";"https://maps.google.com/?cid=0x0:0x3d82f9afabd6a2d3";""
"perumahan";"Komplek perumahan";"Rumah mama Fatma";"FGG9+F48, Pelauw, Kec. Pulau Haruku, Kabupaten Maluku Tengah, Maluku";"Kabupaten Maluku Tengah, Maluku";"MALUKU";"";"Indonesia";"";"";"";"-3.5238988";"128.5175625";"https://maps.google.com/?cid=0x0:0x4922d1c65bd19c64";""
"perumahan";"Komplek perumahan";"Namaea kecil";"Jln raya dusun namaea No.1, Dusun Namaea, Pelauw, Kec. Pulau Haruku, Kabupaten Maluku Tengah, Maluku 97583";"Dusun Namaea, Pelauw, Kec. Pulau Haruku, Kabupaten Maluku Tengah";"MALUKU";"97583";"Indonesia";"";"";"";"-3.5185899";"128.4444325";"https://maps.google.com/?cid=0x0:0x263a7284dfb300d8";""
"perumahan";"Pembangunan Perumahan";"Rumah Daniel (Dande) Salakory";"9FMV+78H, Wassu, Kec. Pulau Haruku, Kabupaten Maluku Tengah, Maluku";"Kabupaten Maluku Tengah, Maluku";"MALUKU";"";"Indonesia";"";"";"";"-3.6168065";"128.4933639";"https://maps.google.com/?cid=0x0:0xba7d1b6274048f09";""
"perumahan";"Perhimpunan Pengembang Perumahan";"Negeri Haruku";"9CV9+P2F, Unnamed Road, Haruku, Kec. Pulau Haruku, Kabupaten Maluku Tengah, Maluku";"Kabupaten Maluku Tengah, Maluku";"MALUKU";"";"Indonesia";"";"";"";"-3.6056787";"128.4175436";"https://maps.google.com/?cid=0x0:0x9beec28daeceb0e";""
"perumahan";"perumahan";"Kec. Salahutu";"Kabupaten Maluku Tengah, Maluku";"Kabupaten Maluku Tengah, Maluku";"MALUKU";"";"Indonesia";"";"";"";"-3.5871515";"128.3279426";"https://maps.google.com/?cid=0x0:0xe1f3659f501ed8f1";""
"perumahan";"perumahan";"Perumahan Alam Telaga Tihu";"98P4+54G, Suli, Kec. Salahutu, Kabupaten Maluku Tengah, Maluku";"Kabupaten Maluku Tengah, Maluku";"MALUKU";"";"Indonesia";"";"";"";"-3.6139456";"128.306355";"https://maps.google.com/?cid=0x0:0xa015e5e850304646";""
"perumahan";"Komplek perumahan";"Rumah Tua";"98C5+GHQ, Jl. Raya Suli Bawah, Suli, Kec. Salahutu, Kabupaten Maluku Tengah, Maluku";"Kabupaten Maluku Tengah, Maluku";"MALUKU";"";"Indonesia";"";"";"";"-3.6286599";"128.3089929";"https://maps.google.com/?cid=0x0:0xc83221d0d05c5728";""
"perumahan";"Komplek perumahan";"Perumahan Guru SD Neg 25 Maluku Tengah";"C8PC+728, Waai, Kec. Salahutu, Kabupaten Maluku Tengah, Maluku";"Kabupaten Maluku Tengah, Maluku";"MALUKU";"";"Indonesia";"";"";"";"-3.564339";"128.3200738";"https://maps.google.com/?cid=0x0:0x2fc6de753ac7185a";""
"perumahan";"Komplek perumahan";"Rumah bocor";"C82P+G5V, Tulehu, Kec. Salahutu, Kabupaten Maluku Tengah, Maluku";"Kabupaten Maluku Tengah, Maluku";"MALUKU";"";"Indonesia";"";"";"";"-3.5986357";"128.3354324";"https://maps.google.com/?cid=0x0:0xa99fc225dbb2393a";""
"perumahan";"Komplek perumahan";"Gapura Dusun Al-Muhajirin/Perumahan Pengungsi";"98RH+4GX, Tulehu, Kec. Salahutu, Kabupaten Maluku Tengah, Maluku";"Kabupaten Maluku Tengah, Maluku";"MALUKU";"";"Indonesia";" 082248635393";"";"";"-3.6096311";"128.3288698";"https://maps.google.com/?cid=0x0:0xd25846c11c4e7f53";""
"perumahan";"Perhimpunan Pengembang Perumahan";"Lestaluhu(Kawa)";"C85R+9GP, Tulehu, Kec. Salahutu, Kabupaten Maluku Tengah, Maluku";"Kabupaten Maluku Tengah, Maluku";"MALUKU";"";"Indonesia";"";"";"";"-3.5915185";"128.3412726";"https://maps.google.com/?cid=0x0:0x786d2932c8cc2393";""
"perumahan";"Komplek perumahan";"Sabrina";"C83X+GQ, Tulehu, Kec. Salahutu, Kabupaten Maluku Tengah, Maluku";"Kabupaten Maluku Tengah, Maluku";"MALUKU";"";"Indonesia";" 082290543585";"";"";"-3.5960942";"128.3494265";"https://maps.google.com/?cid=0x0:0x2fc063e8a6ebdbc9";""
"perumahan";"Komplek perumahan";"Kompleks Naang";"C8GF+CWG, Waai, Kec. Salahutu, Kabupaten Maluku Tengah, Maluku";"Kabupaten Maluku Tengah, Maluku";"MALUKU";"";"Indonesia";"";"";"";"-3.5739438";"128.3248169";"https://maps.google.com/?cid=0x0:0xa9e497afffbcdb73";""
"perumahan";"Pusat Perbelanjaan";"Tulehu";"C85M+QQ9, Tulehu, Kec. Salahutu, Kabupaten Maluku Tengah, Maluku 97582";"Tulehu, Kec. Salahutu, Kabupaten Maluku Tengah";"MALUKU";"97582";"Indonesia";"";"";"";"-3.5899693";"128.3312187";"https://maps.google.com/?cid=0x0:0x37fa725e7b25b70d";""
"perumahan";"Pembangunan Perumahan";"BTN Suli kecamatan Salahutu";"98M9+865, Jl. Propinsi, Suli, Kec. Salahutu, Kabupaten Maluku Tengah, Maluku";"Kabupaten Maluku Tengah, Maluku";"MALUKU";"";"Indonesia";"";"";"";"-3.6167461";"128.3181064";"https://maps.google.com/?cid=0x0:0x5bf78fd36001583b";""
"perumahan";"Komplek perumahan";"Tualena's Home";"98G3+RRJ, Jalan Suli Raya, Suli, Kec. Salahutu, Kabupaten Maluku Tengah, Maluku";"Kabupaten Maluku Tengah, Maluku";"MALUKU";"";"Indonesia";"";"";"";"-3.6229183";"128.3045231";"https://maps.google.com/?cid=0x0:0x4f392f77bb77d01a";""
"perumahan";"Komplek perumahan";"RUMAH GLEVIO SITANALA";"98G2+R5G, Suli, Kec. Salahutu, Kabupaten Maluku Tengah, Maluku";"Kabupaten Maluku Tengah, Maluku";"MALUKU";"";"Indonesia";"";"";"";"-3.6223827";"128.3003119";"https://maps.google.com/?cid=0x0:0xed64bd4e3f7f0320";""
"perumahan";"Komplek perumahan";"Home RkmhuKydoe";"C8VG+VF6, Waai, Kec. Salahutu, Kabupaten Maluku Tengah, Maluku";"Kabupaten Maluku Tengah, Maluku";"MALUKU";"";"Indonesia";"";"";"";"-3.5553877";"128.3256648";"https://maps.google.com/?cid=0x0:0xc31919cf24ae6a49";""
"perumahan";"Perhimpunan Pengembang Perumahan";"Rumah";"C82Q+74C, Tulehu, Kec. Salahutu, Kabupaten Maluku Tengah, Maluku";"Kabupaten Maluku Tengah, Maluku";"MALUKU";"";"Indonesia";"";"";"";"-3.5993636";"128.3378481";"https://maps.google.com/?cid=0x0:0x3294f72ec7f1dc0";""
"perumahan";"Komplek perumahan";"Mm tua rumah";"C8MC+PMR, Waai, Kec. Salahutu, Kabupaten Maluku Tengah, Maluku";"Kabupaten Maluku Tengah, Maluku";"MALUKU";"";"Indonesia";"";"";"";"-3.5656386";"128.3216333";"https://maps.google.com/?cid=0x0:0xdd79e5f80c9698c6";""
"perumahan";"perumahan";"Rumah Ano.godlieb";"97QX+WPM, Suli, Kec. Salahutu, Kabupaten Maluku Tengah, Maluku";"Kabupaten Maluku Tengah, Maluku";"MALUKU";"";"Indonesia";"";"";"";"-3.6101712";"128.2992932";"https://maps.google.com/?cid=0x0:0x1b6d35d79089dd28";""
"perumahan";"Komplek perumahan";"Keluarga Bp Marthen Pattipeilohy";"C8MC+42W, Waai, Kec. Salahutu, Kabupaten Maluku Tengah, Maluku";"Kabupaten Maluku Tengah, Maluku";"MALUKU";"";"Indonesia";"";"";"";"-3.5671258";"128.3200771";"https://maps.google.com/?cid=0x0:0x51e72c287371bfb0";""
"perumahan";"Perhimpunan Pengembang Perumahan";"IHA, Salahutu";"C87H+562, Tulehu, Kec. Salahutu, Kabupaten Maluku Tengah, Maluku";"Kabupaten Maluku Tengah, Maluku";"MALUKU";"";"Indonesia";"";"";"";"-3.5871095";"128.3280027";"https://maps.google.com/?cid=0x0:0x87cdd23436e6a983";""
"perumahan";"Komplek perumahan";"Rumah Luis";"988J+WJJ, Tial, Kec. Salahutu, Kabupaten Maluku Tengah, Maluku";"Kabupaten Maluku Tengah, Maluku";"MALUKU";"";"Indonesia";"";"";"";"-3.632847";"128.331197";"https://maps.google.com/?cid=0x0:0x1c4d5c7bfcf61c47";""
"perumahan";"Komplek perumahan";"Kel. Bpk. Maku. Hiariej";"C8QC+JCQ, Waai, Kec. Salahutu, Kabupaten Maluku Tengah, Maluku";"Kabupaten Maluku Tengah, Maluku";"MALUKU";"";"Indonesia";"";"";"";"-3.561048";"128.3210756";"https://maps.google.com/?cid=0x0:0x685a200d7ea42496";""
"perumahan";"Pembangunan Perumahan";"Rumahnya mama ani";"C85G+R6, Tulehu, Kec. Salahutu, Kabupaten Maluku Tengah, Maluku";"Kabupaten Maluku Tengah, Maluku";"MALUKU";"";"Indonesia";"";"";"";"-3.5904938";"128.3255307";"https://maps.google.com/?cid=0x0:0x2d6b08ffe27363dd";""
"perumahan";"Komplek perumahan";"Tomulain Home";"C86J+8W6, Tulehu, Kec. Salahutu, Kabupaten Maluku Tengah, Maluku";"Kabupaten Maluku Tengah, Maluku";"MALUKU";"";"Indonesia";"";"";"";"-3.5893046";"128.3324787";"https://maps.google.com/?cid=0x0:0x34f7718abd35763d";""
"perumahan";"perumahan";"Kec. Leihitu";"Kabupaten Maluku Tengah, Maluku";"Kabupaten Maluku Tengah, Maluku";"MALUKU";"";"Indonesia";"";"";"";"-3.5841059";"128.0844985";"https://maps.google.com/?cid=0x0:0x70c3041186d04c92";""
"perumahan";"Kompleks Apartemen";"Rumah Yanti Lambusango";"C45V+8FV, Wakal, Kec. Leihitu, Kabupaten Maluku Tengah, Maluku";"Kabupaten Maluku Tengah, Maluku";"MALUKU";"";"Indonesia";"";"";"";"-3.5916384";"128.1436727";"https://maps.google.com/?cid=0x0:0x1d92ce6cbda8d0ab";""
"perumahan";"Komplek perumahan";"leihitu";"C38M+9Q5, Kaitetu, Kec. Leihitu, Kabupaten Maluku Tengah, Maluku";"Kabupaten Maluku Tengah, Maluku";"MALUKU";"";"Indonesia";"";"";"";"-3.5841059";"128.0844985";"https://maps.google.com/?cid=0x0:0x20660037d485f831";""
"perumahan";"Komplek perumahan";"rumah gadis";"C38M+QX5, Hila, Kec. Leihitu, Kabupaten Maluku Tengah, Maluku";"Kabupaten Maluku Tengah, Maluku";"MALUKU";"";"Indonesia";"";"";"";"-3.5831202";"128.0849708";"https://maps.google.com/?cid=0x0:0xe23feef131b22f4f";""
"perumahan";"Komplek perumahan";"Rumah Assritha Arpani";"C355+HF6, Kaitetu, Kec. Leihitu, Kabupaten Maluku Tengah, Maluku";"Kabupaten Maluku Tengah, Maluku";"MALUKU";"";"Indonesia";"";"";"";"-3.5908221";"128.0579925";"https://maps.google.com/?cid=0x0:0xc22c892fa01c0b79";""
"perumahan";"Komplek perumahan";"Rmh wisnu LML";"C35F+HQ, Kaitetu, Kec. Leihitu, Kabupaten Maluku Tengah, Maluku";"Kabupaten Maluku Tengah, Maluku";"MALUKU";"";"Indonesia";"";"";"";"-3.5910603";"128.0744944";"https://maps.google.com/?cid=0x0:0x10e572042e6bca8d";""
"perumahan";"Pembangunan Perumahan";"Negeri Hila, Kec Leihitu Kabupaten Maluku Tengah";"C37R+XP8, Jl. Propinsi, Hila, Kec. Leihitu, Kabupaten Maluku Tengah, Maluku";"Kabupaten Maluku Tengah, Maluku";"MALUKU";"";"Indonesia";"";"";"";"-3.5851306";"128.0920605";"https://maps.google.com/?cid=0x0:0x75fce70096388ec1";""
"perumahan";"Komplek perumahan";"Rumah Geo";"C354+PMP, Jl. Propinsi, Kaitetu, Kec. Leihitu, Kabupaten Maluku Tengah, Maluku";"Kabupaten Maluku Tengah, Maluku";"MALUKU";"";"Indonesia";"";"";"";"-3.5900978";"128.0567917";"https://maps.google.com/?cid=0x0:0xce4b83612bfe3696";""
"perumahan";"perumahan";"Palbatas pala tanpa batas";"C38Q+VMW, Hila, Kec. Leihitu, Kabupaten Maluku Tengah, Maluku";"Kabupaten Maluku Tengah, Maluku";"MALUKU";"";"Indonesia";"";"";"";"-3.5820889";"128.0896536";"https://maps.google.com/?cid=0x0:0xe0811160f9211822";""
"perumahan";"Komplek perumahan";"rumah anggun";"C38M+QWF, Hila, Kec. Leihitu, Kabupaten Maluku Tengah, Maluku";"Kabupaten Maluku Tengah, Maluku";"MALUKU";"";"Indonesia";"";"";"";"-3.583074";"128.0848062";"https://maps.google.com/?cid=0x0:0x4fd41c9ffb8f0e47";""
"perumahan";"Komplek perumahan";"Rumahnya Egan";"C23P+M98, Seith, Kec. Leihitu, Kabupaten Maluku Tengah, Maluku";"Kabupaten Maluku Tengah, Maluku";"MALUKU";"";"Indonesia";"";"";"";"-3.595833";"128.0359615";"https://maps.google.com/?cid=0x0:0x1d11779a52fca2b6";""
"perumahan";"Komplek perumahan";"Rumah yambox";"C24H+8G8, Seith, Kec. Leihitu, Kabupaten Maluku Tengah, Maluku";"Kabupaten Maluku Tengah, Maluku";"MALUKU";"";"Indonesia";"";"";"";"-3.5942104";"128.0288432";"https://maps.google.com/?cid=0x0:0x325624d565d80336";""
"perumahan";"Komplek perumahan";"Daerah Istimewah Waipokol";"C57C+9PC, Hitu Mesing, Kec. Leihitu, Kabupaten Maluku Tengah, Maluku";"Kabupaten Maluku Tengah, Maluku";"MALUKU";"";"Indonesia";"";"";"";"-3.5864593";"128.1718174";"https://maps.google.com/?cid=0x0:0x1dc186cbb0b3a430";""
"perumahan";"Komplek perumahan";"Rumah Afanty U.";"C24P+H88, Jl. Propinsi, Seith, Kec. Leihitu, Kabupaten Maluku Tengah, Maluku";"Kabupaten Maluku Tengah, Maluku";"MALUKU";"";"Indonesia";"";"";"";"-3.5935896";"128.0358313";"https://maps.google.com/?cid=0x0:0x9f121d6473f41368";""
"perumahan";"Komplek perumahan";"Rumah Rifki";"C354+CJX, Kaitetu, Kec. Leihitu, Kabupaten Maluku Tengah, Maluku";"Kabupaten Maluku Tengah, Maluku";"MALUKU";"";"Indonesia";"";"";"";"-3.591435";"128.0563036";"https://maps.google.com/?cid=0x0:0x232ec6103b689707";""
"perumahan";"Komplek perumahan";"Ucina home";"C354+CJX, Kaitetu, Kec. Leihitu, Kabupaten Maluku Tengah, Maluku";"Kabupaten Maluku Tengah, Maluku";"MALUKU";"";"Indonesia";"";"";"";"-3.5913946";"128.0566037";"https://maps.google.com/?cid=0x0:0x656de6ce9499881b";""
"perumahan";"perumahan";"uchi pake x rumah";"C38Q+VMW, Hila, Kec. Leihitu, Kabupaten Maluku Tengah, Maluku";"Kabupaten Maluku Tengah, Maluku";"MALUKU";"";"Indonesia";"";"";"";"-3.582118";"128.089525";"https://maps.google.com/?cid=0x0:0xd7f420ac57417b31";""
"perumahan";"Pembangunan Perumahan";"Oke";"C38Q+3RP, Hila, Kec. Leihitu, Kabupaten Maluku Tengah, Maluku";"Kabupaten Maluku Tengah, Maluku";"MALUKU";"";"Indonesia";"";"";"";"-3.5847901";"128.089577";"https://maps.google.com/?cid=0x0:0xc526e9d595046a0d";""
"perumahan";"Komplek perumahan";"Kota lehu";"C25H+4J7, Jl. Propinsi, Seith, Kec. Leihitu, Kabupaten Maluku Tengah, Maluku";"Kabupaten Maluku Tengah, Maluku";"MALUKU";"";"Indonesia";"";"";"";"-3.5921565";"128.0290541";"https://maps.google.com/?cid=0x0:0x85a5e23ef45beb46";""
"perumahan";"Komplek perumahan";"Rumah Novy";"C37V+995, Jl. Propinsi, Hila, Kec. Leihitu, Kabupaten Maluku Tengah, Maluku";"Kabupaten Maluku Tengah, Maluku";"MALUKU";"";"Indonesia";"";"";"";"-3.5864975";"128.0935667";"https://maps.google.com/?cid=0x0:0xe26ce791e5c9113d";""
"perumahan";"Komplek perumahan";"Rumah Rusdar";"C355+HF6, Kaitetu, Kec. Leihitu, Kabupaten Maluku Tengah, Maluku";"Kabupaten Maluku Tengah, Maluku";"MALUKU";"";"Indonesia";"";"";"";"-3.591128";"128.058484";"https://maps.google.com/?cid=0x0:0x166962d5cda05cd";""
"perumahan";"Komplek perumahan";"Utari kapitan Hitu home";"C36W+GHW, Hila, Kecamatan Leihitu Barat, Kabupaten Maluku Tengah, Maluku";"Kabupaten Maluku Tengah, Maluku";"MALUKU";"";"Indonesia";"";"";"";"-3.5890945";"128.0963219";"https://maps.google.com/?cid=0x0:0x1de0e16e48505a0f";""
"perumahan";"Komplek perumahan";"Rumah Devan";"C24P+G24, Jl. Propinsi, Seith, Kec. Leihitu, Kabupaten Maluku Tengah, Maluku";"Kabupaten Maluku Tengah, Maluku";"MALUKU";"";"Indonesia";"";"";"";"-3.59351";"128.03499";"https://maps.google.com/?cid=0x0:0x849163b8986724e4";""
"perumahan";"perumahan";"Maluku 97511";"Ampera, Kec. Kota Masohi, Kabupaten Maluku Tengah, Maluku";"Kabupaten Maluku Tengah, Maluku";"MALUKU";"";"Indonesia";"";"";"";"-3.2986837";"128.9559293";"https://maps.google.com/?cid=0x0:0x208f85b200ee57be";""
"perumahan";"perumahan";"Keluarga Ny. O Metaloy";"MXX3+XPF, Ampera, Kec. Kota Masohi, Kabupaten Maluku Tengah, Maluku";"Kabupaten Maluku Tengah, Maluku";"MALUKU";"";"Indonesia";"";"";"";"-3.3000615";"128.9542861";"https://maps.google.com/?cid=0x0:0x5c1a02659fd089ae";""
"perumahan";"Komplek perumahan";"Nesya Tanamal";"8Q4Q+M4J, Abubu, Kec. Nusalaut, Kabupaten Maluku Tengah, Maluku";"Kabupaten Maluku Tengah, Maluku";"MALUKU";"";"Indonesia";"";"";"";"-3.693285";"128.7877501";"https://maps.google.com/?cid=0x0:0xf495f7614fb72270";""
"perumahan";"Komplek perumahan";"Rumah Tua Turubassa";"9R34+58P, Ameth, Kec. Nusalaut, Kabupaten Maluku Tengah, Maluku";"Kabupaten Maluku Tengah, Maluku";"MALUKU";"";"Indonesia";"";"";"";"-3.6478168";"128.8053944";"https://maps.google.com/?cid=0x0:0xd9d16b83d7b0f543";""
"perumahan";"Perhimpunan Pengembang Perumahan";"Kilo 6";"MXX3+XPF, Ampera, Kec. Kota Masohi, Kabupaten Maluku Tengah, Maluku";"Kabupaten Maluku Tengah, Maluku";"MALUKU";"";"Indonesia";"";"";"";"-3.3000615";"128.9542861";"https://maps.google.com/?cid=0x0:0xf1e95c18eee7471f";""
"perumahan";"Komplek perumahan";"Rumah.Ny.ketrina pattinasarany";"PX9C+6JX, Ampera, Kec. Amahai, Kabupaten Maluku Tengah, Maluku 97511";"Ampera, Kec. Amahai, Kabupaten Maluku Tengah";"MALUKU";"97511";"Indonesia";"";"";"";"-3.2986837";"128.9559293";"https://maps.google.com/?cid=0x0:0xa3cf2daa187dbdc9";""
"perumahan";"Komplek perumahan";"Fany";"PX23+CRX, Ampera, Kec. Kota Masohi, Kabupaten Maluku Tengah, Maluku 97511";"Ampera, Kec. Kota Masohi, Kabupaten Maluku Tengah";"MALUKU";"97511";"Indonesia";"";"";"";"-3.2988788";"128.9546183";"https://maps.google.com/?cid=0x0:0x8a63c4db24b12a83";""
"perumahan";"Komplek perumahan";"Baileo";"8QC7+M5, Titawaai, Kec. Nusalaut, Kabupaten Maluku Tengah, Maluku";"Kabupaten Maluku Tengah, Maluku";"MALUKU";"";"Indonesia";"";"";"";"-3.677753";"128.7637547";"https://maps.google.com/?cid=0x0:0x57ded9e80cc1ff2";""
"perumahan";"Perhimpunan Pengembang Perumahan";"Home Awa";"PX23+GP7, Ampera, Kec. Kota Masohi, Kabupaten Maluku Tengah, Maluku";"Kabupaten Maluku Tengah, Maluku";"MALUKU";"";"Indonesia";"";"";"";"-3.2987034";"128.9543097";"https://maps.google.com/?cid=0x0:0x422596434a9bbb2d";""
"perumahan";"Pembangunan Perumahan";"HAI GONG MONALISA";"PX24+F5P, Jl. Abdullah Solissa, Ampera, Kec. Kota Masohi, Kabupaten Maluku Tengah, Maluku 97511";"Jl. Abdullah Solissa, Ampera, Kec. Kota Masohi, Kabupaten Maluku Tengah";"MALUKU";"97511";"Indonesia";"";"";"";"-3.2988148";"128.9554335";"https://maps.google.com/?cid=0x0:0x5043f6f0ca328344";""
"perumahan";"Komplek perumahan";"Nazwa Home";"PX23+GP8, Ampera, Kec. Kota Masohi, Kabupaten Maluku Tengah, Maluku";"Kabupaten Maluku Tengah, Maluku";"MALUKU";"";"Indonesia";"";"";"";"-3.2987";"128.9543126";"https://maps.google.com/?cid=0x0:0x4a58eb6651092216";""
"perumahan";"perumahan";"Maluku 97511";"Ampera, Kec. Kota Masohi, Kabupaten Maluku Tengah, Maluku";"Kabupaten Maluku Tengah, Maluku";"MALUKU";"";"Indonesia";"";"";"";"-3.2986837";"128.9559293";"https://maps.google.com/?cid=0x0:0x208f85b200ee57be";""
"perumahan";"Pembangunan Perumahan";"masohi kabupaten maluku tengah";"PX48+RJ6, Haruru, Kec. Amahai, Kabupaten Maluku Tengah, Maluku";"Kabupaten Maluku Tengah, Maluku";"MALUKU";"";"Indonesia";"";"";"";"-3.292975";"128.9665165";"https://maps.google.com/?cid=0x0:0x34f0dbb4a58a4515";""
"perumahan";"Pembangunan Perumahan";"Masohi";"PX26+C67, Lesane, Kec. Kota Masohi, Kabupaten Maluku Tengah, Maluku";"Kabupaten Maluku Tengah, Maluku";"MALUKU";"";"Indonesia";"";"";"";"-3.2989635";"128.960532";"https://maps.google.com/?cid=0x0:0x1615b493297306e7";""
"perumahan";"Pembangunan Perumahan";"Kota MASOHI";"PX47+JQP, Jl. Propinsi, Letwaru, Kec. Kota Masohi, Kabupaten Maluku Tengah, Maluku 97511";"Jl. Propinsi, Letwaru, Kec. Kota Masohi, Kabupaten Maluku Tengah";"MALUKU";"97511";"Indonesia";"";"";"";"-3.2934148";"128.9644588";"https://maps.google.com/?cid=0x0:0x8a64d1245adeedd9";""
"perumahan";"Pembangunan Perumahan";"Masohi";"PX29+F6X, Letwaru, Kec. Kota Masohi, Kabupaten Maluku Tengah, Maluku";"Kabupaten Maluku Tengah, Maluku";"MALUKU";"";"Indonesia";"";"";"";"-3.2987644";"128.9681112";"https://maps.google.com/?cid=0x0:0xe8765fe9b1097853";""
"perumahan";"Pembangunan Perumahan";"HAI GONG MONALISA";"PX24+F5P, Jl. Abdullah Solissa, Ampera, Kec. Kota Masohi, Kabupaten Maluku Tengah, Maluku 97511";"Jl. Abdullah Solissa, Ampera, Kec. Kota Masohi, Kabupaten Maluku Tengah";"MALUKU";"97511";"Indonesia";"";"";"";"-3.2988148";"128.9554335";"https://maps.google.com/?cid=0x0:0x5043f6f0ca328344";""
"perumahan";"perumahan";"Keluarga Ny. O Metaloy";"MXX3+XPF, Ampera, Kec. Kota Masohi, Kabupaten Maluku Tengah, Maluku";"Kabupaten Maluku Tengah, Maluku";"MALUKU";"";"Indonesia";"";"";"";"-3.3000615";"128.9542861";"https://maps.google.com/?cid=0x0:0x5c1a02659fd089ae";""
"perumahan";"Komplek perumahan";"Fany";"PX23+CRX, Ampera, Kec. Kota Masohi, Kabupaten Maluku Tengah, Maluku 97511";"Ampera, Kec. Kota Masohi, Kabupaten Maluku Tengah";"MALUKU";"97511";"Indonesia";"";"";"";"-3.2988788";"128.9546183";"https://maps.google.com/?cid=0x0:0x8a63c4db24b12a83";""
"perumahan";"Komplek perumahan";"Ningsih Henna masohi";"PX24+M5J, Ampera, Kec. Kota Masohi, Kabupaten Maluku Tengah, Maluku";"Kabupaten Maluku Tengah, Maluku";"MALUKU";"";"Indonesia";"";"";"";"-3.2983804";"128.9549635";"https://maps.google.com/?cid=0x0:0xbc703d93f6a7208e";""
"perumahan";"Perhimpunan Pengembang Perumahan";"Home Awa";"PX23+GP7, Ampera, Kec. Kota Masohi, Kabupaten Maluku Tengah, Maluku";"Kabupaten Maluku Tengah, Maluku";"MALUKU";"";"Indonesia";"";"";"";"-3.2987034";"128.9543097";"https://maps.google.com/?cid=0x0:0x422596434a9bbb2d";""
"perumahan";"perumahan";"Risma";"MXX3+XPF, Ampera, Kec. Kota Masohi, Kabupaten Maluku Tengah, Maluku";"Kabupaten Maluku Tengah, Maluku";"MALUKU";"";"Indonesia";"";"";"";"-3.3000615";"128.9542861";"https://maps.google.com/?cid=0x0:0xd389e9873d3cca39";""
"perumahan";"Komplek perumahan";"Nazwa Home";"PX23+GP8, Ampera, Kec. Kota Masohi, Kabupaten Maluku Tengah, Maluku";"Kabupaten Maluku Tengah, Maluku";"MALUKU";"";"Indonesia";"";"";"";"-3.2987";"128.9543126";"https://maps.google.com/?cid=0x0:0x4a58eb6651092216";""
"perumahan";"Komplek perumahan";"Manan's Home";"MXX3+XPF, Ampera, Kec. Kota Masohi, Kabupaten Maluku Tengah, Maluku";"Kabupaten Maluku Tengah, Maluku";"MALUKU";"";"Indonesia";"";"";"";"-3.3000615";"128.9542861";"https://maps.google.com/?cid=0x0:0x7e938279843e8c0f";""
"perumahan";"Komplek perumahan";"Raja home";"MXX3+XPF, Ampera, Kec. Kota Masohi, Kabupaten Maluku Tengah, Maluku";"Kabupaten Maluku Tengah, Maluku";"MALUKU";"";"Indonesia";"";"";"";"-3.3000615";"128.9542861";"https://maps.google.com/?cid=0x0:0xf231431253069d0e";""
"perumahan";"Komplek perumahan";"Dzarvi";"MXX3+XPF, Ampera, Kec. Kota Masohi, Kabupaten Maluku Tengah, Maluku";"Kabupaten Maluku Tengah, Maluku";"MALUKU";"";"Indonesia";"";"";"";"-3.3000615";"128.9542861";"https://maps.google.com/?cid=0x0:0x45089038e98b7430";""
"perumahan";"Komplek perumahan";"Maluku tenga";"MXX3+XPF km7 dusun simalow desa kelurahan sela, Ampera, Kec. Kota Masohi, Kabupaten Maluku Tengah, Maluku";"Kabupaten Maluku Tengah, Maluku";"MALUKU";"";"Indonesia";"";"";"";"-3.3000615";"128.9542861";"https://maps.google.com/?cid=0x0:0x5d7dd62e2c05165";""
"perumahan";"Otoritas Perumahan";"Air Papaya Masohi";"PX2G+5P5 Air papaya, RT.20, Haruru, Kec. Amahai, Kabupaten Maluku Tengah, Maluku";"Kabupaten Maluku Tengah, Maluku";"MALUKU";"";"Indonesia";"";"";"";"-3.2996512";"128.9739048";"https://maps.google.com/?cid=0x0:0x3d1626ac82a0621b";""
"perumahan";"Perhimpunan Pengembang Perumahan";"Walang Kota (Walkot)_Masohi";"MXX3+XPF, Ampera, Kec. Kota Masohi, Kabupaten Maluku Tengah, Maluku";"Kabupaten Maluku Tengah, Maluku";"MALUKU";"";"Indonesia";"";"";"";"-3.3000615";"128.9542861";"https://maps.google.com/?cid=0x0:0x598b7dfaa499192f";""
"perumahan";"perumahan";"Ohorella Family";"MXX3+XPF, Ampera, Kec. Kota Masohi, Kabupaten Maluku Tengah, Maluku";"Kabupaten Maluku Tengah, Maluku";"MALUKU";"";"Indonesia";"";"";"";"-3.3000615";"128.9542861";"https://maps.google.com/?cid=0x0:0xeebf7dddbe72fc5d";""
"perumahan";"Komplek perumahan";"Kios fauzan";"MXX3+XPF, Ampera, Kec. Kota Masohi, Kabupaten Maluku Tengah, Maluku";"Kabupaten Maluku Tengah, Maluku";"MALUKU";"";"Indonesia";"";"";"";"-3.3000615";"128.9542861";"https://maps.google.com/?cid=0x0:0x6fe3c50cf5a84c3b";""
"perumahan";"Pembangunan Perumahan";"Kota Masohi";"MXXF+H2P, Haruru, Kec. Amahai, Kabupaten Maluku Tengah, Maluku";"Kabupaten Maluku Tengah, Maluku";"MALUKU";"";"Indonesia";"";"";"";"-3.3010354";"128.9725721";"https://maps.google.com/?cid=0x0:0xd74a825c6e1bc2ee";""
"perumahan";"Pembangunan Perumahan";"Perumahan Subsidi THI Taman Haruru Indah Masohi";"IBU LILI, Jalan mangga No.2, Haruru, Kec. Amahai, Kabupaten Maluku Tengah, Maluku 97516";"Jalan mangga No.2, Haruru, Kec. Amahai, Kabupaten Maluku Tengah";"MALUKU";"97516";"Indonesia";"";"";"";"-3.3023359";"128.9759597";"https://maps.google.com/?cid=0x0:0xca6dfe380ba6d5f3";""
"perumahan";"Komplek perumahan";"Perumahan Taman Haruru Indah L2 26";"MXXG+392, Haruru, Kec. Amahai, Kabupaten Maluku Tengah, Maluku";"Kabupaten Maluku Tengah, Maluku";"MALUKU";"";"Indonesia";"";"";"";"-3.3023735";"128.9758972";"https://maps.google.com/?cid=0x0:0xdbe21ab0ed3e678";""
"perumahan";"perumahan";"Anto voth";"MXX3+XPF, Ampera, Kec. Kota Masohi, Kabupaten Maluku Tengah, Maluku";"Kabupaten Maluku Tengah, Maluku";"MALUKU";"";"Indonesia";"";"";"";"-3.3000615";"128.9542861";"https://maps.google.com/?cid=0x0:0xa9540dcd2b9553cc";""
"perumahan";"Komplek perumahan";"iswalbina home";"MXX3+XPF, Ampera, Kec. Kota Masohi, Kabupaten Maluku Tengah, Maluku";"Kabupaten Maluku Tengah, Maluku";"MALUKU";"";"Indonesia";"";"";"";"-3.3000615";"128.9542861";"https://maps.google.com/?cid=0x0:0x68e0ecdce83ae1d7";""
"perumahan";"Komplek perumahan";"Sabda";"MXX3+XPF, Ampera, Kec. Kota Masohi, Kabupaten Maluku Tengah, Maluku";"Kabupaten Maluku Tengah, Maluku";"MALUKU";"";"Indonesia";"";"";"";"-3.3000615";"128.9542861";"https://maps.google.com/?cid=0x0:0xbccd5df6054e0b2d";""
"perumahan";"perumahan";"Kec. Kota Masohi";"Kabupaten Maluku Tengah, Maluku";"Kabupaten Maluku Tengah, Maluku";"MALUKU";"";"Indonesia";"";"";"";"-3.3000615";"128.9542861";"https://maps.google.com/?cid=0x0:0x22d2194857d48769";""
"perumahan";"Pembangunan Perumahan";"masohi kabupaten maluku tengah";"PX48+RJ6, Haruru, Kec. Amahai, Kabupaten Maluku Tengah, Maluku";"Kabupaten Maluku Tengah, Maluku";"MALUKU";"";"Indonesia";"";"";"";"-3.292975";"128.9665165";"https://maps.google.com/?cid=0x0:0x34f0dbb4a58a4515";""
"perumahan";"Komplek perumahan";"Perumahan Guru";"MXX7+7C, Namaelo, Kec. Kota Masohi, Kabupaten Maluku Tengah, Maluku";"Kabupaten Maluku Tengah, Maluku";"MALUKU";"";"Indonesia";"";"";"";"-3.3017372";"128.9635759";"https://maps.google.com/?cid=0x0:0xc545aa35b90d9d41";""
"perumahan";"Pembangunan Perumahan";"Masohi";"PX26+C67, Lesane, Kec. Kota Masohi, Kabupaten Maluku Tengah, Maluku";"Kabupaten Maluku Tengah, Maluku";"MALUKU";"";"Indonesia";"";"";"";"-3.2989635";"128.960532";"https://maps.google.com/?cid=0x0:0x1615b493297306e7";""
"perumahan";"Komplek perumahan";"Pastori Sekla Masohi";"MWRX+V23, Jl. Jenderal Soedirman, Namaelo, Kec. Kota Masohi, Kabupaten Maluku Tengah, Maluku";"Kabupaten Maluku Tengah, Maluku";"MALUKU";"";"Indonesia";"";"";"";"-3.3078634";"128.9475514";"https://maps.google.com/?cid=0x0:0xd87ea1100d1b3b2d";""
"perumahan";"Pembangunan Perumahan";"Istanto Residence";"MXV2+4F4, Namaelo, Kec. Kota Masohi, Kabupaten Maluku Tengah, Maluku 97511";"Namaelo, Kec. Kota Masohi, Kabupaten Maluku Tengah";"MALUKU";"97511";"Indonesia";"";"";"";"-3.307226";"128.9512125";"https://maps.google.com/?cid=0x0:0x1d8bfb8370c62cda";""
"perumahan";"Komplek perumahan";"HAI GONG 2";"MXR2+H64, Namaelo, Kec. Kota Masohi, Kabupaten Maluku Tengah, Maluku";"Kabupaten Maluku Tengah, Maluku";"MALUKU";"";"Indonesia";"";"";"";"-3.3086209";"128.9505675";"https://maps.google.com/?cid=0x0:0x3a9e4444e18d7a8e";""
"perumahan";"Pembangunan Perumahan";"Rumah Sanji";"PX46+FR6, Jl. Mujair, Letwaru, Kec. Kota Masohi, Kabupaten Maluku Tengah, Maluku 97511";"Jl. Mujair, Letwaru, Kec. Kota Masohi, Kabupaten Maluku Tengah";"MALUKU";"97511";"Indonesia";" 081343303487";"";"";"-3.2938429";"128.9619962";"https://maps.google.com/?cid=0x0:0x1b0336303336f6d1";""
"perumahan";"perumahan";"Perumahan TL";"MXW6+MVG, jl. bangau, Namaelo, Kec. Kota Masohi, Kabupaten Maluku Tengah, Maluku 97511";"jl. bangau, Namaelo, Kec. Kota Masohi, Kabupaten Maluku Tengah";"MALUKU";"97511";"Indonesia";"";"";"";"-3.303321";"128.9621933";"https://maps.google.com/?cid=0x0:0xb14502640557227b";""
"perumahan";"Komplek perumahan";"Rumah saya";"PX25+8CJ, Namaelo, Kec. Kota Masohi, Kabupaten Maluku Tengah, Maluku";"Kabupaten Maluku Tengah, Maluku";"MALUKU";"";"Indonesia";"";"";"";"-3.2991516";"128.9584375";"https://maps.google.com/?cid=0x0:0xb711762cd74b16ce";""
"perumahan";"Pembangunan Perumahan";"store";"PX25+988, Jl. Manusela, Namaelo, Kec. Kota Masohi, Kabupaten Maluku Tengah, Maluku 97511";"Jl. Manusela, Namaelo, Kec. Kota Masohi, Kabupaten Maluku Tengah";"MALUKU";"97511";"Indonesia";" 081355322171";"";"";"-3.299083";"128.9582182";"https://maps.google.com/?cid=0x0:0xd008454dfc0023ee";""
"perumahan";"Perhimpunan Pengembang Perumahan";"Kilo 6";"MXX3+XPF, Ampera, Kec. Kota Masohi, Kabupaten Maluku Tengah, Maluku";"Kabupaten Maluku Tengah, Maluku";"MALUKU";"";"Indonesia";"";"";"";"-3.3000615";"128.9542861";"https://maps.google.com/?cid=0x0:0xf1e95c18eee7471f";""
"perumahan";"Pembangunan Perumahan";"Jalan Bangau";"MXW6+RRP, Namaelo, Kec. Kota Masohi, Kabupaten Maluku Tengah, Maluku 97511";"Namaelo, Kec. Kota Masohi, Kabupaten Maluku Tengah";"MALUKU";"97511";"Indonesia";"";"";"";"-3.3029049";"128.9620749";"https://maps.google.com/?cid=0x0:0x65577a3d110150fd";""
"perumahan";"perumahan";"Keluarga Fanath Tiakoly";"MXX6+J72, Namaelo, Kec. Kota Masohi, Kabupaten Maluku Tengah, Maluku";"Kabupaten Maluku Tengah, Maluku";"MALUKU";"";"Indonesia";"";"";"";"-3.3009828";"128.9606517";"https://maps.google.com/?cid=0x0:0xe3ffb4b58679d93d";""
"perumahan";"Komplek perumahan";"Perumahan Pengadilan Negeri Masohi";"MXW2+2GP, Jl. Imam Bonjol, Namaelo, Kec. Kota Masohi, Kabupaten Maluku Tengah, Maluku";"Kabupaten Maluku Tengah, Maluku";"MALUKU";"";"Indonesia";"";"";"";"-3.3049227";"128.9513245";"https://maps.google.com/?cid=0x0:0x320557ddb5a22a42";""
"perumahan";"Komplek perumahan";"DHEMESRA";"MXW5+V8M, Jl. Cengkeh, Namaelo, Kec. Kota Masohi, Kabupaten Maluku Tengah, Maluku";"Kabupaten Maluku Tengah, Maluku";"MALUKU";"";"Indonesia";"";"";"";"-3.3027829";"128.9582616";"https://maps.google.com/?cid=0x0:0xae0ed401392d7e66";""
"perumahan";"Pembangunan Perumahan";"Masohi";"PX29+F6X, Letwaru, Kec. Kota Masohi, Kabupaten Maluku Tengah, Maluku";"Kabupaten Maluku Tengah, Maluku";"MALUKU";"";"Indonesia";"";"";"";"-3.2987644";"128.9681112";"https://maps.google.com/?cid=0x0:0xe8765fe9b1097853";""
"perumahan";"Komplek perumahan";"Bengkar, Masohi";"MXR3+76F, Jl. Jenderal Soedirman, Namaelo, Kec. Kota Masohi, Kabupaten Maluku Tengah, Maluku";"Kabupaten Maluku Tengah, Maluku";"MALUKU";"";"Indonesia";" 081352275887";"";"";"-3.3093083";"128.9530604";"https://maps.google.com/?cid=0x0:0x94eb5b6ea854f3d0";""
"perumahan";"perumahan";"Namaelo, Kec. Kota Masohi, Kabupaten Maluku Tengah, Maluku";"MXR3+GGF, Namaelo, Kec. Kota Masohi, Kabupaten Maluku Tengah, Maluku";"Kabupaten Maluku Tengah, Maluku";"MALUKU";"";"Indonesia";"";"";"";"-3.3086867";"128.9537919";"https://maps.google.com/?cid=0x0:0x5bab814cc41bf060";""
"perumahan";"Pembangunan Perumahan";"Kota Masohi";"MXXF+H2P, Haruru, Kec. Amahai, Kabupaten Maluku Tengah, Maluku";"Kabupaten Maluku Tengah, Maluku";"MALUKU";"";"Indonesia";"";"";"";"-3.3010354";"128.9725721";"https://maps.google.com/?cid=0x0:0xd74a825c6e1bc2ee";""
"perumahan";"Komplek perumahan";"Praktek dr. Jeni";"MXV2+G37, Jl. Imam Bonjol, Namaelo, Kec. Kota Masohi, Kabupaten Maluku Tengah, Maluku 97511";"Jl. Imam Bonjol, Namaelo, Kec. Kota Masohi, Kabupaten Maluku Tengah";"MALUKU";"97511";"Indonesia";"";"";"";"-3.3062239";"128.9501766";"https://maps.google.com/?cid=0x0:0xf25db545449d74c";""
"perumahan";"Kantor Perusahaan";"Perumahan Telkom";"MXW6+RH3, Namaelo, Kec. Kota Masohi, Kabupaten Maluku Tengah, Maluku";"Kabupaten Maluku Tengah, Maluku";"MALUKU";"";"Indonesia";"";"";"";"-3.3029483";"128.9613283";"https://maps.google.com/?cid=0x0:0x58cd1bc253fb37e5";""
"perumahan";"Komplek perumahan";"Rumah Dinas 1 KPPN Masohi";"MXW8+MF5, Jl Kali Durian, Namaelo, Kec. Kota Masohi, Kabupaten Maluku Tengah, Maluku 97511";"Jl Kali Durian, Namaelo, Kec. Kota Masohi, Kabupaten Maluku Tengah";"MALUKU";"97511";"Indonesia";"";"";"";"-3.3033673";"128.966235";"https://maps.google.com/?cid=0x0:0x8c751513a724d57";""
"perumahan";"Komplek perumahan";"Rumah om om";"MXW4+96H, Namaelo, Kec. Kota Masohi, Kabupaten Maluku Tengah, Maluku";"Kabupaten Maluku Tengah, Maluku";"MALUKU";"";"Indonesia";"";"";"";"-3.3038433";"128.9556725";"https://maps.google.com/?cid=0x0:0x12e28c0def904dfc";""
"perumahan";"Komplek perumahan";"Rumah im";"PX27+3XP, Namaelo, Kec. Kota Masohi, Kabupaten Maluku Tengah, Maluku";"Kabupaten Maluku Tengah, Maluku";"MALUKU";"";"Indonesia";"";"";"";"-3.2997753";"128.9649616";"https://maps.google.com/?cid=0x0:0x18b48001c208bbbc";""
"perumahan";"Komplek perumahan";"Tamaela home_sWeet home";"Jl. Manusela No.97512, Namasina, Kec. Kota Masohi, Kabupaten Maluku Tengah, Maluku";"Kabupaten Maluku Tengah, Maluku";"MALUKU";"";"Indonesia";"";"";"";"-3.3097364";"128.9473394";"https://maps.google.com/?cid=0x0:0x862f0edffea6af8c";""
"perumahan";"Komplek perumahan";"Eka";"MXX6+QP6, Namaelo, Kec. Kota Masohi, Kabupaten Maluku Tengah, Maluku 97511";"Namaelo, Kec. Kota Masohi, Kabupaten Maluku Tengah";"MALUKU";"97511";"Indonesia";"";"";"";"-3.3005755";"128.9617812";"https://maps.google.com/?cid=0x0:0x5a2f759117abf1bf";""
"perumahan";"perumahan";"Kec. Kota Masohi";"Kabupaten Maluku Tengah, Maluku";"Kabupaten Maluku Tengah, Maluku";"MALUKU";"";"Indonesia";"";"";"";"-3.3000615";"128.9542861";"https://maps.google.com/?cid=0x0:0x22d2194857d48769";""
"perumahan";"Komplek perumahan";"Perumahan Guru";"MXX7+7C, Namaelo, Kec. Kota Masohi, Kabupaten Maluku Tengah, Maluku";"Kabupaten Maluku Tengah, Maluku";"MALUKU";"";"Indonesia";"";"";"";"-3.3017372";"128.9635759";"https://maps.google.com/?cid=0x0:0xc545aa35b90d9d41";""
"perumahan";"Komplek perumahan";"ARCHIBALD HOME";"MXV5+376, Namaelo, Kec. Kota Masohi, Kabupaten Maluku Tengah, Maluku 97511";"Namaelo, Kec. Kota Masohi, Kabupaten Maluku Tengah";"MALUKU";"97511";"Indonesia";"";"";"";"-3.308397";"128.957884";"https://maps.google.com/?cid=0x0:0x3fc373e0e82a67";""
"perumahan";"Pembangunan Perumahan";"masohi kabupaten maluku tengah";"PX48+RJ6, Haruru, Kec. Amahai, Kabupaten Maluku Tengah, Maluku";"Kabupaten Maluku Tengah, Maluku";"MALUKU";"";"Indonesia";"";"";"";"-3.292975";"128.9665165";"https://maps.google.com/?cid=0x0:0x34f0dbb4a58a4515";""
"perumahan";"Pembangunan Perumahan";"Jalan Bangau";"MXW6+RRP, Namaelo, Kec. Kota Masohi, Kabupaten Maluku Tengah, Maluku 97511";"Namaelo, Kec. Kota Masohi, Kabupaten Maluku Tengah";"MALUKU";"97511";"Indonesia";"";"";"";"-3.3029049";"128.9620749";"https://maps.google.com/?cid=0x0:0x65577a3d110150fd";""
"perumahan";"perumahan";"Perumahan TL";"MXW6+MVG, jl. bangau, Namaelo, Kec. Kota Masohi, Kabupaten Maluku Tengah, Maluku 97511";"jl. bangau, Namaelo, Kec. Kota Masohi, Kabupaten Maluku Tengah";"MALUKU";"97511";"Indonesia";"";"";"";"-3.303321";"128.9621933";"https://maps.google.com/?cid=0x0:0xb14502640557227b";""
"perumahan";"Pembangunan Perumahan";"Masohi";"PX26+C67, Lesane, Kec. Kota Masohi, Kabupaten Maluku Tengah, Maluku";"Kabupaten Maluku Tengah, Maluku";"MALUKU";"";"Indonesia";"";"";"";"-3.2989635";"128.960532";"https://maps.google.com/?cid=0x0:0x1615b493297306e7";""
"perumahan";"Komplek perumahan";"Pastori Sekla Masohi";"MWRX+V23, Jl. Jenderal Soedirman, Namaelo, Kec. Kota Masohi, Kabupaten Maluku Tengah, Maluku";"Kabupaten Maluku Tengah, Maluku";"MALUKU";"";"Indonesia";"";"";"";"-3.3078634";"128.9475514";"https://maps.google.com/?cid=0x0:0xd87ea1100d1b3b2d";""
"perumahan";"Pembangunan Perumahan";"store";"PX25+988, Jl. Manusela, Namaelo, Kec. Kota Masohi, Kabupaten Maluku Tengah, Maluku 97511";"Jl. Manusela, Namaelo, Kec. Kota Masohi, Kabupaten Maluku Tengah";"MALUKU";"97511";"Indonesia";" 081355322171";"";"";"-3.299083";"128.9582182";"https://maps.google.com/?cid=0x0:0xd008454dfc0023ee";""
"perumahan";"Komplek perumahan";"Rumah saya";"PX25+8CJ, Namaelo, Kec. Kota Masohi, Kabupaten Maluku Tengah, Maluku";"Kabupaten Maluku Tengah, Maluku";"MALUKU";"";"Indonesia";"";"";"";"-3.2991516";"128.9584375";"https://maps.google.com/?cid=0x0:0xb711762cd74b16ce";""
"perumahan";"perumahan";"Keluarga Fanath Tiakoly";"MXX6+J72, Namaelo, Kec. Kota Masohi, Kabupaten Maluku Tengah, Maluku";"Kabupaten Maluku Tengah, Maluku";"MALUKU";"";"Indonesia";"";"";"";"-3.3009828";"128.9606517";"https://maps.google.com/?cid=0x0:0xe3ffb4b58679d93d";""
"perumahan";"perumahan";"Namaelo, Kec. Kota Masohi, Kabupaten Maluku Tengah, Maluku";"MXR3+GGF, Namaelo, Kec. Kota Masohi, Kabupaten Maluku Tengah, Maluku";"Kabupaten Maluku Tengah, Maluku";"MALUKU";"";"Indonesia";"";"";"";"-3.3086867";"128.9537919";"https://maps.google.com/?cid=0x0:0x5bab814cc41bf060";""
"perumahan";"Pembangunan Perumahan";"PT. MASOHI INDAH PERMAI";"Perumahan Taman Hururu Indah (THI) Masohi Air Pepaya Haruru Amahai, Namaelo, Kec. Kota Masohi, Ambon, Maluku 97513";"Namaelo, Kec. Kota Masohi, Ambon";"MALUKU";"97513";"Indonesia";" 0911312745";"";"";"-3.3060598";"128.9615888";"https://maps.google.com/?cid=0x0:0xf86b60448f223840";""
"perumahan";"Pembangunan Perumahan";"Samsul Bahri";"MXX6+8V3, Namaelo, Kec. Kota Masohi, Kabupaten Maluku Tengah, Maluku 97511";"Namaelo, Kec. Kota Masohi, Kabupaten Maluku Tengah";"MALUKU";"97511";"Indonesia";"";"";"";"-3.30173";"128.9621636";"https://maps.google.com/?cid=0x0:0x2db07449d2581123";""
"perumahan";"Komplek perumahan";"Perumahan Pengadilan Negeri Masohi";"MXW2+2GP, Jl. Imam Bonjol, Namaelo, Kec. Kota Masohi, Kabupaten Maluku Tengah, Maluku";"Kabupaten Maluku Tengah, Maluku";"MALUKU";"";"Indonesia";"";"";"";"-3.3049227";"128.9513245";"https://maps.google.com/?cid=0x0:0x320557ddb5a22a42";""
"perumahan";"Komplek perumahan";"Bengkar, Masohi";"MXR3+76F, Jl. Jenderal Soedirman, Namaelo, Kec. Kota Masohi, Kabupaten Maluku Tengah, Maluku";"Kabupaten Maluku Tengah, Maluku";"MALUKU";"";"Indonesia";" 081352275887";"";"";"-3.3093083";"128.9530604";"https://maps.google.com/?cid=0x0:0x94eb5b6ea854f3d0";""
"perumahan";"Pembangunan Perumahan";"Kota MASOHI";"PX47+JQP, Jl. Propinsi, Letwaru, Kec. Kota Masohi, Kabupaten Maluku Tengah, Maluku 97511";"Jl. Propinsi, Letwaru, Kec. Kota Masohi, Kabupaten Maluku Tengah";"MALUKU";"97511";"Indonesia";"";"";"";"-3.2934148";"128.9644588";"https://maps.google.com/?cid=0x0:0x8a64d1245adeedd9";""
"perumahan";"Pembangunan Perumahan";"Masohi";"PX29+F6X, Letwaru, Kec. Kota Masohi, Kabupaten Maluku Tengah, Maluku";"Kabupaten Maluku Tengah, Maluku";"MALUKU";"";"Indonesia";"";"";"";"-3.2987644";"128.9681112";"https://maps.google.com/?cid=0x0:0xe8765fe9b1097853";""
"perumahan";"perumahan";"Perumahan Toko Liang";"MXW6+QX2, Namaelo, Kec. Kota Masohi, Kabupaten Maluku Tengah, Maluku";"Kabupaten Maluku Tengah, Maluku";"MALUKU";"";"Indonesia";"";"";"";"-3.3032733";"128.9623591";"https://maps.google.com/?cid=0x0:0x83943295a1ab27bc";""
"perumahan";"Pembangunan Perumahan";"PT. MASOHI INDAH PERMAI";"Jl. Abdullah Solissa No.208, Ampera, Kec. Kota Masohi, Ambon, Maluku 97513";"Ampera, Kec. Kota Masohi, Ambon";"MALUKU";"97513";"Indonesia";" 0911312745";"";"";"-3.3039962";"128.9505079";"https://maps.google.com/?cid=0x0:0xba502938ee758d4a";""
"perumahan";"Kantor Perusahaan";"Perumahan Telkom";"MXW6+RH3, Namaelo, Kec. Kota Masohi, Kabupaten Maluku Tengah, Maluku";"Kabupaten Maluku Tengah, Maluku";"MALUKU";"";"Indonesia";"";"";"";"-3.3029483";"128.9613283";"https://maps.google.com/?cid=0x0:0x58cd1bc253fb37e5";""
"perumahan";"Komplek perumahan";"Rumah im";"PX27+3XP, Namaelo, Kec. Kota Masohi, Kabupaten Maluku Tengah, Maluku";"Kabupaten Maluku Tengah, Maluku";"MALUKU";"";"Indonesia";"";"";"";"-3.2997753";"128.9649616";"https://maps.google.com/?cid=0x0:0x18b48001c208bbbc";""
"perumahan";"Komplek perumahan";"DHEMESRA";"MXW5+V8M, Jl. Cengkeh, Namaelo, Kec. Kota Masohi, Kabupaten Maluku Tengah, Maluku";"Kabupaten Maluku Tengah, Maluku";"MALUKU";"";"Indonesia";"";"";"";"-3.3027829";"128.9582616";"https://maps.google.com/?cid=0x0:0xae0ed401392d7e66";""
"perumahan";"Pembangunan Perumahan";"Istanto Residence";"MXV2+4F4, Namaelo, Kec. Kota Masohi, Kabupaten Maluku Tengah, Maluku 97511";"Namaelo, Kec. Kota Masohi, Kabupaten Maluku Tengah";"MALUKU";"97511";"Indonesia";"";"";"";"-3.307226";"128.9512125";"https://maps.google.com/?cid=0x0:0x1d8bfb8370c62cda";""
"perumahan";"Pembangunan Perumahan";"Kota Masohi";"MXXF+H2P, Haruru, Kec. Amahai, Kabupaten Maluku Tengah, Maluku";"Kabupaten Maluku Tengah, Maluku";"MALUKU";"";"Indonesia";"";"";"";"-3.3010354";"128.9725721";"https://maps.google.com/?cid=0x0:0xd74a825c6e1bc2ee";""
"perumahan";"perumahan";"Kec. Kota Masohi";"Kabupaten Maluku Tengah, Maluku";"Kabupaten Maluku Tengah, Maluku";"MALUKU";"";"Indonesia";"";"";"";"-3.3000615";"128.9542861";"https://maps.google.com/?cid=0x0:0x22d2194857d48769";""
"perumahan";"Komplek perumahan";"Perumahan Guru";"MXX7+7C, Namaelo, Kec. Kota Masohi, Kabupaten Maluku Tengah, Maluku";"Kabupaten Maluku Tengah, Maluku";"MALUKU";"";"Indonesia";"";"";"";"-3.3017372";"128.9635759";"https://maps.google.com/?cid=0x0:0xc545aa35b90d9d41";""
"perumahan";"Pembangunan Perumahan";"masohi kabupaten maluku tengah";"PX48+RJ6, Haruru, Kec. Amahai, Kabupaten Maluku Tengah, Maluku";"Kabupaten Maluku Tengah, Maluku";"MALUKU";"";"Indonesia";"";"";"";"-3.292975";"128.9665165";"https://maps.google.com/?cid=0x0:0x34f0dbb4a58a4515";""
"perumahan";"perumahan";"Keluarga Fanath Tiakoly";"MXX6+J72, Namaelo, Kec. Kota Masohi, Kabupaten Maluku Tengah, Maluku";"Kabupaten Maluku Tengah, Maluku";"MALUKU";"";"Indonesia";"";"";"";"-3.3009828";"128.9606517";"https://maps.google.com/?cid=0x0:0xe3ffb4b58679d93d";""
"perumahan";"perumahan";"Perumahan TL";"MXW6+MVG, jl. bangau, Namaelo, Kec. Kota Masohi, Kabupaten Maluku Tengah, Maluku 97511";"jl. bangau, Namaelo, Kec. Kota Masohi, Kabupaten Maluku Tengah";"MALUKU";"97511";"Indonesia";"";"";"";"-3.303321";"128.9621933";"https://maps.google.com/?cid=0x0:0xb14502640557227b";""
"perumahan";"Komplek perumahan";"Dmakkz family";"MXX7+J7F, Namaelo, Kec. Kota Masohi, Kabupaten Maluku Tengah, Maluku";"Kabupaten Maluku Tengah, Maluku";"MALUKU";"";"Indonesia";"";"";"";"-3.3008039";"128.9636255";"https://maps.google.com/?cid=0x0:0xfdb9872c05a98a05";""
"perumahan";"Perhimpunan Pengembang Perumahan";"Kilo 6";"MXX3+XPF, Ampera, Kec. Kota Masohi, Kabupaten Maluku Tengah, Maluku";"Kabupaten Maluku Tengah, Maluku";"MALUKU";"";"Indonesia";"";"";"";"-3.3000615";"128.9542861";"https://maps.google.com/?cid=0x0:0xf1e95c18eee7471f";""
"perumahan";"Komplek perumahan";"Pastori Sekla Masohi";"MWRX+V23, Jl. Jenderal Soedirman, Namaelo, Kec. Kota Masohi, Kabupaten Maluku Tengah, Maluku";"Kabupaten Maluku Tengah, Maluku";"MALUKU";"";"Indonesia";"";"";"";"-3.3078634";"128.9475514";"https://maps.google.com/?cid=0x0:0xd87ea1100d1b3b2d";""
"perumahan";"Pembangunan Perumahan";"Rumah Sanji";"PX46+FR6, Jl. Mujair, Letwaru, Kec. Kota Masohi, Kabupaten Maluku Tengah, Maluku 97511";"Jl. Mujair, Letwaru, Kec. Kota Masohi, Kabupaten Maluku Tengah";"MALUKU";"97511";"Indonesia";" 081343303487";"";"";"-3.2938429";"128.9619962";"https://maps.google.com/?cid=0x0:0x1b0336303336f6d1";""
"perumahan";"Kantor Pemerintah";"Dinas Perhubungan Kabupaten Maluku Tengah";"MXW3+WWQ, Namaelo, Kec. Kota Masohi, Kabupaten Maluku Tengah, Maluku";"Kabupaten Maluku Tengah, Maluku";"MALUKU";"";"Indonesia";"";"";"";"-3.3026554";"128.9548738";"https://maps.google.com/?cid=0x0:0xf0e07dada03986bb";""
"perumahan";"Komplek perumahan";"Thenu Buche Home";"MWRW+RCC, Jl. Chr.M.Tiahahu, Namasina, Kec. Kota Masohi, Kabupaten Maluku Tengah, Maluku 97511";"Jl. Chr.M.Tiahahu, Namasina, Kec. Kota Masohi, Kabupaten Maluku Tengah";"MALUKU";"97511";"Indonesia";" 082198110808";"";"";"-3.3078248";"128.9456964";"https://maps.google.com/?cid=0x0:0x51af01821e12afae";""
"perumahan";"Pembangunan Perumahan";"Masohi";"PX29+F6X, Letwaru, Kec. Kota Masohi, Kabupaten Maluku Tengah, Maluku";"Kabupaten Maluku Tengah, Maluku";"MALUKU";"";"Indonesia";"";"";"";"-3.2987644";"128.9681112";"https://maps.google.com/?cid=0x0:0xe8765fe9b1097853";""
"perumahan";"Komplek perumahan";"Rumahnya Dafa Almerd Zaki";"Jl. Durian No.RT 06, Ampera, Kec. Kota Masohi, Kabupaten Maluku Tengah, Maluku";"Kabupaten Maluku Tengah, Maluku";"MALUKU";"";"Indonesia";"";"";"";"-3.2975444";"128.9558238";"https://maps.google.com/?cid=0x0:0x11e4a6aedfac17e4";""
"perumahan";"Pembangunan Perumahan";"Kota MASOHI";"PX47+JQP, Jl. Propinsi, Letwaru, Kec. Kota Masohi, Kabupaten Maluku Tengah, Maluku 97511";"Jl. Propinsi, Letwaru, Kec. Kota Masohi, Kabupaten Maluku Tengah";"MALUKU";"97511";"Indonesia";"";"";"";"-3.2934148";"128.9644588";"https://maps.google.com/?cid=0x0:0x8a64d1245adeedd9";""
"perumahan";"Pembangunan Perumahan";"Perumahan Subsidi THI Taman Haruru Indah Masohi";"IBU LILI, Jalan mangga No.2, Haruru, Kec. Amahai, Kabupaten Maluku Tengah, Maluku 97516";"Jalan mangga No.2, Haruru, Kec. Amahai, Kabupaten Maluku Tengah";"MALUKU";"97516";"Indonesia";"";"";"";"-3.3023359";"128.9759597";"https://maps.google.com/?cid=0x0:0xca6dfe380ba6d5f3";""
"perumahan";"Komplek perumahan";"Bengkar, Masohi";"MXR3+76F, Jl. Jenderal Soedirman, Namaelo, Kec. Kota Masohi, Kabupaten Maluku Tengah, Maluku";"Kabupaten Maluku Tengah, Maluku";"MALUKU";"";"Indonesia";" 081352275887";"";"";"-3.3093083";"128.9530604";"https://maps.google.com/?cid=0x0:0x94eb5b6ea854f3d0";""
"perumahan";"Pembangunan Perumahan";"VILLA MUTIARA MASOHI";"Jl. Lintas Seram, Kampung Baru, Haruru, Kec. Kota Masohi, Kabupaten Maluku Tengah, Maluku";"Kabupaten Maluku Tengah, Maluku";"MALUKU";"";"Indonesia";" 081271263277";"";"";"-3.2761412";"128.9831892";"https://maps.google.com/?cid=0x0:0xd851566b195916ee";""
"perumahan";"perumahan";"Perumahan Toko Liang";"MXW6+QX2, Namaelo, Kec. Kota Masohi, Kabupaten Maluku Tengah, Maluku";"Kabupaten Maluku Tengah, Maluku";"MALUKU";"";"Indonesia";"";"";"";"-3.3032733";"128.9623591";"https://maps.google.com/?cid=0x0:0x83943295a1ab27bc";""
"perumahan";"Pembangunan Perumahan";"Masohi";"PX26+C67, Lesane, Kec. Kota Masohi, Kabupaten Maluku Tengah, Maluku";"Kabupaten Maluku Tengah, Maluku";"MALUKU";"";"Indonesia";"";"";"";"-3.2989635";"128.960532";"https://maps.google.com/?cid=0x0:0x1615b493297306e7";""
"perumahan";"Komplek perumahan";"Keluarga Ermansyah";"MXX6+G6J, Namaelo, Kec. Kota Masohi, Kabupaten Maluku Tengah, Maluku";"Kabupaten Maluku Tengah, Maluku";"MALUKU";"";"Indonesia";"";"";"";"-3.3011161";"128.9603211";"https://maps.google.com/?cid=0x0:0x34e84d54b6056483";""
"perumahan";"Kantor Perusahaan";"Perumahan Telkom";"MXW6+RH3, Namaelo, Kec. Kota Masohi, Kabupaten Maluku Tengah, Maluku";"Kabupaten Maluku Tengah, Maluku";"MALUKU";"";"Indonesia";"";"";"";"-3.3029483";"128.9613283";"https://maps.google.com/?cid=0x0:0x58cd1bc253fb37e5";""
"perumahan";"Komplek perumahan";"Rumah Dinas 1 KPPN Masohi";"MXW8+MF5, Jl Kali Durian, Namaelo, Kec. Kota Masohi, Kabupaten Maluku Tengah, Maluku 97511";"Jl Kali Durian, Namaelo, Kec. Kota Masohi, Kabupaten Maluku Tengah";"MALUKU";"97511";"Indonesia";"";"";"";"-3.3033673";"128.966235";"https://maps.google.com/?cid=0x0:0x8c751513a724d57";""
"perumahan";"Pembangunan Perumahan";"Istanto Residence";"MXV2+4F4, Namaelo, Kec. Kota Masohi, Kabupaten Maluku Tengah, Maluku 97511";"Namaelo, Kec. Kota Masohi, Kabupaten Maluku Tengah";"MALUKU";"97511";"Indonesia";"";"";"";"-3.307226";"128.9512125";"https://maps.google.com/?cid=0x0:0x1d8bfb8370c62cda";""
"perumahan";"Komplek perumahan";"Rumah im";"PX27+3XP, Namaelo, Kec. Kota Masohi, Kabupaten Maluku Tengah, Maluku";"Kabupaten Maluku Tengah, Maluku";"MALUKU";"";"Indonesia";"";"";"";"-3.2997753";"128.9649616";"https://maps.google.com/?cid=0x0:0x18b48001c208bbbc";""
"perumahan";"Pembangunan Perumahan";"Keluarga Wadidi Huath";"MXV6+HJG, RT.014, Namaelo, Kec. Kota Masohi, Kabupaten Maluku Tengah, Maluku";"Kabupaten Maluku Tengah, Maluku";"MALUKU";"";"Indonesia";"";"";"";"-3.3060598";"128.9615888";"https://maps.google.com/?cid=0x0:0x94265a0ed11ecf70";""
"perumahan";"Komplek perumahan";"Eka";"MXX6+QP6, Namaelo, Kec. Kota Masohi, Kabupaten Maluku Tengah, Maluku 97511";"Namaelo, Kec. Kota Masohi, Kabupaten Maluku Tengah";"MALUKU";"97511";"Indonesia";"";"";"";"-3.3005755";"128.9617812";"https://maps.google.com/?cid=0x0:0x5a2f759117abf1bf";""
"perumahan";"perumahan";"Kec. Kota Masohi";"Kabupaten Maluku Tengah, Maluku";"Kabupaten Maluku Tengah, Maluku";"MALUKU";"";"Indonesia";"";"";"";"-3.3000615";"128.9542861";"https://maps.google.com/?cid=0x0:0x22d2194857d48769";""
"perumahan";"Komplek perumahan";"Perumahan Guru";"MXX7+7C, Namaelo, Kec. Kota Masohi, Kabupaten Maluku Tengah, Maluku";"Kabupaten Maluku Tengah, Maluku";"MALUKU";"";"Indonesia";"";"";"";"-3.3017372";"128.9635759";"https://maps.google.com/?cid=0x0:0xc545aa35b90d9d41";""
"perumahan";"Pembangunan Perumahan";"masohi kabupaten maluku tengah";"PX48+RJ6, Haruru, Kec. Amahai, Kabupaten Maluku Tengah, Maluku";"Kabupaten Maluku Tengah, Maluku";"MALUKU";"";"Indonesia";"";"";"";"-3.292975";"128.9665165";"https://maps.google.com/?cid=0x0:0x34f0dbb4a58a4515";""
"perumahan";"Pembangunan Perumahan";"store";"PX25+988, Jl. Manusela, Namaelo, Kec. Kota Masohi, Kabupaten Maluku Tengah, Maluku 97511";"Jl. Manusela, Namaelo, Kec. Kota Masohi, Kabupaten Maluku Tengah";"MALUKU";"97511";"Indonesia";" 081355322171";"";"";"-3.299083";"128.9582182";"https://maps.google.com/?cid=0x0:0xd008454dfc0023ee";""
"perumahan";"Komplek perumahan";"Pastori Sekla Masohi";"MWRX+V23, Jl. Jenderal Soedirman, Namaelo, Kec. Kota Masohi, Kabupaten Maluku Tengah, Maluku";"Kabupaten Maluku Tengah, Maluku";"MALUKU";"";"Indonesia";"";"";"";"-3.3078634";"128.9475514";"https://maps.google.com/?cid=0x0:0xd87ea1100d1b3b2d";""
"perumahan";"Komplek perumahan";"DHEMESRA";"MXW5+V8M, Jl. Cengkeh, Namaelo, Kec. Kota Masohi, Kabupaten Maluku Tengah, Maluku";"Kabupaten Maluku Tengah, Maluku";"MALUKU";"";"Indonesia";"";"";"";"-3.3027829";"128.9582616";"https://maps.google.com/?cid=0x0:0xae0ed401392d7e66";""
"perumahan";"Pembangunan Perumahan";"Masohi";"PX26+C67, Lesane, Kec. Kota Masohi, Kabupaten Maluku Tengah, Maluku";"Kabupaten Maluku Tengah, Maluku";"MALUKU";"";"Indonesia";"";"";"";"-3.2989635";"128.960532";"https://maps.google.com/?cid=0x0:0x1615b493297306e7";""
"perumahan";"perumahan";"Perumahan TL";"MXW6+MVG, jl. bangau, Namaelo, Kec. Kota Masohi, Kabupaten Maluku Tengah, Maluku 97511";"jl. bangau, Namaelo, Kec. Kota Masohi, Kabupaten Maluku Tengah";"MALUKU";"97511";"Indonesia";"";"";"";"-3.303321";"128.9621933";"https://maps.google.com/?cid=0x0:0xb14502640557227b";""
"perumahan";"Perhimpunan Pengembang Perumahan";"Kilo 6";"MXX3+XPF, Ampera, Kec. Kota Masohi, Kabupaten Maluku Tengah, Maluku";"Kabupaten Maluku Tengah, Maluku";"MALUKU";"";"Indonesia";"";"";"";"-3.3000615";"128.9542861";"https://maps.google.com/?cid=0x0:0xf1e95c18eee7471f";""
"perumahan";"Komplek perumahan";"Perumahan Pengadilan Negeri Masohi";"MXW2+2GP, Jl. Imam Bonjol, Namaelo, Kec. Kota Masohi, Kabupaten Maluku Tengah, Maluku";"Kabupaten Maluku Tengah, Maluku";"MALUKU";"";"Indonesia";"";"";"";"-3.3049227";"128.9513245";"https://maps.google.com/?cid=0x0:0x320557ddb5a22a42";""
"perumahan";"perumahan";"Keluarga Fanath Tiakoly";"MXX6+J72, Namaelo, Kec. Kota Masohi, Kabupaten Maluku Tengah, Maluku";"Kabupaten Maluku Tengah, Maluku";"MALUKU";"";"Indonesia";"";"";"";"-3.3009828";"128.9606517";"https://maps.google.com/?cid=0x0:0xe3ffb4b58679d93d";""
"perumahan";"Komplek perumahan";"Bengkar, Masohi";"MXR3+76F, Jl. Jenderal Soedirman, Namaelo, Kec. Kota Masohi, Kabupaten Maluku Tengah, Maluku";"Kabupaten Maluku Tengah, Maluku";"MALUKU";"";"Indonesia";" 081352275887";"";"";"-3.3093083";"128.9530604";"https://maps.google.com/?cid=0x0:0x94eb5b6ea854f3d0";""
"perumahan";"Pembangunan Perumahan";"Rumah Sanji";"PX46+FR6, Jl. Mujair, Letwaru, Kec. Kota Masohi, Kabupaten Maluku Tengah, Maluku 97511";"Jl. Mujair, Letwaru, Kec. Kota Masohi, Kabupaten Maluku Tengah";"MALUKU";"97511";"Indonesia";" 081343303487";"";"";"-3.2938429";"128.9619962";"https://maps.google.com/?cid=0x0:0x1b0336303336f6d1";""
"perumahan";"Pembangunan Perumahan";"Jalan Bangau";"MXW6+RRP, Namaelo, Kec. Kota Masohi, Kabupaten Maluku Tengah, Maluku 97511";"Namaelo, Kec. Kota Masohi, Kabupaten Maluku Tengah";"MALUKU";"97511";"Indonesia";"";"";"";"-3.3029049";"128.9620749";"https://maps.google.com/?cid=0x0:0x65577a3d110150fd";""
"perumahan";"Komplek perumahan";"Rumah saya";"PX25+8CJ, Namaelo, Kec. Kota Masohi, Kabupaten Maluku Tengah, Maluku";"Kabupaten Maluku Tengah, Maluku";"MALUKU";"";"Indonesia";"";"";"";"-3.2991516";"128.9584375";"https://maps.google.com/?cid=0x0:0xb711762cd74b16ce";""
"perumahan";"Komplek perumahan";"Rumah om om";"MXW4+96H, Namaelo, Kec. Kota Masohi, Kabupaten Maluku Tengah, Maluku";"Kabupaten Maluku Tengah, Maluku";"MALUKU";"";"Indonesia";"";"";"";"-3.3038433";"128.9556725";"https://maps.google.com/?cid=0x0:0x12e28c0def904dfc";""
"perumahan";"Pembangunan Perumahan";"Masohi";"PX29+F6X, Letwaru, Kec. Kota Masohi, Kabupaten Maluku Tengah, Maluku";"Kabupaten Maluku Tengah, Maluku";"MALUKU";"";"Indonesia";"";"";"";"-3.2987644";"128.9681112";"https://maps.google.com/?cid=0x0:0xe8765fe9b1097853";""
"perumahan";"perumahan";"Namaelo, Kec. Kota Masohi, Kabupaten Maluku Tengah, Maluku";"MXR3+GGF, Namaelo, Kec. Kota Masohi, Kabupaten Maluku Tengah, Maluku";"Kabupaten Maluku Tengah, Maluku";"MALUKU";"";"Indonesia";"";"";"";"-3.3086867";"128.9537919";"https://maps.google.com/?cid=0x0:0x5bab814cc41bf060";""
"perumahan";"Komplek perumahan";"GABOSAN";"PX34+CGW, Ampera, Kec. Kota Masohi, Kabupaten Maluku Tengah, Maluku";"Kabupaten Maluku Tengah, Maluku";"MALUKU";"";"Indonesia";"";"";"";"-3.2963892";"128.956325";"https://maps.google.com/?cid=0x0:0xf0ce5f877d0411e8";""
"perumahan";"Komplek perumahan";"Gedung serba guna Polres Maluku Tengah Bhayangkara";"MXR3+PV4, Jl. Pulau Seram, Namaelo, Kec. Kota Masohi, Kabupaten Maluku Tengah, Maluku";"Kabupaten Maluku Tengah, Maluku";"MALUKU";"";"Indonesia";"";"";"";"-3.3082305";"128.9547123";"https://maps.google.com/?cid=0x0:0xbceed89330cf1c01";""
"perumahan";"Pembangunan Perumahan";"Kota Masohi";"MXXF+H2P, Haruru, Kec. Amahai, Kabupaten Maluku Tengah, Maluku";"Kabupaten Maluku Tengah, Maluku";"MALUKU";"";"Indonesia";"";"";"";"-3.3010354";"128.9725721";"https://maps.google.com/?cid=0x0:0xd74a825c6e1bc2ee";""
"perumahan";"Kantor Perusahaan";"Perumahan Telkom";"MXW6+RH3, Namaelo, Kec. Kota Masohi, Kabupaten Maluku Tengah, Maluku";"Kabupaten Maluku Tengah, Maluku";"MALUKU";"";"Indonesia";"";"";"";"-3.3029483";"128.9613283";"https://maps.google.com/?cid=0x0:0x58cd1bc253fb37e5";""
"perumahan";"Komplek perumahan";"Rumah Dinas 1 KPPN Masohi";"MXW8+MF5, Jl Kali Durian, Namaelo, Kec. Kota Masohi, Kabupaten Maluku Tengah, Maluku 97511";"Jl Kali Durian, Namaelo, Kec. Kota Masohi, Kabupaten Maluku Tengah";"MALUKU";"97511";"Indonesia";"";"";"";"-3.3033673";"128.966235";"https://maps.google.com/?cid=0x0:0x8c751513a724d57";""
"perumahan";"Komplek perumahan";"Rumah im";"PX27+3XP, Namaelo, Kec. Kota Masohi, Kabupaten Maluku Tengah, Maluku";"Kabupaten Maluku Tengah, Maluku";"MALUKU";"";"Indonesia";"";"";"";"-3.2997753";"128.9649616";"https://maps.google.com/?cid=0x0:0x18b48001c208bbbc";""
"perumahan";"Pembangunan Perumahan";"Istanto Residence";"MXV2+4F4, Namaelo, Kec. Kota Masohi, Kabupaten Maluku Tengah, Maluku 97511";"Namaelo, Kec. Kota Masohi, Kabupaten Maluku Tengah";"MALUKU";"97511";"Indonesia";"";"";"";"-3.307226";"128.9512125";"https://maps.google.com/?cid=0x0:0x1d8bfb8370c62cda";""
"perumahan";"Pembangunan Perumahan";"VILLA MUTIARA MASOHI";"Jl. Lintas Seram, Kampung Baru, Haruru, Kec. Kota Masohi, Kabupaten Maluku Tengah, Maluku";"Kabupaten Maluku Tengah, Maluku";"MALUKU";"";"Indonesia";" 081271263277";"";"";"-3.2761412";"128.9831892";"https://maps.google.com/?cid=0x0:0xd851566b195916ee";""
"perumahan";"Pembangunan Perumahan";"Kota MASOHI";"PX47+JQP, Jl. Propinsi, Letwaru, Kec. Kota Masohi, Kabupaten Maluku Tengah, Maluku 97511";"Jl. Propinsi, Letwaru, Kec. Kota Masohi, Kabupaten Maluku Tengah";"MALUKU";"97511";"Indonesia";"";"";"";"-3.2934148";"128.9644588";"https://maps.google.com/?cid=0x0:0x8a64d1245adeedd9";""
"perumahan";"perumahan";"Kec. Seram Utara Bar.";"Kabupaten Maluku Tengah, Maluku";"Kabupaten Maluku Tengah, Maluku";"MALUKU";"";"Indonesia";"";"";"";"-2.8382969";"128.9688712";"https://maps.google.com/?cid=0x0:0x2813ca898f5d1a3b";""
"perumahan";"Komplek perumahan";"Latea,kec.seram utara";"3XC8+QP7, Latea, Kec. Seram Utara Bar., Kabupaten Maluku Tengah, Maluku";"Kabupaten Maluku Tengah, Maluku";"MALUKU";"";"Indonesia";"";"";"";"-2.9280786";"128.9668067";"https://maps.google.com/?cid=0x0:0xe86bb58b20118789";""
"perumahan";"Komplek perumahan";"Kediaman MW";"24V8+8FX, Saleman, Kec. Seram Utara Bar., Kabupaten Maluku Tengah, Maluku";"Kabupaten Maluku Tengah, Maluku";"MALUKU";"";"Indonesia";"";"";"";"-2.956309";"129.1161162";"https://maps.google.com/?cid=0x0:0x22cf160f12eff076";""
"perumahan";"Komplek perumahan";"Nury tamher";"53W5+FG9, Pasanea, Kec. Seram Utara Bar., Kabupaten Maluku Tengah, Maluku";"Kabupaten Maluku Tengah, Maluku";"MALUKU";"";"Indonesia";"";"";"";"-2.803833";"129.0588733";"https://maps.google.com/?cid=0x0:0x7cd617a68014543e";""
"perumahan";"Komplek perumahan";"SOAKALUNE RUMAH TUA";"532C+XXF, Karlutukara, Kec. Seram Utara Bar., Kabupaten Maluku Tengah, Maluku";"Kabupaten Maluku Tengah, Maluku";"MALUKU";"";"Indonesia";"";"";"";"-2.8475489";"129.0724539";"https://maps.google.com/?cid=0x0:0x11f4835b28451084";""
"perumahan";"Komplek perumahan";"GAM House";"356J+3PG, Sawai, Kec. Seram Utara, Kabupaten Maluku Tengah, Maluku";"Kabupaten Maluku Tengah, Maluku";"MALUKU";"";"Indonesia";"";"";"";"-2.9398185";"129.181826";"https://maps.google.com/?cid=0x0:0x331ccbf1d2ab5e4b";""
"perumahan";"Komplek perumahan";"komplex perumahan kel Rumamelete";"532C+XXF, Karlutukara, Kec. Seram Utara Bar., Kabupaten Maluku Tengah, Maluku";"Kabupaten Maluku Tengah, Maluku";"MALUKU";"";"Indonesia";"";"";"";"-2.8475625";"129.0724219";"https://maps.google.com/?cid=0x0:0xaf7d2bbce2b81ca8";""
"perumahan";"perumahan";"Jack_towara home";"43VG+GQ2, Paa, Kec. Seram Utara Bar., Kabupaten Maluku Tengah, Maluku";"Kabupaten Maluku Tengah, Maluku";"MALUKU";"";"Indonesia";"";"";"";"-2.8562258";"129.0769036";"https://maps.google.com/?cid=0x0:0xc7a867d60dbf1bbb";""
"perumahan";"Komplek perumahan";"Dusun sapola";"5X69+F8V, Latea, Kec. Seram Utara Bar., Kabupaten Maluku Tengah, Maluku";"Kabupaten Maluku Tengah, Maluku";"MALUKU";"";"Indonesia";"";"";"";"-2.8387557";"128.968293";"https://maps.google.com/?cid=0x0:0x418d8f191684b2d3";""
"perumahan";"Komplek perumahan";"Pertigaan saleman";"23WF+PJ, Horale, Kec. Seram Utara Bar., Kabupaten Maluku Tengah, Maluku";"Kabupaten Maluku Tengah, Maluku";"MALUKU";"";"Indonesia";"";"";"";"-2.9531331";"129.0741081";"https://maps.google.com/?cid=0x0:0xdde5106bf4058dc0";""
"perumahan";"Pembangunan Perumahan";"Naila house";"4VVP+H96, Lisabata Tim., Kec. Seram Utara Bar., Kabupaten Maluku Tengah, Maluku";"Kabupaten Maluku Tengah, Maluku";"MALUKU";"";"Indonesia";"";"";"";"-2.855914";"128.885617";"https://maps.google.com/?cid=0x0:0x1ae211a6f552156";""
"perumahan";"Komplek perumahan";"AK TUAPUTTY";"356J+4Q4, Sawai, Kec. Seram Utara, Kabupaten Maluku Tengah, Maluku";"Kabupaten Maluku Tengah, Maluku";"MALUKU";"";"Indonesia";"";"";"";"-2.9397138";"129.1819892";"https://maps.google.com/?cid=0x0:0x51d1ccbdf4a5a437";""
"perumahan";"Komplek perumahan";"Kompleks kudus";"25RJ+HCJ, Sawai, Kec. Seram Utara, Kabupaten Maluku Tengah, Maluku";"Kabupaten Maluku Tengah, Maluku";"MALUKU";"";"Indonesia";"";"";"";"-2.9585417";"129.1810231";"https://maps.google.com/?cid=0x0:0xead835c3b81a11f2";""
"perumahan";"Asosiasi/organisasi";"Posko KKN Kebangsaan XII";"4VVP+46, Lisabata Tim., Kec. Seram Utara Bar., Kabupaten Maluku Tengah, Maluku";"Kabupaten Maluku Tengah, Maluku";"MALUKU";"";"Indonesia";"";"";"";"-2.8576369";"128.8853027";"https://maps.google.com/?cid=0x0:0x4179b83aa1036761";""
"perumahan";"Perhimpunan Pengembang Perumahan";"Ruma bapa koce palaapy";"337J+4RF, Horale, Kec. Seram Utara Bar., Kabupaten Maluku Tengah, Maluku";"Kabupaten Maluku Tengah, Maluku";"MALUKU";"";"Indonesia";"";"";"";"-2.9371848";"129.0820329";"https://maps.google.com/?cid=0x0:0x7191a380760589c2";""
"perumahan";"Komplek perumahan";"Kompleks Capur";"4VVP+G9J, Lisabata Tim., Kec. Seram Utara Bar., Kabupaten Maluku Tengah, Maluku";"Kabupaten Maluku Tengah, Maluku";"MALUKU";"";"Indonesia";" 082253248551";"";"";"-2.8561726";"128.8858818";"https://maps.google.com/?cid=0x0:0x51deac98d84623e7";""
"perumahan";"Komplek perumahan";"Pancing";"423W+42C, Wailulu, Kec. Seram Utara Bar., Kabupaten Maluku Tengah, Maluku";"Kabupaten Maluku Tengah, Maluku";"MALUKU";"";"Indonesia";"";"";"";"-2.8971926";"129.0450242";"https://maps.google.com/?cid=0x0:0x66acafb557c1c783";""
"perumahan";"Komplek perumahan";"PANGKAYA HOME";"532C+XXF, Karlutukara, Kec. Seram Utara Bar., Kabupaten Maluku Tengah, Maluku";"Kabupaten Maluku Tengah, Maluku";"MALUKU";"";"Indonesia";"";"";"";"-2.8475369";"129.0724224";"https://maps.google.com/?cid=0x0:0x1fedcc1925171300";""
"perumahan";"Komplek perumahan";"Negeri Rumahwey";"4RMW+3PC, Jl. Trans Seram Barat, Rumahwey, Kec. Seram Utara Bar., Kabupaten Maluku Tengah, Maluku";"Kabupaten Maluku Tengah, Maluku";"MALUKU";"";"Indonesia";"";"";"";"-2.8673153";"128.8467768";"https://maps.google.com/?cid=0x0:0x677e6e27ba722f67";""
"perumahan";"Pembangunan Perumahan";"Rumah syira";"423W+42C, Negeri, Wailulu, Kec. Seram Utara Bar., Kabupaten Maluku Tengah, Maluku";"Kabupaten Maluku Tengah, Maluku";"MALUKU";"";"Indonesia";"";"";"";"-2.8971926";"129.0450242";"https://maps.google.com/?cid=0x0:0x13ad579f3eddb9c4";""
"perumahan";"Komplek perumahan";"Rumah "QAMSA";"24V7+W3W, Saleman, Kec. Seram Utara Bar., Kabupaten Maluku Tengah, Maluku";"Kabupaten Maluku Tengah, Maluku";"MALUKU";"";"Indonesia";"";"";"";"-2.9552693";"129.1134977";"https://maps.google.com/?cid=0x0:0x3362cf18d4747d78";""
"perumahan";"perumahan";"Kec. Tlk. Elpaputih";"Kabupaten Maluku Tengah, Maluku";"Kabupaten Maluku Tengah, Maluku";"MALUKU";"";"Indonesia";"";"";"";"-3.2207692";"128.8534865";"https://maps.google.com/?cid=0x0:0xb2d65ac40b141752";""
"perumahan";"Komplek perumahan";"home";"QWVG+XJ, Waraka, Kec. Tlk. Elpaputih, Kabupaten Maluku Tengah, Maluku";"Kabupaten Maluku Tengah, Maluku";"MALUKU";"";"Indonesia";"";"";"";"-3.2049994";"128.9264802";"https://maps.google.com/?cid=0x0:0x7610dc1a0dd4aab7";""
"perumahan";"perumahan";"Kompleks pasar";"RV2H+5FW, Jl. Trans Seram, Tananahu, Kec. Tlk. Elpaputih, Kabupaten Maluku Tengah, Maluku";"Kabupaten Maluku Tengah, Maluku";"MALUKU";"";"Indonesia";"";"";"";"-3.1994744";"128.8786821";"https://maps.google.com/?cid=0x0:0x90df882f1c899bf9";""
"perumahan";"Komplek perumahan";"Perumahan PTP Sukalopu";"RVFQ+H4W, Unnamed Road, Waraka, Kec. Tlk. Elpaputih, Kabupaten Maluku Tengah, Maluku";"Kabupaten Maluku Tengah, Maluku";"MALUKU";"";"Indonesia";"";"";"";"-3.1760149";"128.8878413";"https://maps.google.com/?cid=0x0:0x131203365d43d6ee";""
"perumahan";"Kantor Perusahaan";"Perumahan PTP Awaya";"QVXX+V9F, Jl. Trans Seram, Waraka, Kec. Tlk. Elpaputih, Kabupaten Maluku Tengah, Maluku";"Kabupaten Maluku Tengah, Maluku";"MALUKU";"";"Indonesia";"";"";"";"-3.2003248";"128.8984221";"https://maps.google.com/?cid=0x0:0x72ddd2055fc3551f";""
"perumahan";"Perhimpunan Pengembang Perumahan";"Dalovry";"RVGQ+67, Tananahu, Kec. Tlk. Elpaputih, Kabupaten Maluku Tengah, Maluku";"Kabupaten Maluku Tengah, Maluku";"MALUKU";"";"Indonesia";"";"";"";"-3.1744849";"128.8881683";"https://maps.google.com/?cid=0x0:0xf65076f089e35fa5";""
"perumahan";"Komplek perumahan";"desa liang teluk elpaputih";"QVH3+JGC, Tananahu, Kec. Tlk. Elpaputih, Kabupaten Maluku Tengah, Maluku";"Kabupaten Maluku Tengah, Maluku";"MALUKU";"";"Indonesia";"";"";"";"-3.2209365";"128.8537712";"https://maps.google.com/?cid=0x0:0xc425da7476298ae1";""
"perumahan";"perumahan";"G'Lohy";"QWVG+PW5, Waraka, Kec. Tlk. Elpaputih, Kabupaten Maluku Tengah, Maluku";"Kabupaten Maluku Tengah, Maluku";"MALUKU";"";"Indonesia";"";"";"";"-3.2057348";"128.9273534";"https://maps.google.com/?cid=0x0:0x70b2be72dfadb668";""
"perumahan";"Komplek perumahan";"Samasuru";"QVH3+P94, Tananahu, Kec. Tlk. Elpaputih, Kabupaten Maluku Tengah, Maluku";"Kabupaten Maluku Tengah, Maluku";"MALUKU";"";"Indonesia";"";"";"";"-3.220729";"128.8534562";"https://maps.google.com/?cid=0x0:0xd18644802eefdd30";""
"perumahan";"Balai masyarakat";"NEGERI ELPAPUTIH";"PQQG+9P, Sanahu, Elpaputih, Kabupaten Seram Bagian Barat, Maluku";"Kabupaten Seram Bagian Barat, Maluku";"MALUKU";"";"Indonesia";"";"";"";"-3.2615625";"128.7768125";"https://maps.google.com/?cid=0x0:0xc5ceb386c7f6257f";""
"perumahan";"Perhimpunan Pengembang Perumahan";"PETUANAN NEGERI HITALESI";"QVW9+CP, Tananahu, Kec. Tlk. Elpaputih, Kabupaten Maluku Tengah, Maluku";"Kabupaten Maluku Tengah, Maluku";"MALUKU";"";"Indonesia";"";"";"";"-3.2039124";"128.8693198";"https://maps.google.com/?cid=0x0:0x808c73fbbc7aa5e6";""
"perumahan";"Komplek perumahan";"Wasilainy Family";"QWRG+RH2, Waraka, Kec. Tlk. Elpaputih, Kabupaten Maluku Tengah, Maluku";"Kabupaten Maluku Tengah, Maluku";"MALUKU";"";"Indonesia";"";"";"";"-3.207983";"128.9264009";"https://maps.google.com/?cid=0x0:0xd34009dd7b4f5cfa";""
"perumahan";"Komplek perumahan";"KELUARGA PALINUSSA";"QVWF+PQ, Tananahu, Kec. Tlk. Elpaputih, Kabupaten Maluku Tengah, Maluku";"Kabupaten Maluku Tengah, Maluku";"MALUKU";"";"Indonesia";" 082110178668";"";"";"-3.2033909";"128.873866";"https://maps.google.com/?cid=0x0:0xc7a7cb1229616788";""
"perumahan";"perumahan";"Komplek sapurata";"PQPH+7JW, Jl. Trans Seram, Sanahu, Kec. Tlk. Elpaputih, Kabupaten Maluku Tengah, Maluku";"Kabupaten Maluku Tengah, Maluku";"MALUKU";"";"Indonesia";"";"";"";"-3.2632525";"128.7790698";"https://maps.google.com/?cid=0x0:0xa2784bcb02922a5c";""
"perumahan";"Komplek perumahan";"Bongall Laurens Wattimena";"QVWH+XV, Tananahu, Kec. Tlk. Elpaputih, Kabupaten Maluku Tengah, Maluku";"Kabupaten Maluku Tengah, Maluku";"MALUKU";"";"Indonesia";"";"";"";"-3.2025126";"128.8797067";"https://maps.google.com/?cid=0x0:0xd1d4b2bcd3f7ad7d";""
"perumahan";"Komplek perumahan";"Desa Waraka";"QWVG+48V, Waraka, Kec. Tlk. Elpaputih, Kabupaten Maluku Tengah, Maluku";"Kabupaten Maluku Tengah, Maluku";"MALUKU";"";"Indonesia";"";"";"";"-3.2071255";"128.9257842";"https://maps.google.com/?cid=0x0:0x182ef0bcaedfc4e9";""
"perumahan";"Komplek perumahan";"Walalayo Family";"RW6M+745, Waraka, Kec. Tlk. Elpaputih, Kabupaten Maluku Tengah, Maluku";"Kabupaten Maluku Tengah, Maluku";"MALUKU";"";"Indonesia";"";"";"";"-3.1906558";"128.9334236";"https://maps.google.com/?cid=0x0:0x91f3089128e6979";""
"perumahan";"Komplek perumahan";"BAILEO WARASOPOLESI";"QVWH+5X8, Tananahu, Kec. Tlk. Elpaputih, Kabupaten Maluku Tengah, Maluku";"Kabupaten Maluku Tengah, Maluku";"MALUKU";"";"Indonesia";"";"";"";"-3.2041276";"128.8805817";"https://maps.google.com/?cid=0x0:0x7eacd1a3603e50cf";""
"perumahan";"Komplek perumahan";"Wil";"PQPH+7JW, Jl. Trans Seram, Sanahu, Kec. Tlk. Elpaputih, Kabupaten Maluku Tengah, Maluku";"Kabupaten Maluku Tengah, Maluku";"MALUKU";"";"Indonesia";"";"";"";"-3.2641928";"128.779062";"https://maps.google.com/?cid=0x0:0x80107aacc96a9231";""
"perumahan";"Komplek perumahan";"Waipapa";"QVXF+MRW, Tananahu, Kec. Tlk. Elpaputih, Kabupaten Maluku Tengah, Maluku";"Kabupaten Maluku Tengah, Maluku";"MALUKU";"";"Indonesia";"";"";"";"-3.2007567";"128.8745823";"https://maps.google.com/?cid=0x0:0x238e59550a3e8ed6";""
"perumahan";"Komplek perumahan";"MANBERS HOUSE";"PQQJ+2CX, Jl. Trans Seram, Samasuru, Kec. Tlk. Elpaputih, Kabupaten Maluku Tengah, Maluku";"Kabupaten Maluku Tengah, Maluku";"MALUKU";"";"Indonesia";"";"";"";"-3.2617154";"128.7810258";"https://maps.google.com/?cid=0x0:0x4016b43185ef8852";""
"perumahan";"Komplek perumahan";"Rio salelatu";"QR9W+HXV, Latu - Liang, Tananahu, Kec. Tlk. Elpaputih, Kabupaten Maluku Tengah, Maluku";"Kabupaten Maluku Tengah, Maluku";"MALUKU";"";"Indonesia";"";"";"";"-3.2310203";"128.8474232";"https://maps.google.com/?cid=0x0:0xa85e838ec4ad5ed5";""
"perumahan";"Komplek perumahan";"Maikel Cabi";"VRGR+CH8, Tananahu, Kec. Tlk. Elpaputih, Kabupaten Maluku Tengah, Maluku";"Kabupaten Maluku Tengah, Maluku";"MALUKU";"";"Indonesia";" 081240127531";"";"";"-3.1239717";"128.8414602";"https://maps.google.com/?cid=0x0:0x5d8e1df9d6502704";""
"perumahan";"Komplek perumahan";"Frans🥶";"QR7V+P2W, Tananahu, Kec. Tlk. Elpaputih, Kabupaten Maluku Tengah, Maluku";"Kabupaten Maluku Tengah, Maluku";"MALUKU";"";"Indonesia";"";"";"";"-3.2356444";"128.8425869";"https://maps.google.com/?cid=0x0:0x61784b03fa876e40";""
"perumahan";"perumahan";"Kec. Leihitu Bar.";"Kabupaten Maluku Tengah, Maluku";"Kabupaten Maluku Tengah, Maluku";"MALUKU";"";"Indonesia";"";"";"";"-3.7450972";"127.9996401";"https://maps.google.com/?cid=0x0:0x99f9b56e99c233dc";""
"perumahan";"Perhimpunan Pengembang Perumahan";"M.L";"62M5+F49, Allang, Kec. Leihitu Bar., Kabupaten Maluku Tengah, Maluku";"Kabupaten Maluku Tengah, Maluku";"MALUKU";"";"Indonesia";"";"";"";"-3.766325";"128.0078944";"https://maps.google.com/?cid=0x0:0xb6cf4fe6f79e0b5f";""
"perumahan";"Komplek perumahan";"Rumah Aiimah";"6WRP+RQQ, Wakasihu, Kec. Leihitu Bar., Kabupaten Maluku Tengah, Maluku";"Kabupaten Maluku Tengah, Maluku";"MALUKU";"";"Indonesia";"";"";"";"-3.758169";"127.9371616";"https://maps.google.com/?cid=0x0:0x9a3a2042c380209c";""
"perumahan";"Komplek perumahan";"Bandera";"6XCW+48, Allang, Kec. Leihitu Bar., Kabupaten Maluku Tengah, Maluku";"Kabupaten Maluku Tengah, Maluku";"MALUKU";"";"Indonesia";"";"";"";"-3.7796875";"127.9958125";"https://maps.google.com/?cid=0x0:0x85cfc4e3c9296ab8";""
"perumahan";"Komplek perumahan";"Wairinang, Hatu, Leihitu Barat, Maluku Tengah, Indonesia";"73JC+6PW, Hatu, Kec. Leihitu Bar., Kabupaten Maluku Tengah, Maluku";"Kabupaten Maluku Tengah, Maluku";"MALUKU";"";"Indonesia";"";"";"";"-3.7198483";"128.0718283";"https://maps.google.com/?cid=0x0:0x83c14733e2c1fd40";""
"perumahan";"Komplek perumahan";"Ardo Home";"62G2+2V6, Allang, Kec. Leihitu Bar., Kabupaten Maluku Tengah, Maluku";"Kabupaten Maluku Tengah, Maluku";"MALUKU";"";"Indonesia";"";"";"";"-3.7747069";"128.0030025";"https://maps.google.com/?cid=0x0:0xcdf40272eeedceef";""
"perumahan";"Pembangunan Perumahan";"ANGEL HOME";"62G3+3M9, Allang, Kec. Leihitu Bar., Kabupaten Maluku Tengah, Maluku";"Kabupaten Maluku Tengah, Maluku";"MALUKU";"";"Indonesia";"";"";"";"-3.7748255";"128.004228";"https://maps.google.com/?cid=0x0:0x40d268680057723c";""
"perumahan";"Komplek perumahan";"Kompleks zona";"724C+XVP, Liliboi, Kec. Leihitu Bar., Kabupaten Maluku Tengah, Maluku";"Kabupaten Maluku Tengah, Maluku";"MALUKU";"";"Indonesia";"";"";"";"-3.7425395";"128.0221957";"https://maps.google.com/?cid=0x0:0x5ce640a69a6fb216";""
"perumahan";"Pembangunan Perumahan";"Hatu";"72CX+RJP, Hatu, Kec. Leihitu Bar., Kabupaten Maluku Tengah, Maluku";"Kabupaten Maluku Tengah, Maluku";"MALUKU";"";"Indonesia";"";"";"";"-3.7279148";"128.0490637";"https://maps.google.com/?cid=0x0:0x778c2212c65579ff";""
"perumahan";"Komplek perumahan";"Tennesse home";"62F3+Q9H, Allang, Kec. Leihitu Bar., Kabupaten Maluku Tengah, Maluku";"Kabupaten Maluku Tengah, Maluku";"MALUKU";"";"Indonesia";"";"";"";"-3.7758839";"128.0035195";"https://maps.google.com/?cid=0x0:0xbef4eaf5e4a2d794";""
"perumahan";"Komplek perumahan";"Komplek Anloger";"73F2+22P, Hatu, Kec. Leihitu Bar., Kabupaten Maluku Tengah, Maluku";"Kabupaten Maluku Tengah, Maluku";"MALUKU";"";"Indonesia";"";"";"";"-3.727416";"128.0500809";"https://maps.google.com/?cid=0x0:0x8e67175cacae7018";""
"perumahan";"Komplek perumahan";"Lawahina Camp";"6XCV+XH9, Allang, Kec. Leihitu Bar., Kabupaten Maluku Tengah, Maluku";"Kabupaten Maluku Tengah, Maluku";"MALUKU";"";"Indonesia";"";"";"";"-3.777598";"127.9939965";"https://maps.google.com/?cid=0x0:0x9b2a81dfc947000a";""
"perumahan";"Komplek perumahan";"Rumah Nia";"722F+P5W, Liliboi, Kec. Leihitu Bar., Kabupaten Maluku Tengah, Maluku";"Kabupaten Maluku Tengah, Maluku";"MALUKU";"";"Indonesia";"";"";"";"-3.748128";"128.0229525";"https://maps.google.com/?cid=0x0:0xd3fe4e0a07a5fb69";""
"perumahan";"Komplek perumahan";"David laid";"62F2+W9X, Allang, Kec. Leihitu Bar., Kabupaten Maluku Tengah, Maluku";"Kabupaten Maluku Tengah, Maluku";"MALUKU";"";"Indonesia";"";"";"";"-3.7751284";"128.0009935";"https://maps.google.com/?cid=0x0:0xe3582835f22d4c0a";""
"perumahan";"Komplek perumahan";"Mirel";"62H4+4MW, Allang, Kec. Leihitu Bar., Kabupaten Maluku Tengah, Maluku";"Kabupaten Maluku Tengah, Maluku";"MALUKU";"";"Indonesia";"";"";"";"-3.7732831";"128.0067096";"https://maps.google.com/?cid=0x0:0xaeba212e960f3b7e";""
"perumahan";"Komplek perumahan";"Homework";"62M5+5M5, Allang, Kec. Leihitu Bar., Kabupaten Maluku Tengah, Maluku";"Kabupaten Maluku Tengah, Maluku";"MALUKU";"";"Indonesia";"";"";"";"-3.7670857";"128.0092981";"https://maps.google.com/?cid=0x0:0xfb8815394dead680";""
"perumahan";"Komplek perumahan";"Namakoli";"62M5+7WX, Allang, Kec. Leihitu Bar., Kabupaten Maluku Tengah, Maluku";"Kabupaten Maluku Tengah, Maluku";"MALUKU";"";"Indonesia";"";"";"";"-3.7668539";"128.0105969";"https://maps.google.com/?cid=0x0:0xaa76ace6ad6212c6";""
"perumahan";"Komplek perumahan";"LioLia,Home";"6XCW+48, Allang, Kec. Leihitu Bar., Kabupaten Maluku Tengah, Maluku";"Kabupaten Maluku Tengah, Maluku";"MALUKU";"";"Indonesia";"";"";"";"-3.77913";"127.9959417";"https://maps.google.com/?cid=0x0:0x9906830e8d19b5c9";""
"perumahan";"Komplek perumahan";"Watasi";"6XCM+2F, Allang, Kec. Leihitu Bar., Kabupaten Maluku Tengah, Maluku";"Kabupaten Maluku Tengah, Maluku";"MALUKU";"";"Indonesia";"";"";"";"-3.7798991";"127.9836383";"https://maps.google.com/?cid=0x0:0x64f84b1d44dcbf30";""
"perumahan";"";"Hena Huwae";"62G3+5GQ, Jalan Soa Ralahalu, Allang, Kec. Leihitu Bar., Kabupaten Maluku Tengah, Maluku";"Kabupaten Maluku Tengah, Maluku";"MALUKU";"";"Indonesia";"";"";"";"-3.7745463";"128.0038729";"https://maps.google.com/?cid=0x0:0xb255356970001b7";""
"perumahan";"Komplek perumahan";"Rumah naga usmany";"73JG+8WW, Jl. Propinsi, Hatu, Kec. Leihitu Bar., Kabupaten Maluku Tengah, Maluku";"Kabupaten Maluku Tengah, Maluku";"MALUKU";"";"Indonesia";"";"";"";"-3.7190446";"128.0771092";"https://maps.google.com/?cid=0x0:0xa528fe06a014a8f8";""
"perumahan";"Komplek perumahan";"Kompleks Kampong Baru,Larike";"7W5H+3F9, Larike, Kec. Leihitu Bar., Kabupaten Maluku Tengah, Maluku";"Kabupaten Maluku Tengah, Maluku";"MALUKU";"";"Indonesia";"";"";"";"-3.7423387";"127.9287408";"https://maps.google.com/?cid=0x0:0x252a8091ce24571c";""
"perumahan";"Pembangunan Perumahan";"JulietHome";"62H4+4MW, Allang, Kec. Leihitu Bar., Kabupaten Maluku Tengah, Maluku";"Kabupaten Maluku Tengah, Maluku";"MALUKU";"";"Indonesia";"";"";"";"-3.772992";"128.0065054";"https://maps.google.com/?cid=0x0:0x4db1b0fe497a05fe";""
"perumahan";"Komplek perumahan";"ElWill Mantulameten";"73J9+JH2, Hatu, Kec. Leihitu Bar., Kabupaten Maluku Tengah, Maluku";"Kabupaten Maluku Tengah, Maluku";"MALUKU";"";"Indonesia";"";"";"";"-3.7184878";"128.0688852";"https://maps.google.com/?cid=0x0:0xef37a1f4bd051dc8";""
"perumahan";"perumahan";"Kec. Telutih";"Kabupaten Maluku Tengah, Maluku";"Kabupaten Maluku Tengah, Maluku";"MALUKU";"";"Indonesia";"";"";"";"-3.3265855";"129.7841976";"https://maps.google.com/?cid=0x0:0x43575c604a0bf9a4";""
"perumahan";"Komplek perumahan";"Mr_tutuarima";"MQFM+482, Laimu, Kec. Telutih, Kabupaten Maluku Tengah, Maluku";"Kabupaten Maluku Tengah, Maluku";"MALUKU";"";"Indonesia";"";"";"";"-3.3272389";"129.7832694";"https://maps.google.com/?cid=0x0:0x52062e9d701ae3c9";""
"perumahan";"Komplek perumahan";"Rumah niya";"MPM2+GR, Tehua, Kec. Telutih, Kabupaten Maluku Tengah, Maluku";"Kabupaten Maluku Tengah, Maluku";"MALUKU";"";"Indonesia";"";"";"";"-3.3162038";"129.7020823";"https://maps.google.com/?cid=0x0:0x7a9af2d4c1aba70e";""
"perumahan";"Komplek perumahan";"Tehua";"MMJX+RG9, Tehua, Kec. Telutih, Kabupaten Maluku Tengah, Maluku";"Kabupaten Maluku Tengah, Maluku";"MALUKU";"";"Indonesia";"";"";"";"-3.317239";"129.6995459";"https://maps.google.com/?cid=0x0:0x1fda48e5958c094";""
"perumahan";"Komplek perumahan";"Kompleks Wahila";"Lafa, Kec. Telutih, Kabupaten Maluku Tengah, Maluku";"Kabupaten Maluku Tengah, Maluku";"MALUKU";"";"Indonesia";"";"";"";"-3.3175296";"129.6678399";"https://maps.google.com/?cid=0x0:0x3d9e0c4a100dafa4";""
"perumahan";"Pembangunan Perumahan";"Kos";"MMJW+P9, Tehua, Kec. Telutih, Kabupaten Maluku Tengah, Maluku";"Kabupaten Maluku Tengah, Maluku";"MALUKU";"";"Indonesia";"";"";"";"-3.3182352";"129.6959323";"https://maps.google.com/?cid=0x0:0x9a6f559861ea5408";""
"perumahan";"Komplek perumahan";"Rumah Oland";"MQFP+FWW, Laimu, Kec. Telutih, Kabupaten Maluku Tengah, Maluku";"Kabupaten Maluku Tengah, Maluku";"MALUKU";"";"Indonesia";"";"";"";"-3.3254414";"129.7863341";"https://maps.google.com/?cid=0x0:0x83653d47b500cc84";""
"perumahan";"Komplek perumahan";"Home khayla walalohun";"MQFJ+MMC, Laimu, Kec. Telutih, Kabupaten Maluku Tengah, Maluku";"Kabupaten Maluku Tengah, Maluku";"MALUKU";"";"Indonesia";"";"";"";"-3.3258072";"129.7816258";"https://maps.google.com/?cid=0x0:0x2bfa5d5d591f7d38";""
"perumahan";"Pembangunan Perumahan";"Himalaya";"PP83+9CR Negeri, Tehua, Kec. Telutih, Kabupaten Maluku Tengah, Maluku";"Kabupaten Maluku Tengah, Maluku";"MALUKU";"";"Indonesia";"";"";"";"-3.2840024";"129.7035223";"https://maps.google.com/?cid=0x0:0xc90a7755f8ac80dd";""
"perumahan";"Komplek perumahan";"Iryanti";"MPM3+F36, Tehua, Kec. Telutih, Kabupaten Maluku Tengah, Maluku";"Kabupaten Maluku Tengah, Maluku";"MALUKU";"";"Indonesia";"";"";"";"-3.3163477";"129.7026285";"https://maps.google.com/?cid=0x0:0x128f6510f8cb6563";""
"perumahan";"Komplek perumahan";"Dingko Kelihu";"MMJ5+X2, Wolu, Kec. Telutih, Kabupaten Maluku Tengah, Maluku";"Kabupaten Maluku Tengah, Maluku";"MALUKU";"";"Indonesia";"";"";"";"-3.3175794";"129.6575097";"https://maps.google.com/?cid=0x0:0x24d0e6eb77299a39";""
"perumahan";"Komplek perumahan";"Rmh Sutarno";"MQFC+563, Laimu, Kec. Telutih, Kabupaten Maluku Tengah, Maluku";"Kabupaten Maluku Tengah, Maluku";"MALUKU";"";"Indonesia";"";"";"";"-3.3271097";"129.770534";"https://maps.google.com/?cid=0x0:0x149ca1c8e9c39b7";""
"perumahan";"Perhimpunan Pengembang Perumahan";"Rumah bapa sofya akhir";"MQFF+F48, Laimu, Kec. Telutih, Kabupaten Maluku Tengah, Maluku";"Kabupaten Maluku Tengah, Maluku";"MALUKU";"";"Indonesia";"";"";"";"-3.3263469";"129.772842";"https://maps.google.com/?cid=0x0:0x522eea8b5b2cee78";""
"perumahan";"Komplek perumahan";"Sikelem lama";"MVV8+5QQ, Ulahahan, Kec. Telutih, Kabupaten Maluku Tengah, Maluku";"Kabupaten Maluku Tengah, Maluku";"MALUKU";"";"Indonesia";"";"";"";"-3.3070269";"129.8669775";"https://maps.google.com/?cid=0x0:0xe46ec562a5b5dd0";""
"perumahan";"Pembangunan Perumahan";"Sekertaris desa Tehua";"PP83+Q92, Tehua, Kec. Telutih, Kabupaten Maluku Tengah, Maluku";"Kabupaten Maluku Tengah, Maluku";"MALUKU";"";"Indonesia";"";"";"";"-3.2831094";"129.7034055";"https://maps.google.com/?cid=0x0:0x1b0dbccb8f1151be";""
"perumahan";"Komplek perumahan";"RIZKY TEHUAYO";"MMMX+266, Tehua, Kec. Telutih, Kabupaten Maluku Tengah, Maluku";"Kabupaten Maluku Tengah, Maluku";"MALUKU";"";"Indonesia";"";"";"";"-3.3170295";"129.698696";"https://maps.google.com/?cid=0x0:0x2acec7990a94389e";""
"perumahan";"Pembangunan Perumahan";"Rumah Tua Tehuayo";"MMJX+PP3, Tehua, Kec. Telutih, Kabupaten Maluku Tengah, Maluku";"Kabupaten Maluku Tengah, Maluku";"MALUKU";"";"Indonesia";"";"";"";"-3.3182418";"129.6993068";"https://maps.google.com/?cid=0x0:0x8b1ecb1b01eea633";""
"perumahan";"Komplek perumahan";"TULULUTIH LALIN";"MJRM+7HC, Teluti Baru, Kec. Tehoru, Kabupaten Maluku Tengah, Maluku";"Kabupaten Maluku Tengah, Maluku";"MALUKU";"";"Indonesia";"";"";"";"-3.3093125";"129.6338906";"https://maps.google.com/?cid=0x0:0xb9ef8d948c2dca45";""
"perumahan";"Komplek perumahan";"Rumah Ikyusemahu";"MMJX+RG9, Tehua, Kec. Telutih, Kabupaten Maluku Tengah, Maluku";"Kabupaten Maluku Tengah, Maluku";"MALUKU";"";"Indonesia";"";"";"";"-3.3169928";"129.6997747";"https://maps.google.com/?cid=0x0:0xd83a44c5e81ec24a";""
"perumahan";"Komplek perumahan";"Rumah Meymey";"MQFC+6W9, Laimu, Kec. Telutih, Kabupaten Maluku Tengah, Maluku";"Kabupaten Maluku Tengah, Maluku";"MALUKU";"";"Indonesia";"";"";"";"-3.3278662";"129.7719304";"https://maps.google.com/?cid=0x0:0x1f58e4c8ed28a0fb";""
"perumahan";"perumahan";"Kec. Seram Utara Tim. Seti";"Kabupaten Maluku Tengah, Maluku";"Kabupaten Maluku Tengah, Maluku";"MALUKU";"";"Indonesia";"";"";"";"-2.9914278";"129.9266389";"https://maps.google.com/?cid=0x0:0xf1f031938308f20f";""
"perumahan";"Komplek perumahan";"Rumah saya";"XXC2+P5, Wailoping, Kec. Seram Utara Tim. Seti, Kabupaten Maluku Tengah, Maluku";"Kabupaten Maluku Tengah, Maluku";"MALUKU";"";"Indonesia";"";"";"";"-3.0281949";"129.9503798";"https://maps.google.com/?cid=0x0:0x2be0aadf9317d906";""
"perumahan";"Pembangunan Perumahan";"Tanah Merah";"2W5G+CMC, Kobisonta, Kec. Seram Utara Tim. Seti, Kabupaten Maluku Tengah, Maluku";"Kabupaten Maluku Tengah, Maluku";"MALUKU";"";"Indonesia";"";"";"";"-2.9914278";"129.9266389";"https://maps.google.com/?cid=0x0:0x5da49ef345e0b903";""
"perumahan";"Gedung Apartemen";"Abrisam House";"XXG6+G2, Seti, Kec. Seram Utara Tim. Seti, Kabupaten Maluku Tengah, Maluku";"Kabupaten Maluku Tengah, Maluku";"MALUKU";"";"Indonesia";"";"";"";"-3.0236901";"129.9600471";"https://maps.google.com/?cid=0x0:0x9c175f7610ad9bda";""
"perumahan";"Komplek perumahan";"Rumah qu";"2W7F+MV9, Kobisonta, Kec. Seram Utara Tim. Seti, Kabupaten Maluku Tengah, Maluku";"Kabupaten Maluku Tengah, Maluku";"MALUKU";"";"Indonesia";"";"";"";"-2.9858421";"129.9247429";"https://maps.google.com/?cid=0x0:0xa8679a3a279258aa";""
"perumahan";"Komplek perumahan";"Rumah tinggal";"XX9H+CHH, Waiputih, Kec. Seram Utara Tim. Seti, Kabupaten Maluku Tengah, Maluku";"Kabupaten Maluku Tengah, Maluku";"MALUKU";"";"Indonesia";"";"";"";"-3.0314015";"129.9790022";"https://maps.google.com/?cid=0x0:0xb66bb3d594726e89";""
"perumahan";"Tempat Religius";"Pastori GPM Mulumet";"XWR6+WX7, Seti, Kec. Seram Utara Tim. Seti, Kabupaten Maluku Tengah, Maluku";"Kabupaten Maluku Tengah, Maluku";"MALUKU";"";"Indonesia";"";"";"";"-3.0080651";"129.9127621";"https://maps.google.com/?cid=0x0:0xbce01261ae498ea";""
"perumahan";"Komplek perumahan";"Maluku Tengah";"2W5G+CMC, Kobisonta, Kec. Seram Utara Tim. Seti, Kabupaten Maluku Tengah, Maluku";"Kabupaten Maluku Tengah, Maluku";"MALUKU";"";"Indonesia";" 082229481588";"";"";"-2.9914278";"129.9266389";"https://maps.google.com/?cid=0x0:0xc07b6aef2e24aa5e";""
"perumahan";"Perumahan";"Rumah Ibu Kati";"2W8H+R36, Kobisonta, Kec. Seram Utara Tim. Seti, Kabupaten Maluku Tengah, Maluku";"Kabupaten Maluku Tengah, Maluku";"MALUKU";"";"Indonesia";"";"";"";"-2.9822901";"129.9280266";"https://maps.google.com/?cid=0x0:0x3a580a1488a205c9";""
"perumahan";"Perhimpunan Pengembang Perumahan";"Tanah merah kampung liang";"2W7F+MV9, Kobisonta, Kec. Seram Utara Tim. Seti, Kabupaten Maluku Tengah, Maluku";"Kabupaten Maluku Tengah, Maluku";"MALUKU";"";"Indonesia";"";"";"";"-2.9858421";"129.9247429";"https://maps.google.com/?cid=0x0:0xe8a73e1fe0f17b0f";""
"perumahan";"Komplek perumahan";"MBAH DUKUT";"XX8G+HCJ, Unnamed Road, Waitila, Kec. Seram Utara Tim. Seti, Kabupaten Maluku Tengah, Maluku";"Kabupaten Maluku Tengah, Maluku";"MALUKU";"";"Indonesia";"";"";"";"-3.0335497";"129.9760186";"https://maps.google.com/?cid=0x0:0x88b0dfb867dc6b4d";""
"perumahan";"Komplek perumahan";"Rumah Yandi";"2W7G+7X5, Kobisonta, Kec. Seram Utara Tim. Seti, Kabupaten Maluku Tengah, Maluku";"Kabupaten Maluku Tengah, Maluku";"MALUKU";"";"Indonesia";"";"";"";"-2.9866649";"129.927706";"https://maps.google.com/?cid=0x0:0xc87f061c3ad54c48";""
"perumahan";"Perumahan";"rumahcuuu";"2W9F+MX, Kobisonta, Kec. Seram Utara Tim. Seti, Kabupaten Maluku Tengah, Maluku";"Kabupaten Maluku Tengah, Maluku";"MALUKU";"";"Indonesia";"";"";"";"-2.980844";"129.9248987";"https://maps.google.com/?cid=0x0:0xc60277ece7f42d68";""
"perumahan";"Perhimpunan Pengembang Perumahan";"Rumah pk sutar";"XW4C+FJ5, Seti, Kec. Seram Utara Tim. Seti, Kabupaten Maluku Tengah, Maluku";"Kabupaten Maluku Tengah, Maluku";"MALUKU";"";"Indonesia";"";"";"";"-3.0445036";"129.9220454";"https://maps.google.com/?cid=0x0:0x84aa46b13c71ea84";""
"perumahan";"Komplek perumahan";"Tutup tolu";"2WHJ+75C, Kobisonta, Kec. Seram Utara Tim. Seti, Seram Bagian Timur, Maluku";"Seram Bagian Timur, Maluku";"MALUKU";"";"Indonesia";"";"";"";"-2.971821";"129.9303784";"https://maps.google.com/?cid=0x0:0x6db87223e0e7821";""
"perumahan";"perumahan";"Rmh abdul";"2W7F+MV9, Kobisonta, Kec. Seram Utara Tim. Seti, Kabupaten Maluku Tengah, Maluku";"Kabupaten Maluku Tengah, Maluku";"MALUKU";"";"Indonesia";"";"";"";"-2.9858421";"129.9247429";"https://maps.google.com/?cid=0x0:0x8cd6f96bb41e644c";""
"perumahan";"Komplek perumahan";"MASKAS PUSAT OBRAK ABRIK";"2W8H+RJ, Kobisonta, Kec. Seram Utara Tim. Seti, Kabupaten Maluku Tengah, Maluku";"Kabupaten Maluku Tengah, Maluku";"MALUKU";"";"Indonesia";" 082193228463";"";"";"-2.9829454";"129.9290971";"https://maps.google.com/?cid=0x0:0x62617fe2ed934969";""
"perumahan";"Kompleks Kondominium";"Trans baru";"2WH6+FHC, Seti, Kec. Seram Utara Tim. Seti, Kabupaten Maluku Tengah, Maluku";"Kabupaten Maluku Tengah, Maluku";"MALUKU";"";"Indonesia";"";"";"";"-2.9713202";"129.9113978";"https://maps.google.com/?cid=0x0:0x95fd2a27d62ee757";""
"perumahan";"perumahan";"Rumah mas";"WWW9+49, Seti, Kec. Seram Utara Tim. Seti, Kabupaten Maluku Tengah, Maluku";"Kabupaten Maluku Tengah, Maluku";"MALUKU";"";"Indonesia";"";"";"";"-3.0546319";"129.9183409";"https://maps.google.com/?cid=0x0:0x18b8d4cb650c1384";""
"perumahan";"Komplek perumahan";"Rizky Bastian";"XVWF+FPR, Marasahua, Kec. Seram Utara Tim. Kobi, Kabupaten Maluku Tengah, Maluku";"Kabupaten Maluku Tengah, Maluku";"MALUKU";"";"Indonesia";"";"";"";"-3.0037634";"129.8742785";"https://maps.google.com/?cid=0x0:0x25fb4748bfec8e41";""
"perumahan";"Komplek perumahan";"DevyWeda";"2W39+W56, Kobisonta, Kec. Seram Utara Tim. Seti, Kabupaten Maluku Tengah, Maluku";"Kabupaten Maluku Tengah, Maluku";"MALUKU";"";"Indonesia";"";"";"";"-2.9949902";"129.9182858";"https://maps.google.com/?cid=0x0:0x414ec1846647ef1c";""
"perumahan";"Komplek perumahan";"Kost Toulan";"2W7F+MV9, Kobisonta, Kec. Seram Utara Tim. Seti, Kabupaten Maluku Tengah, Maluku";"Kabupaten Maluku Tengah, Maluku";"MALUKU";"";"Indonesia";"";"";"";"-2.9858421";"129.9247429";"https://maps.google.com/?cid=0x0:0x7ea9d25a43a70874";""
"perumahan";"Komplek perumahan";"Andy.p";"2WM4+WWF, Seti, Kec. Seram Utara Tim. Seti, Kabupaten Maluku Tengah, Maluku";"Kabupaten Maluku Tengah, Maluku";"MALUKU";"";"Indonesia";"";"";"";"-2.9655278";"129.9073716";"https://maps.google.com/?cid=0x0:0xf9783faab735787d";""
"perumahan";"perumahan";"Kec. Seram Utara Tim. Kobi";"Kabupaten Maluku Tengah, Maluku";"Kabupaten Maluku Tengah, Maluku";"MALUKU";"";"Indonesia";"";"";"";"-2.9958071";"129.8345109";"https://maps.google.com/?cid=0x0:0x7d5c902227229a42";""
"perumahan";"Pembangunan Perumahan";"Seram Utara Timur Kobi";"XQ7G+R63, Maneo Rendah, Kec. Seram Utara Tim. Kobi, Kabupaten Maluku Tengah, Maluku";"Kabupaten Maluku Tengah, Maluku";"MALUKU";"";"Indonesia";"";"";"";"-3.0354877";"129.7755571";"https://maps.google.com/?cid=0x0:0x2d80c0151e375331";""
"perumahan";"Pembangunan Perumahan";"kobimukti city";"2RRR+9Q, Leawai, Kec. Seram Utara Tim. Kobi, Kabupaten Maluku Tengah, Maluku";"Kabupaten Maluku Tengah, Maluku";"MALUKU";"";"Indonesia";"";"";"";"-2.959037";"129.841992";"https://maps.google.com/?cid=0x0:0x70ab3f6a50e5d94b";""
"perumahan";"Pembangunan Perumahan";"Kobi Sadar";"3RM8+RC, Kobi, Kec. Seram Utara Tim. Kobi, Kabupaten Maluku Tengah, Maluku";"Kabupaten Maluku Tengah, Maluku";"MALUKU";"";"Indonesia";"";"";"";"-2.9154603";"129.8159816";"https://maps.google.com/?cid=0x0:0xd18cb78431524835";""
"perumahan";"Pembangunan Perumahan";"Kobi";"3QFW+JG4, Negeri, Kobi, Kec. Seram Utara Tim. Kobi, Kabupaten Maluku Tengah, Maluku";"Kabupaten Maluku Tengah, Maluku";"MALUKU";"";"Indonesia";"";"";"";"-2.9259942";"129.796324";"https://maps.google.com/?cid=0x0:0x53d39dbb26692112";""
"perumahan";"Pembangunan Perumahan";"Desa Kobi Mukti";"3QCR+WW8, Jl. Pendidikan, Kobi Mukti, Kec. Seram Utara Tim. Kobi, Kabupaten Maluku Tengah, Maluku";"Kabupaten Maluku Tengah, Maluku";"MALUKU";"";"Indonesia";"";"";"";"-2.9277075";"129.7923347";"https://maps.google.com/?cid=0x0:0x35c10ae97ca679a2";""
"perumahan";"Komplek perumahan";"Rizky Bastian";"XVWF+FPR, Marasahua, Kec. Seram Utara Tim. Kobi, Kabupaten Maluku Tengah, Maluku";"Kabupaten Maluku Tengah, Maluku";"MALUKU";"";"Indonesia";"";"";"";"-3.0037634";"129.8742785";"https://maps.google.com/?cid=0x0:0x25fb4748bfec8e41";""
"perumahan";"Komplek perumahan";"Sari puti";"3R9G+FR3, Kobi, Kec. Seram Utara Tim. Kobi, Kabupaten Maluku Tengah, Maluku";"Kabupaten Maluku Tengah, Maluku";"MALUKU";"";"Indonesia";"";"";"";"-2.9313579";"129.8270419";"https://maps.google.com/?cid=0x0:0x4fbc3ae6c674a55";""
"perumahan";"Komplek perumahan";"Omae kiki";"2V66+WRX, Morokay, Kec. Seram Utara Tim. Kobi, Kabupaten Maluku Tengah, Maluku";"Kabupaten Maluku Tengah, Maluku";"MALUKU";"";"Indonesia";"";"";"";"-2.9876402";"129.8621163";"https://maps.google.com/?cid=0x0:0xd0d1e604752d4fec";""
"perumahan";"Komplek perumahan";"RM .pardi";"3PFX+76, Maneo Rendah, Kec. Seram Utara Tim. Kobi, Kabupaten Maluku Tengah, Maluku";"Kabupaten Maluku Tengah, Maluku";"MALUKU";"";"Indonesia";"";"";"";"-2.9268383";"129.7480067";"https://maps.google.com/?cid=0x0:0xbfeea670d9a463d0";""
"perumahan";"Komplek perumahan";"Rumah Mufti Abqory Arrahmani";"2VX3+F78, Samal, Kec. Seram Utara Tim. Kobi, Kabupaten Maluku Tengah, Maluku";"Kabupaten Maluku Tengah, Maluku";"MALUKU";"";"Indonesia";"";"";"";"-2.9513347";"129.853207";"https://maps.google.com/?cid=0x0:0x514005fd731c40c7";""
"perumahan";"Komplek perumahan";"Rumah ALFAZYA";"2R3M+M48, Waimusi, Kec. Seram Utara Tim. Kobi, Kabupaten Maluku Tengah, Maluku";"Kabupaten Maluku Tengah, Maluku";"MALUKU";"";"Indonesia";"";"";"";"-2.995814";"129.8329661";"https://maps.google.com/?cid=0x0:0xa4d00f74063eff9f";""
"perumahan";"Komplek perumahan";"Desa Kabauhari";"VPPC+3FJ, Kabauhari, Kec. Seram Utara Tim. Kobi, Kabupaten Maluku Tengah, Maluku";"Kabupaten Maluku Tengah, Maluku";"MALUKU";"";"Indonesia";"";"";"";"-3.1147771";"129.7211407";"https://maps.google.com/?cid=0x0:0xee138a914dac38ed";""
"perumahan";"Pembangunan Perumahan";"Kobi mukti";"3RF2+8RR, Jl. Lintas Seram, Kobi, Kec. Seram Utara Tim. Kobi, Kabupaten Maluku Tengah, Maluku";"Kabupaten Maluku Tengah, Maluku";"MALUKU";"";"Indonesia";"";"";"";"-2.926628";"129.8020023";"https://maps.google.com/?cid=0x0:0xb0a956c819201bfd";""
"perumahan";"Komplek perumahan";"Rumah Pak Supardi";"2R56+MMC, Waiasih, Kec. Seram Utara Tim. Kobi, Kabupaten Maluku Tengah, Maluku";"Kabupaten Maluku Tengah, Maluku";"MALUKU";"";"Indonesia";"";"";"";"-2.9909884";"129.8124368";"https://maps.google.com/?cid=0x0:0x56546c0388be35aa";""
"perumahan";"Pembangunan Perumahan";"Iwan Setiawan";"3P8X+57, Maneo Rendah, Kec. Seram Utara Tim. Kobi, Kabupaten Maluku Tengah, Maluku";"Kabupaten Maluku Tengah, Maluku";"MALUKU";"";"Indonesia";"";"";"";"-2.9345411";"129.7481588";"https://maps.google.com/?cid=0x0:0xc1ea749e996e4c71";""
"perumahan";"Komplek perumahan";"Rumah Cahya Manik";"3QFW+9F8, Kobi Mukti, Kec. Seram Utara Tim. Kobi, Kabupaten Maluku Tengah, Maluku";"Kabupaten Maluku Tengah, Maluku";"MALUKU";"";"Indonesia";"";"";"";"-2.9265888";"129.7961958";"https://maps.google.com/?cid=0x0:0x28667550938425e9";""
"perumahan";"Komplek perumahan";"Soeran House";"Jl. Sultan Nuku No.199, Waiasih, Kec. Seram Utara Tim. Kobi, Kabupaten Maluku Tengah, Maluku 97555";"Waiasih, Kec. Seram Utara Tim. Kobi, Kabupaten Maluku Tengah";"MALUKU";"97555";"Indonesia";"";"";"";"-2.987651";"129.8015909";"https://maps.google.com/?cid=0x0:0xd6689afc3e8379e7";""
"perumahan";"Pembangunan Perumahan";"Rumah Makwek Haikal";"2VW4+MRV, Samal, Kec. Seram Utara Tim. Kobi, Kabupaten Maluku Tengah, Maluku";"Kabupaten Maluku Tengah, Maluku";"MALUKU";"";"Indonesia";"";"";"";"-2.9532536";"129.8570536";"https://maps.google.com/?cid=0x0:0x7b22ce68f7e12717";""
"perumahan";"Komplek perumahan";"Rumah Hj. Nurul Qur'antinah";"3QFW+HPM, Kobi Mukti, Kec. Seram Utara Tim. Kobi, Kabupaten Maluku Tengah, Maluku";"Kabupaten Maluku Tengah, Maluku";"MALUKU";"";"Indonesia";"";"";"";"-2.9260398";"129.7968029";"https://maps.google.com/?cid=0x0:0x92b2c025d15afb80";""
"perumahan";"Pembangunan Perumahan";"KOBI RAJA";"2WC5+QQ4, Seti, Kec. Seram Utara Tim. Seti, Kabupaten Maluku Tengah, Maluku";"Kabupaten Maluku Tengah, Maluku";"MALUKU";"";"Indonesia";"";"";"";"-2.9781162";"129.9094499";"https://maps.google.com/?cid=0x0:0x2f4ff13339a03cd1";""
"perumahan";"perumahan";"Kec. Saparua Timur";"Kabupaten Maluku Tengah, Maluku";"Kabupaten Maluku Tengah, Maluku";"MALUKU";"";"Indonesia";"";"";"";"-3.5384417";"128.6908479";"https://maps.google.com/?cid=0x0:0x9d3049fe902a98a3";""
"perumahan";"Perhimpunan Pengembang Perumahan";"Desa Itawaka";"GM3X+88M, Noloth, Kec. Saparua, Kabupaten Maluku Tengah, Maluku";"Kabupaten Maluku Tengah, Maluku";"MALUKU";"";"Indonesia";"";"";"";"-3.4966567";"128.6982979";"https://maps.google.com/?cid=0x0:0x4e30540c65eaf31";""
"perumahan";"Komplek perumahan";"Rumah Kel. A. Siahaya";"FM8R+262, Jl. Raya Saparua-Nolot, Mahu, Kec. Saparua Timur, Kabupaten Maluku Tengah, Maluku";"Kabupaten Maluku Tengah, Maluku";"MALUKU";"";"Indonesia";"";"";"";"-3.5349921";"128.6905013";"https://maps.google.com/?cid=0x0:0xb6515950397517d5";""
"perumahan";"Perhimpunan Pengembang Perumahan";"Rumah Messie Tehu";"FM7R+H9C, Tuhaha, Kec. Saparua Timur, Kabupaten Maluku Tengah, Maluku";"Kabupaten Maluku Tengah, Maluku";"MALUKU";"";"Indonesia";"";"";"";"-3.5357885";"128.6906223";"https://maps.google.com/?cid=0x0:0x1b0248107c0739d5";""
"perumahan";"Komplek perumahan";"Rumah Neti-Ino";"FM6R+J8J, Tuhaha, Kec. Saparua Timur, Kabupaten Maluku Tengah, Maluku";"Kabupaten Maluku Tengah, Maluku";"MALUKU";"";"Indonesia";"";"";"";"-3.5386791";"128.6899977";"https://maps.google.com/?cid=0x0:0x57a7bfcd101afe2";""
"perumahan";"Komplek perumahan";"Rumah di desa";"GM3W+FR5, Jl. Raya Nolot, Noloth, Kec. Saparua Timur, Kabupaten Maluku Tengah, Maluku";"Kabupaten Maluku Tengah, Maluku";"MALUKU";"";"Indonesia";"";"";"";"-3.4954406";"128.6964691";"https://maps.google.com/?cid=0x0:0x99512f5e83a79cee";""
"perumahan";"Komplek perumahan";"Rumah Saya";"9PW8+Q24, Ullath, Kec. Saparua Timur, Kabupaten Maluku Tengah, Maluku";"Kabupaten Maluku Tengah, Maluku";"MALUKU";"";"Indonesia";"";"";"";"-3.603118";"128.7150837";"https://maps.google.com/?cid=0x0:0x35eda905ed713a7b";""
"perumahan";"Komplek perumahan";"Negeri Nolloth Kompleks Payaka";"GM2W+X6Q, Noloth, Kec. Saparua Timur, Kabupaten Maluku Tengah, Maluku";"Kabupaten Maluku Tengah, Maluku";"MALUKU";"";"Indonesia";"";"";"";"-3.4975496";"128.6956139";"https://maps.google.com/?cid=0x0:0x71ef0928a06cc990";""
"perumahan";"Komplek perumahan";"Amahoni";"FM8Q+VP9, Mahu, Kec. Saparua Timur, Kabupaten Maluku Tengah, Maluku";"Kabupaten Maluku Tengah, Maluku";"MALUKU";"";"Indonesia";"";"";"";"-3.5328377";"128.6893604";"https://maps.google.com/?cid=0x0:0x506a2fcfa566ec96";""
"perumahan";"Komplek perumahan";"Gangpas";"FMRR+G4R, Ihamahu, Kec. Saparua Timur, Kabupaten Maluku Tengah, Maluku";"Kabupaten Maluku Tengah, Maluku";"MALUKU";"";"Indonesia";"";"";"";"-3.5086665";"128.6901783";"https://maps.google.com/?cid=0x0:0x4dbcaa42d241b1d8";""
"perumahan";"Komplek perumahan";"Keluarga Sahetapy/Lisapaly";"FMRR+R2Q, Ihamahu, Kec. Saparua Timur, Kabupaten Maluku Tengah, Maluku";"Kabupaten Maluku Tengah, Maluku";"MALUKU";"";"Indonesia";"";"";"";"-3.5070397";"128.6895682";"https://maps.google.com/?cid=0x0:0x46d7c11f2a219617";""
"perumahan";"perumahan";"Asril hatapayo";"FM8R+GW3, Mahu, Kec. Saparua Timur, Kabupaten Maluku Tengah, Maluku";"Kabupaten Maluku Tengah, Maluku";"MALUKU";"";"Indonesia";"";"";"";"-3.5337364";"128.692295";"https://maps.google.com/?cid=0x0:0x81ccfe71efdcb07a";""
"perumahan";"Komplek perumahan";"SEKTOR GILGAL";"GM3X+7FF, Jl. Raya Nolot, Noloth, Kec. Saparua, Kabupaten Maluku Tengah, Maluku";"Kabupaten Maluku Tengah, Maluku";"MALUKU";"";"Indonesia";"";"";"";"-3.4968064";"128.6986874";"https://maps.google.com/?cid=0x0:0x55e15aabcc0bea3b";""
"perumahan";"Komplek perumahan";"Kampung baru";"FM7R+3C5, Mahu, Kec. Saparua, Kabupaten Maluku Tengah, Maluku";"Kabupaten Maluku Tengah, Maluku";"MALUKU";"";"Indonesia";"";"";"";"-3.5385551";"128.6916884";"https://maps.google.com/?cid=0x0:0x86199896cb220a02";""
"perumahan";"Komplek perumahan";"Rumah Bundar";"CP53+4VC, Siri Sori, Kec. Saparua Timur, Kabupaten Maluku Tengah, Maluku";"Kabupaten Maluku Tengah, Maluku";"MALUKU";"";"Indonesia";"";"";"";"-3.5921823";"128.7046425";"https://maps.google.com/?cid=0x0:0xfb413825e1c5feb0";""
"perumahan";"Komplek perumahan";"Rumah Nendissa";"Iha, Kec. Saparua Timur, Kabupaten Maluku Tengah, Maluku";"Kabupaten Maluku Tengah, Maluku";"MALUKU";"";"Indonesia";"";"";"";"-3.5069353";"128.6911107";"https://maps.google.com/?cid=0x0:0x2e2dd1f3be7387ce";""
"perumahan";"Komplek perumahan";"Carlos Malakauseya";"FM4R+XP, Mahu, Kec. Saparua Timur, Kabupaten Maluku Tengah, Maluku";"Kabupaten Maluku Tengah, Maluku";"MALUKU";"";"Indonesia";"";"";"";"-3.5426076";"128.6918321";"https://maps.google.com/?cid=0x0:0xd9e173e607accd95";""
"perumahan";"Pembangunan Perumahan";"SIRISORI";"CMGC+F5, Saparua, Kec. Saparua, Kabupaten Maluku Tengah, Maluku";"Kabupaten Maluku Tengah, Maluku";"MALUKU";"";"Indonesia";"";"";"";"-3.5738424";"128.6703968";"https://maps.google.com/?cid=0x0:0x8fe737bb7e0a9373";""
"perumahan";"Komplek perumahan";"Kel. Menase Sopaheluwakan (BASS)";"CM7X+F83, Siri Sori, Kec. Saparua Timur, Kabupaten Maluku Tengah, Maluku";"Kabupaten Maluku Tengah, Maluku";"MALUKU";"";"Indonesia";"";"";"";"-3.5863649";"128.6983087";"https://maps.google.com/?cid=0x0:0x515aff700281171e";""
"perumahan";"Komplek perumahan";"Rmh Kel Elizabeth Kesaulija";"CM7X+C2, Siri Sori, Kec. Saparua Timur, Kabupaten Maluku Tengah, Maluku";"Kabupaten Maluku Tengah, Maluku";"MALUKU";"";"Indonesia";"";"";"";"-3.5862853";"128.6973369";"https://maps.google.com/?cid=0x0:0x4f8e949c1d9d11c6";""
"perumahan";"Komplek perumahan";"Pastori Jemaat GPM Pia";"FJ9V+WXW, dusun pia, Siri-Sori Amalatu, Kabupaten Maluku Tengah, Maluku";"Kabupaten Maluku Tengah, Maluku";"MALUKU";"";"Indonesia";" 082399689392";"";"";"-3.5298172";"128.6449208";"https://maps.google.com/?cid=0x0:0x4e00655ce0ee028d";""
"perumahan";"Pembangunan Perumahan";"Usman Kaplale";"CP53+GG4, Siri Sori, Kec. Saparua Timur, Kabupaten Maluku Tengah, Maluku";"Kabupaten Maluku Tengah, Maluku";"MALUKU";"";"Indonesia";"";"";"";"-3.5913913";"128.7040159";"https://maps.google.com/?cid=0x0:0x706f8d07cf5588d";""
"perumahan";"Pembangunan Perumahan";"Cornelles Aipassa";"FM7R+3RV, Mahu, Kec. Saparua, Kabupaten Maluku Tengah, Maluku";"Kabupaten Maluku Tengah, Maluku";"MALUKU";"";"Indonesia";" 085232419146";"";"";"-3.5372556";"128.6920526";"https://maps.google.com/?cid=0x0:0x35d1460692459526";""
"perumahan";"Komplek perumahan";"Kombet";"FMXR+WW5, Noloth, Kec. Saparua Timur, Kabupaten Maluku Tengah, Maluku";"Kabupaten Maluku Tengah, Maluku";"MALUKU";"";"Indonesia";"";"";"";"-3.500881";"128.691804";"https://maps.google.com/?cid=0x0:0xc00fb636d9cc6d03";""
