Category,Real Category,Business Name,Address,City,State,Postal Code,Country,Phone,Email,Website,Latitude,Longitude,Map Link,Details Link
hotel,hotel,Kalimantan Tengah 74553,"Kabupaten Gunung MAS, Kalimantan Tengah","Kabupaten Gunung MAS, Kalimantan Tengah",KALIMANTAN TENGAH,,Indonesia,,,,-0.5866559,113.429984,https://maps.google.com/?cid=0x0:0x7f9e14ce7cf9d71f,
hotel,hotel,Rungan Sari Meeting Center  Resort,"Jl. Tjilik Riwut Km 36, Sei Gohong, Palangka Raya, 73225",Sei Gohong,KALIMANTAN TENGAH,73225.0,Indonesia,5364210677.0,,,-1.9718275,113.7445051,https://maps.google.com/?cid=0x0:0x92a70f69501efeb4,
hotel,Tujuan Wisata,Taman Wisata Alam Bukit Tangkiling,"2Q23+H94, Banturung, Kec. Bukit Batu, Kota Palangka Raya, Kalimantan Tengah 73112","Banturung, Kec. Bukit Batu, Kota Palangka Raya",KALIMANTAN TENGAH,73112.0,Indonesia,,,,-1.9986201,113.75346,https://maps.google.com/?cid=0x0:0x58827bd130bff911,
hotel,hotel,Adelin Hotel,"Jl. Cilik Riwut No.12B, Kuala Kurun, Kec. Kurun, Kabupaten Gunung MAS, Kalimantan Tengah 74571","Kuala Kurun, Kec. Kurun, Kabupaten Gunung MAS",KALIMANTAN TENGAH,74571.0,Indonesia,81345165626.0,,,-1.1036722,113.8566318,https://maps.google.com/?cid=0x0:0xa8eb8498f9d5f327,
hotel,Jembatan,Air Terjun Batu Mahasur,"WV63+3XR, Jl. Damang Pijar, Kuala Kurun, Kec. Kurun, Kabupaten Gunung MAS, Kalimantan Tengah 74571","Jl. Damang Pijar, Kuala Kurun, Kec. Kurun, Kabupaten Gunung MAS",KALIMANTAN TENGAH,74571.0,Indonesia,,,,-1.0897524,113.8549018,https://maps.google.com/?cid=0x0:0x7287419dfd2b8e5f,
hotel,Kantor Perusahaan,Pasar Tumbang Miri,"3HM2+3J6, Tumbang Miri, Kec. Kahayan Hulu Utara, Kabupaten Gunung MAS, Kalimantan Tengah 74561","Tumbang Miri, Kec. Kahayan Hulu Utara, Kabupaten Gunung MAS",KALIMANTAN TENGAH,74561.0,Indonesia,,,,-0.9173373,113.5515051,https://maps.google.com/?cid=0x0:0x6a48ae59913175a4,
hotel,hotel,OYO 92224 Hotel Tris,"62, Kuala Kurun, Kalimantan Tengah 74571",Kuala Kurun,KALIMANTAN TENGAH,74571.0,Indonesia,2129707601.0,,,-1.0643521,113.8941657,https://maps.google.com/?cid=0x0:0x6507756fb77c6f9d,
hotel,hotel,Kalimantan Tengah 74511,Kalimantan Tengah,Kalimantan Tengah,KALIMANTAN TENGAH,,Indonesia,,,,-0.898161,113.8584737,https://maps.google.com/?cid=0x0:0x88373fa35beec461,
hotel,hotel,"Wisma Apollo Kuala Kurun (Penginapan, Hotel, Guest House, Homestay, Staycation)","Jl, Letjen Soeprapto No. 56. Kel. Tampang Tumbang Anjir, Kuala Kurun, Kec. Kurun, Kalimantan Tengah 74571","Letjen Soeprapto No. 56. Kel. Tampang Tumbang Anjir, Kuala Kurun, Kec. Kurun",KALIMANTAN TENGAH,74571.0,Indonesia,818232021.0,,,-1.1135707,113.8635964,https://maps.google.com/?cid=0x0:0x215fe2044d7374a8,
hotel,hotel,Horizon,"Sei Pinang, Mandau Talawang, Kabupaten Kapuas, Kalimantan Tengah 74511","Mandau Talawang, Kabupaten Kapuas",KALIMANTAN TENGAH,74511.0,Indonesia,343741476.0,,,-0.789275,113.921327,https://maps.google.com/?cid=0x0:0xabbfb3815684c79b,
hotel,hotel,Hotel Zefanya,"VVM6+264, Jl. Letjend Soeprapto, Tampang Tumbang Anjir, Kec. Kurun, Kabupaten Gunung MAS, Kalimantan Tengah 74571","Jl. Letjend Soeprapto, Tampang Tumbang Anjir, Kec. Kurun, Kabupaten Gunung MAS",KALIMANTAN TENGAH,74571.0,Indonesia,82255755969.0,,,-1.1174859,113.8605696,https://maps.google.com/?cid=0x0:0x3f8eb88a80cb2956,
hotel,hotel,OYO 92224 Hotel Tris,"62, Kuala Kurun, Kalimantan Tengah 74571",Kuala Kurun,KALIMANTAN TENGAH,74571.0,Indonesia,2129707601.0,,,-1.0643521,113.8941657,https://maps.google.com/?cid=0x0:0x6507756fb77c6f9d,
hotel,hotel,Hotel Lising,"WV37+QQ3, Kuala Kurun, Kec. Kurun, Kabupaten Gunung MAS, Kalimantan Tengah 74571","Kuala Kurun, Kec. Kurun, Kabupaten Gunung MAS",KALIMANTAN TENGAH,74571.0,Indonesia,53731196.0,,,-1.0956213,113.8644246,https://maps.google.com/?cid=0x0:0x8ea733ca231a9bb8,
hotel,hotel,SPOT ON 92179 Latinos House,"1, Bugisan, Klaten, Solo, Central Java 57454","Bugisan, Klaten, Solo",KALIMANTAN TENGAH,57454.0,Indonesia,817788016.0,,,-0.789275,113.921327,https://maps.google.com/?cid=0x0:0x11420d6a736f24ba,
hotel,hotel,OYO 90331 Hotel Toba Shanda,"6W6C+7GP, Parapat, Simalungun, Toba, North Sumatra 21174","Parapat, Simalungun, Toba",KALIMANTAN TENGAH,21174.0,Indonesia,82377518293.0,,,-0.789275,113.921327,https://maps.google.com/?cid=0x0:0xbf17327f1627a1b9,
hotel,hotel,Nur hidayah,"6W6C+7GP, Sei Pinang, Mandau Talawang, Kabupaten Kapuas, Kalimantan Tengah","Kabupaten Kapuas, Kalimantan Tengah",KALIMANTAN TENGAH,,Indonesia,,,,-0.789275,113.921327,https://maps.google.com/?cid=0x0:0xd690ca62b5094312,
hotel,hotel,Kalimantan Tengah 74562,"Kabupaten Gunung MAS, Kalimantan Tengah","Kabupaten Gunung MAS, Kalimantan Tengah",KALIMANTAN TENGAH,,Indonesia,,,,-1.3240171,113.4776098,https://maps.google.com/?cid=0x0:0x59a162add95738c2,
hotel,hotel,Hotel Batu Suli Internasional,"Jl. Raden Saleh No.4, Menteng, Kec. Jekan Raya, Kota Palangka Raya, Kalimantan Tengah 74874","Menteng, Kec. Jekan Raya, Kota Palangka Raya",KALIMANTAN TENGAH,74874.0,Indonesia,2129707601.0,,,-2.2226962,113.9178728,https://maps.google.com/?cid=0x0:0x64bcb744c56c1241,
hotel,hotel,"Wisma Apollo Kuala Kurun (Penginapan, Hotel, Guest House, Homestay, Staycation)","Jl, Letjen Soeprapto No. 56. Kel. Tampang Tumbang Anjir, Kuala Kurun, Kec. Kurun, Kalimantan Tengah 74571","Letjen Soeprapto No. 56. Kel. Tampang Tumbang Anjir, Kuala Kurun, Kec. Kurun",KALIMANTAN TENGAH,74571.0,Indonesia,818232021.0,,,-1.1135707,113.8635964,https://maps.google.com/?cid=0x0:0x215fe2044d7374a8,
hotel,hotel,Losmen Karunia,"P8HQ+WQR, Pegatan Hilir, Kec. Katingan Kuala, Kabupaten Katingan, Kalimantan Tengah 74463","Pegatan Hilir, Kec. Katingan Kuala, Kabupaten Katingan",KALIMANTAN TENGAH,74463.0,Indonesia,,,,-3.2701382,113.3393974,https://maps.google.com/?cid=0x0:0xce3d4ec99c2b7e05,
hotel,hotel,Adelin Hotel,"Jl. Cilik Riwut No.12B, Kuala Kurun, Kec. Kurun, Kabupaten Gunung MAS, Kalimantan Tengah 74571","Kuala Kurun, Kec. Kurun, Kabupaten Gunung MAS",KALIMANTAN TENGAH,74571.0,Indonesia,81345165626.0,,,-1.1036722,113.8566318,https://maps.google.com/?cid=0x0:0xa8eb8498f9d5f327,
hotel,hotel,Hotel Zefanya,"VVM6+264, Jl. Letjend Soeprapto, Tampang Tumbang Anjir, Kec. Kurun, Kabupaten Gunung MAS, Kalimantan Tengah 74571","Jl. Letjend Soeprapto, Tampang Tumbang Anjir, Kec. Kurun, Kabupaten Gunung MAS",KALIMANTAN TENGAH,74571.0,Indonesia,82255755969.0,,,-1.1174859,113.8605696,https://maps.google.com/?cid=0x0:0x3f8eb88a80cb2956,
hotel,hotel,Hotel YUS,"Jalan Kalikasa, Parenggean, Kec. Parenggean, Kabupaten Kotawaringin Timur, Kalimantan Tengah","Kabupaten Kotawaringin Timur, Kalimantan Tengah",KALIMANTAN TENGAH,,Indonesia,82324360707.0,,,-2.0154695,112.7826059,https://maps.google.com/?cid=0x0:0x3d6ad29ab9a2eb0d,
hotel,hotel,Hotel Lising,"WV37+QQ3, Kuala Kurun, Kec. Kurun, Kabupaten Gunung MAS, Kalimantan Tengah 74571","Kuala Kurun, Kec. Kurun, Kabupaten Gunung MAS",KALIMANTAN TENGAH,74571.0,Indonesia,53731196.0,,,-1.0956213,113.8644246,https://maps.google.com/?cid=0x0:0x8ea733ca231a9bb8,
hotel,hotel,MESS PEMKAB SUKAMARA,"Pahandut, Kec. Jekan Raya, Kota Palangka Raya, Kalimantan Tengah 74874","Kec. Jekan Raya, Kota Palangka Raya",KALIMANTAN TENGAH,74874.0,Indonesia,2129707601.0,,,-2.2070625,113.9390625,https://maps.google.com/?cid=0x0:0x862b192766446113,
hotel,hotel,Kec. Manuhing Raya,"Kabupaten Gunung MAS, Kalimantan Tengah","Kabupaten Gunung MAS, Kalimantan Tengah",KALIMANTAN TENGAH,,Indonesia,,,,-1.2093562,113.3161023,https://maps.google.com/?cid=0x0:0xf4826c03ebd0940e,
hotel,Bed >>u0026 Breakfast,Penginapan GRACE Tumbang Talaken,"Tumbang Talaken, Kec. Manuhing, Kabupaten Gunung MAS, Kalimantan Tengah 74562","Kec. Manuhing, Kabupaten Gunung MAS",KALIMANTAN TENGAH,74562.0,Indonesia,85252718588.0,,,-1.3544943,113.3811043,https://maps.google.com/?cid=0x0:0xc4a56dfa1742f9ec,
hotel,Hotel,WISMA ANSHEL,"J9VH+4V8, Tumbang Talaken, Kec. Manuhing, Kabupaten Gunung MAS, Kalimantan Tengah","Kabupaten Gunung MAS, Kalimantan Tengah",KALIMANTAN TENGAH,,Indonesia,85169981293.0,,,-1.35699,113.379665,https://maps.google.com/?cid=0x0:0x80062835e0f2bfbe,
hotel,hotel,Hotel Zefanya,"VVM6+264, Jl. Letjend Soeprapto, Tampang Tumbang Anjir, Kec. Kurun, Kabupaten Gunung MAS, Kalimantan Tengah 74571","Jl. Letjend Soeprapto, Tampang Tumbang Anjir, Kec. Kurun, Kabupaten Gunung MAS",KALIMANTAN TENGAH,74571.0,Indonesia,82255755969.0,,,-1.1174859,113.8605696,https://maps.google.com/?cid=0x0:0x3f8eb88a80cb2956,
hotel,hotel,Hotel Lising,"WV37+QQ3, Kuala Kurun, Kec. Kurun, Kabupaten Gunung MAS, Kalimantan Tengah 74571","Kuala Kurun, Kec. Kurun, Kabupaten Gunung MAS",KALIMANTAN TENGAH,74571.0,Indonesia,53731196.0,,,-1.0956213,113.8644246,https://maps.google.com/?cid=0x0:0x8ea733ca231a9bb8,
hotel,hotel,Kalimantan Tengah 74571,"Kabupaten Gunung MAS, Kalimantan Tengah","Kabupaten Gunung MAS, Kalimantan Tengah",KALIMANTAN TENGAH,,Indonesia,,,,-1.1433424,113.9060624,https://maps.google.com/?cid=0x0:0x7dbb143be4104e8e,
hotel,hotel,"Wisma Apollo Kuala Kurun (Penginapan, Hotel, Guest House, Homestay, Staycation)","Jl, Letjen Soeprapto No. 56. Kel. Tampang Tumbang Anjir, Kuala Kurun, Kec. Kurun, Kalimantan Tengah 74571","Letjen Soeprapto No. 56. Kel. Tampang Tumbang Anjir, Kuala Kurun, Kec. Kurun",KALIMANTAN TENGAH,74571.0,Indonesia,818232021.0,,,-1.1135707,113.8635964,https://maps.google.com/?cid=0x0:0x215fe2044d7374a8,
hotel,hotel,Adelin Hotel,"Jl. Cilik Riwut No.12B, Kuala Kurun, Kec. Kurun, Kabupaten Gunung MAS, Kalimantan Tengah 74571","Kuala Kurun, Kec. Kurun, Kabupaten Gunung MAS",KALIMANTAN TENGAH,74571.0,Indonesia,81345165626.0,,,-1.1036722,113.8566318,https://maps.google.com/?cid=0x0:0xa8eb8498f9d5f327,
hotel,hotel,OYO 92224 Hotel Tris,"62, Kuala Kurun, Kalimantan Tengah 74571",Kuala Kurun,KALIMANTAN TENGAH,74571.0,Indonesia,2129707601.0,,,-1.0643521,113.8941657,https://maps.google.com/?cid=0x0:0x6507756fb77c6f9d,
hotel,hotel,Hotel Lising,"WV37+QQ3, Kuala Kurun, Kec. Kurun, Kabupaten Gunung MAS, Kalimantan Tengah 74571","Kuala Kurun, Kec. Kurun, Kabupaten Gunung MAS",KALIMANTAN TENGAH,74571.0,Indonesia,53731196.0,,,-1.0956213,113.8644246,https://maps.google.com/?cid=0x0:0x8ea733ca231a9bb8,
hotel,hotel,Kalimantan Tengah 74553,"Kabupaten Gunung MAS, Kalimantan Tengah","Kabupaten Gunung MAS, Kalimantan Tengah",KALIMANTAN TENGAH,,Indonesia,,,,-0.5866559,113.429984,https://maps.google.com/?cid=0x0:0x7f9e14ce7cf9d71f,
hotel,hotel,M Bahalap Hotel,"Km.1,3, Jl. RTA Milono, Menteng, Kec. Jekan Raya, Kota Palangka Raya, Kalimantan Tengah 73111","Jl. RTA Milono, Menteng, Kec. Jekan Raya, Kota Palangka Raya",KALIMANTAN TENGAH,73111.0,Indonesia,5364268555.0,,,-2.2246946,113.9197978,https://maps.google.com/?cid=0x0:0x1fe3e6c10c500140,
hotel,hotel,Aquarius Boutique Hotel,"Jl. Imam Bonjol No.5, Menteng, Kec. Jekan Raya, Kota Palangka Raya, Kalimantan Tengah 73111","Menteng, Kec. Jekan Raya, Kota Palangka Raya",KALIMANTAN TENGAH,73111.0,Indonesia,5363242121.0,,,-2.2105669,113.9175037,https://maps.google.com/?cid=0x0:0xc3e95a12bbb88b5f,
hotel,Bandara,Bandar Udara Tjilik Riwut (PKY),"Jl. Adonis Samad, Panarung, Kec. Pahandut, Kota Palangka Raya, Kalimantan Tengah 73111","Panarung, Kec. Pahandut, Kota Palangka Raya",KALIMANTAN TENGAH,73111.0,Indonesia,,,,-2.2314775,113.9486071,https://maps.google.com/?cid=0x0:0x14705b80aa47d6aa,
hotel,hotel,Air Terjun Sahai,"5H92+Q63, Tumbang Lapan, Miri Manasa, Kabupaten Gunung MAS, Kalimantan Tengah 74555","Tumbang Lapan, Miri Manasa, Kabupaten Gunung MAS",KALIMANTAN TENGAH,74555.0,Indonesia,,,,-0.830619,113.550544,https://maps.google.com/?cid=0x0:0x63fb8dbcb9b096a9,
hotel,hotel,Rungan Sari Meeting Center  Resort,"Jl. Tjilik Riwut Km 36, Sei Gohong, Palangka Raya, 73225",Sei Gohong,KALIMANTAN TENGAH,73225.0,Indonesia,5364210677.0,,,-1.9718275,113.7445051,https://maps.google.com/?cid=0x0:0x92a70f69501efeb4,
hotel,Tujuan Wisata,Taman Wisata Alam Bukit Tangkiling,"2Q23+H94, Banturung, Kec. Bukit Batu, Kota Palangka Raya, Kalimantan Tengah 73112","Banturung, Kec. Bukit Batu, Kota Palangka Raya",KALIMANTAN TENGAH,73112.0,Indonesia,,,,-1.9986201,113.75346,https://maps.google.com/?cid=0x0:0x58827bd130bff911,
hotel,hotel,Miri Manasa,"Kabupaten Gunung MAS, Kalimantan Tengah","Kabupaten Gunung MAS, Kalimantan Tengah",KALIMANTAN TENGAH,,Indonesia,,,,-0.5858075,113.6204644,https://maps.google.com/?cid=0x0:0x9f8a09c1f677910f,
hotel,hotel,Ajang Hotel,"Jalan Sri Dagang, 98000 Miri, Sarawak, Malaysia",Miri,KALIMANTAN TENGAH,98000.0,Indonesia,6085433173.0,,,4.397621,113.985704,https://maps.google.com/?cid=0x0:0x5d52452526776fe5,
hotel,hotel,,,,KALIMANTAN TENGAH,,Indonesia,,,,,,https://maps.google.com/?cid=0x0:0x5d52452526776fe5%7C/g/11b66b6tnj%7Cen-ID,
hotel,hotel,Super OYO 976 Dragon Inn,"355, Jalan Sim Cheng Kay, 98000 Miri, Sarawak, Malaysia",Miri,KALIMANTAN TENGAH,98000.0,Indonesia,60350378296.0,,,4.3984458,113.9883782,https://maps.google.com/?cid=0x0:0xe84868beb94c14fd,
hotel,hotel,Venice Inn,"Lot 1137, Block 9, MCLD Waterfront Commercial Centre, 98000 Miri, Malaysia",Miri,KALIMANTAN TENGAH,98000.0,Indonesia,6085433200.0,,,4.3961559,113.9857564,https://maps.google.com/?cid=0x0:0x5fffd77773e67ab1,
hotel,hotel,HK Inn (HUA KIEW INN),"621, Jalan Serdang, Block 9, Jalan Sim Cheng Kay, MCLD, 98000 Miri, Sarawak, Malaysia",Miri,KALIMANTAN TENGAH,98000.0,Indonesia,6085423266.0,,,4.3984292,113.9879583,https://maps.google.com/?cid=0x0:0xf8bb59c98ce9c5e7,
hotel,Bandara,Bandar Udara Miri,"Jalan Airport, 98008 Miri, Sarawak, Malaysia",Miri,KALIMANTAN TENGAH,98008.0,Indonesia,6085615204.0,,,4.3229914,113.9874165,https://maps.google.com/?cid=0x0:0xfac6256ba9c81ebe,
hotel,Tujuan Wisata,The Grand Old Lady - Canada Hill,"98000 Miri, Sarawak, Malaysia",Miri,KALIMANTAN TENGAH,98000.0,Indonesia,60148808711.0,,,4.3888109,113.9950764,https://maps.google.com/?cid=0x0:0x9e99fc2dfbb5bbf0,
hotel,hotel,Kalimantan Tengah 74561,"Kabupaten Gunung MAS, Kalimantan Tengah","Kabupaten Gunung MAS, Kalimantan Tengah",KALIMANTAN TENGAH,,Indonesia,,,,-1.0753907,113.6204644,https://maps.google.com/?cid=0x0:0xe38f858eb863f7d4,
hotel,hotel,Luwansa Hotel Palangka Raya,"Jl. G. Obos No.102, Menteng, Kec. Jekan Raya, Kota Palangka Raya, Kalimantan Tengah 73112","Menteng, Kec. Jekan Raya, Kota Palangka Raya",KALIMANTAN TENGAH,73112.0,Indonesia,8115028280.0,,,-2.2259962,113.8996099,https://maps.google.com/?cid=0x0:0x7a4a991765d151de,
hotel,hotel,,,,KALIMANTAN TENGAH,,Indonesia,,,,,,https://maps.google.com/?cid=0x0:0x7a4a991765d151de%7C/g/1pzs4zfvj%7Cen-ID,
hotel,hotel,,,,KALIMANTAN TENGAH,,Indonesia,,,,,,https://maps.google.com/?cid=0x0:0x7337f66a80408d97%7C/g/11lq71xdfp%7Cen-ID,
hotel,hotel,Rungan Sari Meeting Center  Resort,"Jl. Tjilik Riwut Km 36, Sei Gohong, Palangka Raya, 73225",Sei Gohong,KALIMANTAN TENGAH,73225.0,Indonesia,5364210677.0,,,-1.9718275,113.7445051,https://maps.google.com/?cid=0x0:0x92a70f69501efeb4,
hotel,hotel,Hotel Grand Global,"Jl. Tjilik Riwut No.Km 12, Palangka, Kec. Jekan Raya, Kota Palangka Raya, Kalimantan Tengah 73111","Palangka, Kec. Jekan Raya, Kota Palangka Raya",KALIMANTAN TENGAH,73111.0,Indonesia,5363222888.0,,,-2.2030694,113.9143853,https://maps.google.com/?cid=0x0:0x4baff33e8028df91,
hotel,hotel,"Wisma Apollo Kuala Kurun (Penginapan, Hotel, Guest House, Homestay, Staycation)","Jl, Letjen Soeprapto No. 56. Kel. Tampang Tumbang Anjir, Kuala Kurun, Kec. Kurun, Kalimantan Tengah 74571","Letjen Soeprapto No. 56. Kel. Tampang Tumbang Anjir, Kuala Kurun, Kec. Kurun",KALIMANTAN TENGAH,74571.0,Indonesia,818232021.0,,,-1.1135707,113.8635964,https://maps.google.com/?cid=0x0:0x215fe2044d7374a8,
hotel,hotel,Hotel Batu Suli Internasional,"Jl. Raden Saleh No.4, Menteng, Kec. Jekan Raya, Kota Palangka Raya, Kalimantan Tengah 74874","Menteng, Kec. Jekan Raya, Kota Palangka Raya",KALIMANTAN TENGAH,74874.0,Indonesia,2129707601.0,,,-2.2226962,113.9178728,https://maps.google.com/?cid=0x0:0x64bcb744c56c1241,
hotel,hotel,Horizon,"Sei Pinang, Mandau Talawang, Kabupaten Kapuas, Kalimantan Tengah 74511","Mandau Talawang, Kabupaten Kapuas",KALIMANTAN TENGAH,74511.0,Indonesia,343741476.0,,,-0.789275,113.921327,https://maps.google.com/?cid=0x0:0xabbfb3815684c79b,
hotel,hotel,OYO 92224 Hotel Tris,"62, Kuala Kurun, Kalimantan Tengah 74571",Kuala Kurun,KALIMANTAN TENGAH,74571.0,Indonesia,2129707601.0,,,-1.0643521,113.8941657,https://maps.google.com/?cid=0x0:0x6507756fb77c6f9d,
hotel,hotel,Adelin Hotel,"Jl. Cilik Riwut No.12B, Kuala Kurun, Kec. Kurun, Kabupaten Gunung MAS, Kalimantan Tengah 74571","Kuala Kurun, Kec. Kurun, Kabupaten Gunung MAS",KALIMANTAN TENGAH,74571.0,Indonesia,81345165626.0,,,-1.1036722,113.8566318,https://maps.google.com/?cid=0x0:0xa8eb8498f9d5f327,
hotel,hotel,Hotel Zefanya,"VVM6+264, Jl. Letjend Soeprapto, Tampang Tumbang Anjir, Kec. Kurun, Kabupaten Gunung MAS, Kalimantan Tengah 74571","Jl. Letjend Soeprapto, Tampang Tumbang Anjir, Kec. Kurun, Kabupaten Gunung MAS",KALIMANTAN TENGAH,74571.0,Indonesia,82255755969.0,,,-1.1174859,113.8605696,https://maps.google.com/?cid=0x0:0x3f8eb88a80cb2956,
hotel,hotel,Hotel YUS,"Jalan Kalikasa, Parenggean, Kec. Parenggean, Kabupaten Kotawaringin Timur, Kalimantan Tengah","Kabupaten Kotawaringin Timur, Kalimantan Tengah",KALIMANTAN TENGAH,,Indonesia,82324360707.0,,,-2.0154695,112.7826059,https://maps.google.com/?cid=0x0:0x3d6ad29ab9a2eb0d,
hotel,hotel,Hotel Lising,"WV37+QQ3, Kuala Kurun, Kec. Kurun, Kabupaten Gunung MAS, Kalimantan Tengah 74571","Kuala Kurun, Kec. Kurun, Kabupaten Gunung MAS",KALIMANTAN TENGAH,74571.0,Indonesia,53731196.0,,,-1.0956213,113.8644246,https://maps.google.com/?cid=0x0:0x8ea733ca231a9bb8,
hotel,hotel,OYO 90331 Hotel Toba Shanda,"6W6C+7GP, Parapat, Simalungun, Toba, North Sumatra 21174","Parapat, Simalungun, Toba",KALIMANTAN TENGAH,21174.0,Indonesia,82377518293.0,,,-0.789275,113.921327,https://maps.google.com/?cid=0x0:0xbf17327f1627a1b9,
hotel,hotel,SPOT ON 92179 Latinos House,"1, Bugisan, Klaten, Solo, Central Java 57454","Bugisan, Klaten, Solo",KALIMANTAN TENGAH,57454.0,Indonesia,817788016.0,,,-0.789275,113.921327,https://maps.google.com/?cid=0x0:0x11420d6a736f24ba,
hotel,hotel,Losmen Cantik,"Jl. Halmahera, Pahandut, Kec. Pahandut, Kota Palangka Raya, Kalimantan Tengah 74874","Pahandut, Kec. Pahandut, Kota Palangka Raya",KALIMANTAN TENGAH,74874.0,Indonesia,5363222399.0,,,-2.206017,113.9374212,https://maps.google.com/?cid=0x0:0x3c9ea2930af6c6d7,
hotel,hotel,Nur hidayah,"6W6C+7GP, Sei Pinang, Mandau Talawang, Kabupaten Kapuas, Kalimantan Tengah","Kabupaten Kapuas, Kalimantan Tengah",KALIMANTAN TENGAH,,Indonesia,,,,-0.789275,113.921327,https://maps.google.com/?cid=0x0:0xd690ca62b5094312,
hotel,hotel,,,,KALIMANTAN TENGAH,,Indonesia,,,,,,https://maps.google.com/?cid=0x0:0xe0f331aabf1ac6d6%7C/g/11xf4fmth%7Cen-ID,
hotel,hotel,Swiss-Belhotel Danum Palangka Raya,"Jalan Tjilik Riwut KM.5 No.9, Bukit Tunggal, Kec. Jekan Raya, Kota Palangka Raya, Kalimantan Tengah 73112","Bukit Tunggal, Kec. Jekan Raya, Kota Palangka Raya",KALIMANTAN TENGAH,73112.0,Indonesia,5363232777.0,,,-2.1781035,113.8820243,https://maps.google.com/?cid=0x0:0xe0f331aabf1ac6d6,
hotel,hotel,Losmen Karunia,"P8HQ+WQR, Pegatan Hilir, Kec. Katingan Kuala, Kabupaten Katingan, Kalimantan Tengah 74463","Pegatan Hilir, Kec. Katingan Kuala, Kabupaten Katingan",KALIMANTAN TENGAH,74463.0,Indonesia,,,,-3.2701382,113.3393974,https://maps.google.com/?cid=0x0:0xce3d4ec99c2b7e05,
hotel,hotel,Airy Syariah Tjilik Riwut KM 4 Palangkaraya,"Jl. Tjilik Riwut No.KM. 4, Bukit Tunggal, Kec. Jekan Raya, Kota Palangka Raya, Kalimantan Tengah 74874","Bukit Tunggal, Kec. Jekan Raya, Kota Palangka Raya",KALIMANTAN TENGAH,74874.0,Indonesia,8041112479.0,,,-2.1827468,113.8895211,https://maps.google.com/?cid=0x0:0xfc42faecf8a2698b,
hotel,hotel,Hotel Yanti,"Jl. Ahmad Yani No.82-A, Pahandut, Kec. Pahandut, Kota Palangka Raya, Kalimantan Tengah 74874","Pahandut, Kec. Pahandut, Kota Palangka Raya",KALIMANTAN TENGAH,74874.0,Indonesia,85377066263.0,,,-2.2097602,113.9373026,https://maps.google.com/?cid=0x0:0x1303d6fff30b61f6,
hotel,hotel,,,,KALIMANTAN TENGAH,,Indonesia,,,,,,https://maps.google.com/?cid=0x0:0xfc42faecf8a2698b%7C/g/11gmcftz5v%7Cen-ID,
hotel,hotel,Kec. Rungan Barat,"Kabupaten Gunung MAS, Kalimantan Tengah","Kabupaten Gunung MAS, Kalimantan Tengah",KALIMANTAN TENGAH,,Indonesia,,,,-1.2648058,113.4266094,https://maps.google.com/?cid=0x0:0x96d1b4f9516d2214,
hotel,Hotel,LOSMEN TUNGGAL JAYA,"Jl. CH. LAMBUNG Jl. Tumbang Jutuh, Jakatan Raya, Kec. Rungan, Kabupaten Gunung MAS, Kalimantan Tengah 74561","Jakatan Raya, Kec. Rungan, Kabupaten Gunung MAS",KALIMANTAN TENGAH,74561.0,Indonesia,82227278910.0,,,-1.288605,113.574065,https://maps.google.com/?cid=0x0:0x7722c710cbcb5931,
hotel,Bed >>u0026 Breakfast,Penginapan GRACE Tumbang Talaken,"Tumbang Talaken, Kec. Manuhing, Kabupaten Gunung MAS, Kalimantan Tengah 74562","Kec. Manuhing, Kabupaten Gunung MAS",KALIMANTAN TENGAH,74562.0,Indonesia,85252718588.0,,,-1.3544943,113.3811043,https://maps.google.com/?cid=0x0:0xc4a56dfa1742f9ec,
hotel,hotel,Kec. Rungan Barat,"Kabupaten Gunung MAS, Kalimantan Tengah","Kabupaten Gunung MAS, Kalimantan Tengah",KALIMANTAN TENGAH,,Indonesia,,,,-1.2648058,113.4266094,https://maps.google.com/?cid=0x0:0x96d1b4f9516d2214,
hotel,Hotel,LOSMEN TUNGGAL JAYA,"Jl. CH. LAMBUNG Jl. Tumbang Jutuh, Jakatan Raya, Kec. Rungan, Kabupaten Gunung MAS, Kalimantan Tengah 74561","Jakatan Raya, Kec. Rungan, Kabupaten Gunung MAS",KALIMANTAN TENGAH,74561.0,Indonesia,82227278910.0,,,-1.288605,113.574065,https://maps.google.com/?cid=0x0:0x7722c710cbcb5931,
hotel,Bed >>u0026 Breakfast,Penginapan GRACE Tumbang Talaken,"Tumbang Talaken, Kec. Manuhing, Kabupaten Gunung MAS, Kalimantan Tengah 74562","Kec. Manuhing, Kabupaten Gunung MAS",KALIMANTAN TENGAH,74562.0,Indonesia,85252718588.0,,,-1.3544943,113.3811043,https://maps.google.com/?cid=0x0:0xc4a56dfa1742f9ec,
hotel,hotel,Kec. Rungan Hulu,"Kabupaten Gunung MAS, Kalimantan Tengah","Kabupaten Gunung MAS, Kalimantan Tengah",KALIMANTAN TENGAH,,Indonesia,,,,-1.0312568,113.4736811,https://maps.google.com/?cid=0x0:0x83eaf2f915027506,
hotel,Hotel,LOSMEN TUNGGAL JAYA,"Jl. CH. LAMBUNG Jl. Tumbang Jutuh, Jakatan Raya, Kec. Rungan, Kabupaten Gunung MAS, Kalimantan Tengah 74561","Jakatan Raya, Kec. Rungan, Kabupaten Gunung MAS",KALIMANTAN TENGAH,74561.0,Indonesia,82227278910.0,,,-1.288605,113.574065,https://maps.google.com/?cid=0x0:0x7722c710cbcb5931,
hotel,Hotel,Hotel Purnama,"WPXG+CVM, Gunung Mase, Kec. Tewah, Kabupaten Gunung MAS, Kalimantan Tengah 74511","Gunung Mase, Kec. Tewah, Kabupaten Gunung MAS",KALIMANTAN TENGAH,74511.0,Indonesia,82350017416.0,,,-1.0514139,113.7271824,https://maps.google.com/?cid=0x0:0xd70fbb3cbe387869,
hotel,hotel,M Bahalap Hotel,"Km.1,3, Jl. RTA Milono, Menteng, Kec. Jekan Raya, Kota Palangka Raya, Kalimantan Tengah 73111","Jl. RTA Milono, Menteng, Kec. Jekan Raya, Kota Palangka Raya",KALIMANTAN TENGAH,73111.0,Indonesia,5364268555.0,,,-2.2246946,113.9197978,https://maps.google.com/?cid=0x0:0x1fe3e6c10c500140,
hotel,hotel,Aquarius Boutique Hotel,"Jl. Imam Bonjol No.5, Menteng, Kec. Jekan Raya, Kota Palangka Raya, Kalimantan Tengah 73111","Menteng, Kec. Jekan Raya, Kota Palangka Raya",KALIMANTAN TENGAH,73111.0,Indonesia,5363242121.0,,,-2.2105669,113.9175037,https://maps.google.com/?cid=0x0:0xc3e95a12bbb88b5f,
hotel,Restoran,Jembatan Kahayan,"QWXC+4PF, Jalan Kapten Piere Tendean, Palangka, Pahandut, Palangka, Kec. Jekan Raya, Kota Palangka Raya, Kalimantan Tengah 74874","Jalan Kapten Piere Tendean, Palangka, Pahandut, Palangka, Kec. Jekan Raya, Kota Palangka Raya",KALIMANTAN TENGAH,74874.0,Indonesia,,,,-2.2021949,113.9218082,https://maps.google.com/?cid=0x0:0x6c50094b628085b5,
hotel,China,Chinese Food Restaurant M Bahalap,"QWG9+4WR, Jl. RTA Milono, Langkai, Kec. Jekan Raya, Kota Palangka Raya, Kalimantan Tengah 74874","Jl. RTA Milono, Langkai, Kec. Jekan Raya, Kota Palangka Raya",KALIMANTAN TENGAH,74874.0,Indonesia,5364268555.0,,,-2.2246462,113.919767,https://maps.google.com/?cid=0x0:0x9f7b5e6287520a1f,
hotel,hotel,Kalimantan Tengah 74552,Kalimantan Tengah,Kalimantan Tengah,KALIMANTAN TENGAH,,Indonesia,,,,-0.7250328,113.6204644,https://maps.google.com/?cid=0x0:0xb94d62208c0f5814,
hotel,hotel,Horizon,"Sei Pinang, Mandau Talawang, Kabupaten Kapuas, Kalimantan Tengah 74511","Mandau Talawang, Kabupaten Kapuas",KALIMANTAN TENGAH,74511.0,Indonesia,343741476.0,,,-0.789275,113.921327,https://maps.google.com/?cid=0x0:0xabbfb3815684c79b,
hotel,hotel,Adelin Hotel,"Jl. Cilik Riwut No.12B, Kuala Kurun, Kec. Kurun, Kabupaten Gunung MAS, Kalimantan Tengah 74571","Kuala Kurun, Kec. Kurun, Kabupaten Gunung MAS",KALIMANTAN TENGAH,74571.0,Indonesia,81345165626.0,,,-1.1036722,113.8566318,https://maps.google.com/?cid=0x0:0xa8eb8498f9d5f327,
hotel,hotel,Hotel YUS,"Jalan Kalikasa, Parenggean, Kec. Parenggean, Kabupaten Kotawaringin Timur, Kalimantan Tengah","Kabupaten Kotawaringin Timur, Kalimantan Tengah",KALIMANTAN TENGAH,,Indonesia,82324360707.0,,,-2.0154695,112.7826059,https://maps.google.com/?cid=0x0:0x3d6ad29ab9a2eb0d,
hotel,hotel,OYO 90331 Hotel Toba Shanda,"6W6C+7GP, Parapat, Simalungun, Toba, North Sumatra 21174","Parapat, Simalungun, Toba",KALIMANTAN TENGAH,21174.0,Indonesia,82377518293.0,,,-0.789275,113.921327,https://maps.google.com/?cid=0x0:0xbf17327f1627a1b9,
hotel,hotel,SPOT ON 92179 Latinos House,"1, Bugisan, Klaten, Solo, Central Java 57454","Bugisan, Klaten, Solo",KALIMANTAN TENGAH,57454.0,Indonesia,817788016.0,,,-0.789275,113.921327,https://maps.google.com/?cid=0x0:0x11420d6a736f24ba,
hotel,hotel,Nur hidayah,"6W6C+7GP, Sei Pinang, Mandau Talawang, Kabupaten Kapuas, Kalimantan Tengah","Kabupaten Kapuas, Kalimantan Tengah",KALIMANTAN TENGAH,,Indonesia,,,,-0.789275,113.921327,https://maps.google.com/?cid=0x0:0xd690ca62b5094312,
hotel,Hotel,Hotel Purnama,"WPXG+CVM, Gunung Mase, Kec. Tewah, Kabupaten Gunung MAS, Kalimantan Tengah 74511","Gunung Mase, Kec. Tewah, Kabupaten Gunung MAS",KALIMANTAN TENGAH,74511.0,Indonesia,82350017416.0,,,-1.0514139,113.7271824,https://maps.google.com/?cid=0x0:0xd70fbb3cbe387869,
hotel,Hotel,Hotel Gunung Mas,"WV29+7C3, Kuala Kurun, Kec. Kurun, Kabupaten Gunung MAS, Kalimantan Tengah 74571","Kuala Kurun, Kec. Kurun, Kabupaten Gunung MAS",KALIMANTAN TENGAH,74571.0,Indonesia,,,,-1.0994317,113.86851,https://maps.google.com/?cid=0x0:0x6acdd6e5841fb52,
restaurant,restaurant,Kalimantan Tengah 74553,"Kabupaten Gunung MAS, Kalimantan Tengah","Kabupaten Gunung MAS, Kalimantan Tengah",KALIMANTAN TENGAH,,Indonesia,,,,-0.5866559,113.429984,https://maps.google.com/?cid=0x0:0x7f9e14ce7cf9d71f,
restaurant,Toko umum,Cafe/Warung Indu Hendri(Turi Marikoi),"4F25+5QC, Tumbang Marikoi, Damang Batu, Kabupaten Gunung MAS, Kalimantan Tengah","Kabupaten Gunung MAS, Kalimantan Tengah",KALIMANTAN TENGAH,,Indonesia,81256123957.0,,,-0.8996989,113.4601788,https://maps.google.com/?cid=0x0:0xc6e858ef1b6c7f89,
restaurant,Tujuan Wisata,Warung Bu Yuni,"9CM9+8P8, Tumbang Mahuroi, Damang Batu, Kabupaten Gunung MAS, Kalimantan Tengah 74553","Tumbang Mahuroi, Damang Batu, Kabupaten Gunung MAS",KALIMANTAN TENGAH,74553.0,Indonesia,8581157445.0,,,-0.6167225,113.4193365,https://maps.google.com/?cid=0x0:0xb879c63ffc4c54ce,
restaurant,Brunch,Warung makan mama zalfa,"3HJ2+QC2, Unnamed Road, Tumbang Miri, Kec. Kahayan Hulu Utara, Kabupaten Gunung MAS, Kalimantan Tengah 74561","Unnamed Road, Tumbang Miri, Kec. Kahayan Hulu Utara, Kabupaten Gunung MAS",KALIMANTAN TENGAH,74561.0,Indonesia,81346555891.0,,,-0.9181224,113.5510149,https://maps.google.com/?cid=0x0:0xc0c00dcabe81dda7,
restaurant,Layanan Transfer Uang,Agen Brilink UD Kenzho Kenzhi,"3HM2+H6P, Unnamed Road, Dandang, Kec. Kahayan Hulu Utara, Kabupaten Gunung MAS, Kalimantan Tengah 74561","Unnamed Road, Dandang, Kec. Kahayan Hulu Utara, Kabupaten Gunung MAS",KALIMANTAN TENGAH,74561.0,Indonesia,85258022346.0,,,-0.9160413,113.550579,https://maps.google.com/?cid=0x0:0xbcd6dfc554345b2c,
restaurant,Brunch,Warung Makan Surya Lamongan,"3GMP+3W7, Dandang, Kec. Kahayan Hulu Utara, Kabupaten Gunung MAS, Kalimantan Tengah 74561","Dandang, Kec. Kahayan Hulu Utara, Kabupaten Gunung MAS",KALIMANTAN TENGAH,74561.0,Indonesia,,,,-0.917333,113.5373041,https://maps.google.com/?cid=0x0:0xdf5a901a0919a1e5,
restaurant,Toko bahan makanan,RM Alminang,"3GJP+HPR, Unnamed Road, Dandang, Kec. Kahayan Hulu Utara, Kabupaten Gunung MAS, Kemiri, Kalimantan Tengah 74561","Unnamed Road, Dandang, Kec. Kahayan Hulu Utara, Kabupaten Gunung MAS, Kemiri",KALIMANTAN TENGAH,74561.0,Indonesia,83171332524.0,,,-0.9185625,113.5368125,https://maps.google.com/?cid=0x0:0x28aa7e6509eeb217,
restaurant,Rumah Makan,Warung Pinunjul Berkah,"3G6V+36P, Tumbang Miri, Kec. Kahayan Hulu Utara, Kabupaten Gunung MAS, Kalimantan Tengah 74561","Tumbang Miri, Kec. Kahayan Hulu Utara, Kabupaten Gunung MAS",KALIMANTAN TENGAH,74561.0,Indonesia,82147366308.0,,,-0.9397929,113.5430891,https://maps.google.com/?cid=0x0:0x5d3d570f14b74871,
restaurant,Restoran,Warung Makan Mas Bro,"3HJ2+M9P, Tumbang Miri, Kec. Kahayan Hulu Utara, Kabupaten Gunung MAS, Kalimantan Tengah 74561","Tumbang Miri, Kec. Kahayan Hulu Utara, Kabupaten Gunung MAS",KALIMANTAN TENGAH,74561.0,Indonesia,,,,-0.9182884,113.5509619,https://maps.google.com/?cid=0x0:0x8cf6e6f28b053f50,
restaurant,restaurant,KEDAI PEMPEK RADEN INTON,"jalan batin purba No.desa, Pagar Dewa, kecamatan warkuk, tanau selatan, Sumatera Selatan","tanau selatan, Sumatera Selatan",KALIMANTAN TENGAH,,Indonesia,85268638387.0,,,-0.846869,113.205415,https://maps.google.com/?cid=0x0:0xa1d834c204a31ba1,
restaurant,Jus,Joglo Lumintu,"QVCG+F85, Menteng, Kec. Jekan Raya, Kota Palangka Raya, Kalimantan Tengah 74874","Menteng, Kec. Jekan Raya, Kota Palangka Raya",KALIMANTAN TENGAH,74874.0,Indonesia,81349091799.0,,,-2.2289783,113.8759681,https://maps.google.com/?cid=0x0:0x5f16991192cfdc34,
restaurant,Toko bahan makanan,"Warung makan bakso inta, toko peralatan rumah","3GJP+HPR, Unnamed Road, Dandang, Kec. Kahayan Hulu Utara, Kabupaten Gunung MAS, Kalimantan Tengah 74561","Unnamed Road, Dandang, Kec. Kahayan Hulu Utara, Kabupaten Gunung MAS",KALIMANTAN TENGAH,74561.0,Indonesia,,,,-0.9185067,113.536765,https://maps.google.com/?cid=0x0:0x5352fe6aeac42fd3,
restaurant,Rumah Makan,Dapur Galuh Resto,"18, Jl. A. Yani No.Km, RW.7, Landasan Ulin Bar., Kec. Liang Anggang, Kabupaten Banjar, Kalimantan Selatan 70722","Jl. A. Yani No.Km, RW.7, Landasan Ulin Bar., Kec. Liang Anggang, Kabupaten Banjar",KALIMANTAN TENGAH,70722.0,Indonesia,5114707111.0,,,-3.4373872,114.692042,https://maps.google.com/?cid=0x0:0x57c04f7562c30382,
restaurant,Restoran,Dapoer Omah Palangkaraya,"Jl. Yos Sudarso Jl. Yos Sudarso XV, Menteng, Kec. Jekan Raya, Kota Palangka Raya, Kalimantan Tengah 73111","Menteng, Kec. Jekan Raya, Kota Palangka Raya",KALIMANTAN TENGAH,73111.0,Indonesia,82189811281.0,,,-2.2290348,113.8759156,https://maps.google.com/?cid=0x0:0x82b671f5623f52db,
restaurant,restaurant,Warung sate bang tolib,"JM36+QCM, Tumbang Naan, Seribu Riam, Kabupaten Murung Raya, Kalimantan Tengah","Kabupaten Murung Raya, Kalimantan Tengah",KALIMANTAN TENGAH,,Indonesia,,,,-0.3955389,113.6610438,https://maps.google.com/?cid=0x0:0x6739e0bf05a2bd89,
restaurant,restaurant,Cafe simpang 4marikoi,"5C4X+94X, Tumbang Marikoi, Damang Batu, Kabupaten Gunung MAS, Kalimantan Tengah","Kabupaten Gunung MAS, Kalimantan Tengah",KALIMANTAN TENGAH,,Indonesia,,,,-0.8440195,113.4478441,https://maps.google.com/?cid=0x0:0x90fd1fd0772f857e,
restaurant,Rumah Makan,Rumah makan Damang Batu,"Jl. Temanggung Tilung, sebelah indomaret, Kec. Jekan Raya, Kota Palangka Raya, Kalimantan Tengah 74874","sebelah indomaret, Kec. Jekan Raya, Kota Palangka Raya",KALIMANTAN TENGAH,74874.0,Indonesia,82211474470.0,,,-2.2324181,113.9081819,https://maps.google.com/?cid=0x0:0x65244b942517dc0a,
restaurant,Brunch,SNS fried Chicken,"3HJ2+M97, Tumbang Miri, Kec. Kahayan Hulu Utara, Kabupaten Gunung MAS, Kalimantan Tengah 74561","Tumbang Miri, Kec. Kahayan Hulu Utara, Kabupaten Gunung MAS",KALIMANTAN TENGAH,74561.0,Indonesia,,,,-0.9183375,113.5509219,https://maps.google.com/?cid=0x0:0x6733175f2dc6d154,
restaurant,restaurant,Kec. Kahayan Hulu Utara,"Kabupaten Gunung MAS, Kalimantan Tengah","Kabupaten Gunung MAS, Kalimantan Tengah",KALIMANTAN TENGAH,,Indonesia,,,,-0.9242953,113.5532855,https://maps.google.com/?cid=0x0:0x47258147014c232a,
restaurant,Brunch,Warung Makan Surya Lamongan,"3GMP+3W7, Dandang, Kec. Kahayan Hulu Utara, Kabupaten Gunung MAS, Kalimantan Tengah 74561","Dandang, Kec. Kahayan Hulu Utara, Kabupaten Gunung MAS",KALIMANTAN TENGAH,74561.0,Indonesia,,,,-0.917333,113.5373041,https://maps.google.com/?cid=0x0:0xdf5a901a0919a1e5,
restaurant,Brunch,Warung makan mama zalfa,"3HJ2+QC2, Unnamed Road, Tumbang Miri, Kec. Kahayan Hulu Utara, Kabupaten Gunung MAS, Kalimantan Tengah 74561","Unnamed Road, Tumbang Miri, Kec. Kahayan Hulu Utara, Kabupaten Gunung MAS",KALIMANTAN TENGAH,74561.0,Indonesia,81346555891.0,,,-0.9181224,113.5510149,https://maps.google.com/?cid=0x0:0xc0c00dcabe81dda7,
restaurant,Restoran,Warung Makan Mas Bro,"3HJ2+M9P, Tumbang Miri, Kec. Kahayan Hulu Utara, Kabupaten Gunung MAS, Kalimantan Tengah 74561","Tumbang Miri, Kec. Kahayan Hulu Utara, Kabupaten Gunung MAS",KALIMANTAN TENGAH,74561.0,Indonesia,,,,-0.9182884,113.5509619,https://maps.google.com/?cid=0x0:0x8cf6e6f28b053f50,
restaurant,Restoran,Warung Makan Mama Grant,"3GHX+PWR, Tumbang Miri, Kec. Kahayan Hulu Utara, Kabupaten Gunung MAS, Kalimantan Tengah 74561","Tumbang Miri, Kec. Kahayan Hulu Utara, Kabupaten Gunung MAS",KALIMANTAN TENGAH,74561.0,Indonesia,85348503234.0,,,-0.9206333,113.5497774,https://maps.google.com/?cid=0x0:0x3283cb86ce7e045d,
restaurant,Toko bahan makanan,RM Alminang,"3GJP+HPR, Unnamed Road, Dandang, Kec. Kahayan Hulu Utara, Kabupaten Gunung MAS, Kemiri, Kalimantan Tengah 74561","Unnamed Road, Dandang, Kec. Kahayan Hulu Utara, Kabupaten Gunung MAS, Kemiri",KALIMANTAN TENGAH,74561.0,Indonesia,83171332524.0,,,-0.9185625,113.5368125,https://maps.google.com/?cid=0x0:0x28aa7e6509eeb217,
restaurant,Brunch,SNS fried Chicken,"3HJ2+M97, Tumbang Miri, Kec. Kahayan Hulu Utara, Kabupaten Gunung MAS, Kalimantan Tengah 74561","Tumbang Miri, Kec. Kahayan Hulu Utara, Kabupaten Gunung MAS",KALIMANTAN TENGAH,74561.0,Indonesia,,,,-0.9183375,113.5509219,https://maps.google.com/?cid=0x0:0x6733175f2dc6d154,
restaurant,Kafe,OREGANO (Coffee and Resto),"Jl. Kinibalu No.120, Palangka, Kec. Jekan Raya, Kota Palangka Raya, Kalimantan Tengah 74874","Palangka, Kec. Jekan Raya, Kota Palangka Raya",KALIMANTAN TENGAH,74874.0,Indonesia,,,,-2.2040253,113.9065039,https://maps.google.com/?cid=0x0:0x7bc321615a8f2b27,
restaurant,Toko bahan makanan,"Warung makan bakso inta, toko peralatan rumah","3GJP+HPR, Unnamed Road, Dandang, Kec. Kahayan Hulu Utara, Kabupaten Gunung MAS, Kalimantan Tengah 74561","Unnamed Road, Dandang, Kec. Kahayan Hulu Utara, Kabupaten Gunung MAS",KALIMANTAN TENGAH,74561.0,Indonesia,,,,-0.9185067,113.536765,https://maps.google.com/?cid=0x0:0x5352fe6aeac42fd3,
restaurant,Toko umum,Cafe/Warung Indu Hendri(Turi Marikoi),"4F25+5QC, Tumbang Marikoi, Damang Batu, Kabupaten Gunung MAS, Kalimantan Tengah","Kabupaten Gunung MAS, Kalimantan Tengah",KALIMANTAN TENGAH,,Indonesia,81256123957.0,,,-0.8996989,113.4601788,https://maps.google.com/?cid=0x0:0xc6e858ef1b6c7f89,
restaurant,Kedai Kopi,sucipto,"3GHX+PWR, Tumbang Miri, Kec. Kahayan Hulu Utara, Kabupaten Gunung MAS, Kalimantan Tengah 74561","Tumbang Miri, Kec. Kahayan Hulu Utara, Kabupaten Gunung MAS",KALIMANTAN TENGAH,74561.0,Indonesia,,,,-0.9203722,113.5493992,https://maps.google.com/?cid=0x0:0x1980971435dbe0e1,
restaurant,Apartemen sewa liburan,Wisma Kahayan Restaurant  Hall,"Jl. H.M. Arsyad No.08, Mentawa Baru Hilir, Kec. Mentawa Baru Ketapang, Kabupaten Kotawaringin Timur, Kalimantan Tengah 74321","Mentawa Baru Hilir, Kec. Mentawa Baru Ketapang, Kabupaten Kotawaringin Timur",KALIMANTAN TENGAH,74321.0,Indonesia,82256552167.0,,,-2.5458014,112.9493089,https://maps.google.com/?cid=0x0:0xf6c9b77ca2846b79,
restaurant,Restoran,La'SARAI Cafe  Resto,"Jl. M.H. Thamrin No.7 Blok.D, Menteng, Kec. Pahandut, Kota Palangka Raya, Kalimantan Tengah 74874","Menteng, Kec. Pahandut, Kota Palangka Raya",KALIMANTAN TENGAH,74874.0,Indonesia,5364265961.0,,,-2.2133882,113.9138232,https://maps.google.com/?cid=0x0:0x452437eb76f9e563,
restaurant,Layanan Transfer Uang,Agen Brilink UD Kenzho Kenzhi,"3HM2+H6P, Unnamed Road, Dandang, Kec. Kahayan Hulu Utara, Kabupaten Gunung MAS, Kalimantan Tengah 74561","Unnamed Road, Dandang, Kec. Kahayan Hulu Utara, Kabupaten Gunung MAS",KALIMANTAN TENGAH,74561.0,Indonesia,85258022346.0,,,-0.9160413,113.550579,https://maps.google.com/?cid=0x0:0xbcd6dfc554345b2c,
restaurant,Mi,Bakso Gaul,"XP4C+6XR, Jl. Perintis, Tewah, Kec. Tewah, Kabupaten Gunung MAS, Kalimantan Tengah 74511","Jl. Perintis, Tewah, Kec. Tewah, Kabupaten Gunung MAS",KALIMANTAN TENGAH,74511.0,Indonesia,,,,-1.0443783,113.7224056,https://maps.google.com/?cid=0x0:0xf92984b0e72f8cbb,
restaurant,Kafe,EFELIN CAFE DAN ISI ULANG AIR MINUM,"Jl. Gunung Mas, 74511, Tewah, Kec. Tewah, Kabupaten Gunung MAS, Kalimantan Tengah 74511","74511, Tewah, Kec. Tewah, Kabupaten Gunung MAS",KALIMANTAN TENGAH,74511.0,Indonesia,81351688307.0,,,-1.0572586,113.7270423,https://maps.google.com/?cid=0x0:0xe03eeb7eb97ac29b,
restaurant,Bakso,Muhamad Gafar,"Jl. Perintis No.63, Tewah, Kec. Tewah, Kabupaten Gunung MAS, Kalimantan Tengah 74552","Tewah, Kec. Tewah, Kabupaten Gunung MAS",KALIMANTAN TENGAH,74552.0,Indonesia,82252110435.0,,,-1.0349498,113.7271763,https://maps.google.com/?cid=0x0:0x9044604834b9548b,
restaurant,Rumah Makan,Warung Jago Terapung Dermaga Flamboyan,"QWVH+PF9, Jl. Flamboyant, Langkai, Kec. Pahandut, Kota Palangka Raya, Kalimantan Tengah 74874","Jl. Flamboyant, Langkai, Kec. Pahandut, Kota Palangka Raya",KALIMANTAN TENGAH,74874.0,Indonesia,,,,-2.2057045,113.9287196,https://maps.google.com/?cid=0x0:0xf559876763c5441,
restaurant,Restoran,Warung Makan B2,"WPP7+2XH, Jl. Perintis, Tewah, Kec. Tewah, Kabupaten Gunung MAS, Kalimantan Tengah 74511","Jl. Perintis, Tewah, Kec. Tewah, Kabupaten Gunung MAS",KALIMANTAN TENGAH,74511.0,Indonesia,,,,-1.0649437,113.7149795,https://maps.google.com/?cid=0x0:0xc2ec8df31f5ab82f,
restaurant,Minimarket,Kedai King,"3GJQ+PGV, Dandang, Kec. Kahayan Hulu Utara, Kabupaten Gunung MAS, Kalimantan Tengah","Kabupaten Gunung MAS, Kalimantan Tengah",KALIMANTAN TENGAH,,Indonesia,81902331256.0,,,-0.9181633,113.5392733,https://maps.google.com/?cid=0x0:0xbd3a28952357dc52,
restaurant,Jawa,WARUNG JAWA,"XP4C+CXJ, Tewah, Kec. Tewah, Kabupaten Gunung MAS, Kalimantan Tengah","Kabupaten Gunung MAS, Kalimantan Tengah",KALIMANTAN TENGAH,,Indonesia,85245557464.0,,,-1.043938,113.7223948,https://maps.google.com/?cid=0x0:0xfab3b0b346a86b5b,
restaurant,restaurant,SGO,"3HM3+9CF, Tumbang Miri, Kec. Kahayan Hulu Utara, Kabupaten Gunung MAS, Kalimantan Tengah 74561","Tumbang Miri, Kec. Kahayan Hulu Utara, Kabupaten Gunung MAS",KALIMANTAN TENGAH,74561.0,Indonesia,,,,-0.9165589,113.5535466,https://maps.google.com/?cid=0x0:0x3241a6e7dac6ec79,
restaurant,restaurant,Kalimantan Tengah 74511,Kalimantan Tengah,Kalimantan Tengah,KALIMANTAN TENGAH,,Indonesia,,,,-0.898161,113.8584737,https://maps.google.com/?cid=0x0:0x88373fa35beec461,
restaurant,Restoran,Nayomi Seafood,"Jl. Letjend R Jl. Letjend Soeprapto, Kuala Kurun, Kec. Kurun, Kabupaten Gunung MAS, Kalimantan Tengah 74511","Kuala Kurun, Kec. Kurun, Kabupaten Gunung MAS",KALIMANTAN TENGAH,74511.0,Indonesia,82112832999.0,,,-1.1192767,113.8597407,https://maps.google.com/?cid=0x0:0xf2c3b9c4b9b2f455,
restaurant,Nasi,Rumah Makan ELNIS,"Jl. Palangka Raya - Kuala Kurun, Tampang Tumbang Anjir, Kec. Kurun, Kabupaten Gunung MAS, Kalimantan Tengah 74571","Tampang Tumbang Anjir, Kec. Kurun, Kabupaten Gunung MAS",KALIMANTAN TENGAH,74571.0,Indonesia,81349118630.0,,,-1.1058034,113.8778091,https://maps.google.com/?cid=0x0:0xecb6acdca98aa859,
restaurant,Jawa,NASI GORENG TERENAK KUALA KURUN,"samping toko awi, Jl. DI Panjaitan No.170, Kuala Kurun, Kec. Kurun, Kabupaten Gunung MAS, Kalimantan Tengah 74571","Jl. DI Panjaitan No.170, Kuala Kurun, Kec. Kurun, Kabupaten Gunung MAS",KALIMANTAN TENGAH,74571.0,Indonesia,,,,-1.1061771,113.870843,https://maps.google.com/?cid=0x0:0xf423c21072a66299,
restaurant,Restoran,Warung Makan Berkah,"Jl. Letjend Soeprapto, Tampang Tumbang Anjir, Kec. Kurun, Kabupaten Gunung MAS, Kalimantan Tengah 74571","Tampang Tumbang Anjir, Kec. Kurun, Kabupaten Gunung MAS",KALIMANTAN TENGAH,74571.0,Indonesia,85348387430.0,,,-1.1155667,113.8630576,https://maps.google.com/?cid=0x0:0x764c6ea8c5dbb8d1,
restaurant,Restoran,Rumah makan,"VVV7+X33, Jl. Karya, Kuala Kurun, Kec. Kurun, Kabupaten Gunung MAS, Kalimantan Tengah 74571","Jl. Karya, Kuala Kurun, Kec. Kurun, Kabupaten Gunung MAS",KALIMANTAN TENGAH,74571.0,Indonesia,,,,-1.1051206,113.8626813,https://maps.google.com/?cid=0x0:0x23418b48f164806d,
restaurant,Restoran,Warung Makan Wahyu (B2),"WV29+Q4X, Jl. Sangkurun, Kuala Kurun, Kec. Kurun, Kabupaten Gunung MAS, Kalimantan Tengah 74511","Jl. Sangkurun, Kuala Kurun, Kec. Kurun, Kabupaten Gunung MAS",KALIMANTAN TENGAH,74511.0,Indonesia,,,,-1.0980008,113.867871,https://maps.google.com/?cid=0x0:0x7a1be0c2b08d6244,
restaurant,Rumah Makan,Warung mama sami'un,"Jl. Sangkurun, RT.5/RW.4, NO22B, Kuala Kurun, Kec. Kurun, Kabupaten Gunung MAS, Kalimantan Tengah 74511","RT.5/RW.4, NO22B, Kuala Kurun, Kec. Kurun, Kabupaten Gunung MAS",KALIMANTAN TENGAH,74511.0,Indonesia,82149457977.0,,,-1.1016837,113.8700863,https://maps.google.com/?cid=0x0:0x29d2f84a6456c121,
restaurant,restaurant,Chicken Day Kuala Kurun,"Ruko Pemda, Jl. Sangkurun Sebrang Pos Polisi Blok A1 No.3, Kuala Kurun, Kec. Kurun, Kabupaten Gunung MAS, Kalimantan Tengah 74511","Jl. Sangkurun Sebrang Pos Polisi Blok A1 No.3, Kuala Kurun, Kec. Kurun, Kabupaten Gunung MAS",KALIMANTAN TENGAH,74511.0,Indonesia,85251515400.0,,,-1.10015,113.8691379,https://maps.google.com/?cid=0x0:0x1af772a7d7872760,
restaurant,Rumah Makan,Depot Nusantara,"Kuala Kurun, Kec. Kurun, Kabupaten Gunung MAS, Kalimantan Tengah 74571","Kec. Kurun, Kabupaten Gunung MAS",KALIMANTAN TENGAH,74571.0,Indonesia,,,,-1.1000619,113.8690601,https://maps.google.com/?cid=0x0:0x1da2a1f1553c19eb,
restaurant,Brunch,BAKSO SAHABAT,"WV38+2X6, Jl. Sangkurun, Kuala Kurun, Kec. Kurun, Kabupaten Gunung MAS, Kalimantan Tengah 74571","Jl. Sangkurun, Kuala Kurun, Kec. Kurun, Kabupaten Gunung MAS",KALIMANTAN TENGAH,74571.0,Indonesia,82147014108.0,,,-1.0974666,113.8673896,https://maps.google.com/?cid=0x0:0x1960f0448e73457e,
restaurant,restaurant,Angkringan Arshaka,"6W6C+7GP, Sei Pinang, Mandau Talawang, Kabupaten Kapuas, Kalimantan Tengah","Kabupaten Kapuas, Kalimantan Tengah",KALIMANTAN TENGAH,,Indonesia,,,,-0.789275,113.921327,https://maps.google.com/?cid=0x0:0x62639fb707524e46,
restaurant,Restoran,Warung Makan Gunawan Simp Kurun - Sei Hanyo,"BAKSO N'3 Palangkaraya, Menteng, Kec. Jekan Raya, Kota Palangka Raya, Kalimantan Tengah 74874","Menteng, Kec. Jekan Raya, Kota Palangka Raya",KALIMANTAN TENGAH,74874.0,Indonesia,,,,-2.2161048,113.913977,https://maps.google.com/?cid=0x0:0xb9b3ca24df45e705,
restaurant,restaurant,TAMUAN COFFEE,"VVH5+MPC, Jl. Letjend Soeprapto, Tampang Tumbang Anjir, Kec. Kurun, Kabupaten Gunung MAS, Kalimantan Tengah 74571","Jl. Letjend Soeprapto, Tampang Tumbang Anjir, Kec. Kurun, Kabupaten Gunung MAS",KALIMANTAN TENGAH,74571.0,Indonesia,,,,-1.1208224,113.8592526,https://maps.google.com/?cid=0x0:0x4b969d0e4ce11a0c,
restaurant,Bakso,Bakso  Mie Ayam Paman Alan,"Jl. Perintis No.RT 14, Tewah, Kec. Tewah, Kabupaten Gunung MAS, Kalimantan Tengah 74511","Tewah, Kec. Tewah, Kabupaten Gunung MAS",KALIMANTAN TENGAH,74511.0,Indonesia,85280132216.0,,,-1.0482997,113.72142,https://maps.google.com/?cid=0x0:0x5bb31267cb589e20,
restaurant,Kedai Kopi,Warung angkringan Doa Ibu,"Jl. Palangka Raya - Kuala Kurun, Seberang, Kec. Kurun, Kabupaten Gunung MAS, Kalimantan Tengah 74511","Seberang, Kec. Kurun, Kabupaten Gunung MAS",KALIMANTAN TENGAH,74511.0,Indonesia,,,,-1.0928915,113.8686575,https://maps.google.com/?cid=0x0:0x96e8cad740d40d4d,
restaurant,Brunch,Zanzibar Restaurant,"JL Seminyak, Sei Pinang, Mandau Talawang, Kabupaten Kapuas, Kalimantan Tengah 74511","Sei Pinang, Mandau Talawang, Kabupaten Kapuas",KALIMANTAN TENGAH,74511.0,Indonesia,361733527.0,,,-0.789275,113.921327,https://maps.google.com/?cid=0x0:0x47cbe2a229313d31,
restaurant,restaurant,Zhangliang malatang,"6W6C+7GP, Sei Pinang, Mandau Talawang, Kabupaten Kapuas, Kalimantan Tengah","Kabupaten Kapuas, Kalimantan Tengah",KALIMANTAN TENGAH,,Indonesia,,,,-0.789275,113.921327,https://maps.google.com/?cid=0x0:0x36d11ba72d160669,
restaurant,Restoran,Kedai Alwafa,"Jl. Tjilik Riwut No.km.5,5, Kuala Kurun, Kec. Kurun, Kabupaten Gunung MAS, Kalimantan Tengah 74511","Kuala Kurun, Kec. Kurun, Kabupaten Gunung MAS",KALIMANTAN TENGAH,74511.0,Indonesia,81251362005.0,,,-1.1097798,113.8336654,https://maps.google.com/?cid=0x0:0xc73d1cae1ea9574f,
restaurant,Restoran,Depot Lestari,"Jl.MT Haryono no.48 Tampang Tumbang anjir, Kuala Kurun, Kec. Kurun, Kabupaten Gunung MAS, Kalimantan Tengah 74511","Kuala Kurun, Kec. Kurun, Kabupaten Gunung MAS",KALIMANTAN TENGAH,74511.0,Indonesia,81251559948.0,,,-1.1262051,113.8568131,https://maps.google.com/?cid=0x0:0x607d382c21f20c66,
restaurant,Restoran,Warung Makan Mama Herri Bersama,"Jl. Lintas Kurun - Palangkaraya. Bukit sliron II, Kuala, Kec. Kurun, Kabupaten Gunung MAS, 74511","Kuala, Kec. Kurun",KALIMANTAN TENGAH,74511.0,Indonesia,,,,-1.114289,113.8963094,https://maps.google.com/?cid=0x0:0x8daab641bc58e378,
restaurant,Makanan Kecil,Warung Gorengan Nenek Arka,"Jl. DI Panjaitan, Tampang Tumbang Anjir, Kec, Kuala, Kec. Kurun, Kalimantan Tengah 74511","Tampang Tumbang Anjir, Kec, Kuala, Kec. Kurun",KALIMANTAN TENGAH,74511.0,Indonesia,,,,-1.1279082,113.8604165,https://maps.google.com/?cid=0x0:0x12e966195884a0b7,
restaurant,Restoran,Putri Tunggal,"Kuala Kurun, Kec. Kurun, Kabupaten Gunung MAS, Kalimantan Tengah 74511","Kec. Kurun, Kabupaten Gunung MAS",KALIMANTAN TENGAH,74511.0,Indonesia,82310278574.0,,,-1.1080551,113.8355114,https://maps.google.com/?cid=0x0:0xf61cd877899c3f5e,
restaurant,Rumah Makan,WARTEG MAMA PUTRI,"Ruko, Jl. Perintis No.3, Tewah, Kec. Tewah, Kabupaten Gunung MAS, Kalimantan Tengah 74511","Jl. Perintis No.3, Tewah, Kec. Tewah, Kabupaten Gunung MAS",KALIMANTAN TENGAH,74511.0,Indonesia,81316354999.0,,,-1.0398535,113.7234226,https://maps.google.com/?cid=0x0:0x6d2b783fa9f84227,
restaurant,Kafe,WARUNG MAKAN GANECA,"Jl. Kusumanegara No.19, Kuala Kurun, Kec. Kurun, Kabupaten Gunung MAS, Kalimantan Tengah 74511","Kuala Kurun, Kec. Kurun, Kabupaten Gunung MAS",KALIMANTAN TENGAH,74511.0,Indonesia,82151836334.0,,,-1.1038892,113.8641551,https://maps.google.com/?cid=0x0:0x6549f18a82ceb9ee,
restaurant,Restoran,Warung Haji Martapura,"Jl. Sangkurun No.36, Kuala Kurun, Kec. Kurun, Kabupaten Gunung MAS, Kalimantan Tengah 74511","Kuala Kurun, Kec. Kurun, Kabupaten Gunung MAS",KALIMANTAN TENGAH,74511.0,Indonesia,82154028659.0,,,-1.0941151,113.8648551,https://maps.google.com/?cid=0x0:0x4e2adef46c85ed6c,
restaurant,Toko umum,Dapoer Jambu 78,"Jalan Jambu No.78 Kuala Kurun Kelurahan Tampang Tumbang Anjir, Kuala Kurun, Kec. Kurun, Kabupaten Gunung MAS, Kalimantan Tengah 74511","Kuala Kurun, Kec. Kurun, Kabupaten Gunung MAS",KALIMANTAN TENGAH,74511.0,Indonesia,82148179956.0,,,-1.1294458,113.8533458,https://maps.google.com/?cid=0x0:0x56e4ec9068885e9f,
restaurant,restaurant,Kalimantan Tengah 74562,"Kabupaten Gunung MAS, Kalimantan Tengah","Kabupaten Gunung MAS, Kalimantan Tengah",KALIMANTAN TENGAH,,Indonesia,,,,-1.3240171,113.4776098,https://maps.google.com/?cid=0x0:0x59a162add95738c2,
restaurant,Padang,RM Mama Rizal,"M92J+PW4, Tumbang Talaken, Kec. Manuhing, Kabupaten Gunung MAS, Kalimantan Tengah 74562","Tumbang Talaken, Kec. Manuhing, Kabupaten Gunung MAS",KALIMANTAN TENGAH,74562.0,Indonesia,81354111175.0,,,-1.3482291,113.3823368,https://maps.google.com/?cid=0x0:0xe7116b8854fd9eab,
restaurant,Restoran,Warung makan ngapak,"J9XM+GJF, Tumbang Talaken, Kec. Manuhing, Kabupaten Gunung MAS, Kalimantan Tengah 74562","Tumbang Talaken, Kec. Manuhing, Kabupaten Gunung MAS",KALIMANTAN TENGAH,74562.0,Indonesia,,,,-1.3511797,113.3840316,https://maps.google.com/?cid=0x0:0x233271bd2a44fd96,
restaurant,Rumah Makan,RM.MAMA NiLA,"M92J+RXM, Tumbang Talaken, Kec. Manuhing, Kabupaten Gunung MAS, Kalimantan Tengah 74562","Tumbang Talaken, Kec. Manuhing, Kabupaten Gunung MAS",KALIMANTAN TENGAH,74562.0,Indonesia,85204514260.0,,,-1.347914,113.3824256,https://maps.google.com/?cid=0x0:0xfc3317bac123ae09,
restaurant,Rumah Makan,RUMAH MAKAN AURA,"J9PH+MJW, Tumbang Talaken, Kec. Manuhing, Kabupaten Gunung MAS, Kalimantan Tengah 74562","Tumbang Talaken, Kec. Manuhing, Kabupaten Gunung MAS",KALIMANTAN TENGAH,74562.0,Indonesia,85293973077.0,,,-1.3632563,113.3790672,https://maps.google.com/?cid=0x0:0x140df581a7edd5c1,
restaurant,Tegal,WARUNG MAKAN MBAK YANTI,"J9XM+FXJ, Tumbang Talaken, Kec. Manuhing, Kabupaten Gunung MAS, Kalimantan Tengah 74562","Tumbang Talaken, Kec. Manuhing, Kabupaten Gunung MAS",KALIMANTAN TENGAH,74562.0,Indonesia,,,,-1.3512803,113.384881,https://maps.google.com/?cid=0x0:0x5acecdeb530efb1b,
restaurant,Rumah Makan,Rumah makan Gloria (B2),"J9VJ+J76, Unnamed Road, Tumbang Talaken, Manuhing, Gunung MAS Regency, Central Kalimantan 74562","Unnamed Road, Tumbang Talaken, Manuhing, Gunung MAS Regency",KALIMANTAN TENGAH,74562.0,Indonesia,,,,-1.3559661,113.3806443,https://maps.google.com/?cid=0x0:0x5144147c37010779,
restaurant,Tegal,Kedai Upin Ipin,"J9WJ+HRX, jln tangkasiang di dekat, Tumbang Talaken, Kec. Manuhing, Kabupaten Gunung MAS, Kalimantan Tengah 74562","jln tangkasiang di dekat, Tumbang Talaken, Kec. Manuhing, Kabupaten Gunung MAS",KALIMANTAN TENGAH,74562.0,Indonesia,85257335885.0,,,-1.3535179,113.3821095,https://maps.google.com/?cid=0x0:0xd2e2d662ea6942d3,
restaurant,Restoran,Rm jawa timur,"M93J+2RX, Unnamed Road, Tumbang Talaken, Kec. Manuhing, Kabupaten Gunung MAS, Kalimantan Tengah 74562","Unnamed Road, Tumbang Talaken, Kec. Manuhing, Kabupaten Gunung MAS",KALIMANTAN TENGAH,74562.0,Indonesia,,,,-1.3473837,113.3820941,https://maps.google.com/?cid=0x0:0xfdd6bd69328be079,
restaurant,Rumah Makan,Depot Diana  BRILINK,"Depan Polsek, Tumbang Talaken, Kabupaten Gunung MAS, Kalimantan Tengah 74562","Tumbang Talaken, Kabupaten Gunung MAS",KALIMANTAN TENGAH,74562.0,Indonesia,,,,-1.3637631,113.3791212,https://maps.google.com/?cid=0x0:0x5f205202a48b97e7,
restaurant,Tempat Penjualan Teh,BAKSONESIA,"J9JJ+G55, Jl. Negara, Tumbang Talaken, Kec. Manuhing, Kabupaten Gunung MAS, Kalimantan Tengah","Kabupaten Gunung MAS, Kalimantan Tengah",KALIMANTAN TENGAH,,Indonesia,82216013370.0,,,-1.368735,113.3804917,https://maps.google.com/?cid=0x0:0x62e5b9292d874921,
restaurant,Dapur Umum,warung makan mbah jenggot,"jln.trans tumbang telaken,berengjun, Kec. Manuhing, Kabupaten Gunung MAS, Kalimantan Tengah","Kabupaten Gunung MAS, Kalimantan Tengah",KALIMANTAN TENGAH,,Indonesia,82250244492.0,,,-1.35622,113.3644925,https://maps.google.com/?cid=0x0:0xa06915f4dd495c1a,
restaurant,Tempat Penjualan Teh,Mie Ayam Bakso Mas Bro,"J9XM+FQ8, Unnamed Road, Tumbang Talaken, Kec. Manuhing, Kabupaten Gunung MAS, Kalimantan Tengah 74562","Unnamed Road, Tumbang Talaken, Kec. Manuhing, Kabupaten Gunung MAS",KALIMANTAN TENGAH,74562.0,Indonesia,,,,-1.3513466,113.3844561,https://maps.google.com/?cid=0x0:0x82c5b1f5ee67b224,
restaurant,Tegal,Warung Makan Nasi Lalapan Dadakan Talaken,"J9XM+FQ8, Unnamed Road, Tumbang Talaken, Kec. Manuhing, Kabupaten Gunung MAS, Kalimantan Tengah 74562","Unnamed Road, Tumbang Talaken, Kec. Manuhing, Kabupaten Gunung MAS",KALIMANTAN TENGAH,74562.0,Indonesia,,,,-1.3513393,113.3844513,https://maps.google.com/?cid=0x0:0xbf4d544addbbfba9,
restaurant,restaurant,warung lesehan mandala,"H9VF+RM, Bangun Sari, Kec. Manuhing, Kabupaten Gunung MAS, Kalimantan Tengah","Kabupaten Gunung MAS, Kalimantan Tengah",KALIMANTAN TENGAH,,Indonesia,82254289464.0,,,-1.4054432,113.3741373,https://maps.google.com/?cid=0x0:0xf43075883281ed80,
restaurant,Rumah Makan,RM mama rizki,"J9V7+GQ9, Jalan negaraTumbang, Tumbang Talaken, Kec. Manuhing, Kabupaten Gunung MAS, Kalimantan Tengah 74562","Jalan negaraTumbang, Tumbang Talaken, Kec. Manuhing, Kabupaten Gunung MAS",KALIMANTAN TENGAH,74562.0,Indonesia,,,,-1.35622,113.3644925,https://maps.google.com/?cid=0x0:0xbef54e893ebd0fef,
restaurant,Bar,Martabak Barokah Tumbang Talaken,"J9XM+646, Unnamed Road, Tumbang Talaken, Kec. Manuhing, Kabupaten Gunung MAS, Kalimantan Tengah 74562","Unnamed Road, Tumbang Talaken, Kec. Manuhing, Kabupaten Gunung MAS",KALIMANTAN TENGAH,74562.0,Indonesia,82252292767.0,,,-1.351952,113.3827666,https://maps.google.com/?cid=0x0:0x70d29f8cd2e0f913,
restaurant,Sarapan,Warung makan AULIA  PUTRI / Member resmi MSI,"HC2W+JPR, Taringen, Kec. Manuhing, Kabupaten Gunung MAS, Kalimantan Tengah 74562","Taringen, Kec. Manuhing, Kabupaten Gunung MAS",KALIMANTAN TENGAH,74562.0,Indonesia,85248234929.0,,,-1.4483794,113.4467534,https://maps.google.com/?cid=0x0:0xa8c527bb83d8ed48,
restaurant,Brunch,Warung Bu Susi,"PH5F+XHC, Jl. Cilik Riwut, Jakatan Raya, Kec. Rungan, Kabupaten Gunung MAS, Kalimantan Tengah 74562","Jl. Cilik Riwut, Jakatan Raya, Kec. Rungan, Kabupaten Gunung MAS",KALIMANTAN TENGAH,74562.0,Indonesia,81348521886.0,,,-1.2900572,113.5738834,https://maps.google.com/?cid=0x0:0x8d098d27b8678d0f,
restaurant,Mi,Warung Podho Moro mie ayam bakso,"MHP2+575, Unnamed Road, Tumbang Bunut, Kec. Rungan, Kabupaten Gunung MAS, Kalimantan Tengah 74562","Unnamed Road, Tumbang Bunut, Kec. Rungan, Kabupaten Gunung MAS",KALIMANTAN TENGAH,74562.0,Indonesia,81251950387.0,,,-1.3146113,113.5507346,https://maps.google.com/?cid=0x0:0x6bc92526488edeb9,
restaurant,restaurant,WARUNG MAKAN MAMA SURYO,"Jl. Cilik Riwut No.13, RT.1/RW.1, Jakatan Raya, Kec. Rungan, Kabupaten Gunung MAS, Kalimantan Tengah 74561","RT.1/RW.1, Jakatan Raya, Kec. Rungan, Kabupaten Gunung MAS",KALIMANTAN TENGAH,74561.0,Indonesia,85899676650.0,,,-1.2958262,113.5732534,https://maps.google.com/?cid=0x0:0xbabc716bda6b1d8b,
restaurant,restaurant,Kec. Manuhing Raya,"Kabupaten Gunung MAS, Kalimantan Tengah","Kabupaten Gunung MAS, Kalimantan Tengah",KALIMANTAN TENGAH,,Indonesia,,,,-1.2093562,113.3161023,https://maps.google.com/?cid=0x0:0xf4826c03ebd0940e,
restaurant,Padang,RM Mama Rizal,"M92J+PW4, Tumbang Talaken, Kec. Manuhing, Kabupaten Gunung MAS, Kalimantan Tengah 74562","Tumbang Talaken, Kec. Manuhing, Kabupaten Gunung MAS",KALIMANTAN TENGAH,74562.0,Indonesia,81354111175.0,,,-1.3482291,113.3823368,https://maps.google.com/?cid=0x0:0xe7116b8854fd9eab,
restaurant,Rumah Makan,RM.MAMA NiLA,"M92J+RXM, Tumbang Talaken, Kec. Manuhing, Kabupaten Gunung MAS, Kalimantan Tengah 74562","Tumbang Talaken, Kec. Manuhing, Kabupaten Gunung MAS",KALIMANTAN TENGAH,74562.0,Indonesia,85204514260.0,,,-1.347914,113.3824256,https://maps.google.com/?cid=0x0:0xfc3317bac123ae09,
restaurant,Tegal,Kedai Upin Ipin,"J9WJ+HRX, jln tangkasiang di dekat, Tumbang Talaken, Kec. Manuhing, Kabupaten Gunung MAS, Kalimantan Tengah 74562","jln tangkasiang di dekat, Tumbang Talaken, Kec. Manuhing, Kabupaten Gunung MAS",KALIMANTAN TENGAH,74562.0,Indonesia,85257335885.0,,,-1.3535179,113.3821095,https://maps.google.com/?cid=0x0:0xd2e2d662ea6942d3,
restaurant,Restoran,Warung makan ngapak,"J9XM+GJF, Tumbang Talaken, Kec. Manuhing, Kabupaten Gunung MAS, Kalimantan Tengah 74562","Tumbang Talaken, Kec. Manuhing, Kabupaten Gunung MAS",KALIMANTAN TENGAH,74562.0,Indonesia,,,,-1.3511797,113.3840316,https://maps.google.com/?cid=0x0:0x233271bd2a44fd96,
restaurant,Tegal,WARUNG MAKAN MBAK YANTI,"J9XM+FXJ, Tumbang Talaken, Kec. Manuhing, Kabupaten Gunung MAS, Kalimantan Tengah 74562","Tumbang Talaken, Kec. Manuhing, Kabupaten Gunung MAS",KALIMANTAN TENGAH,74562.0,Indonesia,,,,-1.3512803,113.384881,https://maps.google.com/?cid=0x0:0x5acecdeb530efb1b,
restaurant,Rumah Makan,RUMAH MAKAN AURA,"J9PH+MJW, Tumbang Talaken, Kec. Manuhing, Kabupaten Gunung MAS, Kalimantan Tengah 74562","Tumbang Talaken, Kec. Manuhing, Kabupaten Gunung MAS",KALIMANTAN TENGAH,74562.0,Indonesia,85293973077.0,,,-1.3632563,113.3790672,https://maps.google.com/?cid=0x0:0x140df581a7edd5c1,
restaurant,Rumah Makan,Rumah makan Gloria (B2),"J9VJ+J76, Unnamed Road, Tumbang Talaken, Manuhing, Gunung MAS Regency, Central Kalimantan 74562","Unnamed Road, Tumbang Talaken, Manuhing, Gunung MAS Regency",KALIMANTAN TENGAH,74562.0,Indonesia,,,,-1.3559661,113.3806443,https://maps.google.com/?cid=0x0:0x5144147c37010779,
restaurant,Restoran,Rm jawa timur,"M93J+2RX, Unnamed Road, Tumbang Talaken, Kec. Manuhing, Kabupaten Gunung MAS, Kalimantan Tengah 74562","Unnamed Road, Tumbang Talaken, Kec. Manuhing, Kabupaten Gunung MAS",KALIMANTAN TENGAH,74562.0,Indonesia,,,,-1.3473837,113.3820941,https://maps.google.com/?cid=0x0:0xfdd6bd69328be079,
restaurant,Rumah Makan,Depot Diana  BRILINK,"Depan Polsek, Tumbang Talaken, Kabupaten Gunung MAS, Kalimantan Tengah 74562","Tumbang Talaken, Kabupaten Gunung MAS",KALIMANTAN TENGAH,74562.0,Indonesia,,,,-1.3637631,113.3791212,https://maps.google.com/?cid=0x0:0x5f205202a48b97e7,
restaurant,Dapur Umum,warung makan mbah jenggot,"jln.trans tumbang telaken,berengjun, Kec. Manuhing, Kabupaten Gunung MAS, Kalimantan Tengah","Kabupaten Gunung MAS, Kalimantan Tengah",KALIMANTAN TENGAH,,Indonesia,82250244492.0,,,-1.35622,113.3644925,https://maps.google.com/?cid=0x0:0xa06915f4dd495c1a,
restaurant,Tempat Penjualan Teh,Mie Ayam Bakso Mas Bro,"J9XM+FQ8, Unnamed Road, Tumbang Talaken, Kec. Manuhing, Kabupaten Gunung MAS, Kalimantan Tengah 74562","Unnamed Road, Tumbang Talaken, Kec. Manuhing, Kabupaten Gunung MAS",KALIMANTAN TENGAH,74562.0,Indonesia,,,,-1.3513466,113.3844561,https://maps.google.com/?cid=0x0:0x82c5b1f5ee67b224,
restaurant,Rumah Makan,RM mama rizki,"J9V7+GQ9, Jalan negaraTumbang, Tumbang Talaken, Kec. Manuhing, Kabupaten Gunung MAS, Kalimantan Tengah 74562","Jalan negaraTumbang, Tumbang Talaken, Kec. Manuhing, Kabupaten Gunung MAS",KALIMANTAN TENGAH,74562.0,Indonesia,,,,-1.35622,113.3644925,https://maps.google.com/?cid=0x0:0xbef54e893ebd0fef,
restaurant,Tempat Penjualan Teh,BAKSONESIA,"J9JJ+G55, Jl. Negara, Tumbang Talaken, Kec. Manuhing, Kabupaten Gunung MAS, Kalimantan Tengah","Kabupaten Gunung MAS, Kalimantan Tengah",KALIMANTAN TENGAH,,Indonesia,82216013370.0,,,-1.368735,113.3804917,https://maps.google.com/?cid=0x0:0x62e5b9292d874921,
restaurant,Bar,Martabak Barokah Tumbang Talaken,"J9XM+646, Unnamed Road, Tumbang Talaken, Kec. Manuhing, Kabupaten Gunung MAS, Kalimantan Tengah 74562","Unnamed Road, Tumbang Talaken, Kec. Manuhing, Kabupaten Gunung MAS",KALIMANTAN TENGAH,74562.0,Indonesia,82252292767.0,,,-1.351952,113.3827666,https://maps.google.com/?cid=0x0:0x70d29f8cd2e0f913,
restaurant,Tegal,Warung Makan Nasi Lalapan Dadakan Talaken,"J9XM+FQ8, Unnamed Road, Tumbang Talaken, Kec. Manuhing, Kabupaten Gunung MAS, Kalimantan Tengah 74562","Unnamed Road, Tumbang Talaken, Kec. Manuhing, Kabupaten Gunung MAS",KALIMANTAN TENGAH,74562.0,Indonesia,,,,-1.3513393,113.3844513,https://maps.google.com/?cid=0x0:0xbf4d544addbbfba9,
restaurant,Bar,dailynight38cafe,"Jl. negara, Tumbang Talaken, Kec. Manuhing, Kabupaten Gunung MAS, Kalimantan Tengah 74562","Tumbang Talaken, Kec. Manuhing, Kabupaten Gunung MAS",KALIMANTAN TENGAH,74562.0,Indonesia,85251739355.0,,,-1.35622,113.3644925,https://maps.google.com/?cid=0x0:0x92176471d0a456c3,
restaurant,restaurant,Kec. Manuhing,"Kabupaten Gunung MAS, Kalimantan Tengah","Kabupaten Gunung MAS, Kalimantan Tengah",KALIMANTAN TENGAH,,Indonesia,,,,-1.3664416,113.379481,https://maps.google.com/?cid=0x0:0xb507395d0c29c43f,
restaurant,restaurant,Hollow Cafe,"J9V7+GQ9, Tumbang Talaken, Kec. Manuhing, Kabupaten Gunung MAS, Kalimantan Tengah","Kabupaten Gunung MAS, Kalimantan Tengah",KALIMANTAN TENGAH,,Indonesia,,,,-1.35622,113.3644925,https://maps.google.com/?cid=0x0:0x257cb5a232560e57,
restaurant,Kedai Kopi,Warung Gorengan Mang Warsito,"J9XM+74X, Unnamed Road, Tumbang Talaken, Kec. Manuhing, Kabupaten Gunung MAS, Kalimantan Tengah 74562","Unnamed Road, Tumbang Talaken, Kec. Manuhing, Kabupaten Gunung MAS",KALIMANTAN TENGAH,74562.0,Indonesia,,,,-1.3517738,113.3828591,https://maps.google.com/?cid=0x0:0x3d3d81146f7b1748,
restaurant,Minimarket,Kios Nisa,"J9HJ+77H, Unnamed Road, Tumbang Talaken, Kec. Manuhing, Kabupaten Gunung MAS, Kalimantan Tengah 74562","Unnamed Road, Tumbang Talaken, Kec. Manuhing, Kabupaten Gunung MAS",KALIMANTAN TENGAH,74562.0,Indonesia,81251569777.0,,,-1.3718108,113.3807395,https://maps.google.com/?cid=0x0:0xb0a91df9d27a0a90,
restaurant,Restoran,Warung Makan 10,"MW2C+3HC, Jl. Palangka Raya - Kuala Kurun, Kampuri, Kec. Mihing Raya, Kabupaten Gunung MAS, Kalimantan Tengah 74863","Jl. Palangka Raya - Kuala Kurun, Kampuri, Kec. Mihing Raya, Kabupaten Gunung MAS",KALIMANTAN TENGAH,74863.0,Indonesia,,,,-1.3498161,113.9213754,https://maps.google.com/?cid=0x0:0xdc4e267b6eca1400,
restaurant,restaurant,Kalimantan Tengah 74571,"Kabupaten Gunung MAS, Kalimantan Tengah","Kabupaten Gunung MAS, Kalimantan Tengah",KALIMANTAN TENGAH,,Indonesia,,,,-1.1433424,113.9060624,https://maps.google.com/?cid=0x0:0x7dbb143be4104e8e,
restaurant,Restoran,Warung Makan Berkah,"Jl. Letjend Soeprapto, Tampang Tumbang Anjir, Kec. Kurun, Kabupaten Gunung MAS, Kalimantan Tengah 74571","Tampang Tumbang Anjir, Kec. Kurun, Kabupaten Gunung MAS",KALIMANTAN TENGAH,74571.0,Indonesia,85348387430.0,,,-1.1155667,113.8630576,https://maps.google.com/?cid=0x0:0x764c6ea8c5dbb8d1,
restaurant,Nasi,Warung JKT,"Jl. Letjend Soeprapto, Tampang Tumbang Anjir, Kec. Kurun, Kabupaten Gunung MAS, Kalimantan Tengah 74571","Tampang Tumbang Anjir, Kec. Kurun, Kabupaten Gunung MAS",KALIMANTAN TENGAH,74571.0,Indonesia,85388617101.0,,,-1.1104803,113.8645396,https://maps.google.com/?cid=0x0:0x7cd2f82ef2acfe19,
restaurant,Restoran,Nayomi Seafood,"Jl. Letjend R Jl. Letjend Soeprapto, Kuala Kurun, Kec. Kurun, Kabupaten Gunung MAS, Kalimantan Tengah 74511","Kuala Kurun, Kec. Kurun, Kabupaten Gunung MAS",KALIMANTAN TENGAH,74511.0,Indonesia,82112832999.0,,,-1.1192767,113.8597407,https://maps.google.com/?cid=0x0:0xf2c3b9c4b9b2f455,
restaurant,Restoran,Lalapan solo,"VVQ7+VRQ, Jl. Letjend Soeprapto, Tampang Tumbang Anjir, Kec. Kurun, Kabupaten Gunung MAS, Kalimantan Tengah 74571","Jl. Letjend Soeprapto, Tampang Tumbang Anjir, Kec. Kurun, Kabupaten Gunung MAS",KALIMANTAN TENGAH,74571.0,Indonesia,81321938511.0,,,-1.1102865,113.8646004,https://maps.google.com/?cid=0x0:0xb52be70c737fffeb,
restaurant,Rumah Makan,Rumah Makan Mbak Lisa,"Jl. Letjend Soeprapto, Tampang Tumbang Anjir, Kec. Kurun, Kabupaten Gunung MAS, Kalimantan Tengah 74571","Tampang Tumbang Anjir, Kec. Kurun, Kabupaten Gunung MAS",KALIMANTAN TENGAH,74571.0,Indonesia,85319068022.0,,,-1.1134736,113.8639566,https://maps.google.com/?cid=0x0:0x19105ebde59c3b6d,
restaurant,Nasi,Rumah Makan ELNIS,"Jl. Palangka Raya - Kuala Kurun, Tampang Tumbang Anjir, Kec. Kurun, Kabupaten Gunung MAS, Kalimantan Tengah 74571","Tampang Tumbang Anjir, Kec. Kurun, Kabupaten Gunung MAS",KALIMANTAN TENGAH,74571.0,Indonesia,81349118630.0,,,-1.1058034,113.8778091,https://maps.google.com/?cid=0x0:0xecb6acdca98aa859,
restaurant,Restoran,RM Rizke Raja Rasa,"VVG5+798, Tampang Tumbang Anjir, Kec. Kurun, Kabupaten Gunung MAS, Kalimantan Tengah 74571","Tampang Tumbang Anjir, Kec. Kurun, Kabupaten Gunung MAS",KALIMANTAN TENGAH,74571.0,Indonesia,,,,-1.1243353,113.8584535,https://maps.google.com/?cid=0x0:0xa66d9184674bbfb5,
restaurant,Nasi,.,"Jl. Brigjend Katamso, Xlll, Kec. Kurun, Kabupaten Gunung MAS, Kalimantan Tengah 74571","Xlll, Kec. Kurun, Kabupaten Gunung MAS",KALIMANTAN TENGAH,74571.0,Indonesia,82351003443.0,,,-1.117939,113.8586009,https://maps.google.com/?cid=0x0:0x25cc9c2cddb49e9d,
restaurant,Kios,Warung Mama Sipa,"QVJG+Q4Q, Tumbang Miwan, Kec. Kurun, Kabupaten Gunung MAS, Kalimantan Tengah 74571","Tumbang Miwan, Kec. Kurun, Kabupaten Gunung MAS",KALIMANTAN TENGAH,74571.0,Indonesia,,,,-1.2180396,113.8753572,https://maps.google.com/?cid=0x0:0xbdaf110188d6b59e,
restaurant,Nasi,RM Sebayur,"MWHH+329, Tumbang Danau, Kec. Mihing Raya, Kabupaten Gunung MAS, Kalimantan Tengah 74863","Tumbang Danau, Kec. Mihing Raya, Kabupaten Gunung MAS",KALIMANTAN TENGAH,74863.0,Indonesia,,,,-1.3223447,113.9276,https://maps.google.com/?cid=0x0:0x4f30fe4c862616e2,
restaurant,Restoran,Warung Makan Bu Lek Jawa Baru jaya,"WV2C+HX3, Jl. Palangka Raya - Kuala Kurun, Tampang Tumbang Anjir, Kec. Kurun, Kabupaten Gunung MAS, Kalimantan Tengah 74571","Jl. Palangka Raya - Kuala Kurun, Tampang Tumbang Anjir, Kec. Kurun, Kabupaten Gunung MAS",KALIMANTAN TENGAH,74571.0,Indonesia,,,,-1.0986037,113.8724099,https://maps.google.com/?cid=0x0:0x6daae8d7da4e85b4,
restaurant,Restoran,Warung Kediri,"VVF5+M6H, Tampang Tumbang Anjir, Kec. Kurun, Kabupaten Gunung MAS, Kalimantan Tengah 74571","Tampang Tumbang Anjir, Kec. Kurun, Kabupaten Gunung MAS",KALIMANTAN TENGAH,74571.0,Indonesia,,,,-1.125822,113.858116,https://maps.google.com/?cid=0x0:0xcba5c950f4a76424,
restaurant,Kafe,Warung Misel,"VVQ7+MPJ, Tampang Tumbang Anjir, Kec. Kurun, Kabupaten Gunung MAS, Kalimantan Tengah 74571","Tampang Tumbang Anjir, Kec. Kurun, Kabupaten Gunung MAS",KALIMANTAN TENGAH,74571.0,Indonesia,82252357588.0,,,-1.1107918,113.8642805,https://maps.google.com/?cid=0x0:0xf4a035add0a7210a,
restaurant,Nasi,Warung makan (THESALONIKA),"Jl. Letjend Soeprapto, Tampang Tumbang Anjir, Kec. Kurun, Kabupaten Gunung MAS, Kalimantan Tengah 74571","Tampang Tumbang Anjir, Kec. Kurun, Kabupaten Gunung MAS",KALIMANTAN TENGAH,74571.0,Indonesia,82254282497.0,,,-1.1106865,113.8642221,https://maps.google.com/?cid=0x0:0xaafa641dbe9d9813,
restaurant,Rumah Makan,Warung Madiun,"VVWC+J95, Tampang Tumbang Anjir, Kec. Kurun, Kabupaten Gunung MAS, Kalimantan Tengah 74571","Tampang Tumbang Anjir, Kec. Kurun, Kabupaten Gunung MAS",KALIMANTAN TENGAH,74571.0,Indonesia,,,,-1.1034773,113.8709826,https://maps.google.com/?cid=0x0:0x177d34108611a333,
restaurant,Restoran,TPA SINAR KASIH,"WV46+9M2, Jl. Temanggung Panji, Kuala Kurun, Kec. Kurun, Kabupaten Gunung MAS, Kalimantan Tengah 74571","Jl. Temanggung Panji, Kuala Kurun, Kec. Kurun, Kabupaten Gunung MAS",KALIMANTAN TENGAH,74571.0,Indonesia,,,,-1.0941058,113.8616502,https://maps.google.com/?cid=0x0:0x3cfea97544039259,
restaurant,Restoran,Nyai Acang,"VVQ7+PH7, Tampang Tumbang Anjir, Kec. Kurun, Kabupaten Gunung MAS, Kalimantan Tengah 74571","Tampang Tumbang Anjir, Kec. Kurun, Kabupaten Gunung MAS",KALIMANTAN TENGAH,74571.0,Indonesia,85228260304.0,,,-1.110704,113.863927,https://maps.google.com/?cid=0x0:0x7ab793d843fe0d7,
restaurant,Nasi,Warung Banjar alalak,"PWWF+5FH, Jl. Palangka Raya - Kuala Kurun, Hurung Bunut, Kec. Kurun, Kabupaten Gunung MAS, Kalimantan Tengah 74571","Jl. Palangka Raya - Kuala Kurun, Hurung Bunut, Kec. Kurun, Kabupaten Gunung MAS",KALIMANTAN TENGAH,74571.0,Indonesia,,,,-1.2545717,113.9237421,https://maps.google.com/?cid=0x0:0x6729b12ed0fde100,
restaurant,Rumah Makan,Kedai Big Bos Chinese Food Halal,"Jl. Letjend Soeprapto No.66, Tampang Tumbang Anjir, Kec. Kurun, Kabupaten Gunung MAS, Kalimantan Tengah 74571","Tampang Tumbang Anjir, Kec. Kurun, Kabupaten Gunung MAS",KALIMANTAN TENGAH,74571.0,Indonesia,82358475082.0,,,-1.1123454,113.8633677,https://maps.google.com/?cid=0x0:0xfdb4c425048bad51,
restaurant,Rumah Makan,Warung MoroSeneng,"XP2G+356, Tewah, Kec. Tewah, Kabupaten Gunung MAS, Kalimantan Tengah 74511","Tewah, Kec. Tewah, Kabupaten Gunung MAS",KALIMANTAN TENGAH,74511.0,Indonesia,82153866091.0,,,-1.049843,113.725384,https://maps.google.com/?cid=0x0:0x613b4c101c167c82,
restaurant,Restoran,Warung Amin,"Jl. Temanggung Panji No.3, Kuala Kurun, Kec. Kurun, Kabupaten Gunung MAS, Kalimantan Tengah 74571","Kuala Kurun, Kec. Kurun, Kabupaten Gunung MAS",KALIMANTAN TENGAH,74571.0,Indonesia,85348077941.0,,,-1.0971584,113.8626263,https://maps.google.com/?cid=0x0:0x1ef0801fc06aa95f,
restaurant,Rumah Makan,RM. BAGADANG 03,"VVX9+VC2, Jl. Tjilik Riwut, Kuala Kurun, Kec. Kurun, Kabupaten Gunung MAS, Kalimantan Tengah 74571","Jl. Tjilik Riwut, Kuala Kurun, Kec. Kurun, Kabupaten Gunung MAS",KALIMANTAN TENGAH,74571.0,Indonesia,81266887635.0,,,-1.1003659,113.868521,https://maps.google.com/?cid=0x0:0xf4306ae08b70deea,
restaurant,Rumah Makan,Pondok Lalapan Hafidz Tewah,"WPXG+FJ5, Tewah, Kec. Tewah, Kabupaten Gunung MAS, Kalimantan Tengah 74511","Tewah, Kec. Tewah, Kabupaten Gunung MAS",KALIMANTAN TENGAH,74511.0,Indonesia,81251515131.0,,,-1.0513646,113.7266,https://maps.google.com/?cid=0x0:0xc693967632c7b585,
restaurant,Indonesia,Warung mama Bima,"Jl. Nenas, Tampang Tumbang Anjir, Kec. Kurun, Kabupaten Gunung MAS, Kalimantan Tengah 74571","Tampang Tumbang Anjir, Kec. Kurun, Kabupaten Gunung MAS",KALIMANTAN TENGAH,74571.0,Indonesia,81350370128.0,,,-1.1274474,113.858277,https://maps.google.com/?cid=0x0:0xb34f317a36fb20ed,
restaurant,Rumah Makan,Warung Banjar,"PWXC+79F, Dekat, Hurung Bunut, Kec. Kurun, Kabupaten Gunung MAS, Kalimantan Tengah","Kabupaten Gunung MAS, Kalimantan Tengah",KALIMANTAN TENGAH,,Indonesia,,,,-1.2518221,113.9209294,https://maps.google.com/?cid=0x0:0x7e351948e4e3df4e,
restaurant,Rumah Makan,Rumah Makan Berkah Bunda Hj. NENENG,"WV49+VC9, Jl. Palangka Raya - Kuala Kurun, Kuala Kurun, Kec. Kurun, Kabupaten Gunung MAS, Kalimantan Tengah 74571","Jl. Palangka Raya - Kuala Kurun, Kuala Kurun, Kec. Kurun, Kabupaten Gunung MAS",KALIMANTAN TENGAH,74571.0,Indonesia,,,,-1.0928387,113.8686048,https://maps.google.com/?cid=0x0:0x5d6c564aa0283cc9,
restaurant,restaurant,Kalimantan Tengah 74553,"Kabupaten Gunung MAS, Kalimantan Tengah","Kabupaten Gunung MAS, Kalimantan Tengah",KALIMANTAN TENGAH,,Indonesia,,,,-0.5866559,113.429984,https://maps.google.com/?cid=0x0:0x7f9e14ce7cf9d71f,
restaurant,Restoran,Warung Makan Mama Grant,"3GHX+PWR, Tumbang Miri, Kec. Kahayan Hulu Utara, Kabupaten Gunung MAS, Kalimantan Tengah 74561","Tumbang Miri, Kec. Kahayan Hulu Utara, Kabupaten Gunung MAS",KALIMANTAN TENGAH,74561.0,Indonesia,85348503234.0,,,-0.9206333,113.5497774,https://maps.google.com/?cid=0x0:0x3283cb86ce7e045d,
restaurant,Motel,Losmen Karunia Tumbang Miri,"3HJ2+R77, Tumbang Miri, Kec. Kahayan Hulu Utara, Kabupaten Gunung MAS, Kalimantan Tengah 74561","Tumbang Miri, Kec. Kahayan Hulu Utara, Kabupaten Gunung MAS",KALIMANTAN TENGAH,74561.0,Indonesia,82148576969.0,,,-0.9179624,113.5506737,https://maps.google.com/?cid=0x0:0x8d9643ffd182bb29,
restaurant,Rumah Makan,Warung Pinunjul Berkah,"3G6V+36P, Tumbang Miri, Kec. Kahayan Hulu Utara, Kabupaten Gunung MAS, Kalimantan Tengah 74561","Tumbang Miri, Kec. Kahayan Hulu Utara, Kabupaten Gunung MAS",KALIMANTAN TENGAH,74561.0,Indonesia,82147366308.0,,,-0.9397929,113.5430891,https://maps.google.com/?cid=0x0:0x5d3d570f14b74871,
restaurant,Restoran,Warung Makan Mas Bro,"3HJ2+M9P, Tumbang Miri, Kec. Kahayan Hulu Utara, Kabupaten Gunung MAS, Kalimantan Tengah 74561","Tumbang Miri, Kec. Kahayan Hulu Utara, Kabupaten Gunung MAS",KALIMANTAN TENGAH,74561.0,Indonesia,,,,-0.9182884,113.5509619,https://maps.google.com/?cid=0x0:0x8cf6e6f28b053f50,
restaurant,Brunch,Warung makan mama zalfa,"3HJ2+QC2, Unnamed Road, Tumbang Miri, Kec. Kahayan Hulu Utara, Kabupaten Gunung MAS, Kalimantan Tengah 74561","Unnamed Road, Tumbang Miri, Kec. Kahayan Hulu Utara, Kabupaten Gunung MAS",KALIMANTAN TENGAH,74561.0,Indonesia,81346555891.0,,,-0.9181224,113.5510149,https://maps.google.com/?cid=0x0:0xc0c00dcabe81dda7,
restaurant,Toko umum,Cafe/Warung Indu Hendri(Turi Marikoi),"4F25+5QC, Tumbang Marikoi, Damang Batu, Kabupaten Gunung MAS, Kalimantan Tengah","Kabupaten Gunung MAS, Kalimantan Tengah",KALIMANTAN TENGAH,,Indonesia,81256123957.0,,,-0.8996989,113.4601788,https://maps.google.com/?cid=0x0:0xc6e858ef1b6c7f89,
restaurant,Brunch,SNS fried Chicken,"3HJ2+M97, Tumbang Miri, Kec. Kahayan Hulu Utara, Kabupaten Gunung MAS, Kalimantan Tengah 74561","Tumbang Miri, Kec. Kahayan Hulu Utara, Kabupaten Gunung MAS",KALIMANTAN TENGAH,74561.0,Indonesia,,,,-0.9183375,113.5509219,https://maps.google.com/?cid=0x0:0x6733175f2dc6d154,
restaurant,Tujuan Wisata,Warung Bu Yuni,"9CM9+8P8, Tumbang Mahuroi, Damang Batu, Kabupaten Gunung MAS, Kalimantan Tengah 74553","Tumbang Mahuroi, Damang Batu, Kabupaten Gunung MAS",KALIMANTAN TENGAH,74553.0,Indonesia,8581157445.0,,,-0.6167225,113.4193365,https://maps.google.com/?cid=0x0:0xb879c63ffc4c54ce,
restaurant,Toko bahan makanan,RM Alminang,"3GJP+HPR, Unnamed Road, Dandang, Kec. Kahayan Hulu Utara, Kabupaten Gunung MAS, Kemiri, Kalimantan Tengah 74561","Unnamed Road, Dandang, Kec. Kahayan Hulu Utara, Kabupaten Gunung MAS, Kemiri",KALIMANTAN TENGAH,74561.0,Indonesia,83171332524.0,,,-0.9185625,113.5368125,https://maps.google.com/?cid=0x0:0x28aa7e6509eeb217,
restaurant,Toko bahan makanan,"Warung makan bakso inta, toko peralatan rumah","3GJP+HPR, Unnamed Road, Dandang, Kec. Kahayan Hulu Utara, Kabupaten Gunung MAS, Kalimantan Tengah 74561","Unnamed Road, Dandang, Kec. Kahayan Hulu Utara, Kabupaten Gunung MAS",KALIMANTAN TENGAH,74561.0,Indonesia,,,,-0.9185067,113.536765,https://maps.google.com/?cid=0x0:0x5352fe6aeac42fd3,
restaurant,Kedai Kopi,sucipto,"3GHX+PWR, Tumbang Miri, Kec. Kahayan Hulu Utara, Kabupaten Gunung MAS, Kalimantan Tengah 74561","Tumbang Miri, Kec. Kahayan Hulu Utara, Kabupaten Gunung MAS",KALIMANTAN TENGAH,74561.0,Indonesia,,,,-0.9203722,113.5493992,https://maps.google.com/?cid=0x0:0x1980971435dbe0e1,
restaurant,Kafe,Quizas Resto Cafe,"Jl. Iskandar No.15, Madurejo, Kec. Arut Sel., Kabupaten Kotawaringin Barat, Kalimantan Tengah 74112","Madurejo, Kec. Arut Sel., Kabupaten Kotawaringin Barat",KALIMANTAN TENGAH,74112.0,Indonesia,,,,-2.6924278,111.6374681,https://maps.google.com/?cid=0x0:0x54ba1acf3ae48dd0,
restaurant,Toko,Warung indo binjai,"2JPV+X6, Rangan Mihing, Kec. Tewah, Kabupaten Gunung MAS, Kalimantan Tengah","Kabupaten Gunung MAS, Kalimantan Tengah",KALIMANTAN TENGAH,,Indonesia,,,,-0.9664375,113.6436875,https://maps.google.com/?cid=0x0:0x3cb4fd917eda93b5,
restaurant,Restoran,Ming Cafe Miri Borneo,"Borneo, 98000 Miri, Sarawak, Malaysia",Miri,KALIMANTAN TENGAH,98000.0,Indonesia,6085422797.0,,,4.3972223,113.9888835,https://maps.google.com/?cid=0x0:0xf9865f47fa21cb73,
restaurant,restaurant,Warung sate bang tolib,"JM36+QCM, Tumbang Naan, Seribu Riam, Kabupaten Murung Raya, Kalimantan Tengah","Kabupaten Murung Raya, Kalimantan Tengah",KALIMANTAN TENGAH,,Indonesia,,,,-0.3955389,113.6610438,https://maps.google.com/?cid=0x0:0x6739e0bf05a2bd89,
restaurant,restaurant,Cafe simpang 4marikoi,"5C4X+94X, Tumbang Marikoi, Damang Batu, Kabupaten Gunung MAS, Kalimantan Tengah","Kabupaten Gunung MAS, Kalimantan Tengah",KALIMANTAN TENGAH,,Indonesia,,,,-0.8440195,113.4478441,https://maps.google.com/?cid=0x0:0x90fd1fd0772f857e,
restaurant,restaurant,Warung makan dan es Boba (JAJ),"3HJ2+R94, Jl.Hatipan, RT.005/RW.000, Tumbang Miri, Kec. Kahayan Hulu Utara, Kabupaten Gunung MAS, Kalimantan Tengah 74561","Jl.Hatipan, RT.005/RW.000, Tumbang Miri, Kec. Kahayan Hulu Utara, Kabupaten Gunung MAS",KALIMANTAN TENGAH,74561.0,Indonesia,,,,-0.917989,113.5509415,https://maps.google.com/?cid=0x0:0xa9da7b60f04f39a2,
restaurant,restaurant,SGO,"3HM3+9CF, Tumbang Miri, Kec. Kahayan Hulu Utara, Kabupaten Gunung MAS, Kalimantan Tengah 74561","Tumbang Miri, Kec. Kahayan Hulu Utara, Kabupaten Gunung MAS",KALIMANTAN TENGAH,74561.0,Indonesia,,,,-0.9165589,113.5535466,https://maps.google.com/?cid=0x0:0x3241a6e7dac6ec79,
restaurant,restaurant,Kilang kopi indah global coffee,"8HG4+H3Q, Unnamed Road, Rangan Hiran, Miri Manasa, Kabupaten Gunung MAS, Kalimantan Tengah 74553","Unnamed Road, Rangan Hiran, Miri Manasa, Kabupaten Gunung MAS",KALIMANTAN TENGAH,74553.0,Indonesia,,,,-0.6735271,113.5552367,https://maps.google.com/?cid=0x0:0x60ed0c1f92b54ae4,
restaurant,Restoran,Restaurant Al-Asna (Bismi2-Jalan Parry),"946-949, 946-949, Jalan Asmara, 98000 Miri, Sarawak, Malaysia",Miri,KALIMANTAN TENGAH,98000.0,Indonesia,,,,4.398519,113.9910028,https://maps.google.com/?cid=0x0:0xdce960f55628d26c,
restaurant,restaurant,Miri Manasa,"Kabupaten Gunung MAS, Kalimantan Tengah","Kabupaten Gunung MAS, Kalimantan Tengah",KALIMANTAN TENGAH,,Indonesia,,,,-0.5858075,113.6204644,https://maps.google.com/?cid=0x0:0x9f8a09c1f677910f,
restaurant,Hidangan Laut,Dragon Seafood Restaurant,"Lot 7682, Bakam Road, 98000, Miri, Sarawak, 98000, Malaysia","Bakam Road,",KALIMANTAN TENGAH,98000.0,Indonesia,6085414189.0,,,4.309155,113.9586667,https://maps.google.com/?cid=0x0:0x159487243154e4f,
restaurant,Hidangan Laut,Tanjong Lobang Restaurant,"No.1, Jalan Kubu Brighton, 98000 Miri, Sarawak, Malaysia",Miri,KALIMANTAN TENGAH,98000.0,Indonesia,6085411472.0,,,4.3735164,113.9715859,https://maps.google.com/?cid=0x0:0xc629d549da345e16,
restaurant,Restoran,The Nest Grill  Lounge,"No A-G18, Miri Times Square, Marina Parkcity, 98000, 98000 Miri, Sarawak, Malaysia",Miri,KALIMANTAN TENGAH,98000.0,Indonesia,60169635796.0,,,4.3933375,113.9850664,https://maps.google.com/?cid=0x0:0x90332599fe62da1b,
restaurant,Bistro,Marina Brauhaus,"Lot 1950 Marina Square Phase 2, 98000 Miri, Sarawak, Malaysia",Miri,KALIMANTAN TENGAH,98000.0,Indonesia,60102795367.0,,,4.3916089,113.9805817,https://maps.google.com/?cid=0x0:0x6089f4a74cfd1d9b,
restaurant,Hidangan Laut,Marina Bay Seafood Restaurant,"Lot 2240, Jalan MS2/6, Marina Square 2, 98000 Miri, Sarawak, Malaysia",Miri,KALIMANTAN TENGAH,98000.0,Indonesia,60128186708.0,,,4.3925316,113.9807098,https://maps.google.com/?cid=0x0:0x4489730ccbcc7057,
restaurant,Masakan Asia,Madli's,"Ground Floor, Lot 1088, Jalan Merpati, 98000 Miri, Sarawak, Malaysia",Miri,KALIMANTAN TENGAH,98000.0,Indonesia,6085426615.0,,,4.400153,113.9897367,https://maps.google.com/?cid=0x0:0x168ca7744b26b6be,
restaurant,Kedai Kopi,The Kopitiam,"Marina Square, 2038  2039, Jalan Brighton, Phase 1, 98000 Miri, Sarawak, Malaysia",Miri,KALIMANTAN TENGAH,98000.0,Indonesia,60129896290.0,,,4.3893946,113.9794958,https://maps.google.com/?cid=0x0:0x95dc68f1640ee556,
restaurant,restaurant,Kalimantan Tengah 74561,"Kabupaten Gunung MAS, Kalimantan Tengah","Kabupaten Gunung MAS, Kalimantan Tengah",KALIMANTAN TENGAH,,Indonesia,,,,-1.0753907,113.6204644,https://maps.google.com/?cid=0x0:0xe38f858eb863f7d4,
restaurant,restaurant,WARUNG MAKAN MAMA SURYO,"Jl. Cilik Riwut No.13, RT.1/RW.1, Jakatan Raya, Kec. Rungan, Kabupaten Gunung MAS, Kalimantan Tengah 74561","RT.1/RW.1, Jakatan Raya, Kec. Rungan, Kabupaten Gunung MAS",KALIMANTAN TENGAH,74561.0,Indonesia,85899676650.0,,,-1.2958262,113.5732534,https://maps.google.com/?cid=0x0:0xbabc716bda6b1d8b,
restaurant,Brunch,Warung Bu Susi,"PH5F+XHC, Jl. Cilik Riwut, Jakatan Raya, Kec. Rungan, Kabupaten Gunung MAS, Kalimantan Tengah 74562","Jl. Cilik Riwut, Jakatan Raya, Kec. Rungan, Kabupaten Gunung MAS",KALIMANTAN TENGAH,74562.0,Indonesia,81348521886.0,,,-1.2900572,113.5738834,https://maps.google.com/?cid=0x0:0x8d098d27b8678d0f,
restaurant,Kafe,Depot Es Rachel,"PH6F+969, Jakatan Raya, Kec. Rungan, Kabupaten Gunung MAS, Kalimantan Tengah 74562","Jakatan Raya, Kec. Rungan, Kabupaten Gunung MAS",KALIMANTAN TENGAH,74562.0,Indonesia,82254842520.0,,,-1.289097,113.573101,https://maps.google.com/?cid=0x0:0x1bac13f35509762c,
restaurant,Restoran,Warung Makan Mama Grant,"3GHX+PWR, Tumbang Miri, Kec. Kahayan Hulu Utara, Kabupaten Gunung MAS, Kalimantan Tengah 74561","Tumbang Miri, Kec. Kahayan Hulu Utara, Kabupaten Gunung MAS",KALIMANTAN TENGAH,74561.0,Indonesia,85348503234.0,,,-0.9206333,113.5497774,https://maps.google.com/?cid=0x0:0x3283cb86ce7e045d,
restaurant,Restoran,Kedai Burger Abbiyu,"Jakatan Raya, Kec. Rungan, Kabupaten Gunung MAS, Kalimantan Tengah 74562","Kec. Rungan, Kabupaten Gunung MAS",KALIMANTAN TENGAH,74562.0,Indonesia,,,,-1.2927181,113.5738022,https://maps.google.com/?cid=0x0:0xa2edd83ad179d605,
restaurant,Indonesia,RM Solo Ria,"VVC3+PQF, Tampang Tumbang Anjir, Kec. Kurun, Kabupaten Gunung MAS, Kalimantan Tengah 74571","Tampang Tumbang Anjir, Kec. Kurun, Kabupaten Gunung MAS",KALIMANTAN TENGAH,74571.0,Indonesia,,,,-1.1281847,113.8544242,https://maps.google.com/?cid=0x0:0x239d1db7c18f1188,
restaurant,Mi,Warung Podho Moro mie ayam bakso,"MHP2+575, Unnamed Road, Tumbang Bunut, Kec. Rungan, Kabupaten Gunung MAS, Kalimantan Tengah 74562","Unnamed Road, Tumbang Bunut, Kec. Rungan, Kabupaten Gunung MAS",KALIMANTAN TENGAH,74562.0,Indonesia,81251950387.0,,,-1.3146113,113.5507346,https://maps.google.com/?cid=0x0:0x6bc92526488edeb9,
restaurant,Nasi,Warung JKT,"Jl. Letjend Soeprapto, Tampang Tumbang Anjir, Kec. Kurun, Kabupaten Gunung MAS, Kalimantan Tengah 74571","Tampang Tumbang Anjir, Kec. Kurun, Kabupaten Gunung MAS",KALIMANTAN TENGAH,74571.0,Indonesia,85388617101.0,,,-1.1104803,113.8645396,https://maps.google.com/?cid=0x0:0x7cd2f82ef2acfe19,
restaurant,Restoran,Warung Makan Mas Bro,"3HJ2+M9P, Tumbang Miri, Kec. Kahayan Hulu Utara, Kabupaten Gunung MAS, Kalimantan Tengah 74561","Tumbang Miri, Kec. Kahayan Hulu Utara, Kabupaten Gunung MAS",KALIMANTAN TENGAH,74561.0,Indonesia,,,,-0.9182884,113.5509619,https://maps.google.com/?cid=0x0:0x8cf6e6f28b053f50,
restaurant,Rumah Makan,Warung Pinunjul Berkah,"3G6V+36P, Tumbang Miri, Kec. Kahayan Hulu Utara, Kabupaten Gunung MAS, Kalimantan Tengah 74561","Tumbang Miri, Kec. Kahayan Hulu Utara, Kabupaten Gunung MAS",KALIMANTAN TENGAH,74561.0,Indonesia,82147366308.0,,,-0.9397929,113.5430891,https://maps.google.com/?cid=0x0:0x5d3d570f14b74871,
restaurant,Rumah Makan,Warung MoroSeneng,"XP2G+356, Tewah, Kec. Tewah, Kabupaten Gunung MAS, Kalimantan Tengah 74511","Tewah, Kec. Tewah, Kabupaten Gunung MAS",KALIMANTAN TENGAH,74511.0,Indonesia,82153866091.0,,,-1.049843,113.725384,https://maps.google.com/?cid=0x0:0x613b4c101c167c82,
restaurant,Restoran,Nayomi Seafood,"Jl. Letjend R Jl. Letjend Soeprapto, Kuala Kurun, Kec. Kurun, Kabupaten Gunung MAS, Kalimantan Tengah 74511","Kuala Kurun, Kec. Kurun, Kabupaten Gunung MAS",KALIMANTAN TENGAH,74511.0,Indonesia,82112832999.0,,,-1.1192767,113.8597407,https://maps.google.com/?cid=0x0:0xf2c3b9c4b9b2f455,
restaurant,Rumah Makan,WARTEG MAMA PUTRI,"Ruko, Jl. Perintis No.3, Tewah, Kec. Tewah, Kabupaten Gunung MAS, Kalimantan Tengah 74511","Jl. Perintis No.3, Tewah, Kec. Tewah, Kabupaten Gunung MAS",KALIMANTAN TENGAH,74511.0,Indonesia,81316354999.0,,,-1.0398535,113.7234226,https://maps.google.com/?cid=0x0:0x6d2b783fa9f84227,
restaurant,Toko bahan makanan,"Warung makan bakso inta, toko peralatan rumah","3GJP+HPR, Unnamed Road, Dandang, Kec. Kahayan Hulu Utara, Kabupaten Gunung MAS, Kalimantan Tengah 74561","Unnamed Road, Dandang, Kec. Kahayan Hulu Utara, Kabupaten Gunung MAS",KALIMANTAN TENGAH,74561.0,Indonesia,,,,-0.9185067,113.536765,https://maps.google.com/?cid=0x0:0x5352fe6aeac42fd3,
restaurant,Restoran,Warung Kediri,"VVF5+M6H, Tampang Tumbang Anjir, Kec. Kurun, Kabupaten Gunung MAS, Kalimantan Tengah 74571","Tampang Tumbang Anjir, Kec. Kurun, Kabupaten Gunung MAS",KALIMANTAN TENGAH,74571.0,Indonesia,,,,-1.125822,113.858116,https://maps.google.com/?cid=0x0:0xcba5c950f4a76424,
restaurant,Restoran,RM Rizke Raja Rasa,"VVG5+798, Tampang Tumbang Anjir, Kec. Kurun, Kabupaten Gunung MAS, Kalimantan Tengah 74571","Tampang Tumbang Anjir, Kec. Kurun, Kabupaten Gunung MAS",KALIMANTAN TENGAH,74571.0,Indonesia,,,,-1.1243353,113.8584535,https://maps.google.com/?cid=0x0:0xa66d9184674bbfb5,
restaurant,Restoran,WARUNG MAKAN PALINGK,"WPXG+673, Jl. Nyai Balau, Tewah, Kec. Tewah, Kabupaten Gunung MAS, Kalimantan Tengah 74511","Jl. Nyai Balau, Tewah, Kec. Tewah, Kabupaten Gunung MAS",KALIMANTAN TENGAH,74511.0,Indonesia,,,,-1.0519886,113.7256784,https://maps.google.com/?cid=0x0:0xa5831081c1d0a3d7,
restaurant,Brunch,Warung makan mama zalfa,"3HJ2+QC2, Unnamed Road, Tumbang Miri, Kec. Kahayan Hulu Utara, Kabupaten Gunung MAS, Kalimantan Tengah 74561","Unnamed Road, Tumbang Miri, Kec. Kahayan Hulu Utara, Kabupaten Gunung MAS",KALIMANTAN TENGAH,74561.0,Indonesia,81346555891.0,,,-0.9181224,113.5510149,https://maps.google.com/?cid=0x0:0xc0c00dcabe81dda7,
restaurant,Rumah Makan,MAKANAN YUK,"Jln, Tewah, Kec. Tewah, Kabupaten Gunung MAS, Kalimantan Tengah 74552","Tewah, Kec. Tewah, Kabupaten Gunung MAS",KALIMANTAN TENGAH,74552.0,Indonesia,,,,-1.057564,113.726804,https://maps.google.com/?cid=0x0:0xa3864da9535296a1,
restaurant,Toko bahan makanan,RM Alminang,"3GJP+HPR, Unnamed Road, Dandang, Kec. Kahayan Hulu Utara, Kabupaten Gunung MAS, Kemiri, Kalimantan Tengah 74561","Unnamed Road, Dandang, Kec. Kahayan Hulu Utara, Kabupaten Gunung MAS, Kemiri",KALIMANTAN TENGAH,74561.0,Indonesia,83171332524.0,,,-0.9185625,113.5368125,https://maps.google.com/?cid=0x0:0x28aa7e6509eeb217,
restaurant,restaurant,Kec. Rungan Barat,"Kabupaten Gunung MAS, Kalimantan Tengah","Kabupaten Gunung MAS, Kalimantan Tengah",KALIMANTAN TENGAH,,Indonesia,,,,-1.2648058,113.4266094,https://maps.google.com/?cid=0x0:0x96d1b4f9516d2214,
restaurant,restaurant,WARUNG MAKAN MAMA SURYO,"Jl. Cilik Riwut No.13, RT.1/RW.1, Jakatan Raya, Kec. Rungan, Kabupaten Gunung MAS, Kalimantan Tengah 74561","RT.1/RW.1, Jakatan Raya, Kec. Rungan, Kabupaten Gunung MAS",KALIMANTAN TENGAH,74561.0,Indonesia,85899676650.0,,,-1.2958262,113.5732534,https://maps.google.com/?cid=0x0:0xbabc716bda6b1d8b,
restaurant,Brunch,Warung Bu Susi,"PH5F+XHC, Jl. Cilik Riwut, Jakatan Raya, Kec. Rungan, Kabupaten Gunung MAS, Kalimantan Tengah 74562","Jl. Cilik Riwut, Jakatan Raya, Kec. Rungan, Kabupaten Gunung MAS",KALIMANTAN TENGAH,74562.0,Indonesia,81348521886.0,,,-1.2900572,113.5738834,https://maps.google.com/?cid=0x0:0x8d098d27b8678d0f,
restaurant,Kafe,Depot Es Rachel,"PH6F+969, Jakatan Raya, Kec. Rungan, Kabupaten Gunung MAS, Kalimantan Tengah 74562","Jakatan Raya, Kec. Rungan, Kabupaten Gunung MAS",KALIMANTAN TENGAH,74562.0,Indonesia,82254842520.0,,,-1.289097,113.573101,https://maps.google.com/?cid=0x0:0x1bac13f35509762c,
restaurant,Restoran,Kedai Burger Abbiyu,"Jakatan Raya, Kec. Rungan, Kabupaten Gunung MAS, Kalimantan Tengah 74562","Kec. Rungan, Kabupaten Gunung MAS",KALIMANTAN TENGAH,74562.0,Indonesia,,,,-1.2927181,113.5738022,https://maps.google.com/?cid=0x0:0xa2edd83ad179d605,
restaurant,Padang,RM Mama Rizal,"M92J+PW4, Tumbang Talaken, Kec. Manuhing, Kabupaten Gunung MAS, Kalimantan Tengah 74562","Tumbang Talaken, Kec. Manuhing, Kabupaten Gunung MAS",KALIMANTAN TENGAH,74562.0,Indonesia,81354111175.0,,,-1.3482291,113.3823368,https://maps.google.com/?cid=0x0:0xe7116b8854fd9eab,
restaurant,Restoran,Warung makan ngapak,"J9XM+GJF, Tumbang Talaken, Kec. Manuhing, Kabupaten Gunung MAS, Kalimantan Tengah 74562","Tumbang Talaken, Kec. Manuhing, Kabupaten Gunung MAS",KALIMANTAN TENGAH,74562.0,Indonesia,,,,-1.3511797,113.3840316,https://maps.google.com/?cid=0x0:0x233271bd2a44fd96,
restaurant,Rumah Makan,Pasah,"Unnamed Road, Tumbang Talaken, Kec. Manuhing, Kabupaten Gunung MAS, Kalimantan Tengah 74562","Tumbang Talaken, Kec. Manuhing, Kabupaten Gunung MAS",KALIMANTAN TENGAH,74562.0,Indonesia,,,,-1.3575143,113.3792217,https://maps.google.com/?cid=0x0:0xd1f902e3ea62f168,
restaurant,Rumah Makan,RM.MAMA NiLA,"M92J+RXM, Tumbang Talaken, Kec. Manuhing, Kabupaten Gunung MAS, Kalimantan Tengah 74562","Tumbang Talaken, Kec. Manuhing, Kabupaten Gunung MAS",KALIMANTAN TENGAH,74562.0,Indonesia,85204514260.0,,,-1.347914,113.3824256,https://maps.google.com/?cid=0x0:0xfc3317bac123ae09,
restaurant,Tegal,Kedai Upin Ipin,"J9WJ+HRX, jln tangkasiang di dekat, Tumbang Talaken, Kec. Manuhing, Kabupaten Gunung MAS, Kalimantan Tengah 74562","jln tangkasiang di dekat, Tumbang Talaken, Kec. Manuhing, Kabupaten Gunung MAS",KALIMANTAN TENGAH,74562.0,Indonesia,85257335885.0,,,-1.3535179,113.3821095,https://maps.google.com/?cid=0x0:0xd2e2d662ea6942d3,
restaurant,Kedai Kopi,Kafe gracio,"Unnamed Road, Rabambang, Kec. Rungan Barat, Kabupaten Gunung MAS, Kalimantan Tengah 74562","Rabambang, Kec. Rungan Barat, Kabupaten Gunung MAS",KALIMANTAN TENGAH,74562.0,Indonesia,82350875297.0,,,-1.237526,113.45137,https://maps.google.com/?cid=0x0:0xb5453fa7a873ecbe,
restaurant,Restoran,Rm jawa timur,"M93J+2RX, Unnamed Road, Tumbang Talaken, Kec. Manuhing, Kabupaten Gunung MAS, Kalimantan Tengah 74562","Unnamed Road, Tumbang Talaken, Kec. Manuhing, Kabupaten Gunung MAS",KALIMANTAN TENGAH,74562.0,Indonesia,,,,-1.3473837,113.3820941,https://maps.google.com/?cid=0x0:0xfdd6bd69328be079,
restaurant,Tegal,WARUNG MAKAN MBAK YANTI,"J9XM+FXJ, Tumbang Talaken, Kec. Manuhing, Kabupaten Gunung MAS, Kalimantan Tengah 74562","Tumbang Talaken, Kec. Manuhing, Kabupaten Gunung MAS",KALIMANTAN TENGAH,74562.0,Indonesia,,,,-1.3512803,113.384881,https://maps.google.com/?cid=0x0:0x5acecdeb530efb1b,
restaurant,Dapur Umum,warung makan mbah jenggot,"jln.trans tumbang telaken,berengjun, Kec. Manuhing, Kabupaten Gunung MAS, Kalimantan Tengah","Kabupaten Gunung MAS, Kalimantan Tengah",KALIMANTAN TENGAH,,Indonesia,82250244492.0,,,-1.35622,113.3644925,https://maps.google.com/?cid=0x0:0xa06915f4dd495c1a,
restaurant,Rumah Makan,Rumah makan Gloria (B2),"J9VJ+J76, Unnamed Road, Tumbang Talaken, Manuhing, Gunung MAS Regency, Central Kalimantan 74562","Unnamed Road, Tumbang Talaken, Manuhing, Gunung MAS Regency",KALIMANTAN TENGAH,74562.0,Indonesia,,,,-1.3559661,113.3806443,https://maps.google.com/?cid=0x0:0x5144147c37010779,
restaurant,restaurant,Kedai rina,"PH83+JXX, Jakatan Raya, Kec. Rungan, Kabupaten Gunung MAS, Kalimantan Tengah 74562","Jakatan Raya, Kec. Rungan, Kabupaten Gunung MAS",KALIMANTAN TENGAH,74562.0,Indonesia,,,,-1.2833856,113.5549937,https://maps.google.com/?cid=0x0:0xd9151b0eaf6eecfb,
restaurant,Kedai Kopi,Warung makan Togar,"RHP2+G7, Tumbang Lapan, Kec. Rungan Hulu, Kabupaten Gunung MAS, Kalimantan Tengah","Kabupaten Gunung MAS, Kalimantan Tengah",KALIMANTAN TENGAH,,Indonesia,,,,-1.1637234,113.5507051,https://maps.google.com/?cid=0x0:0x82a49b02b0c2a877,
restaurant,Restoran,Mie Ayam dan Bakso Sukro,"Jl. Cilik Riwut No.13, RT.01/RW.01, Jakatan Raya, Kec. Rungan, Kabupaten Gunung MAS, Kalimantan Tengah 74562","RT.01/RW.01, Jakatan Raya, Kec. Rungan, Kabupaten Gunung MAS",KALIMANTAN TENGAH,74562.0,Indonesia,82234922794.0,,,-1.2957931,113.5732477,https://maps.google.com/?cid=0x0:0xf0d796b8d8591747,
restaurant,Makanan Siap Saji,Bakso ngawi,"Jl. Cilik Riwut No.63, Jakatan Raya, Kec. Rungan, Kabupaten Gunung MAS, Kalimantan Tengah 74562","Jakatan Raya, Kec. Rungan, Kabupaten Gunung MAS",KALIMANTAN TENGAH,74562.0,Indonesia,,,,-1.2921068,113.5740232,https://maps.google.com/?cid=0x0:0xbf68b16049f6071f,
restaurant,restaurant,Kec. Rungan Barat,"Kabupaten Gunung MAS, Kalimantan Tengah","Kabupaten Gunung MAS, Kalimantan Tengah",KALIMANTAN TENGAH,,Indonesia,,,,-1.2648058,113.4266094,https://maps.google.com/?cid=0x0:0x96d1b4f9516d2214,
restaurant,Brunch,Warung Bu Susi,"PH5F+XHC, Jl. Cilik Riwut, Jakatan Raya, Kec. Rungan, Kabupaten Gunung MAS, Kalimantan Tengah 74562","Jl. Cilik Riwut, Jakatan Raya, Kec. Rungan, Kabupaten Gunung MAS",KALIMANTAN TENGAH,74562.0,Indonesia,81348521886.0,,,-1.2900572,113.5738834,https://maps.google.com/?cid=0x0:0x8d098d27b8678d0f,
restaurant,Mi,Warung Podho Moro mie ayam bakso,"MHP2+575, Unnamed Road, Tumbang Bunut, Kec. Rungan, Kabupaten Gunung MAS, Kalimantan Tengah 74562","Unnamed Road, Tumbang Bunut, Kec. Rungan, Kabupaten Gunung MAS",KALIMANTAN TENGAH,74562.0,Indonesia,81251950387.0,,,-1.3146113,113.5507346,https://maps.google.com/?cid=0x0:0x6bc92526488edeb9,
restaurant,restaurant,WARUNG MAKAN MAMA SURYO,"Jl. Cilik Riwut No.13, RT.1/RW.1, Jakatan Raya, Kec. Rungan, Kabupaten Gunung MAS, Kalimantan Tengah 74561","RT.1/RW.1, Jakatan Raya, Kec. Rungan, Kabupaten Gunung MAS",KALIMANTAN TENGAH,74561.0,Indonesia,85899676650.0,,,-1.2958262,113.5732534,https://maps.google.com/?cid=0x0:0xbabc716bda6b1d8b,
restaurant,Restoran,Kedai Burger Abbiyu,"Jakatan Raya, Kec. Rungan, Kabupaten Gunung MAS, Kalimantan Tengah 74562","Kec. Rungan, Kabupaten Gunung MAS",KALIMANTAN TENGAH,74562.0,Indonesia,,,,-1.2927181,113.5738022,https://maps.google.com/?cid=0x0:0xa2edd83ad179d605,
restaurant,Padang,RM Mama Rizal,"M92J+PW4, Tumbang Talaken, Kec. Manuhing, Kabupaten Gunung MAS, Kalimantan Tengah 74562","Tumbang Talaken, Kec. Manuhing, Kabupaten Gunung MAS",KALIMANTAN TENGAH,74562.0,Indonesia,81354111175.0,,,-1.3482291,113.3823368,https://maps.google.com/?cid=0x0:0xe7116b8854fd9eab,
restaurant,Restoran,Warung makan ngapak,"J9XM+GJF, Tumbang Talaken, Kec. Manuhing, Kabupaten Gunung MAS, Kalimantan Tengah 74562","Tumbang Talaken, Kec. Manuhing, Kabupaten Gunung MAS",KALIMANTAN TENGAH,74562.0,Indonesia,,,,-1.3511797,113.3840316,https://maps.google.com/?cid=0x0:0x233271bd2a44fd96,
restaurant,Rumah Makan,RUMAH MAKAN AURA,"J9PH+MJW, Tumbang Talaken, Kec. Manuhing, Kabupaten Gunung MAS, Kalimantan Tengah 74562","Tumbang Talaken, Kec. Manuhing, Kabupaten Gunung MAS",KALIMANTAN TENGAH,74562.0,Indonesia,85293973077.0,,,-1.3632563,113.3790672,https://maps.google.com/?cid=0x0:0x140df581a7edd5c1,
restaurant,Kedai Kopi,Kafe gracio,"Unnamed Road, Rabambang, Kec. Rungan Barat, Kabupaten Gunung MAS, Kalimantan Tengah 74562","Rabambang, Kec. Rungan Barat, Kabupaten Gunung MAS",KALIMANTAN TENGAH,74562.0,Indonesia,82350875297.0,,,-1.237526,113.45137,https://maps.google.com/?cid=0x0:0xb5453fa7a873ecbe,
restaurant,Rumah Makan,Pasah,"Unnamed Road, Tumbang Talaken, Kec. Manuhing, Kabupaten Gunung MAS, Kalimantan Tengah 74562","Tumbang Talaken, Kec. Manuhing, Kabupaten Gunung MAS",KALIMANTAN TENGAH,74562.0,Indonesia,,,,-1.3575143,113.3792217,https://maps.google.com/?cid=0x0:0xd1f902e3ea62f168,
restaurant,Rumah Makan,RM.MAMA NiLA,"M92J+RXM, Tumbang Talaken, Kec. Manuhing, Kabupaten Gunung MAS, Kalimantan Tengah 74562","Tumbang Talaken, Kec. Manuhing, Kabupaten Gunung MAS",KALIMANTAN TENGAH,74562.0,Indonesia,85204514260.0,,,-1.347914,113.3824256,https://maps.google.com/?cid=0x0:0xfc3317bac123ae09,
restaurant,Tegal,Kedai Upin Ipin,"J9WJ+HRX, jln tangkasiang di dekat, Tumbang Talaken, Kec. Manuhing, Kabupaten Gunung MAS, Kalimantan Tengah 74562","jln tangkasiang di dekat, Tumbang Talaken, Kec. Manuhing, Kabupaten Gunung MAS",KALIMANTAN TENGAH,74562.0,Indonesia,85257335885.0,,,-1.3535179,113.3821095,https://maps.google.com/?cid=0x0:0xd2e2d662ea6942d3,
restaurant,Restoran,Mie Ayam dan Bakso Sukro,"Jl. Cilik Riwut No.13, RT.01/RW.01, Jakatan Raya, Kec. Rungan, Kabupaten Gunung MAS, Kalimantan Tengah 74562","RT.01/RW.01, Jakatan Raya, Kec. Rungan, Kabupaten Gunung MAS",KALIMANTAN TENGAH,74562.0,Indonesia,82234922794.0,,,-1.2957931,113.5732477,https://maps.google.com/?cid=0x0:0xf0d796b8d8591747,
restaurant,Rumah Makan,Rumah makan Gloria (B2),"J9VJ+J76, Unnamed Road, Tumbang Talaken, Manuhing, Gunung MAS Regency, Central Kalimantan 74562","Unnamed Road, Tumbang Talaken, Manuhing, Gunung MAS Regency",KALIMANTAN TENGAH,74562.0,Indonesia,,,,-1.3559661,113.3806443,https://maps.google.com/?cid=0x0:0x5144147c37010779,
restaurant,restaurant,Kedai rina,"PH83+JXX, Jakatan Raya, Kec. Rungan, Kabupaten Gunung MAS, Kalimantan Tengah 74562","Jakatan Raya, Kec. Rungan, Kabupaten Gunung MAS",KALIMANTAN TENGAH,74562.0,Indonesia,,,,-1.2833856,113.5549937,https://maps.google.com/?cid=0x0:0xd9151b0eaf6eecfb,
restaurant,Tegal,WARUNG MAKAN MBAK YANTI,"J9XM+FXJ, Tumbang Talaken, Kec. Manuhing, Kabupaten Gunung MAS, Kalimantan Tengah 74562","Tumbang Talaken, Kec. Manuhing, Kabupaten Gunung MAS",KALIMANTAN TENGAH,74562.0,Indonesia,,,,-1.3512803,113.384881,https://maps.google.com/?cid=0x0:0x5acecdeb530efb1b,
restaurant,Kedai Kopi,Warung makan Togar,"RHP2+G7, Tumbang Lapan, Kec. Rungan Hulu, Kabupaten Gunung MAS, Kalimantan Tengah","Kabupaten Gunung MAS, Kalimantan Tengah",KALIMANTAN TENGAH,,Indonesia,,,,-1.1637234,113.5507051,https://maps.google.com/?cid=0x0:0x82a49b02b0c2a877,
restaurant,Restoran,Rm jawa timur,"M93J+2RX, Unnamed Road, Tumbang Talaken, Kec. Manuhing, Kabupaten Gunung MAS, Kalimantan Tengah 74562","Unnamed Road, Tumbang Talaken, Kec. Manuhing, Kabupaten Gunung MAS",KALIMANTAN TENGAH,74562.0,Indonesia,,,,-1.3473837,113.3820941,https://maps.google.com/?cid=0x0:0xfdd6bd69328be079,
restaurant,Makanan Siap Saji,Bakso ngawi,"Jl. Cilik Riwut No.63, Jakatan Raya, Kec. Rungan, Kabupaten Gunung MAS, Kalimantan Tengah 74562","Jakatan Raya, Kec. Rungan, Kabupaten Gunung MAS",KALIMANTAN TENGAH,74562.0,Indonesia,,,,-1.2921068,113.5740232,https://maps.google.com/?cid=0x0:0xbf68b16049f6071f,
restaurant,restaurant,Kec. Rungan Hulu,"Kabupaten Gunung MAS, Kalimantan Tengah","Kabupaten Gunung MAS, Kalimantan Tengah",KALIMANTAN TENGAH,,Indonesia,,,,-1.0312568,113.4736811,https://maps.google.com/?cid=0x0:0x83eaf2f915027506,
restaurant,restaurant,WARUNG MAKAN MAMA SURYO,"Jl. Cilik Riwut No.13, RT.1/RW.1, Jakatan Raya, Kec. Rungan, Kabupaten Gunung MAS, Kalimantan Tengah 74561","RT.1/RW.1, Jakatan Raya, Kec. Rungan, Kabupaten Gunung MAS",KALIMANTAN TENGAH,74561.0,Indonesia,85899676650.0,,,-1.2958262,113.5732534,https://maps.google.com/?cid=0x0:0xbabc716bda6b1d8b,
restaurant,Brunch,Warung Bu Susi,"PH5F+XHC, Jl. Cilik Riwut, Jakatan Raya, Kec. Rungan, Kabupaten Gunung MAS, Kalimantan Tengah 74562","Jl. Cilik Riwut, Jakatan Raya, Kec. Rungan, Kabupaten Gunung MAS",KALIMANTAN TENGAH,74562.0,Indonesia,81348521886.0,,,-1.2900572,113.5738834,https://maps.google.com/?cid=0x0:0x8d098d27b8678d0f,
restaurant,Kafe,Depot Es Rachel,"PH6F+969, Jakatan Raya, Kec. Rungan, Kabupaten Gunung MAS, Kalimantan Tengah 74562","Jakatan Raya, Kec. Rungan, Kabupaten Gunung MAS",KALIMANTAN TENGAH,74562.0,Indonesia,82254842520.0,,,-1.289097,113.573101,https://maps.google.com/?cid=0x0:0x1bac13f35509762c,
restaurant,Rumah Makan,Warung MoroSeneng,"XP2G+356, Tewah, Kec. Tewah, Kabupaten Gunung MAS, Kalimantan Tengah 74511","Tewah, Kec. Tewah, Kabupaten Gunung MAS",KALIMANTAN TENGAH,74511.0,Indonesia,82153866091.0,,,-1.049843,113.725384,https://maps.google.com/?cid=0x0:0x613b4c101c167c82,
restaurant,Rumah Makan,Warung Pinunjul Berkah,"3G6V+36P, Tumbang Miri, Kec. Kahayan Hulu Utara, Kabupaten Gunung MAS, Kalimantan Tengah 74561","Tumbang Miri, Kec. Kahayan Hulu Utara, Kabupaten Gunung MAS",KALIMANTAN TENGAH,74561.0,Indonesia,82147366308.0,,,-0.9397929,113.5430891,https://maps.google.com/?cid=0x0:0x5d3d570f14b74871,
restaurant,Restoran,Warung Makan Mama Grant,"3GHX+PWR, Tumbang Miri, Kec. Kahayan Hulu Utara, Kabupaten Gunung MAS, Kalimantan Tengah 74561","Tumbang Miri, Kec. Kahayan Hulu Utara, Kabupaten Gunung MAS",KALIMANTAN TENGAH,74561.0,Indonesia,85348503234.0,,,-0.9206333,113.5497774,https://maps.google.com/?cid=0x0:0x3283cb86ce7e045d,
restaurant,Rumah Makan,WARTEG MAMA PUTRI,"Ruko, Jl. Perintis No.3, Tewah, Kec. Tewah, Kabupaten Gunung MAS, Kalimantan Tengah 74511","Jl. Perintis No.3, Tewah, Kec. Tewah, Kabupaten Gunung MAS",KALIMANTAN TENGAH,74511.0,Indonesia,81316354999.0,,,-1.0398535,113.7234226,https://maps.google.com/?cid=0x0:0x6d2b783fa9f84227,
restaurant,Rumah Kayu,TULAM Cafe,"Jl. Perintis No.28a, Tewah, Kec. Tewah, Kabupaten Gunung MAS, Kalimantan Tengah 74511","Tewah, Kec. Tewah, Kabupaten Gunung MAS",KALIMANTAN TENGAH,74511.0,Indonesia,81258778282.0,,,-1.032962,113.7292383,https://maps.google.com/?cid=0x0:0x2e24142e022c2fe9,
restaurant,Kafe,EFELIN CAFE DAN ISI ULANG AIR MINUM,"Jl. Gunung Mas, 74511, Tewah, Kec. Tewah, Kabupaten Gunung MAS, Kalimantan Tengah 74511","74511, Tewah, Kec. Tewah, Kabupaten Gunung MAS",KALIMANTAN TENGAH,74511.0,Indonesia,81351688307.0,,,-1.0572586,113.7270423,https://maps.google.com/?cid=0x0:0xe03eeb7eb97ac29b,
restaurant,Brunch,Warung Makan Surya Lamongan,"3GMP+3W7, Dandang, Kec. Kahayan Hulu Utara, Kabupaten Gunung MAS, Kalimantan Tengah 74561","Dandang, Kec. Kahayan Hulu Utara, Kabupaten Gunung MAS",KALIMANTAN TENGAH,74561.0,Indonesia,,,,-0.917333,113.5373041,https://maps.google.com/?cid=0x0:0xdf5a901a0919a1e5,
restaurant,Restoran,Warung Makan Mas Bro,"3HJ2+M9P, Tumbang Miri, Kec. Kahayan Hulu Utara, Kabupaten Gunung MAS, Kalimantan Tengah 74561","Tumbang Miri, Kec. Kahayan Hulu Utara, Kabupaten Gunung MAS",KALIMANTAN TENGAH,74561.0,Indonesia,,,,-0.9182884,113.5509619,https://maps.google.com/?cid=0x0:0x8cf6e6f28b053f50,
restaurant,Toko umum,Depot G.G,"Jl. Tugu No.2, Tewah, Kec. Tewah, Kabupaten Gunung MAS, Kalimantan Tengah 74511","Tewah, Kec. Tewah, Kabupaten Gunung MAS",KALIMANTAN TENGAH,74511.0,Indonesia,81256123957.0,,,-1.0504373,113.7243123,https://maps.google.com/?cid=0x0:0xba11d989d346b561,
restaurant,Kedai Kopi,Kafe gracio,"Unnamed Road, Rabambang, Kec. Rungan Barat, Kabupaten Gunung MAS, Kalimantan Tengah 74562","Rabambang, Kec. Rungan Barat, Kabupaten Gunung MAS",KALIMANTAN TENGAH,74562.0,Indonesia,82350875297.0,,,-1.237526,113.45137,https://maps.google.com/?cid=0x0:0xb5453fa7a873ecbe,
restaurant,Restoran,Warung pangkoh,"Pasir putih, Tewah, Kec. Tewah, Kabupaten Gunung MAS, Kalimantan Tengah 74552","Tewah, Kec. Tewah, Kabupaten Gunung MAS",KALIMANTAN TENGAH,74552.0,Indonesia,,,,-1.0630533,113.7163232,https://maps.google.com/?cid=0x0:0x64d198cd576cfc27,
restaurant,Jawa,WARUNG JAWA,"XP4C+CXJ, Tewah, Kec. Tewah, Kabupaten Gunung MAS, Kalimantan Tengah","Kabupaten Gunung MAS, Kalimantan Tengah",KALIMANTAN TENGAH,,Indonesia,85245557464.0,,,-1.043938,113.7223948,https://maps.google.com/?cid=0x0:0xfab3b0b346a86b5b,
restaurant,Brunch,Warung makan mama zalfa,"3HJ2+QC2, Unnamed Road, Tumbang Miri, Kec. Kahayan Hulu Utara, Kabupaten Gunung MAS, Kalimantan Tengah 74561","Unnamed Road, Tumbang Miri, Kec. Kahayan Hulu Utara, Kabupaten Gunung MAS",KALIMANTAN TENGAH,74561.0,Indonesia,81346555891.0,,,-0.9181224,113.5510149,https://maps.google.com/?cid=0x0:0xc0c00dcabe81dda7,
restaurant,Restoran,Warung Makan B2,"WPP7+2XH, Jl. Perintis, Tewah, Kec. Tewah, Kabupaten Gunung MAS, Kalimantan Tengah 74511","Jl. Perintis, Tewah, Kec. Tewah, Kabupaten Gunung MAS",KALIMANTAN TENGAH,74511.0,Indonesia,,,,-1.0649437,113.7149795,https://maps.google.com/?cid=0x0:0xc2ec8df31f5ab82f,
restaurant,Toko bahan makanan,"Warung makan bakso inta, toko peralatan rumah","3GJP+HPR, Unnamed Road, Dandang, Kec. Kahayan Hulu Utara, Kabupaten Gunung MAS, Kalimantan Tengah 74561","Unnamed Road, Dandang, Kec. Kahayan Hulu Utara, Kabupaten Gunung MAS",KALIMANTAN TENGAH,74561.0,Indonesia,,,,-0.9185067,113.536765,https://maps.google.com/?cid=0x0:0x5352fe6aeac42fd3,
restaurant,Bakso,Muhamad Gafar,"Jl. Perintis No.63, Tewah, Kec. Tewah, Kabupaten Gunung MAS, Kalimantan Tengah 74552","Tewah, Kec. Tewah, Kabupaten Gunung MAS",KALIMANTAN TENGAH,74552.0,Indonesia,82252110435.0,,,-1.0349498,113.7271763,https://maps.google.com/?cid=0x0:0x9044604834b9548b,
restaurant,Kedai Kopi,Warung makan Togar,"RHP2+G7, Tumbang Lapan, Kec. Rungan Hulu, Kabupaten Gunung MAS, Kalimantan Tengah","Kabupaten Gunung MAS, Kalimantan Tengah",KALIMANTAN TENGAH,,Indonesia,,,,-1.1637234,113.5507051,https://maps.google.com/?cid=0x0:0x82a49b02b0c2a877,
restaurant,restaurant,Warung makan wajadda,"VGCR+X5X, Batu Puter, Kec. Rungan Hulu, Kabupaten Gunung MAS, Kalimantan Tengah 74561","Batu Puter, Kec. Rungan Hulu, Kabupaten Gunung MAS",KALIMANTAN TENGAH,74561.0,Indonesia,,,,-1.1275202,113.5404933,https://maps.google.com/?cid=0x0:0xebf9e80c781b6529,
restaurant,restaurant,Sepang,"Selangor, Malaysia","Sepang, Selangor, Malaysia",KALIMANTAN TENGAH,,Indonesia,,,,2.8059607,101.7352881,https://maps.google.com/?cid=0x0:0x83a579d8c26ce9f5,
restaurant,restaurant,Kec. Sepang,"Kabupaten Gunung MAS, Kalimantan Tengah","Kabupaten Gunung MAS, Kalimantan Tengah",KALIMANTAN TENGAH,,Indonesia,,,,-1.4876909,113.895275,https://maps.google.com/?cid=0x0:0x71a5f1e2d2433334,
restaurant,Hidangan Laut,Bagan Lalang Seaview Restaurant,"Pantai, Bagan Lalang, 43950 Tanjong Sepat, Selangor, Malaysia",Tanjong Sepat,KALIMANTAN TENGAH,43950.0,Indonesia,60122534664.0,,,2.6069828,101.6880837,https://maps.google.com/?cid=0x0:0x18d07641a7674736,
restaurant,Hidangan Laut,HM Sri Bagan Sepang,"Kampung, Restoran Terapung HM Sri Bagan, Bagan Lalang, 43950 Sungai Pelek, Selangor, Malaysia",Sungai Pelek,KALIMANTAN TENGAH,43950.0,Indonesia,60331412895.0,,,2.6099916,101.6859162,https://maps.google.com/?cid=0x0:0x24e61cf237a9636f,
restaurant,Hidangan Laut,Restoran Bayu Malam,"Avani Sepang Goldcoast Resort, lot 980 jalan pantai, 67, Jalan Pantai Bagan Lalang, Bagan Lalang, 43950 Sepang, Selangor, Malaysia",Sepang,KALIMANTAN TENGAH,43950.0,Indonesia,60195757258.0,,,2.6043811,101.6887931,https://maps.google.com/?cid=0x0:0xe4f5c231e91ff03,
restaurant,Taman,GH Armer,"Jl. Pemda II, Sepang Simin, Kec. Sepang, Kabupaten Gunung MAS, Kalimantan Tengah 74571","Sepang Simin, Kec. Sepang, Kabupaten Gunung MAS",KALIMANTAN TENGAH,74571.0,Indonesia,82253697989.0,,,-1.4878471,113.8978105,https://maps.google.com/?cid=0x0:0x21b98de63bd49012,
restaurant,Kamar Mandi Umum,sepang simin kec.gunung mas,"GV6W+W42, Sepang Simin, Kec. Sepang, Kabupaten Gunung MAS, Kalimantan Tengah 74863","Sepang Simin, Kec. Sepang, Kabupaten Gunung MAS",KALIMANTAN TENGAH,74863.0,Indonesia,,,,-1.4877444,113.8952644,https://maps.google.com/?cid=0x0:0xbd08bf350d10799c,
restaurant,Restoran,RESTORAN ROI ROI,"2, Jalan Salak Tinggi 1c/7, Bandar Baru Salak Tinggi, 43900 Sepang, Selangor, Malaysia",Sepang,KALIMANTAN TENGAH,43900.0,Indonesia,60387063329.0,,,2.8119768,101.7375707,https://maps.google.com/?cid=0x0:0xa77cf0e7ba6506f5,
restaurant,restaurant,Kalimantan Tengah 74552,Kalimantan Tengah,Kalimantan Tengah,KALIMANTAN TENGAH,,Indonesia,,,,-0.7250328,113.6204644,https://maps.google.com/?cid=0x0:0xb94d62208c0f5814,
restaurant,Restoran,Warung Makan B2,"WPP7+2XH, Jl. Perintis, Tewah, Kec. Tewah, Kabupaten Gunung MAS, Kalimantan Tengah 74511","Jl. Perintis, Tewah, Kec. Tewah, Kabupaten Gunung MAS",KALIMANTAN TENGAH,74511.0,Indonesia,,,,-1.0649437,113.7149795,https://maps.google.com/?cid=0x0:0xc2ec8df31f5ab82f,
restaurant,Rumah Makan,MAKANAN YUK,"Jln, Tewah, Kec. Tewah, Kabupaten Gunung MAS, Kalimantan Tengah 74552","Tewah, Kec. Tewah, Kabupaten Gunung MAS",KALIMANTAN TENGAH,74552.0,Indonesia,,,,-1.057564,113.726804,https://maps.google.com/?cid=0x0:0xa3864da9535296a1,
restaurant,Restoran,Warung pangkoh,"Pasir putih, Tewah, Kec. Tewah, Kabupaten Gunung MAS, Kalimantan Tengah 74552","Tewah, Kec. Tewah, Kabupaten Gunung MAS",KALIMANTAN TENGAH,74552.0,Indonesia,,,,-1.0630533,113.7163232,https://maps.google.com/?cid=0x0:0x64d198cd576cfc27,
restaurant,Rumah Makan,rumah makan Tewah,"XP2G+73X, Tewah, Kec. Tewah, Kabupaten Gunung MAS, Kalimantan Tengah 74511","Tewah, Kec. Tewah, Kabupaten Gunung MAS",KALIMANTAN TENGAH,74511.0,Indonesia,81251569129.0,,,-1.0492658,113.7252351,https://maps.google.com/?cid=0x0:0xae7359c6b7bd907,
restaurant,Rumah Makan,Bakso Jawa (BJ),"Jl. Perintis, Tewah, Kec. Tewah, Kabupaten Gunung MAS, Kalimantan Tengah 74511","Tewah, Kec. Tewah, Kabupaten Gunung MAS",KALIMANTAN TENGAH,74511.0,Indonesia,82281104177.0,,,-1.0395306,113.7235523,https://maps.google.com/?cid=0x0:0xa8caa3e4327094af,
restaurant,Restoran,Warung Makan Mama Grant,"3GHX+PWR, Tumbang Miri, Kec. Kahayan Hulu Utara, Kabupaten Gunung MAS, Kalimantan Tengah 74561","Tumbang Miri, Kec. Kahayan Hulu Utara, Kabupaten Gunung MAS",KALIMANTAN TENGAH,74561.0,Indonesia,85348503234.0,,,-0.9206333,113.5497774,https://maps.google.com/?cid=0x0:0x3283cb86ce7e045d,
restaurant,Restoran,Rumah Makan Margoroso,"XP6F+QM3, Jl. Perintis, Tewah, Kec. Tewah, Kabupaten Gunung MAS, Kalimantan Tengah 74511","Jl. Perintis, Tewah, Kec. Tewah, Kabupaten Gunung MAS",KALIMANTAN TENGAH,74511.0,Indonesia,,,,-1.0381049,113.7241766,https://maps.google.com/?cid=0x0:0xd648bdf7fedd1a12,
restaurant,Dapur Umum,WM PUTRA JAWA,"WPVG+7QH, Tewah, Kec. Tewah, Kabupaten Gunung MAS, Kalimantan Tengah 74511","Tewah, Kec. Tewah, Kabupaten Gunung MAS",KALIMANTAN TENGAH,74511.0,Indonesia,81349151367.0,,,-1.0568177,113.726996,https://maps.google.com/?cid=0x0:0x47211022c328c4e7,
restaurant,Rumah Makan,Warung MoroSeneng,"XP2G+356, Tewah, Kec. Tewah, Kabupaten Gunung MAS, Kalimantan Tengah 74511","Tewah, Kec. Tewah, Kabupaten Gunung MAS",KALIMANTAN TENGAH,74511.0,Indonesia,82153866091.0,,,-1.049843,113.725384,https://maps.google.com/?cid=0x0:0x613b4c101c167c82,
restaurant,Rumah Makan,Pondok Lalapan Hafidz Tewah,"WPXG+FJ5, Tewah, Kec. Tewah, Kabupaten Gunung MAS, Kalimantan Tengah 74511","Tewah, Kec. Tewah, Kabupaten Gunung MAS",KALIMANTAN TENGAH,74511.0,Indonesia,81251515131.0,,,-1.0513646,113.7266,https://maps.google.com/?cid=0x0:0xc693967632c7b585,
restaurant,Rumah Makan,Rocket chicken tewah,"WPRG+VPG, Tewah, Kec. Tewah, Kabupaten Gunung MAS, Kalimantan Tengah 74511","Tewah, Kec. Tewah, Kabupaten Gunung MAS",KALIMANTAN TENGAH,74511.0,Indonesia,82250633925.0,,,-1.0578041,113.7268005,https://maps.google.com/?cid=0x0:0xb7b4271af0ac510e,
cafe,cafe,Kalimantan Tengah 74553,"Kabupaten Gunung MAS, Kalimantan Tengah","Kabupaten Gunung MAS, Kalimantan Tengah",KALIMANTAN TENGAH,,Indonesia,,,,-0.5866559,113.429984,https://maps.google.com/?cid=0x0:0x7f9e14ce7cf9d71f,
cafe,Toko umum,Cafe/Warung Indu Hendri(Turi Marikoi),"4F25+5QC, Tumbang Marikoi, Damang Batu, Kabupaten Gunung MAS, Kalimantan Tengah","Kabupaten Gunung MAS, Kalimantan Tengah",KALIMANTAN TENGAH,,Indonesia,81256123957.0,,,-0.8996989,113.4601788,https://maps.google.com/?cid=0x0:0xc6e858ef1b6c7f89,
cafe,Kedai Kopi,sucipto,"3GHX+PWR, Tumbang Miri, Kec. Kahayan Hulu Utara, Kabupaten Gunung MAS, Kalimantan Tengah 74561","Tumbang Miri, Kec. Kahayan Hulu Utara, Kabupaten Gunung MAS",KALIMANTAN TENGAH,74561.0,Indonesia,,,,-0.9203722,113.5493992,https://maps.google.com/?cid=0x0:0x1980971435dbe0e1,
cafe,cafe,Kios Dregd,"3HM2+H88, Unnamed Road, Dandang, Kec. Kahayan Hulu Utara, Kabupaten Gunung MAS, Kalimantan Tengah 74561","Unnamed Road, Dandang, Kec. Kahayan Hulu Utara, Kabupaten Gunung MAS",KALIMANTAN TENGAH,74561.0,Indonesia,85258022346.0,,,-0.9160821,113.5508194,https://maps.google.com/?cid=0x0:0x9148fcc85631030e,
cafe,cafe,SGO,"3HM3+9CF, Tumbang Miri, Kec. Kahayan Hulu Utara, Kabupaten Gunung MAS, Kalimantan Tengah 74561","Tumbang Miri, Kec. Kahayan Hulu Utara, Kabupaten Gunung MAS",KALIMANTAN TENGAH,74561.0,Indonesia,,,,-0.9165589,113.5535466,https://maps.google.com/?cid=0x0:0x3241a6e7dac6ec79,
cafe,cafe,Kilang kopi indah global coffee,"8HG4+H3Q, Unnamed Road, Rangan Hiran, Miri Manasa, Kabupaten Gunung MAS, Kalimantan Tengah 74553","Unnamed Road, Rangan Hiran, Miri Manasa, Kabupaten Gunung MAS",KALIMANTAN TENGAH,74553.0,Indonesia,,,,-0.6735271,113.5552367,https://maps.google.com/?cid=0x0:0x60ed0c1f92b54ae4,
cafe,Tujuan Wisata,Warung Bu Yuni,"9CM9+8P8, Tumbang Mahuroi, Damang Batu, Kabupaten Gunung MAS, Kalimantan Tengah 74553","Tumbang Mahuroi, Damang Batu, Kabupaten Gunung MAS",KALIMANTAN TENGAH,74553.0,Indonesia,8581157445.0,,,-0.6167225,113.4193365,https://maps.google.com/?cid=0x0:0xb879c63ffc4c54ce,
cafe,cafe,Kec. Kahayan Hulu Utara,"Kabupaten Gunung MAS, Kalimantan Tengah","Kabupaten Gunung MAS, Kalimantan Tengah",KALIMANTAN TENGAH,,Indonesia,,,,-0.9242953,113.5532855,https://maps.google.com/?cid=0x0:0x47258147014c232a,
cafe,Toko umum,Cafe/Warung Indu Hendri(Turi Marikoi),"4F25+5QC, Tumbang Marikoi, Damang Batu, Kabupaten Gunung MAS, Kalimantan Tengah","Kabupaten Gunung MAS, Kalimantan Tengah",KALIMANTAN TENGAH,,Indonesia,81256123957.0,,,-0.8996989,113.4601788,https://maps.google.com/?cid=0x0:0xc6e858ef1b6c7f89,
cafe,Kedai Kopi,sucipto,"3GHX+PWR, Tumbang Miri, Kec. Kahayan Hulu Utara, Kabupaten Gunung MAS, Kalimantan Tengah 74561","Tumbang Miri, Kec. Kahayan Hulu Utara, Kabupaten Gunung MAS",KALIMANTAN TENGAH,74561.0,Indonesia,,,,-0.9203722,113.5493992,https://maps.google.com/?cid=0x0:0x1980971435dbe0e1,
cafe,Brunch,Warung makan mama zalfa,"3HJ2+QC2, Unnamed Road, Tumbang Miri, Kec. Kahayan Hulu Utara, Kabupaten Gunung MAS, Kalimantan Tengah 74561","Unnamed Road, Tumbang Miri, Kec. Kahayan Hulu Utara, Kabupaten Gunung MAS",KALIMANTAN TENGAH,74561.0,Indonesia,81346555891.0,,,-0.9181224,113.5510149,https://maps.google.com/?cid=0x0:0xc0c00dcabe81dda7,
cafe,Kafe,OREGANO (Coffee and Resto),"Jl. Kinibalu No.120, Palangka, Kec. Jekan Raya, Kota Palangka Raya, Kalimantan Tengah 74874","Palangka, Kec. Jekan Raya, Kota Palangka Raya",KALIMANTAN TENGAH,74874.0,Indonesia,,,,-2.2040253,113.9065039,https://maps.google.com/?cid=0x0:0x7bc321615a8f2b27,
cafe,Kafe,KAHVEH cafe and resto,"Jl. Norman Umar No.39, Kebun Sari, Kec. Amuntai Tengah, Kabupaten Hulu Sungai Utara, Kalimantan Selatan 71419","Kebun Sari, Kec. Amuntai Tengah, Kabupaten Hulu Sungai Utara",KALIMANTAN TENGAH,71419.0,Indonesia,,,,-2.425715,115.2486048,https://maps.google.com/?cid=0x0:0xb73e90d3c5b3aeb8,
cafe,Kafe,EFELIN CAFE DAN ISI ULANG AIR MINUM,"Jl. Gunung Mas, 74511, Tewah, Kec. Tewah, Kabupaten Gunung MAS, Kalimantan Tengah 74511","74511, Tewah, Kec. Tewah, Kabupaten Gunung MAS",KALIMANTAN TENGAH,74511.0,Indonesia,81351688307.0,,,-1.0572586,113.7270423,https://maps.google.com/?cid=0x0:0xe03eeb7eb97ac29b,
cafe,Restoran,Warung Makan Mama Grant,"3GHX+PWR, Tumbang Miri, Kec. Kahayan Hulu Utara, Kabupaten Gunung MAS, Kalimantan Tengah 74561","Tumbang Miri, Kec. Kahayan Hulu Utara, Kabupaten Gunung MAS",KALIMANTAN TENGAH,74561.0,Indonesia,85348503234.0,,,-0.9206333,113.5497774,https://maps.google.com/?cid=0x0:0x3283cb86ce7e045d,
cafe,Rumah Makan,Warung Pinunjul Berkah,"3G6V+36P, Tumbang Miri, Kec. Kahayan Hulu Utara, Kabupaten Gunung MAS, Kalimantan Tengah 74561","Tumbang Miri, Kec. Kahayan Hulu Utara, Kabupaten Gunung MAS",KALIMANTAN TENGAH,74561.0,Indonesia,82147366308.0,,,-0.9397929,113.5430891,https://maps.google.com/?cid=0x0:0x5d3d570f14b74871,
cafe,Layanan Transfer Uang,Agen Brilink UD Kenzho Kenzhi,"3HM2+H6P, Unnamed Road, Dandang, Kec. Kahayan Hulu Utara, Kabupaten Gunung MAS, Kalimantan Tengah 74561","Unnamed Road, Dandang, Kec. Kahayan Hulu Utara, Kabupaten Gunung MAS",KALIMANTAN TENGAH,74561.0,Indonesia,85258022346.0,,,-0.9160413,113.550579,https://maps.google.com/?cid=0x0:0xbcd6dfc554345b2c,
cafe,Minimarket,Kedai King,"3GJQ+PGV, Dandang, Kec. Kahayan Hulu Utara, Kabupaten Gunung MAS, Kalimantan Tengah","Kabupaten Gunung MAS, Kalimantan Tengah",KALIMANTAN TENGAH,,Indonesia,81902331256.0,,,-0.9181633,113.5392733,https://maps.google.com/?cid=0x0:0xbd3a28952357dc52,
cafe,Rumah Kayu,TULAM Cafe,"Jl. Perintis No.28a, Tewah, Kec. Tewah, Kabupaten Gunung MAS, Kalimantan Tengah 74511","Tewah, Kec. Tewah, Kabupaten Gunung MAS",KALIMANTAN TENGAH,74511.0,Indonesia,81258778282.0,,,-1.032962,113.7292383,https://maps.google.com/?cid=0x0:0x2e24142e022c2fe9,
cafe,Restoran,Warung Makan Mas Bro,"3HJ2+M9P, Tumbang Miri, Kec. Kahayan Hulu Utara, Kabupaten Gunung MAS, Kalimantan Tengah 74561","Tumbang Miri, Kec. Kahayan Hulu Utara, Kabupaten Gunung MAS",KALIMANTAN TENGAH,74561.0,Indonesia,,,,-0.9182884,113.5509619,https://maps.google.com/?cid=0x0:0x8cf6e6f28b053f50,
cafe,Brunch,SNS fried Chicken,"3HJ2+M97, Tumbang Miri, Kec. Kahayan Hulu Utara, Kabupaten Gunung MAS, Kalimantan Tengah 74561","Tumbang Miri, Kec. Kahayan Hulu Utara, Kabupaten Gunung MAS",KALIMANTAN TENGAH,74561.0,Indonesia,,,,-0.9183375,113.5509219,https://maps.google.com/?cid=0x0:0x6733175f2dc6d154,
cafe,Toko bahan makanan,RM Alminang,"3GJP+HPR, Unnamed Road, Dandang, Kec. Kahayan Hulu Utara, Kabupaten Gunung MAS, Kemiri, Kalimantan Tengah 74561","Unnamed Road, Dandang, Kec. Kahayan Hulu Utara, Kabupaten Gunung MAS, Kemiri",KALIMANTAN TENGAH,74561.0,Indonesia,83171332524.0,,,-0.9185625,113.5368125,https://maps.google.com/?cid=0x0:0x28aa7e6509eeb217,
cafe,cafe,KEDAI NAI CHA,"Dandang, Kec. Kahayan Hulu Utara, Kabupaten Gunung MAS, Kalimantan Tengah","Kabupaten Gunung MAS, Kalimantan Tengah",KALIMANTAN TENGAH,,Indonesia,,,,-0.9173801,113.5381349,https://maps.google.com/?cid=0x0:0x9f34ec01e3b47009,
cafe,Toko bahan makanan,"Warung makan bakso inta, toko peralatan rumah","3GJP+HPR, Unnamed Road, Dandang, Kec. Kahayan Hulu Utara, Kabupaten Gunung MAS, Kalimantan Tengah 74561","Unnamed Road, Dandang, Kec. Kahayan Hulu Utara, Kabupaten Gunung MAS",KALIMANTAN TENGAH,74561.0,Indonesia,,,,-0.9185067,113.536765,https://maps.google.com/?cid=0x0:0x5352fe6aeac42fd3,
cafe,cafe,Kios Dregd,"3HM2+H88, Unnamed Road, Dandang, Kec. Kahayan Hulu Utara, Kabupaten Gunung MAS, Kalimantan Tengah 74561","Unnamed Road, Dandang, Kec. Kahayan Hulu Utara, Kabupaten Gunung MAS",KALIMANTAN TENGAH,74561.0,Indonesia,85258022346.0,,,-0.9160821,113.5508194,https://maps.google.com/?cid=0x0:0x9148fcc85631030e,
cafe,cafe,SGO,"3HM3+9CF, Tumbang Miri, Kec. Kahayan Hulu Utara, Kabupaten Gunung MAS, Kalimantan Tengah 74561","Tumbang Miri, Kec. Kahayan Hulu Utara, Kabupaten Gunung MAS",KALIMANTAN TENGAH,74561.0,Indonesia,,,,-0.9165589,113.5535466,https://maps.google.com/?cid=0x0:0x3241a6e7dac6ec79,
cafe,cafe,Warung Mbah jenggot 22,"3HG3+78M, Simpang tiga hurung, Kec. Kahayan Hulu Utara, Kabupaten Gunung MAS, Kalimantan Tengah","Kabupaten Gunung MAS, Kalimantan Tengah",KALIMANTAN TENGAH,,Indonesia,82157018788.0,,,-0.9242953,113.5532855,https://maps.google.com/?cid=0x0:0x97e63409b42c4ec9,
cafe,Bar Kopi Espresso,The Garden Cafe On Jalan Kahayan,"Jl. Kahayan, Palangka, Kec. Jekan Raya, Kota Palangka Raya, Kalimantan Tengah 73112","Palangka, Kec. Jekan Raya, Kota Palangka Raya",KALIMANTAN TENGAH,73112.0,Indonesia,811520648.0,,,-2.2039017,113.9153634,https://maps.google.com/?cid=0x0:0xf1c5cf1c306c0903,
cafe,cafe,Kalimantan Tengah 74511,Kalimantan Tengah,Kalimantan Tengah,KALIMANTAN TENGAH,,Indonesia,,,,-0.898161,113.8584737,https://maps.google.com/?cid=0x0:0x88373fa35beec461,
cafe,Kafe,Cantika Cafe,"Jalan Letjen Suprapto No.109, Tampang Tumbang Anjir, Kec. Kurun, Kabupaten Gunung MAS, Kalimantan Tengah 74571","Tampang Tumbang Anjir, Kec. Kurun, Kabupaten Gunung MAS",KALIMANTAN TENGAH,74571.0,Indonesia,82153832692.0,,,-1.1116023,113.8640076,https://maps.google.com/?cid=0x0:0x86145c89c17d1cd6,
cafe,Kafe,Cafe Cantika,"WVPV+7M3, Kuala Kurun, Kec. Kurun, Kabupaten Gunung MAS, Kalimantan Tengah 74571","Kuala Kurun, Kec. Kurun, Kabupaten Gunung MAS",KALIMANTAN TENGAH,74571.0,Indonesia,,,,-1.0643521,113.8941657,https://maps.google.com/?cid=0x0:0x782b0175d01c33fc,
cafe,Kafe,Lotus Pool  Caf,"VVV8+8R5, Jl. Sabirin Muhtar, Kuala Kurun, Kec. Kurun, Kabupaten Gunung MAS, Kalimantan Tengah 74571","Jl. Sabirin Muhtar, Kuala Kurun, Kec. Kurun, Kabupaten Gunung MAS",KALIMANTAN TENGAH,74571.0,Indonesia,,,,-1.1067263,113.8671011,https://maps.google.com/?cid=0x0:0x522f5778068184b7,
cafe,Kedai Kopi,Latif cake dan cafe,"WVQW+776, Kuala Kurun, Kec. Kurun, Kabupaten Gunung MAS, Kalimantan Tengah 74571","Kuala Kurun, Kec. Kurun, Kabupaten Gunung MAS",KALIMANTAN TENGAH,74571.0,Indonesia,,,,-1.0618442,113.8956311,https://maps.google.com/?cid=0x0:0xe0b6ed2715ce4300,
cafe,Kafe,Cafe Tiara,"VVP4+9Q7, Tampang Tumbang Anjir, Kec. Kurun, Kabupaten Gunung MAS, Kalimantan Tengah 74571","Tampang Tumbang Anjir, Kec. Kurun, Kabupaten Gunung MAS",KALIMANTAN TENGAH,74571.0,Indonesia,,,,-1.1140993,113.8569272,https://maps.google.com/?cid=0x0:0x12c8433a89078564,
cafe,Kedai Kopi,Pras Kopi,"Jl. Letjend Soeprapto, Tampang Tumbang Anjir, Kec. Kurun, Kabupaten Gunung MAS, Kalimantan Tengah 74571","Tampang Tumbang Anjir, Kec. Kurun, Kabupaten Gunung MAS",KALIMANTAN TENGAH,74571.0,Indonesia,82251352119.0,,,-1.1113006,113.8637433,https://maps.google.com/?cid=0x0:0x33ac7b66b6299b13,
cafe,Kedai Kopi,Rumah Teduh Cafe,"Tampang Tumbang Anjir, Kec. Kurun, Kabupaten Gunung MAS, Kalimantan Tengah 74571","Kec. Kurun, Kabupaten Gunung MAS",KALIMANTAN TENGAH,74571.0,Indonesia,82352771465.0,,,-1.1134375,113.8635625,https://maps.google.com/?cid=0x0:0x85f373447ae00cbc,
cafe,Kafe,"Nana Cafe, Cake And Resto Ala GM","Jl. Pangeran Diponegoro No.45, Kuala Kurun, Kec. Kurun, Kabupaten Gunung MAS, Kalimantan Tengah 74571","Kuala Kurun, Kec. Kurun, Kabupaten Gunung MAS",KALIMANTAN TENGAH,74571.0,Indonesia,81352811126.0,,,-1.1128057,113.8347208,https://maps.google.com/?cid=0x0:0xf503e8cb54bee391,
cafe,Kedai Kopi,After Taste Coffee Kuala Kurun,"VVC6+993, Jl. DI Panjaitan, Tampang Tumbang Anjir, Kec. Kurun, Kabupaten Gunung MAS, Kalimantan Tengah 74571","Jl. DI Panjaitan, Tampang Tumbang Anjir, Kec. Kurun, Kabupaten Gunung MAS",KALIMANTAN TENGAH,74571.0,Indonesia,,,,-1.1294617,113.8619228,https://maps.google.com/?cid=0x0:0x480e160ae398d059,
cafe,Kedai Kopi,MidnightBloom,"VV96+XV9, Kuala, Kec. Kurun, Kabupaten Gunung MAS, Kalimantan Tengah","Kabupaten Gunung MAS, Kalimantan Tengah",KALIMANTAN TENGAH,,Indonesia,,,,-1.1300933,113.8622329,https://maps.google.com/?cid=0x0:0x3861c940c8e9d819,
cafe,Rumah Kayu,TULAM Cafe,"Jl. Perintis No.28a, Tewah, Kec. Tewah, Kabupaten Gunung MAS, Kalimantan Tengah 74511","Tewah, Kec. Tewah, Kabupaten Gunung MAS",KALIMANTAN TENGAH,74511.0,Indonesia,81258778282.0,,,-1.032962,113.7292383,https://maps.google.com/?cid=0x0:0x2e24142e022c2fe9,
cafe,Kedai Kopi,Munduk cafe,"VVQ7+MPC, Jl. Letjend Soeprapto, Tampang Tumbang Anjir, Kec. Kurun, Kabupaten Gunung MAS, Kalimantan Tengah 74571","Jl. Letjend Soeprapto, Tampang Tumbang Anjir, Kec. Kurun, Kabupaten Gunung MAS",KALIMANTAN TENGAH,74571.0,Indonesia,82252357588.0,,,-1.1108103,113.8642723,https://maps.google.com/?cid=0x0:0x6fbf26724cafe3ab,
cafe,Kedai Kopi,Lotus Pool and Cafe,"Muchtar, Jl. Sabirin Muhtar, Kuala Kurun, Kec. Kurun, Kabupaten Gunung MAS, Kalimantan Tengah 74571","Jl. Sabirin Muhtar, Kuala Kurun, Kec. Kurun, Kabupaten Gunung MAS",KALIMANTAN TENGAH,74571.0,Indonesia,81649318153.0,,,-1.1047459,113.8671886,https://maps.google.com/?cid=0x0:0xf4a672b287be89b9,
cafe,Kedai Kopi,BUA Kopi,"VVH5+JGX, Jl. Pangeran Diponegoro, Kuala Kurun, Kec. Kurun, Kabupaten Gunung MAS, Kalimantan Tengah 74571","Jl. Pangeran Diponegoro, Kuala Kurun, Kec. Kurun, Kabupaten Gunung MAS",KALIMANTAN TENGAH,74571.0,Indonesia,,,,-1.1208939,113.8588521,https://maps.google.com/?cid=0x0:0x54c93d0f1daa4d32,
cafe,Kedai Teh,KOPI GM Kuala Kurun,"Jl. Sangkurun, Taman Kota, Kec. Kurun, Kabupaten Gunung MAS, Kalimantan Tengah 74571","Taman Kota, Kec. Kurun, Kabupaten Gunung MAS",KALIMANTAN TENGAH,74571.0,Indonesia,,,,-1.0988122,113.86886,https://maps.google.com/?cid=0x0:0xf77eaafb61b55f8f,
cafe,Rumah Makan,Depot cinta,"WV55+7H7, Jl. Darnawi Hiung, Kuala Kurun, Kec. Kurun, Kabupaten Gunung MAS, Kalimantan Tengah 74571","Jl. Darnawi Hiung, Kuala Kurun, Kec. Kurun, Kabupaten Gunung MAS",KALIMANTAN TENGAH,74571.0,Indonesia,81346874847.0,,,-1.0918271,113.8589328,https://maps.google.com/?cid=0x0:0x68bc1311ccc9d1ec,
cafe,Kedai Teh,GALLEON,"Jl. Korpri No.136, Kuala Kurun, Kec. Kurun, Kabupaten Gunung MAS, Kalimantan Tengah 74511","Kuala Kurun, Kec. Kurun, Kabupaten Gunung MAS",KALIMANTAN TENGAH,74511.0,Indonesia,85246885416.0,,,-1.1029946,113.8671081,https://maps.google.com/?cid=0x0:0x8abfb7f161d0a693,
cafe,Kedai Kopi,Bobacha Kuala Kurun,"VVVC+Q46, Tampang Tumbang Anjir, Kec. Kurun, Kabupaten Gunung MAS, Kalimantan Tengah 74571","Tampang Tumbang Anjir, Kec. Kurun, Kabupaten Gunung MAS",KALIMANTAN TENGAH,74571.0,Indonesia,,,,-1.1055784,113.8702703,https://maps.google.com/?cid=0x0:0x1d1a6396c6ff219e,
cafe,Restoran,Nayomi Seafood,"Jl. Letjend R Jl. Letjend Soeprapto, Kuala Kurun, Kec. Kurun, Kabupaten Gunung MAS, Kalimantan Tengah 74511","Kuala Kurun, Kec. Kurun, Kabupaten Gunung MAS",KALIMANTAN TENGAH,74511.0,Indonesia,82112832999.0,,,-1.1192767,113.8597407,https://maps.google.com/?cid=0x0:0xf2c3b9c4b9b2f455,
cafe,Restoran,Naomi cafe,"Jalan Palangkaraya buntuk, Kuala Kurun, seberang galon, Sepang, Kalimantan Tengah 73731","Kuala Kurun, seberang galon, Sepang",KALIMANTAN TENGAH,73731.0,Indonesia,83840049700.0,,,-1.0643521,113.8941657,https://maps.google.com/?cid=0x0:0x94ff380fddf45bd4,
cafe,Kafe,Kedai NOMU - Kuala Kurun,"Jl. Letjend Soeprapto, Kuala Kurun, Kec. Kurun, Kabupaten Gunung MAS, Kalimantan Tengah 74571","Kuala Kurun, Kec. Kurun, Kabupaten Gunung MAS",KALIMANTAN TENGAH,74571.0,Indonesia,81388818869.0,,,-1.1094945,113.8648414,https://maps.google.com/?cid=0x0:0x6a51a25afb6392dd,
cafe,Kedai Kopi,Ulala Coffe,"Jl. Letjend Soeprapto, Kuala Kurun, Kec. Kurun, Kabupaten Gunung MAS, Kalimantan Tengah 74511","Kuala Kurun, Kec. Kurun, Kabupaten Gunung MAS",KALIMANTAN TENGAH,74511.0,Indonesia,81254438026.0,,,-1.1084437,113.8659375,https://maps.google.com/?cid=0x0:0xbbd29782828752a2,
cafe,Restoran,Kedai Alwafa,"Jl. Tjilik Riwut No.km.5,5, Kuala Kurun, Kec. Kurun, Kabupaten Gunung MAS, Kalimantan Tengah 74511","Kuala Kurun, Kec. Kurun, Kabupaten Gunung MAS",KALIMANTAN TENGAH,74511.0,Indonesia,81251362005.0,,,-1.1097798,113.8336654,https://maps.google.com/?cid=0x0:0xc73d1cae1ea9574f,
cafe,Kafe,DEPOT ES D'MOCCY,"Jl. Korpri No.140, Kuala Kurun, Kec. Kurun, Kabupaten Gunung MAS, Kalimantan Tengah 74511","Kuala Kurun, Kec. Kurun, Kabupaten Gunung MAS",KALIMANTAN TENGAH,74511.0,Indonesia,81250820302.0,,,-1.103014,113.8670495,https://maps.google.com/?cid=0x0:0xe6ce6cb03de19826,
cafe,Kedai Kopi,Cafe After Taste,"Jl. A. Runting No.45, Kuala Kurun, Kec. Kurun, Kabupaten Gunung MAS, Kalimantan Tengah 74571","Kuala Kurun, Kec. Kurun, Kabupaten Gunung MAS",KALIMANTAN TENGAH,74571.0,Indonesia,,,,-1.1007433,113.8640799,https://maps.google.com/?cid=0x0:0x24cdde085ee6494a,
cafe,Kedai Kopi,Angkringan Santuy Kuala Kurun,"WV29+4PP taman kota, Kuala Kurun, Kec. Kurun, Kabupaten Gunung MAS, Kalimantan Tengah 74571","Kuala Kurun, Kec. Kurun, Kabupaten Gunung MAS",KALIMANTAN TENGAH,74571.0,Indonesia,,,,-1.099657,113.8693213,https://maps.google.com/?cid=0x0:0x6ba104c024212c4f,
cafe,cafe,Kalimantan Tengah 74562,"Kabupaten Gunung MAS, Kalimantan Tengah","Kabupaten Gunung MAS, Kalimantan Tengah",KALIMANTAN TENGAH,,Indonesia,,,,-1.3240171,113.4776098,https://maps.google.com/?cid=0x0:0x59a162add95738c2,
cafe,Kedai Kopi,Dapoer Amoy88,"G9VV+MGQ, Fajar Harapan, Kec. Manuhing, Kabupaten Gunung MAS, Kalimantan Tengah 74562","Fajar Harapan, Kec. Manuhing, Kabupaten Gunung MAS",KALIMANTAN TENGAH,74562.0,Indonesia,82352503983.0,,,-1.4557839,113.3938612,https://maps.google.com/?cid=0x0:0xae006a1b4d5bf0eb,
cafe,Restoran,Warung makan ngapak,"J9XM+GJF, Tumbang Talaken, Kec. Manuhing, Kabupaten Gunung MAS, Kalimantan Tengah 74562","Tumbang Talaken, Kec. Manuhing, Kabupaten Gunung MAS",KALIMANTAN TENGAH,74562.0,Indonesia,,,,-1.3511797,113.3840316,https://maps.google.com/?cid=0x0:0x233271bd2a44fd96,
cafe,Tegal,Kedai Upin Ipin,"J9WJ+HRX, jln tangkasiang di dekat, Tumbang Talaken, Kec. Manuhing, Kabupaten Gunung MAS, Kalimantan Tengah 74562","jln tangkasiang di dekat, Tumbang Talaken, Kec. Manuhing, Kabupaten Gunung MAS",KALIMANTAN TENGAH,74562.0,Indonesia,85257335885.0,,,-1.3535179,113.3821095,https://maps.google.com/?cid=0x0:0xd2e2d662ea6942d3,
cafe,cafe,Hollow Cafe,"J9V7+GQ9, Tumbang Talaken, Kec. Manuhing, Kabupaten Gunung MAS, Kalimantan Tengah","Kabupaten Gunung MAS, Kalimantan Tengah",KALIMANTAN TENGAH,,Indonesia,,,,-1.35622,113.3644925,https://maps.google.com/?cid=0x0:0x257cb5a232560e57,
cafe,Padang,RM Mama Rizal,"M92J+PW4, Tumbang Talaken, Kec. Manuhing, Kabupaten Gunung MAS, Kalimantan Tengah 74562","Tumbang Talaken, Kec. Manuhing, Kabupaten Gunung MAS",KALIMANTAN TENGAH,74562.0,Indonesia,81354111175.0,,,-1.3482291,113.3823368,https://maps.google.com/?cid=0x0:0xe7116b8854fd9eab,
cafe,Kedai Kopi,Kafe gracio,"Unnamed Road, Rabambang, Kec. Rungan Barat, Kabupaten Gunung MAS, Kalimantan Tengah 74562","Rabambang, Kec. Rungan Barat, Kabupaten Gunung MAS",KALIMANTAN TENGAH,74562.0,Indonesia,82350875297.0,,,-1.237526,113.45137,https://maps.google.com/?cid=0x0:0xb5453fa7a873ecbe,
cafe,Kedai Kopi,Warung makan,"J86F+V4W, Bangun Sari, Kec. Manuhing, Kabupaten Gunung MAS, Kalimantan Tengah","Kabupaten Gunung MAS, Kalimantan Tengah",KALIMANTAN TENGAH,,Indonesia,,,,-1.3877507,113.3228127,https://maps.google.com/?cid=0x0:0x9d06c2a6347bc9af,
cafe,Rumah Makan,Pasah,"Unnamed Road, Tumbang Talaken, Kec. Manuhing, Kabupaten Gunung MAS, Kalimantan Tengah 74562","Tumbang Talaken, Kec. Manuhing, Kabupaten Gunung MAS",KALIMANTAN TENGAH,74562.0,Indonesia,,,,-1.3575143,113.3792217,https://maps.google.com/?cid=0x0:0xd1f902e3ea62f168,
cafe,Rumah Makan,Rumah makan Gloria (B2),"J9VJ+J76, Unnamed Road, Tumbang Talaken, Manuhing, Gunung MAS Regency, Central Kalimantan 74562","Unnamed Road, Tumbang Talaken, Manuhing, Gunung MAS Regency",KALIMANTAN TENGAH,74562.0,Indonesia,,,,-1.3559661,113.3806443,https://maps.google.com/?cid=0x0:0x5144147c37010779,
cafe,Minimarket,Kios Nisa,"J9HJ+77H, Unnamed Road, Tumbang Talaken, Kec. Manuhing, Kabupaten Gunung MAS, Kalimantan Tengah 74562","Unnamed Road, Tumbang Talaken, Kec. Manuhing, Kabupaten Gunung MAS",KALIMANTAN TENGAH,74562.0,Indonesia,81251569777.0,,,-1.3718108,113.3807395,https://maps.google.com/?cid=0x0:0xb0a91df9d27a0a90,
cafe,Tempat Penjualan Teh,BAKSONESIA,"J9JJ+G55, Jl. Negara, Tumbang Talaken, Kec. Manuhing, Kabupaten Gunung MAS, Kalimantan Tengah","Kabupaten Gunung MAS, Kalimantan Tengah",KALIMANTAN TENGAH,,Indonesia,82216013370.0,,,-1.368735,113.3804917,https://maps.google.com/?cid=0x0:0x62e5b9292d874921,
cafe,Tegal,WARUNG MAKAN MBAK YANTI,"J9XM+FXJ, Tumbang Talaken, Kec. Manuhing, Kabupaten Gunung MAS, Kalimantan Tengah 74562","Tumbang Talaken, Kec. Manuhing, Kabupaten Gunung MAS",KALIMANTAN TENGAH,74562.0,Indonesia,,,,-1.3512803,113.384881,https://maps.google.com/?cid=0x0:0x5acecdeb530efb1b,
cafe,Rumah Makan,RM.MAMA NiLA,"M92J+RXM, Tumbang Talaken, Kec. Manuhing, Kabupaten Gunung MAS, Kalimantan Tengah 74562","Tumbang Talaken, Kec. Manuhing, Kabupaten Gunung MAS",KALIMANTAN TENGAH,74562.0,Indonesia,85204514260.0,,,-1.347914,113.3824256,https://maps.google.com/?cid=0x0:0xfc3317bac123ae09,
cafe,Rumah Makan,RUMAH MAKAN AURA,"J9PH+MJW, Tumbang Talaken, Kec. Manuhing, Kabupaten Gunung MAS, Kalimantan Tengah 74562","Tumbang Talaken, Kec. Manuhing, Kabupaten Gunung MAS",KALIMANTAN TENGAH,74562.0,Indonesia,85293973077.0,,,-1.3632563,113.3790672,https://maps.google.com/?cid=0x0:0x140df581a7edd5c1,
cafe,Kedai Kopi,Warung Gorengan Mang Warsito,"J9XM+74X, Unnamed Road, Tumbang Talaken, Kec. Manuhing, Kabupaten Gunung MAS, Kalimantan Tengah 74562","Unnamed Road, Tumbang Talaken, Kec. Manuhing, Kabupaten Gunung MAS",KALIMANTAN TENGAH,74562.0,Indonesia,,,,-1.3517738,113.3828591,https://maps.google.com/?cid=0x0:0x3d3d81146f7b1748,
cafe,Restoran,Rm jawa timur,"M93J+2RX, Unnamed Road, Tumbang Talaken, Kec. Manuhing, Kabupaten Gunung MAS, Kalimantan Tengah 74562","Unnamed Road, Tumbang Talaken, Kec. Manuhing, Kabupaten Gunung MAS",KALIMANTAN TENGAH,74562.0,Indonesia,,,,-1.3473837,113.3820941,https://maps.google.com/?cid=0x0:0xfdd6bd69328be079,
cafe,Rumah Makan,Depot Diana  BRILINK,"Depan Polsek, Tumbang Talaken, Kabupaten Gunung MAS, Kalimantan Tengah 74562","Tumbang Talaken, Kabupaten Gunung MAS",KALIMANTAN TENGAH,74562.0,Indonesia,,,,-1.3637631,113.3791212,https://maps.google.com/?cid=0x0:0x5f205202a48b97e7,
cafe,Dapur Umum,warung makan mbah jenggot,"jln.trans tumbang telaken,berengjun, Kec. Manuhing, Kabupaten Gunung MAS, Kalimantan Tengah","Kabupaten Gunung MAS, Kalimantan Tengah",KALIMANTAN TENGAH,,Indonesia,82250244492.0,,,-1.35622,113.3644925,https://maps.google.com/?cid=0x0:0xa06915f4dd495c1a,
cafe,Bar,Martabak Barokah Tumbang Talaken,"J9XM+646, Unnamed Road, Tumbang Talaken, Kec. Manuhing, Kabupaten Gunung MAS, Kalimantan Tengah 74562","Unnamed Road, Tumbang Talaken, Kec. Manuhing, Kabupaten Gunung MAS",KALIMANTAN TENGAH,74562.0,Indonesia,82252292767.0,,,-1.351952,113.3827666,https://maps.google.com/?cid=0x0:0x70d29f8cd2e0f913,
cafe,Sarapan,Warung makan AULIA  PUTRI / Member resmi MSI,"HC2W+JPR, Taringen, Kec. Manuhing, Kabupaten Gunung MAS, Kalimantan Tengah 74562","Taringen, Kec. Manuhing, Kabupaten Gunung MAS",KALIMANTAN TENGAH,74562.0,Indonesia,85248234929.0,,,-1.4483794,113.4467534,https://maps.google.com/?cid=0x0:0xa8c527bb83d8ed48,
cafe,cafe,Kec. Manuhing Raya,"Kabupaten Gunung MAS, Kalimantan Tengah","Kabupaten Gunung MAS, Kalimantan Tengah",KALIMANTAN TENGAH,,Indonesia,,,,-1.2093562,113.3161023,https://maps.google.com/?cid=0x0:0xf4826c03ebd0940e,
cafe,Bar,dailynight38cafe,"Jl. negara, Tumbang Talaken, Kec. Manuhing, Kabupaten Gunung MAS, Kalimantan Tengah 74562","Tumbang Talaken, Kec. Manuhing, Kabupaten Gunung MAS",KALIMANTAN TENGAH,74562.0,Indonesia,85251739355.0,,,-1.35622,113.3644925,https://maps.google.com/?cid=0x0:0x92176471d0a456c3,
cafe,cafe,Hollow Cafe,"J9V7+GQ9, Tumbang Talaken, Kec. Manuhing, Kabupaten Gunung MAS, Kalimantan Tengah","Kabupaten Gunung MAS, Kalimantan Tengah",KALIMANTAN TENGAH,,Indonesia,,,,-1.35622,113.3644925,https://maps.google.com/?cid=0x0:0x257cb5a232560e57,
cafe,Restoran,Warung makan ngapak,"J9XM+GJF, Tumbang Talaken, Kec. Manuhing, Kabupaten Gunung MAS, Kalimantan Tengah 74562","Tumbang Talaken, Kec. Manuhing, Kabupaten Gunung MAS",KALIMANTAN TENGAH,74562.0,Indonesia,,,,-1.3511797,113.3840316,https://maps.google.com/?cid=0x0:0x233271bd2a44fd96,
cafe,Padang,RM Mama Rizal,"M92J+PW4, Tumbang Talaken, Kec. Manuhing, Kabupaten Gunung MAS, Kalimantan Tengah 74562","Tumbang Talaken, Kec. Manuhing, Kabupaten Gunung MAS",KALIMANTAN TENGAH,74562.0,Indonesia,81354111175.0,,,-1.3482291,113.3823368,https://maps.google.com/?cid=0x0:0xe7116b8854fd9eab,
cafe,Rumah Makan,Rumah makan Gloria (B2),"J9VJ+J76, Unnamed Road, Tumbang Talaken, Manuhing, Gunung MAS Regency, Central Kalimantan 74562","Unnamed Road, Tumbang Talaken, Manuhing, Gunung MAS Regency",KALIMANTAN TENGAH,74562.0,Indonesia,,,,-1.3559661,113.3806443,https://maps.google.com/?cid=0x0:0x5144147c37010779,
cafe,Rumah Makan,Pasah,"Unnamed Road, Tumbang Talaken, Kec. Manuhing, Kabupaten Gunung MAS, Kalimantan Tengah 74562","Tumbang Talaken, Kec. Manuhing, Kabupaten Gunung MAS",KALIMANTAN TENGAH,74562.0,Indonesia,,,,-1.3575143,113.3792217,https://maps.google.com/?cid=0x0:0xd1f902e3ea62f168,
cafe,Rumah Makan,RM.MAMA NiLA,"M92J+RXM, Tumbang Talaken, Kec. Manuhing, Kabupaten Gunung MAS, Kalimantan Tengah 74562","Tumbang Talaken, Kec. Manuhing, Kabupaten Gunung MAS",KALIMANTAN TENGAH,74562.0,Indonesia,85204514260.0,,,-1.347914,113.3824256,https://maps.google.com/?cid=0x0:0xfc3317bac123ae09,
cafe,Kedai Kopi,Warung Gorengan Mang Warsito,"J9XM+74X, Unnamed Road, Tumbang Talaken, Kec. Manuhing, Kabupaten Gunung MAS, Kalimantan Tengah 74562","Unnamed Road, Tumbang Talaken, Kec. Manuhing, Kabupaten Gunung MAS",KALIMANTAN TENGAH,74562.0,Indonesia,,,,-1.3517738,113.3828591,https://maps.google.com/?cid=0x0:0x3d3d81146f7b1748,
cafe,Tegal,WARUNG MAKAN MBAK YANTI,"J9XM+FXJ, Tumbang Talaken, Kec. Manuhing, Kabupaten Gunung MAS, Kalimantan Tengah 74562","Tumbang Talaken, Kec. Manuhing, Kabupaten Gunung MAS",KALIMANTAN TENGAH,74562.0,Indonesia,,,,-1.3512803,113.384881,https://maps.google.com/?cid=0x0:0x5acecdeb530efb1b,
cafe,Dapur Umum,warung makan mbah jenggot,"jln.trans tumbang telaken,berengjun, Kec. Manuhing, Kabupaten Gunung MAS, Kalimantan Tengah","Kabupaten Gunung MAS, Kalimantan Tengah",KALIMANTAN TENGAH,,Indonesia,82250244492.0,,,-1.35622,113.3644925,https://maps.google.com/?cid=0x0:0xa06915f4dd495c1a,
cafe,Restoran,Rm jawa timur,"M93J+2RX, Unnamed Road, Tumbang Talaken, Kec. Manuhing, Kabupaten Gunung MAS, Kalimantan Tengah 74562","Unnamed Road, Tumbang Talaken, Kec. Manuhing, Kabupaten Gunung MAS",KALIMANTAN TENGAH,74562.0,Indonesia,,,,-1.3473837,113.3820941,https://maps.google.com/?cid=0x0:0xfdd6bd69328be079,
cafe,Rumah Makan,RUMAH MAKAN AURA,"J9PH+MJW, Tumbang Talaken, Kec. Manuhing, Kabupaten Gunung MAS, Kalimantan Tengah 74562","Tumbang Talaken, Kec. Manuhing, Kabupaten Gunung MAS",KALIMANTAN TENGAH,74562.0,Indonesia,85293973077.0,,,-1.3632563,113.3790672,https://maps.google.com/?cid=0x0:0x140df581a7edd5c1,
cafe,Kedai Kopi,Kafe gracio,"Unnamed Road, Rabambang, Kec. Rungan Barat, Kabupaten Gunung MAS, Kalimantan Tengah 74562","Rabambang, Kec. Rungan Barat, Kabupaten Gunung MAS",KALIMANTAN TENGAH,74562.0,Indonesia,82350875297.0,,,-1.237526,113.45137,https://maps.google.com/?cid=0x0:0xb5453fa7a873ecbe,
cafe,Bar,Martabak Barokah Tumbang Talaken,"J9XM+646, Unnamed Road, Tumbang Talaken, Kec. Manuhing, Kabupaten Gunung MAS, Kalimantan Tengah 74562","Unnamed Road, Tumbang Talaken, Kec. Manuhing, Kabupaten Gunung MAS",KALIMANTAN TENGAH,74562.0,Indonesia,82252292767.0,,,-1.351952,113.3827666,https://maps.google.com/?cid=0x0:0x70d29f8cd2e0f913,
cafe,Minimarket,Kios Nisa,"J9HJ+77H, Unnamed Road, Tumbang Talaken, Kec. Manuhing, Kabupaten Gunung MAS, Kalimantan Tengah 74562","Unnamed Road, Tumbang Talaken, Kec. Manuhing, Kabupaten Gunung MAS",KALIMANTAN TENGAH,74562.0,Indonesia,81251569777.0,,,-1.3718108,113.3807395,https://maps.google.com/?cid=0x0:0xb0a91df9d27a0a90,
cafe,Rumah Makan,Depot Diana  BRILINK,"Depan Polsek, Tumbang Talaken, Kabupaten Gunung MAS, Kalimantan Tengah 74562","Tumbang Talaken, Kabupaten Gunung MAS",KALIMANTAN TENGAH,74562.0,Indonesia,,,,-1.3637631,113.3791212,https://maps.google.com/?cid=0x0:0x5f205202a48b97e7,
cafe,Tempat Penjualan Teh,BAKSONESIA,"J9JJ+G55, Jl. Negara, Tumbang Talaken, Kec. Manuhing, Kabupaten Gunung MAS, Kalimantan Tengah","Kabupaten Gunung MAS, Kalimantan Tengah",KALIMANTAN TENGAH,,Indonesia,82216013370.0,,,-1.368735,113.3804917,https://maps.google.com/?cid=0x0:0x62e5b9292d874921,
cafe,Kedai Kopi,Warung makan,"J86F+V4W, Bangun Sari, Kec. Manuhing, Kabupaten Gunung MAS, Kalimantan Tengah","Kabupaten Gunung MAS, Kalimantan Tengah",KALIMANTAN TENGAH,,Indonesia,,,,-1.3877507,113.3228127,https://maps.google.com/?cid=0x0:0x9d06c2a6347bc9af,
cafe,Tempat Penjualan Teh,Mie Ayam Bakso Mas Bro,"J9XM+FQ8, Unnamed Road, Tumbang Talaken, Kec. Manuhing, Kabupaten Gunung MAS, Kalimantan Tengah 74562","Unnamed Road, Tumbang Talaken, Kec. Manuhing, Kabupaten Gunung MAS",KALIMANTAN TENGAH,74562.0,Indonesia,,,,-1.3513466,113.3844561,https://maps.google.com/?cid=0x0:0x82c5b1f5ee67b224,
cafe,Kedai Kopi,Maju Makmur Coffee,"Jl. Nyai Rendem No.18, Langkai, Kec. Pahandut, Kota Palangka Raya, Kalimantan Tengah 73111","Langkai, Kec. Pahandut, Kota Palangka Raya",KALIMANTAN TENGAH,73111.0,Indonesia,,,,-2.2240979,113.9228703,https://maps.google.com/?cid=0x0:0xdb8000e256fdbeda,
cafe,Rumah Makan,RM mama rizki,"J9V7+GQ9, Jalan negaraTumbang, Tumbang Talaken, Kec. Manuhing, Kabupaten Gunung MAS, Kalimantan Tengah 74562","Jalan negaraTumbang, Tumbang Talaken, Kec. Manuhing, Kabupaten Gunung MAS",KALIMANTAN TENGAH,74562.0,Indonesia,,,,-1.35622,113.3644925,https://maps.google.com/?cid=0x0:0xbef54e893ebd0fef,
cafe,Padang,COFEE PASAH,"JL.LINTAS Jl. Palangka Raya - Kuala Kurun, Tangkahen, Kec. Sepang, Kabupaten Gunung MAS, Kalimantan Tengah 74874","Tangkahen, Kec. Sepang, Kabupaten Gunung MAS",KALIMANTAN TENGAH,74874.0,Indonesia,85350809011.0,,,-1.5429875,113.9234364,https://maps.google.com/?cid=0x0:0x4e9ce18b5b2d5eda,
cafe,cafe,Kalimantan Tengah 74571,"Kabupaten Gunung MAS, Kalimantan Tengah","Kabupaten Gunung MAS, Kalimantan Tengah",KALIMANTAN TENGAH,,Indonesia,,,,-1.1433424,113.9060624,https://maps.google.com/?cid=0x0:0x7dbb143be4104e8e,
cafe,Kedai Kopi,Rumah Teduh Cafe,"Tampang Tumbang Anjir, Kec. Kurun, Kabupaten Gunung MAS, Kalimantan Tengah 74571","Kec. Kurun, Kabupaten Gunung MAS",KALIMANTAN TENGAH,74571.0,Indonesia,82352771465.0,,,-1.1134375,113.8635625,https://maps.google.com/?cid=0x0:0x85f373447ae00cbc,
cafe,Kafe,Cantika Cafe,"Jalan Letjen Suprapto No.109, Tampang Tumbang Anjir, Kec. Kurun, Kabupaten Gunung MAS, Kalimantan Tengah 74571","Tampang Tumbang Anjir, Kec. Kurun, Kabupaten Gunung MAS",KALIMANTAN TENGAH,74571.0,Indonesia,82153832692.0,,,-1.1116023,113.8640076,https://maps.google.com/?cid=0x0:0x86145c89c17d1cd6,
cafe,Kafe,Lotus Pool  Caf,"VVV8+8R5, Jl. Sabirin Muhtar, Kuala Kurun, Kec. Kurun, Kabupaten Gunung MAS, Kalimantan Tengah 74571","Jl. Sabirin Muhtar, Kuala Kurun, Kec. Kurun, Kabupaten Gunung MAS",KALIMANTAN TENGAH,74571.0,Indonesia,,,,-1.1067263,113.8671011,https://maps.google.com/?cid=0x0:0x522f5778068184b7,
cafe,Kafe,Cafe Tiara,"VVP4+9Q7, Tampang Tumbang Anjir, Kec. Kurun, Kabupaten Gunung MAS, Kalimantan Tengah 74571","Tampang Tumbang Anjir, Kec. Kurun, Kabupaten Gunung MAS",KALIMANTAN TENGAH,74571.0,Indonesia,,,,-1.1140993,113.8569272,https://maps.google.com/?cid=0x0:0x12c8433a89078564,
cafe,Nasi,Warung JKT,"Jl. Letjend Soeprapto, Tampang Tumbang Anjir, Kec. Kurun, Kabupaten Gunung MAS, Kalimantan Tengah 74571","Tampang Tumbang Anjir, Kec. Kurun, Kabupaten Gunung MAS",KALIMANTAN TENGAH,74571.0,Indonesia,85388617101.0,,,-1.1104803,113.8645396,https://maps.google.com/?cid=0x0:0x7cd2f82ef2acfe19,
cafe,Kedai Kopi,Lotus Pool and Cafe,"Muchtar, Jl. Sabirin Muhtar, Kuala Kurun, Kec. Kurun, Kabupaten Gunung MAS, Kalimantan Tengah 74571","Jl. Sabirin Muhtar, Kuala Kurun, Kec. Kurun, Kabupaten Gunung MAS",KALIMANTAN TENGAH,74571.0,Indonesia,81649318153.0,,,-1.1047459,113.8671886,https://maps.google.com/?cid=0x0:0xf4a672b287be89b9,
cafe,Kedai Kopi,Bobacha Kuala Kurun,"VVVC+Q46, Tampang Tumbang Anjir, Kec. Kurun, Kabupaten Gunung MAS, Kalimantan Tengah 74571","Tampang Tumbang Anjir, Kec. Kurun, Kabupaten Gunung MAS",KALIMANTAN TENGAH,74571.0,Indonesia,,,,-1.1055784,113.8702703,https://maps.google.com/?cid=0x0:0x1d1a6396c6ff219e,
cafe,Kedai Kopi,Latif cake dan cafe,"WVQW+776, Kuala Kurun, Kec. Kurun, Kabupaten Gunung MAS, Kalimantan Tengah 74571","Kuala Kurun, Kec. Kurun, Kabupaten Gunung MAS",KALIMANTAN TENGAH,74571.0,Indonesia,,,,-1.0618442,113.8956311,https://maps.google.com/?cid=0x0:0xe0b6ed2715ce4300,
cafe,Restoran,Warung Makan Berkah,"Jl. Letjend Soeprapto, Tampang Tumbang Anjir, Kec. Kurun, Kabupaten Gunung MAS, Kalimantan Tengah 74571","Tampang Tumbang Anjir, Kec. Kurun, Kabupaten Gunung MAS",KALIMANTAN TENGAH,74571.0,Indonesia,85348387430.0,,,-1.1155667,113.8630576,https://maps.google.com/?cid=0x0:0x764c6ea8c5dbb8d1,
cafe,Kedai Kopi,BUA Kopi,"VVH5+JGX, Jl. Pangeran Diponegoro, Kuala Kurun, Kec. Kurun, Kabupaten Gunung MAS, Kalimantan Tengah 74571","Jl. Pangeran Diponegoro, Kuala Kurun, Kec. Kurun, Kabupaten Gunung MAS",KALIMANTAN TENGAH,74571.0,Indonesia,,,,-1.1208939,113.8588521,https://maps.google.com/?cid=0x0:0x54c93d0f1daa4d32,
cafe,Kedai Kopi,Munduk cafe,"VVQ7+MPC, Jl. Letjend Soeprapto, Tampang Tumbang Anjir, Kec. Kurun, Kabupaten Gunung MAS, Kalimantan Tengah 74571","Jl. Letjend Soeprapto, Tampang Tumbang Anjir, Kec. Kurun, Kabupaten Gunung MAS",KALIMANTAN TENGAH,74571.0,Indonesia,82252357588.0,,,-1.1108103,113.8642723,https://maps.google.com/?cid=0x0:0x6fbf26724cafe3ab,
cafe,Kedai Kopi,MidnightBloom,"VV96+XV9, Kuala, Kec. Kurun, Kabupaten Gunung MAS, Kalimantan Tengah","Kabupaten Gunung MAS, Kalimantan Tengah",KALIMANTAN TENGAH,,Indonesia,,,,-1.1300933,113.8622329,https://maps.google.com/?cid=0x0:0x3861c940c8e9d819,
cafe,Kedai Kopi,Se~Iya Cafe  Resto,"Jl. Pangeran Diponegoro, Kuala, Kec. Kurun, Kabupaten Gunung MAS, Kalimantan Tengah 74571","Kuala, Kec. Kurun, Kabupaten Gunung MAS",KALIMANTAN TENGAH,74571.0,Indonesia,,,,-1.1277717,113.8550641,https://maps.google.com/?cid=0x0:0x2b6ed3b8b348d273,
cafe,Nasi,.,"Jl. Brigjend Katamso, Xlll, Kec. Kurun, Kabupaten Gunung MAS, Kalimantan Tengah 74571","Xlll, Kec. Kurun, Kabupaten Gunung MAS",KALIMANTAN TENGAH,74571.0,Indonesia,82351003443.0,,,-1.117939,113.8586009,https://maps.google.com/?cid=0x0:0x25cc9c2cddb49e9d,
cafe,Kafe,Cafe Cantika,"WVPV+7M3, Kuala Kurun, Kec. Kurun, Kabupaten Gunung MAS, Kalimantan Tengah 74571","Kuala Kurun, Kec. Kurun, Kabupaten Gunung MAS",KALIMANTAN TENGAH,74571.0,Indonesia,,,,-1.0643521,113.8941657,https://maps.google.com/?cid=0x0:0x782b0175d01c33fc,
cafe,Kedai Kopi,Sohib Coffee,"VVWC+P8X, Tampang Tumbang Anjir, Kec. Kurun, Kabupaten Gunung MAS, Kalimantan Tengah 74571","Tampang Tumbang Anjir, Kec. Kurun, Kabupaten Gunung MAS",KALIMANTAN TENGAH,74571.0,Indonesia,,,,-1.1031127,113.8708368,https://maps.google.com/?cid=0x0:0xd8f0860d065baa1d,
cafe,Restoran,Naomi cafe,"Jalan Palangkaraya buntuk, Kuala Kurun, seberang galon, Sepang, Kalimantan Tengah 73731","Kuala Kurun, seberang galon, Sepang",KALIMANTAN TENGAH,73731.0,Indonesia,83840049700.0,,,-1.0643521,113.8941657,https://maps.google.com/?cid=0x0:0x94ff380fddf45bd4,
cafe,Kafe,"Nana Cafe, Cake And Resto Ala GM","Jl. Pangeran Diponegoro No.45, Kuala Kurun, Kec. Kurun, Kabupaten Gunung MAS, Kalimantan Tengah 74571","Kuala Kurun, Kec. Kurun, Kabupaten Gunung MAS",KALIMANTAN TENGAH,74571.0,Indonesia,81352811126.0,,,-1.1128057,113.8347208,https://maps.google.com/?cid=0x0:0xf503e8cb54bee391,
cafe,Kedai Kopi,After Taste Coffee Kuala Kurun,"VVC6+993, Jl. DI Panjaitan, Tampang Tumbang Anjir, Kec. Kurun, Kabupaten Gunung MAS, Kalimantan Tengah 74571","Jl. DI Panjaitan, Tampang Tumbang Anjir, Kec. Kurun, Kabupaten Gunung MAS",KALIMANTAN TENGAH,74571.0,Indonesia,,,,-1.1294617,113.8619228,https://maps.google.com/?cid=0x0:0x480e160ae398d059,
cafe,cafe,Kalimantan Tengah 74553,"Kabupaten Gunung MAS, Kalimantan Tengah","Kabupaten Gunung MAS, Kalimantan Tengah",KALIMANTAN TENGAH,,Indonesia,,,,-0.5866559,113.429984,https://maps.google.com/?cid=0x0:0x7f9e14ce7cf9d71f,
cafe,Toko umum,Cafe/Warung Indu Hendri(Turi Marikoi),"4F25+5QC, Tumbang Marikoi, Damang Batu, Kabupaten Gunung MAS, Kalimantan Tengah","Kabupaten Gunung MAS, Kalimantan Tengah",KALIMANTAN TENGAH,,Indonesia,81256123957.0,,,-0.8996989,113.4601788,https://maps.google.com/?cid=0x0:0xc6e858ef1b6c7f89,
cafe,Kedai Kopi,sucipto,"3GHX+PWR, Tumbang Miri, Kec. Kahayan Hulu Utara, Kabupaten Gunung MAS, Kalimantan Tengah 74561","Tumbang Miri, Kec. Kahayan Hulu Utara, Kabupaten Gunung MAS",KALIMANTAN TENGAH,74561.0,Indonesia,,,,-0.9203722,113.5493992,https://maps.google.com/?cid=0x0:0x1980971435dbe0e1,
cafe,Kedai Kopi,MidnightBloom,"VV96+XV9, Kuala, Kec. Kurun, Kabupaten Gunung MAS, Kalimantan Tengah","Kabupaten Gunung MAS, Kalimantan Tengah",KALIMANTAN TENGAH,,Indonesia,,,,-1.1300933,113.8622329,https://maps.google.com/?cid=0x0:0x3861c940c8e9d819,
cafe,Brunch,Warung makan mama zalfa,"3HJ2+QC2, Unnamed Road, Tumbang Miri, Kec. Kahayan Hulu Utara, Kabupaten Gunung MAS, Kalimantan Tengah 74561","Unnamed Road, Tumbang Miri, Kec. Kahayan Hulu Utara, Kabupaten Gunung MAS",KALIMANTAN TENGAH,74561.0,Indonesia,81346555891.0,,,-0.9181224,113.5510149,https://maps.google.com/?cid=0x0:0xc0c00dcabe81dda7,
cafe,Rumah Makan,Warung Pinunjul Berkah,"3G6V+36P, Tumbang Miri, Kec. Kahayan Hulu Utara, Kabupaten Gunung MAS, Kalimantan Tengah 74561","Tumbang Miri, Kec. Kahayan Hulu Utara, Kabupaten Gunung MAS",KALIMANTAN TENGAH,74561.0,Indonesia,82147366308.0,,,-0.9397929,113.5430891,https://maps.google.com/?cid=0x0:0x5d3d570f14b74871,
cafe,Brunch,Warung Makan Surya Lamongan,"3GMP+3W7, Dandang, Kec. Kahayan Hulu Utara, Kabupaten Gunung MAS, Kalimantan Tengah 74561","Dandang, Kec. Kahayan Hulu Utara, Kabupaten Gunung MAS",KALIMANTAN TENGAH,74561.0,Indonesia,,,,-0.917333,113.5373041,https://maps.google.com/?cid=0x0:0xdf5a901a0919a1e5,
cafe,Restoran,Warung Makan Mas Bro,"3HJ2+M9P, Tumbang Miri, Kec. Kahayan Hulu Utara, Kabupaten Gunung MAS, Kalimantan Tengah 74561","Tumbang Miri, Kec. Kahayan Hulu Utara, Kabupaten Gunung MAS",KALIMANTAN TENGAH,74561.0,Indonesia,,,,-0.9182884,113.5509619,https://maps.google.com/?cid=0x0:0x8cf6e6f28b053f50,
cafe,Kafe,Renee Cafe And Eatery Pangkalan Bun,"8J9J+29J, Jl. Pangeran Diponegoro, Sidorejo, Kec. Arut Sel., Kabupaten Kotawaringin Barat, Kalimantan Tengah 74112","Jl. Pangeran Diponegoro, Sidorejo, Kec. Arut Sel., Kabupaten Kotawaringin Barat",KALIMANTAN TENGAH,74112.0,Indonesia,81258602726.0,,,-2.6823943,111.6309153,https://maps.google.com/?cid=0x0:0x28d33bfe1460f82d,
cafe,Tujuan Wisata,Warung Bu Yuni,"9CM9+8P8, Tumbang Mahuroi, Damang Batu, Kabupaten Gunung MAS, Kalimantan Tengah 74553","Tumbang Mahuroi, Damang Batu, Kabupaten Gunung MAS",KALIMANTAN TENGAH,74553.0,Indonesia,8581157445.0,,,-0.6167225,113.4193365,https://maps.google.com/?cid=0x0:0xb879c63ffc4c54ce,
cafe,Restoran,Ming Cafe Miri Borneo,"Borneo, 98000 Miri, Sarawak, Malaysia",Miri,KALIMANTAN TENGAH,98000.0,Indonesia,6085422797.0,,,4.3972223,113.9888835,https://maps.google.com/?cid=0x0:0xf9865f47fa21cb73,
cafe,cafe,Kilang kopi indah global coffee,"8HG4+H3Q, Unnamed Road, Rangan Hiran, Miri Manasa, Kabupaten Gunung MAS, Kalimantan Tengah 74553","Unnamed Road, Rangan Hiran, Miri Manasa, Kabupaten Gunung MAS",KALIMANTAN TENGAH,74553.0,Indonesia,,,,-0.6735271,113.5552367,https://maps.google.com/?cid=0x0:0x60ed0c1f92b54ae4,
cafe,cafe,Cafe simpang 4marikoi,"5C4X+94X, Tumbang Marikoi, Damang Batu, Kabupaten Gunung MAS, Kalimantan Tengah","Kabupaten Gunung MAS, Kalimantan Tengah",KALIMANTAN TENGAH,,Indonesia,,,,-0.8440195,113.4478441,https://maps.google.com/?cid=0x0:0x90fd1fd0772f857e,
cafe,cafe,Warung makan dan es Boba (JAJ),"3HJ2+R94, Jl.Hatipan, RT.005/RW.000, Tumbang Miri, Kec. Kahayan Hulu Utara, Kabupaten Gunung MAS, Kalimantan Tengah 74561","Jl.Hatipan, RT.005/RW.000, Tumbang Miri, Kec. Kahayan Hulu Utara, Kabupaten Gunung MAS",KALIMANTAN TENGAH,74561.0,Indonesia,,,,-0.917989,113.5509415,https://maps.google.com/?cid=0x0:0xa9da7b60f04f39a2,
cafe,cafe,SGO,"3HM3+9CF, Tumbang Miri, Kec. Kahayan Hulu Utara, Kabupaten Gunung MAS, Kalimantan Tengah 74561","Tumbang Miri, Kec. Kahayan Hulu Utara, Kabupaten Gunung MAS",KALIMANTAN TENGAH,74561.0,Indonesia,,,,-0.9165589,113.5535466,https://maps.google.com/?cid=0x0:0x3241a6e7dac6ec79,
cafe,cafe,Kalimantan Tengah 74561,"Kabupaten Gunung MAS, Kalimantan Tengah","Kabupaten Gunung MAS, Kalimantan Tengah",KALIMANTAN TENGAH,,Indonesia,,,,-1.0753907,113.6204644,https://maps.google.com/?cid=0x0:0xe38f858eb863f7d4,
cafe,cafe,WARUNG MAKAN MAMA SURYO,"Jl. Cilik Riwut No.13, RT.1/RW.1, Jakatan Raya, Kec. Rungan, Kabupaten Gunung MAS, Kalimantan Tengah 74561","RT.1/RW.1, Jakatan Raya, Kec. Rungan, Kabupaten Gunung MAS",KALIMANTAN TENGAH,74561.0,Indonesia,85899676650.0,,,-1.2958262,113.5732534,https://maps.google.com/?cid=0x0:0xbabc716bda6b1d8b,
cafe,Kedai Kopi,Kafe gracio,"Unnamed Road, Rabambang, Kec. Rungan Barat, Kabupaten Gunung MAS, Kalimantan Tengah 74562","Rabambang, Kec. Rungan Barat, Kabupaten Gunung MAS",KALIMANTAN TENGAH,74562.0,Indonesia,82350875297.0,,,-1.237526,113.45137,https://maps.google.com/?cid=0x0:0xb5453fa7a873ecbe,
cafe,Rumah Kayu,TULAM Cafe,"Jl. Perintis No.28a, Tewah, Kec. Tewah, Kabupaten Gunung MAS, Kalimantan Tengah 74511","Tewah, Kec. Tewah, Kabupaten Gunung MAS",KALIMANTAN TENGAH,74511.0,Indonesia,81258778282.0,,,-1.032962,113.7292383,https://maps.google.com/?cid=0x0:0x2e24142e022c2fe9,
cafe,cafe,Kedai rina,"PH83+JXX, Jakatan Raya, Kec. Rungan, Kabupaten Gunung MAS, Kalimantan Tengah 74562","Jakatan Raya, Kec. Rungan, Kabupaten Gunung MAS",KALIMANTAN TENGAH,74562.0,Indonesia,,,,-1.2833856,113.5549937,https://maps.google.com/?cid=0x0:0xd9151b0eaf6eecfb,
cafe,Kedai Kopi,Rumah Teduh Cafe,"Tampang Tumbang Anjir, Kec. Kurun, Kabupaten Gunung MAS, Kalimantan Tengah 74571","Kec. Kurun, Kabupaten Gunung MAS",KALIMANTAN TENGAH,74571.0,Indonesia,82352771465.0,,,-1.1134375,113.8635625,https://maps.google.com/?cid=0x0:0x85f373447ae00cbc,
cafe,Kafe,EFELIN CAFE DAN ISI ULANG AIR MINUM,"Jl. Gunung Mas, 74511, Tewah, Kec. Tewah, Kabupaten Gunung MAS, Kalimantan Tengah 74511","74511, Tewah, Kec. Tewah, Kabupaten Gunung MAS",KALIMANTAN TENGAH,74511.0,Indonesia,81351688307.0,,,-1.0572586,113.7270423,https://maps.google.com/?cid=0x0:0xe03eeb7eb97ac29b,
cafe,Kedai Kopi,Rumah roti KIFA,"Jl. Cilik Riwut No.100, Jakatan Raya, Kec. Rungan, Kabupaten Gunung MAS, Kalimantan Tengah 74562","Jakatan Raya, Kec. Rungan, Kabupaten Gunung MAS",KALIMANTAN TENGAH,74562.0,Indonesia,81255458656.0,,,-1.2911244,113.573772,https://maps.google.com/?cid=0x0:0x38d4e9d0fec40533,
cafe,Kafe,Cantika Cafe,"Jalan Letjen Suprapto No.109, Tampang Tumbang Anjir, Kec. Kurun, Kabupaten Gunung MAS, Kalimantan Tengah 74571","Tampang Tumbang Anjir, Kec. Kurun, Kabupaten Gunung MAS",KALIMANTAN TENGAH,74571.0,Indonesia,82153832692.0,,,-1.1116023,113.8640076,https://maps.google.com/?cid=0x0:0x86145c89c17d1cd6,
cafe,Toko umum,Depot G.G,"Jl. Tugu No.2, Tewah, Kec. Tewah, Kabupaten Gunung MAS, Kalimantan Tengah 74511","Tewah, Kec. Tewah, Kabupaten Gunung MAS",KALIMANTAN TENGAH,74511.0,Indonesia,81256123957.0,,,-1.0504373,113.7243123,https://maps.google.com/?cid=0x0:0xba11d989d346b561,
cafe,Toko umum,Cafe/Warung Indu Hendri(Turi Marikoi),"4F25+5QC, Tumbang Marikoi, Damang Batu, Kabupaten Gunung MAS, Kalimantan Tengah","Kabupaten Gunung MAS, Kalimantan Tengah",KALIMANTAN TENGAH,,Indonesia,81256123957.0,,,-0.8996989,113.4601788,https://maps.google.com/?cid=0x0:0xc6e858ef1b6c7f89,
cafe,Restoran,Warung Makan B2,"WPP7+2XH, Jl. Perintis, Tewah, Kec. Tewah, Kabupaten Gunung MAS, Kalimantan Tengah 74511","Jl. Perintis, Tewah, Kec. Tewah, Kabupaten Gunung MAS",KALIMANTAN TENGAH,74511.0,Indonesia,,,,-1.0649437,113.7149795,https://maps.google.com/?cid=0x0:0xc2ec8df31f5ab82f,
cafe,Kedai Kopi,Warung makan Togar,"RHP2+G7, Tumbang Lapan, Kec. Rungan Hulu, Kabupaten Gunung MAS, Kalimantan Tengah","Kabupaten Gunung MAS, Kalimantan Tengah",KALIMANTAN TENGAH,,Indonesia,,,,-1.1637234,113.5507051,https://maps.google.com/?cid=0x0:0x82a49b02b0c2a877,
cafe,Kafe,Preta Caf and Eatery,"Jl. Gunung Mas No.98, Tewah, Gunung MAS Regency, Central Kalimantan 74511","Tewah, Gunung MAS Regency",KALIMANTAN TENGAH,74511.0,Indonesia,,,,-1.0603022,113.724306,https://maps.google.com/?cid=0x0:0x4d8ab7e9432f6693,
cafe,Restoran,Kedai Burger Abbiyu,"Jakatan Raya, Kec. Rungan, Kabupaten Gunung MAS, Kalimantan Tengah 74562","Kec. Rungan, Kabupaten Gunung MAS",KALIMANTAN TENGAH,74562.0,Indonesia,,,,-1.2927181,113.5738022,https://maps.google.com/?cid=0x0:0xa2edd83ad179d605,
cafe,Brunch,Warung Makan Surya Lamongan,"3GMP+3W7, Dandang, Kec. Kahayan Hulu Utara, Kabupaten Gunung MAS, Kalimantan Tengah 74561","Dandang, Kec. Kahayan Hulu Utara, Kabupaten Gunung MAS",KALIMANTAN TENGAH,74561.0,Indonesia,,,,-0.917333,113.5373041,https://maps.google.com/?cid=0x0:0xdf5a901a0919a1e5,
cafe,Kedai Kopi,Munduk cafe,"VVQ7+MPC, Jl. Letjend Soeprapto, Tampang Tumbang Anjir, Kec. Kurun, Kabupaten Gunung MAS, Kalimantan Tengah 74571","Jl. Letjend Soeprapto, Tampang Tumbang Anjir, Kec. Kurun, Kabupaten Gunung MAS",KALIMANTAN TENGAH,74571.0,Indonesia,82252357588.0,,,-1.1108103,113.8642723,https://maps.google.com/?cid=0x0:0x6fbf26724cafe3ab,
cafe,Kafe,kafe pasput,"WPJC+XG, Tewah, Kec. Tewah, Kabupaten Gunung MAS, Kalimantan Tengah","Kabupaten Gunung MAS, Kalimantan Tengah",KALIMANTAN TENGAH,,Indonesia,82159212268.0,,,-1.067501,113.7212523,https://maps.google.com/?cid=0x0:0x9faa5d4f25ff11f2,
cafe,Restoran,Warung Makan Mama Grant,"3GHX+PWR, Tumbang Miri, Kec. Kahayan Hulu Utara, Kabupaten Gunung MAS, Kalimantan Tengah 74561","Tumbang Miri, Kec. Kahayan Hulu Utara, Kabupaten Gunung MAS",KALIMANTAN TENGAH,74561.0,Indonesia,85348503234.0,,,-0.9206333,113.5497774,https://maps.google.com/?cid=0x0:0x3283cb86ce7e045d,
cafe,cafe,Toko guntur (cireng),"Tjilik riwut rt/1 rw/1 jakatan raya, Tumbang Jutuh, Kabupaten Gunung MAS, Kalimantan Tengah","Kabupaten Gunung MAS, Kalimantan Tengah",KALIMANTAN TENGAH,,Indonesia,8224590073.0,,,-1.2938027,113.5734395,https://maps.google.com/?cid=0x0:0xb841f7e292342be9,
cafe,Nasi,Warung makan sederhana,"WPJF+H2, Tewah, Kec. Tewah, Kabupaten Gunung MAS, Kalimantan Tengah","Kabupaten Gunung MAS, Kalimantan Tengah",KALIMANTAN TENGAH,,Indonesia,,,,-1.068545,113.722554,https://maps.google.com/?cid=0x0:0xfd769da1ca51e907,
cafe,Kedai Kopi,MidnightBloom,"VV96+XV9, Kuala, Kec. Kurun, Kabupaten Gunung MAS, Kalimantan Tengah","Kabupaten Gunung MAS, Kalimantan Tengah",KALIMANTAN TENGAH,,Indonesia,,,,-1.1300933,113.8622329,https://maps.google.com/?cid=0x0:0x3861c940c8e9d819,
cafe,cafe,Kec. Rungan Barat,"Kabupaten Gunung MAS, Kalimantan Tengah","Kabupaten Gunung MAS, Kalimantan Tengah",KALIMANTAN TENGAH,,Indonesia,,,,-1.2648058,113.4266094,https://maps.google.com/?cid=0x0:0x96d1b4f9516d2214,
cafe,Kedai Kopi,Kafe gracio,"Unnamed Road, Rabambang, Kec. Rungan Barat, Kabupaten Gunung MAS, Kalimantan Tengah 74562","Rabambang, Kec. Rungan Barat, Kabupaten Gunung MAS",KALIMANTAN TENGAH,74562.0,Indonesia,82350875297.0,,,-1.237526,113.45137,https://maps.google.com/?cid=0x0:0xb5453fa7a873ecbe,
cafe,cafe,WARUNG MAKAN MAMA SURYO,"Jl. Cilik Riwut No.13, RT.1/RW.1, Jakatan Raya, Kec. Rungan, Kabupaten Gunung MAS, Kalimantan Tengah 74561","RT.1/RW.1, Jakatan Raya, Kec. Rungan, Kabupaten Gunung MAS",KALIMANTAN TENGAH,74561.0,Indonesia,85899676650.0,,,-1.2958262,113.5732534,https://maps.google.com/?cid=0x0:0xbabc716bda6b1d8b,
cafe,Kafe,Depot Es Rachel,"PH6F+969, Jakatan Raya, Kec. Rungan, Kabupaten Gunung MAS, Kalimantan Tengah 74562","Jakatan Raya, Kec. Rungan, Kabupaten Gunung MAS",KALIMANTAN TENGAH,74562.0,Indonesia,82254842520.0,,,-1.289097,113.573101,https://maps.google.com/?cid=0x0:0x1bac13f35509762c,
cafe,cafe,Toko guntur (cireng),"Tjilik riwut rt/1 rw/1 jakatan raya, Tumbang Jutuh, Kabupaten Gunung MAS, Kalimantan Tengah","Kabupaten Gunung MAS, Kalimantan Tengah",KALIMANTAN TENGAH,,Indonesia,8224590073.0,,,-1.2938027,113.5734395,https://maps.google.com/?cid=0x0:0xb841f7e292342be9,
cafe,Restoran,Kedai Burger Abbiyu,"Jakatan Raya, Kec. Rungan, Kabupaten Gunung MAS, Kalimantan Tengah 74562","Kec. Rungan, Kabupaten Gunung MAS",KALIMANTAN TENGAH,74562.0,Indonesia,,,,-1.2927181,113.5738022,https://maps.google.com/?cid=0x0:0xa2edd83ad179d605,
cafe,Kedai Kopi,Rumah roti KIFA,"Jl. Cilik Riwut No.100, Jakatan Raya, Kec. Rungan, Kabupaten Gunung MAS, Kalimantan Tengah 74562","Jakatan Raya, Kec. Rungan, Kabupaten Gunung MAS",KALIMANTAN TENGAH,74562.0,Indonesia,81255458656.0,,,-1.2911244,113.573772,https://maps.google.com/?cid=0x0:0x38d4e9d0fec40533,
cafe,Brunch,Warung Bu Susi,"PH5F+XHC, Jl. Cilik Riwut, Jakatan Raya, Kec. Rungan, Kabupaten Gunung MAS, Kalimantan Tengah 74562","Jl. Cilik Riwut, Jakatan Raya, Kec. Rungan, Kabupaten Gunung MAS",KALIMANTAN TENGAH,74562.0,Indonesia,81348521886.0,,,-1.2900572,113.5738834,https://maps.google.com/?cid=0x0:0x8d098d27b8678d0f,
cafe,Kedai Kopi,Warung makan Togar,"RHP2+G7, Tumbang Lapan, Kec. Rungan Hulu, Kabupaten Gunung MAS, Kalimantan Tengah","Kabupaten Gunung MAS, Kalimantan Tengah",KALIMANTAN TENGAH,,Indonesia,,,,-1.1637234,113.5507051,https://maps.google.com/?cid=0x0:0x82a49b02b0c2a877,
cafe,Mi,Warung Podho Moro mie ayam bakso,"MHP2+575, Unnamed Road, Tumbang Bunut, Kec. Rungan, Kabupaten Gunung MAS, Kalimantan Tengah 74562","Unnamed Road, Tumbang Bunut, Kec. Rungan, Kabupaten Gunung MAS",KALIMANTAN TENGAH,74562.0,Indonesia,81251950387.0,,,-1.3146113,113.5507346,https://maps.google.com/?cid=0x0:0x6bc92526488edeb9,
cafe,cafe,Kafe Rimbang Rbb,"QF72+6MX, Lintas Rungan Manuhing, Rabambang, Kec. Rungan, Kabupaten Gunung MAS, Kalimantan Tengah 74562","Lintas Rungan Manuhing, Rabambang, Kec. Rungan, Kabupaten Gunung MAS",KALIMANTAN TENGAH,74562.0,Indonesia,,,,-1.2368834,113.4517309,https://maps.google.com/?cid=0x0:0xf8504566b08ac0bc,
cafe,cafe,Palus Wei Caffe,"PH2C+VHV, Jl. Cilik Riwut, Jakatan Raya, Kec. Rungan, Kabupaten Gunung MAS, Kalimantan Tengah 74562","Jl. Cilik Riwut, Jakatan Raya, Kec. Rungan, Kabupaten Gunung MAS",KALIMANTAN TENGAH,74562.0,Indonesia,,,,-1.2977516,113.5714101,https://maps.google.com/?cid=0x0:0xb03d1fd4747fa859,
cafe,cafe,X,"MHXC+JJC, Tumbang Bunut, Kec. Rungan, Kabupaten Gunung MAS, Kalimantan Tengah 74562","Tumbang Bunut, Kec. Rungan, Kabupaten Gunung MAS",KALIMANTAN TENGAH,74562.0,Indonesia,,,,-1.3009413,113.5715301,https://maps.google.com/?cid=0x0:0xc4888b607a31d0e6,
cafe,cafe,Hollow Cafe,"J9V7+GQ9, Tumbang Talaken, Kec. Manuhing, Kabupaten Gunung MAS, Kalimantan Tengah","Kabupaten Gunung MAS, Kalimantan Tengah",KALIMANTAN TENGAH,,Indonesia,,,,-1.35622,113.3644925,https://maps.google.com/?cid=0x0:0x257cb5a232560e57,
cafe,Bar,dailynight38cafe,"Jl. negara, Tumbang Talaken, Kec. Manuhing, Kabupaten Gunung MAS, Kalimantan Tengah 74562","Tumbang Talaken, Kec. Manuhing, Kabupaten Gunung MAS",KALIMANTAN TENGAH,74562.0,Indonesia,85251739355.0,,,-1.35622,113.3644925,https://maps.google.com/?cid=0x0:0x92176471d0a456c3,
cafe,Restoran,Warung makan ngapak,"J9XM+GJF, Tumbang Talaken, Kec. Manuhing, Kabupaten Gunung MAS, Kalimantan Tengah 74562","Tumbang Talaken, Kec. Manuhing, Kabupaten Gunung MAS",KALIMANTAN TENGAH,74562.0,Indonesia,,,,-1.3511797,113.3840316,https://maps.google.com/?cid=0x0:0x233271bd2a44fd96,
cafe,Kedai Kopi,Rumah Teduh Cafe,"Tampang Tumbang Anjir, Kec. Kurun, Kabupaten Gunung MAS, Kalimantan Tengah 74571","Kec. Kurun, Kabupaten Gunung MAS",KALIMANTAN TENGAH,74571.0,Indonesia,82352771465.0,,,-1.1134375,113.8635625,https://maps.google.com/?cid=0x0:0x85f373447ae00cbc,
cafe,Padang,RM Mama Rizal,"M92J+PW4, Tumbang Talaken, Kec. Manuhing, Kabupaten Gunung MAS, Kalimantan Tengah 74562","Tumbang Talaken, Kec. Manuhing, Kabupaten Gunung MAS",KALIMANTAN TENGAH,74562.0,Indonesia,81354111175.0,,,-1.3482291,113.3823368,https://maps.google.com/?cid=0x0:0xe7116b8854fd9eab,
cafe,Makanan Siap Saji,Bakso ngawi,"Jl. Cilik Riwut No.63, Jakatan Raya, Kec. Rungan, Kabupaten Gunung MAS, Kalimantan Tengah 74562","Jakatan Raya, Kec. Rungan, Kabupaten Gunung MAS",KALIMANTAN TENGAH,74562.0,Indonesia,,,,-1.2921068,113.5740232,https://maps.google.com/?cid=0x0:0xbf68b16049f6071f,
cafe,cafe,Kec. Rungan Barat,"Kabupaten Gunung MAS, Kalimantan Tengah","Kabupaten Gunung MAS, Kalimantan Tengah",KALIMANTAN TENGAH,,Indonesia,,,,-1.2648058,113.4266094,https://maps.google.com/?cid=0x0:0x96d1b4f9516d2214,
cafe,Kedai Kopi,Kafe gracio,"Unnamed Road, Rabambang, Kec. Rungan Barat, Kabupaten Gunung MAS, Kalimantan Tengah 74562","Rabambang, Kec. Rungan Barat, Kabupaten Gunung MAS",KALIMANTAN TENGAH,74562.0,Indonesia,82350875297.0,,,-1.237526,113.45137,https://maps.google.com/?cid=0x0:0xb5453fa7a873ecbe,
cafe,Kafe,Depot Es Rachel,"PH6F+969, Jakatan Raya, Kec. Rungan, Kabupaten Gunung MAS, Kalimantan Tengah 74562","Jakatan Raya, Kec. Rungan, Kabupaten Gunung MAS",KALIMANTAN TENGAH,74562.0,Indonesia,82254842520.0,,,-1.289097,113.573101,https://maps.google.com/?cid=0x0:0x1bac13f35509762c,
cafe,Brunch,Warung Bu Susi,"PH5F+XHC, Jl. Cilik Riwut, Jakatan Raya, Kec. Rungan, Kabupaten Gunung MAS, Kalimantan Tengah 74562","Jl. Cilik Riwut, Jakatan Raya, Kec. Rungan, Kabupaten Gunung MAS",KALIMANTAN TENGAH,74562.0,Indonesia,81348521886.0,,,-1.2900572,113.5738834,https://maps.google.com/?cid=0x0:0x8d098d27b8678d0f,
cafe,Restoran,Kedai Burger Abbiyu,"Jakatan Raya, Kec. Rungan, Kabupaten Gunung MAS, Kalimantan Tengah 74562","Kec. Rungan, Kabupaten Gunung MAS",KALIMANTAN TENGAH,74562.0,Indonesia,,,,-1.2927181,113.5738022,https://maps.google.com/?cid=0x0:0xa2edd83ad179d605,
cafe,Kedai Kopi,Rumah roti KIFA,"Jl. Cilik Riwut No.100, Jakatan Raya, Kec. Rungan, Kabupaten Gunung MAS, Kalimantan Tengah 74562","Jakatan Raya, Kec. Rungan, Kabupaten Gunung MAS",KALIMANTAN TENGAH,74562.0,Indonesia,81255458656.0,,,-1.2911244,113.573772,https://maps.google.com/?cid=0x0:0x38d4e9d0fec40533,
cafe,Kedai Kopi,Warung makan Togar,"RHP2+G7, Tumbang Lapan, Kec. Rungan Hulu, Kabupaten Gunung MAS, Kalimantan Tengah","Kabupaten Gunung MAS, Kalimantan Tengah",KALIMANTAN TENGAH,,Indonesia,,,,-1.1637234,113.5507051,https://maps.google.com/?cid=0x0:0x82a49b02b0c2a877,
cafe,cafe,WARUNG MAKAN MAMA SURYO,"Jl. Cilik Riwut No.13, RT.1/RW.1, Jakatan Raya, Kec. Rungan, Kabupaten Gunung MAS, Kalimantan Tengah 74561","RT.1/RW.1, Jakatan Raya, Kec. Rungan, Kabupaten Gunung MAS",KALIMANTAN TENGAH,74561.0,Indonesia,85899676650.0,,,-1.2958262,113.5732534,https://maps.google.com/?cid=0x0:0xbabc716bda6b1d8b,
cafe,Mi,Warung Podho Moro mie ayam bakso,"MHP2+575, Unnamed Road, Tumbang Bunut, Kec. Rungan, Kabupaten Gunung MAS, Kalimantan Tengah 74562","Unnamed Road, Tumbang Bunut, Kec. Rungan, Kabupaten Gunung MAS",KALIMANTAN TENGAH,74562.0,Indonesia,81251950387.0,,,-1.3146113,113.5507346,https://maps.google.com/?cid=0x0:0x6bc92526488edeb9,
cafe,cafe,X,"MHXC+JJC, Tumbang Bunut, Kec. Rungan, Kabupaten Gunung MAS, Kalimantan Tengah 74562","Tumbang Bunut, Kec. Rungan, Kabupaten Gunung MAS",KALIMANTAN TENGAH,74562.0,Indonesia,,,,-1.3009413,113.5715301,https://maps.google.com/?cid=0x0:0xc4888b607a31d0e6,
cafe,cafe,Kafe Rimbang Rbb,"QF72+6MX, Lintas Rungan Manuhing, Rabambang, Kec. Rungan, Kabupaten Gunung MAS, Kalimantan Tengah 74562","Lintas Rungan Manuhing, Rabambang, Kec. Rungan, Kabupaten Gunung MAS",KALIMANTAN TENGAH,74562.0,Indonesia,,,,-1.2368834,113.4517309,https://maps.google.com/?cid=0x0:0xf8504566b08ac0bc,
cafe,cafe,Toko guntur (cireng),"Tjilik riwut rt/1 rw/1 jakatan raya, Tumbang Jutuh, Kabupaten Gunung MAS, Kalimantan Tengah","Kabupaten Gunung MAS, Kalimantan Tengah",KALIMANTAN TENGAH,,Indonesia,8224590073.0,,,-1.2938027,113.5734395,https://maps.google.com/?cid=0x0:0xb841f7e292342be9,
cafe,cafe,Hollow Cafe,"J9V7+GQ9, Tumbang Talaken, Kec. Manuhing, Kabupaten Gunung MAS, Kalimantan Tengah","Kabupaten Gunung MAS, Kalimantan Tengah",KALIMANTAN TENGAH,,Indonesia,,,,-1.35622,113.3644925,https://maps.google.com/?cid=0x0:0x257cb5a232560e57,
cafe,Kedai Kopi,Angkringan riskiraisa,"PHF7+96Q, Jl. Cilik Riwut, Jakatan Raya, Kec. Rungan, Kabupaten Gunung MAS, Kalimantan Tengah 74562","Jl. Cilik Riwut, Jakatan Raya, Kec. Rungan, Kabupaten Gunung MAS",KALIMANTAN TENGAH,74562.0,Indonesia,,,,-1.2765381,113.5631222,https://maps.google.com/?cid=0x0:0x3423d1e4ebd2432b,
cafe,Kedai Kopi,Rumah Teduh Cafe,"Tampang Tumbang Anjir, Kec. Kurun, Kabupaten Gunung MAS, Kalimantan Tengah 74571","Kec. Kurun, Kabupaten Gunung MAS",KALIMANTAN TENGAH,74571.0,Indonesia,82352771465.0,,,-1.1134375,113.8635625,https://maps.google.com/?cid=0x0:0x85f373447ae00cbc,
cafe,Padang,RM Mama Rizal,"M92J+PW4, Tumbang Talaken, Kec. Manuhing, Kabupaten Gunung MAS, Kalimantan Tengah 74562","Tumbang Talaken, Kec. Manuhing, Kabupaten Gunung MAS",KALIMANTAN TENGAH,74562.0,Indonesia,81354111175.0,,,-1.3482291,113.3823368,https://maps.google.com/?cid=0x0:0xe7116b8854fd9eab,
cafe,Kedai Kopi,Kebun Coka Kopi Sei Kemangkus,"Tumbang Jutuh, Kec. Rungan, Kabupaten Gunung MAS, Kalimantan Tengah 74560","Kec. Rungan, Kabupaten Gunung MAS",KALIMANTAN TENGAH,74560.0,Indonesia,81210057560.0,,,-1.2831865,113.5786693,https://maps.google.com/?cid=0x0:0x7b5bdc55473e156,
cafe,Kedai Kopi,MidnightBloom,"VV96+XV9, Kuala, Kec. Kurun, Kabupaten Gunung MAS, Kalimantan Tengah","Kabupaten Gunung MAS, Kalimantan Tengah",KALIMANTAN TENGAH,,Indonesia,,,,-1.1300933,113.8622329,https://maps.google.com/?cid=0x0:0x3861c940c8e9d819,
cafe,Makanan Siap Saji,Bakso ngawi,"Jl. Cilik Riwut No.63, Jakatan Raya, Kec. Rungan, Kabupaten Gunung MAS, Kalimantan Tengah 74562","Jakatan Raya, Kec. Rungan, Kabupaten Gunung MAS",KALIMANTAN TENGAH,74562.0,Indonesia,,,,-1.2921068,113.5740232,https://maps.google.com/?cid=0x0:0xbf68b16049f6071f,
cafe,Restoran,Warung makan ngapak,"J9XM+GJF, Tumbang Talaken, Kec. Manuhing, Kabupaten Gunung MAS, Kalimantan Tengah 74562","Tumbang Talaken, Kec. Manuhing, Kabupaten Gunung MAS",KALIMANTAN TENGAH,74562.0,Indonesia,,,,-1.3511797,113.3840316,https://maps.google.com/?cid=0x0:0x233271bd2a44fd96,
cafe,Tegal,Kedai Upin Ipin,"J9WJ+HRX, jln tangkasiang di dekat, Tumbang Talaken, Kec. Manuhing, Kabupaten Gunung MAS, Kalimantan Tengah 74562","jln tangkasiang di dekat, Tumbang Talaken, Kec. Manuhing, Kabupaten Gunung MAS",KALIMANTAN TENGAH,74562.0,Indonesia,85257335885.0,,,-1.3535179,113.3821095,https://maps.google.com/?cid=0x0:0xd2e2d662ea6942d3,
cafe,Kafe,Renee Cafe And Eatery Pangkalan Bun,"8J9J+29J, Jl. Pangeran Diponegoro, Sidorejo, Kec. Arut Sel., Kabupaten Kotawaringin Barat, Kalimantan Tengah 74112","Jl. Pangeran Diponegoro, Sidorejo, Kec. Arut Sel., Kabupaten Kotawaringin Barat",KALIMANTAN TENGAH,74112.0,Indonesia,81258602726.0,,,-2.6823943,111.6309153,https://maps.google.com/?cid=0x0:0x28d33bfe1460f82d,
cafe,cafe,Kec. Rungan Hulu,"Kabupaten Gunung MAS, Kalimantan Tengah","Kabupaten Gunung MAS, Kalimantan Tengah",KALIMANTAN TENGAH,,Indonesia,,,,-1.0312568,113.4736811,https://maps.google.com/?cid=0x0:0x83eaf2f915027506,
cafe,Kedai Kopi,Kafe gracio,"Unnamed Road, Rabambang, Kec. Rungan Barat, Kabupaten Gunung MAS, Kalimantan Tengah 74562","Rabambang, Kec. Rungan Barat, Kabupaten Gunung MAS",KALIMANTAN TENGAH,74562.0,Indonesia,82350875297.0,,,-1.237526,113.45137,https://maps.google.com/?cid=0x0:0xb5453fa7a873ecbe,
cafe,cafe,WARUNG MAKAN MAMA SURYO,"Jl. Cilik Riwut No.13, RT.1/RW.1, Jakatan Raya, Kec. Rungan, Kabupaten Gunung MAS, Kalimantan Tengah 74561","RT.1/RW.1, Jakatan Raya, Kec. Rungan, Kabupaten Gunung MAS",KALIMANTAN TENGAH,74561.0,Indonesia,85899676650.0,,,-1.2958262,113.5732534,https://maps.google.com/?cid=0x0:0xbabc716bda6b1d8b,
cafe,Rumah Kayu,TULAM Cafe,"Jl. Perintis No.28a, Tewah, Kec. Tewah, Kabupaten Gunung MAS, Kalimantan Tengah 74511","Tewah, Kec. Tewah, Kabupaten Gunung MAS",KALIMANTAN TENGAH,74511.0,Indonesia,81258778282.0,,,-1.032962,113.7292383,https://maps.google.com/?cid=0x0:0x2e24142e022c2fe9,
cafe,cafe,Kedai rina,"PH83+JXX, Jakatan Raya, Kec. Rungan, Kabupaten Gunung MAS, Kalimantan Tengah 74562","Jakatan Raya, Kec. Rungan, Kabupaten Gunung MAS",KALIMANTAN TENGAH,74562.0,Indonesia,,,,-1.2833856,113.5549937,https://maps.google.com/?cid=0x0:0xd9151b0eaf6eecfb,
cafe,Kafe,EFELIN CAFE DAN ISI ULANG AIR MINUM,"Jl. Gunung Mas, 74511, Tewah, Kec. Tewah, Kabupaten Gunung MAS, Kalimantan Tengah 74511","74511, Tewah, Kec. Tewah, Kabupaten Gunung MAS",KALIMANTAN TENGAH,74511.0,Indonesia,81351688307.0,,,-1.0572586,113.7270423,https://maps.google.com/?cid=0x0:0xe03eeb7eb97ac29b,
cafe,Kafe,Depot Es Rachel,"PH6F+969, Jakatan Raya, Kec. Rungan, Kabupaten Gunung MAS, Kalimantan Tengah 74562","Jakatan Raya, Kec. Rungan, Kabupaten Gunung MAS",KALIMANTAN TENGAH,74562.0,Indonesia,82254842520.0,,,-1.289097,113.573101,https://maps.google.com/?cid=0x0:0x1bac13f35509762c,
cafe,Kedai Kopi,Rumah roti KIFA,"Jl. Cilik Riwut No.100, Jakatan Raya, Kec. Rungan, Kabupaten Gunung MAS, Kalimantan Tengah 74562","Jakatan Raya, Kec. Rungan, Kabupaten Gunung MAS",KALIMANTAN TENGAH,74562.0,Indonesia,81255458656.0,,,-1.2911244,113.573772,https://maps.google.com/?cid=0x0:0x38d4e9d0fec40533,
cafe,Kedai Kopi,Warung makan,"J86F+V4W, Bangun Sari, Kec. Manuhing, Kabupaten Gunung MAS, Kalimantan Tengah","Kabupaten Gunung MAS, Kalimantan Tengah",KALIMANTAN TENGAH,,Indonesia,,,,-1.3877507,113.3228127,https://maps.google.com/?cid=0x0:0x9d06c2a6347bc9af,
cafe,Kafe,Seperti Biasa Coffee and Cake,"Jl. AntanJl. Antang Kalang No.53A, Langkai, Kec. Pahandut, Kota Palangka, 74874g Kalang, Raya, Kota Palangka Raya, Kalimantan Tengah 74874","Langkai, Kec. Pahandut, Kota Palangka, 74874g Kalang, Raya, Kota Palangka Raya",KALIMANTAN TENGAH,74874.0,Indonesia,81775285870.0,,,-2.2265972,113.9264236,https://maps.google.com/?cid=0x0:0x71c6327f66227b2c,
cafe,Kedai Kopi,Tempat Biasa Cafe,"Jl. Raden Saleh Induk No.07, Menteng, Kec. Jekan Raya, Kota Palangka Raya, Kalimantan Tengah 73111","Menteng, Kec. Jekan Raya, Kota Palangka Raya",KALIMANTAN TENGAH,73111.0,Indonesia,85849610300.0,,,-2.2215777,113.9158162,https://maps.google.com/?cid=0x0:0x27dd99a1bcd1cd17,
cafe,cafe,,,,KALIMANTAN TENGAH,,Indonesia,,,,,,https://maps.google.com/?cid=0x0:0x71c6327f66227b2cu0026onu003dSeperti+Biasa+Signatureu0026midu003d/g/11lp2sxks4,
cafe,Italia,Cafe Kissa - Grand Indonesia,"Shinta Lobby, Grand Indonesia Mall, East Mall, Jl. Tlk. Betung I No.45A Ground Floor, RT.1/RW.5, Menteng, Kec. Menteng, Kota Jakarta Pusat, Daerah Khusus Ibukota Jakarta 10310","Grand Indonesia Mall, East Mall, Jl. Tlk. Betung I No.45A Ground Floor, RT.1/RW.5, Menteng, Kec. Menteng, Kota Jakarta Pusat",KALIMANTAN TENGAH,10310.0,Indonesia,8118001556.0,,,-6.1963714,106.8225994,https://maps.google.com/?cid=0x0:0x89e344c04d23a8ad,
cafe,Kafe,Fami Cafe grand indonesia,"RR39+WX3, Foodprint, grand Indonesia shopping Town fifth floor, Jl. M.H. Thamrin, Kebon Melati, Tanah Abang, Central Jakarta City, Jakarta 10230","Foodprint, grand Indonesia shopping Town fifth floor, Jl. M.H. Thamrin, Kebon Melati, Tanah Abang, Central Jakarta City",KALIMANTAN TENGAH,10230.0,Indonesia,81197700052.0,,,-6.1952393,106.819922,https://maps.google.com/?cid=0x0:0xd0746051174a5382,
cafe,Kafe,CAFF MILANO Grand Indonesia,"Central Dept. Store Ground Floor Grand Indonesia East Mall, Jl. M.H. Thamrin No.1, RT.1/RW.5, Menteng, Daerah Khusus Ibukota Jakarta 10310","Jl. M.H. Thamrin No.1, RT.1/RW.5, Menteng",KALIMANTAN TENGAH,10310.0,Indonesia,2123580638.0,,,-6.1958957,106.8215147,https://maps.google.com/?cid=0x0:0xcbe002881285c56e,
cafe,cafe,,,,KALIMANTAN TENGAH,,Indonesia,,,,,,https://maps.google.com/?cid=0x0:0x89e344c04d23a8adu0026onu003dMatcha+Basque+Cheesecakeu0026midu003d/g/11lcbz3xd5,
cafe,Masakan Barat,East Quarter - Grand Indonesia,"Grand Indonesia East Mall - Lower Ground EM-LG 01  02, Kota Jakarta Pusat, Daerah Khusus Ibukota Jakarta 10310",Kota Jakarta Pusat,KALIMANTAN TENGAH,10310.0,Indonesia,81295146716.0,,,-6.1950053,106.8212203,https://maps.google.com/?cid=0x0:0x905e859c0b1d93,
cafe,cafe,,,,KALIMANTAN TENGAH,,Indonesia,,,,,,https://maps.google.com/?cid=0x0:0x89e344c04d23a8adu0026onu003dOcean+Bowlu0026midu003d/g/11lcbz3xd5,
cafe,cafe,,,,KALIMANTAN TENGAH,,Indonesia,,,,,,https://maps.google.com/?cid=0x0:0x89e344c04d23a8adu0026onu003dOkonomiyaki+Pizzau0026midu003d/g/11lcbz3xd5,
cafe,cafe,,,,KALIMANTAN TENGAH,,Indonesia,,,,,,https://maps.google.com/?cid=0x0:0x89e344c04d23a8adu0026onu003dUbe+French+Toastu0026midu003d/g/11lcbz3xd5,
cafe,cafe,,,,KALIMANTAN TENGAH,,Indonesia,,,,,,https://maps.google.com/?cid=0x0:0x89e344c04d23a8adu0026onu003dHibiscus+Lemon+Sorbetu0026midu003d/g/11lcbz3xd5,
cafe,cafe,,,,KALIMANTAN TENGAH,,Indonesia,,,,,,https://maps.google.com/?cid=0x0:0x89e344c04d23a8adu0026onu003dChicken+Prawn+Gyozau0026midu003d/g/11lcbz3xd5,
cafe,cafe,,,,KALIMANTAN TENGAH,,Indonesia,,,,,,https://maps.google.com/?cid=0x0:0x89e344c04d23a8adu0026onu003dButa+Donu0026midu003d/g/11lcbz3xd5,
cafe,cafe,,,,KALIMANTAN TENGAH,,Indonesia,,,,,,https://maps.google.com/?cid=0x0:0x89e344c04d23a8adu0026onu003dMuscat+Grape+Kinmokuseiu0026midu003d/g/11lcbz3xd5,
cafe,cafe,,,,KALIMANTAN TENGAH,,Indonesia,,,,,,https://maps.google.com/?cid=0x0:0x89e344c04d23a8adu0026onu003dCaramelized+Miso+Chicken+Omuriceu0026midu003d/g/11lcbz3xd5,
cafe,cafe,,,,KALIMANTAN TENGAH,,Indonesia,,,,,,https://maps.google.com/?cid=0x0:0x89e344c04d23a8adu0026onu003dChicken+Nanban+Karaageu0026midu003d/g/11lcbz3xd5,
cafe,cafe,,,,KALIMANTAN TENGAH,,Indonesia,,,,,,https://maps.google.com/?cid=0x0:0x89e344c04d23a8adu0026onu003dMatchagatou0026midu003d/g/11lcbz3xd5,
cafe,cafe,,,,KALIMANTAN TENGAH,,Indonesia,,,,,,https://maps.google.com/?cid=0x0:0x89e344c04d23a8adu0026onu003dUbe+Latteu0026midu003d/g/11lcbz3xd5,
cafe,cafe,,,,KALIMANTAN TENGAH,,Indonesia,,,,,,https://maps.google.com/?cid=0x0:0x89e344c04d23a8adu0026onu003dHoney+Toast+with+Caramel+Puddingu0026midu003d/g/11lcbz3xd5,
cafe,cafe,,,,KALIMANTAN TENGAH,,Indonesia,,,,,,https://maps.google.com/?cid=0x0:0x89e344c04d23a8adu0026onu003dGoma+Saladu0026midu003d/g/11lcbz3xd5,
cafe,cafe,,,,KALIMANTAN TENGAH,,Indonesia,,,,,,https://maps.google.com/?cid=0x0:0x89e344c04d23a8adu0026onu003dLychee+Strawberryu0026midu003d/g/11lcbz3xd5,
cafe,cafe,,,,KALIMANTAN TENGAH,,Indonesia,,,,,,https://maps.google.com/?cid=0x0:0x89e344c04d23a8adu0026onu003dCreamy+Latteu0026midu003d/g/11lcbz3xd5,
cafe,cafe,,,,KALIMANTAN TENGAH,,Indonesia,,,,,,https://maps.google.com/?cid=0x0:0x89e344c04d23a8adu0026onu003dSpaghetti+Mentaiu0026midu003d/g/11lcbz3xd5,
cafe,cafe,Kalimantan Tengah 74552,Kalimantan Tengah,Kalimantan Tengah,KALIMANTAN TENGAH,,Indonesia,,,,-0.7250328,113.6204644,https://maps.google.com/?cid=0x0:0xb94d62208c0f5814,
cafe,Kafe,kafe pasput,"WPJC+XG, Tewah, Kec. Tewah, Kabupaten Gunung MAS, Kalimantan Tengah","Kabupaten Gunung MAS, Kalimantan Tengah",KALIMANTAN TENGAH,,Indonesia,82159212268.0,,,-1.067501,113.7212523,https://maps.google.com/?cid=0x0:0x9faa5d4f25ff11f2,
cafe,Rumah Kayu,TULAM Cafe,"Jl. Perintis No.28a, Tewah, Kec. Tewah, Kabupaten Gunung MAS, Kalimantan Tengah 74511","Tewah, Kec. Tewah, Kabupaten Gunung MAS",KALIMANTAN TENGAH,74511.0,Indonesia,81258778282.0,,,-1.032962,113.7292383,https://maps.google.com/?cid=0x0:0x2e24142e022c2fe9,
cafe,Restoran,Warung Makan B2,"WPP7+2XH, Jl. Perintis, Tewah, Kec. Tewah, Kabupaten Gunung MAS, Kalimantan Tengah 74511","Jl. Perintis, Tewah, Kec. Tewah, Kabupaten Gunung MAS",KALIMANTAN TENGAH,74511.0,Indonesia,,,,-1.0649437,113.7149795,https://maps.google.com/?cid=0x0:0xc2ec8df31f5ab82f,
cafe,Toko umum,Depot G.G,"Jl. Tugu No.2, Tewah, Kec. Tewah, Kabupaten Gunung MAS, Kalimantan Tengah 74511","Tewah, Kec. Tewah, Kabupaten Gunung MAS",KALIMANTAN TENGAH,74511.0,Indonesia,81256123957.0,,,-1.0504373,113.7243123,https://maps.google.com/?cid=0x0:0xba11d989d346b561,
cafe,Kedai Kopi,Rumah Teduh Cafe,"Tampang Tumbang Anjir, Kec. Kurun, Kabupaten Gunung MAS, Kalimantan Tengah 74571","Kec. Kurun, Kabupaten Gunung MAS",KALIMANTAN TENGAH,74571.0,Indonesia,82352771465.0,,,-1.1134375,113.8635625,https://maps.google.com/?cid=0x0:0x85f373447ae00cbc,
cafe,Restoran,Warung Makan Mama Grant,"3GHX+PWR, Tumbang Miri, Kec. Kahayan Hulu Utara, Kabupaten Gunung MAS, Kalimantan Tengah 74561","Tumbang Miri, Kec. Kahayan Hulu Utara, Kabupaten Gunung MAS",KALIMANTAN TENGAH,74561.0,Indonesia,85348503234.0,,,-0.9206333,113.5497774,https://maps.google.com/?cid=0x0:0x3283cb86ce7e045d,
cafe,Kedai Kopi,sucipto,"3GHX+PWR, Tumbang Miri, Kec. Kahayan Hulu Utara, Kabupaten Gunung MAS, Kalimantan Tengah 74561","Tumbang Miri, Kec. Kahayan Hulu Utara, Kabupaten Gunung MAS",KALIMANTAN TENGAH,74561.0,Indonesia,,,,-0.9203722,113.5493992,https://maps.google.com/?cid=0x0:0x1980971435dbe0e1,
cafe,cafe,Kilang kopi indah global coffee,"8HG4+H3Q, Unnamed Road, Rangan Hiran, Miri Manasa, Kabupaten Gunung MAS, Kalimantan Tengah 74553","Unnamed Road, Rangan Hiran, Miri Manasa, Kabupaten Gunung MAS",KALIMANTAN TENGAH,74553.0,Indonesia,,,,-0.6735271,113.5552367,https://maps.google.com/?cid=0x0:0x60ed0c1f92b54ae4,
cafe,cafe,Kec. Tewah,"Kabupaten Gunung MAS, Kalimantan Tengah","Kabupaten Gunung MAS, Kalimantan Tengah",KALIMANTAN TENGAH,,Indonesia,,,,-1.0495046,113.7212207,https://maps.google.com/?cid=0x0:0x957b01e921372b79,
cafe,Kafe,Preta Caf and Eatery,"Jl. Gunung Mas No.98, Tewah, Gunung MAS Regency, Central Kalimantan 74511","Tewah, Gunung MAS Regency",KALIMANTAN TENGAH,74511.0,Indonesia,,,,-1.0603022,113.724306,https://maps.google.com/?cid=0x0:0x4d8ab7e9432f6693,
cafe,Kafe,EFELIN CAFE DAN ISI ULANG AIR MINUM,"Jl. Gunung Mas, 74511, Tewah, Kec. Tewah, Kabupaten Gunung MAS, Kalimantan Tengah 74511","74511, Tewah, Kec. Tewah, Kabupaten Gunung MAS",KALIMANTAN TENGAH,74511.0,Indonesia,81351688307.0,,,-1.0572586,113.7270423,https://maps.google.com/?cid=0x0:0xe03eeb7eb97ac29b,
cafe,Nasi,Warung makan sederhana,"WPJF+H2, Tewah, Kec. Tewah, Kabupaten Gunung MAS, Kalimantan Tengah","Kabupaten Gunung MAS, Kalimantan Tengah",KALIMANTAN TENGAH,,Indonesia,,,,-1.068545,113.722554,https://maps.google.com/?cid=0x0:0xfd769da1ca51e907,
cafe,Kafe,KEDAI MITA,"Jl. Perintis, Tewah, Kec. Tewah, Kabupaten Gunung MAS, Kalimantan Tengah 74552","Tewah, Kec. Tewah, Kabupaten Gunung MAS",KALIMANTAN TENGAH,74552.0,Indonesia,81251861818.0,,,-1.0595061,113.7256568,https://maps.google.com/?cid=0x0:0x1f98ad38eca5cd2,
cafe,Jawa,WARUNG JAWA,"XP4C+CXJ, Tewah, Kec. Tewah, Kabupaten Gunung MAS, Kalimantan Tengah","Kabupaten Gunung MAS, Kalimantan Tengah",KALIMANTAN TENGAH,,Indonesia,85245557464.0,,,-1.043938,113.7223948,https://maps.google.com/?cid=0x0:0xfab3b0b346a86b5b,
cafe,Restoran,KEDAI MAMI,"WPQF+XW7, Jl. Perintis, Tewah, Kec. Tewah, Kabupaten Gunung MAS, Kalimantan Tengah 74511","Jl. Perintis, Tewah, Kec. Tewah, Kabupaten Gunung MAS",KALIMANTAN TENGAH,74511.0,Indonesia,,,,-1.0600968,113.72481,https://maps.google.com/?cid=0x0:0x8afec37ec12aa9c6,
cafe,Rumah Makan,WARTEG MAMA PUTRI,"Ruko, Jl. Perintis No.3, Tewah, Kec. Tewah, Kabupaten Gunung MAS, Kalimantan Tengah 74511","Jl. Perintis No.3, Tewah, Kec. Tewah, Kabupaten Gunung MAS",KALIMANTAN TENGAH,74511.0,Indonesia,81316354999.0,,,-1.0398535,113.7234226,https://maps.google.com/?cid=0x0:0x6d2b783fa9f84227,
cafe,Rumah Makan,rumah makan Tewah,"XP2G+73X, Tewah, Kec. Tewah, Kabupaten Gunung MAS, Kalimantan Tengah 74511","Tewah, Kec. Tewah, Kabupaten Gunung MAS",KALIMANTAN TENGAH,74511.0,Indonesia,81251569129.0,,,-1.0492658,113.7252351,https://maps.google.com/?cid=0x0:0xae7359c6b7bd907,
cafe,Bakso,Muhamad Gafar,"Jl. Perintis No.63, Tewah, Kec. Tewah, Kabupaten Gunung MAS, Kalimantan Tengah 74552","Tewah, Kec. Tewah, Kabupaten Gunung MAS",KALIMANTAN TENGAH,74552.0,Indonesia,82252110435.0,,,-1.0349498,113.7271763,https://maps.google.com/?cid=0x0:0x9044604834b9548b,
cafe,Dapur Umum,WM PUTRA JAWA,"WPVG+7QH, Tewah, Kec. Tewah, Kabupaten Gunung MAS, Kalimantan Tengah 74511","Tewah, Kec. Tewah, Kabupaten Gunung MAS",KALIMANTAN TENGAH,74511.0,Indonesia,81349151367.0,,,-1.0568177,113.726996,https://maps.google.com/?cid=0x0:0x47211022c328c4e7,
cafe,Kafe,Kedai Kebab PU3,"WPXG+V9C, Tewah, Kec. Tewah, Kabupaten Gunung MAS, Kalimantan Tengah 74511","Tewah, Kec. Tewah, Kabupaten Gunung MAS",KALIMANTAN TENGAH,74511.0,Indonesia,8115557250.0,,,-1.050307,113.7258798,https://maps.google.com/?cid=0x0:0x8504e276a8f5ec9,
cafe,Rumah Makan,Warung MoroSeneng,"XP2G+356, Tewah, Kec. Tewah, Kabupaten Gunung MAS, Kalimantan Tengah 74511","Tewah, Kec. Tewah, Kabupaten Gunung MAS",KALIMANTAN TENGAH,74511.0,Indonesia,82153866091.0,,,-1.049843,113.725384,https://maps.google.com/?cid=0x0:0x613b4c101c167c82,
cafe,Restoran,Warung pangkoh,"Pasir putih, Tewah, Kec. Tewah, Kabupaten Gunung MAS, Kalimantan Tengah 74552","Tewah, Kec. Tewah, Kabupaten Gunung MAS",KALIMANTAN TENGAH,74552.0,Indonesia,,,,-1.0630533,113.7163232,https://maps.google.com/?cid=0x0:0x64d198cd576cfc27,
