Category,Real Category,Business Name,Address,City,State,Postal Code,Country,Phone,Email,Website,Latitude,Longitude,Map Link,Details Link
mall,mall,Kalimantan Tengah 74553,"Kabupaten Gunung MAS, Kalimantan Tengah","Kabupaten Gunung MAS, Kalimantan Tengah",KALIMANTAN TENGAH,,Indonesia,,,,-0.5866559,113.429984,https://maps.google.com/?cid=0x0:0x7f9e14ce7cf9d71f,
mall,Pusat Perbelanjaan,Palangkaraya Mall (Palma),"Jl. Tjilik Riwut No.1, Palangka, Kec. Jekan Raya, Kota Palangka Raya, Kalimantan Tengah 74874","Palangka, Kec. Jekan Raya, Kota Palangka Raya",KALIMANTAN TENGAH,74874.0,Indonesia,,,,-2.2065433,113.9154004,https://maps.google.com/?cid=0x0:0xe30705d17366c7e0,
mall,Toko bahan makanan,LEONA SEMBAKO,"3G6V+36P, Tumbang Miri, Kec. Kahayan Hulu Utara, Kabupaten Gunung MAS, Kalimantan Tengah 74561","Tumbang Miri, Kec. Kahayan Hulu Utara, Kabupaten Gunung MAS",KALIMANTAN TENGAH,74561.0,Indonesia,,,,-0.9397929,113.5430891,https://maps.google.com/?cid=0x0:0xb591dd57c875dfb2,
mall,Mal outlet,Duta Mall Banjarmasin,"Jl. A. Yani No.98, Melayu, Kec. Banjarmasin Tengah, Kota Banjarmasin, Kalimantan Selatan 70232","Melayu, Kec. Banjarmasin Tengah, Kota Banjarmasin",KALIMANTAN TENGAH,70232.0,Indonesia,5113278888.0,,,-3.3230203,114.603136,https://maps.google.com/?cid=0x0:0x91eb1e2406366f9a,
mall,Toko Perlengkapan Rumah,Toko Miri Marajaki 01,"3G6V+36P, Tumbang Miri, Kec. Kahayan Hulu Utara, Kabupaten Gunung MAS, Kalimantan Tengah 74561","Tumbang Miri, Kec. Kahayan Hulu Utara, Kabupaten Gunung MAS",KALIMANTAN TENGAH,74561.0,Indonesia,,,,-0.9397929,113.5430891,https://maps.google.com/?cid=0x0:0x83a97a93c18a5bc5,
mall,mall,Kec. Kahayan Hulu Utara,"Kabupaten Gunung MAS, Kalimantan Tengah","Kabupaten Gunung MAS, Kalimantan Tengah",KALIMANTAN TENGAH,,Indonesia,,,,-0.9242953,113.5532855,https://maps.google.com/?cid=0x0:0x47258147014c232a,
mall,Toko bahan makanan,LEONA SEMBAKO,"3G6V+36P, Tumbang Miri, Kec. Kahayan Hulu Utara, Kabupaten Gunung MAS, Kalimantan Tengah 74561","Tumbang Miri, Kec. Kahayan Hulu Utara, Kabupaten Gunung MAS",KALIMANTAN TENGAH,74561.0,Indonesia,,,,-0.9397929,113.5430891,https://maps.google.com/?cid=0x0:0xb591dd57c875dfb2,
mall,mall,Kalimantan Tengah 74511,Kalimantan Tengah,Kalimantan Tengah,KALIMANTAN TENGAH,,Indonesia,,,,-0.898161,113.8584737,https://maps.google.com/?cid=0x0:0x88373fa35beec461,
mall,Pasar,Pasar Baru Kuala Kurun,"VVWC+W4M, Jl. Sangkurun, Kuala Kurun, Kec. Kurun, Kabupaten Gunung MAS, Kalimantan Tengah 74571","Jl. Sangkurun, Kuala Kurun, Kec. Kurun, Kabupaten Gunung MAS",KALIMANTAN TENGAH,74571.0,Indonesia,,,,-1.1026605,113.870299,https://maps.google.com/?cid=0x0:0xe853d78f8251fa65,
mall,Pusat Perbelanjaan,ARI PHONCELL-TEWAH,"Tewah, Kec. Tewah, Kabupaten Gunung MAS, Kalimantan Tengah 74511","Kec. Tewah, Kabupaten Gunung MAS",KALIMANTAN TENGAH,74511.0,Indonesia,85332333133.0,,,-1.028832,113.7297798,https://maps.google.com/?cid=0x0:0x4d1d1e20ba11940f,
mall,Toko,Depot Cris Iwo,"VVJ5+R92, Jl. Brigjend Katamso, Kuala Kurun, Kec. Kurun, Kabupaten Gunung MAS, Kalimantan Tengah 74571","Jl. Brigjend Katamso, Kuala Kurun, Kec. Kurun, Kabupaten Gunung MAS",KALIMANTAN TENGAH,74571.0,Indonesia,81349135345.0,,,-1.1179904,113.858388,https://maps.google.com/?cid=0x0:0x1c8378e70aec5703,
mall,,DEKRANASDA Kab. Gunung Mas,"WV29+287, Kuala Kurun, Kec. Kurun, Kabupaten Gunung MAS, Kalimantan Tengah 74571","Kuala Kurun, Kec. Kurun, Kabupaten Gunung MAS",KALIMANTAN TENGAH,74571.0,Indonesia,,,,-1.0999597,113.8682967,https://maps.google.com/?cid=0x0:0xae61d73d743ae711,
mall,Toko,Toko Radet,"Jl. Sangkurun No.07, Kuala Kurun, Kec. Kurun, Kabupaten Gunung MAS, Kalimantan Tengah 74571","Kuala Kurun, Kec. Kurun, Kabupaten Gunung MAS",KALIMANTAN TENGAH,74571.0,Indonesia,82254156693.0,,,-1.1008188,113.8697018,https://maps.google.com/?cid=0x0:0xa491d1cea1cd5a8f,
mall,Toko,Toko PERDANA,"RVQQ+V6C, Ruko Pemda jalan cilik riwut kuala kurun, Tlk. Nyatu, Kec. Kurun, Kabupaten Gunung MAS, Kalimantan Tengah 74571","Ruko Pemda jalan cilik riwut kuala kurun, Tlk. Nyatu, Kec. Kurun, Kabupaten Gunung MAS",KALIMANTAN TENGAH,74571.0,Indonesia,81349037889.0,,,-1.1603001,113.8880042,https://maps.google.com/?cid=0x0:0xa629751dbde2578a,
mall,Pusat Perbelanjaan,Mall Kota Carva,"6W6C+7GP, Sei Pinang, Mandau Talawang, Kabupaten Kapuas, Kalimantan Tengah","Kabupaten Kapuas, Kalimantan Tengah",KALIMANTAN TENGAH,,Indonesia,,,,-0.789275,113.921327,https://maps.google.com/?cid=0x0:0x79ca14719e79bde5,
mall,Toko,Toko Mama Rahman,"VVWC+W83, Kuala Kurun, Kec. Kurun, Kabupaten Gunung MAS, Kalimantan Tengah 74571","Kuala Kurun, Kec. Kurun, Kabupaten Gunung MAS",KALIMANTAN TENGAH,74571.0,Indonesia,,,,-1.1027394,113.8708096,https://maps.google.com/?cid=0x0:0xd9c7726d6ad67051,
mall,Toko,toko azmi,"WPXG+29W, Tewah, Kec. Tewah, Kabupaten Gunung MAS, Kalimantan Tengah 74511","Tewah, Kec. Tewah, Kabupaten Gunung MAS",KALIMANTAN TENGAH,74511.0,Indonesia,,,,-1.0523957,113.7259512,https://maps.google.com/?cid=0x0:0x43a64f674cf75153,
mall,Toko Bahan Bangunan,Toko Bangunan H Roni,"WPXG+C4R, Tewah, Kec. Tewah, Kabupaten Gunung MAS, Kalimantan Tengah 74511","Tewah, Kec. Tewah, Kabupaten Gunung MAS",KALIMANTAN TENGAH,74511.0,Indonesia,,,,-1.051384,113.7252767,https://maps.google.com/?cid=0x0:0x1e1ab8f6cf9ac0ab,
mall,Pusat Perbelanjaan,UD. WIJAYA GROUP,"Jalan Brigjend Katamso No. 79 RT. 7 RW. 2, Kuala Kurun, Kurun, Tampang Tumbang Anjir, Kec. Kurun, Kabupaten Gunung MAS, Kalimantan Tengah 74511","Kuala Kurun, Kurun, Tampang Tumbang Anjir, Kec. Kurun, Kabupaten Gunung MAS",KALIMANTAN TENGAH,74511.0,Indonesia,82334382500.0,,,-1.1180276,113.8579166,https://maps.google.com/?cid=0x0:0x95248a008b38b0d2,
mall,Kantor Pemerintah,Pengadilan Negeri Kuala Kurun,"Jl. Tjilik Riwut, Kuala Kurun, Kec. Kurun, Kabupaten Gunung MAS, Kalimantan Tengah 74571","Kuala Kurun, Kec. Kurun, Kabupaten Gunung MAS",KALIMANTAN TENGAH,74571.0,Indonesia,5373034545.0,,,-1.1033661,113.8450474,https://maps.google.com/?cid=0x0:0x7b6e7388a67dd20a,
mall,Toko Pakaian Luar,Toko KASRIPAN,"XP2G+399, Tewah, Kec. Tewah, Kabupaten Gunung MAS, Kalimantan Tengah 74511","Tewah, Kec. Tewah, Kabupaten Gunung MAS",KALIMANTAN TENGAH,74511.0,Indonesia,8569864469.0,,,-1.0498326,113.7259804,https://maps.google.com/?cid=0x0:0x9f2dae06165e01ed,
mall,Pusat Perbelanjaan,Sr olshop2,"Sinar, Jl. Damang Sawang, Tampang Tumbang Anjir, Kec. Kurun, Kabupaten Gunung MAS, Kalimantan Tengah 73111","Jl. Damang Sawang, Tampang Tumbang Anjir, Kec. Kurun, Kabupaten Gunung MAS",KALIMANTAN TENGAH,73111.0,Indonesia,85390398661.0,,,-1.1239989,113.8786276,https://maps.google.com/?cid=0x0:0xcdc4bf4cfab48bb2,
mall,Toko Ponsel,ALFI CELL,"WPXG+VFJ, Tewah, Kec. Tewah, Kabupaten Gunung MAS, Kalimantan Tengah 74511","Tewah, Kec. Tewah, Kabupaten Gunung MAS",KALIMANTAN TENGAH,74511.0,Indonesia,,,,-1.0502967,113.72615,https://maps.google.com/?cid=0x0:0xa1129e5d7da3bd64,
mall,Toko Pakaian,"STAR center (rumah lulur  massage, khusus Wanita)","Jl. Tjilik Riwut Ruko Pemkab Blok B1 No.2, Kuala Kurun, Kec. Kurun, Kabupaten Gunung MAS, Kalimantan Tengah 74571","Kuala Kurun, Kec. Kurun, Kabupaten Gunung MAS",KALIMANTAN TENGAH,74571.0,Indonesia,85350363245.0,,,-1.1007437,113.8679175,https://maps.google.com/?cid=0x0:0xfbb559c4eb7d678a,
mall,Toko Bahan Bangunan,CV.Sinar Bangunan,"VVXC+929, Jl. Sangkurun, Kuala Kurun, Kec. Kurun, Kabupaten Gunung MAS, Kalimantan Tengah 74571","Jl. Sangkurun, Kuala Kurun, Kec. Kurun, Kabupaten Gunung MAS",KALIMANTAN TENGAH,74571.0,Indonesia,8125150634.0,,,-1.1015875,113.8701207,https://maps.google.com/?cid=0x0:0x1272166058d30301,
mall,Toko,UD.Alfandy,"XPGG+Q45, Jl. Perintis, Tewah, Kec. Tewah, Kabupaten Gunung MAS, Kalimantan Tengah 74511","Jl. Perintis, Tewah, Kec. Tewah, Kabupaten Gunung MAS",KALIMANTAN TENGAH,74511.0,Indonesia,,,,-1.0231214,113.7253452,https://maps.google.com/?cid=0x0:0x8c319e8fa5cc34a,
mall,Makanan Siap Saji,Warung bp rian,"WVPV+7M3, Jl lintas, Kuala Kurun, palangkaraya, Kabupaten Gunung MAS, Kalimantan Tengah","Kabupaten Gunung MAS, Kalimantan Tengah",KALIMANTAN TENGAH,,Indonesia,,,,-1.0643521,113.8941657,https://maps.google.com/?cid=0x0:0xde87f84a670da82f,
mall,Toko,TOKO MAHDAN,"Jl. Nyai Balau, Tewah, Kec. Tewah, Kabupaten Gunung MAS, Kalimantan Tengah 74511","Tewah, Kec. Tewah, Kabupaten Gunung MAS",KALIMANTAN TENGAH,74511.0,Indonesia,81250391839.0,,,-1.0523206,113.7260659,https://maps.google.com/?cid=0x0:0xe95247d84699bf0c,
mall,Pusat Perbelanjaan,Lidia,"QVP9+5XF, Jalan, Tumbang Miwan, Kurun, Gunung MAS Regency, Central Kalimantan 74571","Jalan, Tumbang Miwan, Kurun, Gunung MAS Regency",KALIMANTAN TENGAH,74571.0,Indonesia,8125776520.0,,,-1.2145666,113.8699183,https://maps.google.com/?cid=0x0:0x459262eef7eb2eb3,
mall,Toko,TOKO OYEN,"Tumbang Hakau, Kec. Kurun, Kabupaten Gunung MAS, Kalimantan Tengah 74571","Kec. Kurun, Kabupaten Gunung MAS",KALIMANTAN TENGAH,74571.0,Indonesia,,,,-1.2677237,113.8985214,https://maps.google.com/?cid=0x0:0x425ebd646c9293ed,
mall,mall,Kalimantan Tengah 74562,"Kabupaten Gunung MAS, Kalimantan Tengah","Kabupaten Gunung MAS, Kalimantan Tengah",KALIMANTAN TENGAH,,Indonesia,,,,-1.3240171,113.4776098,https://maps.google.com/?cid=0x0:0x59a162add95738c2,
mall,Toko,toko m.nabel,"J9XM+FJ6, Gohong, Kec. Manuhing, Kabupaten Gunung MAS, Kalimantan Tengah 74562","Gohong, Kec. Manuhing, Kabupaten Gunung MAS",KALIMANTAN TENGAH,74562.0,Indonesia,85294120409.0,,,-1.3513295,113.3840028,https://maps.google.com/?cid=0x0:0x61a39983433be8a9,
mall,Toko,BALQIS MART,"M92J+PW4, Tumbang Talaken, Kec. Manuhing, Kabupaten Gunung MAS, Kalimantan Tengah 74562","Tumbang Talaken, Kec. Manuhing, Kabupaten Gunung MAS",KALIMANTAN TENGAH,74562.0,Indonesia,,,,-1.3483046,113.3824586,https://maps.google.com/?cid=0x0:0x8efcfd327679ccd3,
mall,Pusat Perbelanjaan,Budi rungan,"PH7F+7W8Jl. Cilik RiwutJakatan Raya, Kec. Rungan, Kabupaten Gunung MAS, Kalimantan Tengah 74562","Kec. Rungan, Kabupaten Gunung MAS",KALIMANTAN TENGAH,74562.0,Indonesia,,,,-1.2867554,113.5748433,https://maps.google.com/?cid=0x0:0x969d38f948dba5e2,
mall,Toko Pakaian,Susy,"RT.01.RW.01.Tangki Dahuyan,kelurahan Talaken,kecamatan manuhing kabupaten,gunung mas, ibukota Palangka raya,prop, Kalimantan Tengah","ibukota Palangka raya,prop, Kalimantan Tengah",KALIMANTAN TENGAH,,Indonesia,,,,-1.35622,113.3644925,https://maps.google.com/?cid=0x0:0x48374e9079cb88a6,
mall,Bumi perkemahan,kajui state,"Unnamed Road, Tangki Dahuyan, Kec. Manuhing, Kabupaten Gunung MAS, Kalimantan Tengah 74562","Tangki Dahuyan, Kec. Manuhing, Kabupaten Gunung MAS",KALIMANTAN TENGAH,74562.0,Indonesia,,,,-1.3765666,113.469929,https://maps.google.com/?cid=0x0:0x1fa015e3e3d3ad71,
mall,Kios,TOKO MOYRA,"area PLTU, DS, Tumbang Kajuei, Kec. Rungan, Kabupaten Gunung MAS, Kalimantan Tengah 74562","DS, Tumbang Kajuei, Kec. Rungan, Kabupaten Gunung MAS",KALIMANTAN TENGAH,74562.0,Indonesia,81348567295.0,,,-1.3735001,113.5647223,https://maps.google.com/?cid=0x0:0x202ab0173e41710,
mall,Toko Swalayan,Toko MichaelJoel,"MHXC+HM8, Jakatan Raya, Kec. Rungan, Kabupaten Gunung MAS, Kalimantan Tengah 74562","Jakatan Raya, Kec. Rungan, Kabupaten Gunung MAS",KALIMANTAN TENGAH,74562.0,Indonesia,82189790205.0,,,-1.3010816,113.5717064,https://maps.google.com/?cid=0x0:0xd4d144edb82b41ee,
mall,Pusat Perbelanjaan,Budhi Bakso dan jual jangkrik,"Tumbang Talaken, Kec. Manuhing, Kabupaten Gunung MAS, Kalimantan Tengah 74562","Kec. Manuhing, Kabupaten Gunung MAS",KALIMANTAN TENGAH,74562.0,Indonesia,82353147450.0,,,-1.3525228,113.3855585,https://maps.google.com/?cid=0x0:0x17ad0215a90017a8,
mall,Toko,Toko SEGAH,"PH6F+699, Jakatan Raya, Kec. Rungan, Kabupaten Gunung MAS, Kalimantan Tengah 74562","Jakatan Raya, Kec. Rungan, Kabupaten Gunung MAS",KALIMANTAN TENGAH,74562.0,Indonesia,,,,-1.2894664,113.5734983,https://maps.google.com/?cid=0x0:0xc30745eee1c0e8f7,
mall,Toko,Toko hikmah Rungan,"PH6F+HM9, Jl. Cilik Riwut, Jakatan Raya, Kec. Rungan, Kabupaten Gunung MAS, Kalimantan Tengah 74561","Jl. Cilik Riwut, Jakatan Raya, Kec. Rungan, Kabupaten Gunung MAS",KALIMANTAN TENGAH,74561.0,Indonesia,,,,-1.2885853,113.5742455,https://maps.google.com/?cid=0x0:0x7724ba62233447e8,
mall,Pusat Perbelanjaan,Palangkaraya Mall (Palma),"Jl. Tjilik Riwut No.1, Palangka, Kec. Jekan Raya, Kota Palangka Raya, Kalimantan Tengah 74874","Palangka, Kec. Jekan Raya, Kota Palangka Raya",KALIMANTAN TENGAH,74874.0,Indonesia,,,,-2.2065433,113.9154004,https://maps.google.com/?cid=0x0:0xe30705d17366c7e0,
mall,Pusat Perbelanjaan,ARI PHONCELL-TEWAH,"Tewah, Kec. Tewah, Kabupaten Gunung MAS, Kalimantan Tengah 74511","Kec. Tewah, Kabupaten Gunung MAS",KALIMANTAN TENGAH,74511.0,Indonesia,85332333133.0,,,-1.028832,113.7297798,https://maps.google.com/?cid=0x0:0x4d1d1e20ba11940f,
mall,Grosir,pangkalan gas dan toko sembako,"Jl. Cilik Riwut No.100, Jakatan Raya, Kec. Rungan, Kabupaten Gunung MAS, Kalimantan Tengah 74562","Jakatan Raya, Kec. Rungan, Kabupaten Gunung MAS",KALIMANTAN TENGAH,74562.0,Indonesia,82251969265.0,,,-1.2910713,113.5739414,https://maps.google.com/?cid=0x0:0x8b7488720d32bff8,
mall,mall,Kec. Manuhing Raya,"Kabupaten Gunung MAS, Kalimantan Tengah","Kabupaten Gunung MAS, Kalimantan Tengah",KALIMANTAN TENGAH,,Indonesia,,,,-1.2093562,113.3161023,https://maps.google.com/?cid=0x0:0xf4826c03ebd0940e,
mall,Toko,toko m.nabel,"J9XM+FJ6, Gohong, Kec. Manuhing, Kabupaten Gunung MAS, Kalimantan Tengah 74562","Gohong, Kec. Manuhing, Kabupaten Gunung MAS",KALIMANTAN TENGAH,74562.0,Indonesia,85294120409.0,,,-1.3513295,113.3840028,https://maps.google.com/?cid=0x0:0x61a39983433be8a9,
mall,Toko,BALQIS MART,"M92J+PW4, Tumbang Talaken, Kec. Manuhing, Kabupaten Gunung MAS, Kalimantan Tengah 74562","Tumbang Talaken, Kec. Manuhing, Kabupaten Gunung MAS",KALIMANTAN TENGAH,74562.0,Indonesia,,,,-1.3483046,113.3824586,https://maps.google.com/?cid=0x0:0x8efcfd327679ccd3,
mall,Toko Pakaian,Susy,"RT.01.RW.01.Tangki Dahuyan,kelurahan Talaken,kecamatan manuhing kabupaten,gunung mas, ibukota Palangka raya,prop, Kalimantan Tengah","ibukota Palangka raya,prop, Kalimantan Tengah",KALIMANTAN TENGAH,,Indonesia,,,,-1.35622,113.3644925,https://maps.google.com/?cid=0x0:0x48374e9079cb88a6,
mall,Pusat Perbelanjaan,Budhi Bakso dan jual jangkrik,"Tumbang Talaken, Kec. Manuhing, Kabupaten Gunung MAS, Kalimantan Tengah 74562","Kec. Manuhing, Kabupaten Gunung MAS",KALIMANTAN TENGAH,74562.0,Indonesia,82353147450.0,,,-1.3525228,113.3855585,https://maps.google.com/?cid=0x0:0x17ad0215a90017a8,
mall,Pusat Perbelanjaan,Palangkaraya Mall (Palma),"Jl. Tjilik Riwut No.1, Palangka, Kec. Jekan Raya, Kota Palangka Raya, Kalimantan Tengah 74874","Palangka, Kec. Jekan Raya, Kota Palangka Raya",KALIMANTAN TENGAH,74874.0,Indonesia,,,,-2.2065433,113.9154004,https://maps.google.com/?cid=0x0:0xe30705d17366c7e0,
mall,Toko,ruko,"J9V7+GQ9, Tumbang Talaken, Kec. Manuhing, Kabupaten Gunung MAS, Kalimantan Tengah 74562","Tumbang Talaken, Kec. Manuhing, Kabupaten Gunung MAS",KALIMANTAN TENGAH,74562.0,Indonesia,81250655389.0,,,-1.35622,113.3644925,https://maps.google.com/?cid=0x0:0x43f82d8199e54f0,
mall,mall,Kalimantan Tengah 74571,"Kabupaten Gunung MAS, Kalimantan Tengah","Kabupaten Gunung MAS, Kalimantan Tengah",KALIMANTAN TENGAH,,Indonesia,,,,-1.1433424,113.9060624,https://maps.google.com/?cid=0x0:0x7dbb143be4104e8e,
mall,Pusat Perbelanjaan,ARI PHONCELL-TEWAH,"Tewah, Kec. Tewah, Kabupaten Gunung MAS, Kalimantan Tengah 74511","Kec. Tewah, Kabupaten Gunung MAS",KALIMANTAN TENGAH,74511.0,Indonesia,85332333133.0,,,-1.028832,113.7297798,https://maps.google.com/?cid=0x0:0x4d1d1e20ba11940f,
mall,Pusat Perbelanjaan,Toko Rina,"MWFH+WFX, Tumbang Danau, Kec. Mihing Raya, Kabupaten Gunung MAS, Kalimantan Tengah 74863","Tumbang Danau, Kec. Mihing Raya, Kabupaten Gunung MAS",KALIMANTAN TENGAH,74863.0,Indonesia,82149542729.0,,,-1.3250829,113.9284272,https://maps.google.com/?cid=0x0:0xcb7825b5d1c49bca,
mall,Toko,Toko PERDANA,"RVQQ+V6C, Ruko Pemda jalan cilik riwut kuala kurun, Tlk. Nyatu, Kec. Kurun, Kabupaten Gunung MAS, Kalimantan Tengah 74571","Ruko Pemda jalan cilik riwut kuala kurun, Tlk. Nyatu, Kec. Kurun, Kabupaten Gunung MAS",KALIMANTAN TENGAH,74571.0,Indonesia,81349037889.0,,,-1.1603001,113.8880042,https://maps.google.com/?cid=0x0:0xa629751dbde2578a,
mall,Toko,Depot Cris Iwo,"VVJ5+R92, Jl. Brigjend Katamso, Kuala Kurun, Kec. Kurun, Kabupaten Gunung MAS, Kalimantan Tengah 74571","Jl. Brigjend Katamso, Kuala Kurun, Kec. Kurun, Kabupaten Gunung MAS",KALIMANTAN TENGAH,74571.0,Indonesia,81349135345.0,,,-1.1179904,113.858388,https://maps.google.com/?cid=0x0:0x1c8378e70aec5703,
mall,Toko,toko azmi,"WPXG+29W, Tewah, Kec. Tewah, Kabupaten Gunung MAS, Kalimantan Tengah 74511","Tewah, Kec. Tewah, Kabupaten Gunung MAS",KALIMANTAN TENGAH,74511.0,Indonesia,,,,-1.0523957,113.7259512,https://maps.google.com/?cid=0x0:0x43a64f674cf75153,
mall,Pusat Perbelanjaan,Palangkaraya Mall (Palma),"Jl. Tjilik Riwut No.1, Palangka, Kec. Jekan Raya, Kota Palangka Raya, Kalimantan Tengah 74874","Palangka, Kec. Jekan Raya, Kota Palangka Raya",KALIMANTAN TENGAH,74874.0,Indonesia,,,,-2.2065433,113.9154004,https://maps.google.com/?cid=0x0:0xe30705d17366c7e0,
mall,Toko Bahan Bangunan,Toko Bangunan H Roni,"WPXG+C4R, Tewah, Kec. Tewah, Kabupaten Gunung MAS, Kalimantan Tengah 74511","Tewah, Kec. Tewah, Kabupaten Gunung MAS",KALIMANTAN TENGAH,74511.0,Indonesia,,,,-1.051384,113.7252767,https://maps.google.com/?cid=0x0:0x1e1ab8f6cf9ac0ab,
mall,Toko bahan makanan,Toko Linda,"MVXX+PX, Pilang Munduk, Kec. Kurun, Kabupaten Gunung MAS, Kalimantan Tengah 74571","Pilang Munduk, Kec. Kurun, Kabupaten Gunung MAS",KALIMANTAN TENGAH,74571.0,Indonesia,,,,-1.3006597,113.8999844,https://maps.google.com/?cid=0x0:0xb8a3e14c886aef6c,
mall,,DEKRANASDA Kab. Gunung Mas,"WV29+287, Kuala Kurun, Kec. Kurun, Kabupaten Gunung MAS, Kalimantan Tengah 74571","Kuala Kurun, Kec. Kurun, Kabupaten Gunung MAS",KALIMANTAN TENGAH,74571.0,Indonesia,,,,-1.0999597,113.8682967,https://maps.google.com/?cid=0x0:0xae61d73d743ae711,
mall,Pusat Perbelanjaan,SAIRA-ALIF FRIZEN FOOD,"QVP9+R4J, Jl. Tumbang Miwan, Tumbang Miwan, Kec. Kurun, Kabupaten Gunung MAS, Kalimantan Tengah 74571","Jl. Tumbang Miwan, Tumbang Miwan, Kec. Kurun, Kabupaten Gunung MAS",KALIMANTAN TENGAH,74571.0,Indonesia,,,,-1.2129077,113.8677745,https://maps.google.com/?cid=0x0:0x94ad047c63a2980f,
mall,Pusat Perbelanjaan,UD. DONY,"JWXC+863, Jl. Palangka Raya - Kuala Kurun, Kampuri, Kec. Mihing Raya, Kabupaten Gunung MAS, Kalimantan Tengah 74863","Jl. Palangka Raya - Kuala Kurun, Kampuri, Kec. Mihing Raya, Kabupaten Gunung MAS",KALIMANTAN TENGAH,74863.0,Indonesia,81350544126.0,,,-1.351747,113.9205348,https://maps.google.com/?cid=0x0:0xc48c287d8dc5f99e,
mall,Toko,Ud.icha Bersinar,"XP2C+QH4, Jl. Perintis, Tewah, Kec. Tewah, Kabupaten Gunung MAS, Kalimantan Tengah 74511","Jl. Perintis, Tewah, Kec. Tewah, Kabupaten Gunung MAS",KALIMANTAN TENGAH,74511.0,Indonesia,82351655509.0,,,-1.0481108,113.7214533,https://maps.google.com/?cid=0x0:0xa291b647dcd022a8,
mall,Pusat Perbelanjaan,Sr olshop2,"Sinar, Jl. Damang Sawang, Tampang Tumbang Anjir, Kec. Kurun, Kabupaten Gunung MAS, Kalimantan Tengah 73111","Jl. Damang Sawang, Tampang Tumbang Anjir, Kec. Kurun, Kabupaten Gunung MAS",KALIMANTAN TENGAH,73111.0,Indonesia,85390398661.0,,,-1.1239989,113.8786276,https://maps.google.com/?cid=0x0:0xcdc4bf4cfab48bb2,
mall,Toko,TOKO MAHDAN,"Jl. Nyai Balau, Tewah, Kec. Tewah, Kabupaten Gunung MAS, Kalimantan Tengah 74511","Tewah, Kec. Tewah, Kabupaten Gunung MAS",KALIMANTAN TENGAH,74511.0,Indonesia,81250391839.0,,,-1.0523206,113.7260659,https://maps.google.com/?cid=0x0:0xe95247d84699bf0c,
mall,Pusat Perbelanjaan,WIJAYA GROUP 2,"Jl. Jend. Sudirman No.100, Tampang Tumbang Anjir, Kec. Kurun, Kabupaten Gunung MAS, Kalimantan Tengah 74571","Tampang Tumbang Anjir, Kec. Kurun, Kabupaten Gunung MAS",KALIMANTAN TENGAH,74571.0,Indonesia,8115342500.0,,,-1.1207379,113.8716297,https://maps.google.com/?cid=0x0:0x94302a23dfaa8a3a,
mall,Toko Pakaian Luar,Toko KASRIPAN,"XP2G+399, Tewah, Kec. Tewah, Kabupaten Gunung MAS, Kalimantan Tengah 74511","Tewah, Kec. Tewah, Kabupaten Gunung MAS",KALIMANTAN TENGAH,74511.0,Indonesia,8569864469.0,,,-1.0498326,113.7259804,https://maps.google.com/?cid=0x0:0x9f2dae06165e01ed,
mall,Toko,Toko Radet,"Jl. Sangkurun No.07, Kuala Kurun, Kec. Kurun, Kabupaten Gunung MAS, Kalimantan Tengah 74571","Kuala Kurun, Kec. Kurun, Kabupaten Gunung MAS",KALIMANTAN TENGAH,74571.0,Indonesia,82254156693.0,,,-1.1008188,113.8697018,https://maps.google.com/?cid=0x0:0xa491d1cea1cd5a8f,
mall,Pembuat cetakan,Fotocofy ERIKSON,"VVGH+C39, Jl. Damang Sawang, Tampang Tumbang Anjir, Kec. Kurun, Kabupaten Gunung MAS, Kalimantan Tengah 74571","Jl. Damang Sawang, Tampang Tumbang Anjir, Kec. Kurun, Kabupaten Gunung MAS",KALIMANTAN TENGAH,74571.0,Indonesia,81257166336.0,,,-1.1239736,113.877725,https://maps.google.com/?cid=0x0:0xa68607235e5e6c93,
mall,Toko,TOKO OYEN,"Tumbang Hakau, Kec. Kurun, Kabupaten Gunung MAS, Kalimantan Tengah 74571","Kec. Kurun, Kabupaten Gunung MAS",KALIMANTAN TENGAH,74571.0,Indonesia,,,,-1.2677237,113.8985214,https://maps.google.com/?cid=0x0:0x425ebd646c9293ed,
mall,Pusat Perbelanjaan,UD. Fikri,"MVRP+75C, Unnamed Road, Pilang Munduk, Kec. Kurun, Kabupaten Gunung MAS, Kalimantan Tengah 74571","Unnamed Road, Pilang Munduk, Kec. Kurun, Kabupaten Gunung MAS",KALIMANTAN TENGAH,74571.0,Indonesia,,,,-1.3093114,113.8853815,https://maps.google.com/?cid=0x0:0x19067323e0897ccc,
mall,Pusat Perbelanjaan,UD.HUMAIRAH,"QVP8+WHF, Jl. Tumbang Miwan, Tewang Pajangan, Kec. Kurun, Kabupaten Gunung MAS, Kalimantan Tengah 74571","Jl. Tumbang Miwan, Tewang Pajangan, Kec. Kurun, Kabupaten Gunung MAS",KALIMANTAN TENGAH,74571.0,Indonesia,81254001910.0,,,-1.2126885,113.8664152,https://maps.google.com/?cid=0x0:0xd0d9ffcab3e57ad9,
mall,Toko Bahan Bangunan,Toko Reza,"VVWC+W6J, Jl. Mince Suan, Kuala Kurun, Kec. Kurun, Kabupaten Gunung MAS, Kalimantan Tengah 74571","Jl. Mince Suan, Kuala Kurun, Kec. Kurun, Kabupaten Gunung MAS",KALIMANTAN TENGAH,74571.0,Indonesia,,,,-1.1026578,113.8705145,https://maps.google.com/?cid=0x0:0xefb85011bbe7c8e4,
mall,mall,Kalimantan Tengah 74553,"Kabupaten Gunung MAS, Kalimantan Tengah","Kabupaten Gunung MAS, Kalimantan Tengah",KALIMANTAN TENGAH,,Indonesia,,,,-0.5866559,113.429984,https://maps.google.com/?cid=0x0:0x7f9e14ce7cf9d71f,
mall,mall,Miri Manasa,"Kabupaten Gunung MAS, Kalimantan Tengah","Kabupaten Gunung MAS, Kalimantan Tengah",KALIMANTAN TENGAH,,Indonesia,,,,-0.5858075,113.6204644,https://maps.google.com/?cid=0x0:0x9f8a09c1f677910f,
mall,Toko Perlengkapan Rumah,Toko Miri Marajaki 01,"3G6V+36P, Tumbang Miri, Kec. Kahayan Hulu Utara, Kabupaten Gunung MAS, Kalimantan Tengah 74561","Tumbang Miri, Kec. Kahayan Hulu Utara, Kabupaten Gunung MAS",KALIMANTAN TENGAH,74561.0,Indonesia,,,,-0.9397929,113.5430891,https://maps.google.com/?cid=0x0:0x83a97a93c18a5bc5,
mall,Toko bahan makanan,LEONA SEMBAKO,"3G6V+36P, Tumbang Miri, Kec. Kahayan Hulu Utara, Kabupaten Gunung MAS, Kalimantan Tengah 74561","Tumbang Miri, Kec. Kahayan Hulu Utara, Kabupaten Gunung MAS",KALIMANTAN TENGAH,74561.0,Indonesia,,,,-0.9397929,113.5430891,https://maps.google.com/?cid=0x0:0xb591dd57c875dfb2,
mall,Hipermarket,"Boulevard Shopping Mall, Miri","Lot 2528, Boulevard Commercial Centre, 98000 Miri, Sarawak, Malaysia",Miri,KALIMANTAN TENGAH,98000.0,Indonesia,6085432999.0,,,4.4151455,114.0129009,https://maps.google.com/?cid=0x0:0xb42bf2add5d0bf42,
mall,Pusat Perbelanjaan,Bintang Megamall,"Lot 1264, Jalan Miri Pujut, Bintang Jaya, 98000 Miri, Sarawak, Malaysia",Miri,KALIMANTAN TENGAH,98000.0,Indonesia,6085438877.0,,,4.3970478,113.9932847,https://maps.google.com/?cid=0x0:0x412bcb11330c2df,
mall,Pusat Perbelanjaan,MYY Mall,"Jalan Pasar Lutong, Lutong, 98000 Miri, Sarawak, Malaysia",Miri,KALIMANTAN TENGAH,98000.0,Indonesia,601158586658.0,,,4.4707827,114.0106985,https://maps.google.com/?cid=0x0:0xf403272899721de9,
mall,Pusat Perbelanjaan,Permy Mall,"Sublot 261, 1st Floor Permy Mall, Bandar Baru Permyjaya, 98000 Miri, Sarawak, Malaysia",Miri,KALIMANTAN TENGAH,98000.0,Indonesia,6085491889.0,,,4.4500689,114.0383533,https://maps.google.com/?cid=0x0:0x41c836a6eb1efdd3,
mall,Pusat Perbelanjaan,Parkson,"Parkson ( Bintang Mega Mall) Ground Floor - 3rd Floor , Bintang Mega Mall Lot 1657 Block 9 , M.C.L.D, Jalan Miri Pujut, 98000 Miri, Sarawak, Malaysia",Miri,KALIMANTAN TENGAH,98000.0,Indonesia,6085438453.0,,,4.3970031,113.993164,https://maps.google.com/?cid=0x0:0x9513b6a87a37cdee,
mall,mall,Kalimantan Tengah 74561,"Kabupaten Gunung MAS, Kalimantan Tengah","Kabupaten Gunung MAS, Kalimantan Tengah",KALIMANTAN TENGAH,,Indonesia,,,,-1.0753907,113.6204644,https://maps.google.com/?cid=0x0:0xe38f858eb863f7d4,
mall,Pusat Perbelanjaan,Budi rungan,"PH7F+7W8Jl. Cilik RiwutJakatan Raya, Kec. Rungan, Kabupaten Gunung MAS, Kalimantan Tengah 74562","Kec. Rungan, Kabupaten Gunung MAS",KALIMANTAN TENGAH,74562.0,Indonesia,,,,-1.2867554,113.5748433,https://maps.google.com/?cid=0x0:0x969d38f948dba5e2,
mall,Toko,Toko hikmah Rungan,"PH6F+HM9, Jl. Cilik Riwut, Jakatan Raya, Kec. Rungan, Kabupaten Gunung MAS, Kalimantan Tengah 74561","Jl. Cilik Riwut, Jakatan Raya, Kec. Rungan, Kabupaten Gunung MAS",KALIMANTAN TENGAH,74561.0,Indonesia,,,,-1.2885853,113.5742455,https://maps.google.com/?cid=0x0:0x7724ba62233447e8,
mall,Pusat Perbelanjaan,ARI PHONCELL-TEWAH,"Tewah, Kec. Tewah, Kabupaten Gunung MAS, Kalimantan Tengah 74511","Kec. Tewah, Kabupaten Gunung MAS",KALIMANTAN TENGAH,74511.0,Indonesia,85332333133.0,,,-1.028832,113.7297798,https://maps.google.com/?cid=0x0:0x4d1d1e20ba11940f,
mall,Toko Swalayan,Toko MichaelJoel,"MHXC+HM8, Jakatan Raya, Kec. Rungan, Kabupaten Gunung MAS, Kalimantan Tengah 74562","Jakatan Raya, Kec. Rungan, Kabupaten Gunung MAS",KALIMANTAN TENGAH,74562.0,Indonesia,82189790205.0,,,-1.3010816,113.5717064,https://maps.google.com/?cid=0x0:0xd4d144edb82b41ee,
mall,Toko Bahan Bangunan,Toko Bangunan H Roni,"WPXG+C4R, Tewah, Kec. Tewah, Kabupaten Gunung MAS, Kalimantan Tengah 74511","Tewah, Kec. Tewah, Kabupaten Gunung MAS",KALIMANTAN TENGAH,74511.0,Indonesia,,,,-1.051384,113.7252767,https://maps.google.com/?cid=0x0:0x1e1ab8f6cf9ac0ab,
mall,Toko Pakaian Luar,Toko KASRIPAN,"XP2G+399, Tewah, Kec. Tewah, Kabupaten Gunung MAS, Kalimantan Tengah 74511","Tewah, Kec. Tewah, Kabupaten Gunung MAS",KALIMANTAN TENGAH,74511.0,Indonesia,8569864469.0,,,-1.0498326,113.7259804,https://maps.google.com/?cid=0x0:0x9f2dae06165e01ed,
mall,Kios,TOKO MOYRA,"area PLTU, DS, Tumbang Kajuei, Kec. Rungan, Kabupaten Gunung MAS, Kalimantan Tengah 74562","DS, Tumbang Kajuei, Kec. Rungan, Kabupaten Gunung MAS",KALIMANTAN TENGAH,74562.0,Indonesia,81348567295.0,,,-1.3735001,113.5647223,https://maps.google.com/?cid=0x0:0x202ab0173e41710,
mall,Grosir,pangkalan gas dan toko sembako,"Jl. Cilik Riwut No.100, Jakatan Raya, Kec. Rungan, Kabupaten Gunung MAS, Kalimantan Tengah 74562","Jakatan Raya, Kec. Rungan, Kabupaten Gunung MAS",KALIMANTAN TENGAH,74562.0,Indonesia,82251969265.0,,,-1.2910713,113.5739414,https://maps.google.com/?cid=0x0:0x8b7488720d32bff8,
mall,Toko,TOKO MAHDAN,"Jl. Nyai Balau, Tewah, Kec. Tewah, Kabupaten Gunung MAS, Kalimantan Tengah 74511","Tewah, Kec. Tewah, Kabupaten Gunung MAS",KALIMANTAN TENGAH,74511.0,Indonesia,81250391839.0,,,-1.0523206,113.7260659,https://maps.google.com/?cid=0x0:0xe95247d84699bf0c,
mall,Pusat Perbelanjaan,Palangkaraya Mall (Palma),"Jl. Tjilik Riwut No.1, Palangka, Kec. Jekan Raya, Kota Palangka Raya, Kalimantan Tengah 74874","Palangka, Kec. Jekan Raya, Kota Palangka Raya",KALIMANTAN TENGAH,74874.0,Indonesia,,,,-2.2065433,113.9154004,https://maps.google.com/?cid=0x0:0xe30705d17366c7e0,
mall,Toko,toko azmi,"WPXG+29W, Tewah, Kec. Tewah, Kabupaten Gunung MAS, Kalimantan Tengah 74511","Tewah, Kec. Tewah, Kabupaten Gunung MAS",KALIMANTAN TENGAH,74511.0,Indonesia,,,,-1.0523957,113.7259512,https://maps.google.com/?cid=0x0:0x43a64f674cf75153,
mall,,DEKRANASDA Kab. Gunung Mas,"WV29+287, Kuala Kurun, Kec. Kurun, Kabupaten Gunung MAS, Kalimantan Tengah 74571","Kuala Kurun, Kec. Kurun, Kabupaten Gunung MAS",KALIMANTAN TENGAH,74571.0,Indonesia,,,,-1.0999597,113.8682967,https://maps.google.com/?cid=0x0:0xae61d73d743ae711,
mall,Pusat Perbelanjaan,Toko Rina,"MWFH+WFX, Tumbang Danau, Kec. Mihing Raya, Kabupaten Gunung MAS, Kalimantan Tengah 74863","Tumbang Danau, Kec. Mihing Raya, Kabupaten Gunung MAS",KALIMANTAN TENGAH,74863.0,Indonesia,82149542729.0,,,-1.3250829,113.9284272,https://maps.google.com/?cid=0x0:0xcb7825b5d1c49bca,
mall,Toko bahan makanan,LEONA SEMBAKO,"3G6V+36P, Tumbang Miri, Kec. Kahayan Hulu Utara, Kabupaten Gunung MAS, Kalimantan Tengah 74561","Tumbang Miri, Kec. Kahayan Hulu Utara, Kabupaten Gunung MAS",KALIMANTAN TENGAH,74561.0,Indonesia,,,,-0.9397929,113.5430891,https://maps.google.com/?cid=0x0:0xb591dd57c875dfb2,
mall,Toko,UD.Alfandy,"XPGG+Q45, Jl. Perintis, Tewah, Kec. Tewah, Kabupaten Gunung MAS, Kalimantan Tengah 74511","Jl. Perintis, Tewah, Kec. Tewah, Kabupaten Gunung MAS",KALIMANTAN TENGAH,74511.0,Indonesia,,,,-1.0231214,113.7253452,https://maps.google.com/?cid=0x0:0x8c319e8fa5cc34a,
mall,Toko,Ud.icha Bersinar,"XP2C+QH4, Jl. Perintis, Tewah, Kec. Tewah, Kabupaten Gunung MAS, Kalimantan Tengah 74511","Jl. Perintis, Tewah, Kec. Tewah, Kabupaten Gunung MAS",KALIMANTAN TENGAH,74511.0,Indonesia,82351655509.0,,,-1.0481108,113.7214533,https://maps.google.com/?cid=0x0:0xa291b647dcd022a8,
mall,Pusat Perbelanjaan,Tk Mama Asma,"WPXG+PM6, Tewah, Kec. Tewah, Kabupaten Gunung MAS, Kalimantan Tengah 74511","Tewah, Kec. Tewah, Kabupaten Gunung MAS",KALIMANTAN TENGAH,74511.0,Indonesia,82255636322.0,,,-1.050713,113.726626,https://maps.google.com/?cid=0x0:0x1418c5f47dae09ec,
mall,Toko Perlengkapan Rumah,Toko Miri Marajaki 01,"3G6V+36P, Tumbang Miri, Kec. Kahayan Hulu Utara, Kabupaten Gunung MAS, Kalimantan Tengah 74561","Tumbang Miri, Kec. Kahayan Hulu Utara, Kabupaten Gunung MAS",KALIMANTAN TENGAH,74561.0,Indonesia,,,,-0.9397929,113.5430891,https://maps.google.com/?cid=0x0:0x83a97a93c18a5bc5,
mall,Pusat Perbelanjaan,UD. DONY,"JWXC+863, Jl. Palangka Raya - Kuala Kurun, Kampuri, Kec. Mihing Raya, Kabupaten Gunung MAS, Kalimantan Tengah 74863","Jl. Palangka Raya - Kuala Kurun, Kampuri, Kec. Mihing Raya, Kabupaten Gunung MAS",KALIMANTAN TENGAH,74863.0,Indonesia,81350544126.0,,,-1.351747,113.9205348,https://maps.google.com/?cid=0x0:0xc48c287d8dc5f99e,
mall,Pusat Perbelanjaan,Mall Kota Carva,"6W6C+7GP, Sei Pinang, Mandau Talawang, Kabupaten Kapuas, Kalimantan Tengah","Kabupaten Kapuas, Kalimantan Tengah",KALIMANTAN TENGAH,,Indonesia,,,,-0.789275,113.921327,https://maps.google.com/?cid=0x0:0x79ca14719e79bde5,
mall,Toko bahan makanan,Toko Linda,"MVXX+PX, Pilang Munduk, Kec. Kurun, Kabupaten Gunung MAS, Kalimantan Tengah 74571","Pilang Munduk, Kec. Kurun, Kabupaten Gunung MAS",KALIMANTAN TENGAH,74571.0,Indonesia,,,,-1.3006597,113.8999844,https://maps.google.com/?cid=0x0:0xb8a3e14c886aef6c,
mall,mall,Kec. Rungan Barat,"Kabupaten Gunung MAS, Kalimantan Tengah","Kabupaten Gunung MAS, Kalimantan Tengah",KALIMANTAN TENGAH,,Indonesia,,,,-1.2648058,113.4266094,https://maps.google.com/?cid=0x0:0x96d1b4f9516d2214,
mall,Pusat Perbelanjaan,Budi rungan,"PH7F+7W8Jl. Cilik RiwutJakatan Raya, Kec. Rungan, Kabupaten Gunung MAS, Kalimantan Tengah 74562","Kec. Rungan, Kabupaten Gunung MAS",KALIMANTAN TENGAH,74562.0,Indonesia,,,,-1.2867554,113.5748433,https://maps.google.com/?cid=0x0:0x969d38f948dba5e2,
mall,Toko,Toko hikmah Rungan,"PH6F+HM9, Jl. Cilik Riwut, Jakatan Raya, Kec. Rungan, Kabupaten Gunung MAS, Kalimantan Tengah 74561","Jl. Cilik Riwut, Jakatan Raya, Kec. Rungan, Kabupaten Gunung MAS",KALIMANTAN TENGAH,74561.0,Indonesia,,,,-1.2885853,113.5742455,https://maps.google.com/?cid=0x0:0x7724ba62233447e8,
mall,Toko Swalayan,Toko MichaelJoel,"MHXC+HM8, Jakatan Raya, Kec. Rungan, Kabupaten Gunung MAS, Kalimantan Tengah 74562","Jakatan Raya, Kec. Rungan, Kabupaten Gunung MAS",KALIMANTAN TENGAH,74562.0,Indonesia,82189790205.0,,,-1.3010816,113.5717064,https://maps.google.com/?cid=0x0:0xd4d144edb82b41ee,
mall,Kios,TOKO MOYRA,"area PLTU, DS, Tumbang Kajuei, Kec. Rungan, Kabupaten Gunung MAS, Kalimantan Tengah 74562","DS, Tumbang Kajuei, Kec. Rungan, Kabupaten Gunung MAS",KALIMANTAN TENGAH,74562.0,Indonesia,81348567295.0,,,-1.3735001,113.5647223,https://maps.google.com/?cid=0x0:0x202ab0173e41710,
mall,Grosir,pangkalan gas dan toko sembako,"Jl. Cilik Riwut No.100, Jakatan Raya, Kec. Rungan, Kabupaten Gunung MAS, Kalimantan Tengah 74562","Jakatan Raya, Kec. Rungan, Kabupaten Gunung MAS",KALIMANTAN TENGAH,74562.0,Indonesia,82251969265.0,,,-1.2910713,113.5739414,https://maps.google.com/?cid=0x0:0x8b7488720d32bff8,
mall,mall,Kec. Rungan Barat,"Kabupaten Gunung MAS, Kalimantan Tengah","Kabupaten Gunung MAS, Kalimantan Tengah",KALIMANTAN TENGAH,,Indonesia,,,,-1.2648058,113.4266094,https://maps.google.com/?cid=0x0:0x96d1b4f9516d2214,
mall,Pusat Perbelanjaan,Budi rungan,"PH7F+7W8Jl. Cilik RiwutJakatan Raya, Kec. Rungan, Kabupaten Gunung MAS, Kalimantan Tengah 74562","Kec. Rungan, Kabupaten Gunung MAS",KALIMANTAN TENGAH,74562.0,Indonesia,,,,-1.2867554,113.5748433,https://maps.google.com/?cid=0x0:0x969d38f948dba5e2,
mall,Toko,Toko SEGAH,"PH6F+699, Jakatan Raya, Kec. Rungan, Kabupaten Gunung MAS, Kalimantan Tengah 74562","Jakatan Raya, Kec. Rungan, Kabupaten Gunung MAS",KALIMANTAN TENGAH,74562.0,Indonesia,,,,-1.2894664,113.5734983,https://maps.google.com/?cid=0x0:0xc30745eee1c0e8f7,
mall,Toko,Toko hikmah Rungan,"PH6F+HM9, Jl. Cilik Riwut, Jakatan Raya, Kec. Rungan, Kabupaten Gunung MAS, Kalimantan Tengah 74561","Jl. Cilik Riwut, Jakatan Raya, Kec. Rungan, Kabupaten Gunung MAS",KALIMANTAN TENGAH,74561.0,Indonesia,,,,-1.2885853,113.5742455,https://maps.google.com/?cid=0x0:0x7724ba62233447e8,
mall,Kios,TOKO MOYRA,"area PLTU, DS, Tumbang Kajuei, Kec. Rungan, Kabupaten Gunung MAS, Kalimantan Tengah 74562","DS, Tumbang Kajuei, Kec. Rungan, Kabupaten Gunung MAS",KALIMANTAN TENGAH,74562.0,Indonesia,81348567295.0,,,-1.3735001,113.5647223,https://maps.google.com/?cid=0x0:0x202ab0173e41710,
mall,Grosir,pangkalan gas dan toko sembako,"Jl. Cilik Riwut No.100, Jakatan Raya, Kec. Rungan, Kabupaten Gunung MAS, Kalimantan Tengah 74562","Jakatan Raya, Kec. Rungan, Kabupaten Gunung MAS",KALIMANTAN TENGAH,74562.0,Indonesia,82251969265.0,,,-1.2910713,113.5739414,https://maps.google.com/?cid=0x0:0x8b7488720d32bff8,
mall,mall,Kec. Rungan Hulu,"Kabupaten Gunung MAS, Kalimantan Tengah","Kabupaten Gunung MAS, Kalimantan Tengah",KALIMANTAN TENGAH,,Indonesia,,,,-1.0312568,113.4736811,https://maps.google.com/?cid=0x0:0x83eaf2f915027506,
mall,Pusat Perbelanjaan,Budi rungan,"PH7F+7W8Jl. Cilik RiwutJakatan Raya, Kec. Rungan, Kabupaten Gunung MAS, Kalimantan Tengah 74562","Kec. Rungan, Kabupaten Gunung MAS",KALIMANTAN TENGAH,74562.0,Indonesia,,,,-1.2867554,113.5748433,https://maps.google.com/?cid=0x0:0x969d38f948dba5e2,
mall,Toko,Toko hikmah Rungan,"PH6F+HM9, Jl. Cilik Riwut, Jakatan Raya, Kec. Rungan, Kabupaten Gunung MAS, Kalimantan Tengah 74561","Jl. Cilik Riwut, Jakatan Raya, Kec. Rungan, Kabupaten Gunung MAS",KALIMANTAN TENGAH,74561.0,Indonesia,,,,-1.2885853,113.5742455,https://maps.google.com/?cid=0x0:0x7724ba62233447e8,
mall,Toko,Toko SEGAH,"PH6F+699, Jakatan Raya, Kec. Rungan, Kabupaten Gunung MAS, Kalimantan Tengah 74562","Jakatan Raya, Kec. Rungan, Kabupaten Gunung MAS",KALIMANTAN TENGAH,74562.0,Indonesia,,,,-1.2894664,113.5734983,https://maps.google.com/?cid=0x0:0xc30745eee1c0e8f7,
mall,Toko Bahan Bangunan,Toko Bangunan H Roni,"WPXG+C4R, Tewah, Kec. Tewah, Kabupaten Gunung MAS, Kalimantan Tengah 74511","Tewah, Kec. Tewah, Kabupaten Gunung MAS",KALIMANTAN TENGAH,74511.0,Indonesia,,,,-1.051384,113.7252767,https://maps.google.com/?cid=0x0:0x1e1ab8f6cf9ac0ab,
mall,Pusat Perbelanjaan,Palangkaraya Mall (Palma),"Jl. Tjilik Riwut No.1, Palangka, Kec. Jekan Raya, Kota Palangka Raya, Kalimantan Tengah 74874","Palangka, Kec. Jekan Raya, Kota Palangka Raya",KALIMANTAN TENGAH,74874.0,Indonesia,,,,-2.2065433,113.9154004,https://maps.google.com/?cid=0x0:0xe30705d17366c7e0,
mall,Toko Pakaian Luar,Toko KASRIPAN,"XP2G+399, Tewah, Kec. Tewah, Kabupaten Gunung MAS, Kalimantan Tengah 74511","Tewah, Kec. Tewah, Kabupaten Gunung MAS",KALIMANTAN TENGAH,74511.0,Indonesia,8569864469.0,,,-1.0498326,113.7259804,https://maps.google.com/?cid=0x0:0x9f2dae06165e01ed,
mall,Toko,toko azmi,"WPXG+29W, Tewah, Kec. Tewah, Kabupaten Gunung MAS, Kalimantan Tengah 74511","Tewah, Kec. Tewah, Kabupaten Gunung MAS",KALIMANTAN TENGAH,74511.0,Indonesia,,,,-1.0523957,113.7259512,https://maps.google.com/?cid=0x0:0x43a64f674cf75153,
mall,Toko bahan makanan,LEONA SEMBAKO,"3G6V+36P, Tumbang Miri, Kec. Kahayan Hulu Utara, Kabupaten Gunung MAS, Kalimantan Tengah 74561","Tumbang Miri, Kec. Kahayan Hulu Utara, Kabupaten Gunung MAS",KALIMANTAN TENGAH,74561.0,Indonesia,,,,-0.9397929,113.5430891,https://maps.google.com/?cid=0x0:0xb591dd57c875dfb2,
mall,Kios,TOKO MOYRA,"area PLTU, DS, Tumbang Kajuei, Kec. Rungan, Kabupaten Gunung MAS, Kalimantan Tengah 74562","DS, Tumbang Kajuei, Kec. Rungan, Kabupaten Gunung MAS",KALIMANTAN TENGAH,74562.0,Indonesia,81348567295.0,,,-1.3735001,113.5647223,https://maps.google.com/?cid=0x0:0x202ab0173e41710,
mall,Grosir,pangkalan gas dan toko sembako,"Jl. Cilik Riwut No.100, Jakatan Raya, Kec. Rungan, Kabupaten Gunung MAS, Kalimantan Tengah 74562","Jakatan Raya, Kec. Rungan, Kabupaten Gunung MAS",KALIMANTAN TENGAH,74562.0,Indonesia,82251969265.0,,,-1.2910713,113.5739414,https://maps.google.com/?cid=0x0:0x8b7488720d32bff8,
mall,Pusat Perbelanjaan,Tk Mama Asma,"WPXG+PM6, Tewah, Kec. Tewah, Kabupaten Gunung MAS, Kalimantan Tengah 74511","Tewah, Kec. Tewah, Kabupaten Gunung MAS",KALIMANTAN TENGAH,74511.0,Indonesia,82255636322.0,,,-1.050713,113.726626,https://maps.google.com/?cid=0x0:0x1418c5f47dae09ec,
mall,Toko,Ud.icha Bersinar,"XP2C+QH4, Jl. Perintis, Tewah, Kec. Tewah, Kabupaten Gunung MAS, Kalimantan Tengah 74511","Jl. Perintis, Tewah, Kec. Tewah, Kabupaten Gunung MAS",KALIMANTAN TENGAH,74511.0,Indonesia,82351655509.0,,,-1.0481108,113.7214533,https://maps.google.com/?cid=0x0:0xa291b647dcd022a8,
mall,Toko,UD.Alfandy,"XPGG+Q45, Jl. Perintis, Tewah, Kec. Tewah, Kabupaten Gunung MAS, Kalimantan Tengah 74511","Jl. Perintis, Tewah, Kec. Tewah, Kabupaten Gunung MAS",KALIMANTAN TENGAH,74511.0,Indonesia,,,,-1.0231214,113.7253452,https://maps.google.com/?cid=0x0:0x8c319e8fa5cc34a,
mall,Toko,TOKO MAHDAN,"Jl. Nyai Balau, Tewah, Kec. Tewah, Kabupaten Gunung MAS, Kalimantan Tengah 74511","Tewah, Kec. Tewah, Kabupaten Gunung MAS",KALIMANTAN TENGAH,74511.0,Indonesia,81250391839.0,,,-1.0523206,113.7260659,https://maps.google.com/?cid=0x0:0xe95247d84699bf0c,
mall,Toko bahan makanan,TOKO ABIL,"WPRG+MQ5, Unnamed Road Tewah, Tewah, Kec. Tewah, Kabupaten Gunung MAS, Kalimantan Tengah 74511","Unnamed Road Tewah, Tewah, Kec. Tewah, Kabupaten Gunung MAS",KALIMANTAN TENGAH,74511.0,Indonesia,82350118888.0,,,-1.0583697,113.7269745,https://maps.google.com/?cid=0x0:0x2d5deac4d8474c64,
mall,Pusat Perbelanjaan,Duta Mall Palangka Raya,"QW2F+G58, Langkai, Kec. Pahandut, Kota Palangka Raya, Kalimantan Tengah 74874","Langkai, Kec. Pahandut, Kota Palangka Raya",KALIMANTAN TENGAH,74874.0,Indonesia,,,,-2.248704,113.922958,https://maps.google.com/?cid=0x0:0xd4fe13501def807f,
mall,Pasar,Pasar Baru Kuala Kurun,"VVWC+W4M, Jl. Sangkurun, Kuala Kurun, Kec. Kurun, Kabupaten Gunung MAS, Kalimantan Tengah 74571","Jl. Sangkurun, Kuala Kurun, Kec. Kurun, Kabupaten Gunung MAS",KALIMANTAN TENGAH,74571.0,Indonesia,,,,-1.1026605,113.870299,https://maps.google.com/?cid=0x0:0xe853d78f8251fa65,
mall,Toko Ponsel,ALFI CELL,"WPXG+VFJ, Tewah, Kec. Tewah, Kabupaten Gunung MAS, Kalimantan Tengah 74511","Tewah, Kec. Tewah, Kabupaten Gunung MAS",KALIMANTAN TENGAH,74511.0,Indonesia,,,,-1.0502967,113.72615,https://maps.google.com/?cid=0x0:0xa1129e5d7da3bd64,
mall,Kantor Pos,Kantorpos Sepang Simin,"Petak Bahandang, Kec. Kurun, Kabupaten Gunung MAS, Kalimantan Tengah 74571","Kec. Kurun, Kabupaten Gunung MAS",KALIMANTAN TENGAH,74571.0,Indonesia,51321102.0,,,-1.143342,113.906062,https://maps.google.com/?cid=0x0:0xde2637a37905bdda,
mall,mall,Sepang Simin,"Kec. Sepang, Kabupaten Gunung MAS, Kalimantan Tengah","Kabupaten Gunung MAS, Kalimantan Tengah",KALIMANTAN TENGAH,,Indonesia,,,,-1.4886343,113.8465758,https://maps.google.com/?cid=0x0:0x5f0110d9e1b20173,
mall,Toko,Toko Sinar MULIA,"GV5H+HJ8, Sepang Simin, Kec. Sepang, Kabupaten Gunung MAS, Kalimantan Tengah 74863","Sepang Simin, Kec. Sepang, Kabupaten Gunung MAS",KALIMANTAN TENGAH,74863.0,Indonesia,,,,-1.4910985,113.8790811,https://maps.google.com/?cid=0x0:0x91d108b7bf441cc6,
mall,Pusat Perbelanjaan,TOKO DORY,"GW32+JW2, Sepang, Sepang Kota, Kec. Sepang, Kabupaten Gunung MAS, Kalimantan Tengah 74863","Sepang, Sepang Kota, Kec. Sepang, Kabupaten Gunung MAS",KALIMANTAN TENGAH,74863.0,Indonesia,82351357296.0,,,-1.4959889,113.9022798,https://maps.google.com/?cid=0x0:0x900347c5a8bb43bf,
mall,Toko bahan makanan,Kios Pulah/Ridha 01,"FWQ8+H29, Jl. Trans Kalimantan, Sepang Kota, Kec. Sepang, Kabupaten Gunung MAS, Kalimantan Tengah 74863","Jl. Trans Kalimantan, Sepang Kota, Kec. Sepang, Kabupaten Gunung MAS",KALIMANTAN TENGAH,74863.0,Indonesia,,,,-1.5110974,113.9151049,https://maps.google.com/?cid=0x0:0x66ca361d05207763,
mall,Toko sembako pemerintah,WARUNG SEMBAKO/ISI ULANG CITRA,"GV6W+W27, Sepang Simin, Kec. Sepang, Kabupaten Gunung MAS, Kalimantan Tengah 74863","Sepang Simin, Kec. Sepang, Kabupaten Gunung MAS",KALIMANTAN TENGAH,74863.0,Indonesia,,,,-1.4876025,113.8941593,https://maps.google.com/?cid=0x0:0x6d56309a71e77047,
mall,Pusat Perbelanjaan,Warung mbak nana,"GV58+F3G, Sepang Simin, Kec. Sepang, Kabupaten Gunung MAS, Kalimantan Tengah","Kabupaten Gunung MAS, Kalimantan Tengah",KALIMANTAN TENGAH,,Indonesia,,,,-1.4913124,113.8652086,https://maps.google.com/?cid=0x0:0x760f0f3a6fc7d5c3,
mall,Pusat Perbelanjaan,Toko Sembako Zahra,"GV57+CQQ, Sepang Simin, Kec. Sepang, Kabupaten Gunung MAS, Kalimantan Tengah","Kabupaten Gunung MAS, Kalimantan Tengah",KALIMANTAN TENGAH,,Indonesia,82118411762.0,,,-1.4914063,113.8644739,https://maps.google.com/?cid=0x0:0x89616239ea2bc553,
mall,Kantor Pemerintahan Daerah,Pasar Desa Tewai Baru,"GWP9+2H4, Jl. Tewai Baru, Tewai Baru, Kec. Sepang, Kabupaten Gunung MAS, Kalimantan Tengah 74863","Jl. Tewai Baru, Tewai Baru, Kec. Sepang, Kabupaten Gunung MAS",KALIMANTAN TENGAH,74863.0,Indonesia,,,,-1.464985,113.9189523,https://maps.google.com/?cid=0x0:0x870226e08c9c4dc6,
mall,Toko bahan makanan,BRILINK REFAN,"Desa tampelas, simin, Kec. Sepang, Kabupaten Gunung MAS, Kalimantan Tengah 74570","simin, Kec. Sepang, Kabupaten Gunung MAS",KALIMANTAN TENGAH,74570.0,Indonesia,,,,-1.5125377,113.9153999,https://maps.google.com/?cid=0x0:0x78fb0e3c49ba3ba8,
mall,Toko,TOKO IDOLA,"FVGC+C4X, Jl. Pulo Gadung, Sepang Kota, Kec. Sepang, Kabupaten Gunung MAS, Kalimantan Tengah","Kabupaten Gunung MAS, Kalimantan Tengah",KALIMANTAN TENGAH,,Indonesia,,,,-1.5238884,113.8703713,https://maps.google.com/?cid=0x0:0x3a0592d21001584c,
mall,Pusat Perbelanjaan,Kuningan Citymall,"Jl. Prof. DR. Satrio No.Kav. 18, Kuningan, Karet Kuningan, Kecamatan Setiabudi, Kota Jakarta Selatan, Daerah Khusus Ibukota Jakarta 12940","Kuningan, Karet Kuningan, Kecamatan Setiabudi, Kota Jakarta Selatan",KALIMANTAN TENGAH,12940.0,Indonesia,2157905555.0,,,-6.2250136,106.829553,https://maps.google.com/?cid=0x0:0x420d8f1dfd4d9452,
mall,Pusat Perbelanjaan,Lotte Shopping Avenue Mall,"Jl. Prof. DR. Satrio No.Kav.3, RW.5, Kuningan, Karet Kuningan, Kecamatan Setiabudi, Kota Jakarta Selatan, Daerah Khusus Ibukota Jakarta 12940","RW.5, Kuningan, Karet Kuningan, Kecamatan Setiabudi, Kota Jakarta Selatan",KALIMANTAN TENGAH,12940.0,Indonesia,2129889292.0,,,-6.2233644,106.8232981,https://maps.google.com/?cid=0x0:0xe8323175da8b9770,
mall,Pusat Perbelanjaan,"Avenue Lobby, Lotte Mall","QRGF+62W, RT.18/RW.4, Kuningan, Karet Kuningan, Kecamatan Setiabudi, Kota Jakarta Selatan, Daerah Khusus Ibukota Jakarta 12940","RT.18/RW.4, Kuningan, Karet Kuningan, Kecamatan Setiabudi, Kota Jakarta Selatan",KALIMANTAN TENGAH,12940.0,Indonesia,,,,-6.2243192,106.822371,https://maps.google.com/?cid=0x0:0xfc181e0fb5103ad4,
mall,Pusat Perbelanjaan,"Kalbe Care, Lotte Shopping Avenue","kav., Jl. Prof. DR. Satrio No.3-5 C03 - C05, RT.18/RW.4, Kuningan, Karet Kuningan, Kecamatan Setiabudi, Kota Jakarta Selatan, Daerah Khusus Ibukota Jakarta 12940","Jl. Prof. DR. Satrio No.3-5 C03 - C05, RT.18/RW.4, Kuningan, Karet Kuningan, Kecamatan Setiabudi, Kota Jakarta Selatan",KALIMANTAN TENGAH,12940.0,Indonesia,2129889347.0,,,-6.2243244,106.8232529,https://maps.google.com/?cid=0x0:0x2f036dac03d8471c,
mall,Jepang,Shokuyoku teppanyaki |Lotte Mall,"QRGF+MP8, Jl. Prof. DR. Satrio, RT.11/RW.4, Kuningan, Karet Kuningan, Kecamatan Setiabudi, Kota Jakarta Selatan, Daerah Khusus Ibukota Jakarta 12940","Jl. Prof. DR. Satrio, RT.11/RW.4, Kuningan, Karet Kuningan, Kecamatan Setiabudi, Kota Jakarta Selatan",KALIMANTAN TENGAH,12940.0,Indonesia,,,,-6.2233271,106.8243207,https://maps.google.com/?cid=0x0:0x22b300bf35013b28,
mall,Vietnam,PHO BA BA Lotte Mall Jakarta,"LOTTE SHOPPING AVENUE, Jl. Prof. DR. Satrio No.Kav 3-5, Kuningan, Karet Kuningan, Setiabudi, South Jakarta City, Jakarta 12940","Jl. Prof. DR. Satrio No.Kav 3-5, Kuningan, Karet Kuningan, Setiabudi, South Jakarta City",KALIMANTAN TENGAH,12940.0,Indonesia,81809874304.0,,,-6.2245303,106.8227118,https://maps.google.com/?cid=0x0:0x167be96a538c1de3,
mall,mall,Kalimantan Tengah 74552,Kalimantan Tengah,Kalimantan Tengah,KALIMANTAN TENGAH,,Indonesia,,,,-0.7250328,113.6204644,https://maps.google.com/?cid=0x0:0xb94d62208c0f5814,
mall,mall,Kec. Tewah,"Kabupaten Gunung MAS, Kalimantan Tengah","Kabupaten Gunung MAS, Kalimantan Tengah",KALIMANTAN TENGAH,,Indonesia,,,,-1.0495046,113.7212207,https://maps.google.com/?cid=0x0:0x957b01e921372b79,
mall,mall,Tewah,"Tewah, Kec. Tewah, Kabupaten Gunung MAS, Kalimantan Tengah","Kabupaten Gunung MAS, Kalimantan Tengah",KALIMANTAN TENGAH,,Indonesia,,,,-1.083333,113.7,https://maps.google.com/?cid=0x0:0x96dc188f73c3abfe,
mall,Pusat Perbelanjaan,Duta Mall Palangka Raya,"QW2F+G58, Langkai, Kec. Pahandut, Kota Palangka Raya, Kalimantan Tengah 74874","Langkai, Kec. Pahandut, Kota Palangka Raya",KALIMANTAN TENGAH,74874.0,Indonesia,,,,-2.248704,113.922958,https://maps.google.com/?cid=0x0:0xd4fe13501def807f,
mall,Sekolah Menengah Pertama,SDN 3 TEWAH,"Jl. Perintis No.24, Tewah, Kec. Tewah, Kabupaten Gunung MAS, Kalimantan Tengah 74511","Tewah, Kec. Tewah, Kabupaten Gunung MAS",KALIMANTAN TENGAH,74511.0,Indonesia,85348016733.0,,,-1.035737,113.7269535,https://maps.google.com/?cid=0x0:0xce36a54d7e0ef90a,
mall,mall,Toko Abizar pasar tewah,"WPXG+JQG, Jl. Ps., Tewah, Kec. Tewah, Kabupaten Gunung MAS, Kalimantan Tengah 74511","Jl. Ps., Tewah, Kec. Tewah, Kabupaten Gunung MAS",KALIMANTAN TENGAH,74511.0,Indonesia,,,,-1.050943,113.726954,https://maps.google.com/?cid=0x0:0xda20902711af99ed,
mall,mall,Toko sembako bp indah,"3HJ2+QFJ, Tumbang Miri, Kec. Kahayan Hulu Utara, Kabupaten Gunung MAS, Kalimantan Tengah 74561","Tumbang Miri, Kec. Kahayan Hulu Utara, Kabupaten Gunung MAS",KALIMANTAN TENGAH,74561.0,Indonesia,,,,-0.9180282,113.551147,https://maps.google.com/?cid=0x0:0x1d66b6d846367bb3,
mall,mall,Toko zahra,"3HJ2+XGQ, Tumbang Miri, Kec. Kahayan Hulu Utara, Kabupaten Gunung MAS, Kalimantan Tengah 74561","Tumbang Miri, Kec. Kahayan Hulu Utara, Kabupaten Gunung MAS",KALIMANTAN TENGAH,74561.0,Indonesia,,,,-0.9175264,113.5513632,https://maps.google.com/?cid=0x0:0xd3866990fc349742,
mall,mall,Toko Prima Logam,"3HM2+5RX, Tumbang Miri, Kec. Kahayan Hulu Utara, Kabupaten Gunung MAS, Kalimantan Tengah 74561","Tumbang Miri, Kec. Kahayan Hulu Utara, Kabupaten Gunung MAS",KALIMANTAN TENGAH,74561.0,Indonesia,,,,-0.9170178,113.552125,https://maps.google.com/?cid=0x0:0x5f29f1e5a15c03bf,
mall,Pasar,Pasar Baru Kuala Kurun,"VVWC+W4M, Jl. Sangkurun, Kuala Kurun, Kec. Kurun, Kabupaten Gunung MAS, Kalimantan Tengah 74571","Jl. Sangkurun, Kuala Kurun, Kec. Kurun, Kabupaten Gunung MAS",KALIMANTAN TENGAH,74571.0,Indonesia,,,,-1.1026605,113.870299,https://maps.google.com/?cid=0x0:0xe853d78f8251fa65,
mall,Pusat Perbelanjaan,ARI PHONCELL-TEWAH,"Tewah, Kec. Tewah, Kabupaten Gunung MAS, Kalimantan Tengah 74511","Kec. Tewah, Kabupaten Gunung MAS",KALIMANTAN TENGAH,74511.0,Indonesia,85332333133.0,,,-1.028832,113.7297798,https://maps.google.com/?cid=0x0:0x4d1d1e20ba11940f,
mall,Toko,toko azmi,"WPXG+29W, Tewah, Kec. Tewah, Kabupaten Gunung MAS, Kalimantan Tengah 74511","Tewah, Kec. Tewah, Kabupaten Gunung MAS",KALIMANTAN TENGAH,74511.0,Indonesia,,,,-1.0523957,113.7259512,https://maps.google.com/?cid=0x0:0x43a64f674cf75153,
mall,Toko bahan makanan,TOKO ABIL,"WPRG+MQ5, Unnamed Road Tewah, Tewah, Kec. Tewah, Kabupaten Gunung MAS, Kalimantan Tengah 74511","Unnamed Road Tewah, Tewah, Kec. Tewah, Kabupaten Gunung MAS",KALIMANTAN TENGAH,74511.0,Indonesia,82350118888.0,,,-1.0583697,113.7269745,https://maps.google.com/?cid=0x0:0x2d5deac4d8474c64,
mall,Toko,TOKO MAHDAN,"Jl. Nyai Balau, Tewah, Kec. Tewah, Kabupaten Gunung MAS, Kalimantan Tengah 74511","Tewah, Kec. Tewah, Kabupaten Gunung MAS",KALIMANTAN TENGAH,74511.0,Indonesia,81250391839.0,,,-1.0523206,113.7260659,https://maps.google.com/?cid=0x0:0xe95247d84699bf0c,
mall,Toko Ponsel,Reza copy  helm,"Tewah, Kec. Tewah, Kabupaten Gunung MAS, Kalimantan Tengah 74511","Kec. Tewah, Kabupaten Gunung MAS",KALIMANTAN TENGAH,74511.0,Indonesia,85393628166.0,,,-1.0532411,113.7241372,https://maps.google.com/?cid=0x0:0xf3a045302291d7cd,
mall,Toko Bahan Bangunan,Toko Bangunan H Roni,"WPXG+C4R, Tewah, Kec. Tewah, Kabupaten Gunung MAS, Kalimantan Tengah 74511","Tewah, Kec. Tewah, Kabupaten Gunung MAS",KALIMANTAN TENGAH,74511.0,Indonesia,,,,-1.051384,113.7252767,https://maps.google.com/?cid=0x0:0x1e1ab8f6cf9ac0ab,
mall,Toko,UD.Alfandy,"XPGG+Q45, Jl. Perintis, Tewah, Kec. Tewah, Kabupaten Gunung MAS, Kalimantan Tengah 74511","Jl. Perintis, Tewah, Kec. Tewah, Kabupaten Gunung MAS",KALIMANTAN TENGAH,74511.0,Indonesia,,,,-1.0231214,113.7253452,https://maps.google.com/?cid=0x0:0x8c319e8fa5cc34a,
mall,Pusat Perbelanjaan,Tk Mama Asma,"WPXG+PM6, Tewah, Kec. Tewah, Kabupaten Gunung MAS, Kalimantan Tengah 74511","Tewah, Kec. Tewah, Kabupaten Gunung MAS",KALIMANTAN TENGAH,74511.0,Indonesia,82255636322.0,,,-1.050713,113.726626,https://maps.google.com/?cid=0x0:0x1418c5f47dae09ec,
mall,Toko Pakaian Luar,Toko KASRIPAN,"XP2G+399, Tewah, Kec. Tewah, Kabupaten Gunung MAS, Kalimantan Tengah 74511","Tewah, Kec. Tewah, Kabupaten Gunung MAS",KALIMANTAN TENGAH,74511.0,Indonesia,8569864469.0,,,-1.0498326,113.7259804,https://maps.google.com/?cid=0x0:0x9f2dae06165e01ed,
mall,Toko,Ud.icha Bersinar,"XP2C+QH4, Jl. Perintis, Tewah, Kec. Tewah, Kabupaten Gunung MAS, Kalimantan Tengah 74511","Jl. Perintis, Tewah, Kec. Tewah, Kabupaten Gunung MAS",KALIMANTAN TENGAH,74511.0,Indonesia,82351655509.0,,,-1.0481108,113.7214533,https://maps.google.com/?cid=0x0:0xa291b647dcd022a8,
mall,Toko Ponsel,ALFI CELL,"WPXG+VFJ, Tewah, Kec. Tewah, Kabupaten Gunung MAS, Kalimantan Tengah 74511","Tewah, Kec. Tewah, Kabupaten Gunung MAS",KALIMANTAN TENGAH,74511.0,Indonesia,,,,-1.0502967,113.72615,https://maps.google.com/?cid=0x0:0xa1129e5d7da3bd64,
mall,Toko bahan makanan,Depot isi ulang air putri,"XP2C+PRC, Jl. Perumahan Rakyat, Tewah, Kec. Tewah, Kabupaten Gunung MAS, Kalimantan Tengah 74511","Jl. Perumahan Rakyat, Tewah, Kec. Tewah, Kabupaten Gunung MAS",KALIMANTAN TENGAH,74511.0,Indonesia,82154595621.0,,,-1.0481982,113.7220308,https://maps.google.com/?cid=0x0:0x3e12f9a5f1ba4252,
mall,mall,TK H GUMER TEWAH,"WPXG+48Q, Jl. Nyai Balau, Tewah, Kec. Tewah, Kabupaten Gunung MAS, Kalimantan Tengah 74511","Jl. Nyai Balau, Tewah, Kec. Tewah, Kabupaten Gunung MAS",KALIMANTAN TENGAH,74511.0,Indonesia,,,,-1.0521708,113.7258721,https://maps.google.com/?cid=0x0:0xbaf7e4f7de89d60c,
mall,mall,TK ardah tewah,"WPWG+QJQ, Jl. Nyai Balau, Tewah, Kec. Tewah, Kabupaten Gunung MAS, Kalimantan Tengah 74511","Jl. Nyai Balau, Tewah, Kec. Tewah, Kabupaten Gunung MAS",KALIMANTAN TENGAH,74511.0,Indonesia,,,,-1.053032,113.7266064,https://maps.google.com/?cid=0x0:0x7d130ba59c81b014,
supermarket,supermarket,UD. SHALOm,"Jl. Nyai Bonyi No.17, Tumbang Marikoi, Damang Batu, Kabupaten Gunung MAS, Kalimantan Tengah","Kabupaten Gunung MAS, Kalimantan Tengah",KALIMANTAN TENGAH,,Indonesia,,,,-0.8440195,113.4478441,https://maps.google.com/?cid=0x0:0x95c8b8036ab799ef,
supermarket,Toko Bahan Bangunan,DEPO BANGUNAN INDO GLOBAL (D'BIG),"Komp. Ruko Ceria, Jl. Sungai Raya Dalam No A2, Raya River, Sungai Kakap, Kubu Raya Regency, West Kalimantan 78117","Jl. Sungai Raya Dalam No A2, Raya River, Sungai Kakap, Kubu Raya Regency",KALIMANTAN TENGAH,78117.0,Indonesia,81268880819.0,,,-0.0680419,109.3625791,https://maps.google.com/?cid=0x0:0x916d330c2807e4b9,
supermarket,Toko Bahan Bangunan,DEPO BANGUNAN INDO GLOBAL (D'BIG) KOTA BARU,"Jalan Prof. M. Yamin, Perempatan Jl. Ampera No.5, Kota Pontianak, Kalimantan Barat 78115","Perempatan Jl. Ampera No.5, Kota Pontianak",KALIMANTAN TENGAH,78115.0,Indonesia,81211996819.0,,,-0.0603493,109.3071458,https://maps.google.com/?cid=0x0:0xcddaebe925787122,
supermarket,supermarket,Kec. Kahayan Hulu Utara,"Kabupaten Gunung MAS, Kalimantan Tengah","Kabupaten Gunung MAS, Kalimantan Tengah",KALIMANTAN TENGAH,,Indonesia,,,,-0.9242953,113.5532855,https://maps.google.com/?cid=0x0:0x47258147014c232a,
supermarket,Kantor Perusahaan,Pasar Tumbang Miri,"3HM2+3J6, Tumbang Miri, Kec. Kahayan Hulu Utara, Kabupaten Gunung MAS, Kalimantan Tengah 74561","Tumbang Miri, Kec. Kahayan Hulu Utara, Kabupaten Gunung MAS",KALIMANTAN TENGAH,74561.0,Indonesia,,,,-0.9173373,113.5515051,https://maps.google.com/?cid=0x0:0x6a48ae59913175a4,
supermarket,Sekolah Menengah Umum,SMAN 1 KAHAYAN HULU UTARA,"3HG2+5H9, Tumbang Miri, Kec. Kahayan Hulu Utara, Kabupaten Gunung MAS, Kalimantan Tengah 74561","Tumbang Miri, Kec. Kahayan Hulu Utara, Kabupaten Gunung MAS",KALIMANTAN TENGAH,74561.0,Indonesia,,,,-0.9245917,113.5514963,https://maps.google.com/?cid=0x0:0xe9a4b608e5febc2,
supermarket,Rumah Makan,Warung Makan Adit,"XP8H+45H, Unnamed Road, Tewah, Kec. Tewah, Kabupaten Gunung MAS, Kalimantan Tengah 74511","Unnamed Road, Tewah, Kec. Tewah, Kabupaten Gunung MAS",KALIMANTAN TENGAH,74511.0,Indonesia,82251853705.0,,,-1.0346922,113.7279786,https://maps.google.com/?cid=0x0:0x6e27a53c4e8d09b,
supermarket,,Alat - alat pertanian/pancingan ikan,"TOKO ARIF, Jl. Perintis No.RT 16, Tewah, Kec. Tewah, Kabupaten Gunung MAS, Kalimantan Tengah 74552","Jl. Perintis No.RT 16, Tewah, Kec. Tewah, Kabupaten Gunung MAS",KALIMANTAN TENGAH,74552.0,Indonesia,85248532566.0,,,-1.0405015,113.7237331,https://maps.google.com/?cid=0x0:0x529539bd3e53e4f3,
supermarket,Kantor Pemerintah,KP TUMBANG MIRI,"3HG3+78M, Tumbang Miri, Kec. Kahayan Hulu Utara, Kabupaten Gunung MAS, Kalimantan Tengah","Kabupaten Gunung MAS, Kalimantan Tengah",KALIMANTAN TENGAH,,Indonesia,,,,-0.9242953,113.5532855,https://maps.google.com/?cid=0x0:0x5213b73695177433,
supermarket,supermarket,Kalimantan Tengah 74511,Kalimantan Tengah,Kalimantan Tengah,KALIMANTAN TENGAH,,Indonesia,,,,-0.898161,113.8584737,https://maps.google.com/?cid=0x0:0x88373fa35beec461,
supermarket,Toko,Toko Rino,"Jl. Karya, Kuala Kurun, Kec. Kurun, Kabupaten Gunung MAS, Kalimantan Tengah 74571","Kuala Kurun, Kec. Kurun, Kabupaten Gunung MAS",KALIMANTAN TENGAH,74571.0,Indonesia,8125738021.0,,,-1.1043345,113.8641675,https://maps.google.com/?cid=0x0:0xcd1a20e080a551f1,
supermarket,Toko,Toko Tarula,"Jl. Pangeran Diponegoro, Kuala Kurun, Kec. Kurun, Kabupaten Gunung MAS, Kalimantan Tengah 74571","Kuala Kurun, Kec. Kurun, Kabupaten Gunung MAS",KALIMANTAN TENGAH,74571.0,Indonesia,81255722288.0,,,-1.1258716,113.8576899,https://maps.google.com/?cid=0x0:0x7698af5c8ef73810,
supermarket,Toko bahan makanan,KIOS INDAH,"WV56+3W7, Jl. Sangkurun, Kuala Kurun, Kec. Kurun, Kabupaten Gunung MAS, Kalimantan Tengah 74571","Jl. Sangkurun, Kuala Kurun, Kec. Kurun, Kabupaten Gunung MAS",KALIMANTAN TENGAH,74571.0,Indonesia,81254622372.0,,,-1.0923451,113.862298,https://maps.google.com/?cid=0x0:0xeb07c9ccbc3bdbe3,
supermarket,Toko umum,UD Arom,"VVJ5+5GQ, Tampang Tumbang Anjir, Kec. Kurun, Kabupaten Gunung MAS, Kalimantan Tengah 74571","Tampang Tumbang Anjir, Kec. Kurun, Kabupaten Gunung MAS",KALIMANTAN TENGAH,74571.0,Indonesia,,,,-1.1195491,113.8588623,https://maps.google.com/?cid=0x0:0xc8f09a108df1afb7,
supermarket,Toko Buah dan Sayuran,Toko Buah - Sayur - Ikan dan Ayam Mama Husein,"Jl. Temanggung Panji VIII Pasar Lama Kuala, Kuala Kurun, Kec. Kurun, Kabupaten Gunung MAS, Kalimantan Tengah 74511","Kuala Kurun, Kec. Kurun, Kabupaten Gunung MAS",KALIMANTAN TENGAH,74511.0,Indonesia,81352773549.0,,,-1.099198,113.8677792,https://maps.google.com/?cid=0x0:0x3bd8186a93a3570d,
supermarket,Toko bahan makanan,Toko Andika,"Jl. Sangkurun No.207, Kuala Kurun, Kec. Kurun, Kabupaten Gunung MAS, Kalimantan Tengah 74571","Kuala Kurun, Kec. Kurun, Kabupaten Gunung MAS",KALIMANTAN TENGAH,74571.0,Indonesia,81349285647.0,,,-1.0964818,113.8667979,https://maps.google.com/?cid=0x0:0xb4f824ffc863d0de,
supermarket,supermarket,,,,KALIMANTAN TENGAH,,Indonesia,82187953605.0,,,-2.44565,117.8888,https://maps.google.com/?cid=0x0:0xed7398110d63f30e,
supermarket,Rumah Makan,Warung Makan Adit,"XP8H+45H, Unnamed Road, Tewah, Kec. Tewah, Kabupaten Gunung MAS, Kalimantan Tengah 74511","Unnamed Road, Tewah, Kec. Tewah, Kabupaten Gunung MAS",KALIMANTAN TENGAH,74511.0,Indonesia,82251853705.0,,,-1.0346922,113.7279786,https://maps.google.com/?cid=0x0:0x6e27a53c4e8d09b,
supermarket,Minimarket,Toko Yanto,"VVVC+4WF, Unnamed Road, Tampang Tumbang Anjir, Kec. Kurun, Kabupaten Gunung MAS, Kalimantan Tengah 74571","Unnamed Road, Tampang Tumbang Anjir, Kec. Kurun, Kabupaten Gunung MAS",KALIMANTAN TENGAH,74571.0,Indonesia,8135388484.0,,,-1.1071856,113.8723086,https://maps.google.com/?cid=0x0:0x90c8f8b6f18563fd,
supermarket,Toko bahan makanan,UM SWALAYAN,"6W6C+7GP, Sei Pinang, Mandau Talawang, Kabupaten Kapuas, Kalimantan Tengah","Kabupaten Kapuas, Kalimantan Tengah",KALIMANTAN TENGAH,,Indonesia,,,,-0.789275,113.921327,https://maps.google.com/?cid=0x0:0xfc09010eae5bf56a,
supermarket,,Alat - alat pertanian/pancingan ikan,"TOKO ARIF, Jl. Perintis No.RT 16, Tewah, Kec. Tewah, Kabupaten Gunung MAS, Kalimantan Tengah 74552","Jl. Perintis No.RT 16, Tewah, Kec. Tewah, Kabupaten Gunung MAS",KALIMANTAN TENGAH,74552.0,Indonesia,85248532566.0,,,-1.0405015,113.7237331,https://maps.google.com/?cid=0x0:0x529539bd3e53e4f3,
supermarket,Minimarket,Indomaret kuala kurun,"VVF3+F75, Kuala, Kec. Kurun, Kabupaten Gunung MAS, Kalimantan Tengah","Kabupaten Gunung MAS, Kalimantan Tengah",KALIMANTAN TENGAH,,Indonesia,,,,-1.1262706,113.8531644,https://maps.google.com/?cid=0x0:0x4243e216b144bc0a,
supermarket,supermarket,,,,KALIMANTAN TENGAH,,Indonesia,85225059425.0,,,-2.44565,117.8888,https://maps.google.com/?cid=0x0:0xf59d9fe575a39098,
supermarket,Minimarket,TOKO ORENS,"6W6C+7GP, Sei Pinang, Mandau Talawang, Kabupaten Kapuas, Kalimantan Tengah","Kabupaten Kapuas, Kalimantan Tengah",KALIMANTAN TENGAH,,Indonesia,82259127706.0,,,-0.789275,113.921327,https://maps.google.com/?cid=0x0:0xb9217354cdc073dd,
supermarket,supermarket,,,,KALIMANTAN TENGAH,,Indonesia,81362317758.0,,,-2.44565,117.8888,https://maps.google.com/?cid=0x0:0x2f75bfb1124019d2,
supermarket,Kantor Pemda,KP2KP KUALA KURUN,"Jl. Letjend Soeprapto No.65, Tampang Tumbang Anjir, Kec. Kurun, Kabupaten Gunung MAS, Kalimantan Tengah 74571","Tampang Tumbang Anjir, Kec. Kurun, Kabupaten Gunung MAS",KALIMANTAN TENGAH,74571.0,Indonesia,85248705885.0,,,-1.1146668,113.8629575,https://maps.google.com/?cid=0x0:0xc88a5543aa8cf7c6,
supermarket,supermarket,,,,KALIMANTAN TENGAH,,Indonesia,81217998677.0,,,-2.44565,117.8888,https://maps.google.com/?cid=0x0:0x97f004515f89561,
supermarket,Kantor Perusahaan,Kantor Bupati Gunung MAS,"Jl. Pangeran Diponegoro No.02, Tampang Tumbang Anjir, Kec. Kurun, Kabupaten Gunung MAS, Kalimantan Tengah 74571","Tampang Tumbang Anjir, Kec. Kurun, Kabupaten Gunung MAS",KALIMANTAN TENGAH,74571.0,Indonesia,,,,-1.1269773,113.8448987,https://maps.google.com/?cid=0x0:0x40d5d9350cb8b900,
supermarket,supermarket,,,,KALIMANTAN TENGAH,,Indonesia,7717447168.0,,,-2.44565,117.8888,https://maps.google.com/?cid=0x0:0xe45973c986336b5b,
supermarket,Toko Swalayan,Mu Gung Hwa Supermarket - Dharmawangsa,"Jl. Darmawangsa Raya No.2 Blok A, RT.2/RW.1, Pulo, Kec. Kby. Baru, Kota Jakarta Selatan, Daerah Khusus Ibukota Jakarta 12160","RT.2/RW.1, Pulo, Kec. Kby. Baru, Kota Jakarta Selatan",KALIMANTAN TENGAH,12160.0,Indonesia,217233214.0,,,-6.2549914,106.7977871,https://maps.google.com/?cid=0x0:0xc3d58b4e04a5f570,
supermarket,Toko Kelontong Korea,Mu Gung Hwa Supermarket - Senopati,"Jl. Senayan No.43, RT.8/RW.5, Rw. Bar., Kec. Kby. Baru, Kota Jakarta Selatan, Daerah Khusus Ibukota Jakarta 12180","RT.8/RW.5, Rw. Bar., Kec. Kby. Baru, Kota Jakarta Selatan",KALIMANTAN TENGAH,12180.0,Indonesia,217222214.0,,,-6.2353938,106.8158782,https://maps.google.com/?cid=0x0:0x9ffba79e59c537d5,
supermarket,Toko Kelontong Korea,Kimchi Heaven,"Blok QC11 No, Jl. Janur Elok V Blok QC11 No.2 7, RT.7/RW.6, Klp. Gading Bar., Kec. Klp. Gading, Jkt Utara, Daerah Khusus Ibukota Jakarta 14240","Jl. Janur Elok V Blok QC11 No.2 7, RT.7/RW.6, Klp. Gading Bar., Kec. Klp. Gading, Jkt Utara",KALIMANTAN TENGAH,14240.0,Indonesia,87888409129.0,,,-6.1490355,106.9048861,https://maps.google.com/?cid=0x0:0x27dc19e5bb50d945,
supermarket,supermarket,Toko Rizal,"Jl. Sangkurun No.45, Tampang Tumbang Anjir, Kec. Kurun, Kabupaten Gunung MAS, Kalimantan Tengah 74511","Tampang Tumbang Anjir, Kec. Kurun, Kabupaten Gunung MAS",KALIMANTAN TENGAH,74511.0,Indonesia,,,,-1.1049159,113.8718219,https://maps.google.com/?cid=0x0:0x195d151ffd0ad7b7,
supermarket,supermarket,Kalimantan Tengah 74562,"Kabupaten Gunung MAS, Kalimantan Tengah","Kabupaten Gunung MAS, Kalimantan Tengah",KALIMANTAN TENGAH,,Indonesia,,,,-1.3240171,113.4776098,https://maps.google.com/?cid=0x0:0x59a162add95738c2,
supermarket,Toko Swalayan,Toko Rizki Talaken,"J9XP+H44, Tumbang Talaken, Kec. Manuhing, Kabupaten Gunung MAS, Kalimantan Tengah 74562","Tumbang Talaken, Kec. Manuhing, Kabupaten Gunung MAS",KALIMANTAN TENGAH,74562.0,Indonesia,,,,-1.3511157,113.3853355,https://maps.google.com/?cid=0x0:0xac5e9df1dbe61307,
supermarket,Pusat Perbelanjaan,Toko ANEKA INDAH,"PH6F+VP9, Jakatan Raya, Kec. Rungan, Kabupaten Gunung MAS, Kalimantan Tengah 74562","Jakatan Raya, Kec. Rungan, Kabupaten Gunung MAS",KALIMANTAN TENGAH,74562.0,Indonesia,,,,-1.287831,113.5743646,https://maps.google.com/?cid=0x0:0x4bbbac7af7416c5c,
supermarket,Pusat Perbelanjaan,Toko Sumber Manuhing,"Jl. Cilik Riwut, Jakatan Raya, Kec. Rungan, Kabupaten Gunung MAS, Kalimantan Tengah 74562","Jakatan Raya, Kec. Rungan, Kabupaten Gunung MAS",KALIMANTAN TENGAH,74562.0,Indonesia,,,,-1.2905088,113.5739526,https://maps.google.com/?cid=0x0:0x9991d644bbb0fc23,
supermarket,Toko,Toko Jo,"CG4P+V9R, RT.002, Taringen, Kec. Manuhing, Kabupaten Gunung MAS, Kalimantan Tengah 74562","RT.002, Taringen, Kec. Manuhing, Kabupaten Gunung MAS",KALIMANTAN TENGAH,74562.0,Indonesia,82346869748.0,,,-1.5927677,113.5358755,https://maps.google.com/?cid=0x0:0x787c56ac867d1332,
supermarket,supermarket,Toko anugrah,"M92J+9X4, Unnamed Road, Tumbang Talaken, Kec. Manuhing, Kabupaten Gunung MAS, Kalimantan Tengah 74562","Unnamed Road, Tumbang Talaken, Kec. Manuhing, Kabupaten Gunung MAS",KALIMANTAN TENGAH,74562.0,Indonesia,,,,-1.349121,113.3824454,https://maps.google.com/?cid=0x0:0xd66882018a85b4ff,
supermarket,supermarket,toko Nor syifa,"J9V7+GQ9, Tumbang Talaken, Kec. Manuhing, Kabupaten Gunung MAS, Kalimantan Tengah 74562","Tumbang Talaken, Kec. Manuhing, Kabupaten Gunung MAS",KALIMANTAN TENGAH,74562.0,Indonesia,,,,-1.35622,113.3644925,https://maps.google.com/?cid=0x0:0x5013fdc82929954f,
supermarket,Toko Swalayan,Toko anugrah/areil,"J9XP+G68, Tumbang Talaken, Kec. Manuhing, Kabupaten Gunung MAS, Kalimantan Tengah 74562","Tumbang Talaken, Kec. Manuhing, Kabupaten Gunung MAS",KALIMANTAN TENGAH,74562.0,Indonesia,82148671148.0,,,-1.3512001,113.3855756,https://maps.google.com/?cid=0x0:0xb5d6324caf7b7301,
supermarket,Toko Swalayan,Toko Daffa,"Jalan Negara No.43, Tumbang Talaken, Kec. Manuhing, Kabupaten Gunung MAS, Kalimantan Tengah 74562","Tumbang Talaken, Kec. Manuhing, Kabupaten Gunung MAS",KALIMANTAN TENGAH,74562.0,Indonesia,82255773727.0,,,-1.3584987,113.3785931,https://maps.google.com/?cid=0x0:0x46516f541d9654ee,
supermarket,Minimarket,Kedai anju,"J9XJ+6FX, Tumbang Talaken, Kec. Manuhing, Kabupaten Gunung MAS, Kalimantan Tengah 74562","Tumbang Talaken, Kec. Manuhing, Kabupaten Gunung MAS",KALIMANTAN TENGAH,74562.0,Indonesia,81318676179.0,,,-1.3518765,113.3812267,https://maps.google.com/?cid=0x0:0x67e800d80ffc0d34,
supermarket,Kios,Kios Indu Ebit,"PH3F+F95, Jl. Cilik Riwut, Jakatan Raya, Kec. Rungan, Kabupaten Gunung MAS, Kalimantan Tengah 74562","Jl. Cilik Riwut, Jakatan Raya, Kec. Rungan, Kabupaten Gunung MAS",KALIMANTAN TENGAH,74562.0,Indonesia,,,,-1.2963663,113.5734884,https://maps.google.com/?cid=0x0:0x93f38d593c892e27,
supermarket,Minimarket,mamah vivi,"WF2G+CP, Tumbang Langgah, Kec. Rungan Barat, Kabupaten Gunung MAS, Kalimantan Tengah","Kabupaten Gunung MAS, Kalimantan Tengah",KALIMANTAN TENGAH,,Indonesia,,,,-1.0989375,113.4768125,https://maps.google.com/?cid=0x0:0x4e7d559c6c10860c,
supermarket,supermarket,Hikmah Baru,"Jl. Cilik Riwut No.01, Jakatan Raya, Kec. Rungan, Kabupaten Gunung MAS, Kalimantan Tengah 74562","Jakatan Raya, Kec. Rungan, Kabupaten Gunung MAS",KALIMANTAN TENGAH,74562.0,Indonesia,,,,-1.287269,113.574682,https://maps.google.com/?cid=0x0:0x376270487a9051c2,
supermarket,Toko Buah dan Sayuran,Toko sayuran,"J9V7+GQ9, Tumbang Talaken, Kec. Manuhing, Kabupaten Gunung MAS, Kalimantan Tengah","Kabupaten Gunung MAS, Kalimantan Tengah",KALIMANTAN TENGAH,,Indonesia,,,,-1.35622,113.3644925,https://maps.google.com/?cid=0x0:0x7bc2e025cefc4c66,
supermarket,supermarket,Toko Sayur  Ikan Fadil,"Jl. Tumbang Talaken, Tumbang Talaken, Kec. Manuhing, Kabupaten Gunung MAS, Kalimantan Tengah 74562","Tumbang Talaken, Kec. Manuhing, Kabupaten Gunung MAS",KALIMANTAN TENGAH,74562.0,Indonesia,,,,-1.350276,113.3823495,https://maps.google.com/?cid=0x0:0x3da9be101f4531df,
supermarket,Toko bahan makanan,Warung siomay mbak iin,"PH3F+47P, Jakatan Raya, Kec. Rungan, Kabupaten Gunung MAS, Kalimantan Tengah 74562","Jakatan Raya, Kec. Rungan, Kabupaten Gunung MAS",KALIMANTAN TENGAH,74562.0,Indonesia,,,,-1.2971721,113.5731877,https://maps.google.com/?cid=0x0:0x13cbd1023e18b62a,
supermarket,supermarket,Kec. Manuhing Raya,"Kabupaten Gunung MAS, Kalimantan Tengah","Kabupaten Gunung MAS, Kalimantan Tengah",KALIMANTAN TENGAH,,Indonesia,,,,-1.2093562,113.3161023,https://maps.google.com/?cid=0x0:0xf4826c03ebd0940e,
supermarket,Toko Swalayan,Toko Rizki Talaken,"J9XP+H44, Tumbang Talaken, Kec. Manuhing, Kabupaten Gunung MAS, Kalimantan Tengah 74562","Tumbang Talaken, Kec. Manuhing, Kabupaten Gunung MAS",KALIMANTAN TENGAH,74562.0,Indonesia,,,,-1.3511157,113.3853355,https://maps.google.com/?cid=0x0:0xac5e9df1dbe61307,
supermarket,Toko Swalayan,Toko anugrah/areil,"J9XP+G68, Tumbang Talaken, Kec. Manuhing, Kabupaten Gunung MAS, Kalimantan Tengah 74562","Tumbang Talaken, Kec. Manuhing, Kabupaten Gunung MAS",KALIMANTAN TENGAH,74562.0,Indonesia,82148671148.0,,,-1.3512001,113.3855756,https://maps.google.com/?cid=0x0:0xb5d6324caf7b7301,
supermarket,Toko Swalayan,Toko Daffa,"Jalan Negara No.43, Tumbang Talaken, Kec. Manuhing, Kabupaten Gunung MAS, Kalimantan Tengah 74562","Tumbang Talaken, Kec. Manuhing, Kabupaten Gunung MAS",KALIMANTAN TENGAH,74562.0,Indonesia,82255773727.0,,,-1.3584987,113.3785931,https://maps.google.com/?cid=0x0:0x46516f541d9654ee,
supermarket,Minimarket,Kedai anju,"J9XJ+6FX, Tumbang Talaken, Kec. Manuhing, Kabupaten Gunung MAS, Kalimantan Tengah 74562","Tumbang Talaken, Kec. Manuhing, Kabupaten Gunung MAS",KALIMANTAN TENGAH,74562.0,Indonesia,81318676179.0,,,-1.3518765,113.3812267,https://maps.google.com/?cid=0x0:0x67e800d80ffc0d34,
supermarket,supermarket,Toko Sayur  Ikan Fadil,"Jl. Tumbang Talaken, Tumbang Talaken, Kec. Manuhing, Kabupaten Gunung MAS, Kalimantan Tengah 74562","Tumbang Talaken, Kec. Manuhing, Kabupaten Gunung MAS",KALIMANTAN TENGAH,74562.0,Indonesia,,,,-1.350276,113.3823495,https://maps.google.com/?cid=0x0:0x3da9be101f4531df,
supermarket,Toko Buah dan Sayuran,Toko sayuran,"J9V7+GQ9, Tumbang Talaken, Kec. Manuhing, Kabupaten Gunung MAS, Kalimantan Tengah","Kabupaten Gunung MAS, Kalimantan Tengah",KALIMANTAN TENGAH,,Indonesia,,,,-1.35622,113.3644925,https://maps.google.com/?cid=0x0:0x7bc2e025cefc4c66,
supermarket,Pusat Perbelanjaan,Toko Sumber Manuhing,"Jl. Cilik Riwut, Jakatan Raya, Kec. Rungan, Kabupaten Gunung MAS, Kalimantan Tengah 74562","Jakatan Raya, Kec. Rungan, Kabupaten Gunung MAS",KALIMANTAN TENGAH,74562.0,Indonesia,,,,-1.2905088,113.5739526,https://maps.google.com/?cid=0x0:0x9991d644bbb0fc23,
supermarket,Fasilitas Pengolahan Air,Air isi ulang (ARMEI) Tumbang Talaken,"Jln negara No.75, Tumbang Talaken, Kec. Manuhing, Kabupaten Gunung MAS, Kalimantan Tengah","Kabupaten Gunung MAS, Kalimantan Tengah",KALIMANTAN TENGAH,,Indonesia,,,,-1.35622,113.3644925,https://maps.google.com/?cid=0x0:0x50bfc4871b622bef,
supermarket,supermarket,Toko anugrah,"M92J+9X4, Unnamed Road, Tumbang Talaken, Kec. Manuhing, Kabupaten Gunung MAS, Kalimantan Tengah 74562","Unnamed Road, Tumbang Talaken, Kec. Manuhing, Kabupaten Gunung MAS",KALIMANTAN TENGAH,74562.0,Indonesia,,,,-1.349121,113.3824454,https://maps.google.com/?cid=0x0:0xd66882018a85b4ff,
supermarket,supermarket,toko Nor syifa,"J9V7+GQ9, Tumbang Talaken, Kec. Manuhing, Kabupaten Gunung MAS, Kalimantan Tengah 74562","Tumbang Talaken, Kec. Manuhing, Kabupaten Gunung MAS",KALIMANTAN TENGAH,74562.0,Indonesia,,,,-1.35622,113.3644925,https://maps.google.com/?cid=0x0:0x5013fdc82929954f,
supermarket,Toko Herbal,HWI Manuhing,"Tumbang Talaken, Kec. Manuhing, Kabupaten Gunung MAS, Kalimantan Tengah 74562","Kec. Manuhing, Kabupaten Gunung MAS",KALIMANTAN TENGAH,74562.0,Indonesia,82145466996.0,,,-1.4115979,113.4078674,https://maps.google.com/?cid=0x0:0xb405f3151f15ee1f,
supermarket,supermarket,Kalimantan Tengah 74571,"Kabupaten Gunung MAS, Kalimantan Tengah","Kabupaten Gunung MAS, Kalimantan Tengah",KALIMANTAN TENGAH,,Indonesia,,,,-1.1433424,113.9060624,https://maps.google.com/?cid=0x0:0x7dbb143be4104e8e,
supermarket,Minimarket,RAISH Mart,"VVV8+2VQ, Jl. Sabirin Muhtar, Kuala Kurun, Kec. Kurun, Kabupaten Gunung MAS, Kalimantan Tengah 74571","Jl. Sabirin Muhtar, Kuala Kurun, Kec. Kurun, Kabupaten Gunung MAS",KALIMANTAN TENGAH,74571.0,Indonesia,,,,-1.1074004,113.8672232,https://maps.google.com/?cid=0x0:0xee7638e99cdd6c05,
supermarket,Toko,Toko Rino,"Jl. Karya, Kuala Kurun, Kec. Kurun, Kabupaten Gunung MAS, Kalimantan Tengah 74571","Kuala Kurun, Kec. Kurun, Kabupaten Gunung MAS",KALIMANTAN TENGAH,74571.0,Indonesia,8125738021.0,,,-1.1043345,113.8641675,https://maps.google.com/?cid=0x0:0xcd1a20e080a551f1,
supermarket,,Toko MR (Rifani),"WPXG+C4H, Jl. Nyai Balau, Tewah, Kec. Tewah, Kabupaten Gunung MAS, Kalimantan Tengah 74511","Jl. Nyai Balau, Tewah, Kec. Tewah, Kabupaten Gunung MAS",KALIMANTAN TENGAH,74511.0,Indonesia,85348016733.0,,,-1.0514397,113.7253739,https://maps.google.com/?cid=0x0:0x794ffe1ce8dbf99c,
supermarket,Grosir minuman beralkohol,"Toko 88 Kampuri (Toko Minuman Beralkohol  Keras, Malaga, Amer, Anggur Putih, Kawa-kawa, Bir, Topi Miring, Mcdonald)","Jl. Palangka Raya - Kuala Kurun, Dahian Tambuk, Kec. Mihing Raya, Kabupaten Gunung MAS, Kalimantan Tengah 74863","Dahian Tambuk, Kec. Mihing Raya, Kabupaten Gunung MAS",KALIMANTAN TENGAH,74863.0,Indonesia,82254284868.0,,,-1.2913132,113.9272935,https://maps.google.com/?cid=0x0:0x8df12fbd9e176307,
supermarket,Toko Swalayan,Good Day,"Kuala Kurun, Kec. Kurun, Kabupaten Gunung MAS, Kalimantan Tengah 74571","Kec. Kurun, Kabupaten Gunung MAS",KALIMANTAN TENGAH,74571.0,Indonesia,,,,-1.0954975,113.8638547,https://maps.google.com/?cid=0x0:0xc010e3dd843c65fd,
supermarket,Toko,Toko Tarula,"Jl. Pangeran Diponegoro, Kuala Kurun, Kec. Kurun, Kabupaten Gunung MAS, Kalimantan Tengah 74571","Kuala Kurun, Kec. Kurun, Kabupaten Gunung MAS",KALIMANTAN TENGAH,74571.0,Indonesia,81255722288.0,,,-1.1258716,113.8576899,https://maps.google.com/?cid=0x0:0x7698af5c8ef73810,
supermarket,Toko,Toko Haji Madi,"WPXH+5CP, Tewah, Kec. Tewah, Kabupaten Gunung MAS, Kalimantan Tengah 74511","Tewah, Kec. Tewah, Kabupaten Gunung MAS",KALIMANTAN TENGAH,74511.0,Indonesia,,,,-1.0520384,113.72858,https://maps.google.com/?cid=0x0:0xcaaf8255a8a2660c,
supermarket,Toko Swalayan,rumah air dan chiken crispy,"QVP9+JVQ, Tumbang Miwan, Kec. Kurun, Kabupaten Gunung MAS, Kalimantan Tengah 74571","Tumbang Miwan, Kec. Kurun, Kabupaten Gunung MAS",KALIMANTAN TENGAH,74571.0,Indonesia,82260604694.0,,,-1.2134201,113.8697471,https://maps.google.com/?cid=0x0:0xd1e6816696318ca4,
supermarket,Toko bahan makanan,KIOS INDAH,"WV56+3W7, Jl. Sangkurun, Kuala Kurun, Kec. Kurun, Kabupaten Gunung MAS, Kalimantan Tengah 74571","Jl. Sangkurun, Kuala Kurun, Kec. Kurun, Kabupaten Gunung MAS",KALIMANTAN TENGAH,74571.0,Indonesia,81254622372.0,,,-1.0923451,113.862298,https://maps.google.com/?cid=0x0:0xeb07c9ccbc3bdbe3,
supermarket,Toko umum,Toko Maulida Tbg Ampit,"WPVM+2PX, Unnamed Road, Tewah, Kec. Tewah, Kabupaten Gunung MAS, Kalimantan Tengah 74511","Unnamed Road, Tewah, Kec. Tewah, Kabupaten Gunung MAS",KALIMANTAN TENGAH,74511.0,Indonesia,82254982210.0,,,-1.0573804,113.7343613,https://maps.google.com/?cid=0x0:0x413a3d8de4095b30,
supermarket,Toko umum,UD Arom,"VVJ5+5GQ, Tampang Tumbang Anjir, Kec. Kurun, Kabupaten Gunung MAS, Kalimantan Tengah 74571","Tampang Tumbang Anjir, Kec. Kurun, Kabupaten Gunung MAS",KALIMANTAN TENGAH,74571.0,Indonesia,,,,-1.1195491,113.8588623,https://maps.google.com/?cid=0x0:0xc8f09a108df1afb7,
supermarket,Minimarket,Toko Cindy,"Jl. Pangeran Diponegoro No.51, Tampang Tumbang Anjir, Kec. Kurun, Kabupaten Gunung MAS, Kalimantan Tengah 74571","Tampang Tumbang Anjir, Kec. Kurun, Kabupaten Gunung MAS",KALIMANTAN TENGAH,74571.0,Indonesia,,,,-1.1270278,113.8563424,https://maps.google.com/?cid=0x0:0x2481e6a7fbe9462e,
supermarket,Toko,Toko Karunia,"VVG8+HJ3, Jl. Jend. Sudirman, Tampang Tumbang Anjir, Kec. Kurun, Kabupaten Gunung MAS, Kalimantan Tengah 74571","Jl. Jend. Sudirman, Tampang Tumbang Anjir, Kec. Kurun, Kabupaten Gunung MAS",KALIMANTAN TENGAH,74571.0,Indonesia,81346383561.0,,,-1.123608,113.8665491,https://maps.google.com/?cid=0x0:0xa79f99463568011e,
supermarket,Toko Buah dan Sayuran,Toko Buah - Sayur - Ikan dan Ayam Mama Husein,"Jl. Temanggung Panji VIII Pasar Lama Kuala, Kuala Kurun, Kec. Kurun, Kabupaten Gunung MAS, Kalimantan Tengah 74511","Kuala Kurun, Kec. Kurun, Kabupaten Gunung MAS",KALIMANTAN TENGAH,74511.0,Indonesia,81352773549.0,,,-1.099198,113.8677792,https://maps.google.com/?cid=0x0:0x3bd8186a93a3570d,
supermarket,Pusat Perbelanjaan,Toko ANEKA INDAH,"PH6F+VP9, Jakatan Raya, Kec. Rungan, Kabupaten Gunung MAS, Kalimantan Tengah 74562","Jakatan Raya, Kec. Rungan, Kabupaten Gunung MAS",KALIMANTAN TENGAH,74562.0,Indonesia,,,,-1.287831,113.5743646,https://maps.google.com/?cid=0x0:0x4bbbac7af7416c5c,
supermarket,,Sri Sigma Store,"Jl. Sangkurun No.15, Kuala Kurun, Kec. Kurun, Kabupaten Gunung MAS, Kalimantan Tengah 74511","Kuala Kurun, Kec. Kurun, Kabupaten Gunung MAS",KALIMANTAN TENGAH,74511.0,Indonesia,81251897091.0,,,-1.1009643,113.8697881,https://maps.google.com/?cid=0x0:0x556cd4a11a2d8b97,
supermarket,Toko,Toko janah mamypoko,"Jl. Veteran, Tewah, Gunung MAS Regency, Central Kalimantan 74511","Tewah, Gunung MAS Regency",KALIMANTAN TENGAH,74511.0,Indonesia,82255636322.0,,,-1.0501357,113.7244405,https://maps.google.com/?cid=0x0:0x9b28773dc96a7243,
supermarket,,Alat - alat pertanian/pancingan ikan,"TOKO ARIF, Jl. Perintis No.RT 16, Tewah, Kec. Tewah, Kabupaten Gunung MAS, Kalimantan Tengah 74552","Jl. Perintis No.RT 16, Tewah, Kec. Tewah, Kabupaten Gunung MAS",KALIMANTAN TENGAH,74552.0,Indonesia,85248532566.0,,,-1.0405015,113.7237331,https://maps.google.com/?cid=0x0:0x529539bd3e53e4f3,
supermarket,Toko bahan makanan,Toko SDM Sudi Mampir 3,"VVJ5+9QJ, Tampang Tumbang Anjir, Kec. Kurun, Kabupaten Gunung MAS, Kalimantan Tengah 74571","Tampang Tumbang Anjir, Kec. Kurun, Kabupaten Gunung MAS",KALIMANTAN TENGAH,74571.0,Indonesia,,,,-1.1190438,113.8593884,https://maps.google.com/?cid=0x0:0x80338bb4064df00,
supermarket,Toko bahan makanan,Toko Andika,"Jl. Sangkurun No.207, Kuala Kurun, Kec. Kurun, Kabupaten Gunung MAS, Kalimantan Tengah 74571","Kuala Kurun, Kec. Kurun, Kabupaten Gunung MAS",KALIMANTAN TENGAH,74571.0,Indonesia,81349285647.0,,,-1.0964818,113.8667979,https://maps.google.com/?cid=0x0:0xb4f824ffc863d0de,
supermarket,Rumah Makan,Warung Makan Adit,"XP8H+45H, Unnamed Road, Tewah, Kec. Tewah, Kabupaten Gunung MAS, Kalimantan Tengah 74511","Unnamed Road, Tewah, Kec. Tewah, Kabupaten Gunung MAS",KALIMANTAN TENGAH,74511.0,Indonesia,82251853705.0,,,-1.0346922,113.7279786,https://maps.google.com/?cid=0x0:0x6e27a53c4e8d09b,
supermarket,Minimarket,Toko Yanto,"VVVC+4WF, Unnamed Road, Tampang Tumbang Anjir, Kec. Kurun, Kabupaten Gunung MAS, Kalimantan Tengah 74571","Unnamed Road, Tampang Tumbang Anjir, Kec. Kurun, Kabupaten Gunung MAS",KALIMANTAN TENGAH,74571.0,Indonesia,8135388484.0,,,-1.1071856,113.8723086,https://maps.google.com/?cid=0x0:0x90c8f8b6f18563fd,
supermarket,Toko Swalayan,Toko Ello1,"VVJ5+RHJ, Jl. Brigjend Katamso, Kuala Kurun, Kec. Kurun, Kabupaten Gunung MAS, Kalimantan Tengah 74571","Jl. Brigjend Katamso, Kuala Kurun, Kec. Kurun, Kabupaten Gunung MAS",KALIMANTAN TENGAH,74571.0,Indonesia,85249760987.0,,,-1.1179083,113.8589043,https://maps.google.com/?cid=0x0:0x837fcd6ad7a04fdf,
supermarket,Toko Swalayan,Warung tambi,"PW5F+CX4, Jl. Dahian Tambuk, Dahian Tambuk, Kec. Mihing Raya, Kabupaten Gunung MAS, Kalimantan Tengah","Kabupaten Gunung MAS, Kalimantan Tengah",KALIMANTAN TENGAH,,Indonesia,85211728059.0,,,-1.2914929,113.9249472,https://maps.google.com/?cid=0x0:0x24b10e9844578374,
supermarket,supermarket,Kalimantan Tengah 74553,"Kabupaten Gunung MAS, Kalimantan Tengah","Kabupaten Gunung MAS, Kalimantan Tengah",KALIMANTAN TENGAH,,Indonesia,,,,-0.5866559,113.429984,https://maps.google.com/?cid=0x0:0x7f9e14ce7cf9d71f,
supermarket,Kantor Pemerintah,Desa Rangan mihing,"2JPR+H6X, Rangan Mihing, Kec. Tewah, Kabupaten Gunung MAS, Kalimantan Tengah","Kabupaten Gunung MAS, Kalimantan Tengah",KALIMANTAN TENGAH,,Indonesia,87745673239.0,,,-0.963506,113.6406067,https://maps.google.com/?cid=0x0:0x76573c73a801f2fd,
supermarket,Toko Swalayan,SL SUPERMARKET SDN BHD,"LOT 9545-9549, ASSAR COMMERCIAL, LLD JUNCTION OF JLN CAHAYA  JLN, Jalan Miri By Pass, 98000 Miri, Sarawak, Malaysia",Miri,KALIMANTAN TENGAH,98000.0,Indonesia,6085419390.0,,,4.3678194,114.0087515,https://maps.google.com/?cid=0x0:0xc658f01a045603e0,
supermarket,Pembangunan Perumahan,Desa sei riang/ WARUNG INDU GEO,"3HGQ+2FQ, Sei Riang, Kec. Tewah, Kabupaten Gunung MAS, Kalimantan Tengah 74561","Sei Riang, Kec. Tewah, Kabupaten Gunung MAS",KALIMANTAN TENGAH,74561.0,Indonesia,,,,-0.9249126,113.5887438,https://maps.google.com/?cid=0x0:0xe674571806292c6d,
supermarket,Toko bahan makanan,A Hong's Grocer,"Jalan Luak Bay, 98000 Miri, Sarawak, Malaysia",Miri,KALIMANTAN TENGAH,98000.0,Indonesia,6085324477.0,,,4.356807,113.9804238,https://maps.google.com/?cid=0x0:0x8e13906e57dfbdb9,
supermarket,Toko bahan makanan,Metro Supermarket,"Lot 9984, Ground Floor, Jalan Luak Bay, 98000 Miri, Sarawak, Malaysia",Miri,KALIMANTAN TENGAH,98000.0,Indonesia,,,,4.3575949,113.9803053,https://maps.google.com/?cid=0x0:0xa0a0c05afa221790,
supermarket,Toko bahan makanan,Sin Liang Supermarket,"312, Jalan Nakhoda Gampar, 98000 Miri, Sarawak, Malaysia",Miri,KALIMANTAN TENGAH,98000.0,Indonesia,6085413762.0,,,4.394829,113.9877733,https://maps.google.com/?cid=0x0:0xc1b5bd5bc0f96a5c,
supermarket,Toko Swalayan,Capital Market,"Taman Tunku, 98000 Miri, Sarawak, Malaysia",Miri,KALIMANTAN TENGAH,98000.0,Indonesia,,,,4.3175342,113.9927522,https://maps.google.com/?cid=0x0:0x9e4d87334524075a,
supermarket,Rumah Makan,Rumah makan Padang.,"3GMP+3W7, Dandang, Kec. Kahayan Hulu Utara, Kabupaten Gunung MAS, Kalimantan Tengah 74561","Dandang, Kec. Kahayan Hulu Utara, Kabupaten Gunung MAS",KALIMANTAN TENGAH,74561.0,Indonesia,,,,-0.918235,113.536303,https://maps.google.com/?cid=0x0:0xf7f81757ed4167b1,
supermarket,supermarket,KIOS BP INDU TESNI SIMPANG 3 HURUNG,"Jl temanggung jaya patih simpang 3 hurung, Tumbang Miri, Kec. Kahayan Hulu Utara, Kabupaten Gunung MAS, Kalimantan Tengah 74561","Tumbang Miri, Kec. Kahayan Hulu Utara, Kabupaten Gunung MAS",KALIMANTAN TENGAH,74561.0,Indonesia,,,,-0.9164526,113.5522688,https://maps.google.com/?cid=0x0:0x427741f27c00c35f,
supermarket,supermarket,UD. SHALOm,"Jl. Nyai Bonyi No.17, Tumbang Marikoi, Damang Batu, Kabupaten Gunung MAS, Kalimantan Tengah","Kabupaten Gunung MAS, Kalimantan Tengah",KALIMANTAN TENGAH,,Indonesia,,,,-0.8440195,113.4478441,https://maps.google.com/?cid=0x0:0x95c8b8036ab799ef,
supermarket,supermarket,Miri Manasa,"Kabupaten Gunung MAS, Kalimantan Tengah","Kabupaten Gunung MAS, Kalimantan Tengah",KALIMANTAN TENGAH,,Indonesia,,,,-0.5858075,113.6204644,https://maps.google.com/?cid=0x0:0x9f8a09c1f677910f,
supermarket,Pasar,Roy Agro Mart Miri,"Lot 14561,1st Floor Airport Comercial Centre, 98000 Miri, Sarawak, Malaysia",Miri,KALIMANTAN TENGAH,98000.0,Indonesia,601131819070.0,,,4.3289766,113.9833212,https://maps.google.com/?cid=0x0:0x98fe34ee9b861b35,
supermarket,Hipermarket,New World Mart,"Lot 1448 (P/Lot 994) Block Off, Jalan Pasar Lutong, M.C.L.D., 98000 Lutong, Sarawak, Malaysia",Lutong,KALIMANTAN TENGAH,98000.0,Indonesia,6085657736.0,,,4.4724219,114.0085454,https://maps.google.com/?cid=0x0:0x40e479684d4c324,
supermarket,Pujasera,7 Days Supermarket,"Jln Oya, Taman Tunku, 98000 Miri, Sarawak, Malaysia",Miri,KALIMANTAN TENGAH,98000.0,Indonesia,,,,4.3179173,113.9938354,https://maps.google.com/?cid=0x0:0xc88d61b54ff3597d,
supermarket,Toko Swalayan,The Most Supermarket,"98000 Miri, Sarawak, Malaysia",Miri,KALIMANTAN TENGAH,98000.0,Indonesia,,,,4.3274592,113.982646,https://maps.google.com/?cid=0x0:0x915be71b567c4f8c,
supermarket,Toko bahan makanan,Hacker Grocer,"LOT 841 GROUND FLOOR, Jalan Merpati, 98000 Miri, Sarawak, Malaysia",Miri,KALIMANTAN TENGAH,98000.0,Indonesia,,,,4.4008059,113.9896765,https://maps.google.com/?cid=0x0:0x885ef1d5d0217130,
supermarket,Toko Barang Rumah Tangga Asia,The Most Family Mart (M2) - Luak Bay,"3380-3383, Jalan Luak Bay, 98000 Miri, Sarawak, Malaysia",Miri,KALIMANTAN TENGAH,98000.0,Indonesia,6085426050.0,,,4.3533921,113.9729678,https://maps.google.com/?cid=0x0:0x665c4a8d39a68c2c,
supermarket,Toserba,Miri Departmental Sdn Bhd - Piasau,"Lot 49, No 54, Piasau Industrial Estate, 98000 Miri, Sarawak, Malaysia",Miri,KALIMANTAN TENGAH,98000.0,Indonesia,6085662697.0,,,4.4384818,114.0060828,https://maps.google.com/?cid=0x0:0x5e7b2f3898b8552e,
supermarket,Toserba,Miri Departmental Store (Kuala Baram),"Jalan Lutong - Kuala Baram, Lutong, 98000 Miri, Sarawak, Malaysia",Miri,KALIMANTAN TENGAH,98000.0,Indonesia,60165792396.0,,,4.5054856,113.9950744,https://maps.google.com/?cid=0x0:0x7874082720742ed5,
supermarket,Minimarket,SL Speedmart,"Lot 876 jalan lautan, off, Jalan Bakam, 98000 Miri, Sarawak, Malaysia",Miri,KALIMANTAN TENGAH,98000.0,Indonesia,6085427018.0,,,4.3292744,113.9709543,https://maps.google.com/?cid=0x0:0x6f3b0f039ad6249c,
supermarket,Toserba,Miri Departmental Store (Lambir),"BLOCK 6, LAMBIR LAND DISTRICT, LOT 2022, BATU 8, Jalan Bintulu - Miri, Kampung Desa Jaya, 98000 Miri, Sarawak, Malaysia",Miri,KALIMANTAN TENGAH,98000.0,Indonesia,60128911789.0,,,4.3155121,114.0320582,https://maps.google.com/?cid=0x0:0x8ad2bbe58056ffa6,
supermarket,Toko bahan makanan,Fruits Heaven (7688 Fruits Heaven Sdn Bhd),"Bintulu - Miri Hwy, 98000 Miri, Sarawak, Malaysia",Miri,KALIMANTAN TENGAH,98000.0,Indonesia,60107887688.0,,,4.3549469,113.9865514,https://maps.google.com/?cid=0x0:0xd70c8df681d38328,
supermarket,supermarket,Kalimantan Tengah 74561,"Kabupaten Gunung MAS, Kalimantan Tengah","Kabupaten Gunung MAS, Kalimantan Tengah",KALIMANTAN TENGAH,,Indonesia,,,,-1.0753907,113.6204644,https://maps.google.com/?cid=0x0:0xe38f858eb863f7d4,
supermarket,Pusat Perbelanjaan,Toko ANEKA INDAH,"PH6F+VP9, Jakatan Raya, Kec. Rungan, Kabupaten Gunung MAS, Kalimantan Tengah 74562","Jakatan Raya, Kec. Rungan, Kabupaten Gunung MAS",KALIMANTAN TENGAH,74562.0,Indonesia,,,,-1.287831,113.5743646,https://maps.google.com/?cid=0x0:0x4bbbac7af7416c5c,
supermarket,Toko Swalayan,Toko Rizki Talaken,"J9XP+H44, Tumbang Talaken, Kec. Manuhing, Kabupaten Gunung MAS, Kalimantan Tengah 74562","Tumbang Talaken, Kec. Manuhing, Kabupaten Gunung MAS",KALIMANTAN TENGAH,74562.0,Indonesia,,,,-1.3511157,113.3853355,https://maps.google.com/?cid=0x0:0xac5e9df1dbe61307,
supermarket,Toko,Toko Rino,"Jl. Karya, Kuala Kurun, Kec. Kurun, Kabupaten Gunung MAS, Kalimantan Tengah 74571","Kuala Kurun, Kec. Kurun, Kabupaten Gunung MAS",KALIMANTAN TENGAH,74571.0,Indonesia,8125738021.0,,,-1.1043345,113.8641675,https://maps.google.com/?cid=0x0:0xcd1a20e080a551f1,
supermarket,Toko umum,UD Arom,"VVJ5+5GQ, Tampang Tumbang Anjir, Kec. Kurun, Kabupaten Gunung MAS, Kalimantan Tengah 74571","Tampang Tumbang Anjir, Kec. Kurun, Kabupaten Gunung MAS",KALIMANTAN TENGAH,74571.0,Indonesia,,,,-1.1195491,113.8588623,https://maps.google.com/?cid=0x0:0xc8f09a108df1afb7,
supermarket,Rumah Makan,Warung Makan Adit,"XP8H+45H, Unnamed Road, Tewah, Kec. Tewah, Kabupaten Gunung MAS, Kalimantan Tengah 74511","Unnamed Road, Tewah, Kec. Tewah, Kabupaten Gunung MAS",KALIMANTAN TENGAH,74511.0,Indonesia,82251853705.0,,,-1.0346922,113.7279786,https://maps.google.com/?cid=0x0:0x6e27a53c4e8d09b,
supermarket,Toko Swalayan,Toko Reres Talaken,"J9XM+W23, Tumbang Talaken, Kec. Manuhing, Kabupaten Gunung MAS, Kalimantan Tengah 74562","Tumbang Talaken, Kec. Manuhing, Kabupaten Gunung MAS",KALIMANTAN TENGAH,74562.0,Indonesia,81345989254.0,,,-1.350249,113.382552,https://maps.google.com/?cid=0x0:0xb9d29887d3b46952,
supermarket,Minimarket,RAISH Mart,"VVV8+2VQ, Jl. Sabirin Muhtar, Kuala Kurun, Kec. Kurun, Kabupaten Gunung MAS, Kalimantan Tengah 74571","Jl. Sabirin Muhtar, Kuala Kurun, Kec. Kurun, Kabupaten Gunung MAS",KALIMANTAN TENGAH,74571.0,Indonesia,,,,-1.1074004,113.8672232,https://maps.google.com/?cid=0x0:0xee7638e99cdd6c05,
supermarket,Toko,TOKO SARI,"Jl. Cilik Riwut No.63, Jakatan Raya, Kec. Rungan, Kabupaten Gunung MAS, Kalimantan Tengah 74561","Jakatan Raya, Kec. Rungan, Kabupaten Gunung MAS",KALIMANTAN TENGAH,74561.0,Indonesia,82237080126.0,,,-1.2914998,113.5739569,https://maps.google.com/?cid=0x0:0x5f0ece948f81400e,
supermarket,Toko,Toko Tarula,"Jl. Pangeran Diponegoro, Kuala Kurun, Kec. Kurun, Kabupaten Gunung MAS, Kalimantan Tengah 74571","Kuala Kurun, Kec. Kurun, Kabupaten Gunung MAS",KALIMANTAN TENGAH,74571.0,Indonesia,81255722288.0,,,-1.1258716,113.8576899,https://maps.google.com/?cid=0x0:0x7698af5c8ef73810,
supermarket,,Alat - alat pertanian/pancingan ikan,"TOKO ARIF, Jl. Perintis No.RT 16, Tewah, Kec. Tewah, Kabupaten Gunung MAS, Kalimantan Tengah 74552","Jl. Perintis No.RT 16, Tewah, Kec. Tewah, Kabupaten Gunung MAS",KALIMANTAN TENGAH,74552.0,Indonesia,85248532566.0,,,-1.0405015,113.7237331,https://maps.google.com/?cid=0x0:0x529539bd3e53e4f3,
supermarket,supermarket,Kec. Rungan Barat,"Kabupaten Gunung MAS, Kalimantan Tengah","Kabupaten Gunung MAS, Kalimantan Tengah",KALIMANTAN TENGAH,,Indonesia,,,,-1.2648058,113.4266094,https://maps.google.com/?cid=0x0:0x96d1b4f9516d2214,
supermarket,Pusat Perbelanjaan,Toko ANEKA INDAH,"PH6F+VP9, Jakatan Raya, Kec. Rungan, Kabupaten Gunung MAS, Kalimantan Tengah 74562","Jakatan Raya, Kec. Rungan, Kabupaten Gunung MAS",KALIMANTAN TENGAH,74562.0,Indonesia,,,,-1.287831,113.5743646,https://maps.google.com/?cid=0x0:0x4bbbac7af7416c5c,
supermarket,Toko Swalayan,Toko Rizki Talaken,"J9XP+H44, Tumbang Talaken, Kec. Manuhing, Kabupaten Gunung MAS, Kalimantan Tengah 74562","Tumbang Talaken, Kec. Manuhing, Kabupaten Gunung MAS",KALIMANTAN TENGAH,74562.0,Indonesia,,,,-1.3511157,113.3853355,https://maps.google.com/?cid=0x0:0xac5e9df1dbe61307,
supermarket,Toko,TOKO SARI,"Jl. Cilik Riwut No.63, Jakatan Raya, Kec. Rungan, Kabupaten Gunung MAS, Kalimantan Tengah 74561","Jakatan Raya, Kec. Rungan, Kabupaten Gunung MAS",KALIMANTAN TENGAH,74561.0,Indonesia,82237080126.0,,,-1.2914998,113.5739569,https://maps.google.com/?cid=0x0:0x5f0ece948f81400e,
supermarket,Kios,Kios Indu Ebit,"PH3F+F95, Jl. Cilik Riwut, Jakatan Raya, Kec. Rungan, Kabupaten Gunung MAS, Kalimantan Tengah 74562","Jl. Cilik Riwut, Jakatan Raya, Kec. Rungan, Kabupaten Gunung MAS",KALIMANTAN TENGAH,74562.0,Indonesia,,,,-1.2963663,113.5734884,https://maps.google.com/?cid=0x0:0x93f38d593c892e27,
supermarket,supermarket,Hikmah Baru,"Jl. Cilik Riwut No.01, Jakatan Raya, Kec. Rungan, Kabupaten Gunung MAS, Kalimantan Tengah 74562","Jakatan Raya, Kec. Rungan, Kabupaten Gunung MAS",KALIMANTAN TENGAH,74562.0,Indonesia,,,,-1.287269,113.574682,https://maps.google.com/?cid=0x0:0x376270487a9051c2,
supermarket,Minimarket,mamah vivi,"WF2G+CP, Tumbang Langgah, Kec. Rungan Barat, Kabupaten Gunung MAS, Kalimantan Tengah","Kabupaten Gunung MAS, Kalimantan Tengah",KALIMANTAN TENGAH,,Indonesia,,,,-1.0989375,113.4768125,https://maps.google.com/?cid=0x0:0x4e7d559c6c10860c,
supermarket,Toko,Kios aseng,"RHM3+9J8, Tumbang Lapan, Kec. Rungan Hulu, Kabupaten Gunung MAS, Kalimantan Tengah 74561","Tumbang Lapan, Kec. Rungan Hulu, Kabupaten Gunung MAS",KALIMANTAN TENGAH,74561.0,Indonesia,,,,-1.1665978,113.5540636,https://maps.google.com/?cid=0x0:0xfd11d355f92b171f,
supermarket,Toko bahan makanan,Warung Abhi / toko lidia,"RHP3+H9, Tumbang Lapan, Kec. Rungan Hulu, Kabupaten Gunung MAS, Kalimantan Tengah","Kabupaten Gunung MAS, Kalimantan Tengah",KALIMANTAN TENGAH,,Indonesia,,,,-1.163589,113.5534979,https://maps.google.com/?cid=0x0:0xe77eeef764c1efe1,
supermarket,Toko Swalayan,Toko anugrah/areil,"J9XP+G68, Tumbang Talaken, Kec. Manuhing, Kabupaten Gunung MAS, Kalimantan Tengah 74562","Tumbang Talaken, Kec. Manuhing, Kabupaten Gunung MAS",KALIMANTAN TENGAH,74562.0,Indonesia,82148671148.0,,,-1.3512001,113.3855756,https://maps.google.com/?cid=0x0:0xb5d6324caf7b7301,
supermarket,Toko bahan makanan,Warung siomay mbak iin,"PH3F+47P, Jakatan Raya, Kec. Rungan, Kabupaten Gunung MAS, Kalimantan Tengah 74562","Jakatan Raya, Kec. Rungan, Kabupaten Gunung MAS",KALIMANTAN TENGAH,74562.0,Indonesia,,,,-1.2971721,113.5731877,https://maps.google.com/?cid=0x0:0x13cbd1023e18b62a,
supermarket,supermarket,Kec. Rungan Barat,"Kabupaten Gunung MAS, Kalimantan Tengah","Kabupaten Gunung MAS, Kalimantan Tengah",KALIMANTAN TENGAH,,Indonesia,,,,-1.2648058,113.4266094,https://maps.google.com/?cid=0x0:0x96d1b4f9516d2214,
supermarket,Pusat Perbelanjaan,Toko ANEKA INDAH,"PH6F+VP9, Jakatan Raya, Kec. Rungan, Kabupaten Gunung MAS, Kalimantan Tengah 74562","Jakatan Raya, Kec. Rungan, Kabupaten Gunung MAS",KALIMANTAN TENGAH,74562.0,Indonesia,,,,-1.287831,113.5743646,https://maps.google.com/?cid=0x0:0x4bbbac7af7416c5c,
supermarket,Toko Swalayan,Toko Rizki Talaken,"J9XP+H44, Tumbang Talaken, Kec. Manuhing, Kabupaten Gunung MAS, Kalimantan Tengah 74562","Tumbang Talaken, Kec. Manuhing, Kabupaten Gunung MAS",KALIMANTAN TENGAH,74562.0,Indonesia,,,,-1.3511157,113.3853355,https://maps.google.com/?cid=0x0:0xac5e9df1dbe61307,
supermarket,Toko,Toko SEGAH,"PH6F+699, Jakatan Raya, Kec. Rungan, Kabupaten Gunung MAS, Kalimantan Tengah 74562","Jakatan Raya, Kec. Rungan, Kabupaten Gunung MAS",KALIMANTAN TENGAH,74562.0,Indonesia,,,,-1.2894664,113.5734983,https://maps.google.com/?cid=0x0:0xc30745eee1c0e8f7,
supermarket,Kios,Kios Indu Ebit,"PH3F+F95, Jl. Cilik Riwut, Jakatan Raya, Kec. Rungan, Kabupaten Gunung MAS, Kalimantan Tengah 74562","Jl. Cilik Riwut, Jakatan Raya, Kec. Rungan, Kabupaten Gunung MAS",KALIMANTAN TENGAH,74562.0,Indonesia,,,,-1.2963663,113.5734884,https://maps.google.com/?cid=0x0:0x93f38d593c892e27,
supermarket,supermarket,Hikmah Baru,"Jl. Cilik Riwut No.01, Jakatan Raya, Kec. Rungan, Kabupaten Gunung MAS, Kalimantan Tengah 74562","Jakatan Raya, Kec. Rungan, Kabupaten Gunung MAS",KALIMANTAN TENGAH,74562.0,Indonesia,,,,-1.287269,113.574682,https://maps.google.com/?cid=0x0:0x376270487a9051c2,
supermarket,Minimarket,mamah vivi,"WF2G+CP, Tumbang Langgah, Kec. Rungan Barat, Kabupaten Gunung MAS, Kalimantan Tengah","Kabupaten Gunung MAS, Kalimantan Tengah",KALIMANTAN TENGAH,,Indonesia,,,,-1.0989375,113.4768125,https://maps.google.com/?cid=0x0:0x4e7d559c6c10860c,
supermarket,Toko,Kios aseng,"RHM3+9J8, Tumbang Lapan, Kec. Rungan Hulu, Kabupaten Gunung MAS, Kalimantan Tengah 74561","Tumbang Lapan, Kec. Rungan Hulu, Kabupaten Gunung MAS",KALIMANTAN TENGAH,74561.0,Indonesia,,,,-1.1665978,113.5540636,https://maps.google.com/?cid=0x0:0xfd11d355f92b171f,
supermarket,Toko bahan makanan,Warung Abhi / toko lidia,"RHP3+H9, Tumbang Lapan, Kec. Rungan Hulu, Kabupaten Gunung MAS, Kalimantan Tengah","Kabupaten Gunung MAS, Kalimantan Tengah",KALIMANTAN TENGAH,,Indonesia,,,,-1.163589,113.5534979,https://maps.google.com/?cid=0x0:0xe77eeef764c1efe1,
supermarket,Toko bahan makanan,Warung siomay mbak iin,"PH3F+47P, Jakatan Raya, Kec. Rungan, Kabupaten Gunung MAS, Kalimantan Tengah 74562","Jakatan Raya, Kec. Rungan, Kabupaten Gunung MAS",KALIMANTAN TENGAH,74562.0,Indonesia,,,,-1.2971721,113.5731877,https://maps.google.com/?cid=0x0:0x13cbd1023e18b62a,
supermarket,supermarket,Desa rabambang,"QF74+55, Rabambang, Kec. Rungan Barat, Kabupaten Gunung MAS, Kalimantan Tengah","Kabupaten Gunung MAS, Kalimantan Tengah",KALIMANTAN TENGAH,,Indonesia,,,,-1.2338125,113.4565625,https://maps.google.com/?cid=0x0:0x1ea47f8f349a433,
supermarket,supermarket,Kec. Rungan Hulu,"Kabupaten Gunung MAS, Kalimantan Tengah","Kabupaten Gunung MAS, Kalimantan Tengah",KALIMANTAN TENGAH,,Indonesia,,,,-1.0312568,113.4736811,https://maps.google.com/?cid=0x0:0x83eaf2f915027506,
supermarket,Pusat Perbelanjaan,Toko ANEKA INDAH,"PH6F+VP9, Jakatan Raya, Kec. Rungan, Kabupaten Gunung MAS, Kalimantan Tengah 74562","Jakatan Raya, Kec. Rungan, Kabupaten Gunung MAS",KALIMANTAN TENGAH,74562.0,Indonesia,,,,-1.287831,113.5743646,https://maps.google.com/?cid=0x0:0x4bbbac7af7416c5c,
supermarket,Toko,Toko Tarula,"Jl. Pangeran Diponegoro, Kuala Kurun, Kec. Kurun, Kabupaten Gunung MAS, Kalimantan Tengah 74571","Kuala Kurun, Kec. Kurun, Kabupaten Gunung MAS",KALIMANTAN TENGAH,74571.0,Indonesia,81255722288.0,,,-1.1258716,113.8576899,https://maps.google.com/?cid=0x0:0x7698af5c8ef73810,
supermarket,Toko umum,UD Arom,"VVJ5+5GQ, Tampang Tumbang Anjir, Kec. Kurun, Kabupaten Gunung MAS, Kalimantan Tengah 74571","Tampang Tumbang Anjir, Kec. Kurun, Kabupaten Gunung MAS",KALIMANTAN TENGAH,74571.0,Indonesia,,,,-1.1195491,113.8588623,https://maps.google.com/?cid=0x0:0xc8f09a108df1afb7,
supermarket,Minimarket,RAISH Mart,"VVV8+2VQ, Jl. Sabirin Muhtar, Kuala Kurun, Kec. Kurun, Kabupaten Gunung MAS, Kalimantan Tengah 74571","Jl. Sabirin Muhtar, Kuala Kurun, Kec. Kurun, Kabupaten Gunung MAS",KALIMANTAN TENGAH,74571.0,Indonesia,,,,-1.1074004,113.8672232,https://maps.google.com/?cid=0x0:0xee7638e99cdd6c05,
supermarket,Toko,Toko Rino,"Jl. Karya, Kuala Kurun, Kec. Kurun, Kabupaten Gunung MAS, Kalimantan Tengah 74571","Kuala Kurun, Kec. Kurun, Kabupaten Gunung MAS",KALIMANTAN TENGAH,74571.0,Indonesia,8125738021.0,,,-1.1043345,113.8641675,https://maps.google.com/?cid=0x0:0xcd1a20e080a551f1,
supermarket,Toko,Toko Fano,"MHWC+G54, Unnamed Road, Tumbang Bunut, Kec. Rungan, Kabupaten Gunung MAS, Kalimantan Tengah 74562","Unnamed Road, Tumbang Bunut, Kec. Rungan, Kabupaten Gunung MAS",KALIMANTAN TENGAH,74562.0,Indonesia,,,,-1.303726,113.5704482,https://maps.google.com/?cid=0x0:0x7b87a3f80c58d328,
supermarket,Pusat Perbelanjaan,Kios meila gibran,"VGCW+55, Batu Puter, Kec. Rungan Hulu, Kabupaten Gunung MAS, Kalimantan Tengah","Kabupaten Gunung MAS, Kalimantan Tengah",KALIMANTAN TENGAH,,Indonesia,,,,-1.129577,113.545424,https://maps.google.com/?cid=0x0:0x4a294569cce819cf,
supermarket,Toko,Kios aseng,"RHM3+9J8, Tumbang Lapan, Kec. Rungan Hulu, Kabupaten Gunung MAS, Kalimantan Tengah 74561","Tumbang Lapan, Kec. Rungan Hulu, Kabupaten Gunung MAS",KALIMANTAN TENGAH,74561.0,Indonesia,,,,-1.1665978,113.5540636,https://maps.google.com/?cid=0x0:0xfd11d355f92b171f,
supermarket,Minimarket,mamah vivi,"WF2G+CP, Tumbang Langgah, Kec. Rungan Barat, Kabupaten Gunung MAS, Kalimantan Tengah","Kabupaten Gunung MAS, Kalimantan Tengah",KALIMANTAN TENGAH,,Indonesia,,,,-1.0989375,113.4768125,https://maps.google.com/?cid=0x0:0x4e7d559c6c10860c,
supermarket,Toko bahan makanan,Warung Abhi / toko lidia,"RHP3+H9, Tumbang Lapan, Kec. Rungan Hulu, Kabupaten Gunung MAS, Kalimantan Tengah","Kabupaten Gunung MAS, Kalimantan Tengah",KALIMANTAN TENGAH,,Indonesia,,,,-1.163589,113.5534979,https://maps.google.com/?cid=0x0:0xe77eeef764c1efe1,
supermarket,Kios,Kios Indu Ebit,"PH3F+F95, Jl. Cilik Riwut, Jakatan Raya, Kec. Rungan, Kabupaten Gunung MAS, Kalimantan Tengah 74562","Jl. Cilik Riwut, Jakatan Raya, Kec. Rungan, Kabupaten Gunung MAS",KALIMANTAN TENGAH,74562.0,Indonesia,,,,-1.2963663,113.5734884,https://maps.google.com/?cid=0x0:0x93f38d593c892e27,
supermarket,Peternakan Ayam,Ternak Hapakat,"RH9Q+J3C, Jangkit, Kec. Rungan Hulu, Kabupaten Gunung MAS, Kalimantan Tengah 74561","Jangkit, Kec. Rungan Hulu, Kabupaten Gunung MAS",KALIMANTAN TENGAH,74561.0,Indonesia,85252894865.0,,,-1.180947,113.587646,https://maps.google.com/?cid=0x0:0x287a8cbce0877c5b,
supermarket,supermarket,Hamzanwadi,"VH3H+WQH, Tumbang Lapan, Kec. Rungan Hulu, Kabupaten Gunung MAS, Kalimantan Tengah 74561","Tumbang Lapan, Kec. Rungan Hulu, Kabupaten Gunung MAS",KALIMANTAN TENGAH,74561.0,Indonesia,,,,-1.1451915,113.5794872,https://maps.google.com/?cid=0x0:0xf34be117c3b2c30e,
supermarket,Kantor Pos,Kantorpos Sepang Simin,"Petak Bahandang, Kec. Kurun, Kabupaten Gunung MAS, Kalimantan Tengah 74571","Kec. Kurun, Kabupaten Gunung MAS",KALIMANTAN TENGAH,74571.0,Indonesia,51321102.0,,,-1.143342,113.906062,https://maps.google.com/?cid=0x0:0xde2637a37905bdda,
supermarket,Sekolah,Kantor Pos Kuala Kurun,"Jl. Sangkurun No.8, Kuala Kurun, Kec. Kurun, Kabupaten Gunung MAS, Kalimantan Tengah 74500","Kuala Kurun, Kec. Kurun, Kabupaten Gunung MAS",KALIMANTAN TENGAH,74500.0,Indonesia,82345494463.0,,,-1.0979296,113.8675333,https://maps.google.com/?cid=0x0:0xc0630d0eda2c740,
supermarket,Toko Buah dan Sayuran,Grosir Buah Sembako Frozen Food Milqia Shop,"Jl. Komp. Bogor Raya Permai, RT.02/RW.14, Curug, Kec. Bogor Bar., Kota Bogor, Jawa Barat 16113","RT.02/RW.14, Curug, Kec. Bogor Bar., Kota Bogor",KALIMANTAN TENGAH,16113.0,Indonesia,83160630089.0,,,-6.5470998,106.7677358,https://maps.google.com/?cid=0x0:0xdad578e1ba04ff61,
supermarket,Toko Swalayan,GS The Fresh Mampang,"Jl. Buncit Raya No.301, Duren Tiga, Kec. Pancoran, Kota Jakarta Selatan, Daerah Khusus Ibukota Jakarta 12760","Duren Tiga, Kec. Pancoran, Kota Jakarta Selatan",KALIMANTAN TENGAH,12760.0,Indonesia,2126961986.0,,,-6.256991,106.828987,https://maps.google.com/?cid=0x0:0x47a84d3b86619147,
supermarket,Toko Swalayan,GS THE FRESH JATIBENING,"Jl. Caman Raya No.7-24, RT.004/RW.003, Jatibening, Kec. Pd. Gede, Kota Bks, Jawa Barat 17412","RT.004/RW.003, Jatibening, Kec. Pd. Gede, Kota Bks",KALIMANTAN TENGAH,17412.0,Indonesia,2184982211.0,,,-6.2676455,106.9436409,https://maps.google.com/?cid=0x0:0x2cdb50c3ee3206c,
supermarket,Toko Swalayan,GS Supermarket Jatiasih,"GsSupermarket :, Jl. Wibawa Mukti II No.125, RT.002/ RW017/RW.017, Jatiasih, Kec. Jatiasih, Kota Bks, Jawa Barat 17423","Jl. Wibawa Mukti II No.125, RT.002/ RW017/RW.017, Jatiasih, Kec. Jatiasih, Kota Bks",KALIMANTAN TENGAH,17423.0,Indonesia,2182736918.0,,,-6.3070579,106.955731,https://maps.google.com/?cid=0x0:0x74efd6ce433268e6,
supermarket,supermarket,Toko DEON,"XPGG+P88, Jl. Perintis, Tewah, Kec. Tewah, Kabupaten Gunung MAS, Kalimantan Tengah 74511","Jl. Perintis, Tewah, Kec. Tewah, Kabupaten Gunung MAS",KALIMANTAN TENGAH,74511.0,Indonesia,,,,-1.0232201,113.7258312,https://maps.google.com/?cid=0x0:0xa62fb08e1511915a,
supermarket,supermarket,Kalimantan Tengah 74552,Kalimantan Tengah,Kalimantan Tengah,KALIMANTAN TENGAH,,Indonesia,,,,-0.7250328,113.6204644,https://maps.google.com/?cid=0x0:0xb94d62208c0f5814,
supermarket,Rumah Makan,Warung Makan Adit,"XP8H+45H, Unnamed Road, Tewah, Kec. Tewah, Kabupaten Gunung MAS, Kalimantan Tengah 74511","Unnamed Road, Tewah, Kec. Tewah, Kabupaten Gunung MAS",KALIMANTAN TENGAH,74511.0,Indonesia,82251853705.0,,,-1.0346922,113.7279786,https://maps.google.com/?cid=0x0:0x6e27a53c4e8d09b,
supermarket,Toko bahan makanan,Toko Ardha,"Jl. Perintis, Tewah, Kec. Tewah, Kabupaten Gunung MAS, Kalimantan Tengah","Kabupaten Gunung MAS, Kalimantan Tengah",KALIMANTAN TENGAH,,Indonesia,81351797308.0,,,-1.0369509,113.72454,https://maps.google.com/?cid=0x0:0x4e6d9bd81b44d819,
supermarket,Toko umum,Toko Maulida Tbg Ampit,"WPVM+2PX, Unnamed Road, Tewah, Kec. Tewah, Kabupaten Gunung MAS, Kalimantan Tengah 74511","Unnamed Road, Tewah, Kec. Tewah, Kabupaten Gunung MAS",KALIMANTAN TENGAH,74511.0,Indonesia,82254982210.0,,,-1.0573804,113.7343613,https://maps.google.com/?cid=0x0:0x413a3d8de4095b30,
supermarket,,Toko MR (Rifani),"WPXG+C4H, Jl. Nyai Balau, Tewah, Kec. Tewah, Kabupaten Gunung MAS, Kalimantan Tengah 74511","Jl. Nyai Balau, Tewah, Kec. Tewah, Kabupaten Gunung MAS",KALIMANTAN TENGAH,74511.0,Indonesia,85348016733.0,,,-1.0514397,113.7253739,https://maps.google.com/?cid=0x0:0x794ffe1ce8dbf99c,
supermarket,Toko bahan makanan,Toko Hanafi,"Jl. Perintis No.rt 17, Tewah, Kec. Tewah, Kabupaten Gunung MAS, Kalimantan Tengah 74511","Tewah, Kec. Tewah, Kabupaten Gunung MAS",KALIMANTAN TENGAH,74511.0,Indonesia,,,,-1.0343223,113.7288034,https://maps.google.com/?cid=0x0:0xeee2c05c934e135e,
supermarket,Minimarket,RAISH Mart,"VVV8+2VQ, Jl. Sabirin Muhtar, Kuala Kurun, Kec. Kurun, Kabupaten Gunung MAS, Kalimantan Tengah 74571","Jl. Sabirin Muhtar, Kuala Kurun, Kec. Kurun, Kabupaten Gunung MAS",KALIMANTAN TENGAH,74571.0,Indonesia,,,,-1.1074004,113.8672232,https://maps.google.com/?cid=0x0:0xee7638e99cdd6c05,
supermarket,Toko,UD. SUMBER ANUGERAH,"XP3C+964, Jl. Perintis, Tewah, Kec. Tewah, Kabupaten Gunung MAS, Kalimantan Tengah 74511","Jl. Perintis, Tewah, Kec. Tewah, Kabupaten Gunung MAS",KALIMANTAN TENGAH,74511.0,Indonesia,81347891022.0,,,-1.0466165,113.7205868,https://maps.google.com/?cid=0x0:0x54813f3ba09449dd,
supermarket,Pusat Perbelanjaan,Warung sembako,"2JX9+22, Tj. Untung, Kec. Tewah, Kabupaten Gunung MAS, Kalimantan Tengah","Kabupaten Gunung MAS, Kalimantan Tengah",KALIMANTAN TENGAH,,Indonesia,,,,-0.9524655,113.6175229,https://maps.google.com/?cid=0x0:0xa17aa9f13b38d17,
supermarket,,Alat - alat pertanian/pancingan ikan,"TOKO ARIF, Jl. Perintis No.RT 16, Tewah, Kec. Tewah, Kabupaten Gunung MAS, Kalimantan Tengah 74552","Jl. Perintis No.RT 16, Tewah, Kec. Tewah, Kabupaten Gunung MAS",KALIMANTAN TENGAH,74552.0,Indonesia,85248532566.0,,,-1.0405015,113.7237331,https://maps.google.com/?cid=0x0:0x529539bd3e53e4f3,
supermarket,supermarket,TOKO SANTAI BAE,"XP8H+RGQ, Jl. Perintis, Tewah, Kec. Tewah, Kabupaten Gunung MAS, Kalimantan Tengah 74552","Jl. Perintis, Tewah, Kec. Tewah, Kabupaten Gunung MAS",KALIMANTAN TENGAH,74552.0,Indonesia,,,,-1.0329004,113.7288599,https://maps.google.com/?cid=0x0:0xfac795d746be91ef,
supermarket,supermarket,WARUNG ARKAN,"Jl. Perintis No.63, Tewah, Kec. Tewah, Kabupaten Gunung MAS, Kalimantan Tengah 74552","Tewah, Kec. Tewah, Kabupaten Gunung MAS",KALIMANTAN TENGAH,74552.0,Indonesia,,,,-1.0349936,113.7272088,https://maps.google.com/?cid=0x0:0xfabc77c7b44728fa,
supermarket,Toko,Toko Tarula,"Jl. Pangeran Diponegoro, Kuala Kurun, Kec. Kurun, Kabupaten Gunung MAS, Kalimantan Tengah 74571","Kuala Kurun, Kec. Kurun, Kabupaten Gunung MAS",KALIMANTAN TENGAH,74571.0,Indonesia,81255722288.0,,,-1.1258716,113.8576899,https://maps.google.com/?cid=0x0:0x7698af5c8ef73810,
supermarket,supermarket,TOKO JON,"WPRG+PQP, Jl. Perintis, Tewah, Kec. Tewah, Kabupaten Gunung MAS, Kalimantan Tengah 74511","Jl. Perintis, Tewah, Kec. Tewah, Kabupaten Gunung MAS",KALIMANTAN TENGAH,74511.0,Indonesia,,,,-1.058161,113.7269674,https://maps.google.com/?cid=0x0:0x5f04fdbec1f06526,
supermarket,supermarket,WARUNG SEMBAKO SIMPANG 3,"XP5F+GG2, Jl. Perintis, Tewah, Kec. Tewah, Kabupaten Gunung MAS, Kalimantan Tengah 74511","Jl. Perintis, Tewah, Kec. Tewah, Kabupaten Gunung MAS",KALIMANTAN TENGAH,74511.0,Indonesia,,,,-1.0412361,113.7237594,https://maps.google.com/?cid=0x0:0x5679dab62c2ef872,
supermarket,supermarket,TOKO RAYHAN,"WQPR+JJ6, Jl. Kuala Kurun - Sarerangan - Tewah, Sarerangan, Kec. Tewah, Kabupaten Gunung MAS, Kalimantan Tengah","Kabupaten Gunung MAS, Kalimantan Tengah",KALIMANTAN TENGAH,,Indonesia,,,,-1.0634561,113.7915264,https://maps.google.com/?cid=0x0:0xff6e38745d7f8b43,
supermarket,Kios,DEPOT ISI ULANG MARIANE,"XP6G+PQW, Tewah, Kec. Tewah, Kabupaten Gunung MAS, Kalimantan Tengah 74511","Tewah, Kec. Tewah, Kabupaten Gunung MAS",KALIMANTAN TENGAH,74511.0,Indonesia,,,,-1.0381284,113.7269396,https://maps.google.com/?cid=0x0:0xb63e511979e219b0,
supermarket,Toko,Toko Abah Amat,"WPVG+PXH, Jl. Nyai Balau, Tewah, Kec. Tewah, Kabupaten Gunung MAS, Kalimantan Tengah 74511","Jl. Nyai Balau, Tewah, Kec. Tewah, Kabupaten Gunung MAS",KALIMANTAN TENGAH,74511.0,Indonesia,,,,-1.0556792,113.7274895,https://maps.google.com/?cid=0x0:0xc6ddcac97666774d,
supermarket,Kantor Pemerintah,Desa Rangan mihing,"2JPR+H6X, Rangan Mihing, Kec. Tewah, Kabupaten Gunung MAS, Kalimantan Tengah","Kabupaten Gunung MAS, Kalimantan Tengah",KALIMANTAN TENGAH,,Indonesia,87745673239.0,,,-0.963506,113.6406067,https://maps.google.com/?cid=0x0:0x76573c73a801f2fd,
