Category,Real Category,Business Name,Address,City,State,Postal Code,Country,Phone,Email,Website,Latitude,Longitude,Map Link,Details Link
komplek housing,komplek housing,Kalimantan Tengah 74553,"Kabupaten Gunung MAS, Kalimantan Tengah","Kabupaten Gunung MAS, Kalimantan Tengah",KALIMANTAN TENGAH,,Indonesia,,,,-0.5866559,113.429984,https://maps.google.com/?cid=0x0:0x7f9e14ce7cf9d71f,
komplek housing,Komplek perumahan,Dukuh Sukon,"985Q+F8, Tumbang Mahuroi, Damang Batu, Kabupaten Gunung MAS, Kalimantan Tengah","Kabupaten Gunung MAS, Kalimantan Tengah",KALIMANTAN TENGAH,,Indonesia,,,,-0.6412756,113.3382671,https://maps.google.com/?cid=0x0:0xd39c24ce3b4575e5,
komplek housing,Komplek perumahan,Tumbang mahuroi,"F8JM+XVX, Tumbang Mahuroi, Damang Batu, Kabupaten Gunung MAS, Kalimantan Tengah","Kabupaten Gunung MAS, Kalimantan Tengah",KALIMANTAN TENGAH,,Indonesia,,,,-0.5175121,113.3347215,https://maps.google.com/?cid=0x0:0xd72c20efc2ac897c,
komplek housing,Komplek perumahan,MY HOME,"3FW4+V26, Tumbang Marikoi, Damang Batu, Kabupaten Gunung MAS, Kalimantan Tengah 74561","Tumbang Marikoi, Damang Batu, Kabupaten Gunung MAS",KALIMANTAN TENGAH,74561.0,Indonesia,,,,-0.9015538,113.4560365,https://maps.google.com/?cid=0x0:0x6d6f19efe94db15e,
komplek housing,Komplek perumahan,Tumbang Masukih,"9MV7+PPM, Tumbang Masukih, Miri Manasa, Kabupaten Gunung MAS, Kalimantan Tengah 74581","Tumbang Masukih, Miri Manasa, Kabupaten Gunung MAS",KALIMANTAN TENGAH,74581.0,Indonesia,,,,-0.605658,113.6642983,https://maps.google.com/?cid=0x0:0x46b6f7856a84b504,
komplek housing,Komplek perumahan,RUMAH MADIE,"3FW4+0,9047780, 113, RW.3840480, Tumbang Maraya, Damang Batu, Kabupaten Gunung MAS, Kalimantan Tengah 74561","113, RW.3840480, Tumbang Maraya, Damang Batu, Kabupaten Gunung MAS",KALIMANTAN TENGAH,74561.0,Indonesia,,,,-0.9047744,113.3839579,https://maps.google.com/?cid=0x0:0x439a925daeefaf46,
komplek housing,Komplek perumahan,Rumah Rencau,"4F25+5QC, Tumbang Marikoi, Damang Batu, Kabupaten Gunung MAS, Kalimantan Tengah","Kabupaten Gunung MAS, Kalimantan Tengah",KALIMANTAN TENGAH,,Indonesia,,,,-0.8995821,113.4593085,https://maps.google.com/?cid=0x0:0x3e2f9db3ef19af2f,
komplek housing,Komplek perumahan,BAIWAN FF,"3FX5+MGX, Tumbang Marikoi, Damang Batu, Kabupaten Gunung MAS, Kalimantan Tengah","Kabupaten Gunung MAS, Kalimantan Tengah",KALIMANTAN TENGAH,,Indonesia,,,,-0.9007674,113.4588499,https://maps.google.com/?cid=0x0:0x9b2ccd16b3f20d0b,
komplek housing,Perusahaan Konstruksi,Perumahan staff KAP 1,"3CQ8+36, Tumbang Posu, Damang Batu, Kabupaten Gunung MAS, Kalimantan Tengah","Kabupaten Gunung MAS, Kalimantan Tengah",KALIMANTAN TENGAH,,Indonesia,,,,-0.9122679,113.4155914,https://maps.google.com/?cid=0x0:0xb74f93d01c233e61,
komplek housing,Komplek perumahan,Tumbang Manyoi,"9MF2+V3, Rangan Hiran, Miri Manasa, Kabupaten Gunung MAS, Kalimantan Tengah 74552","Rangan Hiran, Miri Manasa, Kabupaten Gunung MAS",KALIMANTAN TENGAH,74552.0,Indonesia,,,,-0.6252246,113.6502459,https://maps.google.com/?cid=0x0:0x696645276794c242,
komplek housing,Komplek perumahan,Gedung Walet Bp.NIKI,"3FW4+V26, Tumbang Marikoi, Damang Batu, Kabupaten Gunung MAS, Kalimantan Tengah 74561","Tumbang Marikoi, Damang Batu, Kabupaten Gunung MAS",KALIMANTAN TENGAH,74561.0,Indonesia,,,,-0.902107,113.455989,https://maps.google.com/?cid=0x0:0x83d5549f17dca657,
komplek housing,Komplek perumahan,Rumah Ebarto (Bp.Pini),"4F25+XM8, Tumbang Marikoi, Damang Batu, Kabupaten Gunung MAS, Kalimantan Tengah 74561","Tumbang Marikoi, Damang Batu, Kabupaten Gunung MAS",KALIMANTAN TENGAH,74561.0,Indonesia,,,,-0.8971007,113.459583,https://maps.google.com/?cid=0x0:0x6ca78ccb47535ec8,
komplek housing,Area Mendaki,Betang Tumbang Anoi,"586C+8M5, Tumbang Anoi, Damang Batu, Kabupaten Gunung MAS, Kalimantan Tengah 74553","Tumbang Anoi, Damang Batu, Kabupaten Gunung MAS",KALIMANTAN TENGAH,74553.0,Indonesia,,,,-0.8392329,113.3217313,https://maps.google.com/?cid=0x0:0x360efa8074c9939c,
komplek housing,Komplek perumahan,Tumbang Napoi,"Tumbang Napoi, Miri Manasa, Kabupaten Gunung MAS, Kalimantan Tengah","Kabupaten Gunung MAS, Kalimantan Tengah",KALIMANTAN TENGAH,,Indonesia,,,,-0.7049375,113.5921875,https://maps.google.com/?cid=0x0:0x4b68102202997960,
komplek housing,Kantor Pemerintah,Desa Harowu,"CMQV+H3, Harowu, Miri Manasa, Kabupaten Gunung MAS, Kalimantan Tengah","Kabupaten Gunung MAS, Kalimantan Tengah",KALIMANTAN TENGAH,,Indonesia,,,,-0.561042,113.692731,https://maps.google.com/?cid=0x0:0x1a8c8d075e030ff6,
komplek housing,Komplek perumahan,H. Murjani,"3HG3+78M, Jln. H. Bahrun, RT.004/RW.001, Tumbang Miri, Kec. Kahayan Hulu Utara, Kabupaten Gunung MAS, Kalimantan Tengah","Kabupaten Gunung MAS, Kalimantan Tengah",KALIMANTAN TENGAH,,Indonesia,,,,-0.9242953,113.5532855,https://maps.google.com/?cid=0x0:0x7c9fd1807660079,
komplek housing,komplek housing,Damang Batu,"Kabupaten Gunung MAS, Kalimantan Tengah","Kabupaten Gunung MAS, Kalimantan Tengah",KALIMANTAN TENGAH,,Indonesia,,,,-0.7618419,113.287085,https://maps.google.com/?cid=0x0:0x3a6f57c94c68bb82,
komplek housing,komplek housing,Kec. Kahayan Hulu Utara,"Kabupaten Gunung MAS, Kalimantan Tengah","Kabupaten Gunung MAS, Kalimantan Tengah",KALIMANTAN TENGAH,,Indonesia,,,,-0.9242953,113.5532855,https://maps.google.com/?cid=0x0:0x47258147014c232a,
komplek housing,Komplek perumahan,H. Murjani,"3HG3+78M, Jln. H. Bahrun, RT.004/RW.001, Tumbang Miri, Kec. Kahayan Hulu Utara, Kabupaten Gunung MAS, Kalimantan Tengah","Kabupaten Gunung MAS, Kalimantan Tengah",KALIMANTAN TENGAH,,Indonesia,,,,-0.9242953,113.5532855,https://maps.google.com/?cid=0x0:0x7c9fd1807660079,
komplek housing,Komplek perumahan,Batu nyiwuh,"2J35+FCR, Batu Nyiwuh, Kec. Tewah, Kabupaten Gunung MAS, Kalimantan Tengah 74561","Batu Nyiwuh, Kec. Tewah, Kabupaten Gunung MAS",KALIMANTAN TENGAH,74561.0,Indonesia,,,,-0.996257,113.6085288,https://maps.google.com/?cid=0x0:0x6d7cfc8e36aa283b,
komplek housing,Rumah Kayu,Hantapang,"XG9P+5V, Hantapang, Kec. Rungan Hulu, Kabupaten Gunung MAS, Kalimantan Tengah","Kabupaten Gunung MAS, Kalimantan Tengah",KALIMANTAN TENGAH,,Indonesia,,,,-1.0319784,113.5374489,https://maps.google.com/?cid=0x0:0xff93c766f006e679,
komplek housing,Komplek perumahan,Rumah Rencau,"4F25+5QC, Tumbang Marikoi, Damang Batu, Kabupaten Gunung MAS, Kalimantan Tengah","Kabupaten Gunung MAS, Kalimantan Tengah",KALIMANTAN TENGAH,,Indonesia,,,,-0.8995821,113.4593085,https://maps.google.com/?cid=0x0:0x3e2f9db3ef19af2f,
komplek housing,Komplek perumahan,BAIWAN FF,"3FX5+MGX, Tumbang Marikoi, Damang Batu, Kabupaten Gunung MAS, Kalimantan Tengah","Kabupaten Gunung MAS, Kalimantan Tengah",KALIMANTAN TENGAH,,Indonesia,,,,-0.9007674,113.4588499,https://maps.google.com/?cid=0x0:0x9b2ccd16b3f20d0b,
komplek housing,Pembangunan Perumahan,Desa karason,"4M32+W39, Karason, Kec. Tewah, Kabupaten Gunung MAS, Kalimantan Tengah","Kabupaten Gunung MAS, Kalimantan Tengah",KALIMANTAN TENGAH,,Indonesia,,,,-0.8952204,113.6502213,https://maps.google.com/?cid=0x0:0xd4405fbd4c5f9e3d,
komplek housing,Pembangunan Perumahan,Debry,"XFH8+P89, Sei Antai, Kec. Rungan Hulu, Kabupaten Gunung MAS, Kalimantan Tengah 74561","Sei Antai, Kec. Rungan Hulu, Kabupaten Gunung MAS",KALIMANTAN TENGAH,74561.0,Indonesia,,,,-1.0207213,113.4658712,https://maps.google.com/?cid=0x0:0x5528b1bb1009c9eb,
komplek housing,Komplek perumahan,Rumah Ebarto (Bp.Pini),"4F25+XM8, Tumbang Marikoi, Damang Batu, Kabupaten Gunung MAS, Kalimantan Tengah 74561","Tumbang Marikoi, Damang Batu, Kabupaten Gunung MAS",KALIMANTAN TENGAH,74561.0,Indonesia,,,,-0.8971007,113.459583,https://maps.google.com/?cid=0x0:0x6ca78ccb47535ec8,
komplek housing,Komplek perumahan,Gedung Walet Bp.NIKI,"3FW4+V26, Tumbang Marikoi, Damang Batu, Kabupaten Gunung MAS, Kalimantan Tengah 74561","Tumbang Marikoi, Damang Batu, Kabupaten Gunung MAS",KALIMANTAN TENGAH,74561.0,Indonesia,,,,-0.902107,113.455989,https://maps.google.com/?cid=0x0:0x83d5549f17dca657,
komplek housing,Perusahaan Konstruksi,Perumahan staff KAP 1,"3CQ8+36, Tumbang Posu, Damang Batu, Kabupaten Gunung MAS, Kalimantan Tengah","Kabupaten Gunung MAS, Kalimantan Tengah",KALIMANTAN TENGAH,,Indonesia,,,,-0.9122679,113.4155914,https://maps.google.com/?cid=0x0:0xb74f93d01c233e61,
komplek housing,Komplek perumahan,Rumah Tuah,"XP2C+5FX, Jl.sekata Gg.Malang IV, Tewah, Kec. Tewah, Kabupaten Gunung MAS, Kalimantan Tengah","Kabupaten Gunung MAS, Kalimantan Tengah",KALIMANTAN TENGAH,,Indonesia,,,,-1.0495046,113.7212207,https://maps.google.com/?cid=0x0:0xd9223af3bceb91e7,
komplek housing,Komplek perumahan,Tumbang Napoi,"Tumbang Napoi, Miri Manasa, Kabupaten Gunung MAS, Kalimantan Tengah","Kabupaten Gunung MAS, Kalimantan Tengah",KALIMANTAN TENGAH,,Indonesia,,,,-0.7049375,113.5921875,https://maps.google.com/?cid=0x0:0x4b68102202997960,
komplek housing,Komplek perumahan,Arum,"XPG9+36, Tewah, Kec. Tewah, Kabupaten Gunung MAS, Kalimantan Tengah","Kabupaten Gunung MAS, Kalimantan Tengah",KALIMANTAN TENGAH,,Indonesia,,,,-1.0247511,113.7180094,https://maps.google.com/?cid=0x0:0x1456ce8c1b2f595e,
komplek housing,Komplek perumahan,IMA BAREH,"2M76+53, Batu Nyiwuh, Kec. Tewah, Kabupaten Gunung MAS, Kalimantan Tengah","Kabupaten Gunung MAS, Kalimantan Tengah",KALIMANTAN TENGAH,,Indonesia,,,,-0.9870158,113.6601915,https://maps.google.com/?cid=0x0:0xd1588c35c240297,
komplek housing,Komplek perumahan,Heri,"XPGC+RVF, Tewah, Kec. Tewah, Kabupaten Gunung MAS, Kalimantan Tengah","Kabupaten Gunung MAS, Kalimantan Tengah",KALIMANTAN TENGAH,,Indonesia,,,,-1.0229429,113.722177,https://maps.google.com/?cid=0x0:0x3b4a8ff2ce82b9ea,
komplek housing,komplek housing,Kalimantan Tengah 74511,Kalimantan Tengah,Kalimantan Tengah,KALIMANTAN TENGAH,,Indonesia,,,,-0.898161,113.8584737,https://maps.google.com/?cid=0x0:0x88373fa35beec461,
komplek housing,Perhimpunan Pengembang Perumahan,Bekasi perumahan,"Sei Pinang, Mandau Talawang, Kabupaten Kapuas, Kalimantan Tengah","Kabupaten Kapuas, Kalimantan Tengah",KALIMANTAN TENGAH,,Indonesia,,,,-0.789275,113.921327,https://maps.google.com/?cid=0x0:0xb651ba9b0d29f998,
komplek housing,komplek housing,Perumahan Bukit Tentrem Triwidadi,,,KALIMANTAN TENGAH,,Indonesia,8112538338.0,,,-2.44565,117.8888,https://maps.google.com/?cid=0x0:0xede996d62aecd86b,
komplek housing,Komplek perumahan,Perumahan biasa,"6W6C+7GP, Sei Pinang, Mandau Talawang, Kabupaten Kapuas, Kalimantan Tengah","Kabupaten Kapuas, Kalimantan Tengah",KALIMANTAN TENGAH,,Indonesia,,,,-0.789275,113.921327,https://maps.google.com/?cid=0x0:0xd83623f3f83abf5d,
komplek housing,komplek housing,Batu Permata Residence,,,KALIMANTAN TENGAH,,Indonesia,81389548122.0,,,-2.44565,117.8888,https://maps.google.com/?cid=0x0:0xc2059170122e891e,
komplek housing,Perhimpunan Pengembang Perumahan,Rumoh D. Nathuah,,,KALIMANTAN TENGAH,,Indonesia,82219420266.0,,,-2.44565,117.8888,https://maps.google.com/?cid=0x0:0x15ed6affe9f9880,
komplek housing,Komplek perumahan,Perumahan fg,"6W6C+7GP, Sei Pinang, Mandau Talawang, Kabupaten Kapuas, Kalimantan Tengah","Kabupaten Kapuas, Kalimantan Tengah",KALIMANTAN TENGAH,,Indonesia,,,,-0.789275,113.921327,https://maps.google.com/?cid=0x0:0xa51ab683be545eb3,
komplek housing,Komplek perumahan,Home sweet hs,"6W6C+7GP, Sei Pinang, Mandau Talawang, Kabupaten Kapuas, Kalimantan Tengah","Kabupaten Kapuas, Kalimantan Tengah",KALIMANTAN TENGAH,,Indonesia,82333997962.0,,,-0.789275,113.921327,https://maps.google.com/?cid=0x0:0x16f9cb6c90382e7f,
komplek housing,Komplek perumahan,RUMAH RIFQI,"6W6C+7GP, Sei Pinang, Mandau Talawang, Kabupaten Kapuas, Kalimantan Tengah 74511","Sei Pinang, Mandau Talawang, Kabupaten Kapuas",KALIMANTAN TENGAH,74511.0,Indonesia,,,,-0.789275,113.921327,https://maps.google.com/?cid=0x0:0x582c6edab91a758e,
komplek housing,Komplek perumahan,Rumah Selly,"6W6C+7GP, Sei Pinang, Mandau Talawang, Kabupaten Kapuas, Kalimantan Tengah","Kabupaten Kapuas, Kalimantan Tengah",KALIMANTAN TENGAH,,Indonesia,,,,-0.7892751,113.921327,https://maps.google.com/?cid=0x0:0x47ddba9de8f84778,
komplek housing,Komplek perumahan,Tanah di masuka,"6W49+45G, Gg. Garuda Cipinang, Sei Pinang, Mandau Talawang, Kabupaten Kapuas, Kalimantan Tengah 74511","Gg. Garuda Cipinang, Sei Pinang, Mandau Talawang, Kabupaten Kapuas",KALIMANTAN TENGAH,74511.0,Indonesia,,,,-0.794699,113.9179554,https://maps.google.com/?cid=0x0:0x93e548efa83a9b83,
komplek housing,komplek housing,dhea house,"6W6C+7GP, Sei Pinang, Mandau Talawang, Kabupaten Kapuas, Kalimantan Tengah","Kabupaten Kapuas, Kalimantan Tengah",KALIMANTAN TENGAH,,Indonesia,,,,-0.789275,113.921327,https://maps.google.com/?cid=0x0:0x7cb0db3dd356e565,
komplek housing,Pembangunan Perumahan,Cluster Lavesh - Kota Harapan Indah,"6W6C+7GP, Sei Pinang, Mandau Talawang, Kabupaten Kapuas, Kalimantan Tengah 74511","Sei Pinang, Mandau Talawang, Kabupaten Kapuas",KALIMANTAN TENGAH,74511.0,Indonesia,,,,-0.789275,113.921327,https://maps.google.com/?cid=0x0:0xd35537a640e1b536,
komplek housing,Pembangunan Perumahan,Lara gunung,"6W6C+7GP, Sei Pinang, Mandau Talawang, Kabupaten Kapuas, Kalimantan Tengah","Kabupaten Kapuas, Kalimantan Tengah",KALIMANTAN TENGAH,,Indonesia,81369238605.0,,,-0.789275,113.921327,https://maps.google.com/?cid=0x0:0xcfe2aa001f3e639c,
komplek housing,Komplek perumahan,Rumah krw,"6W6C+7GP, Sei Pinang, Mandau Talawang, Kabupaten Kapuas, Kalimantan Tengah","Kabupaten Kapuas, Kalimantan Tengah",KALIMANTAN TENGAH,,Indonesia,,,,-0.789275,113.921327,https://maps.google.com/?cid=0x0:0xe0884429c57c2250,
komplek housing,Komplek perumahan,HOME JONGGOL,"6W6C+7GP, Sei Pinang, Mandau Talawang, Kabupaten Kapuas, Kalimantan Tengah","Kabupaten Kapuas, Kalimantan Tengah",KALIMANTAN TENGAH,,Indonesia,,,,-0.789275,113.921327,https://maps.google.com/?cid=0x0:0xa0f3b935e5c84d12,
komplek housing,Komplek perumahan,RAUFFA HOME,"6W6C+7GP, Sei Pinang, Mandau Talawang, Kabupaten Kapuas, Kalimantan Tengah","Kabupaten Kapuas, Kalimantan Tengah",KALIMANTAN TENGAH,,Indonesia,,,,-0.789275,113.921327,https://maps.google.com/?cid=0x0:0xd514d8fa9a62b94b,
komplek housing,Komplek perumahan,Room Diana,"6W6C+7GP, Sei Pinang, Mandau Talawang, Kabupaten Kapuas, Kalimantan Tengah","Kabupaten Kapuas, Kalimantan Tengah",KALIMANTAN TENGAH,,Indonesia,,,,-0.789275,113.921327,https://maps.google.com/?cid=0x0:0x57960d8d6a4ce44,
komplek housing,komplek housing,H 19,,,KALIMANTAN TENGAH,,Indonesia,81350244395.0,,,-2.44565,117.8888,https://maps.google.com/?cid=0x0:0x87ee3bd5ffcf1783,
komplek housing,Komplek perumahan,Perumahan Griya Suralaya no 17,"6W6C+7GP, Sei Pinang, Mandau Talawang, Kabupaten Kapuas, Kalimantan Tengah","Kabupaten Kapuas, Kalimantan Tengah",KALIMANTAN TENGAH,,Indonesia,,,,-0.789275,113.921327,https://maps.google.com/?cid=0x0:0xbe7be299e161f302,
komplek housing,komplek housing,Kec. Kurun,"Kabupaten Gunung MAS, Kalimantan Tengah","Kabupaten Gunung MAS, Kalimantan Tengah",KALIMANTAN TENGAH,,Indonesia,,,,-1.1032546,113.8694405,https://maps.google.com/?cid=0x0:0xdfe8ff8257113b2f,
komplek housing,Komplek perumahan,RUMAH GANTHI E SINGAM,"VVR5+3R6, Jl. Pierre Tendean, Kuala Kurun, Kec. Kurun, Kabupaten Gunung MAS, Kalimantan Tengah 74511","Jl. Pierre Tendean, Kuala Kurun, Kec. Kurun, Kabupaten Gunung MAS",KALIMANTAN TENGAH,74511.0,Indonesia,,,,-1.1104358,113.8607175,https://maps.google.com/?cid=0x0:0x8552e11c135e69fe,
komplek housing,Komplek perumahan,Barak Kuning,"PVJV+GHW, Tumbang Hakau, Kec. Kurun, Kabupaten Gunung MAS, Kalimantan Tengah 74511","Tumbang Hakau, Kec. Kurun, Kabupaten Gunung MAS",KALIMANTAN TENGAH,74511.0,Indonesia,,,,-1.2680241,113.894134,https://maps.google.com/?cid=0x0:0x839a37ff5ede0d6,
komplek housing,Komplek perumahan,Home Rey,"WPWG+C37, Jl. Perintis, Tewah, Kec. Tewah, Kabupaten Gunung MAS, Kalimantan Tengah 74511","Jl. Perintis, Tewah, Kec. Tewah, Kabupaten Gunung MAS",KALIMANTAN TENGAH,74511.0,Indonesia,,,,-1.0535663,113.7250745,https://maps.google.com/?cid=0x0:0xb80cbd910df9b95a,
komplek housing,komplek housing,rumah uputt,"PVJV+GHW, Tumbang Hakau, Kec. Kurun, Kabupaten Gunung MAS, Kalimantan Tengah 74511","Tumbang Hakau, Kec. Kurun, Kabupaten Gunung MAS",KALIMANTAN TENGAH,74511.0,Indonesia,,,,-1.2676294,113.8934689,https://maps.google.com/?cid=0x0:0xf2cee27051aef11a,
komplek housing,Komplek perumahan,Cluster Premium,"PW5R+PFG, Jl. H. Mughni, RT.005/RW.001, Jatimekar, Kec. Jatiasih, Kota Bks, Jawa Barat","Kota Bks, Jawa Barat",KALIMANTAN TENGAH,,Indonesia,,,,-6.2906971,106.9412095,https://maps.google.com/?cid=0x0:0x2c358f46fd0b6d60,
komplek housing,Komplek perumahan,Cluster Puri Kodau,"Jl. H. Mughni Cluster Puri Kodau No.B.8, RT.005/RW.001, Jatimekar, Kec. Jatiasih, Kota Bks, Jawa Barat 17422","RT.005/RW.001, Jatimekar, Kec. Jatiasih, Kota Bks",KALIMANTAN TENGAH,17422.0,Indonesia,,,,-6.2915335,106.9436857,https://maps.google.com/?cid=0x0:0xbb02e18bf7465c85,
komplek housing,komplek housing,Kalimantan Tengah 74562,"Kabupaten Gunung MAS, Kalimantan Tengah","Kabupaten Gunung MAS, Kalimantan Tengah",KALIMANTAN TENGAH,,Indonesia,,,,-1.3240171,113.4776098,https://maps.google.com/?cid=0x0:0x59a162add95738c2,
komplek housing,Perhimpunan Pengembang Perumahan,AFdeling 2,"FCRR+2X7, Bereng Jun, Kec. Manuhing, Kabupaten Gunung MAS, Kalimantan Tengah","Kabupaten Gunung MAS, Kalimantan Tengah",KALIMANTAN TENGAH,,Indonesia,,,,-1.5099642,113.4424089,https://maps.google.com/?cid=0x0:0x9559bca625271622,
komplek housing,Perumahan,Mulyanto dicki,"H94X+2WH, Belawan Mulya, Kec. Manuhing, Kabupaten Gunung MAS, Kalimantan Tengah 74562","Belawan Mulya, Kec. Manuhing, Kabupaten Gunung MAS",KALIMANTAN TENGAH,74562.0,Indonesia,,,,-1.4449459,113.3998496,https://maps.google.com/?cid=0x0:0x6c3775589c4c46e3,
komplek housing,Komplek perumahan,Afdeling 5,"FF95+FQP, Bereng Jun, Kec. Manuhing, Kabupaten Gunung MAS, Kalimantan Tengah","Kabupaten Gunung MAS, Kalimantan Tengah",KALIMANTAN TENGAH,,Indonesia,,,,-1.5312876,113.4594553,https://maps.google.com/?cid=0x0:0x7fd11312deec6183,
komplek housing,Komplek perumahan,Gus.Rohmat,"H94X+RQR, Belawan Mulya, Kec. Manuhing, Kabupaten Gunung MAS, Kalimantan Tengah 74562","Belawan Mulya, Kec. Manuhing, Kabupaten Gunung MAS",KALIMANTAN TENGAH,74562.0,Indonesia,,,,-1.4428793,113.3993799,https://maps.google.com/?cid=0x0:0xa5d29a0eac119147,
komplek housing,Komplek perumahan,AbDian Jalur V,"HC54+VJF, Belawan Mulya, Kec. Manuhing, Kabupaten Gunung MAS, Kalimantan Tengah 74562","Belawan Mulya, Kec. Manuhing, Kabupaten Gunung MAS",KALIMANTAN TENGAH,74562.0,Indonesia,,,,-1.4403082,113.4065444,https://maps.google.com/?cid=0x0:0xf2c5d03781c10065,
komplek housing,Perumahan,Untung,"HC44+VW, Belawan Mulya, Kec. Manuhing, Kabupaten Gunung MAS, Kalimantan Tengah 74562","Belawan Mulya, Kec. Manuhing, Kabupaten Gunung MAS",KALIMANTAN TENGAH,74562.0,Indonesia,,,,-1.4430633,113.4076136,https://maps.google.com/?cid=0x0:0x1a48a376fe0fdec3,
komplek housing,Komplek perumahan,Agus tulus,"H94X+FP6, Belawan Mulya, Kec. Manuhing, Kabupaten Gunung MAS, Kalimantan Tengah 74562","Belawan Mulya, Kec. Manuhing, Kabupaten Gunung MAS",KALIMANTAN TENGAH,74562.0,Indonesia,,,,-1.4438493,113.3992605,https://maps.google.com/?cid=0x0:0x4a5caefe656dc720,
komplek housing,Perumahan,Mungin aja,"H93X+GWX, Fajar Harapan, Kec. Manuhing, Kabupaten Gunung MAS, Kalimantan Tengah 74562","Fajar Harapan, Kec. Manuhing, Kabupaten Gunung MAS",KALIMANTAN TENGAH,74562.0,Indonesia,,,,-1.4461321,113.3998667,https://maps.google.com/?cid=0x0:0x91d7aef7b23c93ce,
komplek housing,Komplek perumahan,Dusun Bumi harjo,"G989+MX, Bereng Jun, Kec. Manuhing, Kabupaten Gunung MAS, Kalimantan Tengah","Kabupaten Gunung MAS, Kalimantan Tengah",KALIMANTAN TENGAH,,Indonesia,,,,-1.4832853,113.3699296,https://maps.google.com/?cid=0x0:0x7759cd65a6172357,
komplek housing,Komplek perumahan,Perumahan KBT Kajui Estate,"J9MH+CQH, Tumbang Talaken, Kec. Manuhing, Kabupaten Gunung MAS, Kalimantan Tengah","Kabupaten Gunung MAS, Kalimantan Tengah",KALIMANTAN TENGAH,,Indonesia,,,,-1.3664416,113.379481,https://maps.google.com/?cid=0x0:0x76631f31448871bc,
komplek housing,Komplek perumahan,HARDINATHA,"MHJ5+C7, Luwuk Ktr., Kec. Rungan, Kabupaten Gunung MAS, Kalimantan Tengah","Kabupaten Gunung MAS, Kalimantan Tengah",KALIMANTAN TENGAH,,Indonesia,,,,-1.3189091,113.5581831,https://maps.google.com/?cid=0x0:0x3573805558c38c21,
komplek housing,Komplek perumahan,Rumah Bue Cello,"J9XJ+457, Tumbang Talaken, Kec. Manuhing, Kabupaten Gunung MAS, Kalimantan Tengah 74562","Tumbang Talaken, Kec. Manuhing, Kabupaten Gunung MAS",KALIMANTAN TENGAH,74562.0,Indonesia,,,,-1.3516825,113.3798645,https://maps.google.com/?cid=0x0:0x3c49d123b31619c0,
komplek housing,Komplek perumahan,Rumah Tambi Cello,"Q8Q7+JPH, Luwuk Tukau, Kec. Manuhing Raya, Kabupaten Gunung MAS, Kalimantan Tengah 74562","Luwuk Tukau, Kec. Manuhing Raya, Kabupaten Gunung MAS",KALIMANTAN TENGAH,74562.0,Indonesia,,,,-1.2109302,113.3143649,https://maps.google.com/?cid=0x0:0xbe9c8832ebc204d4,
komplek housing,Pembangunan Perumahan,Kabupaten gunung mas,"PHXF+445, Linau, Kec. Rungan, Kabupaten Gunung MAS, Kalimantan Tengah","Kabupaten Gunung MAS, Kalimantan Tengah",KALIMANTAN TENGAH,,Indonesia,,,,-1.2522464,113.5728501,https://maps.google.com/?cid=0x0:0x15164b7b50cba2ce,
komplek housing,Komplek perumahan,DARMAN MIJO SANTOSO,"HC22+RXQ, Belawan Mulya, Kec. Manuhing, Kabupaten Gunung MAS, Kalimantan Tengah 74562","Belawan Mulya, Kec. Manuhing, Kabupaten Gunung MAS",KALIMANTAN TENGAH,74562.0,Indonesia,,,,-1.4479095,113.4024782,https://maps.google.com/?cid=0x0:0xc8f19931eb024d37,
komplek housing,Komplek perumahan,TUMIN KALIMANTAN,"H94X+6Q2, Belawan Mulya, Kec. Manuhing, Kabupaten Gunung MAS, Kalimantan Tengah 74562","Belawan Mulya, Kec. Manuhing, Kabupaten Gunung MAS",KALIMANTAN TENGAH,74562.0,Indonesia,,,,-1.4444974,113.3993986,https://maps.google.com/?cid=0x0:0x4f9705e9a3ff713d,
komplek housing,Komplek perumahan,Rumah Bue Qyena,"J9XJ+457, Tumbang Talaken, Kec. Manuhing, Kabupaten Gunung MAS, Kalimantan Tengah 74562","Tumbang Talaken, Kec. Manuhing, Kabupaten Gunung MAS",KALIMANTAN TENGAH,74562.0,Indonesia,,,,-1.3514927,113.3796401,https://maps.google.com/?cid=0x0:0xfafb4f1ab91cf6e9,
komplek housing,Komplek perumahan,YUDI BUTO,"HC34+VX4, Belawan Mulya, Kec. Manuhing, Kabupaten Gunung MAS, Kalimantan Tengah 74562","Belawan Mulya, Kec. Manuhing, Kabupaten Gunung MAS",KALIMANTAN TENGAH,74562.0,Indonesia,,,,-1.4453515,113.4074413,https://maps.google.com/?cid=0x0:0x77d1c99a3e744e1,
komplek housing,Perhimpunan Pengembang Perumahan,Rumah pakde seno,"G989+FV7, Bereng Jun, Kec. Manuhing, Kabupaten Gunung MAS, Kalimantan Tengah","Kabupaten Gunung MAS, Kalimantan Tengah",KALIMANTAN TENGAH,,Indonesia,,,,-1.483195,113.369953,https://maps.google.com/?cid=0x0:0x626ac1af96a7ae1a,
komplek housing,komplek housing,Kec. Manuhing,"Kabupaten Gunung MAS, Kalimantan Tengah","Kabupaten Gunung MAS, Kalimantan Tengah",KALIMANTAN TENGAH,,Indonesia,,,,-1.3664416,113.379481,https://maps.google.com/?cid=0x0:0xb507395d0c29c43f,
komplek housing,Pembangunan Perumahan,Raji tempe production,"H93W+RMV, Belawan Mulya, Kec. Manuhing, Kabupaten Gunung MAS, Kalimantan Tengah 74562","Belawan Mulya, Kec. Manuhing, Kabupaten Gunung MAS",KALIMANTAN TENGAH,74562.0,Indonesia,,,,-1.4453944,113.3966615,https://maps.google.com/?cid=0x0:0x61725f2277d61e84,
komplek housing,Komplek perumahan,Shooting club(servis snapan dll),"H94X+RQR, Belawan Mulya, Kec. Manuhing, Kabupaten Gunung MAS, Kalimantan Tengah 74562","Belawan Mulya, Kec. Manuhing, Kabupaten Gunung MAS",KALIMANTAN TENGAH,74562.0,Indonesia,,,,-1.4430067,113.3989083,https://maps.google.com/?cid=0x0:0x138587dbb6657333,
komplek housing,Komplek perumahan,Yadi Audio,"HC45+Q3X, Belawan Mulya, Kec. Manuhing, Kabupaten Gunung MAS, Kalimantan Tengah 74562","Belawan Mulya, Kec. Manuhing, Kabupaten Gunung MAS",KALIMANTAN TENGAH,74562.0,Indonesia,85349791987.0,,,-1.4430117,113.4077236,https://maps.google.com/?cid=0x0:0xaee8caaec15bdfa,
komplek housing,Perumahan,Mbah miswan,"H9WV+3PJ, Belawan Mulya, Kec. Manuhing, Kabupaten Gunung MAS, Kalimantan Tengah 74562","Belawan Mulya, Kec. Manuhing, Kabupaten Gunung MAS",KALIMANTAN TENGAH,74562.0,Indonesia,,,,-1.4047796,113.3942622,https://maps.google.com/?cid=0x0:0x12c6768ceaec8507,
komplek housing,Komplek perumahan,SENGGONG AUDIO,"HC22+FX8, Belawan Mulya, Kec. Manuhing, Kabupaten Gunung MAS, Kalimantan Tengah 74562","Belawan Mulya, Kec. Manuhing, Kabupaten Gunung MAS",KALIMANTAN TENGAH,74562.0,Indonesia,,,,-1.4488299,113.402443,https://maps.google.com/?cid=0x0:0x31482b638bd245c2,
komplek housing,Perhimpunan Pengembang Perumahan,Ust.Jani,"H94X+CRV, Belawan Mulya, Kec. Manuhing, Kabupaten Gunung MAS, Kalimantan Tengah 74562","Belawan Mulya, Kec. Manuhing, Kabupaten Gunung MAS",KALIMANTAN TENGAH,74562.0,Indonesia,,,,-1.4438848,113.3995596,https://maps.google.com/?cid=0x0:0x24501d9348396c08,
komplek housing,Komplek perumahan,SMJ AUDIO,"H93X+FV9, Belawan Mulya, Kec. Manuhing, Kabupaten Gunung MAS, Kalimantan Tengah 74562","Belawan Mulya, Kec. Manuhing, Kabupaten Gunung MAS",KALIMANTAN TENGAH,74562.0,Indonesia,,,,-1.44635,113.3997396,https://maps.google.com/?cid=0x0:0x44da1e72c86e178,
komplek housing,Komplek perumahan,Mantir adat Belawan mulya,"HC32+6Q5, Belawan Mulya, Kec. Manuhing, Kabupaten Gunung MAS, Kalimantan Tengah 74562","Belawan Mulya, Kec. Manuhing, Kabupaten Gunung MAS",KALIMANTAN TENGAH,74562.0,Indonesia,,,,-1.4469898,113.401983,https://maps.google.com/?cid=0x0:0xebb9f0b7c10a2280,
komplek housing,komplek housing,Kec. Manuhing Raya,"Kabupaten Gunung MAS, Kalimantan Tengah","Kabupaten Gunung MAS, Kalimantan Tengah",KALIMANTAN TENGAH,,Indonesia,,,,-1.2093562,113.3161023,https://maps.google.com/?cid=0x0:0xf4826c03ebd0940e,
komplek housing,Komplek perumahan,Rumah Tambi Cello,"Q8Q7+JPH, Luwuk Tukau, Kec. Manuhing Raya, Kabupaten Gunung MAS, Kalimantan Tengah 74562","Luwuk Tukau, Kec. Manuhing Raya, Kabupaten Gunung MAS",KALIMANTAN TENGAH,74562.0,Indonesia,,,,-1.2109302,113.3143649,https://maps.google.com/?cid=0x0:0xbe9c8832ebc204d4,
komplek housing,Komplek perumahan,Rumah Bue Cello,"J9XJ+457, Tumbang Talaken, Kec. Manuhing, Kabupaten Gunung MAS, Kalimantan Tengah 74562","Tumbang Talaken, Kec. Manuhing, Kabupaten Gunung MAS",KALIMANTAN TENGAH,74562.0,Indonesia,,,,-1.3516825,113.3798645,https://maps.google.com/?cid=0x0:0x3c49d123b31619c0,
komplek housing,Kantor Perusahaan,PT Nusantara Sawit Persada,"W836+Q9C, Tehang, Kec. Manuhing Raya, Kabupaten Gunung MAS, Kalimantan Tengah 74562","Tehang, Kec. Manuhing Raya, Kabupaten Gunung MAS",KALIMANTAN TENGAH,74562.0,Indonesia,,,,-1.0955601,113.3109037,https://maps.google.com/?cid=0x0:0x267eccd5c4b65eb7,
komplek housing,Komplek perumahan,Perumahan KBT Kajui Estate,"J9MH+CQH, Tumbang Talaken, Kec. Manuhing, Kabupaten Gunung MAS, Kalimantan Tengah","Kabupaten Gunung MAS, Kalimantan Tengah",KALIMANTAN TENGAH,,Indonesia,,,,-1.3664416,113.379481,https://maps.google.com/?cid=0x0:0x76631f31448871bc,
komplek housing,Komplek perumahan,Rumah Bue Yuni,"J9XH+4JJ, Tumbang Talaken, Kec. Manuhing, Kabupaten Gunung MAS, Kalimantan Tengah","Kabupaten Gunung MAS, Kalimantan Tengah",KALIMANTAN TENGAH,,Indonesia,,,,-1.3521564,113.3790002,https://maps.google.com/?cid=0x0:0x50fe16a861ba9814,
komplek housing,Komplek perumahan,Rumah Mantikei (Bp.Semat),"J9XJ+6J5, Tumbang Talaken, Kec. Manuhing, Kabupaten Gunung MAS, Kalimantan Tengah","Kabupaten Gunung MAS, Kalimantan Tengah",KALIMANTAN TENGAH,,Indonesia,,,,-1.3519939,113.3816025,https://maps.google.com/?cid=0x0:0x1e897c6c7d0e6d35,
komplek housing,Pembangunan Perumahan,Tumbang Samui,"P8FC+XX, Putat Durei, Kec. Manuhing Raya, Kabupaten Gunung MAS, Kalimantan Tengah","Kabupaten Gunung MAS, Kalimantan Tengah",KALIMANTAN TENGAH,,Indonesia,,,,-1.2750256,113.3224535,https://maps.google.com/?cid=0x0:0xbe129b0e23241511,
komplek housing,Komplek perumahan,Rumah Bapa Lores/Miltonadi,"Jalan Tugu No.57, Tumbang Talaken, Kec. Manuhing, Kabupaten Gunung MAS, Kalimantan Tengah","Kabupaten Gunung MAS, Kalimantan Tengah",KALIMANTAN TENGAH,,Indonesia,,,,-1.3521106,113.3792206,https://maps.google.com/?cid=0x0:0xfd107d4bedfaaa0e,
komplek housing,Komplek perumahan,HARDINATHA,"MHJ5+C7, Luwuk Ktr., Kec. Rungan, Kabupaten Gunung MAS, Kalimantan Tengah","Kabupaten Gunung MAS, Kalimantan Tengah",KALIMANTAN TENGAH,,Indonesia,,,,-1.3189091,113.5581831,https://maps.google.com/?cid=0x0:0x3573805558c38c21,
komplek housing,Perumahan,Rumah muel,"No 14, Bangun Sari, Kabupaten Gunung MAS, Kalimantan Tengah","Kabupaten Gunung MAS, Kalimantan Tengah",KALIMANTAN TENGAH,,Indonesia,,,,-1.3877507,113.3228127,https://maps.google.com/?cid=0x0:0xe8cd907614ce6292,
komplek housing,Kompleks Kondominium,Rumah Roni,"PCPG+MH, Jalemu Raya, Kec. Rungan Barat, Kabupaten Gunung MAS, Kalimantan Tengah","Kabupaten Gunung MAS, Kalimantan Tengah",KALIMANTAN TENGAH,,Indonesia,,,,-1.2632945,113.426491,https://maps.google.com/?cid=0x0:0x4d0b1923a412921,
komplek housing,Komplek perumahan,Rumah Akifa,"PH5F+62P, Jakatan Raya, Kec. Rungan, Kabupaten Gunung MAS, Kalimantan Tengah 74562","Jakatan Raya, Kec. Rungan, Kabupaten Gunung MAS",KALIMANTAN TENGAH,74562.0,Indonesia,,,,-1.291921,113.5725862,https://maps.google.com/?cid=0x0:0xd22e84b5724cb686,
komplek housing,Pembangunan Perumahan,Kabupaten gunung mas,"PHXF+445, Linau, Kec. Rungan, Kabupaten Gunung MAS, Kalimantan Tengah","Kabupaten Gunung MAS, Kalimantan Tengah",KALIMANTAN TENGAH,,Indonesia,,,,-1.2522464,113.5728501,https://maps.google.com/?cid=0x0:0x15164b7b50cba2ce,
komplek housing,Pembangunan Perumahan,Hujung Pata,"PF28+X7P, jalan pelajar, Hujung Pata, Kec. Rungan Barat, Kabupaten Gunung MAS, Kalimantan Tengah 74562","jalan pelajar, Hujung Pata, Kec. Rungan Barat, Kabupaten Gunung MAS",KALIMANTAN TENGAH,74562.0,Indonesia,,,,-1.2975448,113.4657037,https://maps.google.com/?cid=0x0:0xb5b0183199ff614e,
komplek housing,Komplek perumahan,Rumah Silvi Salma,"J9XJ+JRQ, Bawah Jembatan, Tumbang Talaken, Kec. Manuhing, Kabupaten Gunung MAS, Kalimantan Tengah","Kabupaten Gunung MAS, Kalimantan Tengah",KALIMANTAN TENGAH,,Indonesia,,,,-1.3509015,113.3821018,https://maps.google.com/?cid=0x0:0x6db50a3038e0c7df,
komplek housing,Komplek perumahan,Rumah Pribadi,"PH83+JXX, Jakatan Raya, Kec. Rungan, Kabupaten Gunung MAS, Kalimantan Tengah 74562","Jakatan Raya, Kec. Rungan, Kabupaten Gunung MAS",KALIMANTAN TENGAH,74562.0,Indonesia,,,,-1.2833856,113.5549937,https://maps.google.com/?cid=0x0:0x2811385036f4e233,
komplek housing,Kantor Pemerintah,SEKRETARIAT PPK KECAMATAN RUNGAN BARAT,"QF74+55, Rabambang, Kec. Rungan Barat, Kabupaten Gunung MAS, Kalimantan Tengah","Kabupaten Gunung MAS, Kalimantan Tengah",KALIMANTAN TENGAH,,Indonesia,82153532562.0,,,-1.2346074,113.4551863,https://maps.google.com/?cid=0x0:0x56d6fe8fad391341,
komplek housing,Komplek perumahan,WANO,"JHH8+QV4, Tumbang Kajuei, Kec. Rungan, Kabupaten Gunung MAS, Kalimantan Tengah 74562","Tumbang Kajuei, Kec. Rungan, Kabupaten Gunung MAS",KALIMANTAN TENGAH,74562.0,Indonesia,,,,-1.3703645,113.5669593,https://maps.google.com/?cid=0x0:0xd331b798b3b0fd3d,
komplek housing,Kantor Pemerintah,Tumbang Kawei,"W63C+QV, Tumbang Kawei, Kec. Sanaman Mantikei, Kabupaten Katingan, Kalimantan Tengah","Kabupaten Katingan, Kalimantan Tengah",KALIMANTAN TENGAH,,Indonesia,,,,-1.0955388,113.2222183,https://maps.google.com/?cid=0x0:0xce9bd134f578e5d8,
komplek housing,Komplek perumahan,Tumbang Taranei,"R5XR+V4, Tumbang Taranei, Kec. Sanaman Mantikei, Kabupaten Katingan, Kalimantan Tengah","Kabupaten Katingan, Kalimantan Tengah",KALIMANTAN TENGAH,,Indonesia,,,,-1.1503634,113.1903362,https://maps.google.com/?cid=0x0:0xf7e5aa328262b729,
komplek housing,Perhimpunan Pengembang Perumahan,Rmh guhung rawai,"PH97+8HV, Jl. Cilik Riwut, Jakatan Raya, Kec. Rungan, Kabupaten Gunung MAS, Kalimantan Tengah 74562","Jl. Cilik Riwut, Jakatan Raya, Kec. Rungan, Kabupaten Gunung MAS",KALIMANTAN TENGAH,74562.0,Indonesia,,,,-1.2816446,113.5639185,https://maps.google.com/?cid=0x0:0x1419645a1b0bda45,
komplek housing,Komplek perumahan,Pondok 1 jalemo,"PF28+X7P, Jalan negara, Hujung Pata, Kec. Rungan Barat, Kabupaten Gunung MAS, Kalimantan Tengah 74562","Jalan negara, Hujung Pata, Kec. Rungan Barat, Kabupaten Gunung MAS",KALIMANTAN TENGAH,74562.0,Indonesia,,,,-1.2975448,113.4657037,https://maps.google.com/?cid=0x0:0xff740efe01da064d,
komplek housing,komplek housing,BASECAMP EHN SOUND SISTEM,"PH5F+62P, Jakatan Raya, Kec. Rungan, Kabupaten Gunung MAS, Kalimantan Tengah 74562","Jakatan Raya, Kec. Rungan, Kabupaten Gunung MAS",KALIMANTAN TENGAH,74562.0,Indonesia,,,,-1.2925786,113.5724286,https://maps.google.com/?cid=0x0:0x11d5ca4995a986b7,
komplek housing,Perumahan,Sepriadie,"PH97+8HV, Jl. Cilik Riwut, Jakatan Raya, Kec. Rungan, Kabupaten Gunung MAS, Kalimantan Tengah 74562","Jl. Cilik Riwut, Jakatan Raya, Kec. Rungan, Kabupaten Gunung MAS",KALIMANTAN TENGAH,74562.0,Indonesia,,,,-1.2816446,113.5639192,https://maps.google.com/?cid=0x0:0xde2bccac18d75732,
komplek housing,komplek housing,Kalimantan Tengah 74571,"Kabupaten Gunung MAS, Kalimantan Tengah","Kabupaten Gunung MAS, Kalimantan Tengah",KALIMANTAN TENGAH,,Indonesia,,,,-1.1433424,113.9060624,https://maps.google.com/?cid=0x0:0x7dbb143be4104e8e,
komplek housing,Komplek perumahan,White House,"VVJ3+Q6C, Tampang Tumbang Anjir, Kec. Kurun, Kabupaten Gunung MAS, Kalimantan Tengah 74571","Tampang Tumbang Anjir, Kec. Kurun, Kabupaten Gunung MAS",KALIMANTAN TENGAH,74571.0,Indonesia,,,,-1.1180716,113.8530239,https://maps.google.com/?cid=0x0:0x226b71f3877cfef2,
komplek housing,komplek housing,Isen Mulang.,"VVH6+76F, Jl. Mufakat, Kuala Kurun, Kec. Kurun, Kabupaten Gunung MAS, Kalimantan Tengah 74571","Jl. Mufakat, Kuala Kurun, Kec. Kurun, Kabupaten Gunung MAS",KALIMANTAN TENGAH,74571.0,Indonesia,,,,-1.1218042,113.8605542,https://maps.google.com/?cid=0x0:0x276dcbabe36d1148,
komplek housing,Perhimpunan Pengembang Perumahan,Perumahan Pemda,"Jl. Ais Nasution No.I, Tampang Tumbang Anjir, Kec. Kurun, Kabupaten Gunung MAS, Kalimantan Tengah 74571","Tampang Tumbang Anjir, Kec. Kurun, Kabupaten Gunung MAS",KALIMANTAN TENGAH,74571.0,Indonesia,,,,-1.1235985,113.8574133,https://maps.google.com/?cid=0x0:0xbf27b5a57fd0e316,
komplek housing,komplek housing,House Hrs,"VVWC+643, Tampang Tumbang Anjir, Kec. Kurun, Kabupaten Gunung MAS, Kalimantan Tengah","Kabupaten Gunung MAS, Kalimantan Tengah",KALIMANTAN TENGAH,,Indonesia,,,,-1.1045254,113.8702607,https://maps.google.com/?cid=0x0:0xdc3aca3beda9c333,
komplek housing,Komplek perumahan,Rumah Tuah,"XP2C+5FX, Jl.sekata Gg.Malang IV, Tewah, Kec. Tewah, Kabupaten Gunung MAS, Kalimantan Tengah","Kabupaten Gunung MAS, Kalimantan Tengah",KALIMANTAN TENGAH,,Indonesia,,,,-1.0495046,113.7212207,https://maps.google.com/?cid=0x0:0xd9223af3bceb91e7,
komplek housing,Perhimpunan Pengembang Perumahan,Rumah micko,"QV6X+3FX, Hurung Bunut, Kec. Kurun, Kabupaten Gunung MAS, Kalimantan Tengah 74571","Hurung Bunut, Kec. Kurun, Kabupaten Gunung MAS",KALIMANTAN TENGAH,74571.0,Indonesia,,,,-1.2397971,113.8994532,https://maps.google.com/?cid=0x0:0x1ccb9dfddbfeae9a,
komplek housing,Pembangunan Perumahan,Rumah BP.Bika,"VVV8+M56, Jl. Karya Jl. Karya II, Kuala Kurun, Kec. Kurun, Kabupaten Gunung MAS, Kalimantan Tengah 74571","Jl. Karya Jl. Karya II, Kuala Kurun, Kec. Kurun, Kabupaten Gunung MAS",KALIMANTAN TENGAH,74571.0,Indonesia,,,,-1.1063798,113.865084,https://maps.google.com/?cid=0x0:0x7b2b8e76ffe0ea66,
komplek housing,Komplek perumahan,Rumah Bp. Tati,"WPQF+WR, Tewah, Kec. Tewah, Kabupaten Gunung MAS, Kalimantan Tengah 74511","Tewah, Kec. Tewah, Kabupaten Gunung MAS",KALIMANTAN TENGAH,74511.0,Indonesia,,,,-1.0601936,113.7242464,https://maps.google.com/?cid=0x0:0x50146f970d362516,
komplek housing,Komplek perumahan,rumah dilla,"VR9X+WR, Tampang Tumbang Anjir, Kec. Kurun, Kabupaten Gunung MAS, Kalimantan Tengah 74571","Tampang Tumbang Anjir, Kec. Kurun, Kabupaten Gunung MAS",KALIMANTAN TENGAH,74571.0,Indonesia,,,,-1.1306001,113.8482627,https://maps.google.com/?cid=0x0:0xc13ab2aed166d6ba,
komplek housing,Komplek perumahan,Rumah dr.Theresia Singah,"VVC5+FMW, Jl. Letjen S. Parman, Tampang Tumbang Anjir, Kec. Kurun, Kabupaten Gunung MAS, Kalimantan Tengah 74571","Jl. Letjen S. Parman, Tampang Tumbang Anjir, Kec. Kurun, Kabupaten Gunung MAS",KALIMANTAN TENGAH,74571.0,Indonesia,,,,-1.1287621,113.8591951,https://maps.google.com/?cid=0x0:0x56dc683a56ac5642,
komplek housing,Pembangunan Perumahan,WARUNG HIJAU,"VRWR+245, Jl. Tjilik Riwut, Kuala Kurun, Kec. Kurun, Kabupaten Gunung MAS, Kalimantan Tengah 74571","Jl. Tjilik Riwut, Kuala Kurun, Kec. Kurun, Kabupaten Gunung MAS",KALIMANTAN TENGAH,74571.0,Indonesia,,,,-1.1049929,113.8403535,https://maps.google.com/?cid=0x0:0xb7f168fd2405ae59,
komplek housing,Komplek perumahan,Fika,"WVPV+7M3, Kuala Kurun, Kec. Kurun, Kabupaten Gunung MAS, Kalimantan Tengah","Kabupaten Gunung MAS, Kalimantan Tengah",KALIMANTAN TENGAH,,Indonesia,,,,-1.0643521,113.8941657,https://maps.google.com/?cid=0x0:0x107c528c1c2c266f,
komplek housing,komplek housing,Rumah kurun,"Jl. A. Runting No.26, Kuala Kurun, Kec. Kurun, Kabupaten Gunung MAS, Kalimantan Tengah 74571","Kuala Kurun, Kec. Kurun, Kabupaten Gunung MAS",KALIMANTAN TENGAH,74571.0,Indonesia,,,,-1.1019353,113.8611808,https://maps.google.com/?cid=0x0:0x341e68847891f5d2,
komplek housing,Komplek perumahan,Rumah lia,"QV5X+P8J, Hurung Bunut, Kec. Kurun, Kabupaten Gunung MAS, Kalimantan Tengah 74571","Hurung Bunut, Kec. Kurun, Kabupaten Gunung MAS",KALIMANTAN TENGAH,74571.0,Indonesia,,,,-1.2411548,113.8982738,https://maps.google.com/?cid=0x0:0x607416942ace9af5,
komplek housing,Komplek perumahan,RANO ESNI Home,"Jl. Suka Maju, Kuala Kurun, Kec. Kurun, Kabupaten Gunung MAS, Kalimantan Tengah 74571","Kuala Kurun, Kec. Kurun, Kabupaten Gunung MAS",KALIMANTAN TENGAH,74571.0,Indonesia,,,,-1.1076131,113.8671593,https://maps.google.com/?cid=0x0:0x75aa6de22651885b,
komplek housing,Komplek perumahan,Rumah Bp. Itut,"WV46+9WH, Kuala Kurun, Kec. Kurun, Kabupaten Gunung MAS, Kalimantan Tengah 74571","Kuala Kurun, Kec. Kurun, Kabupaten Gunung MAS",KALIMANTAN TENGAH,74571.0,Indonesia,,,,-1.0944397,113.8621749,https://maps.google.com/?cid=0x0:0x96557048e99d45b2,
komplek housing,Komplek perumahan,"Rumah Marliansyah T. Garang, ( Bp Dedi )","VV3W+R7X, Petak Bahandang, Kec. Kurun, Kabupaten Gunung MAS, Kalimantan Tengah 74571","Petak Bahandang, Kec. Kurun, Kabupaten Gunung MAS",KALIMANTAN TENGAH,74571.0,Indonesia,,,,-1.1453834,113.895742,https://maps.google.com/?cid=0x0:0x36a02ae7ccaf67be,
komplek housing,Komplek perumahan,Huma indu Langkis,"Jl. Damang Sawang, Tampang Tumbang Anjir, Kec. Kurun, Kabupaten Gunung MAS, Kalimantan Tengah 74571","Tampang Tumbang Anjir, Kec. Kurun, Kabupaten Gunung MAS",KALIMANTAN TENGAH,74571.0,Indonesia,,,,-1.1189056,113.8731066,https://maps.google.com/?cid=0x0:0x1ca5d68c92eeb8c8,
komplek housing,Komplek perumahan,RUMAH SITER MANGKIN,"WQPV+FX, Sarerangan, Kec. Tewah, Kabupaten Gunung MAS, Kalimantan Tengah","Kabupaten Gunung MAS, Kalimantan Tengah",KALIMANTAN TENGAH,,Indonesia,,,,-1.0635505,113.7949434,https://maps.google.com/?cid=0x0:0xb0da1b2d47c43845,
komplek housing,komplek housing,Kec. Mihing Raya,"Kabupaten Gunung MAS, Kalimantan Tengah","Kabupaten Gunung MAS, Kalimantan Tengah",KALIMANTAN TENGAH,,Indonesia,,,,-1.3558512,113.920671,https://maps.google.com/?cid=0x0:0x6b2843b0571d330f,
komplek housing,Komplek perumahan,Rumah kato,"PVWQ+872, Tumbang Tariak, Kec. Kurun, Kabupaten Gunung MAS, Kalimantan Tengah 74571","Tumbang Tariak, Kec. Kurun, Kabupaten Gunung MAS",KALIMANTAN TENGAH,74571.0,Indonesia,,,,-1.2534636,113.8881917,https://maps.google.com/?cid=0x0:0x2fa08b7668dc1c4e,
komplek housing,Komplek perumahan,Rumah adit,"PVWQ+872, Tumbang Hakau, Kec. Kurun, Kabupaten Gunung MAS, Kalimantan Tengah 74571","Tumbang Hakau, Kec. Kurun, Kabupaten Gunung MAS",KALIMANTAN TENGAH,74571.0,Indonesia,,,,-1.2545506,113.8872921,https://maps.google.com/?cid=0x0:0x5670ec5cc21d35de,
komplek housing,Komplek perumahan,Rumah Dewi Sartika,"QVMC+CFV, Tumbang Miwan, Kec. Kurun, Kabupaten Gunung MAS, Kalimantan Tengah 74571","Tumbang Miwan, Kec. Kurun, Kabupaten Gunung MAS",KALIMANTAN TENGAH,74571.0,Indonesia,,,,-1.216644,113.8712926,https://maps.google.com/?cid=0x0:0x5470c44b603c8e9d,
komplek housing,Komplek perumahan,Rumah bp bardo,"QVMC+2QH, Tumbang Miwan, Kec. Kurun, Kabupaten Gunung MAS, Kalimantan Tengah 74571","Tumbang Miwan, Kec. Kurun, Kabupaten Gunung MAS",KALIMANTAN TENGAH,74571.0,Indonesia,,,,-1.2174375,113.8719844,https://maps.google.com/?cid=0x0:0xb910e820d81aa886,
komplek housing,Kantor Perusahaan,Desa Tumbang Miwan,"QVJF+W87, Jl. Tumbang Miwan, Kuala Kurun, Kec. Kurun, Kabupaten Gunung MAS, Kalimantan Tengah 74571","Jl. Tumbang Miwan, Kuala Kurun, Kec. Kurun, Kabupaten Gunung MAS",KALIMANTAN TENGAH,74571.0,Indonesia,,,,-1.2177139,113.8732958,https://maps.google.com/?cid=0x0:0xa6a077e31da70966,
komplek housing,Komplek perumahan,Pena,"QVPC+M3J, Jl. Desa Tumbang Miwan, Tumbang Miwan, Kec. Kurun, Kabupaten Gunung MAS, Kalimantan Tengah 74571","Jl. Desa Tumbang Miwan, Tumbang Miwan, Kec. Kurun, Kabupaten Gunung MAS",KALIMANTAN TENGAH,74571.0,Indonesia,,,,-1.2132762,113.8701446,https://maps.google.com/?cid=0x0:0xa602b7a0fe973617,
komplek housing,Komplek perumahan,RUMAH,"VV2W+PQ6, Jl. Palangka Raya - Kuala Kurun, Petak Bahandang, Kec. Kurun, Kabupaten Gunung MAS, Kalimantan Tengah 74571","Jl. Palangka Raya - Kuala Kurun, Petak Bahandang, Kec. Kurun, Kabupaten Gunung MAS",KALIMANTAN TENGAH,74571.0,Indonesia,,,,-1.148236,113.896825,https://maps.google.com/?cid=0x0:0x932d4e49f7bbf335,
komplek housing,komplek housing,Kalimantan Tengah 74553,"Kabupaten Gunung MAS, Kalimantan Tengah","Kabupaten Gunung MAS, Kalimantan Tengah",KALIMANTAN TENGAH,,Indonesia,,,,-0.5866559,113.429984,https://maps.google.com/?cid=0x0:0x7f9e14ce7cf9d71f,
komplek housing,Komplek perumahan,Tumbang Masukih,"9MV7+PPM, Tumbang Masukih, Miri Manasa, Kabupaten Gunung MAS, Kalimantan Tengah 74581","Tumbang Masukih, Miri Manasa, Kabupaten Gunung MAS",KALIMANTAN TENGAH,74581.0,Indonesia,,,,-0.605658,113.6642983,https://maps.google.com/?cid=0x0:0x46b6f7856a84b504,
komplek housing,Komplek perumahan,Tumbang Manyoi,"9MF2+V3, Rangan Hiran, Miri Manasa, Kabupaten Gunung MAS, Kalimantan Tengah 74552","Rangan Hiran, Miri Manasa, Kabupaten Gunung MAS",KALIMANTAN TENGAH,74552.0,Indonesia,,,,-0.6252246,113.6502459,https://maps.google.com/?cid=0x0:0x696645276794c242,
komplek housing,Komplek perumahan,Dukuh Sukon,"985Q+F8, Tumbang Mahuroi, Damang Batu, Kabupaten Gunung MAS, Kalimantan Tengah","Kabupaten Gunung MAS, Kalimantan Tengah",KALIMANTAN TENGAH,,Indonesia,,,,-0.6412756,113.3382671,https://maps.google.com/?cid=0x0:0xd39c24ce3b4575e5,
komplek housing,Komplek perumahan,Tumbang mahuroi,"F8JM+XVX, Tumbang Mahuroi, Damang Batu, Kabupaten Gunung MAS, Kalimantan Tengah","Kabupaten Gunung MAS, Kalimantan Tengah",KALIMANTAN TENGAH,,Indonesia,,,,-0.5175121,113.3347215,https://maps.google.com/?cid=0x0:0xd72c20efc2ac897c,
komplek housing,Komplek perumahan,Tumbang Napoi,"Tumbang Napoi, Miri Manasa, Kabupaten Gunung MAS, Kalimantan Tengah","Kabupaten Gunung MAS, Kalimantan Tengah",KALIMANTAN TENGAH,,Indonesia,,,,-0.7049375,113.5921875,https://maps.google.com/?cid=0x0:0x4b68102202997960,
komplek housing,komplek housing,Miri Manasa,"Kabupaten Gunung MAS, Kalimantan Tengah","Kabupaten Gunung MAS, Kalimantan Tengah",KALIMANTAN TENGAH,,Indonesia,,,,-0.5858075,113.6204644,https://maps.google.com/?cid=0x0:0x9f8a09c1f677910f,
komplek housing,Komplek perumahan,H. Murjani,"3HG3+78M, Jln. H. Bahrun, RT.004/RW.001, Tumbang Miri, Kec. Kahayan Hulu Utara, Kabupaten Gunung MAS, Kalimantan Tengah","Kabupaten Gunung MAS, Kalimantan Tengah",KALIMANTAN TENGAH,,Indonesia,,,,-0.9242953,113.5532855,https://maps.google.com/?cid=0x0:0x7c9fd1807660079,
komplek housing,Pembangunan Perumahan,Rumah Bp. Ersa (Mitra),"39VC+X33, Lawang Kanji, Damang Batu, Kabupaten Gunung MAS, Kalimantan Tengah 74561","Lawang Kanji, Damang Batu, Kabupaten Gunung MAS",KALIMANTAN TENGAH,74561.0,Indonesia,,,,-0.9047969,113.3702823,https://maps.google.com/?cid=0x0:0xfefc01d48b3ac601,
komplek housing,Komplek perumahan,MY HOME,"3FW4+V26, Tumbang Marikoi, Damang Batu, Kabupaten Gunung MAS, Kalimantan Tengah 74561","Tumbang Marikoi, Damang Batu, Kabupaten Gunung MAS",KALIMANTAN TENGAH,74561.0,Indonesia,,,,-0.9015538,113.4560365,https://maps.google.com/?cid=0x0:0x6d6f19efe94db15e,
komplek housing,Komplek perumahan,Rumah Rencau,"4F25+5QC, Tumbang Marikoi, Damang Batu, Kabupaten Gunung MAS, Kalimantan Tengah","Kabupaten Gunung MAS, Kalimantan Tengah",KALIMANTAN TENGAH,,Indonesia,,,,-0.8995821,113.4593085,https://maps.google.com/?cid=0x0:0x3e2f9db3ef19af2f,
komplek housing,Komplek perumahan,BAIWAN FF,"3FX5+MGX, Tumbang Marikoi, Damang Batu, Kabupaten Gunung MAS, Kalimantan Tengah","Kabupaten Gunung MAS, Kalimantan Tengah",KALIMANTAN TENGAH,,Indonesia,,,,-0.9007674,113.4588499,https://maps.google.com/?cid=0x0:0x9b2ccd16b3f20d0b,
komplek housing,Komplek perumahan,RUMAH MADIE,"3FW4+0,9047780, 113, RW.3840480, Tumbang Maraya, Damang Batu, Kabupaten Gunung MAS, Kalimantan Tengah 74561","113, RW.3840480, Tumbang Maraya, Damang Batu, Kabupaten Gunung MAS",KALIMANTAN TENGAH,74561.0,Indonesia,,,,-0.9047744,113.3839579,https://maps.google.com/?cid=0x0:0x439a925daeefaf46,
komplek housing,komplek housing,Kalimantan Tengah 74561,"Kabupaten Gunung MAS, Kalimantan Tengah","Kabupaten Gunung MAS, Kalimantan Tengah",KALIMANTAN TENGAH,,Indonesia,,,,-1.0753907,113.6204644,https://maps.google.com/?cid=0x0:0xe38f858eb863f7d4,
komplek housing,Pembangunan Perumahan,Debry,"XFH8+P89, Sei Antai, Kec. Rungan Hulu, Kabupaten Gunung MAS, Kalimantan Tengah 74561","Sei Antai, Kec. Rungan Hulu, Kabupaten Gunung MAS",KALIMANTAN TENGAH,74561.0,Indonesia,,,,-1.0207213,113.4658712,https://maps.google.com/?cid=0x0:0x5528b1bb1009c9eb,
komplek housing,Pembangunan Perumahan,Kabupaten gunung mas,"PHXF+445, Linau, Kec. Rungan, Kabupaten Gunung MAS, Kalimantan Tengah","Kabupaten Gunung MAS, Kalimantan Tengah",KALIMANTAN TENGAH,,Indonesia,,,,-1.2522464,113.5728501,https://maps.google.com/?cid=0x0:0x15164b7b50cba2ce,
komplek housing,komplek housing,Rumah Aldolin,"HJ2W+PV, Talangkah, Kec. Rungan, Kabupaten Gunung MAS, Kalimantan Tengah","Kabupaten Gunung MAS, Kalimantan Tengah",KALIMANTAN TENGAH,,Indonesia,,,,-1.448245,113.6471272,https://maps.google.com/?cid=0x0:0x57b2f07ea29ee203,
komplek housing,Komplek perumahan,Arum,"XPG9+36, Tewah, Kec. Tewah, Kabupaten Gunung MAS, Kalimantan Tengah","Kabupaten Gunung MAS, Kalimantan Tengah",KALIMANTAN TENGAH,,Indonesia,,,,-1.0247511,113.7180094,https://maps.google.com/?cid=0x0:0x1456ce8c1b2f595e,
komplek housing,Komplek perumahan,Rumah Akifa,"PH5F+62P, Jakatan Raya, Kec. Rungan, Kabupaten Gunung MAS, Kalimantan Tengah 74562","Jakatan Raya, Kec. Rungan, Kabupaten Gunung MAS",KALIMANTAN TENGAH,74562.0,Indonesia,,,,-1.291921,113.5725862,https://maps.google.com/?cid=0x0:0xd22e84b5724cb686,
komplek housing,Komplek perumahan,Batu nyiwuh,"2J35+FCR, Batu Nyiwuh, Kec. Tewah, Kabupaten Gunung MAS, Kalimantan Tengah 74561","Batu Nyiwuh, Kec. Tewah, Kabupaten Gunung MAS",KALIMANTAN TENGAH,74561.0,Indonesia,,,,-0.996257,113.6085288,https://maps.google.com/?cid=0x0:0x6d7cfc8e36aa283b,
komplek housing,Perusahaan Konstruksi,Perumahan staff KAP 1,"3CQ8+36, Tumbang Posu, Damang Batu, Kabupaten Gunung MAS, Kalimantan Tengah","Kabupaten Gunung MAS, Kalimantan Tengah",KALIMANTAN TENGAH,,Indonesia,,,,-0.9122679,113.4155914,https://maps.google.com/?cid=0x0:0xb74f93d01c233e61,
komplek housing,Komplek perumahan,Kambayau area,"PH8F+QC3, Jl. Cilik Riwut, Jakatan Raya, Kec. Rungan, Kabupaten Gunung MAS, Kalimantan Tengah 74562","Jl. Cilik Riwut, Jakatan Raya, Kec. Rungan, Kabupaten Gunung MAS",KALIMANTAN TENGAH,74562.0,Indonesia,,,,-1.2831067,113.57356,https://maps.google.com/?cid=0x0:0xbaf47cc5cfe4951e,
komplek housing,Komplek perumahan,Rumah Pribadi,"PH83+JXX, Jakatan Raya, Kec. Rungan, Kabupaten Gunung MAS, Kalimantan Tengah 74562","Jakatan Raya, Kec. Rungan, Kabupaten Gunung MAS",KALIMANTAN TENGAH,74562.0,Indonesia,,,,-1.2833856,113.5549937,https://maps.google.com/?cid=0x0:0x2811385036f4e233,
komplek housing,Rumah Kayu,Hantapang,"XG9P+5V, Hantapang, Kec. Rungan Hulu, Kabupaten Gunung MAS, Kalimantan Tengah","Kabupaten Gunung MAS, Kalimantan Tengah",KALIMANTAN TENGAH,,Indonesia,,,,-1.0319784,113.5374489,https://maps.google.com/?cid=0x0:0xff93c766f006e679,
komplek housing,Perhimpunan Pengembang Perumahan,"Desa Tumbang Jutuh, Kuluk Guhung","PHC7+4F, Tumbang Jutuh, Kec. Rungan, Kabupaten Gunung MAS, Kalimantan Tengah","Kabupaten Gunung MAS, Kalimantan Tengah",KALIMANTAN TENGAH,,Indonesia,,,,-1.2796694,113.5637192,https://maps.google.com/?cid=0x0:0x4fca3bf7e4fdd752,
komplek housing,Komplek perumahan,Rumah Tuah,"XP2C+5FX, Jl.sekata Gg.Malang IV, Tewah, Kec. Tewah, Kabupaten Gunung MAS, Kalimantan Tengah","Kabupaten Gunung MAS, Kalimantan Tengah",KALIMANTAN TENGAH,,Indonesia,,,,-1.0495046,113.7212207,https://maps.google.com/?cid=0x0:0xd9223af3bceb91e7,
komplek housing,komplek housing,BASECAMP EHN SOUND SISTEM,"PH5F+62P, Jakatan Raya, Kec. Rungan, Kabupaten Gunung MAS, Kalimantan Tengah 74562","Jakatan Raya, Kec. Rungan, Kabupaten Gunung MAS",KALIMANTAN TENGAH,74562.0,Indonesia,,,,-1.2925786,113.5724286,https://maps.google.com/?cid=0x0:0x11d5ca4995a986b7,
komplek housing,Komplek perumahan,RUMAH MADIE,"3FW4+0,9047780, 113, RW.3840480, Tumbang Maraya, Damang Batu, Kabupaten Gunung MAS, Kalimantan Tengah 74561","113, RW.3840480, Tumbang Maraya, Damang Batu, Kabupaten Gunung MAS",KALIMANTAN TENGAH,74561.0,Indonesia,,,,-0.9047744,113.3839579,https://maps.google.com/?cid=0x0:0x439a925daeefaf46,
komplek housing,Komplek perumahan,MY HOME,"3FW4+V26, Tumbang Marikoi, Damang Batu, Kabupaten Gunung MAS, Kalimantan Tengah 74561","Tumbang Marikoi, Damang Batu, Kabupaten Gunung MAS",KALIMANTAN TENGAH,74561.0,Indonesia,,,,-0.9015538,113.4560365,https://maps.google.com/?cid=0x0:0x6d6f19efe94db15e,
komplek housing,Perumahan,Sepriadie,"PH97+8HV, Jl. Cilik Riwut, Jakatan Raya, Kec. Rungan, Kabupaten Gunung MAS, Kalimantan Tengah 74562","Jl. Cilik Riwut, Jakatan Raya, Kec. Rungan, Kabupaten Gunung MAS",KALIMANTAN TENGAH,74562.0,Indonesia,,,,-1.2816446,113.5639192,https://maps.google.com/?cid=0x0:0xde2bccac18d75732,
komplek housing,Pembangunan Perumahan,Desa Tumbang Bahanei,"WFJ8+V78, Tumbang Bahanei, Kec. Rungan Barat, Kabupaten Gunung MAS, Kalimantan Tengah 74561","Tumbang Bahanei, Kec. Rungan Barat, Kabupaten Gunung MAS",KALIMANTAN TENGAH,74561.0,Indonesia,,,,-1.0678476,113.4657037,https://maps.google.com/?cid=0x0:0xf587cf3fe7f3f496,
komplek housing,komplek housing,Kec. Rungan,"Kabupaten Gunung MAS, Kalimantan Tengah","Kabupaten Gunung MAS, Kalimantan Tengah",KALIMANTAN TENGAH,,Indonesia,,,,-1.4290036,113.6204644,https://maps.google.com/?cid=0x0:0x3a4dc1370fe934c3,
komplek housing,komplek housing,Kec. Rungan Barat,"Kabupaten Gunung MAS, Kalimantan Tengah","Kabupaten Gunung MAS, Kalimantan Tengah",KALIMANTAN TENGAH,,Indonesia,,,,-1.2648058,113.4266094,https://maps.google.com/?cid=0x0:0x96d1b4f9516d2214,
komplek housing,Komplek perumahan,HARDINATHA,"MHJ5+C7, Luwuk Ktr., Kec. Rungan, Kabupaten Gunung MAS, Kalimantan Tengah","Kabupaten Gunung MAS, Kalimantan Tengah",KALIMANTAN TENGAH,,Indonesia,,,,-1.3189091,113.5581831,https://maps.google.com/?cid=0x0:0x3573805558c38c21,
komplek housing,Kantor Pemerintah,SEKRETARIAT PPK KECAMATAN RUNGAN BARAT,"QF74+55, Rabambang, Kec. Rungan Barat, Kabupaten Gunung MAS, Kalimantan Tengah","Kabupaten Gunung MAS, Kalimantan Tengah",KALIMANTAN TENGAH,,Indonesia,82153532562.0,,,-1.2346074,113.4551863,https://maps.google.com/?cid=0x0:0x56d6fe8fad391341,
komplek housing,Pembangunan Perumahan,Debry,"XFH8+P89, Sei Antai, Kec. Rungan Hulu, Kabupaten Gunung MAS, Kalimantan Tengah 74561","Sei Antai, Kec. Rungan Hulu, Kabupaten Gunung MAS",KALIMANTAN TENGAH,74561.0,Indonesia,,,,-1.0207213,113.4658712,https://maps.google.com/?cid=0x0:0x5528b1bb1009c9eb,
komplek housing,Komplek perumahan,Rumah Pribadi,"PH83+JXX, Jakatan Raya, Kec. Rungan, Kabupaten Gunung MAS, Kalimantan Tengah 74562","Jakatan Raya, Kec. Rungan, Kabupaten Gunung MAS",KALIMANTAN TENGAH,74562.0,Indonesia,,,,-1.2833856,113.5549937,https://maps.google.com/?cid=0x0:0x2811385036f4e233,
komplek housing,Kompleks Kondominium,Rumah Roni,"PCPG+MH, Jalemu Raya, Kec. Rungan Barat, Kabupaten Gunung MAS, Kalimantan Tengah","Kabupaten Gunung MAS, Kalimantan Tengah",KALIMANTAN TENGAH,,Indonesia,,,,-1.2632945,113.426491,https://maps.google.com/?cid=0x0:0x4d0b1923a412921,
komplek housing,komplek housing,BASECAMP EHN SOUND SISTEM,"PH5F+62P, Jakatan Raya, Kec. Rungan, Kabupaten Gunung MAS, Kalimantan Tengah 74562","Jakatan Raya, Kec. Rungan, Kabupaten Gunung MAS",KALIMANTAN TENGAH,74562.0,Indonesia,,,,-1.2925786,113.5724286,https://maps.google.com/?cid=0x0:0x11d5ca4995a986b7,
komplek housing,Komplek perumahan,Rumah Akifa,"PH5F+62P, Jakatan Raya, Kec. Rungan, Kabupaten Gunung MAS, Kalimantan Tengah 74562","Jakatan Raya, Kec. Rungan, Kabupaten Gunung MAS",KALIMANTAN TENGAH,74562.0,Indonesia,,,,-1.291921,113.5725862,https://maps.google.com/?cid=0x0:0xd22e84b5724cb686,
komplek housing,Komplek perumahan,Pondok 1 jalemo,"PF28+X7P, Jalan negara, Hujung Pata, Kec. Rungan Barat, Kabupaten Gunung MAS, Kalimantan Tengah 74562","Jalan negara, Hujung Pata, Kec. Rungan Barat, Kabupaten Gunung MAS",KALIMANTAN TENGAH,74562.0,Indonesia,,,,-1.2975448,113.4657037,https://maps.google.com/?cid=0x0:0xff740efe01da064d,
komplek housing,Pembangunan Perumahan,Hujung Pata,"PF28+X7P, jalan pelajar, Hujung Pata, Kec. Rungan Barat, Kabupaten Gunung MAS, Kalimantan Tengah 74562","jalan pelajar, Hujung Pata, Kec. Rungan Barat, Kabupaten Gunung MAS",KALIMANTAN TENGAH,74562.0,Indonesia,,,,-1.2975448,113.4657037,https://maps.google.com/?cid=0x0:0xb5b0183199ff614e,
komplek housing,Komplek perumahan,Kambayau area,"PH8F+QC3, Jl. Cilik Riwut, Jakatan Raya, Kec. Rungan, Kabupaten Gunung MAS, Kalimantan Tengah 74562","Jl. Cilik Riwut, Jakatan Raya, Kec. Rungan, Kabupaten Gunung MAS",KALIMANTAN TENGAH,74562.0,Indonesia,,,,-1.2831067,113.57356,https://maps.google.com/?cid=0x0:0xbaf47cc5cfe4951e,
komplek housing,Perumahan,Sepriadie,"PH97+8HV, Jl. Cilik Riwut, Jakatan Raya, Kec. Rungan, Kabupaten Gunung MAS, Kalimantan Tengah 74562","Jl. Cilik Riwut, Jakatan Raya, Kec. Rungan, Kabupaten Gunung MAS",KALIMANTAN TENGAH,74562.0,Indonesia,,,,-1.2816446,113.5639192,https://maps.google.com/?cid=0x0:0xde2bccac18d75732,
komplek housing,komplek housing,Rumah Dinas SD Negeri Masulan,"PFPJ+MRM, Jalemu Masulan, Kec. Rungan Barat, Kabupaten Gunung MAS, Kalimantan Tengah 74562","Jalemu Masulan, Kec. Rungan Barat, Kabupaten Gunung MAS",KALIMANTAN TENGAH,74562.0,Indonesia,,,,-1.2632915,113.4820583,https://maps.google.com/?cid=0x0:0xbc0bdc011a367dfe,
komplek housing,Pembangunan Perumahan,Kabupaten gunung mas,"PHXF+445, Linau, Kec. Rungan, Kabupaten Gunung MAS, Kalimantan Tengah","Kabupaten Gunung MAS, Kalimantan Tengah",KALIMANTAN TENGAH,,Indonesia,,,,-1.2522464,113.5728501,https://maps.google.com/?cid=0x0:0x15164b7b50cba2ce,
komplek housing,Perhimpunan Pengembang Perumahan,"Desa Tumbang Jutuh, Kuluk Guhung","PHC7+4F, Tumbang Jutuh, Kec. Rungan, Kabupaten Gunung MAS, Kalimantan Tengah","Kabupaten Gunung MAS, Kalimantan Tengah",KALIMANTAN TENGAH,,Indonesia,,,,-1.2796694,113.5637192,https://maps.google.com/?cid=0x0:0x4fca3bf7e4fdd752,
komplek housing,Rumah Kayu,Hantapang,"XG9P+5V, Hantapang, Kec. Rungan Hulu, Kabupaten Gunung MAS, Kalimantan Tengah","Kabupaten Gunung MAS, Kalimantan Tengah",KALIMANTAN TENGAH,,Indonesia,,,,-1.0319784,113.5374489,https://maps.google.com/?cid=0x0:0xff93c766f006e679,
komplek housing,Pembangunan Perumahan,Desa Tumbang Bahanei,"WFJ8+V78, Tumbang Bahanei, Kec. Rungan Barat, Kabupaten Gunung MAS, Kalimantan Tengah 74561","Tumbang Bahanei, Kec. Rungan Barat, Kabupaten Gunung MAS",KALIMANTAN TENGAH,74561.0,Indonesia,,,,-1.0678476,113.4657037,https://maps.google.com/?cid=0x0:0xf587cf3fe7f3f496,
komplek housing,komplek housing,Kec. Rungan Barat,"Kabupaten Gunung MAS, Kalimantan Tengah","Kabupaten Gunung MAS, Kalimantan Tengah",KALIMANTAN TENGAH,,Indonesia,,,,-1.2648058,113.4266094,https://maps.google.com/?cid=0x0:0x96d1b4f9516d2214,
komplek housing,Komplek perumahan,HARDINATHA,"MHJ5+C7, Luwuk Ktr., Kec. Rungan, Kabupaten Gunung MAS, Kalimantan Tengah","Kabupaten Gunung MAS, Kalimantan Tengah",KALIMANTAN TENGAH,,Indonesia,,,,-1.3189091,113.5581831,https://maps.google.com/?cid=0x0:0x3573805558c38c21,
komplek housing,Kantor Pemerintah,SEKRETARIAT PPK KECAMATAN RUNGAN BARAT,"QF74+55, Rabambang, Kec. Rungan Barat, Kabupaten Gunung MAS, Kalimantan Tengah","Kabupaten Gunung MAS, Kalimantan Tengah",KALIMANTAN TENGAH,,Indonesia,82153532562.0,,,-1.2346074,113.4551863,https://maps.google.com/?cid=0x0:0x56d6fe8fad391341,
komplek housing,Pembangunan Perumahan,Hujung Pata,"PF28+X7P, jalan pelajar, Hujung Pata, Kec. Rungan Barat, Kabupaten Gunung MAS, Kalimantan Tengah 74562","jalan pelajar, Hujung Pata, Kec. Rungan Barat, Kabupaten Gunung MAS",KALIMANTAN TENGAH,74562.0,Indonesia,,,,-1.2975448,113.4657037,https://maps.google.com/?cid=0x0:0xb5b0183199ff614e,
komplek housing,Komplek perumahan,Rumah Akifa,"PH5F+62P, Jakatan Raya, Kec. Rungan, Kabupaten Gunung MAS, Kalimantan Tengah 74562","Jakatan Raya, Kec. Rungan, Kabupaten Gunung MAS",KALIMANTAN TENGAH,74562.0,Indonesia,,,,-1.291921,113.5725862,https://maps.google.com/?cid=0x0:0xd22e84b5724cb686,
komplek housing,Komplek perumahan,Rumah Pribadi,"PH83+JXX, Jakatan Raya, Kec. Rungan, Kabupaten Gunung MAS, Kalimantan Tengah 74562","Jakatan Raya, Kec. Rungan, Kabupaten Gunung MAS",KALIMANTAN TENGAH,74562.0,Indonesia,,,,-1.2833856,113.5549937,https://maps.google.com/?cid=0x0:0x2811385036f4e233,
komplek housing,Komplek perumahan,Kambayau area,"PH8F+QC3, Jl. Cilik Riwut, Jakatan Raya, Kec. Rungan, Kabupaten Gunung MAS, Kalimantan Tengah 74562","Jl. Cilik Riwut, Jakatan Raya, Kec. Rungan, Kabupaten Gunung MAS",KALIMANTAN TENGAH,74562.0,Indonesia,,,,-1.2831067,113.57356,https://maps.google.com/?cid=0x0:0xbaf47cc5cfe4951e,
komplek housing,komplek housing,Rumah Dinas SD Negeri Masulan,,,KALIMANTAN TENGAH,,Indonesia,,,,-1.2632915,113.4820583,https://maps.google.com/?cid=0x0:0xbc0bdc011a367dfe,
komplek housing,komplek housing,Pondok 1 jalemo,"PF28+X7P, Jalan negara, Hujung Pata, Kec. Rungan Barat, Kabupaten Gunung MAS, Kalimantan Tengah 74562","Jalan negara, Hujung Pata, Kec. Rungan Barat, Kabupaten Gunung MAS",KALIMANTAN TENGAH,74562.0,Indonesia,,,,-1.2975448,113.4657037,https://maps.google.com/?cid=0x0:0xff740efe01da064d,
komplek housing,komplek housing,BASECAMP EHN SOUND SISTEM,"PH5F+62P, Jakatan Raya, Kec. Rungan, Kabupaten Gunung MAS, Kalimantan Tengah 74562","Jakatan Raya, Kec. Rungan, Kabupaten Gunung MAS",KALIMANTAN TENGAH,74562.0,Indonesia,,,,-1.2925786,113.5724286,https://maps.google.com/?cid=0x0:0x11d5ca4995a986b7,
komplek housing,Perumahan,Sepriadie,"PH97+8HV, Jl. Cilik Riwut, Jakatan Raya, Kec. Rungan, Kabupaten Gunung MAS, Kalimantan Tengah 74562","Jl. Cilik Riwut, Jakatan Raya, Kec. Rungan, Kabupaten Gunung MAS",KALIMANTAN TENGAH,74562.0,Indonesia,,,,-1.2816446,113.5639192,https://maps.google.com/?cid=0x0:0xde2bccac18d75732,
komplek housing,Komplek perumahan,JLME Pondok 1,"JFWF+W8, Tumbang Kajuei, Kec. Rungan, Kabupaten Gunung MAS, Kalimantan Tengah","Kabupaten Gunung MAS, Kalimantan Tengah",KALIMANTAN TENGAH,,Indonesia,,,,-1.3526875,113.4733125,https://maps.google.com/?cid=0x0:0x6bd39339589ef78b,
komplek housing,Perhimpunan Pengembang Perumahan,"Desa Tumbang Jutuh, Kuluk Guhung","PHC7+4F, Tumbang Jutuh, Kec. Rungan, Kabupaten Gunung MAS, Kalimantan Tengah","Kabupaten Gunung MAS, Kalimantan Tengah",KALIMANTAN TENGAH,,Indonesia,,,,-1.2796694,113.5637192,https://maps.google.com/?cid=0x0:0x4fca3bf7e4fdd752,
komplek housing,Rumah Kayu,Hantapang,"XG9P+5V, Hantapang, Kec. Rungan Hulu, Kabupaten Gunung MAS, Kalimantan Tengah","Kabupaten Gunung MAS, Kalimantan Tengah",KALIMANTAN TENGAH,,Indonesia,,,,-1.0319784,113.5374489,https://maps.google.com/?cid=0x0:0xff93c766f006e679,
komplek housing,Perhimpunan Pengembang Perumahan,Rmh guhung rawai,"PH97+8HV, Jl. Cilik Riwut, Jakatan Raya, Kec. Rungan, Kabupaten Gunung MAS, Kalimantan Tengah 74562","Jl. Cilik Riwut, Jakatan Raya, Kec. Rungan, Kabupaten Gunung MAS",KALIMANTAN TENGAH,74562.0,Indonesia,,,,-1.2816446,113.5639185,https://maps.google.com/?cid=0x0:0x1419645a1b0bda45,
komplek housing,komplek housing,Kec. Rungan Hulu,"Kabupaten Gunung MAS, Kalimantan Tengah","Kabupaten Gunung MAS, Kalimantan Tengah",KALIMANTAN TENGAH,,Indonesia,,,,-1.0312568,113.4736811,https://maps.google.com/?cid=0x0:0x83eaf2f915027506,
komplek housing,Pembangunan Perumahan,Debry,"XFH8+P89, Sei Antai, Kec. Rungan Hulu, Kabupaten Gunung MAS, Kalimantan Tengah 74561","Sei Antai, Kec. Rungan Hulu, Kabupaten Gunung MAS",KALIMANTAN TENGAH,74561.0,Indonesia,,,,-1.0207213,113.4658712,https://maps.google.com/?cid=0x0:0x5528b1bb1009c9eb,
komplek housing,Pembangunan Perumahan,Kabupaten gunung mas,"PHXF+445, Linau, Kec. Rungan, Kabupaten Gunung MAS, Kalimantan Tengah","Kabupaten Gunung MAS, Kalimantan Tengah",KALIMANTAN TENGAH,,Indonesia,,,,-1.2522464,113.5728501,https://maps.google.com/?cid=0x0:0x15164b7b50cba2ce,
komplek housing,Pembangunan Perumahan,Desa Tumbang Bahanei,"WFJ8+V78, Tumbang Bahanei, Kec. Rungan Barat, Kabupaten Gunung MAS, Kalimantan Tengah 74561","Tumbang Bahanei, Kec. Rungan Barat, Kabupaten Gunung MAS",KALIMANTAN TENGAH,74561.0,Indonesia,,,,-1.0678476,113.4657037,https://maps.google.com/?cid=0x0:0xf587cf3fe7f3f496,
komplek housing,Kantor Perusahaan,Sepang mountain residence,"Sepang, Kec. Taktakan, Kota Serang, Banten 42162","Kec. Taktakan, Kota Serang",KALIMANTAN TENGAH,42162.0,Indonesia,254207785.0,,,-6.1425879,106.1343536,https://maps.google.com/?cid=0x0:0x78ef85efe4f46eed,
komplek housing,Pembangunan Perumahan,Kantor Pemasaran Sepang Mountain Residence,"Jl. Lingkar Selatan, Serang, Kec. Serang, Kota Serang, Banten 42116","Serang, Kec. Serang, Kota Serang",KALIMANTAN TENGAH,42116.0,Indonesia,254207785.0,,,-6.1261514,106.1393113,https://maps.google.com/?cid=0x0:0x94038a39425d4a41,
komplek housing,Toko Kue,Cake in Jar by Pandoe,"Blk. I2 No.6, Sepang, Kec. Taktakan, Kota Serang, Banten 42162","Sepang, Kec. Taktakan, Kota Serang",KALIMANTAN TENGAH,42162.0,Indonesia,82234636461.0,,,-6.1422421,106.1349872,https://maps.google.com/?cid=0x0:0x71f041f8c3f16905,
komplek housing,komplek housing,Kalimantan Tengah 74552,Kalimantan Tengah,Kalimantan Tengah,KALIMANTAN TENGAH,,Indonesia,,,,-0.7250328,113.6204644,https://maps.google.com/?cid=0x0:0xb94d62208c0f5814,
komplek housing,Komplek perumahan,Tumbang Manyoi,"9MF2+V3, Rangan Hiran, Miri Manasa, Kabupaten Gunung MAS, Kalimantan Tengah 74552","Rangan Hiran, Miri Manasa, Kabupaten Gunung MAS",KALIMANTAN TENGAH,74552.0,Indonesia,,,,-0.6252246,113.6502459,https://maps.google.com/?cid=0x0:0x696645276794c242,
komplek housing,Komplek perumahan,Tumbang Masukih,"9MV7+PPM, Tumbang Masukih, Miri Manasa, Kabupaten Gunung MAS, Kalimantan Tengah 74581","Tumbang Masukih, Miri Manasa, Kabupaten Gunung MAS",KALIMANTAN TENGAH,74581.0,Indonesia,,,,-0.605658,113.6642983,https://maps.google.com/?cid=0x0:0x46b6f7856a84b504,
komplek housing,Pembangunan Perumahan,Desa karason,"4M32+W39, Karason, Kec. Tewah, Kabupaten Gunung MAS, Kalimantan Tengah","Kabupaten Gunung MAS, Kalimantan Tengah",KALIMANTAN TENGAH,,Indonesia,,,,-0.8952204,113.6502213,https://maps.google.com/?cid=0x0:0xd4405fbd4c5f9e3d,
komplek housing,Kantor Pemerintah,Desa Harowu,"CMQV+H3, Harowu, Miri Manasa, Kabupaten Gunung MAS, Kalimantan Tengah","Kabupaten Gunung MAS, Kalimantan Tengah",KALIMANTAN TENGAH,,Indonesia,,,,-0.561042,113.692731,https://maps.google.com/?cid=0x0:0x1a8c8d075e030ff6,
komplek housing,komplek housing,Kec. Tewah,"Kabupaten Gunung MAS, Kalimantan Tengah","Kabupaten Gunung MAS, Kalimantan Tengah",KALIMANTAN TENGAH,,Indonesia,,,,-1.0495046,113.7212207,https://maps.google.com/?cid=0x0:0x957b01e921372b79,
perumahan,perumahan,Kalimantan Tengah 74553,"Kabupaten Gunung MAS, Kalimantan Tengah","Kabupaten Gunung MAS, Kalimantan Tengah",KALIMANTAN TENGAH,,Indonesia,,,,-0.5866559,113.429984,https://maps.google.com/?cid=0x0:0x7f9e14ce7cf9d71f,
perumahan,Komplek perumahan,Dukuh Sukon,"985Q+F8, Tumbang Mahuroi, Damang Batu, Kabupaten Gunung MAS, Kalimantan Tengah","Kabupaten Gunung MAS, Kalimantan Tengah",KALIMANTAN TENGAH,,Indonesia,,,,-0.6412756,113.3382671,https://maps.google.com/?cid=0x0:0xd39c24ce3b4575e5,
perumahan,Komplek perumahan,Tumbang mahuroi,"F8JM+XVX, Tumbang Mahuroi, Damang Batu, Kabupaten Gunung MAS, Kalimantan Tengah","Kabupaten Gunung MAS, Kalimantan Tengah",KALIMANTAN TENGAH,,Indonesia,,,,-0.5175121,113.3347215,https://maps.google.com/?cid=0x0:0xd72c20efc2ac897c,
perumahan,Komplek perumahan,RUMAH MADIE,"3FW4+0,9047780, 113, RW.3840480, Tumbang Maraya, Damang Batu, Kabupaten Gunung MAS, Kalimantan Tengah 74561","113, RW.3840480, Tumbang Maraya, Damang Batu, Kabupaten Gunung MAS",KALIMANTAN TENGAH,74561.0,Indonesia,,,,-0.9047744,113.3839579,https://maps.google.com/?cid=0x0:0x439a925daeefaf46,
perumahan,Pembangunan Perumahan,Rumah Bp. Ersa (Mitra),"39VC+X33, Lawang Kanji, Damang Batu, Kabupaten Gunung MAS, Kalimantan Tengah 74561","Lawang Kanji, Damang Batu, Kabupaten Gunung MAS",KALIMANTAN TENGAH,74561.0,Indonesia,,,,-0.9047969,113.3702823,https://maps.google.com/?cid=0x0:0xfefc01d48b3ac601,
perumahan,Pembangunan Perumahan,Bapa resa,"684P+HG4, Karetau Sarian, Damang Batu, Kabupaten Gunung MAS, Kalimantan Tengah","Kabupaten Gunung MAS, Kalimantan Tengah",KALIMANTAN TENGAH,,Indonesia,,,,-0.7936077,113.3363349,https://maps.google.com/?cid=0x0:0xbdffc16630031f61,
perumahan,Komplek perumahan,Rumah Rencau,"4F25+5QC, Tumbang Marikoi, Damang Batu, Kabupaten Gunung MAS, Kalimantan Tengah","Kabupaten Gunung MAS, Kalimantan Tengah",KALIMANTAN TENGAH,,Indonesia,,,,-0.8995821,113.4593085,https://maps.google.com/?cid=0x0:0x3e2f9db3ef19af2f,
perumahan,Pembangunan Perumahan,Peri Penyebrangan,"682P+5W4, Karetau Sarian, Damang Batu, Kabupaten Gunung MAS, Kalimantan Tengah","Kabupaten Gunung MAS, Kalimantan Tengah",KALIMANTAN TENGAH,,Indonesia,,,,-0.7996143,113.3373193,https://maps.google.com/?cid=0x0:0x58df2ffad81b6270,
perumahan,Perusahaan Konstruksi,Perumahan staff KAP 1,"3CQ8+36, Tumbang Posu, Damang Batu, Kabupaten Gunung MAS, Kalimantan Tengah","Kabupaten Gunung MAS, Kalimantan Tengah",KALIMANTAN TENGAH,,Indonesia,,,,-0.9122679,113.4155914,https://maps.google.com/?cid=0x0:0xb74f93d01c233e61,
perumahan,Komplek perumahan,Tumbang Masukih,"9MV7+PPM, Tumbang Masukih, Miri Manasa, Kabupaten Gunung MAS, Kalimantan Tengah 74581","Tumbang Masukih, Miri Manasa, Kabupaten Gunung MAS",KALIMANTAN TENGAH,74581.0,Indonesia,,,,-0.605658,113.6642983,https://maps.google.com/?cid=0x0:0x46b6f7856a84b504,
perumahan,Komplek perumahan,BAIWAN FF,"3FX5+MGX, Tumbang Marikoi, Damang Batu, Kabupaten Gunung MAS, Kalimantan Tengah","Kabupaten Gunung MAS, Kalimantan Tengah",KALIMANTAN TENGAH,,Indonesia,,,,-0.9007674,113.4588499,https://maps.google.com/?cid=0x0:0x9b2ccd16b3f20d0b,
perumahan,Komplek perumahan,Tumbang Manyoi,"9MF2+V3, Rangan Hiran, Miri Manasa, Kabupaten Gunung MAS, Kalimantan Tengah 74552","Rangan Hiran, Miri Manasa, Kabupaten Gunung MAS",KALIMANTAN TENGAH,74552.0,Indonesia,,,,-0.6252246,113.6502459,https://maps.google.com/?cid=0x0:0x696645276794c242,
perumahan,Komplek perumahan,Rumah Ebarto (Bp.Pini),"4F25+XM8, Tumbang Marikoi, Damang Batu, Kabupaten Gunung MAS, Kalimantan Tengah 74561","Tumbang Marikoi, Damang Batu, Kabupaten Gunung MAS",KALIMANTAN TENGAH,74561.0,Indonesia,,,,-0.8971007,113.459583,https://maps.google.com/?cid=0x0:0x6ca78ccb47535ec8,
perumahan,perumahan,Damang Batu,"Kabupaten Gunung MAS, Kalimantan Tengah","Kabupaten Gunung MAS, Kalimantan Tengah",KALIMANTAN TENGAH,,Indonesia,,,,-0.7618419,113.287085,https://maps.google.com/?cid=0x0:0x3a6f57c94c68bb82,
perumahan,Komplek perumahan,MY HOME,"3FW4+V26, Tumbang Marikoi, Damang Batu, Kabupaten Gunung MAS, Kalimantan Tengah 74561","Tumbang Marikoi, Damang Batu, Kabupaten Gunung MAS",KALIMANTAN TENGAH,74561.0,Indonesia,,,,-0.9015538,113.4560365,https://maps.google.com/?cid=0x0:0x6d6f19efe94db15e,
perumahan,perumahan,Kec. Kahayan Hulu Utara,"Kabupaten Gunung MAS, Kalimantan Tengah","Kabupaten Gunung MAS, Kalimantan Tengah",KALIMANTAN TENGAH,,Indonesia,,,,-0.9242953,113.5532855,https://maps.google.com/?cid=0x0:0x47258147014c232a,
perumahan,Komplek perumahan,Navari ivandi,"3GJQ+QF7, Dandang, Kec. Kahayan Hulu Utara, Kabupaten Gunung MAS, Kalimantan Tengah 74561","Dandang, Kec. Kahayan Hulu Utara, Kabupaten Gunung MAS",KALIMANTAN TENGAH,74561.0,Indonesia,,,,-0.9180949,113.5386724,https://maps.google.com/?cid=0x0:0x91b25f79a3fcaf6d,
perumahan,Komplek perumahan,H. Murjani,"3HG3+78M, Jln. H. Bahrun, RT.004/RW.001, Tumbang Miri, Kec. Kahayan Hulu Utara, Kabupaten Gunung MAS, Kalimantan Tengah","Kabupaten Gunung MAS, Kalimantan Tengah",KALIMANTAN TENGAH,,Indonesia,,,,-0.9242953,113.5532855,https://maps.google.com/?cid=0x0:0x7c9fd1807660079,
perumahan,Komplek perumahan,Batu nyiwuh,"2J35+FCR, Batu Nyiwuh, Kec. Tewah, Kabupaten Gunung MAS, Kalimantan Tengah 74561","Batu Nyiwuh, Kec. Tewah, Kabupaten Gunung MAS",KALIMANTAN TENGAH,74561.0,Indonesia,,,,-0.996257,113.6085288,https://maps.google.com/?cid=0x0:0x6d7cfc8e36aa283b,
perumahan,Kantor Perusahaan,Pos telemetri tbg miri,"3G6V+36P, Tumbang Miri, Kec. Kahayan Hulu Utara, Kabupaten Gunung MAS, Kalimantan Tengah","Kabupaten Gunung MAS, Kalimantan Tengah",KALIMANTAN TENGAH,,Indonesia,,,,-0.9397929,113.5430891,https://maps.google.com/?cid=0x0:0x7cdb319616e9d313,
perumahan,Komplek perumahan,Rumah Rencau,"4F25+5QC, Tumbang Marikoi, Damang Batu, Kabupaten Gunung MAS, Kalimantan Tengah","Kabupaten Gunung MAS, Kalimantan Tengah",KALIMANTAN TENGAH,,Indonesia,,,,-0.8995821,113.4593085,https://maps.google.com/?cid=0x0:0x3e2f9db3ef19af2f,
perumahan,Komplek perumahan,Desa Sei Riang,"3JW3+72H, Sei Riang, Kec. Tewah, Kabupaten Gunung MAS, Kalimantan Tengah 74561","Sei Riang, Kec. Tewah, Kabupaten Gunung MAS",KALIMANTAN TENGAH,74561.0,Indonesia,,,,-0.904306,113.6026095,https://maps.google.com/?cid=0x0:0xb7f7cf14aeb70fe4,
perumahan,Rumah Kayu,Hantapang,"XG9P+5V, Hantapang, Kec. Rungan Hulu, Kabupaten Gunung MAS, Kalimantan Tengah","Kabupaten Gunung MAS, Kalimantan Tengah",KALIMANTAN TENGAH,,Indonesia,,,,-1.0319784,113.5374489,https://maps.google.com/?cid=0x0:0xff93c766f006e679,
perumahan,Pembangunan Perumahan,Desa karason,"4M32+W39, Karason, Kec. Tewah, Kabupaten Gunung MAS, Kalimantan Tengah","Kabupaten Gunung MAS, Kalimantan Tengah",KALIMANTAN TENGAH,,Indonesia,,,,-0.8952204,113.6502213,https://maps.google.com/?cid=0x0:0xd4405fbd4c5f9e3d,
perumahan,Komplek perumahan,Rumah Ebarto (Bp.Pini),"4F25+XM8, Tumbang Marikoi, Damang Batu, Kabupaten Gunung MAS, Kalimantan Tengah 74561","Tumbang Marikoi, Damang Batu, Kabupaten Gunung MAS",KALIMANTAN TENGAH,74561.0,Indonesia,,,,-0.8971007,113.459583,https://maps.google.com/?cid=0x0:0x6ca78ccb47535ec8,
perumahan,Pembangunan Perumahan,Tumbang tuwe,"X9MV+QP6, Tumbang Tuwe, Kec. Rungan Hulu, Kabupaten Gunung MAS, Kalimantan Tengah","Kabupaten Gunung MAS, Kalimantan Tengah",KALIMANTAN TENGAH,,Indonesia,,,,-1.0155834,113.3942699,https://maps.google.com/?cid=0x0:0xb9119026c3623511,
perumahan,Komplek perumahan,BAIWAN FF,"3FX5+MGX, Tumbang Marikoi, Damang Batu, Kabupaten Gunung MAS, Kalimantan Tengah","Kabupaten Gunung MAS, Kalimantan Tengah",KALIMANTAN TENGAH,,Indonesia,,,,-0.9007674,113.4588499,https://maps.google.com/?cid=0x0:0x9b2ccd16b3f20d0b,
perumahan,Rumah Sakit,Puskesmas Tumbang Miri UGD 24 Jam,"3HM2+V43, Tumbang Miri, Kec. Kahayan Hulu Utara, Kabupaten Gunung MAS, Kalimantan Tengah 74561","Tumbang Miri, Kec. Kahayan Hulu Utara, Kabupaten Gunung MAS",KALIMANTAN TENGAH,74561.0,Indonesia,,,,-0.9153524,113.5502856,https://maps.google.com/?cid=0x0:0xac33d7e339a7d99a,
perumahan,Pembangunan Perumahan,Pondok Aguslimin,"JL. MANJUHAN, Tewah, Kec. Tewah, Kabupaten Gunung MAS, Kalimantan Tengah 74552","Tewah, Kec. Tewah, Kabupaten Gunung MAS",KALIMANTAN TENGAH,74552.0,Indonesia,85393629759.0,,,-1.0503394,113.716909,https://maps.google.com/?cid=0x0:0x41970f1dc5bf0935,
perumahan,Komplek perumahan,Tumbang Napoi,"Tumbang Napoi, Miri Manasa, Kabupaten Gunung MAS, Kalimantan Tengah","Kabupaten Gunung MAS, Kalimantan Tengah",KALIMANTAN TENGAH,,Indonesia,,,,-0.7049375,113.5921875,https://maps.google.com/?cid=0x0:0x4b68102202997960,
perumahan,Pembangunan Perumahan,Debry,"XFH8+P89, Sei Antai, Kec. Rungan Hulu, Kabupaten Gunung MAS, Kalimantan Tengah 74561","Sei Antai, Kec. Rungan Hulu, Kabupaten Gunung MAS",KALIMANTAN TENGAH,74561.0,Indonesia,,,,-1.0207213,113.4658712,https://maps.google.com/?cid=0x0:0x5528b1bb1009c9eb,
perumahan,Komplek perumahan,MY HOME,"3FW4+V26, Tumbang Marikoi, Damang Batu, Kabupaten Gunung MAS, Kalimantan Tengah 74561","Tumbang Marikoi, Damang Batu, Kabupaten Gunung MAS",KALIMANTAN TENGAH,74561.0,Indonesia,,,,-0.9015538,113.4560365,https://maps.google.com/?cid=0x0:0x6d6f19efe94db15e,
perumahan,Pembangunan Perumahan,Desa Sandung Tambun,"3JQW+H3, Taja Urap, Kec. Tewah, Kabupaten Gunung MAS, Kalimantan Tengah 74561","Taja Urap, Kec. Tewah, Kabupaten Gunung MAS",KALIMANTAN TENGAH,74561.0,Indonesia,,,,-0.9110755,113.6452459,https://maps.google.com/?cid=0x0:0x606a81e208957f60,
perumahan,Perusahaan Konstruksi,Perumahan staff KAP 1,"3CQ8+36, Tumbang Posu, Damang Batu, Kabupaten Gunung MAS, Kalimantan Tengah","Kabupaten Gunung MAS, Kalimantan Tengah",KALIMANTAN TENGAH,,Indonesia,,,,-0.9122679,113.4155914,https://maps.google.com/?cid=0x0:0xb74f93d01c233e61,
perumahan,Komplek perumahan,Rumah Tuah,"XP2C+5FX, Jl.sekata Gg.Malang IV, Tewah, Kec. Tewah, Kabupaten Gunung MAS, Kalimantan Tengah","Kabupaten Gunung MAS, Kalimantan Tengah",KALIMANTAN TENGAH,,Indonesia,,,,-1.0495046,113.7212207,https://maps.google.com/?cid=0x0:0xd9223af3bceb91e7,
perumahan,Pusat Perbelanjaan,Toko Miri marajaki 03,"3HM2+FG8, Jl.singa dese, Tumbang Miri, Kec. Kahayan Hulu Utara, Kabupaten Gunung MAS, Kalimantan Tengah 74561","Jl.singa dese, Tumbang Miri, Kec. Kahayan Hulu Utara, Kabupaten Gunung MAS",KALIMANTAN TENGAH,74561.0,Indonesia,,,,-0.9163913,113.5513756,https://maps.google.com/?cid=0x0:0x3b269aa9991097e4,
perumahan,perumahan,Kalimantan Tengah 74511,Kalimantan Tengah,Kalimantan Tengah,KALIMANTAN TENGAH,,Indonesia,,,,-0.898161,113.8584737,https://maps.google.com/?cid=0x0:0x88373fa35beec461,
perumahan,perumahan,,,,KALIMANTAN TENGAH,,Indonesia,85772116263.0,,,-2.44565,117.8888,https://maps.google.com/?cid=0x0:0x69124757d5c0efb7,
perumahan,Komplek perumahan,RUMAH GANTHI E SINGAM,"VVR5+3R6, Jl. Pierre Tendean, Kuala Kurun, Kec. Kurun, Kabupaten Gunung MAS, Kalimantan Tengah 74511","Jl. Pierre Tendean, Kuala Kurun, Kec. Kurun, Kabupaten Gunung MAS",KALIMANTAN TENGAH,74511.0,Indonesia,,,,-1.1104358,113.8607175,https://maps.google.com/?cid=0x0:0x8552e11c135e69fe,
perumahan,perumahan,,,,KALIMANTAN TENGAH,,Indonesia,87762627989.0,,,-2.44565,117.8888,https://maps.google.com/?cid=0x0:0xa1139052c861451b,
perumahan,perumahan,,,,KALIMANTAN TENGAH,,Indonesia,,,,-2.44565,117.8888,https://maps.google.com/?cid=0x0:0xffeb91760efceaf6,
perumahan,perumahan,Perumahan Bukit Tentrem Triwidadi,,,KALIMANTAN TENGAH,,Indonesia,8112538338.0,,,-2.44565,117.8888,https://maps.google.com/?cid=0x0:0xede996d62aecd86b,
perumahan,perumahan,,,,KALIMANTAN TENGAH,,Indonesia,8125783989.0,,,-2.44565,117.8888,https://maps.google.com/?cid=0x0:0xcde24388f07f7540,
perumahan,perumahan,,,,KALIMANTAN TENGAH,,Indonesia,82176774046.0,,,-2.44565,117.8888,https://maps.google.com/?cid=0x0:0x5f8dab627b19ade5,
perumahan,perumahan,Ko. Guntung Paring Indah Permai 2,,,KALIMANTAN TENGAH,,Indonesia,5115911349.0,,,-2.44565,117.8888,https://maps.google.com/?cid=0x0:0x7f36d7c37343bc5b,
perumahan,Perhimpunan Pengembang Perumahan,Bekasi perumahan,"Sei Pinang, Mandau Talawang, Kabupaten Kapuas, Kalimantan Tengah","Kabupaten Kapuas, Kalimantan Tengah",KALIMANTAN TENGAH,,Indonesia,,,,-0.789275,113.921327,https://maps.google.com/?cid=0x0:0xb651ba9b0d29f998,
perumahan,Perhimpunan Pengembang Perumahan,Rumoh D. Nathuah,,,KALIMANTAN TENGAH,,Indonesia,82219420266.0,,,-2.44565,117.8888,https://maps.google.com/?cid=0x0:0x15ed6affe9f9880,
perumahan,perumahan,Batu Permata Residence,,,KALIMANTAN TENGAH,,Indonesia,81389548122.0,,,-2.44565,117.8888,https://maps.google.com/?cid=0x0:0xc2059170122e891e,
perumahan,Komplek perumahan,Perumahan cimanggu city bogor,"6W6C+99X, Sei Pinang, Mandau Talawang, Kabupaten Kapuas, Kalimantan Tengah 74511","Sei Pinang, Mandau Talawang, Kabupaten Kapuas",KALIMANTAN TENGAH,74511.0,Indonesia,87770126583.0,,,-0.789,113.921,https://maps.google.com/?cid=0x0:0x37d26c71d939832c,
perumahan,Komplek perumahan,Rumah krw,"6W6C+7GP, Sei Pinang, Mandau Talawang, Kabupaten Kapuas, Kalimantan Tengah","Kabupaten Kapuas, Kalimantan Tengah",KALIMANTAN TENGAH,,Indonesia,,,,-0.789275,113.921327,https://maps.google.com/?cid=0x0:0xe0884429c57c2250,
perumahan,Komplek perumahan,RUMAH RIFQI,"6W6C+7GP, Sei Pinang, Mandau Talawang, Kabupaten Kapuas, Kalimantan Tengah 74511","Sei Pinang, Mandau Talawang, Kabupaten Kapuas",KALIMANTAN TENGAH,74511.0,Indonesia,,,,-0.789275,113.921327,https://maps.google.com/?cid=0x0:0x582c6edab91a758e,
perumahan,perumahan,RUMAH PAK JAMAL,,,KALIMANTAN TENGAH,,Indonesia,82244839134.0,,,-2.44565,117.8888,https://maps.google.com/?cid=0x0:0x3e36dff55ccc4b6f,
perumahan,Komplek perumahan,Dusun Siraman Mlopoharjo wuryantoro wonogiri,"6W6C+99, Sei Pinang, Mandau Talawang, Kabupaten Kapuas, Kalimantan Tengah 74511","Sei Pinang, Mandau Talawang, Kabupaten Kapuas",KALIMANTAN TENGAH,74511.0,Indonesia,85765790024.0,,,-0.789,113.921,https://maps.google.com/?cid=0x0:0x83d57bd9705a95c2,
perumahan,Pembangunan Perumahan,Muayah,"6W6C+8FG, Sei Pinang, Mandau Talawang, Kabupaten Kapuas, Kalimantan Tengah 74511","Sei Pinang, Mandau Talawang, Kabupaten Kapuas",KALIMANTAN TENGAH,74511.0,Indonesia,,,,-0.7891943,113.9212161,https://maps.google.com/?cid=0x0:0x6ee4f08827a5859a,
perumahan,Perumahan,Perumahan Cikembar Permai,,,KALIMANTAN TENGAH,,Indonesia,85210376725.0,,,-6.9370139,106.9173099,https://maps.google.com/?cid=0x0:0xc2633b91ddcfaa05,
perumahan,perumahan,Gcv..Blok T Dan S,,,KALIMANTAN TENGAH,,Indonesia,83830566292.0,,,-2.44565,117.8888,https://maps.google.com/?cid=0x0:0xeefe1a0b633472be,
perumahan,Perhimpunan Pengembang Perumahan,Piare tandean 3C,"Piare tandean 3C, KAB. GUNUNG MAS, KURUN, KALIMANTAN TENGAH, ID, 74511, Kuala Kurun, Kabupaten Gunung MAS, Kalimantan Tengah 74571","KAB. GUNUNG MAS, KURUN, KALIMANTAN TENGAH, ID,",KALIMANTAN TENGAH,74511.0,Indonesia,,,,-1.1130829,113.8534537,https://maps.google.com/?cid=0x0:0xca627319b666ecd3,
perumahan,Pembangunan Perumahan,Rumah pak pit,"Jl. Pangeran Diponegoro, Kuala, Kec. Kurun, Kabupaten Gunung MAS, Kalimantan Tengah 74511","Kuala, Kec. Kurun, Kabupaten Gunung MAS",KALIMANTAN TENGAH,74511.0,Indonesia,,,,-1.1276056,113.8539393,https://maps.google.com/?cid=0x0:0xabb4d716c42c001d,
perumahan,Komplek perumahan,Rumah zaki bin mail,"6W6C+7GP, Sei Pinang, Mandau Talawang, Kabupaten Kapuas, Kalimantan Tengah 74511","Sei Pinang, Mandau Talawang, Kabupaten Kapuas",KALIMANTAN TENGAH,74511.0,Indonesia,,,,-0.789275,113.921327,https://maps.google.com/?cid=0x0:0x7716ad8317360b76,
perumahan,Komplek perumahan,Kuala kurun,"WV36+6PC, Jl. Yos Sudarso, Kuala Kurun, Kec. Kurun, Kabupaten Gunung MAS, Kalimantan Tengah 74571","Jl. Yos Sudarso, Kuala Kurun, Kec. Kurun, Kabupaten Gunung MAS",KALIMANTAN TENGAH,74571.0,Indonesia,,,,-1.0969342,113.8617761,https://maps.google.com/?cid=0x0:0xbf2a189e4905bc21,
perumahan,Pembangunan Perumahan,Kota Kuala Kurun,"VVX8+9H6, Kuala Kurun, Kec. Kurun, Kabupaten Gunung MAS, Kalimantan Tengah","Kabupaten Gunung MAS, Kalimantan Tengah",KALIMANTAN TENGAH,,Indonesia,,,,-1.1015984,113.8663817,https://maps.google.com/?cid=0x0:0xe405f0f767c5fdaf,
perumahan,Pembangunan Perumahan,Kuala Kurun,"VVW8+4V4, Jl. Sabirin Muhtar, Kuala Kurun, Kec. Kurun, Kabupaten Gunung MAS, Kalimantan Tengah 74571","Jl. Sabirin Muhtar, Kuala Kurun, Kec. Kurun, Kabupaten Gunung MAS",KALIMANTAN TENGAH,74571.0,Indonesia,,,,-1.1047459,113.8671886,https://maps.google.com/?cid=0x0:0xc5d290678103fdb5,
perumahan,perumahan,Rumah kurun,"Jl. A. Runting No.26, Kuala Kurun, Kec. Kurun, Kabupaten Gunung MAS, Kalimantan Tengah 74571","Kuala Kurun, Kec. Kurun, Kabupaten Gunung MAS",KALIMANTAN TENGAH,74571.0,Indonesia,,,,-1.1019353,113.8611808,https://maps.google.com/?cid=0x0:0x341e68847891f5d2,
perumahan,Komplek perumahan,Rumah Warga,"WV46+FV6, Kuala Kurun, Kec. Kurun, Kabupaten Gunung MAS, Kalimantan Tengah","Kabupaten Gunung MAS, Kalimantan Tengah",KALIMANTAN TENGAH,,Indonesia,,,,-1.093838,113.86213,https://maps.google.com/?cid=0x0:0x49603c86fc41cfcc,
perumahan,Komplek perumahan,Rumah Yono (bp. Klose),"Jl. A. Runting No.63, RT.11, Kuala Kurun, Kec. Kurun, Kabupaten Gunung MAS, Kalimantan Tengah 74571","RT.11, Kuala Kurun, Kec. Kurun, Kabupaten Gunung MAS",KALIMANTAN TENGAH,74571.0,Indonesia,,,,-1.1032321,113.8597864,https://maps.google.com/?cid=0x0:0x591278aa4074f311,
perumahan,perumahan,Kalimantan Tengah 74562,"Kabupaten Gunung MAS, Kalimantan Tengah","Kabupaten Gunung MAS, Kalimantan Tengah",KALIMANTAN TENGAH,,Indonesia,,,,-1.3240171,113.4776098,https://maps.google.com/?cid=0x0:0x59a162add95738c2,
perumahan,Perumahan,Mulyanto dicki,"H94X+2WH, Belawan Mulya, Kec. Manuhing, Kabupaten Gunung MAS, Kalimantan Tengah 74562","Belawan Mulya, Kec. Manuhing, Kabupaten Gunung MAS",KALIMANTAN TENGAH,74562.0,Indonesia,,,,-1.4449459,113.3998496,https://maps.google.com/?cid=0x0:0x6c3775589c4c46e3,
perumahan,Komplek perumahan,TANGIN,"H94X+9P3, Belawan Mulya, Kec. Manuhing, Kabupaten Gunung MAS, Kalimantan Tengah 74562","Belawan Mulya, Kec. Manuhing, Kabupaten Gunung MAS",KALIMANTAN TENGAH,74562.0,Indonesia,,,,-1.444106,113.3993018,https://maps.google.com/?cid=0x0:0xe0967b3d22a3f8f4,
perumahan,perumahan,Tehang,"W836+Q9C, Tehang, Kec. Manuhing Raya, Kabupaten Gunung MAS, Kalimantan Tengah 74562","Tehang, Kec. Manuhing Raya, Kabupaten Gunung MAS",KALIMANTAN TENGAH,74562.0,Indonesia,,,,-1.0955601,113.3109037,https://maps.google.com/?cid=0x0:0x5980d86b68e12fa0,
perumahan,Perumahan,Untung,"HC44+VW, Belawan Mulya, Kec. Manuhing, Kabupaten Gunung MAS, Kalimantan Tengah 74562","Belawan Mulya, Kec. Manuhing, Kabupaten Gunung MAS",KALIMANTAN TENGAH,74562.0,Indonesia,,,,-1.4430633,113.4076136,https://maps.google.com/?cid=0x0:0x1a48a376fe0fdec3,
perumahan,Komplek perumahan,Agus tulus,"H94X+FP6, Belawan Mulya, Kec. Manuhing, Kabupaten Gunung MAS, Kalimantan Tengah 74562","Belawan Mulya, Kec. Manuhing, Kabupaten Gunung MAS",KALIMANTAN TENGAH,74562.0,Indonesia,,,,-1.4438493,113.3992605,https://maps.google.com/?cid=0x0:0x4a5caefe656dc720,
perumahan,Komplek perumahan,Gus.Rohmat,"H94X+RQR, Belawan Mulya, Kec. Manuhing, Kabupaten Gunung MAS, Kalimantan Tengah 74562","Belawan Mulya, Kec. Manuhing, Kabupaten Gunung MAS",KALIMANTAN TENGAH,74562.0,Indonesia,,,,-1.4428793,113.3993799,https://maps.google.com/?cid=0x0:0xa5d29a0eac119147,
perumahan,Komplek perumahan,Rumah,"RT.03/RW.01, Belawan Mulya, Kec. Manuhing, Kabupaten Gunung MAS, Kalimantan Tengah 74562","Belawan Mulya, Kec. Manuhing, Kabupaten Gunung MAS",KALIMANTAN TENGAH,74562.0,Indonesia,82250915055.0,,,-1.4456915,113.4035629,https://maps.google.com/?cid=0x0:0xdd03f872d0fdd457,
perumahan,Komplek perumahan,AbDian Jalur V,"HC54+VJF, Belawan Mulya, Kec. Manuhing, Kabupaten Gunung MAS, Kalimantan Tengah 74562","Belawan Mulya, Kec. Manuhing, Kabupaten Gunung MAS",KALIMANTAN TENGAH,74562.0,Indonesia,,,,-1.4403082,113.4065444,https://maps.google.com/?cid=0x0:0xf2c5d03781c10065,
perumahan,Komplek perumahan,Rumah Bue Cello,"J9XJ+457, Tumbang Talaken, Kec. Manuhing, Kabupaten Gunung MAS, Kalimantan Tengah 74562","Tumbang Talaken, Kec. Manuhing, Kabupaten Gunung MAS",KALIMANTAN TENGAH,74562.0,Indonesia,,,,-1.3516825,113.3798645,https://maps.google.com/?cid=0x0:0x3c49d123b31619c0,
perumahan,Komplek perumahan,Afdeling 5,"FF95+FQP, Bereng Jun, Kec. Manuhing, Kabupaten Gunung MAS, Kalimantan Tengah","Kabupaten Gunung MAS, Kalimantan Tengah",KALIMANTAN TENGAH,,Indonesia,,,,-1.5312876,113.4594553,https://maps.google.com/?cid=0x0:0x7fd11312deec6183,
perumahan,Komplek perumahan,Rumah Tambi Cello,"Q8Q7+JPH, Luwuk Tukau, Kec. Manuhing Raya, Kabupaten Gunung MAS, Kalimantan Tengah 74562","Luwuk Tukau, Kec. Manuhing Raya, Kabupaten Gunung MAS",KALIMANTAN TENGAH,74562.0,Indonesia,,,,-1.2109302,113.3143649,https://maps.google.com/?cid=0x0:0xbe9c8832ebc204d4,
perumahan,Komplek perumahan,TUMIN KALIMANTAN,"H94X+6Q2, Belawan Mulya, Kec. Manuhing, Kabupaten Gunung MAS, Kalimantan Tengah 74562","Belawan Mulya, Kec. Manuhing, Kabupaten Gunung MAS",KALIMANTAN TENGAH,74562.0,Indonesia,,,,-1.4444974,113.3993986,https://maps.google.com/?cid=0x0:0x4f9705e9a3ff713d,
perumahan,Pembangunan Perumahan,Kabupaten gunung mas,"PHXF+445, Linau, Kec. Rungan, Kabupaten Gunung MAS, Kalimantan Tengah","Kabupaten Gunung MAS, Kalimantan Tengah",KALIMANTAN TENGAH,,Indonesia,,,,-1.2522464,113.5728501,https://maps.google.com/?cid=0x0:0x15164b7b50cba2ce,
perumahan,perumahan,M.Nur Hermanto,"H92F+2MJ, Bangun Sari, Kec. Manuhing, Kabupaten Gunung MAS, Kalimantan Tengah 74562","Bangun Sari, Kec. Manuhing, Kabupaten Gunung MAS",KALIMANTAN TENGAH,74562.0,Indonesia,,,,-1.4499141,113.374149,https://maps.google.com/?cid=0x0:0xc9f1e4f5b65ba693,
perumahan,Komplek perumahan,Dusun Bumi harjo,"G989+MX, Bereng Jun, Kec. Manuhing, Kabupaten Gunung MAS, Kalimantan Tengah","Kabupaten Gunung MAS, Kalimantan Tengah",KALIMANTAN TENGAH,,Indonesia,,,,-1.4832853,113.3699296,https://maps.google.com/?cid=0x0:0x7759cd65a6172357,
perumahan,Perhimpunan Pengembang Perumahan,Hendra Yogie,"J9WH+VX, Tumbang Talaken, Kec. Manuhing, Kabupaten Gunung MAS, Kalimantan Tengah 74562","Tumbang Talaken, Kec. Manuhing, Kabupaten Gunung MAS",KALIMANTAN TENGAH,74562.0,Indonesia,,,,-1.352871,113.379926,https://maps.google.com/?cid=0x0:0x2a66a9d16c12aaab,
perumahan,Perumahan,Mungin aja,"H93X+GWX, Fajar Harapan, Kec. Manuhing, Kabupaten Gunung MAS, Kalimantan Tengah 74562","Fajar Harapan, Kec. Manuhing, Kabupaten Gunung MAS",KALIMANTAN TENGAH,74562.0,Indonesia,,,,-1.4461321,113.3998667,https://maps.google.com/?cid=0x0:0x91d7aef7b23c93ce,
perumahan,Komplek perumahan,Babilu,"J9WH+79J, Tumbang Talaken, Kec. Manuhing, Kabupaten Gunung MAS, Kalimantan Tengah 74562","Tumbang Talaken, Kec. Manuhing, Kabupaten Gunung MAS",KALIMANTAN TENGAH,74562.0,Indonesia,,,,-1.3545446,113.3779299,https://maps.google.com/?cid=0x0:0x8a9893a56919d6b5,
perumahan,Komplek perumahan,Rumah Bue Qyena,"J9XJ+457, Tumbang Talaken, Kec. Manuhing, Kabupaten Gunung MAS, Kalimantan Tengah 74562","Tumbang Talaken, Kec. Manuhing, Kabupaten Gunung MAS",KALIMANTAN TENGAH,74562.0,Indonesia,,,,-1.3514927,113.3796401,https://maps.google.com/?cid=0x0:0xfafb4f1ab91cf6e9,
perumahan,Komplek perumahan,DARMAN MIJO SANTOSO,"HC22+RXQ, Belawan Mulya, Kec. Manuhing, Kabupaten Gunung MAS, Kalimantan Tengah 74562","Belawan Mulya, Kec. Manuhing, Kabupaten Gunung MAS",KALIMANTAN TENGAH,74562.0,Indonesia,,,,-1.4479095,113.4024782,https://maps.google.com/?cid=0x0:0xc8f19931eb024d37,
perumahan,perumahan,Kec. Manuhing Raya,"Kabupaten Gunung MAS, Kalimantan Tengah","Kabupaten Gunung MAS, Kalimantan Tengah",KALIMANTAN TENGAH,,Indonesia,,,,-1.2093562,113.3161023,https://maps.google.com/?cid=0x0:0xf4826c03ebd0940e,
perumahan,perumahan,Tehang,"W836+Q9C, Tehang, Kec. Manuhing Raya, Kabupaten Gunung MAS, Kalimantan Tengah 74562","Tehang, Kec. Manuhing Raya, Kabupaten Gunung MAS",KALIMANTAN TENGAH,74562.0,Indonesia,,,,-1.0955601,113.3109037,https://maps.google.com/?cid=0x0:0x5980d86b68e12fa0,
perumahan,Komplek perumahan,Rumah Tambi Cello,"Q8Q7+JPH, Luwuk Tukau, Kec. Manuhing Raya, Kabupaten Gunung MAS, Kalimantan Tengah 74562","Luwuk Tukau, Kec. Manuhing Raya, Kabupaten Gunung MAS",KALIMANTAN TENGAH,74562.0,Indonesia,,,,-1.2109302,113.3143649,https://maps.google.com/?cid=0x0:0xbe9c8832ebc204d4,
perumahan,Komplek perumahan,Rumah Bue Qyena,"J9XJ+457, Tumbang Talaken, Kec. Manuhing, Kabupaten Gunung MAS, Kalimantan Tengah 74562","Tumbang Talaken, Kec. Manuhing, Kabupaten Gunung MAS",KALIMANTAN TENGAH,74562.0,Indonesia,,,,-1.3514927,113.3796401,https://maps.google.com/?cid=0x0:0xfafb4f1ab91cf6e9,
perumahan,Perhimpunan Pengembang Perumahan,Hendra Yogie,"J9WH+VX, Tumbang Talaken, Kec. Manuhing, Kabupaten Gunung MAS, Kalimantan Tengah 74562","Tumbang Talaken, Kec. Manuhing, Kabupaten Gunung MAS",KALIMANTAN TENGAH,74562.0,Indonesia,,,,-1.352871,113.379926,https://maps.google.com/?cid=0x0:0x2a66a9d16c12aaab,
perumahan,Komplek perumahan,Babilu,"J9WH+79J, Tumbang Talaken, Kec. Manuhing, Kabupaten Gunung MAS, Kalimantan Tengah 74562","Tumbang Talaken, Kec. Manuhing, Kabupaten Gunung MAS",KALIMANTAN TENGAH,74562.0,Indonesia,,,,-1.3545446,113.3779299,https://maps.google.com/?cid=0x0:0x8a9893a56919d6b5,
perumahan,Komplek perumahan,Wifi_itah Samui,"P8FC+WH8, Putat Durei, Kec. Manuhing Raya, Kabupaten Gunung MAS, Kalimantan Tengah","Kabupaten Gunung MAS, Kalimantan Tengah",KALIMANTAN TENGAH,,Indonesia,,,,-1.2752043,113.3214439,https://maps.google.com/?cid=0x0:0x362994e7cd36b082,
perumahan,Kantor Perusahaan,PT KHS,"J9V7+GQ9, Tumbang Talaken, Kec. Manuhing, Kabupaten Gunung MAS, Kalimantan Tengah","Kabupaten Gunung MAS, Kalimantan Tengah",KALIMANTAN TENGAH,,Indonesia,,,,-1.35622,113.3644925,https://maps.google.com/?cid=0x0:0x7c16aa3e3b53584f,
perumahan,Komplek perumahan,Rumah Andry,"J9V7+GQ9, Tumbang Talaken, Kec. Manuhing, Kabupaten Gunung MAS, Kalimantan Tengah","Kabupaten Gunung MAS, Kalimantan Tengah",KALIMANTAN TENGAH,,Indonesia,,,,-1.35622,113.3644925,https://maps.google.com/?cid=0x0:0xbe87175e6ecaa0cb,
perumahan,Komplek perumahan,Rumah Bapa Lores/Miltonadi,"Jalan Tugu No.57, Tumbang Talaken, Kec. Manuhing, Kabupaten Gunung MAS, Kalimantan Tengah","Kabupaten Gunung MAS, Kalimantan Tengah",KALIMANTAN TENGAH,,Indonesia,,,,-1.3521106,113.3792206,https://maps.google.com/?cid=0x0:0xfd107d4bedfaaa0e,
perumahan,Komplek perumahan,Rumah Bue Yuni,"J9XH+4JJ, Tumbang Talaken, Kec. Manuhing, Kabupaten Gunung MAS, Kalimantan Tengah","Kabupaten Gunung MAS, Kalimantan Tengah",KALIMANTAN TENGAH,,Indonesia,,,,-1.3521564,113.3790002,https://maps.google.com/?cid=0x0:0x50fe16a861ba9814,
perumahan,Perhimpunan Pengembang Perumahan,Veronika,"J9VH+CR, Tumbanj nog, Tumbang Talaken, Manuhing, Gunung MAS Regency, Central Kalimantan","Kabupaten Gunung MAS, Kalimantan Tengah",KALIMANTAN TENGAH,,Indonesia,8122718661.0,,,-1.3564375,113.3795625,https://maps.google.com/?cid=0x0:0x3bf3bcb4f7cba35e,
perumahan,Komplek perumahan,Rumah Mantikei (Bp.Semat),"J9XJ+6J5, Tumbang Talaken, Kec. Manuhing, Kabupaten Gunung MAS, Kalimantan Tengah","Kabupaten Gunung MAS, Kalimantan Tengah",KALIMANTAN TENGAH,,Indonesia,,,,-1.3519939,113.3816025,https://maps.google.com/?cid=0x0:0x1e897c6c7d0e6d35,
perumahan,Pembangunan Perumahan,Tumbang Samui,"P8FC+XX, Putat Durei, Kec. Manuhing Raya, Kabupaten Gunung MAS, Kalimantan Tengah","Kabupaten Gunung MAS, Kalimantan Tengah",KALIMANTAN TENGAH,,Indonesia,,,,-1.2750256,113.3224535,https://maps.google.com/?cid=0x0:0xbe129b0e23241511,
perumahan,Kantor Perusahaan,PT Nusantara Sawit Persada,"W836+Q9C, Tehang, Kec. Manuhing Raya, Kabupaten Gunung MAS, Kalimantan Tengah 74562","Tehang, Kec. Manuhing Raya, Kabupaten Gunung MAS",KALIMANTAN TENGAH,74562.0,Indonesia,,,,-1.0955601,113.3109037,https://maps.google.com/?cid=0x0:0x267eccd5c4b65eb7,
perumahan,Kantor Pemerintah,Rumah Kepala Desa Tumbang Jalemu,"M72V+Q6F, Tumbang Jalemu, Kec. Manuhing, Kabupaten Gunung MAS, Kalimantan Tengah","Kabupaten Gunung MAS, Kalimantan Tengah",KALIMANTAN TENGAH,,Indonesia,85219404818.0,,,-1.3480647,113.2930397,https://maps.google.com/?cid=0x0:0x2e1df1e37d07c46e,
perumahan,Komplek perumahan,Perumahan KBT Kajui Estate,"J9MH+CQH, Tumbang Talaken, Kec. Manuhing, Kabupaten Gunung MAS, Kalimantan Tengah","Kabupaten Gunung MAS, Kalimantan Tengah",KALIMANTAN TENGAH,,Indonesia,,,,-1.3664416,113.379481,https://maps.google.com/?cid=0x0:0x76631f31448871bc,
perumahan,Perumahan,Rumah muel,"No 14, Bangun Sari, Kabupaten Gunung MAS, Kalimantan Tengah","Kabupaten Gunung MAS, Kalimantan Tengah",KALIMANTAN TENGAH,,Indonesia,,,,-1.3877507,113.3228127,https://maps.google.com/?cid=0x0:0xe8cd907614ce6292,
perumahan,Pembangunan Perumahan,Kabupaten gunung mas,"PHXF+445, Linau, Kec. Rungan, Kabupaten Gunung MAS, Kalimantan Tengah","Kabupaten Gunung MAS, Kalimantan Tengah",KALIMANTAN TENGAH,,Indonesia,,,,-1.2522464,113.5728501,https://maps.google.com/?cid=0x0:0x15164b7b50cba2ce,
perumahan,Kompleks Kondominium,Rumah Roni,"PCPG+MH, Jalemu Raya, Kec. Rungan Barat, Kabupaten Gunung MAS, Kalimantan Tengah","Kabupaten Gunung MAS, Kalimantan Tengah",KALIMANTAN TENGAH,,Indonesia,,,,-1.2632945,113.426491,https://maps.google.com/?cid=0x0:0x4d0b1923a412921,
perumahan,Komplek perumahan,Rumah Silvi Salma,"J9XJ+JRQ, Bawah Jembatan, Tumbang Talaken, Kec. Manuhing, Kabupaten Gunung MAS, Kalimantan Tengah","Kabupaten Gunung MAS, Kalimantan Tengah",KALIMANTAN TENGAH,,Indonesia,,,,-1.3509015,113.3821018,https://maps.google.com/?cid=0x0:0x6db50a3038e0c7df,
perumahan,Rumah Kayu,HUMA INDU ADI,"Q8Q8+VR6, Luwuk Tukau, Kec. Manuhing Raya, Kabupaten Gunung MAS, Kalimantan Tengah 74562","Luwuk Tukau, Kec. Manuhing Raya, Kabupaten Gunung MAS",KALIMANTAN TENGAH,74562.0,Indonesia,,,,-1.2103329,113.3170119,https://maps.google.com/?cid=0x0:0xd56cb48933719763,
perumahan,Pembangunan Perumahan,Tumbang tuwe,"X9MV+QP6, Tumbang Tuwe, Kec. Rungan Hulu, Kabupaten Gunung MAS, Kalimantan Tengah","Kabupaten Gunung MAS, Kalimantan Tengah",KALIMANTAN TENGAH,,Indonesia,,,,-1.0155834,113.3942699,https://maps.google.com/?cid=0x0:0xb9119026c3623511,
perumahan,perumahan,Kalimantan Tengah 74571,"Kabupaten Gunung MAS, Kalimantan Tengah","Kabupaten Gunung MAS, Kalimantan Tengah",KALIMANTAN TENGAH,,Indonesia,,,,-1.1433424,113.9060624,https://maps.google.com/?cid=0x0:0x7dbb143be4104e8e,
perumahan,Perhimpunan Pengembang Perumahan,Rumah ku,"VVC4+CPR, Jl. Rambutan, Tampang Tumbang Anjir, Kec. Kurun, Kabupaten Gunung MAS, Kalimantan Tengah 74571","Jl. Rambutan, Tampang Tumbang Anjir, Kec. Kurun, Kabupaten Gunung MAS",KALIMANTAN TENGAH,74571.0,Indonesia,,,,-1.1288888,113.8567598,https://maps.google.com/?cid=0x0:0xa1b89184aaa7e5c0,
perumahan,Komplek perumahan,White House,"VVJ3+Q6C, Tampang Tumbang Anjir, Kec. Kurun, Kabupaten Gunung MAS, Kalimantan Tengah 74571","Tampang Tumbang Anjir, Kec. Kurun, Kabupaten Gunung MAS",KALIMANTAN TENGAH,74571.0,Indonesia,,,,-1.1180716,113.8530239,https://maps.google.com/?cid=0x0:0x226b71f3877cfef2,
perumahan,Komplek perumahan,Rumah dr.Theresia Singah,"VVC5+FMW, Jl. Letjen S. Parman, Tampang Tumbang Anjir, Kec. Kurun, Kabupaten Gunung MAS, Kalimantan Tengah 74571","Jl. Letjen S. Parman, Tampang Tumbang Anjir, Kec. Kurun, Kabupaten Gunung MAS",KALIMANTAN TENGAH,74571.0,Indonesia,,,,-1.1287621,113.8591951,https://maps.google.com/?cid=0x0:0x56dc683a56ac5642,
perumahan,Rumah Kayu,BP Ai,"MWCH+9Q, Kampuri, Kec. Mihing Raya, Kabupaten Gunung MAS, Kalimantan Tengah","Kabupaten Gunung MAS, Kalimantan Tengah",KALIMANTAN TENGAH,,Indonesia,81258298889.0,,,-1.3280603,113.9291574,https://maps.google.com/?cid=0x0:0xc8f872455e2936c9,
perumahan,Komplek perumahan,rumah dilla,"VR9X+WR, Tampang Tumbang Anjir, Kec. Kurun, Kabupaten Gunung MAS, Kalimantan Tengah 74571","Tampang Tumbang Anjir, Kec. Kurun, Kabupaten Gunung MAS",KALIMANTAN TENGAH,74571.0,Indonesia,,,,-1.1306001,113.8482627,https://maps.google.com/?cid=0x0:0xc13ab2aed166d6ba,
perumahan,perumahan,Isen Mulang.,"VVH6+76F, Jl. Mufakat, Kuala Kurun, Kec. Kurun, Kabupaten Gunung MAS, Kalimantan Tengah 74571","Jl. Mufakat, Kuala Kurun, Kec. Kurun, Kabupaten Gunung MAS",KALIMANTAN TENGAH,74571.0,Indonesia,,,,-1.1218042,113.8605542,https://maps.google.com/?cid=0x0:0x276dcbabe36d1148,
perumahan,Pembangunan Perumahan,Rumah BP.Bika,"VVV8+M56, Jl. Karya Jl. Karya II, Kuala Kurun, Kec. Kurun, Kabupaten Gunung MAS, Kalimantan Tengah 74571","Jl. Karya Jl. Karya II, Kuala Kurun, Kec. Kurun, Kabupaten Gunung MAS",KALIMANTAN TENGAH,74571.0,Indonesia,,,,-1.1063798,113.865084,https://maps.google.com/?cid=0x0:0x7b2b8e76ffe0ea66,
perumahan,perumahan,Rumah kurun,"Jl. A. Runting No.26, Kuala Kurun, Kec. Kurun, Kabupaten Gunung MAS, Kalimantan Tengah 74571","Kuala Kurun, Kec. Kurun, Kabupaten Gunung MAS",KALIMANTAN TENGAH,74571.0,Indonesia,,,,-1.1019353,113.8611808,https://maps.google.com/?cid=0x0:0x341e68847891f5d2,
perumahan,Komplek perumahan,Rumah Yono (bp. Klose),"Jl. A. Runting No.63, RT.11, Kuala Kurun, Kec. Kurun, Kabupaten Gunung MAS, Kalimantan Tengah 74571","RT.11, Kuala Kurun, Kec. Kurun, Kabupaten Gunung MAS",KALIMANTAN TENGAH,74571.0,Indonesia,,,,-1.1032321,113.8597864,https://maps.google.com/?cid=0x0:0x591278aa4074f311,
perumahan,Perhimpunan Pengembang Perumahan,Perumahan Pemda,"Jl. Ais Nasution No.I, Tampang Tumbang Anjir, Kec. Kurun, Kabupaten Gunung MAS, Kalimantan Tengah 74571","Tampang Tumbang Anjir, Kec. Kurun, Kabupaten Gunung MAS",KALIMANTAN TENGAH,74571.0,Indonesia,,,,-1.1235985,113.8574133,https://maps.google.com/?cid=0x0:0xbf27b5a57fd0e316,
perumahan,Perhimpunan Pengembang Perumahan,Rumah mu,"VVC4+FXP, Jl. Rambutan, Tampang Tumbang Anjir, Kec. Kurun, Kabupaten Gunung MAS, Kalimantan Tengah 74571","Jl. Rambutan, Tampang Tumbang Anjir, Kec. Kurun, Kabupaten Gunung MAS",KALIMANTAN TENGAH,74571.0,Indonesia,,,,-1.1287822,113.8574576,https://maps.google.com/?cid=0x0:0xfb2a46ab05a11d63,
perumahan,Komplek perumahan,Rumah Dewi Sartika,"QVMC+CFV, Tumbang Miwan, Kec. Kurun, Kabupaten Gunung MAS, Kalimantan Tengah 74571","Tumbang Miwan, Kec. Kurun, Kabupaten Gunung MAS",KALIMANTAN TENGAH,74571.0,Indonesia,,,,-1.216644,113.8712926,https://maps.google.com/?cid=0x0:0x5470c44b603c8e9d,
perumahan,Pembangunan Perumahan,Perumahan Permata Lestari,"VVG7+35W, Jl. Jend. Sudirman, Tampang Tumbang Anjir, Kec. Kurun, Kabupaten Gunung MAS, Kalimantan Tengah 74571","Jl. Jend. Sudirman, Tampang Tumbang Anjir, Kec. Kurun, Kabupaten Gunung MAS",KALIMANTAN TENGAH,74571.0,Indonesia,,,,-1.1247523,113.8629612,https://maps.google.com/?cid=0x0:0x958c55587ca16fe1,
perumahan,Komplek perumahan,Rumah lia,"QV5X+P8J, Hurung Bunut, Kec. Kurun, Kabupaten Gunung MAS, Kalimantan Tengah 74571","Hurung Bunut, Kec. Kurun, Kabupaten Gunung MAS",KALIMANTAN TENGAH,74571.0,Indonesia,,,,-1.2411548,113.8982738,https://maps.google.com/?cid=0x0:0x607416942ace9af5,
perumahan,Komplek perumahan,Rumah Ory,"VVH6+327 Nyaharum, Jl. Letjend Soeprapto, Tampang Tumbang Anjir, Kec. Kurun, Kabupaten Gunung MAS, Kalimantan Tengah 74571","Jl. Letjend Soeprapto, Tampang Tumbang Anjir, Kec. Kurun, Kabupaten Gunung MAS",KALIMANTAN TENGAH,74571.0,Indonesia,,,,-1.1223407,113.8600556,https://maps.google.com/?cid=0x0:0x52815e39139769c4,
perumahan,Komplek perumahan,Moana Margareth Miracle,"VVMC+V45, Tampang Tumbang Anjir, Kec. Kurun, Kabupaten Gunung MAS, Kalimantan Tengah 74571","Tampang Tumbang Anjir, Kec. Kurun, Kabupaten Gunung MAS",KALIMANTAN TENGAH,74571.0,Indonesia,82158522202.0,,,-1.1144248,113.8699131,https://maps.google.com/?cid=0x0:0xb6eed76c41f1f670,
perumahan,Perhimpunan Pengembang Perumahan,Rumah micko,"QV6X+3FX, Hurung Bunut, Kec. Kurun, Kabupaten Gunung MAS, Kalimantan Tengah 74571","Hurung Bunut, Kec. Kurun, Kabupaten Gunung MAS",KALIMANTAN TENGAH,74571.0,Indonesia,,,,-1.2397971,113.8994532,https://maps.google.com/?cid=0x0:0x1ccb9dfddbfeae9a,
perumahan,Komplek perumahan,Y-RZL,"VVJ9+3M4, Tampang Tumbang Anjir, Kec. Kurun, Kabupaten Gunung MAS, Kalimantan Tengah","Kabupaten Gunung MAS, Kalimantan Tengah",KALIMANTAN TENGAH,,Indonesia,,,,-1.1198625,113.8692031,https://maps.google.com/?cid=0x0:0x7c444c11eb254c21,
perumahan,Komplek perumahan,Dahayan Tambuk,"MWXG+4M8, Jl. Palangka Raya - Kuala Kurun, Tumbang Danau, Kec. Mihing Raya, Kabupaten Gunung MAS, Kalimantan Tengah 74863","Jl. Palangka Raya - Kuala Kurun, Tumbang Danau, Kec. Mihing Raya, Kabupaten Gunung MAS",KALIMANTAN TENGAH,74863.0,Indonesia,,,,-1.3023366,113.9269731,https://maps.google.com/?cid=0x0:0x2f8a510033137891,
perumahan,Komplek perumahan,Rumah Bp. Itut,"WV46+9WH, Kuala Kurun, Kec. Kurun, Kabupaten Gunung MAS, Kalimantan Tengah 74571","Kuala Kurun, Kec. Kurun, Kabupaten Gunung MAS",KALIMANTAN TENGAH,74571.0,Indonesia,,,,-1.0944397,113.8621749,https://maps.google.com/?cid=0x0:0x96557048e99d45b2,
perumahan,Pembangunan Perumahan,Kuala Kurun,"VVW8+4V4, Jl. Sabirin Muhtar, Kuala Kurun, Kec. Kurun, Kabupaten Gunung MAS, Kalimantan Tengah 74571","Jl. Sabirin Muhtar, Kuala Kurun, Kec. Kurun, Kabupaten Gunung MAS",KALIMANTAN TENGAH,74571.0,Indonesia,,,,-1.1047459,113.8671886,https://maps.google.com/?cid=0x0:0xc5d290678103fdb5,
perumahan,Komplek perumahan,Rumah Ellya Margareth,"RVV2+7V, Tj. Riu, Kec. Kurun, Kabupaten Gunung MAS, Kalimantan Tengah","Kabupaten Gunung MAS, Kalimantan Tengah",KALIMANTAN TENGAH,,Indonesia,,,,-1.1567934,113.8521378,https://maps.google.com/?cid=0x0:0xdcc2dfd85ad23760,
perumahan,Komplek perumahan,Rumah limpuk,"Jl. Temanggung Panji No.7, Kuala Kurun, Kec. Kurun, Kabupaten Gunung MAS, Kalimantan Tengah 74571","Kuala Kurun, Kec. Kurun, Kabupaten Gunung MAS",KALIMANTAN TENGAH,74571.0,Indonesia,,,,-1.098033,113.8665033,https://maps.google.com/?cid=0x0:0xb30a77e9d1602e43,
perumahan,Komplek perumahan,"Rumah Marliansyah T. Garang, ( Bp Dedi )","VV3W+R7X, Petak Bahandang, Kec. Kurun, Kabupaten Gunung MAS, Kalimantan Tengah 74571","Petak Bahandang, Kec. Kurun, Kabupaten Gunung MAS",KALIMANTAN TENGAH,74571.0,Indonesia,,,,-1.1453834,113.895742,https://maps.google.com/?cid=0x0:0x36a02ae7ccaf67be,
perumahan,Perhimpunan Pengembang Perumahan,Ngambu Rumah Sandra,"QV7C+55, Tumbang Miwan, Kec. Kurun, Kabupaten Gunung MAS, Kalimantan Tengah","Kabupaten Gunung MAS, Kalimantan Tengah",KALIMANTAN TENGAH,,Indonesia,,,,-1.2370885,113.8704901,https://maps.google.com/?cid=0x0:0x81ff7ac6c5bfc2f1,
perumahan,Komplek perumahan,RUMAH SITER MANGKIN,"WQPV+FX, Sarerangan, Kec. Tewah, Kabupaten Gunung MAS, Kalimantan Tengah","Kabupaten Gunung MAS, Kalimantan Tengah",KALIMANTAN TENGAH,,Indonesia,,,,-1.0635505,113.7949434,https://maps.google.com/?cid=0x0:0xb0da1b2d47c43845,
perumahan,Komplek perumahan,Rumah Naponi Bapa Gres,"VV98+JG, Tampang Tumbang Anjir, Kec. Kurun, Kabupaten Gunung MAS, Kalimantan Tengah","Kabupaten Gunung MAS, Kalimantan Tengah",KALIMANTAN TENGAH,,Indonesia,,,,-1.129602,113.866238,https://maps.google.com/?cid=0x0:0x8c020bc173a60498,
perumahan,Komplek perumahan,KIOS VINARA,"VV7C+7X6, Tampang Tumbang Anjir, Kec. Kurun, Kabupaten Gunung MAS, Kalimantan Tengah 74571","Tampang Tumbang Anjir, Kec. Kurun, Kabupaten Gunung MAS",KALIMANTAN TENGAH,74571.0,Indonesia,82253291137.0,,,-1.1366661,113.8727204,https://maps.google.com/?cid=0x0:0xf3f7e796442d25fe,
perumahan,perumahan,Kalimantan Tengah 74553,"Kabupaten Gunung MAS, Kalimantan Tengah","Kabupaten Gunung MAS, Kalimantan Tengah",KALIMANTAN TENGAH,,Indonesia,,,,-0.5866559,113.429984,https://maps.google.com/?cid=0x0:0x7f9e14ce7cf9d71f,
perumahan,Komplek perumahan,Tumbang Manyoi,"9MF2+V3, Rangan Hiran, Miri Manasa, Kabupaten Gunung MAS, Kalimantan Tengah 74552","Rangan Hiran, Miri Manasa, Kabupaten Gunung MAS",KALIMANTAN TENGAH,74552.0,Indonesia,,,,-0.6252246,113.6502459,https://maps.google.com/?cid=0x0:0x696645276794c242,
perumahan,Komplek perumahan,Tumbang Masukih,"9MV7+PPM, Tumbang Masukih, Miri Manasa, Kabupaten Gunung MAS, Kalimantan Tengah 74581","Tumbang Masukih, Miri Manasa, Kabupaten Gunung MAS",KALIMANTAN TENGAH,74581.0,Indonesia,,,,-0.605658,113.6642983,https://maps.google.com/?cid=0x0:0x46b6f7856a84b504,
perumahan,Kantor Pemerintah,Desa Harowu,"CMQV+H3, Harowu, Miri Manasa, Kabupaten Gunung MAS, Kalimantan Tengah","Kabupaten Gunung MAS, Kalimantan Tengah",KALIMANTAN TENGAH,,Indonesia,,,,-0.561042,113.692731,https://maps.google.com/?cid=0x0:0x1a8c8d075e030ff6,
perumahan,Pembangunan Perumahan,Riaas mebel dan batako (pitung),"RT.19, Tewah, Miri Manasa, Kabupaten Gunung MAS, Kalimantan Tengah 74552","Tewah, Miri Manasa, Kabupaten Gunung MAS",KALIMANTAN TENGAH,74552.0,Indonesia,85349394372.0,,,-0.7250328,113.6204644,https://maps.google.com/?cid=0x0:0x8c39217241fd4542,
perumahan,perumahan,Miri Manasa,"Kabupaten Gunung MAS, Kalimantan Tengah","Kabupaten Gunung MAS, Kalimantan Tengah",KALIMANTAN TENGAH,,Indonesia,,,,-0.5858075,113.6204644,https://maps.google.com/?cid=0x0:0x9f8a09c1f677910f,
perumahan,Komplek perumahan,Tumbang mahuroi,"F8JM+XVX, Tumbang Mahuroi, Damang Batu, Kabupaten Gunung MAS, Kalimantan Tengah","Kabupaten Gunung MAS, Kalimantan Tengah",KALIMANTAN TENGAH,,Indonesia,,,,-0.5175121,113.3347215,https://maps.google.com/?cid=0x0:0xd72c20efc2ac897c,
perumahan,Komplek perumahan,Dukuh Sukon,"985Q+F8, Tumbang Mahuroi, Damang Batu, Kabupaten Gunung MAS, Kalimantan Tengah","Kabupaten Gunung MAS, Kalimantan Tengah",KALIMANTAN TENGAH,,Indonesia,,,,-0.6412756,113.3382671,https://maps.google.com/?cid=0x0:0xd39c24ce3b4575e5,
perumahan,Komplek perumahan,H. Murjani,"3HG3+78M, Jln. H. Bahrun, RT.004/RW.001, Tumbang Miri, Kec. Kahayan Hulu Utara, Kabupaten Gunung MAS, Kalimantan Tengah","Kabupaten Gunung MAS, Kalimantan Tengah",KALIMANTAN TENGAH,,Indonesia,,,,-0.9242953,113.5532855,https://maps.google.com/?cid=0x0:0x7c9fd1807660079,
perumahan,Komplek perumahan,Dosoi karombang,"55M9+X59, Tumbang Anoi, Damang Batu, Kabupaten Gunung MAS, Kalimantan Tengah","Kabupaten Gunung MAS, Kalimantan Tengah",KALIMANTAN TENGAH,,Indonesia,,,,-0.8150953,113.1679793,https://maps.google.com/?cid=0x0:0xf441b8a0c7d05041,
perumahan,Pembangunan Perumahan,Bapa resa,"684P+HG4, Karetau Sarian, Damang Batu, Kabupaten Gunung MAS, Kalimantan Tengah","Kabupaten Gunung MAS, Kalimantan Tengah",KALIMANTAN TENGAH,,Indonesia,,,,-0.7936077,113.3363349,https://maps.google.com/?cid=0x0:0xbdffc16630031f61,
perumahan,Komplek perumahan,Rumah Rencau,"4F25+5QC, Tumbang Marikoi, Damang Batu, Kabupaten Gunung MAS, Kalimantan Tengah","Kabupaten Gunung MAS, Kalimantan Tengah",KALIMANTAN TENGAH,,Indonesia,,,,-0.8995821,113.4593085,https://maps.google.com/?cid=0x0:0x3e2f9db3ef19af2f,
perumahan,Pembangunan Perumahan,Peri Penyebrangan,"682P+5W4, Karetau Sarian, Damang Batu, Kabupaten Gunung MAS, Kalimantan Tengah","Kabupaten Gunung MAS, Kalimantan Tengah",KALIMANTAN TENGAH,,Indonesia,,,,-0.7996143,113.3373193,https://maps.google.com/?cid=0x0:0x58df2ffad81b6270,
perumahan,perumahan,Kalimantan Tengah 74561,"Kabupaten Gunung MAS, Kalimantan Tengah","Kabupaten Gunung MAS, Kalimantan Tengah",KALIMANTAN TENGAH,,Indonesia,,,,-1.0753907,113.6204644,https://maps.google.com/?cid=0x0:0xe38f858eb863f7d4,
perumahan,Pembangunan Perumahan,Kabupaten gunung mas,"PHXF+445, Linau, Kec. Rungan, Kabupaten Gunung MAS, Kalimantan Tengah","Kabupaten Gunung MAS, Kalimantan Tengah",KALIMANTAN TENGAH,,Indonesia,,,,-1.2522464,113.5728501,https://maps.google.com/?cid=0x0:0x15164b7b50cba2ce,
perumahan,Pembangunan Perumahan,Tumbang Rahuyan,"WHF3+8CP, Tumbang Rahuyan, Kec. Rungan Hulu, Kabupaten Gunung MAS, Kalimantan Tengah","Kabupaten Gunung MAS, Kalimantan Tengah",KALIMANTAN TENGAH,,Indonesia,,,,-1.0766612,113.5535643,https://maps.google.com/?cid=0x0:0x72aff498e13af1e1,
perumahan,Pembangunan Perumahan,Tumbang tuwe,"X9MV+QP6, Tumbang Tuwe, Kec. Rungan Hulu, Kabupaten Gunung MAS, Kalimantan Tengah","Kabupaten Gunung MAS, Kalimantan Tengah",KALIMANTAN TENGAH,,Indonesia,,,,-1.0155834,113.3942699,https://maps.google.com/?cid=0x0:0xb9119026c3623511,
perumahan,Komplek perumahan,Arum,"XPG9+36, Tewah, Kec. Tewah, Kabupaten Gunung MAS, Kalimantan Tengah","Kabupaten Gunung MAS, Kalimantan Tengah",KALIMANTAN TENGAH,,Indonesia,,,,-1.0247511,113.7180094,https://maps.google.com/?cid=0x0:0x1456ce8c1b2f595e,
perumahan,Komplek perumahan,Rumah Akifa,"PH5F+62P, Jakatan Raya, Kec. Rungan, Kabupaten Gunung MAS, Kalimantan Tengah 74562","Jakatan Raya, Kec. Rungan, Kabupaten Gunung MAS",KALIMANTAN TENGAH,74562.0,Indonesia,,,,-1.291921,113.5725862,https://maps.google.com/?cid=0x0:0xd22e84b5724cb686,
perumahan,Komplek perumahan,Tumbang jutuh,"PH9F+4P8, Tumbang Jutuh, Kec. Rungan, Kabupaten Gunung MAS, Kalimantan Tengah","Kabupaten Gunung MAS, Kalimantan Tengah",KALIMANTAN TENGAH,,Indonesia,85750841161.0,,,-1.2822122,113.5743139,https://maps.google.com/?cid=0x0:0x80b67f99fedf5237,
perumahan,Komplek perumahan,HARDINATHA,"MHJ5+C7, Luwuk Ktr., Kec. Rungan, Kabupaten Gunung MAS, Kalimantan Tengah","Kabupaten Gunung MAS, Kalimantan Tengah",KALIMANTAN TENGAH,,Indonesia,,,,-1.3189091,113.5581831,https://maps.google.com/?cid=0x0:0x3573805558c38c21,
perumahan,Komplek perumahan,Rumah Pribadi,"PH83+JXX, Jakatan Raya, Kec. Rungan, Kabupaten Gunung MAS, Kalimantan Tengah 74562","Jakatan Raya, Kec. Rungan, Kabupaten Gunung MAS",KALIMANTAN TENGAH,74562.0,Indonesia,,,,-1.2833856,113.5549937,https://maps.google.com/?cid=0x0:0x2811385036f4e233,
perumahan,Komplek perumahan,"Tewah, kab G mas.","XP3C+GR6, Tewah, Kec. Tewah, Kabupaten Gunung MAS, Kalimantan Tengah 74511","Tewah, Kec. Tewah, Kabupaten Gunung MAS",KALIMANTAN TENGAH,74511.0,Indonesia,,,,-1.0465247,113.7217782,https://maps.google.com/?cid=0x0:0xfc7d7cb057b1e831,
perumahan,Pembangunan Perumahan,Desa Tumbang Bahanei,"WFJ8+V78, Tumbang Bahanei, Kec. Rungan Barat, Kabupaten Gunung MAS, Kalimantan Tengah 74561","Tumbang Bahanei, Kec. Rungan Barat, Kabupaten Gunung MAS",KALIMANTAN TENGAH,74561.0,Indonesia,,,,-1.0678476,113.4657037,https://maps.google.com/?cid=0x0:0xf587cf3fe7f3f496,
perumahan,Perhimpunan Pengembang Perumahan,"Desa Tumbang Jutuh, Kuluk Guhung","PHC7+4F, Tumbang Jutuh, Kec. Rungan, Kabupaten Gunung MAS, Kalimantan Tengah","Kabupaten Gunung MAS, Kalimantan Tengah",KALIMANTAN TENGAH,,Indonesia,,,,-1.2796694,113.5637192,https://maps.google.com/?cid=0x0:0x4fca3bf7e4fdd752,
perumahan,Perumahan,DURIANSI,"VGXW+PV, Tumbang Rahuyan, Kec. Rungan Hulu, Kabupaten Gunung MAS, Kalimantan Tengah","Kabupaten Gunung MAS, Kalimantan Tengah",KALIMANTAN TENGAH,,Indonesia,,,,-1.1006516,113.5471921,https://maps.google.com/?cid=0x0:0x68e2c0e25e24ec58,
perumahan,Pembangunan Perumahan,Pondok Aguslimin,"JL. MANJUHAN, Tewah, Kec. Tewah, Kabupaten Gunung MAS, Kalimantan Tengah 74552","Tewah, Kec. Tewah, Kabupaten Gunung MAS",KALIMANTAN TENGAH,74552.0,Indonesia,85393629759.0,,,-1.0503394,113.716909,https://maps.google.com/?cid=0x0:0x41970f1dc5bf0935,
perumahan,Komplek perumahan,Batu nyiwuh,"2J35+FCR, Batu Nyiwuh, Kec. Tewah, Kabupaten Gunung MAS, Kalimantan Tengah 74561","Batu Nyiwuh, Kec. Tewah, Kabupaten Gunung MAS",KALIMANTAN TENGAH,74561.0,Indonesia,,,,-0.996257,113.6085288,https://maps.google.com/?cid=0x0:0x6d7cfc8e36aa283b,
perumahan,Komplek perumahan,Ud Tiga Putra,"PH8F+X83, Jl. Cilik Riwut, Jakatan Raya, Kec. Rungan, Kabupaten Gunung MAS, Kalimantan Tengah 74562","Jl. Cilik Riwut, Jakatan Raya, Kec. Rungan, Kabupaten Gunung MAS",KALIMANTAN TENGAH,74562.0,Indonesia,82148666244.0,,,-1.2826003,113.5732913,https://maps.google.com/?cid=0x0:0xd15942dd2c6877e6,
perumahan,Komplek perumahan,RUMAH MADIE,"3FW4+0,9047780, 113, RW.3840480, Tumbang Maraya, Damang Batu, Kabupaten Gunung MAS, Kalimantan Tengah 74561","113, RW.3840480, Tumbang Maraya, Damang Batu, Kabupaten Gunung MAS",KALIMANTAN TENGAH,74561.0,Indonesia,,,,-0.9047744,113.3839579,https://maps.google.com/?cid=0x0:0x439a925daeefaf46,
perumahan,Komplek perumahan,Rumah Tuah,"XP2C+5FX, Jl.sekata Gg.Malang IV, Tewah, Kec. Tewah, Kabupaten Gunung MAS, Kalimantan Tengah","Kabupaten Gunung MAS, Kalimantan Tengah",KALIMANTAN TENGAH,,Indonesia,,,,-1.0495046,113.7212207,https://maps.google.com/?cid=0x0:0xd9223af3bceb91e7,
perumahan,Komplek perumahan,Kambayau area,"PH8F+QC3, Jl. Cilik Riwut, Jakatan Raya, Kec. Rungan, Kabupaten Gunung MAS, Kalimantan Tengah 74562","Jl. Cilik Riwut, Jakatan Raya, Kec. Rungan, Kabupaten Gunung MAS",KALIMANTAN TENGAH,74562.0,Indonesia,,,,-1.2831067,113.57356,https://maps.google.com/?cid=0x0:0xbaf47cc5cfe4951e,
perumahan,Perumahan,Sepriadie,"PH97+8HV, Jl. Cilik Riwut, Jakatan Raya, Kec. Rungan, Kabupaten Gunung MAS, Kalimantan Tengah 74562","Jl. Cilik Riwut, Jakatan Raya, Kec. Rungan, Kabupaten Gunung MAS",KALIMANTAN TENGAH,74562.0,Indonesia,,,,-1.2816446,113.5639192,https://maps.google.com/?cid=0x0:0xde2bccac18d75732,
perumahan,Pembangunan Perumahan,Desa Sandung Tambun,"3JQW+H3, Taja Urap, Kec. Tewah, Kabupaten Gunung MAS, Kalimantan Tengah 74561","Taja Urap, Kec. Tewah, Kabupaten Gunung MAS",KALIMANTAN TENGAH,74561.0,Indonesia,,,,-0.9110755,113.6452459,https://maps.google.com/?cid=0x0:0x606a81e208957f60,
perumahan,Sekolah Menengah Pertama,Desa tbg kuayan,"RG63+77, Tumbang Kuayan, Kec. Rungan Barat, Kabupaten Gunung MAS, Kalimantan Tengah","Kabupaten Gunung MAS, Kalimantan Tengah",KALIMANTAN TENGAH,,Indonesia,,,,-1.189287,113.50318,https://maps.google.com/?cid=0x0:0x67cb81528950898c,
perumahan,perumahan,Kec. Rungan Barat,"Kabupaten Gunung MAS, Kalimantan Tengah","Kabupaten Gunung MAS, Kalimantan Tengah",KALIMANTAN TENGAH,,Indonesia,,,,-1.2648058,113.4266094,https://maps.google.com/?cid=0x0:0x96d1b4f9516d2214,
perumahan,Kantor Pemerintah,SEKRETARIAT PPK KECAMATAN RUNGAN BARAT,"QF74+55, Rabambang, Kec. Rungan Barat, Kabupaten Gunung MAS, Kalimantan Tengah","Kabupaten Gunung MAS, Kalimantan Tengah",KALIMANTAN TENGAH,,Indonesia,82153532562.0,,,-1.2346074,113.4551863,https://maps.google.com/?cid=0x0:0x56d6fe8fad391341,
perumahan,Pembangunan Perumahan,Tumbang Rahuyan,"WHF3+8CP, Tumbang Rahuyan, Kec. Rungan Hulu, Kabupaten Gunung MAS, Kalimantan Tengah","Kabupaten Gunung MAS, Kalimantan Tengah",KALIMANTAN TENGAH,,Indonesia,,,,-1.0766612,113.5535643,https://maps.google.com/?cid=0x0:0x72aff498e13af1e1,
perumahan,Komplek perumahan,HARDINATHA,"MHJ5+C7, Luwuk Ktr., Kec. Rungan, Kabupaten Gunung MAS, Kalimantan Tengah","Kabupaten Gunung MAS, Kalimantan Tengah",KALIMANTAN TENGAH,,Indonesia,,,,-1.3189091,113.5581831,https://maps.google.com/?cid=0x0:0x3573805558c38c21,
perumahan,Pembangunan Perumahan,Desa Tumbang Bahanei,"WFJ8+V78, Tumbang Bahanei, Kec. Rungan Barat, Kabupaten Gunung MAS, Kalimantan Tengah 74561","Tumbang Bahanei, Kec. Rungan Barat, Kabupaten Gunung MAS",KALIMANTAN TENGAH,74561.0,Indonesia,,,,-1.0678476,113.4657037,https://maps.google.com/?cid=0x0:0xf587cf3fe7f3f496,
perumahan,Pembangunan Perumahan,Debry,"XFH8+P89, Sei Antai, Kec. Rungan Hulu, Kabupaten Gunung MAS, Kalimantan Tengah 74561","Sei Antai, Kec. Rungan Hulu, Kabupaten Gunung MAS",KALIMANTAN TENGAH,74561.0,Indonesia,,,,-1.0207213,113.4658712,https://maps.google.com/?cid=0x0:0x5528b1bb1009c9eb,
perumahan,Komplek perumahan,Rumah Pribadi,"PH83+JXX, Jakatan Raya, Kec. Rungan, Kabupaten Gunung MAS, Kalimantan Tengah 74562","Jakatan Raya, Kec. Rungan, Kabupaten Gunung MAS",KALIMANTAN TENGAH,74562.0,Indonesia,,,,-1.2833856,113.5549937,https://maps.google.com/?cid=0x0:0x2811385036f4e233,
perumahan,Komplek perumahan,Rumah Akifa,"PH5F+62P, Jakatan Raya, Kec. Rungan, Kabupaten Gunung MAS, Kalimantan Tengah 74562","Jakatan Raya, Kec. Rungan, Kabupaten Gunung MAS",KALIMANTAN TENGAH,74562.0,Indonesia,,,,-1.291921,113.5725862,https://maps.google.com/?cid=0x0:0xd22e84b5724cb686,
perumahan,Pembangunan Perumahan,Kabupaten gunung mas,"PHXF+445, Linau, Kec. Rungan, Kabupaten Gunung MAS, Kalimantan Tengah","Kabupaten Gunung MAS, Kalimantan Tengah",KALIMANTAN TENGAH,,Indonesia,,,,-1.2522464,113.5728501,https://maps.google.com/?cid=0x0:0x15164b7b50cba2ce,
perumahan,perumahan,Tehang,"W836+Q9C, Tehang, Kec. Manuhing Raya, Kabupaten Gunung MAS, Kalimantan Tengah 74562","Tehang, Kec. Manuhing Raya, Kabupaten Gunung MAS",KALIMANTAN TENGAH,74562.0,Indonesia,,,,-1.0955601,113.3109037,https://maps.google.com/?cid=0x0:0x5980d86b68e12fa0,
perumahan,perumahan,Lahan Kelompok Tani,"PG5J+2F7, Karya Bakti, Kec. Rungan, Kabupaten Gunung MAS, Kalimantan Tengah 74562","Karya Bakti, Kec. Rungan, Kabupaten Gunung MAS",KALIMANTAN TENGAH,74562.0,Indonesia,,,,-1.2925337,113.5323588,https://maps.google.com/?cid=0x0:0x52d0f7d548b6ad75,
perumahan,Pembangunan Perumahan,Tumbang tuwe,"X9MV+QP6, Tumbang Tuwe, Kec. Rungan Hulu, Kabupaten Gunung MAS, Kalimantan Tengah","Kabupaten Gunung MAS, Kalimantan Tengah",KALIMANTAN TENGAH,,Indonesia,,,,-1.0155834,113.3942699,https://maps.google.com/?cid=0x0:0xb9119026c3623511,
perumahan,Sekolah Menengah Pertama,Desa tbg kuayan,"RG63+77, Tumbang Kuayan, Kec. Rungan Barat, Kabupaten Gunung MAS, Kalimantan Tengah","Kabupaten Gunung MAS, Kalimantan Tengah",KALIMANTAN TENGAH,,Indonesia,,,,-1.189287,113.50318,https://maps.google.com/?cid=0x0:0x67cb81528950898c,
perumahan,perumahan,Rumah Dinas SD Negeri Masulan,"PFPJ+MRM, Jalemu Masulan, Kec. Rungan Barat, Kabupaten Gunung MAS, Kalimantan Tengah 74562","Jalemu Masulan, Kec. Rungan Barat, Kabupaten Gunung MAS",KALIMANTAN TENGAH,74562.0,Indonesia,,,,-1.2632915,113.4820583,https://maps.google.com/?cid=0x0:0xbc0bdc011a367dfe,
perumahan,Komplek perumahan,JLME Pondok 1,"JFWF+W8, Tumbang Kajuei, Kec. Rungan, Kabupaten Gunung MAS, Kalimantan Tengah","Kabupaten Gunung MAS, Kalimantan Tengah",KALIMANTAN TENGAH,,Indonesia,,,,-1.3526875,113.4733125,https://maps.google.com/?cid=0x0:0x6bd39339589ef78b,
perumahan,Perhimpunan Pengembang Perumahan,"Desa Tumbang Jutuh, Kuluk Guhung","PHC7+4F, Tumbang Jutuh, Kec. Rungan, Kabupaten Gunung MAS, Kalimantan Tengah","Kabupaten Gunung MAS, Kalimantan Tengah",KALIMANTAN TENGAH,,Indonesia,,,,-1.2796694,113.5637192,https://maps.google.com/?cid=0x0:0x4fca3bf7e4fdd752,
perumahan,Perumahan,Sepriadie,"PH97+8HV, Jl. Cilik Riwut, Jakatan Raya, Kec. Rungan, Kabupaten Gunung MAS, Kalimantan Tengah 74562","Jl. Cilik Riwut, Jakatan Raya, Kec. Rungan, Kabupaten Gunung MAS",KALIMANTAN TENGAH,74562.0,Indonesia,,,,-1.2816446,113.5639192,https://maps.google.com/?cid=0x0:0xde2bccac18d75732,
perumahan,Pembangunan Perumahan,Hujung Pata,"PF28+X7P, jalan pelajar, Hujung Pata, Kec. Rungan Barat, Kabupaten Gunung MAS, Kalimantan Tengah 74562","jalan pelajar, Hujung Pata, Kec. Rungan Barat, Kabupaten Gunung MAS",KALIMANTAN TENGAH,74562.0,Indonesia,,,,-1.2975448,113.4657037,https://maps.google.com/?cid=0x0:0xb5b0183199ff614e,
perumahan,Komplek perumahan,Tumbang jutuh,"PH9F+4P8, Tumbang Jutuh, Kec. Rungan, Kabupaten Gunung MAS, Kalimantan Tengah","Kabupaten Gunung MAS, Kalimantan Tengah",KALIMANTAN TENGAH,,Indonesia,85750841161.0,,,-1.2822122,113.5743139,https://maps.google.com/?cid=0x0:0x80b67f99fedf5237,
perumahan,Komplek perumahan,Pondok HKM,"QGJC+GRR, Tumbang Malahoi, Kec. Rungan, Kabupaten Gunung MAS, Kalimantan Tengah 74562","Tumbang Malahoi, Kec. Rungan, Kabupaten Gunung MAS",KALIMANTAN TENGAH,74562.0,Indonesia,,,,-1.1620575,113.4741468,https://maps.google.com/?cid=0x0:0xb73384e4a030f158,
perumahan,Komplek perumahan,Desa Hujung Pata,"MFM7+RG, Hujung Pata, Kec. Rungan Barat, Kabupaten Gunung MAS, Kalimantan Tengah","Kabupaten Gunung MAS, Kalimantan Tengah",KALIMANTAN TENGAH,,Indonesia,,,,-1.31548,113.463797,https://maps.google.com/?cid=0x0:0xc99ed7469c8fb106,
perumahan,Komplek perumahan,Pondok 1 jalemo,"PF28+X7P, Jalan negara, Hujung Pata, Kec. Rungan Barat, Kabupaten Gunung MAS, Kalimantan Tengah 74562","Jalan negara, Hujung Pata, Kec. Rungan Barat, Kabupaten Gunung MAS",KALIMANTAN TENGAH,74562.0,Indonesia,,,,-1.2975448,113.4657037,https://maps.google.com/?cid=0x0:0xff740efe01da064d,
perumahan,Gedung Apartemen,Rumah Bapa Aput,"QF62+C6X, Rabambang, Kec. Rungan, Kabupaten Gunung MAS, Kalimantan Tengah 74562","Rabambang, Kec. Rungan, Kabupaten Gunung MAS",KALIMANTAN TENGAH,74562.0,Indonesia,,,,-1.2388758,113.4506114,https://maps.google.com/?cid=0x0:0x30551039190e2259,
perumahan,perumahan,Kec. Rungan Barat,"Kabupaten Gunung MAS, Kalimantan Tengah","Kabupaten Gunung MAS, Kalimantan Tengah",KALIMANTAN TENGAH,,Indonesia,,,,-1.2648058,113.4266094,https://maps.google.com/?cid=0x0:0x96d1b4f9516d2214,
perumahan,Kantor Pemerintah,SEKRETARIAT PPK KECAMATAN RUNGAN BARAT,"QF74+55, Rabambang, Kec. Rungan Barat, Kabupaten Gunung MAS, Kalimantan Tengah","Kabupaten Gunung MAS, Kalimantan Tengah",KALIMANTAN TENGAH,,Indonesia,82153532562.0,,,-1.2346074,113.4551863,https://maps.google.com/?cid=0x0:0x56d6fe8fad391341,
perumahan,Pembangunan Perumahan,Tumbang Rahuyan,"WHF3+8CP, Tumbang Rahuyan, Kec. Rungan Hulu, Kabupaten Gunung MAS, Kalimantan Tengah","Kabupaten Gunung MAS, Kalimantan Tengah",KALIMANTAN TENGAH,,Indonesia,,,,-1.0766612,113.5535643,https://maps.google.com/?cid=0x0:0x72aff498e13af1e1,
perumahan,Kompleks Kondominium,Rumah Roni,"PCPG+MH, Jalemu Raya, Kec. Rungan Barat, Kabupaten Gunung MAS, Kalimantan Tengah","Kabupaten Gunung MAS, Kalimantan Tengah",KALIMANTAN TENGAH,,Indonesia,,,,-1.2632945,113.426491,https://maps.google.com/?cid=0x0:0x4d0b1923a412921,
perumahan,Komplek perumahan,Rumah Akifa,"PH5F+62P, Jakatan Raya, Kec. Rungan, Kabupaten Gunung MAS, Kalimantan Tengah 74562","Jakatan Raya, Kec. Rungan, Kabupaten Gunung MAS",KALIMANTAN TENGAH,74562.0,Indonesia,,,,-1.291921,113.5725862,https://maps.google.com/?cid=0x0:0xd22e84b5724cb686,
perumahan,Komplek perumahan,Rumah Pribadi,"PH83+JXX, Jakatan Raya, Kec. Rungan, Kabupaten Gunung MAS, Kalimantan Tengah 74562","Jakatan Raya, Kec. Rungan, Kabupaten Gunung MAS",KALIMANTAN TENGAH,74562.0,Indonesia,,,,-1.2833856,113.5549937,https://maps.google.com/?cid=0x0:0x2811385036f4e233,
perumahan,perumahan,Lahan Kelompok Tani,"PG5J+2F7, Karya Bakti, Kec. Rungan, Kabupaten Gunung MAS, Kalimantan Tengah 74562","Karya Bakti, Kec. Rungan, Kabupaten Gunung MAS",KALIMANTAN TENGAH,74562.0,Indonesia,,,,-1.2925337,113.5323588,https://maps.google.com/?cid=0x0:0x52d0f7d548b6ad75,
perumahan,Komplek perumahan,HARDINATHA,"MHJ5+C7, Luwuk Ktr., Kec. Rungan, Kabupaten Gunung MAS, Kalimantan Tengah","Kabupaten Gunung MAS, Kalimantan Tengah",KALIMANTAN TENGAH,,Indonesia,,,,-1.3189091,113.5581831,https://maps.google.com/?cid=0x0:0x3573805558c38c21,
perumahan,Pembangunan Perumahan,Hujung Pata,"PF28+X7P, jalan pelajar, Hujung Pata, Kec. Rungan Barat, Kabupaten Gunung MAS, Kalimantan Tengah 74562","jalan pelajar, Hujung Pata, Kec. Rungan Barat, Kabupaten Gunung MAS",KALIMANTAN TENGAH,74562.0,Indonesia,,,,-1.2975448,113.4657037,https://maps.google.com/?cid=0x0:0xb5b0183199ff614e,
perumahan,Gedung Apartemen,Rumah Bapa Aput,"QF62+C6X, Rabambang, Kec. Rungan, Kabupaten Gunung MAS, Kalimantan Tengah 74562","Rabambang, Kec. Rungan, Kabupaten Gunung MAS",KALIMANTAN TENGAH,74562.0,Indonesia,,,,-1.2388758,113.4506114,https://maps.google.com/?cid=0x0:0x30551039190e2259,
perumahan,perumahan,Rumah Dinas SD Negeri Masulan,"PFPJ+MRM, Jalemu Masulan, Kec. Rungan Barat, Kabupaten Gunung MAS, Kalimantan Tengah 74562","Jalemu Masulan, Kec. Rungan Barat, Kabupaten Gunung MAS",KALIMANTAN TENGAH,74562.0,Indonesia,,,,-1.2632915,113.4820583,https://maps.google.com/?cid=0x0:0xbc0bdc011a367dfe,
perumahan,Komplek perumahan,Kambayau area,"PH8F+QC3, Jl. Cilik Riwut, Jakatan Raya, Kec. Rungan, Kabupaten Gunung MAS, Kalimantan Tengah 74562","Jl. Cilik Riwut, Jakatan Raya, Kec. Rungan, Kabupaten Gunung MAS",KALIMANTAN TENGAH,74562.0,Indonesia,,,,-1.2831067,113.57356,https://maps.google.com/?cid=0x0:0xbaf47cc5cfe4951e,
perumahan,Pembangunan Perumahan,Kabupaten gunung mas,"PHXF+445, Linau, Kec. Rungan, Kabupaten Gunung MAS, Kalimantan Tengah","Kabupaten Gunung MAS, Kalimantan Tengah",KALIMANTAN TENGAH,,Indonesia,,,,-1.2522464,113.5728501,https://maps.google.com/?cid=0x0:0x15164b7b50cba2ce,
perumahan,Perumahan,Sepriadie,"PH97+8HV, Jl. Cilik Riwut, Jakatan Raya, Kec. Rungan, Kabupaten Gunung MAS, Kalimantan Tengah 74562","Jl. Cilik Riwut, Jakatan Raya, Kec. Rungan, Kabupaten Gunung MAS",KALIMANTAN TENGAH,74562.0,Indonesia,,,,-1.2816446,113.5639192,https://maps.google.com/?cid=0x0:0xde2bccac18d75732,
perumahan,Komplek perumahan,Pondok HKM,"QGJC+GRR, Tumbang Malahoi, Kec. Rungan, Kabupaten Gunung MAS, Kalimantan Tengah 74562","Tumbang Malahoi, Kec. Rungan, Kabupaten Gunung MAS",KALIMANTAN TENGAH,74562.0,Indonesia,,,,-1.1620575,113.4741468,https://maps.google.com/?cid=0x0:0xb73384e4a030f158,
perumahan,Komplek perumahan,Ud Tiga Putra,"PH8F+X83, Jl. Cilik Riwut, Jakatan Raya, Kec. Rungan, Kabupaten Gunung MAS, Kalimantan Tengah 74562","Jl. Cilik Riwut, Jakatan Raya, Kec. Rungan, Kabupaten Gunung MAS",KALIMANTAN TENGAH,74562.0,Indonesia,82148666244.0,,,-1.2826003,113.5732913,https://maps.google.com/?cid=0x0:0xd15942dd2c6877e6,
perumahan,Sekolah Menengah Pertama,Desa tbg kuayan,"RG63+77, Tumbang Kuayan, Kec. Rungan Barat, Kabupaten Gunung MAS, Kalimantan Tengah","Kabupaten Gunung MAS, Kalimantan Tengah",KALIMANTAN TENGAH,,Indonesia,,,,-1.189287,113.50318,https://maps.google.com/?cid=0x0:0x67cb81528950898c,
perumahan,Pembangunan Perumahan,Tumbang tuwe,"X9MV+QP6, Tumbang Tuwe, Kec. Rungan Hulu, Kabupaten Gunung MAS, Kalimantan Tengah","Kabupaten Gunung MAS, Kalimantan Tengah",KALIMANTAN TENGAH,,Indonesia,,,,-1.0155834,113.3942699,https://maps.google.com/?cid=0x0:0xb9119026c3623511,
perumahan,Komplek perumahan,Pondok 1 jalemo,"PF28+X7P, Jalan negara, Hujung Pata, Kec. Rungan Barat, Kabupaten Gunung MAS, Kalimantan Tengah 74562","Jalan negara, Hujung Pata, Kec. Rungan Barat, Kabupaten Gunung MAS",KALIMANTAN TENGAH,74562.0,Indonesia,,,,-1.2975448,113.4657037,https://maps.google.com/?cid=0x0:0xff740efe01da064d,
perumahan,Pembangunan Perumahan,Desa Tumbang Bahanei,"WFJ8+V78, Tumbang Bahanei, Kec. Rungan Barat, Kabupaten Gunung MAS, Kalimantan Tengah 74561","Tumbang Bahanei, Kec. Rungan Barat, Kabupaten Gunung MAS",KALIMANTAN TENGAH,74561.0,Indonesia,,,,-1.0678476,113.4657037,https://maps.google.com/?cid=0x0:0xf587cf3fe7f3f496,
perumahan,Perhimpunan Pengembang Perumahan,Puskesmas Tumbang Jutuh,"Jl. Cilik Riwut No.100, Jakatan Raya, Kec. Rungan, Kabupaten Gunung MAS, Kalimantan Tengah 74562","Jakatan Raya, Kec. Rungan, Kabupaten Gunung MAS",KALIMANTAN TENGAH,74562.0,Indonesia,,,,-1.2935966,113.5730908,https://maps.google.com/?cid=0x0:0xde32cbe9cd3e718e,
perumahan,Komplek perumahan,Tumbang jutuh,"PH9F+4P8, Tumbang Jutuh, Kec. Rungan, Kabupaten Gunung MAS, Kalimantan Tengah","Kabupaten Gunung MAS, Kalimantan Tengah",KALIMANTAN TENGAH,,Indonesia,85750841161.0,,,-1.2822122,113.5743139,https://maps.google.com/?cid=0x0:0x80b67f99fedf5237,
perumahan,perumahan,Kec. Rungan Hulu,"Kabupaten Gunung MAS, Kalimantan Tengah","Kabupaten Gunung MAS, Kalimantan Tengah",KALIMANTAN TENGAH,,Indonesia,,,,-1.0312568,113.4736811,https://maps.google.com/?cid=0x0:0x83eaf2f915027506,
perumahan,Pembangunan Perumahan,Debry,"XFH8+P89, Sei Antai, Kec. Rungan Hulu, Kabupaten Gunung MAS, Kalimantan Tengah 74561","Sei Antai, Kec. Rungan Hulu, Kabupaten Gunung MAS",KALIMANTAN TENGAH,74561.0,Indonesia,,,,-1.0207213,113.4658712,https://maps.google.com/?cid=0x0:0x5528b1bb1009c9eb,
perumahan,Pembangunan Perumahan,Kabupaten gunung mas,"PHXF+445, Linau, Kec. Rungan, Kabupaten Gunung MAS, Kalimantan Tengah","Kabupaten Gunung MAS, Kalimantan Tengah",KALIMANTAN TENGAH,,Indonesia,,,,-1.2522464,113.5728501,https://maps.google.com/?cid=0x0:0x15164b7b50cba2ce,
perumahan,Pembangunan Perumahan,Tumbang tuwe,"X9MV+QP6, Tumbang Tuwe, Kec. Rungan Hulu, Kabupaten Gunung MAS, Kalimantan Tengah","Kabupaten Gunung MAS, Kalimantan Tengah",KALIMANTAN TENGAH,,Indonesia,,,,-1.0155834,113.3942699,https://maps.google.com/?cid=0x0:0xb9119026c3623511,
perumahan,Perumahan,DURIANSI,"VGXW+PV, Tumbang Rahuyan, Kec. Rungan Hulu, Kabupaten Gunung MAS, Kalimantan Tengah","Kabupaten Gunung MAS, Kalimantan Tengah",KALIMANTAN TENGAH,,Indonesia,,,,-1.1006516,113.5471921,https://maps.google.com/?cid=0x0:0x68e2c0e25e24ec58,
perumahan,Rumah Kayu,Hantapang,"XG9P+5V, Hantapang, Kec. Rungan Hulu, Kabupaten Gunung MAS, Kalimantan Tengah","Kabupaten Gunung MAS, Kalimantan Tengah",KALIMANTAN TENGAH,,Indonesia,,,,-1.0319784,113.5374489,https://maps.google.com/?cid=0x0:0xff93c766f006e679,
perumahan,perumahan,Tehang,"W836+Q9C, Tehang, Kec. Manuhing Raya, Kabupaten Gunung MAS, Kalimantan Tengah 74562","Tehang, Kec. Manuhing Raya, Kabupaten Gunung MAS",KALIMANTAN TENGAH,74562.0,Indonesia,,,,-1.0955601,113.3109037,https://maps.google.com/?cid=0x0:0x5980d86b68e12fa0,
perumahan,Komplek perumahan,Rumah Pribadi,"PH83+JXX, Jakatan Raya, Kec. Rungan, Kabupaten Gunung MAS, Kalimantan Tengah 74562","Jakatan Raya, Kec. Rungan, Kabupaten Gunung MAS",KALIMANTAN TENGAH,74562.0,Indonesia,,,,-1.2833856,113.5549937,https://maps.google.com/?cid=0x0:0x2811385036f4e233,
perumahan,Gedung Apartemen,Rumah Bapa Niki,"VG9R+X9, Batu Puter, Kec. Rungan Hulu, Kabupaten Gunung MAS, Kalimantan Tengah","Kabupaten Gunung MAS, Kalimantan Tengah",KALIMANTAN TENGAH,,Indonesia,,,,-1.1296809,113.5408242,https://maps.google.com/?cid=0x0:0x4248155ea9225bba,
perumahan,Komplek perumahan,Pondok HKM,"QGJC+GRR, Tumbang Malahoi, Kec. Rungan, Kabupaten Gunung MAS, Kalimantan Tengah 74562","Tumbang Malahoi, Kec. Rungan, Kabupaten Gunung MAS",KALIMANTAN TENGAH,74562.0,Indonesia,,,,-1.1620575,113.4741468,https://maps.google.com/?cid=0x0:0xb73384e4a030f158,
perumahan,perumahan,Kec. Sepang,"Kabupaten Gunung MAS, Kalimantan Tengah","Kabupaten Gunung MAS, Kalimantan Tengah",KALIMANTAN TENGAH,,Indonesia,,,,-1.4876909,113.895275,https://maps.google.com/?cid=0x0:0x71a5f1e2d2433334,
perumahan,perumahan,Sepang Simin,"Kec. Sepang, Kabupaten Gunung MAS, Kalimantan Tengah","Kabupaten Gunung MAS, Kalimantan Tengah",KALIMANTAN TENGAH,,Indonesia,,,,-1.4886343,113.8465758,https://maps.google.com/?cid=0x0:0x5f0110d9e1b20173,
perumahan,Toko bahan makanan,Sepang Simin 1978,"GW62+J66, Sepang Simin, Kec. Sepang, Kabupaten Gunung MAS, Kalimantan Tengah 74863","Sepang Simin, Kec. Sepang, Kabupaten Gunung MAS",KALIMANTAN TENGAH,74863.0,Indonesia,,,,-1.4884512,113.9005157,https://maps.google.com/?cid=0x0:0x428fd7c8cd5c377b,
perumahan,Pom bensin/SPBU,SPBU SEPANG,"GW7C+X9P, Tewai Baru, Kec. Sepang, Kabupaten Gunung MAS, Kalimantan Tengah 74863","Tewai Baru, Kec. Sepang, Kabupaten Gunung MAS",KALIMANTAN TENGAH,74863.0,Indonesia,,,,-1.4850539,113.9209707,https://maps.google.com/?cid=0x0:0x9e95ebe3607909e,
perumahan,Komplek perumahan,RUMAH PETRA,"GV5H+9X3, Sepang Simin, Kec. Sepang, Kabupaten Gunung MAS, Kalimantan Tengah","Kabupaten Gunung MAS, Kalimantan Tengah",KALIMANTAN TENGAH,,Indonesia,,,,-1.4916037,113.8799299,https://maps.google.com/?cid=0x0:0x58728706b13ef2ed,
perumahan,Komplek perumahan,Rumah Hardiman Adyaa Riel Nainggolan,"GV5V+XGH, Jl. Antang Taoi, Sepang Simin, Kec. Sepang, Kabupaten Gunung MAS, Kalimantan Tengah 74863","Jl. Antang Taoi, Sepang Simin, Kec. Sepang, Kabupaten Gunung MAS",KALIMANTAN TENGAH,74863.0,Indonesia,,,,-1.490063,113.893875,https://maps.google.com/?cid=0x0:0xc625601a1649407,
perumahan,Pembangunan Perumahan,Rumah BP. Andre Mahman/Mahir,"GV7X+24M, Sepang Simin, Kec. Sepang, Kabupaten Gunung MAS, Kalimantan Tengah 74863","Sepang Simin, Kec. Sepang, Kabupaten Gunung MAS",KALIMANTAN TENGAH,74863.0,Indonesia,,,,-1.4874075,113.8977936,https://maps.google.com/?cid=0x0:0xe29dc241f63d30ae,
perumahan,Komplek perumahan,Hajijah sepang simin,"GV5R+PV5, Jl. Antang Taoi, Sepang Simin, Kec. Sepang, Kabupaten Gunung MAS, Kalimantan Tengah 74863","Jl. Antang Taoi, Sepang Simin, Kec. Sepang, Kabupaten Gunung MAS",KALIMANTAN TENGAH,74863.0,Indonesia,,,,-1.490748,113.8922392,https://maps.google.com/?cid=0x0:0xe045762f22529c1c,
perumahan,Komplek perumahan,Grs,"GV6W+Q54, Jl. Pemda, Sepang Simin, Kec. Sepang, Kabupaten Gunung MAS, Kalimantan Tengah 74863","Jl. Pemda, Sepang Simin, Kec. Sepang, Kabupaten Gunung MAS",KALIMANTAN TENGAH,74863.0,Indonesia,,,,-1.4881184,113.8954404,https://maps.google.com/?cid=0x0:0xe0a7a006fa5387db,
perumahan,Komplek perumahan,Bapak Fernando (bue Vania),"GV6X+RGF, Sepang Simin, Kec. Sepang, Kabupaten Gunung MAS, Kalimantan Tengah","Kabupaten Gunung MAS, Kalimantan Tengah",KALIMANTAN TENGAH,,Indonesia,,,,-1.4879347,113.8987837,https://maps.google.com/?cid=0x0:0x605e627cc036648f,
perumahan,Pembangunan Perumahan,Naftali Indra,"GV5V+W38, Jl. Antang Taoi, Sepang Simin, Kec. Sepang, Kabupaten Gunung MAS, Kalimantan Tengah 74571","Jl. Antang Taoi, Sepang Simin, Kec. Sepang, Kabupaten Gunung MAS",KALIMANTAN TENGAH,74571.0,Indonesia,,,,-1.4901947,113.8927487,https://maps.google.com/?cid=0x0:0x47f5046314286a1a,
perumahan,Komplek perumahan,"Arif W, Isik","GV6W+W27, Sepang Simin, Kec. Sepang, Kabupaten Gunung MAS, Kalimantan Tengah 74863","Sepang Simin, Kec. Sepang, Kabupaten Gunung MAS",KALIMANTAN TENGAH,74863.0,Indonesia,,,,-1.4872577,113.8938126,https://maps.google.com/?cid=0x0:0xb5a2e1797fe4e175,
perumahan,Komplek perumahan,Lelybeni,"Ke, Sepang Kota, Kec. Sepang, Kabupaten Gunung MAS, Kalimantan Tengah","Kabupaten Gunung MAS, Kalimantan Tengah",KALIMANTAN TENGAH,,Indonesia,,,,-1.4965182,113.9035229,https://maps.google.com/?cid=0x0:0x4cd7d014d08d6f1c,
perumahan,Losmen,Guest House Sepang Simin,"Jl. Iskandar No.26kel, Jl. Bandar No.11, Sepang Simin, Kec. Sepang, Kabupaten Gunung MAS, Kalimantan Tengah 74863","Jl. Bandar No.11, Sepang Simin, Kec. Sepang, Kabupaten Gunung MAS",KALIMANTAN TENGAH,74863.0,Indonesia,85349587805.0,,,-1.4880559,113.8976528,https://maps.google.com/?cid=0x0:0x691db127a8616ff1,
perumahan,Pembangunan Perumahan,Rumah indu Remond,"GV6X+R4W, Sepang Kota, Kec. Sepang, Kabupaten Gunung MAS, Kalimantan Tengah 74863","Sepang Kota, Kec. Sepang, Kabupaten Gunung MAS",KALIMANTAN TENGAH,74863.0,Indonesia,,,,-1.4878794,113.8978326,https://maps.google.com/?cid=0x0:0xa339d51cca08af58,
perumahan,Komplek perumahan,Christ,"GW22+HVV, Sepang Kota, Kec. Sepang, Kabupaten Gunung MAS, Kalimantan Tengah","Kabupaten Gunung MAS, Kalimantan Tengah",KALIMANTAN TENGAH,,Indonesia,,,,-1.4985094,113.902173,https://maps.google.com/?cid=0x0:0x40f6c89c104597c2,
perumahan,Komplek perumahan,Yoga Finanda,"GR52+2H, Sepang Simin, Kec. Sepang, Kabupaten Gunung MAS, Kalimantan Tengah 73227","Sepang Simin, Kec. Sepang, Kabupaten Gunung MAS",KALIMANTAN TENGAH,73227.0,Indonesia,,,,-1.4923783,113.8013874,https://maps.google.com/?cid=0x0:0x8add747afae562a,
perumahan,Pembangunan Perumahan,Du Susi (Kawati) / GRESS'NANOTERA,"GV6W+W2W, Sepang Simin, Kec. Sepang, Kabupaten Gunung MAS, Kalimantan Tengah 74863","Sepang Simin, Kec. Sepang, Kabupaten Gunung MAS",KALIMANTAN TENGAH,74863.0,Indonesia,,,,-1.4881108,113.8953828,https://maps.google.com/?cid=0x0:0x25e530fb492d4036,
perumahan,perumahan,Kalimantan Tengah 74571,"Kabupaten Gunung MAS, Kalimantan Tengah","Kabupaten Gunung MAS, Kalimantan Tengah",KALIMANTAN TENGAH,,Indonesia,,,,-1.1433424,113.9060624,https://maps.google.com/?cid=0x0:0x7dbb143be4104e8e,
perumahan,Pembangunan Perumahan,Malvino Hiskia Paundra,"GV7R+8V7, Sepang Simin, Kec. Sepang, Kabupaten Gunung MAS, Kalimantan Tengah","Kabupaten Gunung MAS, Kalimantan Tengah",KALIMANTAN TENGAH,,Indonesia,,,,-1.4867239,113.8921696,https://maps.google.com/?cid=0x0:0x5a80b6dcd6557e35,
perumahan,perumahan,Kalimantan Tengah 74552,Kalimantan Tengah,Kalimantan Tengah,KALIMANTAN TENGAH,,Indonesia,,,,-0.7250328,113.6204644,https://maps.google.com/?cid=0x0:0xb94d62208c0f5814,
perumahan,Pembangunan Perumahan,Riaas mebel dan batako (pitung),"RT.19, Tewah, Miri Manasa, Kabupaten Gunung MAS, Kalimantan Tengah 74552","Tewah, Miri Manasa, Kabupaten Gunung MAS",KALIMANTAN TENGAH,74552.0,Indonesia,85349394372.0,,,-0.7250328,113.6204644,https://maps.google.com/?cid=0x0:0x8c39217241fd4542,
perumahan,Komplek perumahan,Tumbang Manyoi,"9MF2+V3, Rangan Hiran, Miri Manasa, Kabupaten Gunung MAS, Kalimantan Tengah 74552","Rangan Hiran, Miri Manasa, Kabupaten Gunung MAS",KALIMANTAN TENGAH,74552.0,Indonesia,,,,-0.6252246,113.6502459,https://maps.google.com/?cid=0x0:0x696645276794c242,
perumahan,Komplek perumahan,Tumbang Napoi,"Tumbang Napoi, Miri Manasa, Kabupaten Gunung MAS, Kalimantan Tengah","Kabupaten Gunung MAS, Kalimantan Tengah",KALIMANTAN TENGAH,,Indonesia,,,,-0.7049375,113.5921875,https://maps.google.com/?cid=0x0:0x4b68102202997960,
perumahan,Komplek perumahan,Desa Sei Riang,"3JW3+72H, Sei Riang, Kec. Tewah, Kabupaten Gunung MAS, Kalimantan Tengah 74561","Sei Riang, Kec. Tewah, Kabupaten Gunung MAS",KALIMANTAN TENGAH,74561.0,Indonesia,,,,-0.904306,113.6026095,https://maps.google.com/?cid=0x0:0xb7f7cf14aeb70fe4,
perumahan,Pembangunan Perumahan,Desa karason,"4M32+W39, Karason, Kec. Tewah, Kabupaten Gunung MAS, Kalimantan Tengah","Kabupaten Gunung MAS, Kalimantan Tengah",KALIMANTAN TENGAH,,Indonesia,,,,-0.8952204,113.6502213,https://maps.google.com/?cid=0x0:0xd4405fbd4c5f9e3d,
perumahan,Pembangunan Perumahan,Desa Sandung Tambun,"3JQW+H3, Taja Urap, Kec. Tewah, Kabupaten Gunung MAS, Kalimantan Tengah 74561","Taja Urap, Kec. Tewah, Kabupaten Gunung MAS",KALIMANTAN TENGAH,74561.0,Indonesia,,,,-0.9110755,113.6452459,https://maps.google.com/?cid=0x0:0x606a81e208957f60,
perumahan,perumahan,Kec. Tewah,"Kabupaten Gunung MAS, Kalimantan Tengah","Kabupaten Gunung MAS, Kalimantan Tengah",KALIMANTAN TENGAH,,Indonesia,,,,-1.0495046,113.7212207,https://maps.google.com/?cid=0x0:0x957b01e921372b79,
perumahan,Kantor Pemerintah,Desa Harowu,"CMQV+H3, Harowu, Miri Manasa, Kabupaten Gunung MAS, Kalimantan Tengah","Kabupaten Gunung MAS, Kalimantan Tengah",KALIMANTAN TENGAH,,Indonesia,,,,-0.561042,113.692731,https://maps.google.com/?cid=0x0:0x1a8c8d075e030ff6,
