Category;Real Category;Business Name;Address;City;State;Postal Code;Country;Phone;Email;Website;Latitude;Longitude;Map Link;Details Link
"komplek housing";"komplek housing";"Distrik Tiom";"Kabupaten Lanny Jaya, Papua";"Kabupaten Lanny Jaya, Papua";"PAPUA";"";"Indonesia";"";"";"";"-3.9277573";"138.4557817";"https://maps.google.com/?cid=0x0:0x1bdc1c8bed88c23f";""
"komplek housing";"Komplek perumahan";"Unggeme";"3FJ2+PC, Oyi, Distrik Tiom, Kabupaten Lanny Jaya, Papua";"Kabupaten Lanny Jaya, Papua";"PAPUA";"";"Indonesia";"";"";"";"-3.9182145";"138.4511039";"https://maps.google.com/?cid=0x0:0xed65eb9c9981dfbe";""
"komplek housing";"Komplek perumahan";"TANAH ADAT MILIK AL.ABUGWE WEYA";"Jl. Inggen Wanena Kampung Milinggame Distrik Tiomneri Kabupaten Lanny jaya Propinsi Papua Pengunungan, 99595";"Kabupaten Lanny Jaya, Papua";"PAPUA";"";"Indonesia";"";"";"";"-3.8890253";"138.4165087";"https://maps.google.com/?cid=0x0:0x147c9d9f1fe5002f";""
"komplek housing";"Sekolah Dasar";"Komplek Kelas Unggulan Tiom";"3FF3+CCF, Olume, Kurulu, Kabupaten Lanny Jaya, Papua 99567";"Olume, Kurulu, Kabupaten Lanny Jaya";"PAPUA";"99567";"Indonesia";"";"";"";"-3.9264408";"138.4535523";"https://maps.google.com/?cid=0x0:0x8d4d7546a107da2a";""
"komplek housing";"Komplek perumahan";"Kampung Ilim";"2864+H7, Ilim, Distrik Goa Balim, Kabupaten Lanny Jaya, Papua";"Kabupaten Lanny Jaya, Papua";"PAPUA";"";"Indonesia";"";"";"";"-3.9885625";"138.3056875";"https://maps.google.com/?cid=0x0:0x10fc243d3250ccc2";""
"komplek housing";"Komplek perumahan";"TOWOLOM KUNUME";"4C59+JWX, Jl. Raya Inggen wanena, Kamp.Kuwopaga, Distrik Tiomneri, Kabupaten Lanny Jaya, Papua";"Kabupaten Lanny Jaya, Papua";"PAPUA";"";"Indonesia";"";"";"";"-3.8908941";"138.4198539";"https://maps.google.com/?cid=0x0:0xfd31f2eb4d28a67";""
"komplek housing";"Komplek perumahan";"mata air muguneri";"3CMF+MG2, Kumuluk, Distrik Tiom, Kabupaten Lanny Jaya, Papua 99567";"Kumuluk, Distrik Tiom, Kabupaten Lanny Jaya";"PAPUA";"99567";"Indonesia";"";"";"";"-3.9158618";"138.4237799";"https://maps.google.com/?cid=0x0:0x923dfc1b17ae4827";""
"komplek housing";"Perhimpunan Pengembang Perumahan";"Kel.N.Wonda";"3FC3+FP2, werime, Kec. Yiginua, Kabupaten Lanny Jaya, Papua 99567";"werime, Kec. Yiginua, Kabupaten Lanny Jaya";"PAPUA";"99567";"Indonesia";" 082302971058";"";"";"-3.9296572";"138.4541367";"https://maps.google.com/?cid=0x0:0x937f2157df8c1495";""
"komplek housing";"Komplek perumahan";"Dr. Dalos Wanena";"4C4F+93, Gubo, Distrik Tiomneri, Kabupaten Lanny Jaya, Papua 99567";"Gubo, Distrik Tiomneri, Kabupaten Lanny Jaya";"PAPUA";"99567";"Indonesia";"";"";"";"-3.8939749";"138.4227681";"https://maps.google.com/?cid=0x0:0xfdeaf91aa7548f31";""
"komplek housing";"Rumah Kayu";"Rumah Keluarga A Kogoya";"3F95+VJ2, Golime, Distrik Tiom, Kabupaten Lanny Jaya, Papua 99567";"Golime, Distrik Tiom, Kabupaten Lanny Jaya";"PAPUA";"99567";"Indonesia";"";"";"";"-3.9299099";"138.4584197";"https://maps.google.com/?cid=0x0:0xe652bcb982dedad1";""
"komplek housing";"Sekolah Menengah Pertama";"Smp dua 2";"39XC+6XX, Gubo, Distrik Tiomneri, Kabupaten Lanny Jaya, Papua";"Kabupaten Lanny Jaya, Papua";"PAPUA";"";"Indonesia";"";"";"";"-3.901893";"138.372498";"https://maps.google.com/?cid=0x0:0x4378852d9162caa3";""
"komplek housing";"Rumah Kaca";"The Palm Green Residence";"Jl. Gabus Raya No.07 BLOK C12, RT.005/RW.012, Sriamur, Kec. Tambun Utara, Kabupaten Bekasi, Jawa Barat 17510";"RT.005/RW.012, Sriamur, Kec. Tambun Utara, Kabupaten Bekasi";"PAPUA";"17510";"Indonesia";"";"";"";"-6.189439";"107.0503732";"https://maps.google.com/?cid=0x0:0xaac6aaed0dcc7d1b";""
"komplek housing";"Kantor Perusahaan";"Grand Sukamulya Cisauk";"Jalan kampung Leuwiranji, Sukamulya, Kec. Rumpin, Kabupaten Bogor, Jawa Barat 16350";"Sukamulya, Kec. Rumpin, Kabupaten Bogor";"PAPUA";"16350";"Indonesia";" 085780881004";"";"";"-6.3721068";"106.6459588";"https://maps.google.com/?cid=0x0:0x13e210069e886101";""
"komplek housing";"Otoritas Perumahan";"Pandawa Residence - Gabus Bekasi";"Srijaya, Kec. Tambun Utara, Kabupaten Bekasi, Jawa Barat 17510";"Kec. Tambun Utara, Kabupaten Bekasi";"PAPUA";"17510";"Indonesia";" 081382679618";"";"";"-6.1945061";"107.0651959";"https://maps.google.com/?cid=0x0:0x981d9c1be28210ae";""
"komplek housing";"Komplek perumahan";"Perumahan Citra Indah City Jonggol";"Jl. Raya Cileungsi - Jonggol No.Km.23, Sukamaju, Kec. Jonggol, Kabupaten Bogor, Jawa Barat 16830";"Sukamaju, Kec. Jonggol, Kabupaten Bogor";"PAPUA";"16830";"Indonesia";" 081281106515";"";"";"-6.4398138";"107.0493173";"https://maps.google.com/?cid=0x0:0xf4294b08f982b372";""
"komplek housing";"Perhimpunan Pengembang Perumahan";"Cari Rumah 23";"Jl. Tugu Macan No.28, RT.01/RW.06, Ragajaya, Kecamatan Bojonggede, Kabupaten Bogor, Jawa Barat 16920";"RT.01/RW.06, Ragajaya, Kecamatan Bojonggede, Kabupaten Bogor";"PAPUA";"16920";"Indonesia";" 088224695904";"";"";"-6.4478896";"106.7862507";"https://maps.google.com/?cid=0x0:0x7193ea8a5f49955a";""
"komplek housing";"komplek housing";"Komplek Housing";"Blok Bojong Nangka I, Jl. Ring Rudal Blok Bojong Nangka I No.68, RT.001/RW.007, Jatirahayu, Kec. Pd. Melati, Kota Bks, Jawa Barat 17414";"Jl. Ring Rudal Blok Bojong Nangka I No.68, RT.001/RW.007, Jatirahayu, Kec. Pd. Melati, Kota Bks";"PAPUA";"17414";"Indonesia";"";"";"";"-6.293724";"106.9165114";"https://maps.google.com/?cid=0x0:0x9c50464976dee674";""
"komplek housing";"komplek housing";"Pirime";"Distrik Pirime, Kabupaten Lanny Jaya, Papua";"Kabupaten Lanny Jaya, Papua";"PAPUA";"";"Indonesia";"";"";"";"-3.9796675";"138.5237246";"https://maps.google.com/?cid=0x0:0x8a23ad303f6ee4a7";""
"komplek housing";"Kantor Pemerintah";"Pirime";"2GCF+4FQ, Pirime, Distrik Pirime, Kabupaten Lanny Jaya, Papua 99567";"Pirime, Distrik Pirime, Kabupaten Lanny Jaya";"PAPUA";"99567";"Indonesia";"";"";"";"-3.9796675";"138.5237246";"https://maps.google.com/?cid=0x0:0xe890cc31e6a4c105";""
"komplek housing";"Komplek perumahan";"R.dinas puskesmas pirime";"2GHR+4CR, Desa, bugumbak, Distrik Pirime, Kabupaten Lanny Jaya, Papua";"Kabupaten Lanny Jaya, Papua";"PAPUA";"";"Indonesia";" 081385622898";"";"";"-3.972132";"138.5410108";"https://maps.google.com/?cid=0x0:0xce9ef1a73d07a111";""
"komplek housing";"Komplek perumahan";"Komplek DDN B.23 Jatiwaringin pondok gede";"PW89+4F3, Jl. Cendrawasih, RT.001/RW.010, Jatimakmur, Kec. Pd. Gede, Kota Bks, Jawa Barat 17413";"Jl. Cendrawasih, RT.001/RW.010, Jatimakmur, Kec. Pd. Gede, Kota Bks";"PAPUA";"17413";"Indonesia";"";"";"";"-6.2847437";"106.918686";"https://maps.google.com/?cid=0x0:0x7d3cc1ed6198c39d";""
"komplek housing";"Establishment";"Ahzavi Residence Pondok Gede";"PW4J+JHQ, Jl. Celepuk I Ujung, RT.012/RW.014, Jatirahayu, Kec. Pd. Melati, Kota Bks, Jawa Barat 17414";"Jl. Celepuk I Ujung, RT.012/RW.014, Jatirahayu, Kec. Pd. Melati, Kota Bks";"PAPUA";"17414";"Indonesia";"";"";"";"-6.2934194";"106.9314803";"https://maps.google.com/?cid=0x0:0x7b24a580738077da";""
"komplek housing";"Gedung Apartemen";"Denpasar Residence";"Jl. Prof. DR. Satrio No.18, RT.7/RW.4, Kuningan, Karet Kuningan, Kecamatan Setiabudi, Kota Jakarta Selatan, Daerah Khusus Ibukota Jakarta 12940";"RT.7/RW.4, Kuningan, Karet Kuningan, Kecamatan Setiabudi, Kota Jakarta Selatan";"PAPUA";"12940";"Indonesia";" 0818799887";"";"";"-6.2244566";"106.8295118";"https://maps.google.com/?cid=0x0:0xa296e705381f4c2c";""
"komplek housing";"Komplek perumahan";"Rumah Bekasi";"Jl. Kemuning Indah Blok IG No.7, RT.004/RW.019, Pejuang, Kecamatan Medan Satria, Kota Bks, Jawa Barat 17131";"RT.004/RW.019, Pejuang, Kecamatan Medan Satria, Kota Bks";"PAPUA";"17131";"Indonesia";"";"";"";"-6.1766155";"106.9809249";"https://maps.google.com/?cid=0x0:0x963711da2190ba04";""
"komplek housing";"Komplek perumahan";"Perumahan Kyra Residence 3 kantor pemasaran";"Jl. Gudang Bin Ali, Bahagia, Kec. Babelan, Kabupaten Bekasi, Jawa Barat 17610";"Bahagia, Kec. Babelan, Kabupaten Bekasi";"PAPUA";"17610";"Indonesia";" 082112762916";"";"";"-6.1945388";"107.0274494";"https://maps.google.com/?cid=0x0:0x3874af9c9c530e23";""
"komplek housing";"Komplek perumahan";"Kavling rizqi akbar";"Jl. Sengon Timur I, Cijengkol, Kec. Setu, Kabupaten Bekasi, Jawa Barat 17320";"Cijengkol, Kec. Setu, Kabupaten Bekasi";"PAPUA";"17320";"Indonesia";" 087763482004";"";"";"-6.3311678";"107.0442377";"https://maps.google.com/?cid=0x0:0x88fd42d67a10852e";""
"komplek housing";"komplek housing";"Papua 99555";"Kabupaten Jayawijaya, Papua";"Kabupaten Jayawijaya, Papua";"PAPUA";"";"Indonesia";"";"";"";"-3.9034136";"138.7593128";"https://maps.google.com/?cid=0x0:0xed60d8d8dddb4cef";""
"komplek housing";"komplek housing";"Papua";"";"Papua";"PAPUA";"";"Indonesia";"";"";"";"-4.269928";"138.0803529";"https://maps.google.com/?cid=0x0:0xeba94e9c5eefe673";""
"komplek housing";"Perumahan";"Cluster D'mahaka Mansion";"Cluster Mahaka Mansion, Jatisari, Kec. Jatiasih, Kota Bks, Jawa Barat 17426";"Jatisari, Kec. Jatiasih, Kota Bks";"PAPUA";"17426";"Indonesia";" 08176020535";"";"";"-6.3321389";"106.9562797";"https://maps.google.com/?cid=0x0:0x7f0477723030299";""
"komplek housing";"komplek housing";"Papua 99556";"Papua";"Papua";"PAPUA";"";"Indonesia";"";"";"";"-3.7561908";"138.6589406";"https://maps.google.com/?cid=0x0:0x5a2842ee64e9fe01";""
"komplek housing";"Pembangunan Perumahan";"Arimagame";"5MXM+36, Injuta, Tagineri, Kabupaten Jayawijaya, Papua";"Kabupaten Jayawijaya, Papua";"PAPUA";"";"Indonesia";"";"";"";"-3.8023476";"138.6831159";"https://maps.google.com/?cid=0x0:0x568c140bf14e2d24";""
"komplek housing";"Komplek perumahan";"Kampung Gelokme";"4MHW+F2, Yudani, Distrik Gamelia, Kabupaten Lanny Jaya, Papua";"Kabupaten Lanny Jaya, Papua";"PAPUA";"";"Indonesia";"";"";"";"-3.8713704";"138.6950346";"https://maps.google.com/?cid=0x0:0x9222d03252908fdd";""
"komplek housing";"Komplek perumahan";"Lame Annuak";"4M6W+X7, Yudani, Distrik Gamelia, Kabupaten Lanny Jaya, Papua";"Kabupaten Lanny Jaya, Papua";"PAPUA";"";"Indonesia";"";"";"";"-3.8875565";"138.695669";"https://maps.google.com/?cid=0x0:0x85ef2c55ee4e7476";""
"komplek housing";"Komplek perumahan";"Komplek Perumahan YPPGI";"8F7J+Q63, Karubaga, Kec. Karubaga, Kabupaten Tolikara, Papua";"Kabupaten Tolikara, Papua";"PAPUA";"";"Indonesia";"";"";"";"-3.6856154";"138.4805518";"https://maps.google.com/?cid=0x0:0x1e996dde1edb3b03";""
"komplek housing";"komplek housing";"Paremal Boys {PRM}";"8M98+4WJ, Bokondini, Kec. Bokondini, Kabupaten Tolikara, Papua 99556";"Bokondini, Kec. Bokondini, Kabupaten Tolikara";"PAPUA";"99556";"Indonesia";" 081221416127";"";"";"-3.6832944";"138.6664513";"https://maps.google.com/?cid=0x0:0x6f72c9da0d8b50a4";""
"komplek housing";"Pembangunan Perumahan";"LOKASI Pemukiman Mullyalik";"3QX8+G2G, Piramid, Asologaima, Kabupaten Jayawijaya, Papua 99555";"Piramid, Asologaima, Kabupaten Jayawijaya";"PAPUA";"99555";"Indonesia";"";"";"";"-3.9011808";"138.7650936";"https://maps.google.com/?cid=0x0:0xff378ec6de4bef10";""
"komplek housing";"Komplek perumahan";"Dusun Kulonggu";"4PFX+2Q, Algonik, Distrik Piramid, Kabupaten Jayawijaya, Papua";"Kabupaten Jayawijaya, Papua";"PAPUA";"";"Indonesia";"";"";"";"-3.8774411";"138.7495133";"https://maps.google.com/?cid=0x0:0x422831d97217f5ce";""
"komplek housing";"Komplek perumahan";"Dusun Luime";"3QW7+24X, Piramid, Distrik Piramid, Kabupaten Jayawijaya, Papua";"Kabupaten Jayawijaya, Papua";"PAPUA";"";"Indonesia";"";"";"";"-3.9051924";"138.7622756";"https://maps.google.com/?cid=0x0:0x600f54c31434878f";""
"komplek housing";"Komplek perumahan";"Usilimo";"3VC8+XX7, Usilimo, Distrik Wesaput, Kabupaten Jayawijaya, Papua";"Kabupaten Jayawijaya, Papua";"PAPUA";"";"Indonesia";"";"";"";"-3.9275897";"138.8674138";"https://maps.google.com/?cid=0x0:0xadafa46c84b35939";""
"komplek housing";"Komplek perumahan";"Kampung Ilenam, Distrik Usilimo,Kabupaten Jayawijaya";"3RVM+7W7, Siba, Kec. Kurulu, Kabupaten Jayawijaya, Papua";"Kabupaten Jayawijaya, Papua";"PAPUA";"";"Indonesia";"";"";"";"-3.9068475";"138.8348115";"https://maps.google.com/?cid=0x0:0x81d36859e7a9e55f";""
"komplek housing";"komplek housing";"Distrik Gamelia";"Kabupaten Lanny Jaya, Papua";"Kabupaten Lanny Jaya, Papua";"PAPUA";"";"Indonesia";"";"";"";"-3.8864208";"138.6713122";"https://maps.google.com/?cid=0x0:0xd4cdc850c1f0ad1b";""
"komplek housing";"komplek housing";"Distrik Dimba";"Kabupaten Lanny Jaya, Papua";"Kabupaten Lanny Jaya, Papua";"PAPUA";"";"Indonesia";"";"";"";"-3.8454051";"138.5426379";"https://maps.google.com/?cid=0x0:0x36c26bec90d3b953";""
"komplek housing";"Perhimpunan Pengembang Perumahan";"Kel.N.Wonda";"3FC3+FP2, werime, Kec. Yiginua, Kabupaten Lanny Jaya, Papua 99567";"werime, Kec. Yiginua, Kabupaten Lanny Jaya";"PAPUA";"99567";"Indonesia";" 082302971058";"";"";"-3.9296572";"138.4541367";"https://maps.google.com/?cid=0x0:0x937f2157df8c1495";""
"komplek housing";"Komplek perumahan";"TANAH ADAT MILIK AL.ABUGWE WEYA";"Jl. Inggen Wanena Kampung Milinggame Distrik Tiomneri Kabupaten Lanny jaya Propinsi Papua Pengunungan, 99595";"Kabupaten Lanny Jaya, Papua";"PAPUA";"";"Indonesia";"";"";"";"-3.8890253";"138.4165087";"https://maps.google.com/?cid=0x0:0x147c9d9f1fe5002f";""
"komplek housing";"Komplek perumahan";"Elos Wanena";"4C4F+93, Gubo, Distrik Tiomneri, Kabupaten Lanny Jaya, Papua 99567";"Gubo, Distrik Tiomneri, Kabupaten Lanny Jaya";"PAPUA";"99567";"Indonesia";"";"";"";"-3.8934318";"138.4237614";"https://maps.google.com/?cid=0x0:0x2f573e404c686333";""
"komplek housing";"Komplek perumahan";"Dr. Dalos Wanena";"4C4F+93, Gubo, Distrik Tiomneri, Kabupaten Lanny Jaya, Papua 99567";"Gubo, Distrik Tiomneri, Kabupaten Lanny Jaya";"PAPUA";"99567";"Indonesia";"";"";"";"-3.8939749";"138.4227681";"https://maps.google.com/?cid=0x0:0xfdeaf91aa7548f31";""
"komplek housing";"Komplek perumahan";"R.dinas puskesmas pirime";"2GHR+4CR, Desa, bugumbak, Distrik Pirime, Kabupaten Lanny Jaya, Papua";"Kabupaten Lanny Jaya, Papua";"PAPUA";"";"Indonesia";" 081385622898";"";"";"-3.972132";"138.5410108";"https://maps.google.com/?cid=0x0:0xce9ef1a73d07a111";""
"komplek housing";"Komplek perumahan";"TOWOLOM KUNUME";"4C59+JWX, Jl. Raya Inggen wanena, Kamp.Kuwopaga, Distrik Tiomneri, Kabupaten Lanny Jaya, Papua";"Kabupaten Lanny Jaya, Papua";"PAPUA";"";"Indonesia";"";"";"";"-3.8908941";"138.4198539";"https://maps.google.com/?cid=0x0:0xfd31f2eb4d28a67";""
"komplek housing";"Komplek perumahan";"Dusun Yigebbu";"2FCV+XC, Karunggame, Distrik Pirime, Kabupaten Lanny Jaya, Papua";"Kabupaten Lanny Jaya, Papua";"PAPUA";"";"Indonesia";"";"";"";"-3.9776084";"138.4935742";"https://maps.google.com/?cid=0x0:0xced5df09cea544dd";""
"komplek housing";"Kantor Pemerintah";"Pirime";"2GCF+4FQ, Pirime, Distrik Pirime, Kabupaten Lanny Jaya, Papua 99567";"Pirime, Distrik Pirime, Kabupaten Lanny Jaya";"PAPUA";"99567";"Indonesia";"";"";"";"-3.9796675";"138.5237246";"https://maps.google.com/?cid=0x0:0xe890cc31e6a4c105";""
"komplek housing";"Rumah Kayu";"Rumah Keluarga A Kogoya";"3F95+VJ2, Golime, Distrik Tiom, Kabupaten Lanny Jaya, Papua 99567";"Golime, Distrik Tiom, Kabupaten Lanny Jaya";"PAPUA";"99567";"Indonesia";"";"";"";"-3.9299099";"138.4584197";"https://maps.google.com/?cid=0x0:0xe652bcb982dedad1";""
"komplek housing";"Perhimpunan Pengembang Perumahan";"L'AKER HEAGHST WEUWENAKO";"3CJQ+9X, Ninabua, Distrik Tiom, Kabupaten Lanny Jaya, Papua";"Kabupaten Lanny Jaya, Papua";"PAPUA";"";"Indonesia";"";"";"";"-3.919028";"138.4398579";"https://maps.google.com/?cid=0x0:0x9811d860756af0cd";""
"komplek housing";"Komplek perumahan";"mata air muguneri";"3CMF+MG2, Kumuluk, Distrik Tiom, Kabupaten Lanny Jaya, Papua 99567";"Kumuluk, Distrik Tiom, Kabupaten Lanny Jaya";"PAPUA";"99567";"Indonesia";"";"";"";"-3.9158618";"138.4237799";"https://maps.google.com/?cid=0x0:0x923dfc1b17ae4827";""
"komplek housing";"Komplek perumahan";"Dusun Kinnime";"2FCR+H3, Karunggame, Distrik Pirime, Kabupaten Lanny Jaya, Papua";"Kabupaten Lanny Jaya, Papua";"PAPUA";"";"Indonesia";"";"";"";"-3.9785621";"138.4901193";"https://maps.google.com/?cid=0x0:0x5a80afcfe8d14433";""
"komplek housing";"Komplek perumahan";"GOLANI L'AKER HEIGHTS WEUWENAKO";"L'AKER HEIGHTS WEUWENAKO. Jl. Ninabua Gg. Ir. Mendius weya, Kompleks Perumahan DPR, Ninabua, Distrik Tiom, Kabupaten Lanny Jaya, Papua 99507";"Kompleks Perumahan DPR, Ninabua, Distrik Tiom, Kabupaten Lanny Jaya";"PAPUA";"99507";"Indonesia";" 082248339888";"";"";"-3.9190695";"138.4398116";"https://maps.google.com/?cid=0x0:0xc591846d6138df91";""
"komplek housing";"komplek housing";"Papua";"";"Papua";"PAPUA";"";"Indonesia";"";"";"";"-4.269928";"138.0803529";"https://maps.google.com/?cid=0x0:0xeba94e9c5eefe673";""
"komplek housing";"komplek housing";"Papua 99563";"Papua";"Papua";"PAPUA";"";"Indonesia";"";"";"";"-3.9612229";"138.1597946";"https://maps.google.com/?cid=0x0:0xb123b70d10849bd1";""
"komplek housing";"komplek housing";"Distrik Melagineri";"Kabupaten Lanny Jaya, Papua";"Kabupaten Lanny Jaya, Papua";"PAPUA";"";"Indonesia";"";"";"";"-3.9824061";"138.3663998";"https://maps.google.com/?cid=0x0:0x6c4ed0699cdb375";""
"komplek housing";"komplek housing";"Papua 99563";"Papua";"Papua";"PAPUA";"";"Indonesia";"";"";"";"-3.9612229";"138.1597946";"https://maps.google.com/?cid=0x0:0xb123b70d10849bd1";""
"komplek housing";"Komplek perumahan";"Kampung Ilim";"2864+H7, Ilim, Distrik Goa Balim, Kabupaten Lanny Jaya, Papua";"Kabupaten Lanny Jaya, Papua";"PAPUA";"";"Indonesia";"";"";"";"-3.9885625";"138.3056875";"https://maps.google.com/?cid=0x0:0x10fc243d3250ccc2";""
"komplek housing";"komplek housing";"Desa kikil";"Rumah kayi muli, Pagaleme, Distrik Mulia, Kabupaten Puncak Jaya, Papua";"Kabupaten Puncak Jaya, Papua";"PAPUA";"";"Indonesia";"";"";"";"-3.729199";"137.983597";"https://maps.google.com/?cid=0x0:0xbf2b2f048162d088";""
"komplek housing";"Komplek perumahan";"BOLOBA KARUME";"X7H5+63, Tinggipura, Kec. Kuyawage, Kabupaten Lanny Jaya, Papua";"Kabupaten Lanny Jaya, Papua";"PAPUA";"";"Indonesia";"";"";"";"-4.0219375";"138.2576875";"https://maps.google.com/?cid=0x0:0xeca1a5f89b782572";""
"komplek housing";"Pembangunan Perumahan";"Rumah Kaka Telangga";"73VX+FRG, Kalome / Pagargom, Kec. Tingginambut, Kabupaten Puncak Jaya, Papua 99563";"Kalome / Pagargom, Kec. Tingginambut, Kabupaten Puncak Jaya";"PAPUA";"99563";"Indonesia";"";"";"";"-3.7063222";"138.0995642";"https://maps.google.com/?cid=0x0:0xd02736c03b9372c1";""
"komplek housing";"Komplek perumahan";"PERUMAHAN SOSIAL";"7XQP+9C4, Pagaleme, Distrik Mulia, Kabupaten Puncak Jaya, Papua 98975";"Pagaleme, Distrik Mulia, Kabupaten Puncak Jaya";"PAPUA";"98975";"Indonesia";"";"";"";"-3.7116191";"137.9860657";"https://maps.google.com/?cid=0x0:0x761f518913d901a";""
"komplek housing";"Komplek perumahan";"Vebox home";"7XMJ+4WR, Pagaleme, Distrik Mulia, Kabupaten Puncak Jaya, Papua";"Kabupaten Puncak Jaya, Papua";"PAPUA";"";"Indonesia";"";"";"";"-3.7171321";"137.9822752";"https://maps.google.com/?cid=0x0:0xe9f6e9545fc95bf7";""
"komplek housing";"Komplek perumahan";"Kabut Mulia, Prov. Papua Tengah";"7XPP+FWH, Pagaleme, Distrik Mulia, Kabupaten Puncak Jaya, Papua 98975";"Pagaleme, Distrik Mulia, Kabupaten Puncak Jaya";"PAPUA";"98975";"Indonesia";"";"";"";"-3.7138317";"137.987174";"https://maps.google.com/?cid=0x0:0xb3873fbe0ee560da";""
"komplek housing";"Kantor Pemerintah";"Mess Polre";"7XPQ+27F, Pagaleme, Distrik Mulia, Kabupaten Puncak Jaya, Papua 98975";"Pagaleme, Distrik Mulia, Kabupaten Puncak Jaya";"PAPUA";"98975";"Indonesia";"";"";"";"-3.714804";"137.9880621";"https://maps.google.com/?cid=0x0:0xdc6d813f384639bd";""
"komplek housing";"Komplek perumahan";"Anna's Home";"7XMJ+FH5, Pagaleme, Distrik Mulia, Kabupaten Puncak Jaya, Papua";"Kabupaten Puncak Jaya, Papua";"PAPUA";"";"Indonesia";"";"";"";"-3.716452";"137.9821853";"https://maps.google.com/?cid=0x0:0xddc1da225bd0acd9";""
"komplek housing";"Perhimpunan Pengembang Perumahan";"Yogoluk";"89M9+CV, Kanggime, Distrik Kanggime, Kabupaten Tolikara, Papua";"Kabupaten Tolikara, Papua";"PAPUA";"";"Indonesia";"";"";"";"-3.6664425";"138.3696546";"https://maps.google.com/?cid=0x0:0x3a27233d6e6a4f40";""
"komplek housing";"Komplek perumahan";"Negeri Kabut Mulia";"7XCM+8CH Kabut, Pagaleme, Mulia, Puncak Jaya Regency, Papua";"Kabupaten Puncak Jaya, Papua";"PAPUA";"";"Indonesia";"";"";"";"-3.729199";"137.983597";"https://maps.google.com/?cid=0x0:0x44bd8ff7aea4ed58";""
"komplek housing";"Sekolah Menengah Pertama";"Smp dua 2";"39XC+6XX, Gubo, Distrik Tiomneri, Kabupaten Lanny Jaya, Papua";"Kabupaten Lanny Jaya, Papua";"PAPUA";"";"Indonesia";"";"";"";"-3.901893";"138.372498";"https://maps.google.com/?cid=0x0:0x4378852d9162caa3";""
"komplek housing";"Komplek perumahan";"Rumah Dinas Bupati";"7XJP+9Q6, Pruleme, Distrik Mulia, Kabupaten Puncak Jaya, Papua";"Kabupaten Puncak Jaya, Papua";"PAPUA";"";"Indonesia";"";"";"";"-3.7190842";"137.9868762";"https://maps.google.com/?cid=0x0:0xfe77b3c6956e9011";""
"komplek housing";"Komplek perumahan";"Perumahan DPRD Puncak Jaya";"7XPM+M4Q, Pagaleme, Distrik Mulia, Kabupaten Puncak Jaya, Papua";"Kabupaten Puncak Jaya, Papua";"PAPUA";"";"Indonesia";"";"";"";"-3.7132896";"137.9828675";"https://maps.google.com/?cid=0x0:0xba5ce62ec0fa956c";""
"komplek housing";"Komplek perumahan";"Rumah";"7XVH+64M, Pruleme, Distrik Mulia, Kabupaten Puncak Jaya, Papua";"Kabupaten Puncak Jaya, Papua";"PAPUA";"";"Indonesia";"";"";"";"-3.7071776";"137.9791745";"https://maps.google.com/?cid=0x0:0x2c43e0c94763eeeb";""
"komplek housing";"Kantor Pemerintah Distrik";"Distrik Nunggawi Kab.Tolikara";"68MJ+9HQ, Kanggineri, Nunggawi, Kabupaten Tolikara, Papua 99567";"Kanggineri, Nunggawi, Kabupaten Tolikara";"PAPUA";"99567";"Indonesia";"";"";"";"-3.7665332";"138.3314873";"https://maps.google.com/?cid=0x0:0xfe1a11cca2d119ac";""
"komplek housing";"Komplek perumahan";"Family Amasata";"7XX3+HF, Kulirik, Distrik Mulia, Kabupaten Puncak Jaya, Papua";"Kabupaten Puncak Jaya, Papua";"PAPUA";"";"Indonesia";"";"";"";"-3.701048";"137.953671";"https://maps.google.com/?cid=0x0:0x4cd48e4d6e3a7bbc";""
"komplek housing";"Komplek perumahan";"Rumah Pak Akbar";"7XX7+PWV, Wuyukwi, Distrik Mulia, Kabupaten Puncak Jaya, Papua 98973";"Wuyukwi, Distrik Mulia, Kabupaten Puncak Jaya";"PAPUA";"98973";"Indonesia";"";"";"";"-3.7008873";"137.9652655";"https://maps.google.com/?cid=0x0:0x28d5e03ff0fa291b";""
"komplek housing";"Komplek perumahan";"Komplek Perumahan YPPGI";"8F7J+Q63, Karubaga, Kec. Karubaga, Kabupaten Tolikara, Papua";"Kabupaten Tolikara, Papua";"PAPUA";"";"Indonesia";"";"";"";"-3.6856154";"138.4805518";"https://maps.google.com/?cid=0x0:0x1e996dde1edb3b03";""
"komplek housing";"komplek housing";"Kec. Balingga";"Kabupaten Lanny Jaya, Papua";"Kabupaten Lanny Jaya, Papua";"PAPUA";"";"Indonesia";"";"";"";"-4.130659";"138.3589086";"https://maps.google.com/?cid=0x0:0x59418e32c4fc4580";""
"komplek housing";"komplek housing";"Papua 99567";"Kabupaten Lanny Jaya, Papua";"Kabupaten Lanny Jaya, Papua";"PAPUA";"";"Indonesia";"";"";"";"-3.8553159";"138.4787258";"https://maps.google.com/?cid=0x0:0x54dba557046d88de";""
"komplek housing";"Komplek perumahan";"Komplek Perumahan YPPGI";"8F7J+Q63, Karubaga, Kec. Karubaga, Kabupaten Tolikara, Papua";"Kabupaten Tolikara, Papua";"PAPUA";"";"Indonesia";"";"";"";"-3.6856154";"138.4805518";"https://maps.google.com/?cid=0x0:0x1e996dde1edb3b03";""
"komplek housing";"Perhimpunan Pengembang Perumahan";"Yogoluk";"89M9+CV, Kanggime, Distrik Kanggime, Kabupaten Tolikara, Papua";"Kabupaten Tolikara, Papua";"PAPUA";"";"Indonesia";"";"";"";"-3.6664425";"138.3696546";"https://maps.google.com/?cid=0x0:0x3a27233d6e6a4f40";""
"komplek housing";"Perhimpunan Pengembang Perumahan";"Kel.N.Wonda";"3FC3+FP2, werime, Kec. Yiginua, Kabupaten Lanny Jaya, Papua 99567";"werime, Kec. Yiginua, Kabupaten Lanny Jaya";"PAPUA";"99567";"Indonesia";" 082302971058";"";"";"-3.9296572";"138.4541367";"https://maps.google.com/?cid=0x0:0x937f2157df8c1495";""
"komplek housing";"Pembangunan Perumahan";"Perumahan PEMDA";"8FCG+33Q, Muara, Kec. Karubaga, Kabupaten Tolikara, Papua 99567";"Muara, Kec. Karubaga, Kabupaten Tolikara";"PAPUA";"99567";"Indonesia";"";"";"";"-3.6797785";"138.4752409";"https://maps.google.com/?cid=0x0:0x92f2706a088cac78";""
"komplek housing";"Komplek perumahan";"Kampung Ilim";"2864+H7, Ilim, Distrik Goa Balim, Kabupaten Lanny Jaya, Papua";"Kabupaten Lanny Jaya, Papua";"PAPUA";"";"Indonesia";"";"";"";"-3.9885625";"138.3056875";"https://maps.google.com/?cid=0x0:0x10fc243d3250ccc2";""
"komplek housing";"Komplek perumahan";"Unggeme";"3FJ2+PC, Oyi, Distrik Tiom, Kabupaten Lanny Jaya, Papua";"Kabupaten Lanny Jaya, Papua";"PAPUA";"";"Indonesia";"";"";"";"-3.9182145";"138.4511039";"https://maps.google.com/?cid=0x0:0xed65eb9c9981dfbe";""
"komplek housing";"Kantor Pemerintah Distrik";"Distrik Nunggawi Kab.Tolikara";"68MJ+9HQ, Kanggineri, Nunggawi, Kabupaten Tolikara, Papua 99567";"Kanggineri, Nunggawi, Kabupaten Tolikara";"PAPUA";"99567";"Indonesia";"";"";"";"-3.7665332";"138.3314873";"https://maps.google.com/?cid=0x0:0xfe1a11cca2d119ac";""
"komplek housing";"Komplek perumahan";"Elos Wanena";"4C4F+93, Gubo, Distrik Tiomneri, Kabupaten Lanny Jaya, Papua 99567";"Gubo, Distrik Tiomneri, Kabupaten Lanny Jaya";"PAPUA";"99567";"Indonesia";"";"";"";"-3.8934318";"138.4237614";"https://maps.google.com/?cid=0x0:0x2f573e404c686333";""
"komplek housing";"Komplek perumahan";"Dr. Dalos Wanena";"4C4F+93, Gubo, Distrik Tiomneri, Kabupaten Lanny Jaya, Papua 99567";"Gubo, Distrik Tiomneri, Kabupaten Lanny Jaya";"PAPUA";"99567";"Indonesia";"";"";"";"-3.8939749";"138.4227681";"https://maps.google.com/?cid=0x0:0xfdeaf91aa7548f31";""
"komplek housing";"Gedung Apartemen";"Kios Kogome";"8F9H+H2Q, Jl Kesehatan, Karubaga, Kec. Karubaga, Kabupaten Tolikara, Papua 99567";"Jl Kesehatan, Karubaga, Kec. Karubaga, Kabupaten Tolikara";"PAPUA";"99567";"Indonesia";"";"";"";"-3.6810159";"138.4773797";"https://maps.google.com/?cid=0x0:0x7df16040d5c70d4c";""
"komplek housing";"Perhimpunan Pengembang Perumahan";"L'AKER HEAGHST WEUWENAKO";"3CJQ+9X, Ninabua, Distrik Tiom, Kabupaten Lanny Jaya, Papua";"Kabupaten Lanny Jaya, Papua";"PAPUA";"";"Indonesia";"";"";"";"-3.919028";"138.4398579";"https://maps.google.com/?cid=0x0:0x9811d860756af0cd";""
"komplek housing";"Komplek perumahan";"GOLANI L'AKER HEIGHTS WEUWENAKO";"L'AKER HEIGHTS WEUWENAKO. Jl. Ninabua Gg. Ir. Mendius weya, Kompleks Perumahan DPR, Ninabua, Distrik Tiom, Kabupaten Lanny Jaya, Papua 99507";"Kompleks Perumahan DPR, Ninabua, Distrik Tiom, Kabupaten Lanny Jaya";"PAPUA";"99507";"Indonesia";" 082248339888";"";"";"-3.9190695";"138.4398116";"https://maps.google.com/?cid=0x0:0xc591846d6138df91";""
"komplek housing";"komplek housing";"Talinamber Village";"Tolineri, Jln. Raya Khai, Distrik Kanggime, Kabupaten Tolikara, Papua 99042";"Jln. Raya Khai, Distrik Kanggime, Kabupaten Tolikara";"PAPUA";"99042";"Indonesia";"";"";"";"-3.6702654";"138.3309452";"https://maps.google.com/?cid=0x0:0xd666154fcc9319c1";""
"komplek housing";"Komplek perumahan";"Dusun Yigebbu";"2FCV+XC, Karunggame, Distrik Pirime, Kabupaten Lanny Jaya, Papua";"Kabupaten Lanny Jaya, Papua";"PAPUA";"";"Indonesia";"";"";"";"-3.9776084";"138.4935742";"https://maps.google.com/?cid=0x0:0xced5df09cea544dd";""
"komplek housing";"Rumah Kayu";"Rumah Keluarga A Kogoya";"3F95+VJ2, Golime, Distrik Tiom, Kabupaten Lanny Jaya, Papua 99567";"Golime, Distrik Tiom, Kabupaten Lanny Jaya";"PAPUA";"99567";"Indonesia";"";"";"";"-3.9299099";"138.4584197";"https://maps.google.com/?cid=0x0:0xe652bcb982dedad1";""
"komplek housing";"Pembangunan Perumahan";"MESS BAKTI (HUP)";"8F8H+R2X, Karubaga, Kec. Karubaga, Kabupaten Tolikara, Papua 99567";"Karubaga, Kec. Karubaga, Kabupaten Tolikara";"PAPUA";"99567";"Indonesia";"";"";"";"-3.6828849";"138.4776154";"https://maps.google.com/?cid=0x0:0x191d22cf391b74d6";""
"komplek housing";"Komplek perumahan";"Kampung Gelokme";"4MHW+F2, Yudani, Distrik Gamelia, Kabupaten Lanny Jaya, Papua";"Kabupaten Lanny Jaya, Papua";"PAPUA";"";"Indonesia";"";"";"";"-3.8713704";"138.6950346";"https://maps.google.com/?cid=0x0:0x9222d03252908fdd";""
"komplek housing";"Kantor Pemerintah";"Pirime";"2GCF+4FQ, Pirime, Distrik Pirime, Kabupaten Lanny Jaya, Papua 99567";"Pirime, Distrik Pirime, Kabupaten Lanny Jaya";"PAPUA";"99567";"Indonesia";"";"";"";"-3.9796675";"138.5237246";"https://maps.google.com/?cid=0x0:0xe890cc31e6a4c105";""
"komplek housing";"Sekolah Menengah Pertama";"Smp dua 2";"39XC+6XX, Gubo, Distrik Tiomneri, Kabupaten Lanny Jaya, Papua";"Kabupaten Lanny Jaya, Papua";"PAPUA";"";"Indonesia";"";"";"";"-3.901893";"138.372498";"https://maps.google.com/?cid=0x0:0x4378852d9162caa3";""
"komplek housing";"";"Wereka";"4CF2+97, Gubo, Distrik wereka, Kabupaten Lanny Jaya, Papua 99567";"Gubo, Distrik wereka, Kabupaten Lanny Jaya";"PAPUA";"99567";"Indonesia";"";"";"";"-3.8762472";"138.4005515";"https://maps.google.com/?cid=0x0:0xb7297e83428f126";""
"komplek housing";"komplek housing";"Kec. Balingga";"Kabupaten Lanny Jaya, Papua";"Kabupaten Lanny Jaya, Papua";"PAPUA";"";"Indonesia";"";"";"";"-4.130659";"138.3589086";"https://maps.google.com/?cid=0x0:0x59418e32c4fc4580";""
"komplek housing";"komplek housing";"Distrik Tiomneri";"Kabupaten Lanny Jaya, Papua";"Kabupaten Lanny Jaya, Papua";"PAPUA";"";"Indonesia";"";"";"";"-3.8761181";"138.4009177";"https://maps.google.com/?cid=0x0:0x88f4e9020ef9ade8";""
"komplek housing";"Komplek perumahan";"TANAH ADAT MILIK AL.ABUGWE WEYA";"Jl. Inggen Wanena Kampung Milinggame Distrik Tiomneri Kabupaten Lanny jaya Propinsi Papua Pengunungan, 99595";"Kabupaten Lanny Jaya, Papua";"PAPUA";"";"Indonesia";"";"";"";"-3.8890253";"138.4165087";"https://maps.google.com/?cid=0x0:0x147c9d9f1fe5002f";""
"komplek housing";"Komplek perumahan";"Elos Wanena";"4C4F+93, Gubo, Distrik Tiomneri, Kabupaten Lanny Jaya, Papua 99567";"Gubo, Distrik Tiomneri, Kabupaten Lanny Jaya";"PAPUA";"99567";"Indonesia";"";"";"";"-3.8934318";"138.4237614";"https://maps.google.com/?cid=0x0:0x2f573e404c686333";""
"komplek housing";"Sekolah Menengah Pertama";"Smp dua 2";"39XC+6XX, Gubo, Distrik Tiomneri, Kabupaten Lanny Jaya, Papua";"Kabupaten Lanny Jaya, Papua";"PAPUA";"";"Indonesia";"";"";"";"-3.901893";"138.372498";"https://maps.google.com/?cid=0x0:0x4378852d9162caa3";""
"komplek housing";"Komplek perumahan";"mata air muguneri";"3CMF+MG2, Kumuluk, Distrik Tiom, Kabupaten Lanny Jaya, Papua 99567";"Kumuluk, Distrik Tiom, Kabupaten Lanny Jaya";"PAPUA";"99567";"Indonesia";"";"";"";"-3.9158618";"138.4237799";"https://maps.google.com/?cid=0x0:0x923dfc1b17ae4827";""
"komplek housing";"Komplek perumahan";"Dr. Dalos Wanena";"4C4F+93, Gubo, Distrik Tiomneri, Kabupaten Lanny Jaya, Papua 99567";"Gubo, Distrik Tiomneri, Kabupaten Lanny Jaya";"PAPUA";"99567";"Indonesia";"";"";"";"-3.8939749";"138.4227681";"https://maps.google.com/?cid=0x0:0xfdeaf91aa7548f31";""
"komplek housing";"Kantor Pemerintah Distrik";"Distrik Nunggawi Kab.Tolikara";"68MJ+9HQ, Kanggineri, Nunggawi, Kabupaten Tolikara, Papua 99567";"Kanggineri, Nunggawi, Kabupaten Tolikara";"PAPUA";"99567";"Indonesia";"";"";"";"-3.7665332";"138.3314873";"https://maps.google.com/?cid=0x0:0xfe1a11cca2d119ac";""
"komplek housing";"Komplek perumahan";"Kampung Ilim";"2864+H7, Ilim, Distrik Goa Balim, Kabupaten Lanny Jaya, Papua";"Kabupaten Lanny Jaya, Papua";"PAPUA";"";"Indonesia";"";"";"";"-3.9885625";"138.3056875";"https://maps.google.com/?cid=0x0:0x10fc243d3250ccc2";""
"komplek housing";"komplek housing";"Papua 99563";"Papua";"Papua";"PAPUA";"";"Indonesia";"";"";"";"-3.9612229";"138.1597946";"https://maps.google.com/?cid=0x0:0xb123b70d10849bd1";""
"komplek housing";"Komplek perumahan";"Kampung Ilim";"2864+H7, Ilim, Distrik Goa Balim, Kabupaten Lanny Jaya, Papua";"Kabupaten Lanny Jaya, Papua";"PAPUA";"";"Indonesia";"";"";"";"-3.9885625";"138.3056875";"https://maps.google.com/?cid=0x0:0x10fc243d3250ccc2";""
"komplek housing";"Komplek perumahan";"BOLOBA KARUME";"X7H5+63, Tinggipura, Kec. Kuyawage, Kabupaten Lanny Jaya, Papua";"Kabupaten Lanny Jaya, Papua";"PAPUA";"";"Indonesia";"";"";"";"-4.0219375";"138.2576875";"https://maps.google.com/?cid=0x0:0xeca1a5f89b782572";""
"komplek housing";"Komplek perumahan";"PERUMAHAN SOSIAL";"7WWM+3J, Kulirik, Distrik Mulia, Kabupaten Puncak Jaya, Papua";"Kabupaten Puncak Jaya, Papua";"PAPUA";"";"Indonesia";"";"";"";"-3.7047533";"137.9340021";"https://maps.google.com/?cid=0x0:0xa2add3438c6098e";""
"komplek housing";"Komplek perumahan";"Anna's Home";"7XMJ+FH5, Pagaleme, Distrik Mulia, Kabupaten Puncak Jaya, Papua";"Kabupaten Puncak Jaya, Papua";"PAPUA";"";"Indonesia";"";"";"";"-3.716452";"137.9821853";"https://maps.google.com/?cid=0x0:0xddc1da225bd0acd9";""
"komplek housing";"Komplek perumahan";"Vebox home";"7XMJ+4WR, Pagaleme, Distrik Mulia, Kabupaten Puncak Jaya, Papua";"Kabupaten Puncak Jaya, Papua";"PAPUA";"";"Indonesia";"";"";"";"-3.7171321";"137.9822752";"https://maps.google.com/?cid=0x0:0xe9f6e9545fc95bf7";""
"komplek housing";"Pembangunan Perumahan";"Rumah Kaka Telangga";"73VX+FRG, Kalome / Pagargom, Kec. Tingginambut, Kabupaten Puncak Jaya, Papua 99563";"Kalome / Pagargom, Kec. Tingginambut, Kabupaten Puncak Jaya";"PAPUA";"99563";"Indonesia";"";"";"";"-3.7063222";"138.0995642";"https://maps.google.com/?cid=0x0:0xd02736c03b9372c1";""
"komplek housing";"Komplek perumahan";"PERUMAHAN SOSIAL";"7XQP+9C4, Pagaleme, Distrik Mulia, Kabupaten Puncak Jaya, Papua 98975";"Pagaleme, Distrik Mulia, Kabupaten Puncak Jaya";"PAPUA";"98975";"Indonesia";"";"";"";"-3.7116191";"137.9860657";"https://maps.google.com/?cid=0x0:0x761f518913d901a";""
"komplek housing";"Kantor Pemerintah";"Mess Polre";"7XPQ+27F, Pagaleme, Distrik Mulia, Kabupaten Puncak Jaya, Papua 98975";"Pagaleme, Distrik Mulia, Kabupaten Puncak Jaya";"PAPUA";"98975";"Indonesia";"";"";"";"-3.714804";"137.9880621";"https://maps.google.com/?cid=0x0:0xdc6d813f384639bd";""
"komplek housing";"Komplek perumahan";"Kabut Mulia, Prov. Papua Tengah";"7XPP+FWH, Pagaleme, Distrik Mulia, Kabupaten Puncak Jaya, Papua 98975";"Pagaleme, Distrik Mulia, Kabupaten Puncak Jaya";"PAPUA";"98975";"Indonesia";"";"";"";"-3.7138317";"137.987174";"https://maps.google.com/?cid=0x0:0xb3873fbe0ee560da";""
"komplek housing";"Sekolah Menengah Pertama";"Smp dua 2";"39XC+6XX, Gubo, Distrik Tiomneri, Kabupaten Lanny Jaya, Papua";"Kabupaten Lanny Jaya, Papua";"PAPUA";"";"Indonesia";"";"";"";"-3.901893";"138.372498";"https://maps.google.com/?cid=0x0:0x4378852d9162caa3";""
"komplek housing";"Komplek perumahan";"Rumah";"7XVH+64M, Pruleme, Distrik Mulia, Kabupaten Puncak Jaya, Papua";"Kabupaten Puncak Jaya, Papua";"PAPUA";"";"Indonesia";"";"";"";"-3.7071776";"137.9791745";"https://maps.google.com/?cid=0x0:0x2c43e0c94763eeeb";""
"komplek housing";"Komplek perumahan";"Negeri Kabut Mulia";"7XCM+8CH Kabut, Pagaleme, Mulia, Puncak Jaya Regency, Papua";"Kabupaten Puncak Jaya, Papua";"PAPUA";"";"Indonesia";"";"";"";"-3.729199";"137.983597";"https://maps.google.com/?cid=0x0:0x44bd8ff7aea4ed58";""
"komplek housing";"Perhimpunan Pengembang Perumahan";"Yogoluk";"89M9+CV, Kanggime, Distrik Kanggime, Kabupaten Tolikara, Papua";"Kabupaten Tolikara, Papua";"PAPUA";"";"Indonesia";"";"";"";"-3.6664425";"138.3696546";"https://maps.google.com/?cid=0x0:0x3a27233d6e6a4f40";""
"komplek housing";"Komplek perumahan";"Rumah Dinas Bupati";"7XJP+9Q6, Pruleme, Distrik Mulia, Kabupaten Puncak Jaya, Papua";"Kabupaten Puncak Jaya, Papua";"PAPUA";"";"Indonesia";"";"";"";"-3.7190842";"137.9868762";"https://maps.google.com/?cid=0x0:0xfe77b3c6956e9011";""
"komplek housing";"komplek housing";"KOMPLEK RAKBISA";"7XQH+FXH, Pruleme, Distrik Mulia, Kabupaten Puncak Jaya, Papua";"Kabupaten Puncak Jaya, Papua";"PAPUA";"";"Indonesia";"";"";"";"-3.7113133";"137.9799789";"https://maps.google.com/?cid=0x0:0x2e73f53065982a3c";""
"komplek housing";"Komplek perumahan";"Family Amasata";"7XX3+HF, Kulirik, Distrik Mulia, Kabupaten Puncak Jaya, Papua";"Kabupaten Puncak Jaya, Papua";"PAPUA";"";"Indonesia";"";"";"";"-3.701048";"137.953671";"https://maps.google.com/?cid=0x0:0x4cd48e4d6e3a7bbc";""
"komplek housing";"Komplek perumahan";"Perumahan DPRD Puncak Jaya";"7XPM+M4Q, Pagaleme, Distrik Mulia, Kabupaten Puncak Jaya, Papua";"Kabupaten Puncak Jaya, Papua";"PAPUA";"";"Indonesia";"";"";"";"-3.7132896";"137.9828675";"https://maps.google.com/?cid=0x0:0xba5ce62ec0fa956c";""
"komplek housing";"Kantor Pemerintah Distrik";"Distrik Nunggawi Kab.Tolikara";"68MJ+9HQ, Kanggineri, Nunggawi, Kabupaten Tolikara, Papua 99567";"Kanggineri, Nunggawi, Kabupaten Tolikara";"PAPUA";"99567";"Indonesia";"";"";"";"-3.7665332";"138.3314873";"https://maps.google.com/?cid=0x0:0xfe1a11cca2d119ac";""
"komplek housing";"Komplek perumahan";"Rumah Pak Akbar";"7XX7+PWV, Wuyukwi, Distrik Mulia, Kabupaten Puncak Jaya, Papua 98973";"Wuyukwi, Distrik Mulia, Kabupaten Puncak Jaya";"PAPUA";"98973";"Indonesia";"";"";"";"-3.7008873";"137.9652655";"https://maps.google.com/?cid=0x0:0x28d5e03ff0fa291b";""
"komplek housing";"komplek housing";"Kec. Kuyawage";"Kabupaten Lanny Jaya, Papua";"Kabupaten Lanny Jaya, Papua";"PAPUA";"";"Indonesia";"";"";"";"-4.01763";"138.2047116";"https://maps.google.com/?cid=0x0:0x7faf54ce606c3408";""
"komplek housing";"komplek housing";"Papua 99556";"Papua";"Papua";"PAPUA";"";"Indonesia";"";"";"";"-3.7561908";"138.6589406";"https://maps.google.com/?cid=0x0:0x5a2842ee64e9fe01";""
"komplek housing";"Pembangunan Perumahan";"Arimagame";"5MXM+36, Injuta, Tagineri, Kabupaten Jayawijaya, Papua";"Kabupaten Jayawijaya, Papua";"PAPUA";"";"Indonesia";"";"";"";"-3.8023476";"138.6831159";"https://maps.google.com/?cid=0x0:0x568c140bf14e2d24";""
"komplek housing";"Komplek perumahan";"Komplek Perumahan YPPGI";"8F7J+Q63, Karubaga, Kec. Karubaga, Kabupaten Tolikara, Papua";"Kabupaten Tolikara, Papua";"PAPUA";"";"Indonesia";"";"";"";"-3.6856154";"138.4805518";"https://maps.google.com/?cid=0x0:0x1e996dde1edb3b03";""
"komplek housing";"komplek housing";"Paremal Boys {PRM}";"8M98+4WJ, Bokondini, Kec. Bokondini, Kabupaten Tolikara, Papua 99556";"Bokondini, Kec. Bokondini, Kabupaten Tolikara";"PAPUA";"99556";"Indonesia";" 081221416127";"";"";"-3.6832944";"138.6664513";"https://maps.google.com/?cid=0x0:0x6f72c9da0d8b50a4";""
"komplek housing";"Komplek perumahan";"Kampung Gelokme";"4MHW+F2, Yudani, Distrik Gamelia, Kabupaten Lanny Jaya, Papua";"Kabupaten Lanny Jaya, Papua";"PAPUA";"";"Indonesia";"";"";"";"-3.8713704";"138.6950346";"https://maps.google.com/?cid=0x0:0x9222d03252908fdd";""
"komplek housing";"Komplek perumahan";"Dusun Kulonggu";"4PFX+2Q, Algonik, Distrik Piramid, Kabupaten Jayawijaya, Papua";"Kabupaten Jayawijaya, Papua";"PAPUA";"";"Indonesia";"";"";"";"-3.8774411";"138.7495133";"https://maps.google.com/?cid=0x0:0x422831d97217f5ce";""
"komplek housing";"Komplek perumahan";"Dusun Wiknggop";"3QR9+4X7, Piramid, Distrik Piramid, Kabupaten Jayawijaya, Papua";"Kabupaten Jayawijaya, Papua";"PAPUA";"";"Indonesia";"";"";"";"-3.9097142";"138.769937";"https://maps.google.com/?cid=0x0:0xf95b4e98fb24d8fd";""
"komplek housing";"Pembangunan Perumahan";"LOKASI Pemukiman Mullyalik";"3QX8+G2G, Piramid, Asologaima, Kabupaten Jayawijaya, Papua 99555";"Piramid, Asologaima, Kabupaten Jayawijaya";"PAPUA";"99555";"Indonesia";"";"";"";"-3.9011808";"138.7650936";"https://maps.google.com/?cid=0x0:0xff378ec6de4bef10";""
"komplek housing";"Komplek perumahan";"Kampung wollo";"5V38+V8J, Pirambot, Wollo, Kabupaten Jayawijaya, Papua";"Kabupaten Jayawijaya, Papua";"PAPUA";"";"Indonesia";"";"";"";"-3.8452753";"138.865767";"https://maps.google.com/?cid=0x0:0x7d3cb826b534c5dd";""
"komplek housing";"Komplek perumahan";"Dusun Kambolok";"3QC2+9VR, Wame, Asologaima, Kabupaten Jayawijaya, Papua 99555";"Wame, Asologaima, Kabupaten Jayawijaya";"PAPUA";"99555";"Indonesia";"";"";"";"-3.9294565";"138.7513721";"https://maps.google.com/?cid=0x0:0xcc6d31dd35cce21f";""
"komplek housing";"Komplek perumahan";"Lame Annuak";"4M6W+X7, Yudani, Distrik Gamelia, Kabupaten Lanny Jaya, Papua";"Kabupaten Lanny Jaya, Papua";"PAPUA";"";"Indonesia";"";"";"";"-3.8875565";"138.695669";"https://maps.google.com/?cid=0x0:0x85ef2c55ee4e7476";""
"komplek housing";"Komplek perumahan";"Dusun Luime";"3QW7+24X, Piramid, Distrik Piramid, Kabupaten Jayawijaya, Papua";"Kabupaten Jayawijaya, Papua";"PAPUA";"";"Indonesia";"";"";"";"-3.9051924";"138.7622756";"https://maps.google.com/?cid=0x0:0x600f54c31434878f";""
"komplek housing";"Komplek perumahan";"Dusun Llu Anoak";"3QV9+MWP, Piramid, Distrik Piramid, Kabupaten Jayawijaya, Papua";"Kabupaten Jayawijaya, Papua";"PAPUA";"";"Indonesia";"";"";"";"-3.9057775";"138.7698314";"https://maps.google.com/?cid=0x0:0x3955de041e8c4111";""
"komplek housing";"Komplek perumahan";"Usilimo";"3VC8+XX7, Usilimo, Distrik Wesaput, Kabupaten Jayawijaya, Papua";"Kabupaten Jayawijaya, Papua";"PAPUA";"";"Indonesia";"";"";"";"-3.9275897";"138.8674138";"https://maps.google.com/?cid=0x0:0xadafa46c84b35939";""
"komplek housing";"Komplek perumahan";"Dusun Anggurok Kunik";"3QJ6+HG, Piramid, Distrik Piramid, Kabupaten Jayawijaya, Papua";"Kabupaten Jayawijaya, Papua";"PAPUA";"";"Indonesia";"";"";"";"-3.9186037";"138.7613023";"https://maps.google.com/?cid=0x0:0x8fcf259711b0c0f3";""
"komplek housing";"Komplek perumahan";"Desa Alona";"3VM6+JQM, Usilimo - Karubaga, Usilimo, Distrik Wesaput, Kabupaten Jayawijaya, Papua";"Kabupaten Jayawijaya, Papua";"PAPUA";"";"Indonesia";"";"";"";"-3.9159119";"138.8619355";"https://maps.google.com/?cid=0x0:0xfe2c26171da7d2f8";""
"komplek housing";"komplek housing";"Distrik Poga";"Kabupaten Lanny Jaya, Papua";"Kabupaten Lanny Jaya, Papua";"PAPUA";"";"Indonesia";"";"";"";"-3.8191274";"138.5288912";"https://maps.google.com/?cid=0x0:0x9bf4407b1fd21fa9";""
"komplek housing";"komplek housing";"Papua 99563";"Papua";"Papua";"PAPUA";"";"Indonesia";"";"";"";"-3.9612229";"138.1597946";"https://maps.google.com/?cid=0x0:0xb123b70d10849bd1";""
"komplek housing";"Komplek perumahan";"Kampung Ilim";"2864+H7, Ilim, Distrik Goa Balim, Kabupaten Lanny Jaya, Papua";"Kabupaten Lanny Jaya, Papua";"PAPUA";"";"Indonesia";"";"";"";"-3.9885625";"138.3056875";"https://maps.google.com/?cid=0x0:0x10fc243d3250ccc2";""
"komplek housing";"komplek housing";"Desa kikil";"Rumah kayi muli, Pagaleme, Distrik Mulia, Kabupaten Puncak Jaya, Papua";"Kabupaten Puncak Jaya, Papua";"PAPUA";"";"Indonesia";"";"";"";"-3.729199";"137.983597";"https://maps.google.com/?cid=0x0:0xbf2b2f048162d088";""
"komplek housing";"Komplek perumahan";"BOLOBA KARUME";"X7H5+63, Tinggipura, Kec. Kuyawage, Kabupaten Lanny Jaya, Papua";"Kabupaten Lanny Jaya, Papua";"PAPUA";"";"Indonesia";"";"";"";"-4.0219375";"138.2576875";"https://maps.google.com/?cid=0x0:0xeca1a5f89b782572";""
"komplek housing";"Pembangunan Perumahan";"Rumah Kaka Telangga";"73VX+FRG, Kalome / Pagargom, Kec. Tingginambut, Kabupaten Puncak Jaya, Papua 99563";"Kalome / Pagargom, Kec. Tingginambut, Kabupaten Puncak Jaya";"PAPUA";"99563";"Indonesia";"";"";"";"-3.7063222";"138.0995642";"https://maps.google.com/?cid=0x0:0xd02736c03b9372c1";""
"komplek housing";"Komplek perumahan";"PERUMAHAN SOSIAL";"7XQP+9C4, Pagaleme, Distrik Mulia, Kabupaten Puncak Jaya, Papua 98975";"Pagaleme, Distrik Mulia, Kabupaten Puncak Jaya";"PAPUA";"98975";"Indonesia";"";"";"";"-3.7116191";"137.9860657";"https://maps.google.com/?cid=0x0:0x761f518913d901a";""
"komplek housing";"Komplek perumahan";"Vebox home";"7XMJ+4WR, Pagaleme, Distrik Mulia, Kabupaten Puncak Jaya, Papua";"Kabupaten Puncak Jaya, Papua";"PAPUA";"";"Indonesia";"";"";"";"-3.7171321";"137.9822752";"https://maps.google.com/?cid=0x0:0xe9f6e9545fc95bf7";""
"komplek housing";"Komplek perumahan";"Kabut Mulia, Prov. Papua Tengah";"7XPP+FWH, Pagaleme, Distrik Mulia, Kabupaten Puncak Jaya, Papua 98975";"Pagaleme, Distrik Mulia, Kabupaten Puncak Jaya";"PAPUA";"98975";"Indonesia";"";"";"";"-3.7138317";"137.987174";"https://maps.google.com/?cid=0x0:0xb3873fbe0ee560da";""
"komplek housing";"Kantor Pemerintah";"Mess Polre";"7XPQ+27F, Pagaleme, Distrik Mulia, Kabupaten Puncak Jaya, Papua 98975";"Pagaleme, Distrik Mulia, Kabupaten Puncak Jaya";"PAPUA";"98975";"Indonesia";"";"";"";"-3.714804";"137.9880621";"https://maps.google.com/?cid=0x0:0xdc6d813f384639bd";""
"komplek housing";"Komplek perumahan";"Anna's Home";"7XMJ+FH5, Pagaleme, Distrik Mulia, Kabupaten Puncak Jaya, Papua";"Kabupaten Puncak Jaya, Papua";"PAPUA";"";"Indonesia";"";"";"";"-3.716452";"137.9821853";"https://maps.google.com/?cid=0x0:0xddc1da225bd0acd9";""
"komplek housing";"Perhimpunan Pengembang Perumahan";"Yogoluk";"89M9+CV, Kanggime, Distrik Kanggime, Kabupaten Tolikara, Papua";"Kabupaten Tolikara, Papua";"PAPUA";"";"Indonesia";"";"";"";"-3.6664425";"138.3696546";"https://maps.google.com/?cid=0x0:0x3a27233d6e6a4f40";""
"komplek housing";"Komplek perumahan";"Negeri Kabut Mulia";"7XCM+8CH Kabut, Pagaleme, Mulia, Puncak Jaya Regency, Papua";"Kabupaten Puncak Jaya, Papua";"PAPUA";"";"Indonesia";"";"";"";"-3.729199";"137.983597";"https://maps.google.com/?cid=0x0:0x44bd8ff7aea4ed58";""
"komplek housing";"Komplek perumahan";"Rumah Dinas Bupati";"7XJP+9Q6, Pruleme, Distrik Mulia, Kabupaten Puncak Jaya, Papua";"Kabupaten Puncak Jaya, Papua";"PAPUA";"";"Indonesia";"";"";"";"-3.7190842";"137.9868762";"https://maps.google.com/?cid=0x0:0xfe77b3c6956e9011";""
"komplek housing";"Sekolah Menengah Pertama";"Smp dua 2";"39XC+6XX, Gubo, Distrik Tiomneri, Kabupaten Lanny Jaya, Papua";"Kabupaten Lanny Jaya, Papua";"PAPUA";"";"Indonesia";"";"";"";"-3.901893";"138.372498";"https://maps.google.com/?cid=0x0:0x4378852d9162caa3";""
"komplek housing";"Komplek perumahan";"Perumahan DPRD Puncak Jaya";"7XPM+M4Q, Pagaleme, Distrik Mulia, Kabupaten Puncak Jaya, Papua";"Kabupaten Puncak Jaya, Papua";"PAPUA";"";"Indonesia";"";"";"";"-3.7132896";"137.9828675";"https://maps.google.com/?cid=0x0:0xba5ce62ec0fa956c";""
"komplek housing";"Komplek perumahan";"Rumah";"7XVH+64M, Pruleme, Distrik Mulia, Kabupaten Puncak Jaya, Papua";"Kabupaten Puncak Jaya, Papua";"PAPUA";"";"Indonesia";"";"";"";"-3.7071776";"137.9791745";"https://maps.google.com/?cid=0x0:0x2c43e0c94763eeeb";""
"komplek housing";"Kantor Pemerintah Distrik";"Distrik Nunggawi Kab.Tolikara";"68MJ+9HQ, Kanggineri, Nunggawi, Kabupaten Tolikara, Papua 99567";"Kanggineri, Nunggawi, Kabupaten Tolikara";"PAPUA";"99567";"Indonesia";"";"";"";"-3.7665332";"138.3314873";"https://maps.google.com/?cid=0x0:0xfe1a11cca2d119ac";""
"komplek housing";"Komplek perumahan";"Family Amasata";"7XX3+HF, Kulirik, Distrik Mulia, Kabupaten Puncak Jaya, Papua";"Kabupaten Puncak Jaya, Papua";"PAPUA";"";"Indonesia";"";"";"";"-3.701048";"137.953671";"https://maps.google.com/?cid=0x0:0x4cd48e4d6e3a7bbc";""
"komplek housing";"Komplek perumahan";"Komplek Perumahan YPPGI";"8F7J+Q63, Karubaga, Kec. Karubaga, Kabupaten Tolikara, Papua";"Kabupaten Tolikara, Papua";"PAPUA";"";"Indonesia";"";"";"";"-3.6856154";"138.4805518";"https://maps.google.com/?cid=0x0:0x1e996dde1edb3b03";""
"komplek housing";"komplek housing";"Kec. Balingga";"Kabupaten Lanny Jaya, Papua";"Kabupaten Lanny Jaya, Papua";"PAPUA";"";"Indonesia";"";"";"";"-4.130659";"138.3589086";"https://maps.google.com/?cid=0x0:0x59418e32c4fc4580";""
"komplek housing";"komplek housing";"Papua 99567";"Kabupaten Lanny Jaya, Papua";"Kabupaten Lanny Jaya, Papua";"PAPUA";"";"Indonesia";"";"";"";"-3.8553159";"138.4787258";"https://maps.google.com/?cid=0x0:0x54dba557046d88de";""
"komplek housing";"Komplek perumahan";"Komplek Perumahan YPPGI";"8F7J+Q63, Karubaga, Kec. Karubaga, Kabupaten Tolikara, Papua";"Kabupaten Tolikara, Papua";"PAPUA";"";"Indonesia";"";"";"";"-3.6856154";"138.4805518";"https://maps.google.com/?cid=0x0:0x1e996dde1edb3b03";""
"komplek housing";"Perhimpunan Pengembang Perumahan";"Yogoluk";"89M9+CV, Kanggime, Distrik Kanggime, Kabupaten Tolikara, Papua";"Kabupaten Tolikara, Papua";"PAPUA";"";"Indonesia";"";"";"";"-3.6664425";"138.3696546";"https://maps.google.com/?cid=0x0:0x3a27233d6e6a4f40";""
"komplek housing";"Perhimpunan Pengembang Perumahan";"Kel.N.Wonda";"3FC3+FP2, werime, Kec. Yiginua, Kabupaten Lanny Jaya, Papua 99567";"werime, Kec. Yiginua, Kabupaten Lanny Jaya";"PAPUA";"99567";"Indonesia";" 082302971058";"";"";"-3.9296572";"138.4541367";"https://maps.google.com/?cid=0x0:0x937f2157df8c1495";""
"komplek housing";"Pembangunan Perumahan";"Perumahan PEMDA";"8FCG+33Q, Muara, Kec. Karubaga, Kabupaten Tolikara, Papua 99567";"Muara, Kec. Karubaga, Kabupaten Tolikara";"PAPUA";"99567";"Indonesia";"";"";"";"-3.6797785";"138.4752409";"https://maps.google.com/?cid=0x0:0x92f2706a088cac78";""
"komplek housing";"Komplek perumahan";"Kampung Ilim";"2864+H7, Ilim, Distrik Goa Balim, Kabupaten Lanny Jaya, Papua";"Kabupaten Lanny Jaya, Papua";"PAPUA";"";"Indonesia";"";"";"";"-3.9885625";"138.3056875";"https://maps.google.com/?cid=0x0:0x10fc243d3250ccc2";""
"komplek housing";"Komplek perumahan";"Unggeme";"3FJ2+PC, Oyi, Distrik Tiom, Kabupaten Lanny Jaya, Papua";"Kabupaten Lanny Jaya, Papua";"PAPUA";"";"Indonesia";"";"";"";"-3.9182145";"138.4511039";"https://maps.google.com/?cid=0x0:0xed65eb9c9981dfbe";""
"komplek housing";"Kantor Pemerintah Distrik";"Distrik Nunggawi Kab.Tolikara";"68MJ+9HQ, Kanggineri, Nunggawi, Kabupaten Tolikara, Papua 99567";"Kanggineri, Nunggawi, Kabupaten Tolikara";"PAPUA";"99567";"Indonesia";"";"";"";"-3.7665332";"138.3314873";"https://maps.google.com/?cid=0x0:0xfe1a11cca2d119ac";""
"komplek housing";"Komplek perumahan";"Elos Wanena";"4C4F+93, Gubo, Distrik Tiomneri, Kabupaten Lanny Jaya, Papua 99567";"Gubo, Distrik Tiomneri, Kabupaten Lanny Jaya";"PAPUA";"99567";"Indonesia";"";"";"";"-3.8934318";"138.4237614";"https://maps.google.com/?cid=0x0:0x2f573e404c686333";""
"komplek housing";"Komplek perumahan";"Dr. Dalos Wanena";"4C4F+93, Gubo, Distrik Tiomneri, Kabupaten Lanny Jaya, Papua 99567";"Gubo, Distrik Tiomneri, Kabupaten Lanny Jaya";"PAPUA";"99567";"Indonesia";"";"";"";"-3.8939749";"138.4227681";"https://maps.google.com/?cid=0x0:0xfdeaf91aa7548f31";""
"komplek housing";"Gedung Apartemen";"Kios Kogome";"8F9H+H2Q, Jl Kesehatan, Karubaga, Kec. Karubaga, Kabupaten Tolikara, Papua 99567";"Jl Kesehatan, Karubaga, Kec. Karubaga, Kabupaten Tolikara";"PAPUA";"99567";"Indonesia";"";"";"";"-3.6810159";"138.4773797";"https://maps.google.com/?cid=0x0:0x7df16040d5c70d4c";""
"komplek housing";"Perhimpunan Pengembang Perumahan";"L'AKER HEAGHST WEUWENAKO";"3CJQ+9X, Ninabua, Distrik Tiom, Kabupaten Lanny Jaya, Papua";"Kabupaten Lanny Jaya, Papua";"PAPUA";"";"Indonesia";"";"";"";"-3.919028";"138.4398579";"https://maps.google.com/?cid=0x0:0x9811d860756af0cd";""
"komplek housing";"Komplek perumahan";"GOLANI L'AKER HEIGHTS WEUWENAKO";"L'AKER HEIGHTS WEUWENAKO. Jl. Ninabua Gg. Ir. Mendius weya, Kompleks Perumahan DPR, Ninabua, Distrik Tiom, Kabupaten Lanny Jaya, Papua 99507";"Kompleks Perumahan DPR, Ninabua, Distrik Tiom, Kabupaten Lanny Jaya";"PAPUA";"99507";"Indonesia";" 082248339888";"";"";"-3.9190695";"138.4398116";"https://maps.google.com/?cid=0x0:0xc591846d6138df91";""
"komplek housing";"komplek housing";"Talinamber Village";"Tolineri, Jln. Raya Khai, Distrik Kanggime, Kabupaten Tolikara, Papua 99042";"Jln. Raya Khai, Distrik Kanggime, Kabupaten Tolikara";"PAPUA";"99042";"Indonesia";"";"";"";"-3.6702654";"138.3309452";"https://maps.google.com/?cid=0x0:0xd666154fcc9319c1";""
"komplek housing";"Komplek perumahan";"Dusun Yigebbu";"2FCV+XC, Karunggame, Distrik Pirime, Kabupaten Lanny Jaya, Papua";"Kabupaten Lanny Jaya, Papua";"PAPUA";"";"Indonesia";"";"";"";"-3.9776084";"138.4935742";"https://maps.google.com/?cid=0x0:0xced5df09cea544dd";""
"komplek housing";"Rumah Kayu";"Rumah Keluarga A Kogoya";"3F95+VJ2, Golime, Distrik Tiom, Kabupaten Lanny Jaya, Papua 99567";"Golime, Distrik Tiom, Kabupaten Lanny Jaya";"PAPUA";"99567";"Indonesia";"";"";"";"-3.9299099";"138.4584197";"https://maps.google.com/?cid=0x0:0xe652bcb982dedad1";""
"komplek housing";"Pembangunan Perumahan";"MESS BAKTI (HUP)";"8F8H+R2X, Karubaga, Kec. Karubaga, Kabupaten Tolikara, Papua 99567";"Karubaga, Kec. Karubaga, Kabupaten Tolikara";"PAPUA";"99567";"Indonesia";"";"";"";"-3.6828849";"138.4776154";"https://maps.google.com/?cid=0x0:0x191d22cf391b74d6";""
"komplek housing";"Komplek perumahan";"Kampung Gelokme";"4MHW+F2, Yudani, Distrik Gamelia, Kabupaten Lanny Jaya, Papua";"Kabupaten Lanny Jaya, Papua";"PAPUA";"";"Indonesia";"";"";"";"-3.8713704";"138.6950346";"https://maps.google.com/?cid=0x0:0x9222d03252908fdd";""
"komplek housing";"Sekolah Menengah Pertama";"Smp dua 2";"39XC+6XX, Gubo, Distrik Tiomneri, Kabupaten Lanny Jaya, Papua";"Kabupaten Lanny Jaya, Papua";"PAPUA";"";"Indonesia";"";"";"";"-3.901893";"138.372498";"https://maps.google.com/?cid=0x0:0x4378852d9162caa3";""
"komplek housing";"Kantor Pemerintah";"Pirime";"2GCF+4FQ, Pirime, Distrik Pirime, Kabupaten Lanny Jaya, Papua 99567";"Pirime, Distrik Pirime, Kabupaten Lanny Jaya";"PAPUA";"99567";"Indonesia";"";"";"";"-3.9796675";"138.5237246";"https://maps.google.com/?cid=0x0:0xe890cc31e6a4c105";""
"komplek housing";"";"Wereka";"4CF2+97, Gubo, Distrik wereka, Kabupaten Lanny Jaya, Papua 99567";"Gubo, Distrik wereka, Kabupaten Lanny Jaya";"PAPUA";"99567";"Indonesia";"";"";"";"-3.8762472";"138.4005515";"https://maps.google.com/?cid=0x0:0xb7297e83428f126";""
"komplek housing";"komplek housing";"Kec. Balingga";"Kabupaten Lanny Jaya, Papua";"Kabupaten Lanny Jaya, Papua";"PAPUA";"";"Indonesia";"";"";"";"-4.130659";"138.3589086";"https://maps.google.com/?cid=0x0:0x59418e32c4fc4580";""
"perumahan";"perumahan";"Distrik Tiom";"Kabupaten Lanny Jaya, Papua";"Kabupaten Lanny Jaya, Papua";"PAPUA";"";"Indonesia";"";"";"";"-3.9277573";"138.4557817";"https://maps.google.com/?cid=0x0:0x1bdc1c8bed88c23f";""
"perumahan";"Penginapan";"Perumahan Pemda Lanny Jaya";"Unnamed Road, Oyi, Distrik Tiom, Kabupaten Lanny Jaya, Papua 99567";"Oyi, Distrik Tiom, Kabupaten Lanny Jaya";"PAPUA";"99567";"Indonesia";"";"";"";"-3.919383";"138.4451443";"https://maps.google.com/?cid=0x0:0xe376fd021ac2718a";""
"perumahan";"Komplek perumahan";"TANAH ADAT MILIK AL.ABUGWE WEYA";"Jl. Inggen Wanena Kampung Milinggame Distrik Tiomneri Kabupaten Lanny jaya Propinsi Papua Pengunungan, 99595";"Kabupaten Lanny Jaya, Papua";"PAPUA";"";"Indonesia";"";"";"";"-3.8890253";"138.4165087";"https://maps.google.com/?cid=0x0:0x147c9d9f1fe5002f";""
"perumahan";"Toko";"Kios marola dg. Amir";"3FC4+R5F, Bandar Udara Tiom, Olume, Kurulu, Kabupaten Lanny Jaya, Papua 99567";"Bandar Udara Tiom, Olume, Kurulu, Kabupaten Lanny Jaya";"PAPUA";"99567";"Indonesia";"";"";"";"-3.9279381";"138.4554204";"https://maps.google.com/?cid=0x0:0xc456ced0998928ae";""
"perumahan";"Komplek perumahan";"Unggeme";"3FJ2+PC, Oyi, Distrik Tiom, Kabupaten Lanny Jaya, Papua";"Kabupaten Lanny Jaya, Papua";"PAPUA";"";"Indonesia";"";"";"";"-3.9182145";"138.4511039";"https://maps.google.com/?cid=0x0:0xed65eb9c9981dfbe";""
"perumahan";"Barak Militer";"Koramil 04 Tiom";"3FG3+G3P, Bokon, Distrik Tiom, Kabupaten Lanny Jaya, Papua 99567";"Bokon, Distrik Tiom, Kabupaten Lanny Jaya";"PAPUA";"99567";"Indonesia";"";"";"";"-3.9236555";"138.4527021";"https://maps.google.com/?cid=0x0:0xfe8ea08046d66917";""
"perumahan";"Komplek perumahan";"Kampung Ilim";"2864+H7, Ilim, Distrik Goa Balim, Kabupaten Lanny Jaya, Papua";"Kabupaten Lanny Jaya, Papua";"PAPUA";"";"Indonesia";"";"";"";"-3.9885625";"138.3056875";"https://maps.google.com/?cid=0x0:0x10fc243d3250ccc2";""
"perumahan";"Perhimpunan Pengembang Perumahan";"Kel.N.Wonda";"3FC3+FP2, werime, Kec. Yiginua, Kabupaten Lanny Jaya, Papua 99567";"werime, Kec. Yiginua, Kabupaten Lanny Jaya";"PAPUA";"99567";"Indonesia";" 082302971058";"";"";"-3.9296572";"138.4541367";"https://maps.google.com/?cid=0x0:0x937f2157df8c1495";""
"perumahan";"Komplek perumahan";"mata air muguneri";"3CMF+MG2, Kumuluk, Distrik Tiom, Kabupaten Lanny Jaya, Papua 99567";"Kumuluk, Distrik Tiom, Kabupaten Lanny Jaya";"PAPUA";"99567";"Indonesia";"";"";"";"-3.9158618";"138.4237799";"https://maps.google.com/?cid=0x0:0x923dfc1b17ae4827";""
"perumahan";"Komplek perumahan";"Dr. Dalos Wanena";"4C4F+93, Gubo, Distrik Tiomneri, Kabupaten Lanny Jaya, Papua 99567";"Gubo, Distrik Tiomneri, Kabupaten Lanny Jaya";"PAPUA";"99567";"Indonesia";"";"";"";"-3.8939749";"138.4227681";"https://maps.google.com/?cid=0x0:0xfdeaf91aa7548f31";""
"perumahan";"Komplek perumahan";"TOWOLOM KUNUME";"4C59+JWX, Jl. Raya Inggen wanena, Kamp.Kuwopaga, Distrik Tiomneri, Kabupaten Lanny Jaya, Papua";"Kabupaten Lanny Jaya, Papua";"PAPUA";"";"Indonesia";"";"";"";"-3.8908941";"138.4198539";"https://maps.google.com/?cid=0x0:0xfd31f2eb4d28a67";""
"perumahan";"Komplek perumahan";"SATU ADA UNTUK SEMUA";"3FC3+P84, Olume, Kurulu, Kabupaten Lanny Jaya, Papua 99567";"Olume, Kurulu, Kabupaten Lanny Jaya";"PAPUA";"99567";"Indonesia";" 081245443812";"";"";"-3.9282447";"138.4533239";"https://maps.google.com/?cid=0x0:0xf1dd9892beb37c5c";""
"perumahan";"";"RSUD Tiom";"3FC4+4VM, Golime, Distrik Tiom, Kabupaten Lanny Jaya, Papua 99567";"Golime, Distrik Tiom, Kabupaten Lanny Jaya";"PAPUA";"99567";"Indonesia";"";"";"";"-3.9296532";"138.457175";"https://maps.google.com/?cid=0x0:0x66f736a4cbc8142b";""
"perumahan";"Rumah Kayu";"Rumah Keluarga A Kogoya";"3F95+VJ2, Golime, Distrik Tiom, Kabupaten Lanny Jaya, Papua 99567";"Golime, Distrik Tiom, Kabupaten Lanny Jaya";"PAPUA";"99567";"Indonesia";"";"";"";"-3.9299099";"138.4584197";"https://maps.google.com/?cid=0x0:0xe652bcb982dedad1";""
"perumahan";"";"Wereka";"4CF2+97, Gubo, Distrik wereka, Kabupaten Lanny Jaya, Papua 99567";"Gubo, Distrik wereka, Kabupaten Lanny Jaya";"PAPUA";"99567";"Indonesia";"";"";"";"-3.8762472";"138.4005515";"https://maps.google.com/?cid=0x0:0xb7297e83428f126";""
"perumahan";"Sekolah Menengah Pertama";"Smp dua 2";"39XC+6XX, Gubo, Distrik Tiomneri, Kabupaten Lanny Jaya, Papua";"Kabupaten Lanny Jaya, Papua";"PAPUA";"";"Indonesia";"";"";"";"-3.901893";"138.372498";"https://maps.google.com/?cid=0x0:0x4378852d9162caa3";""
"perumahan";"Komplek perumahan";"GOLANI L'AKER HEIGHTS WEUWENAKO";"L'AKER HEIGHTS WEUWENAKO. Jl. Ninabua Gg. Ir. Mendius weya, Kompleks Perumahan DPR, Ninabua, Distrik Tiom, Kabupaten Lanny Jaya, Papua 99507";"Kompleks Perumahan DPR, Ninabua, Distrik Tiom, Kabupaten Lanny Jaya";"PAPUA";"99507";"Indonesia";" 082248339888";"";"";"-3.9190695";"138.4398116";"https://maps.google.com/?cid=0x0:0xc591846d6138df91";""
"perumahan";"Kantor Pemerintah";"Pirime";"2GCF+4FQ, Pirime, Distrik Pirime, Kabupaten Lanny Jaya, Papua 99567";"Pirime, Distrik Pirime, Kabupaten Lanny Jaya";"PAPUA";"99567";"Indonesia";"";"";"";"-3.9796675";"138.5237246";"https://maps.google.com/?cid=0x0:0xe890cc31e6a4c105";""
"perumahan";"Perhimpunan Pengembang Perumahan";"L'AKER HEAGHST WEUWENAKO";"3CJQ+9X, Ninabua, Distrik Tiom, Kabupaten Lanny Jaya, Papua";"Kabupaten Lanny Jaya, Papua";"PAPUA";"";"Indonesia";"";"";"";"-3.919028";"138.4398579";"https://maps.google.com/?cid=0x0:0x9811d860756af0cd";""
"perumahan";"perumahan";"Kampus Nisimok";"28H9+HJJ, Oka, Kec. Kully, Kabupaten Lanny Jaya, Papua";"Kabupaten Lanny Jaya, Papua";"PAPUA";"";"Indonesia";"";"";"";"-3.971033";"138.3190276";"https://maps.google.com/?cid=0x0:0x70d5f1f0a3f340b8";""
"perumahan";"Bandara Domestik";"Bandar Udara Tiom";"3FG3+GC8, Olume, Kec. Kurulu, Kabupaten Lanny Jaya, Papua 99567";"Olume, Kec. Kurulu, Kabupaten Lanny Jaya";"PAPUA";"99567";"Indonesia";"";"";"";"-3.9237211";"138.4535677";"https://maps.google.com/?cid=0x0:0xe836e389061d4769";""
"perumahan";"Komplek perumahan";"Rumah Tio";"Jln Flamboyan 3 blok F 6 no 16 RT 04 RW 37 Gramapuri Tamansari Wanasari, BekasiWanasari, Kec. Cibitung, Kabupaten Bekasi, Jawa Barat 17520";"BekasiWanasari, Kec. Cibitung, Kabupaten Bekasi";"PAPUA";"17520";"Indonesia";"";"";"";"-6.2545643";"107.0798298";"https://maps.google.com/?cid=0x0:0xacc25722e235232f";""
"perumahan";"perumahan";"Pirime";"Distrik Pirime, Kabupaten Lanny Jaya, Papua";"Kabupaten Lanny Jaya, Papua";"PAPUA";"";"Indonesia";"";"";"";"-3.9796675";"138.5237246";"https://maps.google.com/?cid=0x0:0x8a23ad303f6ee4a7";""
"perumahan";"Kantor Pemerintah";"Pirime";"2GCF+4FQ, Pirime, Distrik Pirime, Kabupaten Lanny Jaya, Papua 99567";"Pirime, Distrik Pirime, Kabupaten Lanny Jaya";"PAPUA";"99567";"Indonesia";"";"";"";"-3.9796675";"138.5237246";"https://maps.google.com/?cid=0x0:0xe890cc31e6a4c105";""
"perumahan";"Komplek perumahan";"R.dinas puskesmas pirime";"2GHR+4CR, Desa, bugumbak, Distrik Pirime, Kabupaten Lanny Jaya, Papua";"Kabupaten Lanny Jaya, Papua";"PAPUA";"";"Indonesia";" 081385622898";"";"";"-3.972132";"138.5410108";"https://maps.google.com/?cid=0x0:0xce9ef1a73d07a111";""
"perumahan";"perumahan";"Papua 99555";"Kabupaten Jayawijaya, Papua";"Kabupaten Jayawijaya, Papua";"PAPUA";"";"Indonesia";"";"";"";"-3.9034136";"138.7593128";"https://maps.google.com/?cid=0x0:0xed60d8d8dddb4cef";""
"perumahan";"perumahan";"Papua";"";"Papua";"PAPUA";"";"Indonesia";"";"";"";"-4.269928";"138.0803529";"https://maps.google.com/?cid=0x0:0xeba94e9c5eefe673";""
"perumahan";"Pembangunan Perumahan";"Ali makki / sarikiptiy";"Perumahan bumi Kahuripan indah blok b8 no.16, sukahurip, Sukatani, Bekasi, Jawa Barat 40551";"sukahurip, Sukatani, Bekasi";"PAPUA";"40551";"Indonesia";"";"";"";"-6.7893007";"107.5721544";"https://maps.google.com/?cid=0x0:0x7aded507ccf21683";""
"perumahan";"Kompleks Kondominium";"Rumah Ahmad maki";"M6Q7+Q9G, Mekarjaya, Kec. Cikadu, Kabupaten Cianjur, Jawa Barat";"Kabupaten Cianjur, Jawa Barat";"PAPUA";"";"Indonesia";"";"";"";"-7.3105535";"107.2134482";"https://maps.google.com/?cid=0x0:0x14074ebd2c01dea7";""
"perumahan";"Toko Makanan";"makkita.official";"Perumahan sku, Jl. P. Buton Raya Blk. B1 No.2, Mekarsari, Kec. Tambun Sel., Kabupaten Bekasi, Jawa Barat 17510";"Jl. P. Buton Raya Blk. B1 No.2, Mekarsari, Kec. Tambun Sel., Kabupaten Bekasi";"PAPUA";"17510";"Indonesia";"";"";"";"-6.2603589";"107.0736862";"https://maps.google.com/?cid=0x0:0xd7e9c1a1c65dc64c";""
"perumahan";"Perumahan";"Cluster D'mahaka Mansion";"Cluster Mahaka Mansion, Jatisari, Kec. Jatiasih, Kota Bks, Jawa Barat 17426";"Jatisari, Kec. Jatiasih, Kota Bks";"PAPUA";"17426";"Indonesia";" 08176020535";"";"";"-6.3321389";"106.9562797";"https://maps.google.com/?cid=0x0:0x7f0477723030299";""
"perumahan";"perumahan";"Makidi Mahen";"GQJP+7CR, Susukan, Kecamatan Bojonggede, Kabupaten Bogor, Jawa Barat 16920";"Susukan, Kecamatan Bojonggede, Kabupaten Bogor";"PAPUA";"16920";"Indonesia";" 082111006900";"";"";"-6.468975";"106.7857433";"https://maps.google.com/?cid=0x0:0x2fc3d5c75be280d";""
"perumahan";"perumahan";"Papua 99556";"Papua";"Papua";"PAPUA";"";"Indonesia";"";"";"";"-3.7561908";"138.6589406";"https://maps.google.com/?cid=0x0:0x5a2842ee64e9fe01";""
"perumahan";"Pembangunan Perumahan";"Arimagame";"5MXM+36, Injuta, Tagineri, Kabupaten Jayawijaya, Papua";"Kabupaten Jayawijaya, Papua";"PAPUA";"";"Indonesia";"";"";"";"-3.8023476";"138.6831159";"https://maps.google.com/?cid=0x0:0x568c140bf14e2d24";""
"perumahan";"perumahan";"LANUME VILAGE";"7P3P+3FM, Lanume, Distrik Kelila, Kabupaten Mamberamo Tengah, Papua";"Kabupaten Mamberamo Tengah, Papua";"PAPUA";"";"Indonesia";"";"";"";"-3.747291";"138.736163";"https://maps.google.com/?cid=0x0:0x371dfdd54f110200";""
"perumahan";"Komplek perumahan";"Delegari";"4MQH+9H, Yudani, Distrik Gamelia, Kabupaten Lanny Jaya, Papua";"Kabupaten Lanny Jaya, Papua";"PAPUA";"";"Indonesia";"";"";"";"-3.8615507";"138.6789217";"https://maps.google.com/?cid=0x0:0x948c377acae5030d";""
"perumahan";"Komplek perumahan";"Kampung Gelokme";"4MHW+F2, Yudani, Distrik Gamelia, Kabupaten Lanny Jaya, Papua";"Kabupaten Lanny Jaya, Papua";"PAPUA";"";"Indonesia";"";"";"";"-3.8713704";"138.6950346";"https://maps.google.com/?cid=0x0:0x9222d03252908fdd";""
"perumahan";"Pembangunan Perumahan";"onggabaga";"5R43+Q95, Jl. Trans Wollo, Tamokilu, Distrik Bolakme, Kabupaten Jayawijaya, Papua 99555";"Jl. Trans Wollo, Tamokilu, Distrik Bolakme, Kabupaten Jayawijaya";"PAPUA";"99555";"Indonesia";"";"";"";"-3.8431017";"138.8034961";"https://maps.google.com/?cid=0x0:0x2d2d2365327c9770";""
"perumahan";"Perhimpunan Pengembang Perumahan";"DOGOBAK";"7M9J+W6C, Dogobak, Distrik Kelila, Kabupaten Mamberamo Tengah, Papua 99556";"Dogobak, Distrik Kelila, Kabupaten Mamberamo Tengah";"PAPUA";"99556";"Indonesia";"";"";"";"-3.7301977";"138.6805269";"https://maps.google.com/?cid=0x0:0xf4e1dfa1d2dd83a8";""
"perumahan";"Pembangunan Perumahan";"Tagime";"5PVG+WMF, Tagime, Kabupaten Jayawijaya, Papua";"Kabupaten Jayawijaya, Papua";"PAPUA";"";"Indonesia";"";"";"";"-3.8051935";"138.7266721";"https://maps.google.com/?cid=0x0:0x50b51bdd0f2c04e8";""
"perumahan";"Pembangunan Perumahan";"Distrik Tagime";"5PMH+WMM, Lakwame, Tagime, Kabupaten Jayawijaya, Papua 99555";"Lakwame, Tagime, Kabupaten Jayawijaya";"PAPUA";"99555";"Indonesia";"";"";"";"-3.8151532";"138.7291822";"https://maps.google.com/?cid=0x0:0x61e7465087444a70";""
"perumahan";"Komplek perumahan";"Komplek Perumahan YPPGI";"8F7J+Q63, Karubaga, Kec. Karubaga, Kabupaten Tolikara, Papua";"Kabupaten Tolikara, Papua";"PAPUA";"";"Indonesia";"";"";"";"-3.6856154";"138.4805518";"https://maps.google.com/?cid=0x0:0x1e996dde1edb3b03";""
"perumahan";"perumahan";"Paremal Boys {PRM}";"8M98+4WJ, Bokondini, Kec. Bokondini, Kabupaten Tolikara, Papua 99556";"Bokondini, Kec. Bokondini, Kabupaten Tolikara";"PAPUA";"99556";"Indonesia";" 081221416127";"";"";"-3.6832944";"138.6664513";"https://maps.google.com/?cid=0x0:0x6f72c9da0d8b50a4";""
"perumahan";"Pembangunan Perumahan";"KAMPUNG KUMBU";"8P7M+JM8, Kumbu, Distrik Kelila, Kabupaten Mamberamo Tengah, Papua";"Kabupaten Mamberamo Tengah, Papua";"PAPUA";"";"Indonesia";"";"";"";"-3.6859516";"138.7342049";"https://maps.google.com/?cid=0x0:0xb2ae383598a58a9e";""
"perumahan";"Komplek perumahan";"Lame Annuak";"4M6W+X7, Yudani, Distrik Gamelia, Kabupaten Lanny Jaya, Papua";"Kabupaten Lanny Jaya, Papua";"PAPUA";"";"Indonesia";"";"";"";"-3.8875565";"138.695669";"https://maps.google.com/?cid=0x0:0x85ef2c55ee4e7476";""
"perumahan";"Perhimpunan Pengembang Perumahan";"Borengga";"5V5G+2F, Pirambot, Wollo, Kabupaten Jayawijaya, Papua 99554";"Pirambot, Wollo, Kabupaten Jayawijaya";"PAPUA";"99554";"Indonesia";"";"";"";"-3.842127";"138.8757562";"https://maps.google.com/?cid=0x0:0x7e327721605226c6";""
"perumahan";"Tempat Ibadah";"Gereja yume";"4MJ3+4HV, Kali yume, distrik yiluk, Kabupaten Lanny Jaya, Papua";"Kabupaten Lanny Jaya, Papua";"PAPUA";"";"Indonesia";"";"";"";"-3.8696312";"138.6539268";"https://maps.google.com/?cid=0x0:0x978836f0b28443f2";""
"perumahan";"Pembangunan Perumahan";"LOKASI Pemukiman Mullyalik";"3QX8+G2G, Piramid, Asologaima, Kabupaten Jayawijaya, Papua 99555";"Piramid, Asologaima, Kabupaten Jayawijaya";"PAPUA";"99555";"Indonesia";"";"";"";"-3.9011808";"138.7650936";"https://maps.google.com/?cid=0x0:0xff378ec6de4bef10";""
"perumahan";"Gereja";"Rumah pastori jemaat Samaria";"6PX5+2RC, Timeria, Distrik Kelila, Kabupaten Mamberamo Tengah, Papua";"Kabupaten Mamberamo Tengah, Papua";"PAPUA";"";"Indonesia";"";"";"";"-3.7524384";"138.7095107";"https://maps.google.com/?cid=0x0:0xbedde6cac58e3066";""
"perumahan";"Komplek perumahan";"Kirlunggama";"3QQM+VCC, Walak, Asologaima, Kabupaten Jayawijaya, Papua 99555";"Walak, Asologaima, Kabupaten Jayawijaya";"PAPUA";"99555";"Indonesia";"";"";"";"-3.9103137";"138.7835123";"https://maps.google.com/?cid=0x0:0xa8769c8873dba39";""
"perumahan";"perumahan";"Distrik Dimba";"Kabupaten Lanny Jaya, Papua";"Kabupaten Lanny Jaya, Papua";"PAPUA";"";"Indonesia";"";"";"";"-3.8454051";"138.5426379";"https://maps.google.com/?cid=0x0:0x36c26bec90d3b953";""
"perumahan";"Komplek perumahan";"Dusun Pimbiname";"4GCV+FFQ, Dimba, Distrik Dimba, Kabupaten Lanny Jaya, Papua";"Kabupaten Lanny Jaya, Papua";"PAPUA";"";"Indonesia";"";"";"";"-3.8787814";"138.5437358";"https://maps.google.com/?cid=0x0:0x1ffb14bad188416e";""
"perumahan";"";"Wereka";"4CF2+97, Gubo, Distrik wereka, Kabupaten Lanny Jaya, Papua 99567";"Gubo, Distrik wereka, Kabupaten Lanny Jaya";"PAPUA";"99567";"Indonesia";"";"";"";"-3.8762472";"138.4005515";"https://maps.google.com/?cid=0x0:0xb7297e83428f126";""
"perumahan";"perumahan";"Papua";"";"Papua";"PAPUA";"";"Indonesia";"";"";"";"-4.269928";"138.0803529";"https://maps.google.com/?cid=0x0:0xeba94e9c5eefe673";""
"perumahan";"perumahan";"Papua 99563";"Papua";"Papua";"PAPUA";"";"Indonesia";"";"";"";"-3.9612229";"138.1597946";"https://maps.google.com/?cid=0x0:0xb123b70d10849bd1";""
"perumahan";"perumahan";"Papua 99563";"Papua";"Papua";"PAPUA";"";"Indonesia";"";"";"";"-3.9612229";"138.1597946";"https://maps.google.com/?cid=0x0:0xb123b70d10849bd1";""
"perumahan";"Komplek perumahan";"Kampung Ilim";"2864+H7, Ilim, Distrik Goa Balim, Kabupaten Lanny Jaya, Papua";"Kabupaten Lanny Jaya, Papua";"PAPUA";"";"Indonesia";"";"";"";"-3.9885625";"138.3056875";"https://maps.google.com/?cid=0x0:0x10fc243d3250ccc2";""
"perumahan";"Komplek perumahan";"PERUMAHAN SOSIAL";"7WWM+3J, Kulirik, Distrik Mulia, Kabupaten Puncak Jaya, Papua";"Kabupaten Puncak Jaya, Papua";"PAPUA";"";"Indonesia";"";"";"";"-3.7047533";"137.9340021";"https://maps.google.com/?cid=0x0:0xa2add3438c6098e";""
"perumahan";"Komplek perumahan";"BOLOBA KARUME";"X7H5+63, Tinggipura, Kec. Kuyawage, Kabupaten Lanny Jaya, Papua";"Kabupaten Lanny Jaya, Papua";"PAPUA";"";"Indonesia";"";"";"";"-4.0219375";"138.2576875";"https://maps.google.com/?cid=0x0:0xeca1a5f89b782572";""
"perumahan";"Rumah wisata";"Hotel Moro Seneng";"73VV+F76, Kalome / Pagargom, Kec. Tingginambut, Kabupaten Puncak Jaya, Papua 99563";"Kalome / Pagargom, Kec. Tingginambut, Kabupaten Puncak Jaya";"PAPUA";"99563";"Indonesia";"";"";"";"-3.7063461";"138.0931362";"https://maps.google.com/?cid=0x0:0x1110bde92e0b739";""
"perumahan";"Pembangunan Perumahan";"Rumah Kaka Telangga";"73VX+FRG, Kalome / Pagargom, Kec. Tingginambut, Kabupaten Puncak Jaya, Papua 99563";"Kalome / Pagargom, Kec. Tingginambut, Kabupaten Puncak Jaya";"PAPUA";"99563";"Indonesia";"";"";"";"-3.7063222";"138.0995642";"https://maps.google.com/?cid=0x0:0xd02736c03b9372c1";""
"perumahan";"Komplek perumahan";"PERUMAHAN SOSIAL";"7XQP+9C4, Pagaleme, Distrik Mulia, Kabupaten Puncak Jaya, Papua 98975";"Pagaleme, Distrik Mulia, Kabupaten Puncak Jaya";"PAPUA";"98975";"Indonesia";"";"";"";"-3.7116191";"137.9860657";"https://maps.google.com/?cid=0x0:0x761f518913d901a";""
"perumahan";"Pembangunan Perumahan";"Desa Kaypur";"74XJ+R62, Jigobak, Kec. Tingginambut, Kabupaten Puncak Jaya, Papua 99563";"Jigobak, Kec. Tingginambut, Kabupaten Puncak Jaya";"PAPUA";"99563";"Indonesia";"";"";"";"-3.7004827";"138.130522";"https://maps.google.com/?cid=0x0:0xf1ac28b4a62e5cd9";""
"perumahan";"Kantor Pemerintah Distrik";"agandugume";"3WW9+XC, Jiwot, Distrik Agandugume, Kabupaten Puncak, Papua";"Kabupaten Puncak, Papua";"PAPUA";"";"Indonesia";"";"";"";"-3.9025963";"137.9185611";"https://maps.google.com/?cid=0x0:0x4b89b094ac97b33a";""
"perumahan";"Perhimpunan Pengembang Perumahan";"Yogoluk";"89M9+CV, Kanggime, Distrik Kanggime, Kabupaten Tolikara, Papua";"Kabupaten Tolikara, Papua";"PAPUA";"";"Indonesia";"";"";"";"-3.6664425";"138.3696546";"https://maps.google.com/?cid=0x0:0x3a27233d6e6a4f40";""
"perumahan";"perumahan";"Selni";"7XCM+8CH, Pagaleme, Distrik Mulia, Kabupaten Puncak Jaya, Papua";"Kabupaten Puncak Jaya, Papua";"PAPUA";"";"Indonesia";"";"";"";"-3.729199";"137.983597";"https://maps.google.com/?cid=0x0:0x6ff0d00b4263b757";""
"perumahan";"Kantor Pemerintah";"Mess Polre";"7XPQ+27F, Pagaleme, Distrik Mulia, Kabupaten Puncak Jaya, Papua 98975";"Pagaleme, Distrik Mulia, Kabupaten Puncak Jaya";"PAPUA";"98975";"Indonesia";"";"";"";"-3.714804";"137.9880621";"https://maps.google.com/?cid=0x0:0xdc6d813f384639bd";""
"perumahan";"Pembangunan Perumahan";"Kelompok dolinggame, jemaat aniwo";"952R+5R9, Dolinggame, kampung aniwo, Kabupaten Puncak Jaya, Papua";"Kabupaten Puncak Jaya, Papua";"PAPUA";"";"Indonesia";"";"";"";"-3.6495871";"138.192101";"https://maps.google.com/?cid=0x0:0xfad033fc13849368";""
"perumahan";"Perhimpunan Pengembang Perumahan";"Rumah Kelapa Desa nioga";"76QM+4Q6, Nioga, Jigonikme, Kabupaten Puncak Jaya, Papua 99563";"Nioga, Jigonikme, Kabupaten Puncak Jaya";"PAPUA";"99563";"Indonesia";"";"";"";"-3.7122202";"138.234377";"https://maps.google.com/?cid=0x0:0x5072ac953dbbcbd2";""
"perumahan";"Komplek perumahan";"Kabut Mulia, Prov. Papua Tengah";"7XPP+FWH, Pagaleme, Distrik Mulia, Kabupaten Puncak Jaya, Papua 98975";"Pagaleme, Distrik Mulia, Kabupaten Puncak Jaya";"PAPUA";"98975";"Indonesia";"";"";"";"-3.7138317";"137.987174";"https://maps.google.com/?cid=0x0:0xb3873fbe0ee560da";""
"perumahan";"Komplek perumahan";"Rumah Dinas Bupati";"7XJP+9Q6, Pruleme, Distrik Mulia, Kabupaten Puncak Jaya, Papua";"Kabupaten Puncak Jaya, Papua";"PAPUA";"";"Indonesia";"";"";"";"-3.7190842";"137.9868762";"https://maps.google.com/?cid=0x0:0xfe77b3c6956e9011";""
"perumahan";"Perhimpunan Pengembang Perumahan";"Desa kamui";"8469+VMF, Jigobak, Kec. Tingginambut, Kabupaten Puncak Jaya, Papua 99563";"Jigobak, Kec. Tingginambut, Kabupaten Puncak Jaya";"PAPUA";"99563";"Indonesia";"";"";"";"-3.6878062";"138.1191741";"https://maps.google.com/?cid=0x0:0xe07d502aff98cba2";""
"perumahan";"Komplek perumahan";"Rumah";"7XVH+64M, Pruleme, Distrik Mulia, Kabupaten Puncak Jaya, Papua";"Kabupaten Puncak Jaya, Papua";"PAPUA";"";"Indonesia";"";"";"";"-3.7071776";"137.9791745";"https://maps.google.com/?cid=0x0:0x2c43e0c94763eeeb";""
"perumahan";"Komplek perumahan";"Perumahan DPRD Puncak Jaya";"7XPM+M4Q, Pagaleme, Distrik Mulia, Kabupaten Puncak Jaya, Papua";"Kabupaten Puncak Jaya, Papua";"PAPUA";"";"Indonesia";"";"";"";"-3.7132896";"137.9828675";"https://maps.google.com/?cid=0x0:0xba5ce62ec0fa956c";""
"perumahan";"Kantor Pemerintah Distrik";"Distrik Nunggawi Kab.Tolikara";"68MJ+9HQ, Kanggineri, Nunggawi, Kabupaten Tolikara, Papua 99567";"Kanggineri, Nunggawi, Kabupaten Tolikara";"PAPUA";"99567";"Indonesia";"";"";"";"-3.7665332";"138.3314873";"https://maps.google.com/?cid=0x0:0xfe1a11cca2d119ac";""
"perumahan";"Pembangunan Perumahan";"kunume pella-kogoya";"73VV+XCG, Kalome / Pagargom, Kec. Tingginambut, Kabupaten Puncak Jaya, Papua 99563";"Kalome / Pagargom, Kec. Tingginambut, Kabupaten Puncak Jaya";"PAPUA";"99563";"Indonesia";"";"";"";"-3.7050427";"138.0935606";"https://maps.google.com/?cid=0x0:0x41dbf0037a15b590";""
"perumahan";"Komplek perumahan";"Karubate Mulia Puncak Jaya";"7XW7+7H, Wuyukwi, Distrik Mulia, Kabupaten Puncak Jaya, Papua 98973";"Wuyukwi, Distrik Mulia, Kabupaten Puncak Jaya";"PAPUA";"98973";"Indonesia";" 081215261215";"";"";"-3.704321";"137.963954";"https://maps.google.com/?cid=0x0:0xb914010bb477118d";""
"perumahan";"Komplek perumahan";"Kuligai pu tempat";"7XMJ+FH5, Pruleme, Distrik Mulia, Kabupaten Puncak Jaya, Papua 98973";"Pruleme, Distrik Mulia, Kabupaten Puncak Jaya";"PAPUA";"98973";"Indonesia";"";"";"";"-3.7163991";"137.9822771";"https://maps.google.com/?cid=0x0:0xf1c9c7302009ba4a";""
"perumahan";"perumahan";"Papua 99567";"Kabupaten Lanny Jaya, Papua";"Kabupaten Lanny Jaya, Papua";"PAPUA";"";"Indonesia";"";"";"";"-3.8553159";"138.4787258";"https://maps.google.com/?cid=0x0:0x54dba557046d88de";""
"perumahan";"Perhimpunan Pengembang Perumahan";"Yogoluk";"89M9+CV, Kanggime, Distrik Kanggime, Kabupaten Tolikara, Papua";"Kabupaten Tolikara, Papua";"PAPUA";"";"Indonesia";"";"";"";"-3.6664425";"138.3696546";"https://maps.google.com/?cid=0x0:0x3a27233d6e6a4f40";""
"perumahan";"";"Wereka";"4CF2+97, Gubo, Distrik wereka, Kabupaten Lanny Jaya, Papua 99567";"Gubo, Distrik wereka, Kabupaten Lanny Jaya";"PAPUA";"99567";"Indonesia";"";"";"";"-3.8762472";"138.4005515";"https://maps.google.com/?cid=0x0:0xb7297e83428f126";""
"perumahan";"Komplek perumahan";"Komplek Perumahan YPPGI";"8F7J+Q63, Karubaga, Kec. Karubaga, Kabupaten Tolikara, Papua";"Kabupaten Tolikara, Papua";"PAPUA";"";"Indonesia";"";"";"";"-3.6856154";"138.4805518";"https://maps.google.com/?cid=0x0:0x1e996dde1edb3b03";""
"perumahan";"Komplek perumahan";"TANAH ADAT MILIK AL.ABUGWE WEYA";"Jl. Inggen Wanena Kampung Milinggame Distrik Tiomneri Kabupaten Lanny jaya Propinsi Papua Pengunungan, 99595";"Kabupaten Lanny Jaya, Papua";"PAPUA";"";"Indonesia";"";"";"";"-3.8890253";"138.4165087";"https://maps.google.com/?cid=0x0:0x147c9d9f1fe5002f";""
"perumahan";"Perhimpunan Pengembang Perumahan";"Kel.N.Wonda";"3FC3+FP2, werime, Kec. Yiginua, Kabupaten Lanny Jaya, Papua 99567";"werime, Kec. Yiginua, Kabupaten Lanny Jaya";"PAPUA";"99567";"Indonesia";" 082302971058";"";"";"-3.9296572";"138.4541367";"https://maps.google.com/?cid=0x0:0x937f2157df8c1495";""
"perumahan";"Kantor Pemerintah Distrik";"Distrik Nunggawi Kab.Tolikara";"68MJ+9HQ, Kanggineri, Nunggawi, Kabupaten Tolikara, Papua 99567";"Kanggineri, Nunggawi, Kabupaten Tolikara";"PAPUA";"99567";"Indonesia";"";"";"";"-3.7665332";"138.3314873";"https://maps.google.com/?cid=0x0:0xfe1a11cca2d119ac";""
"perumahan";"Pembangunan Perumahan";"Perumahan PEMDA";"8FCG+33Q, Muara, Kec. Karubaga, Kabupaten Tolikara, Papua 99567";"Muara, Kec. Karubaga, Kabupaten Tolikara";"PAPUA";"99567";"Indonesia";"";"";"";"-3.6797785";"138.4752409";"https://maps.google.com/?cid=0x0:0x92f2706a088cac78";""
"perumahan";"Pembangunan Perumahan";"JELEKPELEK";"8FCF+C8G, Muara, Kec. Karubaga, Kabupaten Tolikara, Papua 99567";"Muara, Kec. Karubaga, Kabupaten Tolikara";"PAPUA";"99567";"Indonesia";"";"";"";"-3.6801995";"138.4736612";"https://maps.google.com/?cid=0x0:0x6dd4edeca684d55a";""
"perumahan";"Komplek perumahan";"Kampung Ilim";"2864+H7, Ilim, Distrik Goa Balim, Kabupaten Lanny Jaya, Papua";"Kabupaten Lanny Jaya, Papua";"PAPUA";"";"Indonesia";"";"";"";"-3.9885625";"138.3056875";"https://maps.google.com/?cid=0x0:0x10fc243d3250ccc2";""
"perumahan";"Komplek perumahan";"Elos Wanena";"4C4F+93, Gubo, Distrik Tiomneri, Kabupaten Lanny Jaya, Papua 99567";"Gubo, Distrik Tiomneri, Kabupaten Lanny Jaya";"PAPUA";"99567";"Indonesia";"";"";"";"-3.8934318";"138.4237614";"https://maps.google.com/?cid=0x0:0x2f573e404c686333";""
"perumahan";"Penginapan";"Perumahan Pemda Lanny Jaya";"Unnamed Road, Oyi, Distrik Tiom, Kabupaten Lanny Jaya, Papua 99567";"Oyi, Distrik Tiom, Kabupaten Lanny Jaya";"PAPUA";"99567";"Indonesia";"";"";"";"-3.919383";"138.4451443";"https://maps.google.com/?cid=0x0:0xe376fd021ac2718a";""
"perumahan";"Komplek perumahan";"Dr. Dalos Wanena";"4C4F+93, Gubo, Distrik Tiomneri, Kabupaten Lanny Jaya, Papua 99567";"Gubo, Distrik Tiomneri, Kabupaten Lanny Jaya";"PAPUA";"99567";"Indonesia";"";"";"";"-3.8939749";"138.4227681";"https://maps.google.com/?cid=0x0:0xfdeaf91aa7548f31";""
"perumahan";"Pembangunan Perumahan";"WABILAGUN";"3H5J+XR, Kimbo, Kec. Makki, Kabupaten Lanny Jaya, Papua";"Kabupaten Lanny Jaya, Papua";"PAPUA";"";"Indonesia";"";"";"";"-3.9401051";"138.5820245";"https://maps.google.com/?cid=0x0:0x795c18530dc00e30";""
"perumahan";"Toko";"Kios marola dg. Amir";"3FC4+R5F, Bandar Udara Tiom, Olume, Kurulu, Kabupaten Lanny Jaya, Papua 99567";"Bandar Udara Tiom, Olume, Kurulu, Kabupaten Lanny Jaya";"PAPUA";"99567";"Indonesia";"";"";"";"-3.9279381";"138.4554204";"https://maps.google.com/?cid=0x0:0xc456ced0998928ae";""
"perumahan";"Komplek perumahan";"Unggeme";"3FJ2+PC, Oyi, Distrik Tiom, Kabupaten Lanny Jaya, Papua";"Kabupaten Lanny Jaya, Papua";"PAPUA";"";"Indonesia";"";"";"";"-3.9182145";"138.4511039";"https://maps.google.com/?cid=0x0:0xed65eb9c9981dfbe";""
"perumahan";"Rumah Kayu";"Rumah Keluarga A Kogoya";"3F95+VJ2, Golime, Distrik Tiom, Kabupaten Lanny Jaya, Papua 99567";"Golime, Distrik Tiom, Kabupaten Lanny Jaya";"PAPUA";"99567";"Indonesia";"";"";"";"-3.9299099";"138.4584197";"https://maps.google.com/?cid=0x0:0xe652bcb982dedad1";""
"perumahan";"Pembangunan Perumahan";"sutm existing distrik wagi";"8F4R+689, Gininggadonak, Kec. Karubaga, Kabupaten Tolikara, Papua 99567";"Gininggadonak, Kec. Karubaga, Kabupaten Tolikara";"PAPUA";"99567";"Indonesia";"";"";"";"-3.6944689";"138.4908493";"https://maps.google.com/?cid=0x0:0xc1188aaac37910be";""
"perumahan";"perumahan";"Talinamber Village";"Tolineri, Jln. Raya Khai, Distrik Kanggime, Kabupaten Tolikara, Papua 99042";"Jln. Raya Khai, Distrik Kanggime, Kabupaten Tolikara";"PAPUA";"99042";"Indonesia";"";"";"";"-3.6702654";"138.3309452";"https://maps.google.com/?cid=0x0:0xd666154fcc9319c1";""
"perumahan";"Komplek perumahan";"Kota baru";"8F8G+FGP, Karubaga, Kec. Karubaga, Kabupaten Tolikara, Papua";"Kabupaten Tolikara, Papua";"PAPUA";"";"Indonesia";" 082327888169";"";"";"-3.6837789";"138.4763233";"https://maps.google.com/?cid=0x0:0xd911ecb25350fee0";""
"perumahan";"perumahan";"Kec. Balingga";"Kabupaten Lanny Jaya, Papua";"Kabupaten Lanny Jaya, Papua";"PAPUA";"";"Indonesia";"";"";"";"-4.130659";"138.3589086";"https://maps.google.com/?cid=0x0:0x59418e32c4fc4580";""
"perumahan";"Gedung Apartemen";"Kios Kogome";"8F9H+H2Q, Jl Kesehatan, Karubaga, Kec. Karubaga, Kabupaten Tolikara, Papua 99567";"Jl Kesehatan, Karubaga, Kec. Karubaga, Kabupaten Tolikara";"PAPUA";"99567";"Indonesia";"";"";"";"-3.6810159";"138.4773797";"https://maps.google.com/?cid=0x0:0x7df16040d5c70d4c";""
"perumahan";"Kantor Pemerintah";"Pirime";"2GCF+4FQ, Pirime, Distrik Pirime, Kabupaten Lanny Jaya, Papua 99567";"Pirime, Distrik Pirime, Kabupaten Lanny Jaya";"PAPUA";"99567";"Indonesia";"";"";"";"-3.9796675";"138.5237246";"https://maps.google.com/?cid=0x0:0xe890cc31e6a4c105";""
"perumahan";"perumahan";"Distrik Tiomneri";"Kabupaten Lanny Jaya, Papua";"Kabupaten Lanny Jaya, Papua";"PAPUA";"";"Indonesia";"";"";"";"-3.8761181";"138.4009177";"https://maps.google.com/?cid=0x0:0x88f4e9020ef9ade8";""
"perumahan";"Komplek perumahan";"TANAH ADAT MILIK AL.ABUGWE WEYA";"Jl. Inggen Wanena Kampung Milinggame Distrik Tiomneri Kabupaten Lanny jaya Propinsi Papua Pengunungan, 99595";"Kabupaten Lanny Jaya, Papua";"PAPUA";"";"Indonesia";"";"";"";"-3.8890253";"138.4165087";"https://maps.google.com/?cid=0x0:0x147c9d9f1fe5002f";""
"perumahan";"Komplek perumahan";"Elos Wanena";"4C4F+93, Gubo, Distrik Tiomneri, Kabupaten Lanny Jaya, Papua 99567";"Gubo, Distrik Tiomneri, Kabupaten Lanny Jaya";"PAPUA";"99567";"Indonesia";"";"";"";"-3.8934318";"138.4237614";"https://maps.google.com/?cid=0x0:0x2f573e404c686333";""
"perumahan";"Komplek perumahan";"mata air muguneri";"3CMF+MG2, Kumuluk, Distrik Tiom, Kabupaten Lanny Jaya, Papua 99567";"Kumuluk, Distrik Tiom, Kabupaten Lanny Jaya";"PAPUA";"99567";"Indonesia";"";"";"";"-3.9158618";"138.4237799";"https://maps.google.com/?cid=0x0:0x923dfc1b17ae4827";""
"perumahan";"Sekolah Menengah Pertama";"Smp dua 2";"39XC+6XX, Gubo, Distrik Tiomneri, Kabupaten Lanny Jaya, Papua";"Kabupaten Lanny Jaya, Papua";"PAPUA";"";"Indonesia";"";"";"";"-3.901893";"138.372498";"https://maps.google.com/?cid=0x0:0x4378852d9162caa3";""
"perumahan";"Komplek perumahan";"TOWOLOM KUNUME";"4C59+JWX, Jl. Raya Inggen wanena, Kamp.Kuwopaga, Distrik Tiomneri, Kabupaten Lanny Jaya, Papua";"Kabupaten Lanny Jaya, Papua";"PAPUA";"";"Indonesia";"";"";"";"-3.8908941";"138.4198539";"https://maps.google.com/?cid=0x0:0xfd31f2eb4d28a67";""
"perumahan";"";"Wereka";"4CF2+97, Gubo, Distrik wereka, Kabupaten Lanny Jaya, Papua 99567";"Gubo, Distrik wereka, Kabupaten Lanny Jaya";"PAPUA";"99567";"Indonesia";"";"";"";"-3.8762472";"138.4005515";"https://maps.google.com/?cid=0x0:0xb7297e83428f126";""
"perumahan";"Kantor Pemerintah Distrik";"Distrik Nunggawi Kab.Tolikara";"68MJ+9HQ, Kanggineri, Nunggawi, Kabupaten Tolikara, Papua 99567";"Kanggineri, Nunggawi, Kabupaten Tolikara";"PAPUA";"99567";"Indonesia";"";"";"";"-3.7665332";"138.3314873";"https://maps.google.com/?cid=0x0:0xfe1a11cca2d119ac";""
"perumahan";"Komplek perumahan";"Kampung Ilim";"2864+H7, Ilim, Distrik Goa Balim, Kabupaten Lanny Jaya, Papua";"Kabupaten Lanny Jaya, Papua";"PAPUA";"";"Indonesia";"";"";"";"-3.9885625";"138.3056875";"https://maps.google.com/?cid=0x0:0x10fc243d3250ccc2";""
"perumahan";"perumahan";"Papua 99563";"Papua";"Papua";"PAPUA";"";"Indonesia";"";"";"";"-3.9612229";"138.1597946";"https://maps.google.com/?cid=0x0:0xb123b70d10849bd1";""
"perumahan";"Komplek perumahan";"BOLOBA KARUME";"X7H5+63, Tinggipura, Kec. Kuyawage, Kabupaten Lanny Jaya, Papua";"Kabupaten Lanny Jaya, Papua";"PAPUA";"";"Indonesia";"";"";"";"-4.0219375";"138.2576875";"https://maps.google.com/?cid=0x0:0xeca1a5f89b782572";""
"perumahan";"Komplek perumahan";"Kampung Ilim";"2864+H7, Ilim, Distrik Goa Balim, Kabupaten Lanny Jaya, Papua";"Kabupaten Lanny Jaya, Papua";"PAPUA";"";"Indonesia";"";"";"";"-3.9885625";"138.3056875";"https://maps.google.com/?cid=0x0:0x10fc243d3250ccc2";""
"perumahan";"perumahan";"Desa kikil";"Rumah kayi muli, Pagaleme, Distrik Mulia, Kabupaten Puncak Jaya, Papua";"Kabupaten Puncak Jaya, Papua";"PAPUA";"";"Indonesia";"";"";"";"-3.729199";"137.983597";"https://maps.google.com/?cid=0x0:0xbf2b2f048162d088";""
"perumahan";"Komplek perumahan";"Karubate Mulia Puncak Jaya";"7XW7+7H, Wuyukwi, Distrik Mulia, Kabupaten Puncak Jaya, Papua 98973";"Wuyukwi, Distrik Mulia, Kabupaten Puncak Jaya";"PAPUA";"98973";"Indonesia";" 081215261215";"";"";"-3.704321";"137.963954";"https://maps.google.com/?cid=0x0:0xb914010bb477118d";""
"perumahan";"Komplek perumahan";"PERUMAHAN SOSIAL";"7XQP+9C4, Pagaleme, Distrik Mulia, Kabupaten Puncak Jaya, Papua 98975";"Pagaleme, Distrik Mulia, Kabupaten Puncak Jaya";"PAPUA";"98975";"Indonesia";"";"";"";"-3.7116191";"137.9860657";"https://maps.google.com/?cid=0x0:0x761f518913d901a";""
"perumahan";"Pembangunan Perumahan";"Desa Kaypur";"74XJ+R62, Jigobak, Kec. Tingginambut, Kabupaten Puncak Jaya, Papua 99563";"Jigobak, Kec. Tingginambut, Kabupaten Puncak Jaya";"PAPUA";"99563";"Indonesia";"";"";"";"-3.7004827";"138.130522";"https://maps.google.com/?cid=0x0:0xf1ac28b4a62e5cd9";""
"perumahan";"Pembangunan Perumahan";"Rumah Kaka Telangga";"73VX+FRG, Kalome / Pagargom, Kec. Tingginambut, Kabupaten Puncak Jaya, Papua 99563";"Kalome / Pagargom, Kec. Tingginambut, Kabupaten Puncak Jaya";"PAPUA";"99563";"Indonesia";"";"";"";"-3.7063222";"138.0995642";"https://maps.google.com/?cid=0x0:0xd02736c03b9372c1";""
"perumahan";"Kantor Pemerintah";"Daerah Kuyawagi";"XX46+XH3, Kuyawage, Kec. Kuyawage, Kabupaten Lanny Jaya, Papua 99563";"Kuyawage, Kec. Kuyawage, Kabupaten Lanny Jaya";"PAPUA";"99563";"Indonesia";"";"";"";"-4.0426101";"137.9614096";"https://maps.google.com/?cid=0x0:0x5249311ef4971943";""
"perumahan";"perumahan";"Selni";"7XCM+8CH, Pagaleme, Distrik Mulia, Kabupaten Puncak Jaya, Papua";"Kabupaten Puncak Jaya, Papua";"PAPUA";"";"Indonesia";"";"";"";"-3.729199";"137.983597";"https://maps.google.com/?cid=0x0:0x6ff0d00b4263b757";""
"perumahan";"Rumah wisata";"Hotel Moro Seneng";"73VV+F76, Kalome / Pagargom, Kec. Tingginambut, Kabupaten Puncak Jaya, Papua 99563";"Kalome / Pagargom, Kec. Tingginambut, Kabupaten Puncak Jaya";"PAPUA";"99563";"Indonesia";"";"";"";"-3.7063461";"138.0931362";"https://maps.google.com/?cid=0x0:0x1110bde92e0b739";""
"perumahan";"Kantor Pemerintah";"Mess Polre";"7XPQ+27F, Pagaleme, Distrik Mulia, Kabupaten Puncak Jaya, Papua 98975";"Pagaleme, Distrik Mulia, Kabupaten Puncak Jaya";"PAPUA";"98975";"Indonesia";"";"";"";"-3.714804";"137.9880621";"https://maps.google.com/?cid=0x0:0xdc6d813f384639bd";""
"perumahan";"Komplek perumahan";"Rumah";"7XVH+64M, Pruleme, Distrik Mulia, Kabupaten Puncak Jaya, Papua";"Kabupaten Puncak Jaya, Papua";"PAPUA";"";"Indonesia";"";"";"";"-3.7071776";"137.9791745";"https://maps.google.com/?cid=0x0:0x2c43e0c94763eeeb";""
"perumahan";"perumahan";"Kampus Nisimok";"28H9+HJJ, Oka, Kec. Kully, Kabupaten Lanny Jaya, Papua";"Kabupaten Lanny Jaya, Papua";"PAPUA";"";"Indonesia";"";"";"";"-3.971033";"138.3190276";"https://maps.google.com/?cid=0x0:0x70d5f1f0a3f340b8";""
"perumahan";"Kantor Pemerintah Distrik";"agandugume";"3WW9+XC, Jiwot, Distrik Agandugume, Kabupaten Puncak, Papua";"Kabupaten Puncak, Papua";"PAPUA";"";"Indonesia";"";"";"";"-3.9025963";"137.9185611";"https://maps.google.com/?cid=0x0:0x4b89b094ac97b33a";""
"perumahan";"Pembangunan Perumahan";"kunume pella-kogoya";"73VV+XCG, Kalome / Pagargom, Kec. Tingginambut, Kabupaten Puncak Jaya, Papua 99563";"Kalome / Pagargom, Kec. Tingginambut, Kabupaten Puncak Jaya";"PAPUA";"99563";"Indonesia";"";"";"";"-3.7050427";"138.0935606";"https://maps.google.com/?cid=0x0:0x41dbf0037a15b590";""
"perumahan";"Komplek perumahan";"Perumahan DPRD Puncak Jaya";"7XPM+M4Q, Pagaleme, Distrik Mulia, Kabupaten Puncak Jaya, Papua";"Kabupaten Puncak Jaya, Papua";"PAPUA";"";"Indonesia";"";"";"";"-3.7132896";"137.9828675";"https://maps.google.com/?cid=0x0:0xba5ce62ec0fa956c";""
"perumahan";"Komplek perumahan";"Rumah Dinas Bupati";"7XJP+9Q6, Pruleme, Distrik Mulia, Kabupaten Puncak Jaya, Papua";"Kabupaten Puncak Jaya, Papua";"PAPUA";"";"Indonesia";"";"";"";"-3.7190842";"137.9868762";"https://maps.google.com/?cid=0x0:0xfe77b3c6956e9011";""
"perumahan";"Perhimpunan Pengembang Perumahan";"Rumah Kelapa Desa nioga";"76QM+4Q6, Nioga, Jigonikme, Kabupaten Puncak Jaya, Papua 99563";"Nioga, Jigonikme, Kabupaten Puncak Jaya";"PAPUA";"99563";"Indonesia";"";"";"";"-3.7122202";"138.234377";"https://maps.google.com/?cid=0x0:0x5072ac953dbbcbd2";""
"perumahan";"Komplek perumahan";"Kuligai pu tempat";"7XMJ+FH5, Pruleme, Distrik Mulia, Kabupaten Puncak Jaya, Papua 98973";"Pruleme, Distrik Mulia, Kabupaten Puncak Jaya";"PAPUA";"98973";"Indonesia";"";"";"";"-3.7163991";"137.9822771";"https://maps.google.com/?cid=0x0:0xf1c9c7302009ba4a";""
"perumahan";"Perhimpunan Pengembang Perumahan";"Desa kamui";"8469+VMF, Jigobak, Kec. Tingginambut, Kabupaten Puncak Jaya, Papua 99563";"Jigobak, Kec. Tingginambut, Kabupaten Puncak Jaya";"PAPUA";"99563";"Indonesia";"";"";"";"-3.6878062";"138.1191741";"https://maps.google.com/?cid=0x0:0xe07d502aff98cba2";""
"perumahan";"Perhimpunan Pengembang Perumahan";"Yogoluk";"89M9+CV, Kanggime, Distrik Kanggime, Kabupaten Tolikara, Papua";"Kabupaten Tolikara, Papua";"PAPUA";"";"Indonesia";"";"";"";"-3.6664425";"138.3696546";"https://maps.google.com/?cid=0x0:0x3a27233d6e6a4f40";""
"perumahan";"Kantor Pemerintah Distrik";"Distrik Nunggawi Kab.Tolikara";"68MJ+9HQ, Kanggineri, Nunggawi, Kabupaten Tolikara, Papua 99567";"Kanggineri, Nunggawi, Kabupaten Tolikara";"PAPUA";"99567";"Indonesia";"";"";"";"-3.7665332";"138.3314873";"https://maps.google.com/?cid=0x0:0xfe1a11cca2d119ac";""
"perumahan";"Pembangunan Perumahan";"Kelompok dolinggame, jemaat aniwo";"952R+5R9, Dolinggame, kampung aniwo, Kabupaten Puncak Jaya, Papua";"Kabupaten Puncak Jaya, Papua";"PAPUA";"";"Indonesia";"";"";"";"-3.6495871";"138.192101";"https://maps.google.com/?cid=0x0:0xfad033fc13849368";""
"perumahan";"perumahan";"Papua 99556";"Papua";"Papua";"PAPUA";"";"Indonesia";"";"";"";"-3.7561908";"138.6589406";"https://maps.google.com/?cid=0x0:0x5a2842ee64e9fe01";""
"perumahan";"Pembangunan Perumahan";"onggabaga";"5R43+Q95, Jl. Trans Wollo, Tamokilu, Distrik Bolakme, Kabupaten Jayawijaya, Papua 99555";"Jl. Trans Wollo, Tamokilu, Distrik Bolakme, Kabupaten Jayawijaya";"PAPUA";"99555";"Indonesia";"";"";"";"-3.8431017";"138.8034961";"https://maps.google.com/?cid=0x0:0x2d2d2365327c9770";""
"perumahan";"Perhimpunan Pengembang Perumahan";"DOGOBAK";"7M9J+W6C, Dogobak, Distrik Kelila, Kabupaten Mamberamo Tengah, Papua 99556";"Dogobak, Distrik Kelila, Kabupaten Mamberamo Tengah";"PAPUA";"99556";"Indonesia";"";"";"";"-3.7301977";"138.6805269";"https://maps.google.com/?cid=0x0:0xf4e1dfa1d2dd83a8";""
"perumahan";"Pembangunan Perumahan";"Arimagame";"5MXM+36, Injuta, Tagineri, Kabupaten Jayawijaya, Papua";"Kabupaten Jayawijaya, Papua";"PAPUA";"";"Indonesia";"";"";"";"-3.8023476";"138.6831159";"https://maps.google.com/?cid=0x0:0x568c140bf14e2d24";""
"perumahan";"Perhimpunan Pengembang Perumahan";"Borengga";"5V5G+2F, Pirambot, Wollo, Kabupaten Jayawijaya, Papua 99554";"Pirambot, Wollo, Kabupaten Jayawijaya";"PAPUA";"99554";"Indonesia";"";"";"";"-3.842127";"138.8757562";"https://maps.google.com/?cid=0x0:0x7e327721605226c6";""
"perumahan";"Komplek perumahan";"Komplek Perumahan YPPGI";"8F7J+Q63, Karubaga, Kec. Karubaga, Kabupaten Tolikara, Papua";"Kabupaten Tolikara, Papua";"PAPUA";"";"Indonesia";"";"";"";"-3.6856154";"138.4805518";"https://maps.google.com/?cid=0x0:0x1e996dde1edb3b03";""
"perumahan";"perumahan";"LANUME VILAGE";"7P3P+3FM, Lanume, Distrik Kelila, Kabupaten Mamberamo Tengah, Papua";"Kabupaten Mamberamo Tengah, Papua";"PAPUA";"";"Indonesia";"";"";"";"-3.747291";"138.736163";"https://maps.google.com/?cid=0x0:0x371dfdd54f110200";""
"perumahan";"Pembangunan Perumahan";"Tagime";"5PVG+WMF, Tagime, Kabupaten Jayawijaya, Papua";"Kabupaten Jayawijaya, Papua";"PAPUA";"";"Indonesia";"";"";"";"-3.8051935";"138.7266721";"https://maps.google.com/?cid=0x0:0x50b51bdd0f2c04e8";""
"perumahan";"perumahan";"Paremal Boys {PRM}";"8M98+4WJ, Bokondini, Kec. Bokondini, Kabupaten Tolikara, Papua 99556";"Bokondini, Kec. Bokondini, Kabupaten Tolikara";"PAPUA";"99556";"Indonesia";" 081221416127";"";"";"-3.6832944";"138.6664513";"https://maps.google.com/?cid=0x0:0x6f72c9da0d8b50a4";""
"perumahan";"Pembangunan Perumahan";"Distrik Tagime";"5PMH+WMM, Lakwame, Tagime, Kabupaten Jayawijaya, Papua 99555";"Lakwame, Tagime, Kabupaten Jayawijaya";"PAPUA";"99555";"Indonesia";"";"";"";"-3.8151532";"138.7291822";"https://maps.google.com/?cid=0x0:0x61e7465087444a70";""
"perumahan";"Pembangunan Perumahan";"KAMPUNG KUMBU";"8P7M+JM8, Kumbu, Distrik Kelila, Kabupaten Mamberamo Tengah, Papua";"Kabupaten Mamberamo Tengah, Papua";"PAPUA";"";"Indonesia";"";"";"";"-3.6859516";"138.7342049";"https://maps.google.com/?cid=0x0:0xb2ae383598a58a9e";""
"perumahan";"Komplek perumahan";"Delegari";"4MQH+9H, Yudani, Distrik Gamelia, Kabupaten Lanny Jaya, Papua";"Kabupaten Lanny Jaya, Papua";"PAPUA";"";"Indonesia";"";"";"";"-3.8615507";"138.6789217";"https://maps.google.com/?cid=0x0:0x948c377acae5030d";""
"perumahan";"Komplek perumahan";"Kampung Gelokme";"4MHW+F2, Yudani, Distrik Gamelia, Kabupaten Lanny Jaya, Papua";"Kabupaten Lanny Jaya, Papua";"PAPUA";"";"Indonesia";"";"";"";"-3.8713704";"138.6950346";"https://maps.google.com/?cid=0x0:0x9222d03252908fdd";""
"perumahan";"Perhimpunan Pengembang Perumahan";"Ap Inuaktaga";"4R2J+5VR, Kampung Walak Selatan, Distrik Bugi, Kabupaten Jayawijaya, Papua";"Kabupaten Jayawijaya, Papua";"PAPUA";"";"Indonesia";"";"";"";"-3.8995067";"138.8321417";"https://maps.google.com/?cid=0x0:0x62291bc3d64f14b2";""
"perumahan";"Komplek perumahan";"Dusun Kulonggu";"4PFX+2Q, Algonik, Distrik Piramid, Kabupaten Jayawijaya, Papua";"Kabupaten Jayawijaya, Papua";"PAPUA";"";"Indonesia";"";"";"";"-3.8774411";"138.7495133";"https://maps.google.com/?cid=0x0:0x422831d97217f5ce";""
"perumahan";"Komplek perumahan";"Kirlunggama";"3QQM+VCC, Walak, Asologaima, Kabupaten Jayawijaya, Papua 99555";"Walak, Asologaima, Kabupaten Jayawijaya";"PAPUA";"99555";"Indonesia";"";"";"";"-3.9103137";"138.7835123";"https://maps.google.com/?cid=0x0:0xa8769c8873dba39";""
"perumahan";"Komplek perumahan";"MullyAlik Wenkil";"3QX8+83W Gedung Penggilingan Beras Yonggime, Piramid, Distrik Piramid, Kabupaten Jayawijaya, Papua";"Kabupaten Jayawijaya, Papua";"PAPUA";"";"Indonesia";"";"";"";"-3.9016401";"138.7652019";"https://maps.google.com/?cid=0x0:0x157cacf767b2dfaa";""
"perumahan";"Komplek perumahan";"Kampung dusun alibaga";"3RV2+9H, Holasili, Distrik Piramid, Kabupaten Jayawijaya, Papua";"Kabupaten Jayawijaya, Papua";"PAPUA";"";"Indonesia";"";"";"";"-3.9073399";"138.8011364";"https://maps.google.com/?cid=0x0:0xcd89b33c4c577953";""
"perumahan";"Pembangunan Perumahan";"LOKASI Pemukiman Mullyalik";"3QX8+G2G, Piramid, Asologaima, Kabupaten Jayawijaya, Papua 99555";"Piramid, Asologaima, Kabupaten Jayawijaya";"PAPUA";"99555";"Indonesia";"";"";"";"-3.9011808";"138.7650936";"https://maps.google.com/?cid=0x0:0xff378ec6de4bef10";""
"perumahan";"Gereja";"Rumah pastori jemaat Samaria";"6PX5+2RC, Timeria, Distrik Kelila, Kabupaten Mamberamo Tengah, Papua";"Kabupaten Mamberamo Tengah, Papua";"PAPUA";"";"Indonesia";"";"";"";"-3.7524384";"138.7095107";"https://maps.google.com/?cid=0x0:0xbedde6cac58e3066";""
"perumahan";"Pembangunan Perumahan";"sutm existing distrik wagi";"8F4R+689, Gininggadonak, Kec. Karubaga, Kabupaten Tolikara, Papua 99567";"Gininggadonak, Kec. Karubaga, Kabupaten Tolikara";"PAPUA";"99567";"Indonesia";"";"";"";"-3.6944689";"138.4908493";"https://maps.google.com/?cid=0x0:0xc1188aaac37910be";""
"perumahan";"perumahan";"Papua 99563";"Papua";"Papua";"PAPUA";"";"Indonesia";"";"";"";"-3.9612229";"138.1597946";"https://maps.google.com/?cid=0x0:0xb123b70d10849bd1";""
"perumahan";"Komplek perumahan";"Kampung Ilim";"2864+H7, Ilim, Distrik Goa Balim, Kabupaten Lanny Jaya, Papua";"Kabupaten Lanny Jaya, Papua";"PAPUA";"";"Indonesia";"";"";"";"-3.9885625";"138.3056875";"https://maps.google.com/?cid=0x0:0x10fc243d3250ccc2";""
"perumahan";"Komplek perumahan";"PERUMAHAN SOSIAL";"7WWM+3J, Kulirik, Distrik Mulia, Kabupaten Puncak Jaya, Papua";"Kabupaten Puncak Jaya, Papua";"PAPUA";"";"Indonesia";"";"";"";"-3.7047533";"137.9340021";"https://maps.google.com/?cid=0x0:0xa2add3438c6098e";""
"perumahan";"Komplek perumahan";"BOLOBA KARUME";"X7H5+63, Tinggipura, Kec. Kuyawage, Kabupaten Lanny Jaya, Papua";"Kabupaten Lanny Jaya, Papua";"PAPUA";"";"Indonesia";"";"";"";"-4.0219375";"138.2576875";"https://maps.google.com/?cid=0x0:0xeca1a5f89b782572";""
"perumahan";"Rumah wisata";"Hotel Moro Seneng";"73VV+F76, Kalome / Pagargom, Kec. Tingginambut, Kabupaten Puncak Jaya, Papua 99563";"Kalome / Pagargom, Kec. Tingginambut, Kabupaten Puncak Jaya";"PAPUA";"99563";"Indonesia";"";"";"";"-3.7063461";"138.0931362";"https://maps.google.com/?cid=0x0:0x1110bde92e0b739";""
"perumahan";"Pembangunan Perumahan";"Rumah Kaka Telangga";"73VX+FRG, Kalome / Pagargom, Kec. Tingginambut, Kabupaten Puncak Jaya, Papua 99563";"Kalome / Pagargom, Kec. Tingginambut, Kabupaten Puncak Jaya";"PAPUA";"99563";"Indonesia";"";"";"";"-3.7063222";"138.0995642";"https://maps.google.com/?cid=0x0:0xd02736c03b9372c1";""
"perumahan";"Komplek perumahan";"PERUMAHAN SOSIAL";"7XQP+9C4, Pagaleme, Distrik Mulia, Kabupaten Puncak Jaya, Papua 98975";"Pagaleme, Distrik Mulia, Kabupaten Puncak Jaya";"PAPUA";"98975";"Indonesia";"";"";"";"-3.7116191";"137.9860657";"https://maps.google.com/?cid=0x0:0x761f518913d901a";""
"perumahan";"Kantor Pemerintah Distrik";"agandugume";"3WW9+XC, Jiwot, Distrik Agandugume, Kabupaten Puncak, Papua";"Kabupaten Puncak, Papua";"PAPUA";"";"Indonesia";"";"";"";"-3.9025963";"137.9185611";"https://maps.google.com/?cid=0x0:0x4b89b094ac97b33a";""
"perumahan";"Pembangunan Perumahan";"Desa Kaypur";"74XJ+R62, Jigobak, Kec. Tingginambut, Kabupaten Puncak Jaya, Papua 99563";"Jigobak, Kec. Tingginambut, Kabupaten Puncak Jaya";"PAPUA";"99563";"Indonesia";"";"";"";"-3.7004827";"138.130522";"https://maps.google.com/?cid=0x0:0xf1ac28b4a62e5cd9";""
"perumahan";"Perhimpunan Pengembang Perumahan";"Yogoluk";"89M9+CV, Kanggime, Distrik Kanggime, Kabupaten Tolikara, Papua";"Kabupaten Tolikara, Papua";"PAPUA";"";"Indonesia";"";"";"";"-3.6664425";"138.3696546";"https://maps.google.com/?cid=0x0:0x3a27233d6e6a4f40";""
"perumahan";"perumahan";"Selni";"7XCM+8CH, Pagaleme, Distrik Mulia, Kabupaten Puncak Jaya, Papua";"Kabupaten Puncak Jaya, Papua";"PAPUA";"";"Indonesia";"";"";"";"-3.729199";"137.983597";"https://maps.google.com/?cid=0x0:0x6ff0d00b4263b757";""
"perumahan";"Kantor Pemerintah";"Mess Polre";"7XPQ+27F, Pagaleme, Distrik Mulia, Kabupaten Puncak Jaya, Papua 98975";"Pagaleme, Distrik Mulia, Kabupaten Puncak Jaya";"PAPUA";"98975";"Indonesia";"";"";"";"-3.714804";"137.9880621";"https://maps.google.com/?cid=0x0:0xdc6d813f384639bd";""
"perumahan";"Pembangunan Perumahan";"Kelompok dolinggame, jemaat aniwo";"952R+5R9, Dolinggame, kampung aniwo, Kabupaten Puncak Jaya, Papua";"Kabupaten Puncak Jaya, Papua";"PAPUA";"";"Indonesia";"";"";"";"-3.6495871";"138.192101";"https://maps.google.com/?cid=0x0:0xfad033fc13849368";""
"perumahan";"Perhimpunan Pengembang Perumahan";"Rumah Kelapa Desa nioga";"76QM+4Q6, Nioga, Jigonikme, Kabupaten Puncak Jaya, Papua 99563";"Nioga, Jigonikme, Kabupaten Puncak Jaya";"PAPUA";"99563";"Indonesia";"";"";"";"-3.7122202";"138.234377";"https://maps.google.com/?cid=0x0:0x5072ac953dbbcbd2";""
"perumahan";"Komplek perumahan";"Kabut Mulia, Prov. Papua Tengah";"7XPP+FWH, Pagaleme, Distrik Mulia, Kabupaten Puncak Jaya, Papua 98975";"Pagaleme, Distrik Mulia, Kabupaten Puncak Jaya";"PAPUA";"98975";"Indonesia";"";"";"";"-3.7138317";"137.987174";"https://maps.google.com/?cid=0x0:0xb3873fbe0ee560da";""
"perumahan";"Komplek perumahan";"Rumah Dinas Bupati";"7XJP+9Q6, Pruleme, Distrik Mulia, Kabupaten Puncak Jaya, Papua";"Kabupaten Puncak Jaya, Papua";"PAPUA";"";"Indonesia";"";"";"";"-3.7190842";"137.9868762";"https://maps.google.com/?cid=0x0:0xfe77b3c6956e9011";""
"perumahan";"Perhimpunan Pengembang Perumahan";"Desa kamui";"8469+VMF, Jigobak, Kec. Tingginambut, Kabupaten Puncak Jaya, Papua 99563";"Jigobak, Kec. Tingginambut, Kabupaten Puncak Jaya";"PAPUA";"99563";"Indonesia";"";"";"";"-3.6878062";"138.1191741";"https://maps.google.com/?cid=0x0:0xe07d502aff98cba2";""
"perumahan";"Komplek perumahan";"Rumah";"7XVH+64M, Pruleme, Distrik Mulia, Kabupaten Puncak Jaya, Papua";"Kabupaten Puncak Jaya, Papua";"PAPUA";"";"Indonesia";"";"";"";"-3.7071776";"137.9791745";"https://maps.google.com/?cid=0x0:0x2c43e0c94763eeeb";""
"perumahan";"Komplek perumahan";"Perumahan DPRD Puncak Jaya";"7XPM+M4Q, Pagaleme, Distrik Mulia, Kabupaten Puncak Jaya, Papua";"Kabupaten Puncak Jaya, Papua";"PAPUA";"";"Indonesia";"";"";"";"-3.7132896";"137.9828675";"https://maps.google.com/?cid=0x0:0xba5ce62ec0fa956c";""
"perumahan";"Kantor Pemerintah Distrik";"Distrik Nunggawi Kab.Tolikara";"68MJ+9HQ, Kanggineri, Nunggawi, Kabupaten Tolikara, Papua 99567";"Kanggineri, Nunggawi, Kabupaten Tolikara";"PAPUA";"99567";"Indonesia";"";"";"";"-3.7665332";"138.3314873";"https://maps.google.com/?cid=0x0:0xfe1a11cca2d119ac";""
"perumahan";"Pembangunan Perumahan";"kunume pella-kogoya";"73VV+XCG, Kalome / Pagargom, Kec. Tingginambut, Kabupaten Puncak Jaya, Papua 99563";"Kalome / Pagargom, Kec. Tingginambut, Kabupaten Puncak Jaya";"PAPUA";"99563";"Indonesia";"";"";"";"-3.7050427";"138.0935606";"https://maps.google.com/?cid=0x0:0x41dbf0037a15b590";""
"perumahan";"Komplek perumahan";"Karubate Mulia Puncak Jaya";"7XW7+7H, Wuyukwi, Distrik Mulia, Kabupaten Puncak Jaya, Papua 98973";"Wuyukwi, Distrik Mulia, Kabupaten Puncak Jaya";"PAPUA";"98973";"Indonesia";" 081215261215";"";"";"-3.704321";"137.963954";"https://maps.google.com/?cid=0x0:0xb914010bb477118d";""
"perumahan";"Komplek perumahan";"Kuligai pu tempat";"7XMJ+FH5, Pruleme, Distrik Mulia, Kabupaten Puncak Jaya, Papua 98973";"Pruleme, Distrik Mulia, Kabupaten Puncak Jaya";"PAPUA";"98973";"Indonesia";"";"";"";"-3.7163991";"137.9822771";"https://maps.google.com/?cid=0x0:0xf1c9c7302009ba4a";""
"perumahan";"perumahan";"Papua 99567";"Kabupaten Lanny Jaya, Papua";"Kabupaten Lanny Jaya, Papua";"PAPUA";"";"Indonesia";"";"";"";"-3.8553159";"138.4787258";"https://maps.google.com/?cid=0x0:0x54dba557046d88de";""
"perumahan";"Perhimpunan Pengembang Perumahan";"Yogoluk";"89M9+CV, Kanggime, Distrik Kanggime, Kabupaten Tolikara, Papua";"Kabupaten Tolikara, Papua";"PAPUA";"";"Indonesia";"";"";"";"-3.6664425";"138.3696546";"https://maps.google.com/?cid=0x0:0x3a27233d6e6a4f40";""
"perumahan";"";"Wereka";"4CF2+97, Gubo, Distrik wereka, Kabupaten Lanny Jaya, Papua 99567";"Gubo, Distrik wereka, Kabupaten Lanny Jaya";"PAPUA";"99567";"Indonesia";"";"";"";"-3.8762472";"138.4005515";"https://maps.google.com/?cid=0x0:0xb7297e83428f126";""
"perumahan";"Komplek perumahan";"Komplek Perumahan YPPGI";"8F7J+Q63, Karubaga, Kec. Karubaga, Kabupaten Tolikara, Papua";"Kabupaten Tolikara, Papua";"PAPUA";"";"Indonesia";"";"";"";"-3.6856154";"138.4805518";"https://maps.google.com/?cid=0x0:0x1e996dde1edb3b03";""
"perumahan";"Komplek perumahan";"TANAH ADAT MILIK AL.ABUGWE WEYA";"Jl. Inggen Wanena Kampung Milinggame Distrik Tiomneri Kabupaten Lanny jaya Propinsi Papua Pengunungan, 99595";"Kabupaten Lanny Jaya, Papua";"PAPUA";"";"Indonesia";"";"";"";"-3.8890253";"138.4165087";"https://maps.google.com/?cid=0x0:0x147c9d9f1fe5002f";""
"perumahan";"Perhimpunan Pengembang Perumahan";"Kel.N.Wonda";"3FC3+FP2, werime, Kec. Yiginua, Kabupaten Lanny Jaya, Papua 99567";"werime, Kec. Yiginua, Kabupaten Lanny Jaya";"PAPUA";"99567";"Indonesia";" 082302971058";"";"";"-3.9296572";"138.4541367";"https://maps.google.com/?cid=0x0:0x937f2157df8c1495";""
"perumahan";"Kantor Pemerintah Distrik";"Distrik Nunggawi Kab.Tolikara";"68MJ+9HQ, Kanggineri, Nunggawi, Kabupaten Tolikara, Papua 99567";"Kanggineri, Nunggawi, Kabupaten Tolikara";"PAPUA";"99567";"Indonesia";"";"";"";"-3.7665332";"138.3314873";"https://maps.google.com/?cid=0x0:0xfe1a11cca2d119ac";""
"perumahan";"Pembangunan Perumahan";"Perumahan PEMDA";"8FCG+33Q, Muara, Kec. Karubaga, Kabupaten Tolikara, Papua 99567";"Muara, Kec. Karubaga, Kabupaten Tolikara";"PAPUA";"99567";"Indonesia";"";"";"";"-3.6797785";"138.4752409";"https://maps.google.com/?cid=0x0:0x92f2706a088cac78";""
"perumahan";"Pembangunan Perumahan";"JELEKPELEK";"8FCF+C8G, Muara, Kec. Karubaga, Kabupaten Tolikara, Papua 99567";"Muara, Kec. Karubaga, Kabupaten Tolikara";"PAPUA";"99567";"Indonesia";"";"";"";"-3.6801995";"138.4736612";"https://maps.google.com/?cid=0x0:0x6dd4edeca684d55a";""
"perumahan";"Komplek perumahan";"Kampung Ilim";"2864+H7, Ilim, Distrik Goa Balim, Kabupaten Lanny Jaya, Papua";"Kabupaten Lanny Jaya, Papua";"PAPUA";"";"Indonesia";"";"";"";"-3.9885625";"138.3056875";"https://maps.google.com/?cid=0x0:0x10fc243d3250ccc2";""
"perumahan";"Komplek perumahan";"Elos Wanena";"4C4F+93, Gubo, Distrik Tiomneri, Kabupaten Lanny Jaya, Papua 99567";"Gubo, Distrik Tiomneri, Kabupaten Lanny Jaya";"PAPUA";"99567";"Indonesia";"";"";"";"-3.8934318";"138.4237614";"https://maps.google.com/?cid=0x0:0x2f573e404c686333";""
"perumahan";"Penginapan";"Perumahan Pemda Lanny Jaya";"Unnamed Road, Oyi, Distrik Tiom, Kabupaten Lanny Jaya, Papua 99567";"Oyi, Distrik Tiom, Kabupaten Lanny Jaya";"PAPUA";"99567";"Indonesia";"";"";"";"-3.919383";"138.4451443";"https://maps.google.com/?cid=0x0:0xe376fd021ac2718a";""
"perumahan";"Komplek perumahan";"Dr. Dalos Wanena";"4C4F+93, Gubo, Distrik Tiomneri, Kabupaten Lanny Jaya, Papua 99567";"Gubo, Distrik Tiomneri, Kabupaten Lanny Jaya";"PAPUA";"99567";"Indonesia";"";"";"";"-3.8939749";"138.4227681";"https://maps.google.com/?cid=0x0:0xfdeaf91aa7548f31";""
"perumahan";"Pembangunan Perumahan";"WABILAGUN";"3H5J+XR, Kimbo, Kec. Makki, Kabupaten Lanny Jaya, Papua";"Kabupaten Lanny Jaya, Papua";"PAPUA";"";"Indonesia";"";"";"";"-3.9401051";"138.5820245";"https://maps.google.com/?cid=0x0:0x795c18530dc00e30";""
"perumahan";"Toko";"Kios marola dg. Amir";"3FC4+R5F, Bandar Udara Tiom, Olume, Kurulu, Kabupaten Lanny Jaya, Papua 99567";"Bandar Udara Tiom, Olume, Kurulu, Kabupaten Lanny Jaya";"PAPUA";"99567";"Indonesia";"";"";"";"-3.9279381";"138.4554204";"https://maps.google.com/?cid=0x0:0xc456ced0998928ae";""
"perumahan";"Komplek perumahan";"Unggeme";"3FJ2+PC, Oyi, Distrik Tiom, Kabupaten Lanny Jaya, Papua";"Kabupaten Lanny Jaya, Papua";"PAPUA";"";"Indonesia";"";"";"";"-3.9182145";"138.4511039";"https://maps.google.com/?cid=0x0:0xed65eb9c9981dfbe";""
"perumahan";"Rumah Kayu";"Rumah Keluarga A Kogoya";"3F95+VJ2, Golime, Distrik Tiom, Kabupaten Lanny Jaya, Papua 99567";"Golime, Distrik Tiom, Kabupaten Lanny Jaya";"PAPUA";"99567";"Indonesia";"";"";"";"-3.9299099";"138.4584197";"https://maps.google.com/?cid=0x0:0xe652bcb982dedad1";""
"perumahan";"Pembangunan Perumahan";"sutm existing distrik wagi";"8F4R+689, Gininggadonak, Kec. Karubaga, Kabupaten Tolikara, Papua 99567";"Gininggadonak, Kec. Karubaga, Kabupaten Tolikara";"PAPUA";"99567";"Indonesia";"";"";"";"-3.6944689";"138.4908493";"https://maps.google.com/?cid=0x0:0xc1188aaac37910be";""
"perumahan";"perumahan";"Talinamber Village";"Tolineri, Jln. Raya Khai, Distrik Kanggime, Kabupaten Tolikara, Papua 99042";"Jln. Raya Khai, Distrik Kanggime, Kabupaten Tolikara";"PAPUA";"99042";"Indonesia";"";"";"";"-3.6702654";"138.3309452";"https://maps.google.com/?cid=0x0:0xd666154fcc9319c1";""
"perumahan";"Komplek perumahan";"Kota baru";"8F8G+FGP, Karubaga, Kec. Karubaga, Kabupaten Tolikara, Papua";"Kabupaten Tolikara, Papua";"PAPUA";"";"Indonesia";" 082327888169";"";"";"-3.6837789";"138.4763233";"https://maps.google.com/?cid=0x0:0xd911ecb25350fee0";""
"perumahan";"perumahan";"Kec. Balingga";"Kabupaten Lanny Jaya, Papua";"Kabupaten Lanny Jaya, Papua";"PAPUA";"";"Indonesia";"";"";"";"-4.130659";"138.3589086";"https://maps.google.com/?cid=0x0:0x59418e32c4fc4580";""
"perumahan";"Gedung Apartemen";"Kios Kogome";"8F9H+H2Q, Jl Kesehatan, Karubaga, Kec. Karubaga, Kabupaten Tolikara, Papua 99567";"Jl Kesehatan, Karubaga, Kec. Karubaga, Kabupaten Tolikara";"PAPUA";"99567";"Indonesia";"";"";"";"-3.6810159";"138.4773797";"https://maps.google.com/?cid=0x0:0x7df16040d5c70d4c";""
"perumahan";"Kantor Pemerintah";"Pirime";"2GCF+4FQ, Pirime, Distrik Pirime, Kabupaten Lanny Jaya, Papua 99567";"Pirime, Distrik Pirime, Kabupaten Lanny Jaya";"PAPUA";"99567";"Indonesia";"";"";"";"-3.9796675";"138.5237246";"https://maps.google.com/?cid=0x0:0xe890cc31e6a4c105";""
