Category,Real Category,Business Name,Address,City,State,Postal Code,Country,Phone,Email,Website,Latitude,Longitude,Map Link,Details Link
hotel,hotel,Parthi Puri Ubud,"Br. Silungan, Lodtunduh, Kecamatan Ubud, Kabupaten Gianyar, Bali 80571","Lodtunduh, Kecamatan Ubud, Kabupaten Gianyar",BALI,80571.0,Indonesia,81999492317.0,,,-8.5547083,115.2641606,https://maps.google.com/?cid=0x0:0xef50601be07b2c0b,
hotel,hotel,Bali 80352,"Abiansemal, Kec. Abiansemal, Kabupaten Badung, Bali","Kabupaten Badung, Bali",BALI,,Indonesia,,,,-8.5584335,115.2244853,https://maps.google.com/?cid=0x0:0x1c00c5eb6016be40,
hotel,hotel,Elemento Bali,"Jl. Raya Gerih Gg. Sandat No.8, Sibang Kaja, Kec. Abiansemal, Kabupaten Badung, Bali 80352","Sibang Kaja, Kec. Abiansemal, Kabupaten Badung",BALI,80352.0,Indonesia,881082818289.0,,,-8.5636963,115.2092973,https://maps.google.com/?cid=0x0:0x5d9a5296e27f2ef7,
hotel,hotel,Gopala villa ubud,"Unnamed Road, Mekar Bhuwana, Kec. Abiansemal, Kabupaten Badung, Bali 80352","Mekar Bhuwana, Kec. Abiansemal, Kabupaten Badung",BALI,80352.0,Indonesia,85739299990.0,,,-8.5481542,115.2258098,https://maps.google.com/?cid=0x0:0x65f9a1a377a4b242,
hotel,hotel,Freddies Villas Ubud Bali,"Jalan Gunung Abang, Banjar, Penataran, Lodtunduh, Kecamatan Ubud, Kabupaten Gianyar, Bali 80423","Banjar, Penataran, Lodtunduh, Kecamatan Ubud, Kabupaten Gianyar",BALI,80423.0,Indonesia,81775126480.0,,,-8.5784983,115.2650975,https://maps.google.com/?cid=0x0:0xb42daf43039b9c66,
hotel,hotel,Ashoka Tree Resort Ubud,"Jl. Catur Muka II, Banjar Tanggayuda, Kedewatan, Kecamatan Ubud, Kabupaten Gianyar, Bali 80571","Banjar Tanggayuda, Kedewatan, Kecamatan Ubud, Kabupaten Gianyar",BALI,80571.0,Indonesia,81339110206.0,,,-8.4621486,115.2484516,https://maps.google.com/?cid=0x0:0xfc26faf68b73bdff,
hotel,hotel,,,,BALI,,Indonesia,,,,,,https://maps.google.com/?cid=0x0:0xebcb8110ca69bff6%7C/g/11b7w0q46_%7Cid-ID,
hotel,hotel,Bakung Ubud Resort  Villa,"Jalan Sriwedari, Desa Tegallantang G799+299 Ubud, Ubud, Kec. Tegallalang, Kabupaten Gianyar, Bali 80571","Desa Tegallantang G799+299 Ubud, Ubud, Kec. Tegallalang, Kabupaten Gianyar",BALI,80571.0,Indonesia,3614792660.0,,,-8.482455,115.2684987,https://maps.google.com/?cid=0x0:0xebcb8110ca69bff6,
hotel,hotel,Triyana Resort Carangsari,"H64F+JJH, Jl. Tukad Ayung XIX, Carangsari, Kec. Petang, Kabupaten Badung, Bali 80353","Jl. Tukad Ayung XIX, Carangsari, Kec. Petang, Kabupaten Badung",BALI,80353.0,Indonesia,81339498851.0,,,-8.4434295,115.2241015,https://maps.google.com/?cid=0x0:0x16dfa149b143af29,
hotel,hotel,Tebeduwe Joglo Villa,"F62J+W36, Jl Teba Duwe Banjar, Mekar Bhuwana, Abiansemal, Badung Regency, Bali 80352","Jl Teba Duwe Banjar, Mekar Bhuwana, Abiansemal, Badung Regency",BALI,80352.0,Indonesia,82147549549.0,,,-8.5472644,115.2303741,https://maps.google.com/?cid=0x0:0x961b69b0b7a99f7b,
hotel,hotel,Puri Teduh Guesthouse Ubud,"Jl. Raya Nyuh Kuning, Mas, Kecamatan Ubud, Kabupaten Gianyar, Bali 80571","Mas, Kecamatan Ubud, Kabupaten Gianyar",BALI,80571.0,Indonesia,87861759654.0,,,-8.5286567,115.2585628,https://maps.google.com/?cid=0x0:0x56fc48826dfa0e50,
hotel,hotel,"Paisa Ubud - Unique, Relaxing Experiences Stay in Ubud","Jl. Cemp. Putih No.5, Sayan, Kecamatan Ubud, Kabupaten Gianyar, Bali 80571","Sayan, Kecamatan Ubud, Kabupaten Gianyar",BALI,80571.0,Indonesia,3614792299.0,,,-8.5031448,115.2475557,https://maps.google.com/?cid=0x0:0x93bf1578b33f2643,
hotel,hotel,,,,BALI,,Indonesia,,,,,,https://maps.google.com/?cid=0x0:0xd4322ebbb156e795%7C/g/1td82tlt%7Cid-ID,
hotel,hotel,Belvilla Y Resort Near Central Ubud,"80571, Jl. Penestanan, Sayan, Kecamatan Ubud Hotel near Museum Blanco 400 m Kabupaten Gianyar, Bali, 80571","Jl. Penestanan, Sayan, Kecamatan Ubud Hotel near Museum Blanco 400 m Kabupaten Gianyar",BALI,80571.0,Indonesia,2129707601.0,,,-8.5059793,115.2508953,https://maps.google.com/?cid=0x0:0xd4322ebbb156e795,
hotel,hotel,Sukanami Villa Ubud,"Jl. Raya Payangan No.desa, meliling kelod, Kec. Payangan, Kabupaten Gianyar, Bali 80572","meliling kelod, Kec. Payangan, Kabupaten Gianyar",BALI,80572.0,Indonesia,85280073823.0,,,-8.4482886,115.242462,https://maps.google.com/?cid=0x0:0xe7eeb3999adabd7b,
hotel,hotel,Dharma Sentana Ubud Guest House,"Jl. Tegal Sari No.3, Ubud, Kecamatan Ubud, Kabupaten Gianyar, Bali 80571","Ubud, Kecamatan Ubud, Kabupaten Gianyar",BALI,80571.0,Indonesia,85738272604.0,,,-8.5044598,115.2637972,https://maps.google.com/?cid=0x0:0x702778ff55aeeff3,
hotel,hotel,Asri Sari Villa Ubud,"Jl. Lodsema Jl. Raya Mawang, Lodtunduh, Kecamatan Ubud, Kabupaten Gianyar, Bali 80582","Lodtunduh, Kecamatan Ubud, Kabupaten Gianyar",BALI,80582.0,Indonesia,85142728375.0,,,-8.5757831,115.2658369,https://maps.google.com/?cid=0x0:0x29d2544009e88cff,
hotel,hotel,Griya Bun Sari,"Let, Jl. Delima no 2 Marge, Jl. Uma Bun, Angantaka, Kec. Abiansemal, Kabupaten Badung, Bali 80352","Jl. Delima no 2 Marge, Jl. Uma Bun, Angantaka, Kec. Abiansemal, Kabupaten Badung",BALI,80352.0,Indonesia,8174754898.0,,,-8.5837808,115.2385468,https://maps.google.com/?cid=0x0:0x317ffdc801c2e412,
hotel,hotel,Pondok Wisata Langit Biru,"Sibang Kaja, Kec. Abiansemal, Kabupaten Badung, Bali 80352","Kec. Abiansemal, Kabupaten Badung",BALI,80352.0,Indonesia,8973714234.0,,,-8.5717182,115.2211637,https://maps.google.com/?cid=0x0:0xf8d5e764061ded97,
hotel,hotel,Puri Cili Ubud,"Unnamed road, Singapadu Kaler, Kec. Sukawati, Kabupaten Gianyar, Bali 80571","Singapadu Kaler, Kec. Sukawati, Kabupaten Gianyar",BALI,80571.0,Indonesia,,,,-8.5536367,115.2503039,https://maps.google.com/?cid=0x0:0x5c3e48447008d3e,
hotel,hotel,,,,BALI,,Indonesia,,,,,,https://maps.google.com/?cid=0x0:0x924efa58bdc4035c%7C/g/11bycfmxwd%7Cid-ID,
hotel,hotel,Kakul Villas  Suites by Supala,"Jl. A.A. Gede Rai, Lodtunduh, Kecamatan Ubud, Kabupaten Gianyar, Bali 80571","Lodtunduh, Kecamatan Ubud, Kabupaten Gianyar",BALI,80571.0,Indonesia,3614792523.0,,,-8.5337318,115.2621053,https://maps.google.com/?cid=0x0:0x924efa58bdc4035c,
hotel,hotel,Pandawa Lofts,"G7PC+9R3, Jl. Tirta Tawar Gg. Cinta, Tegallalang, Kecamatan Ubud, Kabupaten Gianyar, Bali 80571","Jl. Tirta Tawar Gg. Cinta, Tegallalang, Kecamatan Ubud, Kabupaten Gianyar",BALI,80571.0,Indonesia,81933058405.0,,,-8.4647222,115.27175,https://maps.google.com/?cid=0x0:0x77e96d264f7c0242,
hotel,hotel,Pondok Saren Anyar,"Jl. Raya Anggungan Lukluk , Kec. Mengwi, Badung, Bali, 80352","Kec. Mengwi, Badung",BALI,80352.0,Indonesia,2129707601.0,,,-8.5616965,115.1959227,https://maps.google.com/?cid=0x0:0xc44924ba406a072b,
hotel,hotel,Men Bebas Homestay,"Unnamed Road, Singapadu Kaler, Kec. Sukawati, Kabupaten Gianyar, Bali 80352","Singapadu Kaler, Kec. Sukawati, Kabupaten Gianyar",BALI,80352.0,Indonesia,895417300072.0,,,-8.5525432,115.2432119,https://maps.google.com/?cid=0x0:0xf43a2b03e5112eef,
hotel,hotel,Raditya homestay,"C6X9+J8P, Mambal, Kec. Abiansemal, Kabupaten Badung, Bali 80352","Mambal, Kec. Abiansemal, Kabupaten Badung",BALI,80352.0,Indonesia,81239697564.0,,,-8.550804,115.2180792,https://maps.google.com/?cid=0x0:0xc6719e1524e70a41,
hotel,hotel,De Kutuh,"Jalan Tirta Tawar, Petulu, Kecamatan Ubud, Kabupaten Gianyar, Bali 80571","Petulu, Kecamatan Ubud, Kabupaten Gianyar",BALI,80571.0,Indonesia,8123955812.0,,,-8.5005611,115.2693357,https://maps.google.com/?cid=0x0:0x865860bed28b3ac7,
hotel,hotel,Vaneka Garden House,"Banjar Begawan, Melinggih Kelod, Kec. Payangan, Kabupaten Gianyar, Bali 80572","Melinggih Kelod, Kec. Payangan, Kabupaten Gianyar",BALI,80572.0,Indonesia,81338315303.0,,,-8.4465234,115.2356882,https://maps.google.com/?cid=0x0:0xdedc5c871882597b,
hotel,hotel,Damuh Guest House,"Jl. Banjar Tegas Kawan, Gg. Merak No, 21, Peliatan, Kecamatan Ubud, Kabupaten Gianyar, Bali 80571","Gg. Merak No, 21, Peliatan, Kecamatan Ubud, Kabupaten Gianyar",BALI,80571.0,Indonesia,81999175151.0,,,-8.5260514,115.2708717,https://maps.google.com/?cid=0x0:0x806847245fc64bf4,
hotel,hotel,Kuta,"Kec. Kuta, Kabupaten Badung, Bali","Kabupaten Badung, Bali",BALI,,Indonesia,,,,-8.7237964,115.1752277,https://maps.google.com/?cid=0x0:0x4030bfbca7d2c00,
hotel,hotel,Kuta Beach Hotel,"Jl. Benesari, Legian, Kec. Kuta, Kabupaten Badung, Bali 80361","Legian, Kec. Kuta, Kabupaten Badung",BALI,80361.0,Indonesia,361754396.0,,,-8.7127594,115.1686592,https://maps.google.com/?cid=0x0:0x24b14f8455abd357,
hotel,hotel,,,,BALI,,Indonesia,,,,,,https://maps.google.com/?cid=0x0:0x24b14f8455abd357%7C/g/1tp1dl8h%7Cid-ID,
hotel,hotel,,,,BALI,,Indonesia,,,,,,https://maps.google.com/?cid=0x0:0xc067fba50c0ec935%7C/g/1q62gkz32%7Cid-ID,
hotel,hotel,Eden Hotel Kuta Bali,"Jl. Kartika Plaza No.42, Kuta, Kec. Kuta, Kabupaten Badung, Bali 80361","Kuta, Kec. Kuta, Kabupaten Badung",BALI,80361.0,Indonesia,3614726402.0,,,-8.7330059,115.1674904,https://maps.google.com/?cid=0x0:0xc067fba50c0ec935,
hotel,hotel,PrimeBiz Hotel Kuta,"Jl. Raya Kuta No.66, Kuta, Kec. Kuta, Kabupaten Badung, Bali 80361","Kuta, Kec. Kuta, Kabupaten Badung",BALI,80361.0,Indonesia,3618469766.0,,,-8.7355592,115.1777809,https://maps.google.com/?cid=0x0:0x576b36ecebcf9fc1,
hotel,hotel,,,,BALI,,Indonesia,,,,,,https://maps.google.com/?cid=0x0:0x576b36ecebcf9fc1%7C/g/1jgm1z9x2%7Cid-ID,
hotel,hotel,Rofa Kuta Hotel,"Jl. Nakula No.9, Legian, Kec. Kuta, Kabupaten Badung, Bali 80361","Legian, Kec. Kuta, Kabupaten Badung",BALI,80361.0,Indonesia,3618496477.0,,,-8.6993623,115.1795896,https://maps.google.com/?cid=0x0:0xa17520509a81139d,
hotel,hotel,,,,BALI,,Indonesia,,,,,,https://maps.google.com/?cid=0x0:0xa17520509a81139d%7C/g/11b6hw_t6y%7Cid-ID,
hotel,hotel,Famous Hotel Kuta,"Jl. Kediri No.5, Tuban, Kec. Kuta, Denpasar, Bali 80361","Tuban, Kec. Kuta, Denpasar",BALI,80361.0,Indonesia,82114152828.0,,,-8.7372947,115.176876,https://maps.google.com/?cid=0x0:0x7e9a4afc4bde22f,
hotel,hotel,,,,BALI,,Indonesia,,,,,,https://maps.google.com/?cid=0x0:0x7e9a4afc4bde22f%7C/g/11s7lqlwkk%7Cid-ID,
hotel,hotel,favehotel - Kartika Plaza Kuta,"Jl. Kartika Plaza No.45X, Kuta, Kec. Kuta, Kabupaten Badung, Bali 80361","Kuta, Kec. Kuta, Kabupaten Badung",BALI,80361.0,Indonesia,3614727799.0,,,-8.7302962,115.167758,https://maps.google.com/?cid=0x0:0x45d3f9d7b281d554,
hotel,hotel,,,,BALI,,Indonesia,,,,,,https://maps.google.com/?cid=0x0:0x45d3f9d7b281d554%7C/g/11c0q0jj5f%7Cid-ID,
hotel,hotel,Hotel ZIA Bali - Kuta,"Jl. >>u200bCiung Wanara 17, Br. Tegal, Kuta, Kec. Kuta, Kuta, Bali 80361","Br. Tegal, Kuta, Kec. Kuta, Kuta",BALI,80361.0,Indonesia,361758811.0,,,-8.7235309,115.1729535,https://maps.google.com/?cid=0x0:0x78c4f1a94732c529,
hotel,hotel,,,,BALI,,Indonesia,,,,,,https://maps.google.com/?cid=0x0:0x78c4f1a94732c529%7C/g/11c3123mkr%7Cid-ID,
hotel,hotel,Bedrock Hotel Kuta bali,"Jl. Wana Segara No.21, Kuta, Kec. Kuta, Kabupaten Badung, Bali 80361","Kuta, Kec. Kuta, Kabupaten Badung",BALI,80361.0,Indonesia,3614727300.0,,,-8.7373811,115.1665087,https://maps.google.com/?cid=0x0:0x81e57804f978a66d,
hotel,hotel,,,,BALI,,Indonesia,,,,,,https://maps.google.com/?cid=0x0:0x81e57804f978a66d%7C/g/11cjhqm4w2%7Cid-ID,
hotel,hotel,,,,BALI,,Indonesia,,,,,,https://maps.google.com/?cid=0x0:0x366b5df7b172f2a3%7C/g/11xdmr879%7Cid-ID,
hotel,hotel,Grand Kuta Hotel  Residence,"Jl. Dewi Sri No.8, Legian, Kec. Kuta, Bali, 80361","Legian, Kec. Kuta",BALI,80361.0,Indonesia,3613000888.0,,,-8.7001905,115.1765174,https://maps.google.com/?cid=0x0:0x366b5df7b172f2a3,
hotel,hotel,Hotel The Flora Kuta Bali,"Jl. Bakung Sari No.13A, Kuta, Kec. Kuta, Kabupaten Badung, Bali 80361","Kuta, Kec. Kuta, Kabupaten Badung",BALI,80361.0,Indonesia,8113931964.0,,,-8.7248964,115.1744308,https://maps.google.com/?cid=0x0:0xe025bca480e8cc6c,
hotel,hotel,,,,BALI,,Indonesia,,,,,,https://maps.google.com/?cid=0x0:0xe025bca480e8cc6c%7C/g/1tdjm0m3%7Cid-ID,
hotel,hotel,The Kubu Hotel,"Kuta Jl. Poppies 1 Gg, Sorga, Kec. Kuta, Kabupaten Badung, Bali 80361","Sorga, Kec. Kuta, Kabupaten Badung",BALI,80361.0,Indonesia,81231394366.0,,,-8.7189581,115.1733522,https://maps.google.com/?cid=0x0:0x8098500e54e69993,
hotel,hotel,,,,BALI,,Indonesia,,,,,,https://maps.google.com/?cid=0x0:0x8098500e54e69993%7C/g/1v3g6p61%7Cid-ID,
hotel,hotel,,,,BALI,,Indonesia,,,,,,https://maps.google.com/?cid=0x0:0x5681d15551baa93b%7C/g/1jkwhsw0t%7Cid-ID,
hotel,hotel,Harper Kuta Bali,"Jl. Raya Legian No.73, Kuta, Kec. Kuta, Kabupaten Badung, Bali 80361","Kuta, Kec. Kuta, Kabupaten Badung",BALI,80361.0,Indonesia,3618469869.0,,,-8.719029,115.174361,https://maps.google.com/?cid=0x0:0x5681d15551baa93b,
hotel,hotel,Kuta Angel Hotel,"Jl. Pantai Kuta Br. Pande Mas No.33, Kuta, Kec. Kuta Sel., Kabupaten Badung, Bali 80361","Kuta, Kec. Kuta Sel., Kabupaten Badung",BALI,80361.0,Indonesia,82318990933.0,,,-8.7225911,115.1732845,https://maps.google.com/?cid=0x0:0x1d21ed43a451fa3d,
hotel,hotel,,,,BALI,,Indonesia,,,,,,https://maps.google.com/?cid=0x0:0x1d21ed43a451fa3d%7C/g/12hlhdhxj%7Cid-ID,
hotel,hotel,Kuta Central Park Hotel Bali,"Jl. Patih Jelantik, Kuta, Badung, Kabupaten Badung, Bali 80361","Kuta, Badung, Kabupaten Badung",BALI,80361.0,Indonesia,361769222.0,,,-8.7103142,115.1793693,https://maps.google.com/?cid=0x0:0x241252efbb8e3581,
hotel,hotel,,,,BALI,,Indonesia,,,,,,https://maps.google.com/?cid=0x0:0x241252efbb8e3581%7C/g/1ptxvfn4l%7Cid-ID,
hotel,hotel,Kuta Selatan,"Kec. Kuta Sel., Kabupaten Badung, Bali","Kabupaten Badung, Bali",BALI,,Indonesia,,,,-8.7815919,115.1787738,https://maps.google.com/?cid=0x0:0x73840119194c50f4,
hotel,hotel,Bali Breezz Hotel,"Jl. Pantai Sari No.23, Jimbaran, Kec. Kuta Sel., Kabupaten Badung, Bali 80361","Jimbaran, Kec. Kuta Sel., Kabupaten Badung",BALI,80361.0,Indonesia,361708524.0,,,-8.7688537,115.1707051,https://maps.google.com/?cid=0x0:0xb4e3cef5fc2553e7,
hotel,hotel,,,,BALI,,Indonesia,,,,,,https://maps.google.com/?cid=0x0:0xb4e3cef5fc2553e7%7C/g/1tkhff95%7Cid-ID,
hotel,hotel,,,,BALI,,Indonesia,,,,,,https://maps.google.com/?cid=0x0:0xb8ca964e709901c4%7C/g/11cjpjl0dt%7Cid-ID,
hotel,hotel,Sunrise Aventus Hotel Nusa Dua,"Jl. Bypass Ngurah Rai No.188, Nusa Dua, Kec. Kuta Sel., Kabupaten Badung, Bali 80361","Nusa Dua, Kec. Kuta Sel., Kabupaten Badung",BALI,80361.0,Indonesia,3613018899.0,,,-8.7848462,115.198478,https://maps.google.com/?cid=0x0:0x124df5a994008fc2,
hotel,hotel,,,,BALI,,Indonesia,,,,,,https://maps.google.com/?cid=0x0:0x124df5a994008fc2%7C/g/11sfrstnwx%7Cid-ID,
hotel,hotel,MaxOne Hotel Bukit Jimbaran,"Jl. Raya Uluwatu, Ungasan, Kec. Kuta Sel., Kabupaten Badung, Bali 80363","Ungasan, Kec. Kuta Sel., Kabupaten Badung",BALI,80363.0,Indonesia,3613008989.0,,,-8.8124468,115.1574587,https://maps.google.com/?cid=0x0:0xf68f7e712d1c4c56,
hotel,hotel,,,,BALI,,Indonesia,,,,,,https://maps.google.com/?cid=0x0:0xf68f7e712d1c4c56%7C/g/12hkrkkt7%7Cid-ID,
hotel,hotel,Jimbaran Bay Beach Resort  Spa,"Jl. Pantai Kedonganan No.888, Kedonganan, Kec. Kuta, Kabupaten Badung, Bali 80361","Kedonganan, Kec. Kuta, Kabupaten Badung",BALI,80361.0,Indonesia,361705999.0,,,-8.7664683,115.1700616,https://maps.google.com/?cid=0x0:0xb7a44c266f034787,
hotel,hotel,,,,BALI,,Indonesia,,,,,,https://maps.google.com/?cid=0x0:0xb7a44c266f034787%7C/g/11bzt55mh1%7Cid-ID,
hotel,hotel,Grandmas Plus Hotel Airport,"Jl. Bypass Ngurah Rai No.99, Tuban, Kec. Kuta, Kabupaten Badung, Bali 80361","Tuban, Kec. Kuta, Kabupaten Badung",BALI,80361.0,Indonesia,361760319.0,,,-8.741978,115.181386,https://maps.google.com/?cid=0x0:0xe7901f1f2ce5dcf3,
hotel,hotel,,,,BALI,,Indonesia,,,,,,https://maps.google.com/?cid=0x0:0xe7901f1f2ce5dcf3%7C/g/1jkyjnt0z%7Cid-ID,
hotel,hotel,Hotel Bali Mega,"Komplek Perumahan Taman Griya, Jl.Batur Raya, Jimbaran, Kec. Kuta Sel., Kabupaten Badung, Bali 80361","Jl.Batur Raya, Jimbaran, Kec. Kuta Sel., Kabupaten Badung",BALI,80361.0,Indonesia,3618479366.0,,,-8.7907256,115.1871786,https://maps.google.com/?cid=0x0:0x9568fa91238d6f88,
hotel,hotel,,,,BALI,,Indonesia,,,,,,https://maps.google.com/?cid=0x0:0xf63f38cc6c95a8be%7C/g/12htq15kd%7Cid-ID,
hotel,hotel,Amaroossa Suite Bali,"Taman Mumbul, Jl. Taman Kebo Iwa Jl. Nusa Dua No.2, Benoa, Kec. Kuta Sel., Kabupaten Badung, Bali 80361","Jl. Taman Kebo Iwa Jl. Nusa Dua No.2, Benoa, Kec. Kuta Sel., Kabupaten Badung",BALI,80361.0,Indonesia,3618468877.0,,,-8.790119,115.2063654,https://maps.google.com/?cid=0x0:0xf63f38cc6c95a8be,
hotel,hotel,The Pandan Sari Hotel,"Jl. Raya Uluwatu No.190x, Jimbaran, Kec. Kuta Sel., Kabupaten Badung, Bali 80361","Jimbaran, Kec. Kuta Sel., Kabupaten Badung",BALI,80361.0,Indonesia,3614462131.0,,,-8.7892185,115.1639877,https://maps.google.com/?cid=0x0:0x66c56d6ead35220c,
hotel,hotel,Tijili Hotel Benoa,"Jl. Pratama No.62, Tj. Benoa, Kec. Kuta Sel., Kabupaten Badung, Bali 80361","Tj. Benoa, Kec. Kuta Sel., Kabupaten Badung",BALI,80361.0,Indonesia,3614728900.0,,,-8.7773855,115.2243023,https://maps.google.com/?cid=0x0:0x322750a8b0c0fe52,
hotel,hotel,,,,BALI,,Indonesia,,,,,,https://maps.google.com/?cid=0x0:0x322750a8b0c0fe52%7C/g/11c1zb3dpc%7Cid-ID,
hotel,hotel,,,,BALI,,Indonesia,,,,,,https://maps.google.com/?cid=0x0:0x26f8f94845fb7d82%7C/g/1tg5fd9y%7Cid-ID,
hotel,hotel,Nirmala Hotel,"Jl. Uluwatu II No.10, Jimbaran, Kec. Kuta Sel., Kabupaten Badung, Bali 80361","Jimbaran, Kec. Kuta Sel., Kabupaten Badung",BALI,80361.0,Indonesia,361704209.0,,,-8.7817772,115.1742643,https://maps.google.com/?cid=0x0:0x26f8f94845fb7d82,
hotel,hotel,The Kubu Hotel,"Kuta Jl. Poppies 1 Gg, Sorga, Kec. Kuta, Kabupaten Badung, Bali 80361","Sorga, Kec. Kuta, Kabupaten Badung",BALI,80361.0,Indonesia,81231394366.0,,,-8.7189581,115.1733522,https://maps.google.com/?cid=0x0:0x8098500e54e69993,
hotel,hotel,,,,BALI,,Indonesia,,,,,,https://maps.google.com/?cid=0x0:0x8098500e54e69993%7C/g/1v3g6p61%7Cid-ID,
hotel,hotel,,,,BALI,,Indonesia,,,,,,https://maps.google.com/?cid=0x0:0x678b0a5ec6a67ae0%7C/g/11c5z6dxll%7Cid-ID,
hotel,hotel,Tropico Bali,"Jl. Goa Gong No.123, Jimbaran, Kec. Kuta Sel., Kabupaten Badung, Bali 80361","Jimbaran, Kec. Kuta Sel., Kabupaten Badung",BALI,80361.0,Indonesia,3614468906.0,,,-8.8042154,115.1780319,https://maps.google.com/?cid=0x0:0x678b0a5ec6a67ae0,
hotel,hotel,Zuri Express Jimbaran by ZHM,"Jl. Uluwatu II No.88X, Jimbaran, Kec. Kuta Sel., Kabupaten Badung, Bali 80361","Jimbaran, Kec. Kuta Sel., Kabupaten Badung",BALI,80361.0,Indonesia,3614463666.0,,,-8.7823974,115.1740347,https://maps.google.com/?cid=0x0:0x9d4fb4f80500f785,
hotel,hotel,,,,BALI,,Indonesia,,,,,,https://maps.google.com/?cid=0x0:0x9d4fb4f80500f785%7C/g/11f54s3bxc%7Cid-ID,
hotel,hotel,The Baliem Hotel,"Jl. Raya Uluwatu Gg. Mecutan 7 No.1 Blok B, Ungasan, Kec. Kuta Sel., Kabupaten Badung, Bali 80361","Ungasan, Kec. Kuta Sel., Kabupaten Badung",BALI,80361.0,Indonesia,81558000288.0,,,-8.80367,115.1626075,https://maps.google.com/?cid=0x0:0x984264ece14b9f5e,
hotel,hotel,,,,BALI,,Indonesia,,,,,,https://maps.google.com/?cid=0x0:0x3feea1573f070ce5%7C/g/11b806d9bd%7Cid-ID,
hotel,hotel,The Lerina Hotel Nusa Dua - Bali,"Jl. Bypass Ngurah Rai No.1001X, Benoa, Kec. Kuta Sel., Kabupaten Badung, Bali 80361","Benoa, Kec. Kuta Sel., Kabupaten Badung",BALI,80361.0,Indonesia,361773490.0,,,-8.785802,115.20189,https://maps.google.com/?cid=0x0:0x3feea1573f070ce5,
hotel,hotel,Kec. Kuta Utara,"Kabupaten Badung, Bali","Kabupaten Badung, Bali",BALI,,Indonesia,,,,-8.6299045,115.1755028,https://maps.google.com/?cid=0x0:0xd7011bdecee8ce33,
hotel,hotel,The Aveda Boutique Hotel,"Jl. Petitenget No.168, Kerobokan Kelod, Kec. Kuta Utara, Kabupaten Badung, Bali 80361","Kerobokan Kelod, Kec. Kuta Utara, Kabupaten Badung",BALI,80361.0,Indonesia,3618499688.0,,,-8.6719133,115.162531,https://maps.google.com/?cid=0x0:0x28e7a152c7a2b661,
hotel,hotel,,,,BALI,,Indonesia,,,,,,https://maps.google.com/?cid=0x0:0x28e7a152c7a2b661%7C/g/11b6zswth3%7Cid-ID,
hotel,hotel,Mailaku House,"Jalan Muding Kelod Gg Beten Sabo No.2, Kerobokan Kaja, Kec. Kuta Utara, Kabupaten Badung, Bali 80361","Kerobokan Kaja, Kec. Kuta Utara, Kabupaten Badung",BALI,80361.0,Indonesia,8154705282.0,,,-8.6535469,115.1765009,https://maps.google.com/?cid=0x0:0x51e6f24bf96e24d4,
hotel,hotel,,,,BALI,,Indonesia,,,,,,https://maps.google.com/?cid=0x0:0x51e6f24bf96e24d4%7C/g/11hf4yb5lv%7Cid-ID,
hotel,hotel,Summer of Surf Hostel Canggu,"Jl. Tanah Barak No.29, Canggu, Kec. Kuta Utara, Kabupaten Badung, Bali 80351","Canggu, Kec. Kuta Utara, Kabupaten Badung",BALI,80351.0,Indonesia,87761017794.0,,,-8.64991,115.133887,https://maps.google.com/?cid=0x0:0xbd925ba350898731,
hotel,hotel,,,,BALI,,Indonesia,,,,,,https://maps.google.com/?cid=0x0:0xa17520509a81139d%7C/g/11b6hw_t6y%7Cid-ID,
hotel,hotel,Rofa Kuta Hotel,"Jl. Nakula No.9, Legian, Kec. Kuta, Kabupaten Badung, Bali 80361","Legian, Kec. Kuta, Kabupaten Badung",BALI,80361.0,Indonesia,3618496477.0,,,-8.6993623,115.1795896,https://maps.google.com/?cid=0x0:0xa17520509a81139d,
hotel,hotel,The Alea Hotel Seminyak,"Jl. Cendrawasih No.78, Seminyak, Kec. Kuta Utara, Kabupaten Badung, Bali 80361","Seminyak, Kec. Kuta Utara, Kabupaten Badung",BALI,80361.0,Indonesia,82340165014.0,,,-8.674648,115.153418,https://maps.google.com/?cid=0x0:0xa4133ad714e2e040,
hotel,hotel,,,,BALI,,Indonesia,,,,,,https://maps.google.com/?cid=0x0:0xa4133ad714e2e040%7C/g/11b63bd72k%7Cid-ID,
hotel,hotel,,,,BALI,,Indonesia,,,,,,https://maps.google.com/?cid=0x0:0x23d54d83628c8481%7C/g/11f0krgwc3%7Cid-ID,
hotel,hotel,Liberta Hotel Seminyak,"Jl. Petitenget Seminyak No.2, Kerobokan Kelod, Kec. Kuta Utara, Kabupaten Badung, Bali 80361","Kerobokan Kelod, Kec. Kuta Utara, Kabupaten Badung",BALI,80361.0,Indonesia,82144320177.0,,,-8.6719614,115.1603534,https://maps.google.com/?cid=0x0:0x23d54d83628c8481,
hotel,hotel,Instyle Hotel bali,"Jl. Dewi Sri I No.16, Legian, Kec. Kuta, Kabupaten Badung, Bali 80361","Legian, Kec. Kuta, Kabupaten Badung",BALI,80361.0,Indonesia,3618947094.0,,,-8.7018289,115.1783416,https://maps.google.com/?cid=0x0:0x95c65a59e799c01f,
hotel,hotel,,,,BALI,,Indonesia,,,,,,https://maps.google.com/?cid=0x0:0x95c65a59e799c01f%7C/g/11gc9glfwk%7Cid-ID,
hotel,hotel,Bali Hotel | Zizz Convention Hotel,"Jl. Mudu Taki V No.2, Tegal Jaya, Dalung, Kec. Kuta Utara, Kabupaten Badung, Bali 80117","Tegal Jaya, Dalung, Kec. Kuta Utara, Kabupaten Badung",BALI,80117.0,Indonesia,3618947628.0,,,-8.633769,115.179138,https://maps.google.com/?cid=0x0:0x5e43227f195f5f40,
hotel,hotel,,,,BALI,,Indonesia,,,,,,https://maps.google.com/?cid=0x0:0x5e43227f195f5f40%7C/g/11b7k0bblf%7Cid-ID,
hotel,hotel,NIKHILA SEMINYAK,"Jl. Cendrawasih No.28, Seminyak, Kec. Kuta Utara, Kabupaten Badung, Bali 80361","Seminyak, Kec. Kuta Utara, Kabupaten Badung",BALI,80361.0,Indonesia,3618974111.0,,,-8.6745332,115.1559847,https://maps.google.com/?cid=0x0:0xf4e84911c2e2ce53,
hotel,hotel,,,,BALI,,Indonesia,,,,,,https://maps.google.com/?cid=0x0:0xf4e84911c2e2ce53%7C/g/11b7rxfn55%7Cid-ID,
hotel,hotel,The Hostel Canggu,"Gg. Tunjung No.46E, Tibubeneng, Kec. Kuta Utara, Kabupaten Badung, Bali 80361","Tibubeneng, Kec. Kuta Utara, Kabupaten Badung",BALI,80361.0,Indonesia,82177849331.0,,,-8.6455622,115.1540809,https://maps.google.com/?cid=0x0:0xce0d8edcafbb2839,
hotel,hotel,Delu Villas and Suite,"Jl. Gn. Tangkuban Perahu Jl. Raya Kerobokan No.3, Kerobokan Kelod, Kec. Kuta Utara, Kota Denpasar, Bali 80361","Kerobokan Kelod, Kec. Kuta Utara, Kota Denpasar",BALI,80361.0,Indonesia,82171561723.0,,,-8.67236,115.1655082,https://maps.google.com/?cid=0x0:0x345e2cc1be34c4f4,
hotel,hotel,,,,BALI,,Indonesia,,,,,,https://maps.google.com/?cid=0x0:0x345e2cc1be34c4f4%7C/g/1q66sxfc5%7Cid-ID,
hotel,hotel,Hotel Primera Seminyak,"Jl. Camplung Tanduk No.9A, Seminyak, Kec. Kuta, Kabupaten Badung, Bali 80361","Seminyak, Kec. Kuta, Kabupaten Badung",BALI,80361.0,Indonesia,81225483049.0,,,-8.6910876,115.165887,https://maps.google.com/?cid=0x0:0xe40225c81dfeb32f,
hotel,hotel,,,,BALI,,Indonesia,,,,,,https://maps.google.com/?cid=0x0:0xe40225c81dfeb32f%7C/g/1vgn544v%7Cid-ID,
hotel,hotel,Azana Boutique Hotel Denpasar,"Jl. Gatot Subroto Barat No.101, Padangsambian Kaja, Kec. Denpasar Bar., Kota Denpasar, Bali 80118","Padangsambian Kaja, Kec. Denpasar Bar., Kota Denpasar",BALI,80118.0,Indonesia,87889609565.0,,,-8.6360716,115.1931581,https://maps.google.com/?cid=0x0:0xf5c201aac9398c64,
hotel,hotel,North Wing Canggu Resort,"Jl. Raya Tuka No.79, Dalung, Kec. Kuta Utara, Kabupaten Badung, Bali 80361","Dalung, Kec. Kuta Utara, Kabupaten Badung",BALI,80361.0,Indonesia,82236183607.0,,,-8.6164686,115.1589526,https://maps.google.com/?cid=0x0:0xfff0c2164e87de7d,
hotel,hotel,Seminyak Paradiso Hotel Bali,"Jl. Camplung Tanduk, Seminyak, Kec. Kuta, Kabupaten Badung, Bali 80361","Seminyak, Kec. Kuta, Kabupaten Badung",BALI,80361.0,Indonesia,361730939.0,,,-8.6919768,115.1631178,https://maps.google.com/?cid=0x0:0x80f5f20ccd1ea10,
hotel,hotel,,,,BALI,,Indonesia,,,,,,https://maps.google.com/?cid=0x0:0x80f5f20ccd1ea10%7C/g/1thbg_qx%7Cid-ID,
hotel,hotel,Singgah Hotel Seminyak,"Jl. Raya Seminyak No.42, Seminyak, Kec. Kuta Utara, Kabupaten Badung, Bali 80361","Seminyak, Kec. Kuta Utara, Kabupaten Badung",BALI,80361.0,Indonesia,361730642.0,,,-8.6922024,115.167963,https://maps.google.com/?cid=0x0:0xa986ced55d0b89ac,
hotel,hotel,,,,BALI,,Indonesia,,,,,,https://maps.google.com/?cid=0x0:0xa986ced55d0b89ac%7C/g/11f_g57smd%7Cid-ID,
hotel,hotel,Bali 80351,"Kec. Mengwi, Kabupaten Badung, Bali","Kabupaten Badung, Bali",BALI,,Indonesia,,,,-8.5617185,115.1770586,https://maps.google.com/?cid=0x0:0x1c00c5eb6016be30,
hotel,hotel,Lilis Ikvala Radha,"Jl. Raya Munggu-Kapal No.12X, Abianbase, Kec. Mengwi, Kabupaten Badung, Bali 80351","Abianbase, Kec. Mengwi, Kabupaten Badung",BALI,80351.0,Indonesia,87858470721.0,,,-8.6118599,115.1353376,https://maps.google.com/?cid=0x0:0xefd2812516c1b609,
hotel,hotel,Dhyanapura City Hotel,"Jl. Raya Kapal No.20, Kapal, Kec. Mengwi, Kabupaten Badung, Bali 80351","Kapal, Kec. Mengwi, Kabupaten Badung",BALI,80351.0,Indonesia,3619064533.0,,,-8.5772419,115.1826855,https://maps.google.com/?cid=0x0:0x8b81fd1544a1d7b8,
hotel,hotel,GREEN BALI,"Jl. Dalem Wr. No.6, Canggu, Kec. Mengwi, Kabupaten Badung, Bali 80351","Canggu, Kec. Mengwi, Kabupaten Badung",BALI,80351.0,Indonesia,87897172486.0,,,-8.6319049,115.1379292,https://maps.google.com/?cid=0x0:0x4361086cce22c4c1,
hotel,hotel,Casa Verde Guest House,"Jl. Raya Abianbase No.127, Abianbase, Kec. Mengwi, Kabupaten Badung, Bali 80351","Abianbase, Kec. Mengwi, Kabupaten Badung",BALI,80351.0,Indonesia,8113998585.0,,,-8.599615,115.1731111,https://maps.google.com/?cid=0x0:0x87791dcfd3aacf9e,
hotel,hotel,Tegal wangi,"Jalan Pura Warung No.06, Tutul, Pererenan, Mengwi, Badung Regency, Bali 80351","Tutul, Pererenan, Mengwi, Badung Regency",BALI,80351.0,Indonesia,81943323727.0,,,-8.6316845,115.1379077,https://maps.google.com/?cid=0x0:0xb6b0e01a17c4c375,
hotel,hotel,Elemento Bali,"Jl. Raya Gerih Gg. Sandat No.8, Sibang Kaja, Kec. Abiansemal, Kabupaten Badung, Bali 80352","Sibang Kaja, Kec. Abiansemal, Kabupaten Badung",BALI,80352.0,Indonesia,881082818289.0,,,-8.5636963,115.2092973,https://maps.google.com/?cid=0x0:0x5d9a5296e27f2ef7,
hotel,hotel,Summer of Surf Hostel Canggu,"Jl. Tanah Barak No.29, Canggu, Kec. Kuta Utara, Kabupaten Badung, Bali 80351","Canggu, Kec. Kuta Utara, Kabupaten Badung",BALI,80351.0,Indonesia,87761017794.0,,,-8.64991,115.133887,https://maps.google.com/?cid=0x0:0xbd925ba350898731,
hotel,hotel,Kerti Suite,"Jl. Pantai Nyanyi, Beraban, Kec. Kediri, Kabupaten Tabanan, Bali 80351","Beraban, Kec. Kediri, Kabupaten Tabanan",BALI,80351.0,Indonesia,87784949309.0,,,-8.6156059,115.1089867,https://maps.google.com/?cid=0x0:0xcf558e924897270a,
hotel,hotel,BALI INVEST LIVING,"Jl. Raya Tumbakbayuh No.1, Tumbak Bayuh, Kec. Mengwi, Kabupaten Badung, Bali 80351","Tumbak Bayuh, Kec. Mengwi, Kabupaten Badung",BALI,80351.0,Indonesia,8888888877.0,,,-8.6251584,115.1427619,https://maps.google.com/?cid=0x0:0x59e88419dbea6890,
hotel,hotel,The Tunjung Boutique Resort,"Jl. Raya Tumbakbayuh Br. Tiying Tutul, Tumbak Bayuh, Kec. Mengwi, Kabupaten Badung, Bali 80351","Tumbak Bayuh, Kec. Mengwi, Kabupaten Badung",BALI,80351.0,Indonesia,81246645640.0,,,-8.6252281,115.1447037,https://maps.google.com/?cid=0x0:0x7195bf397eeabdad,
hotel,hotel,North Wing Canggu Resort,"Jl. Raya Tuka No.79, Dalung, Kec. Kuta Utara, Kabupaten Badung, Bali 80361","Dalung, Kec. Kuta Utara, Kabupaten Badung",BALI,80361.0,Indonesia,82236183607.0,,,-8.6164686,115.1589526,https://maps.google.com/?cid=0x0:0xfff0c2164e87de7d,
hotel,hotel,Sau Bali Beach House,"Jl. Pantai Pererenan, Pererenan, Kec. Mengwi, Kabupaten Badung, Bali 80351","Pererenan, Kec. Mengwi, Kabupaten Badung",BALI,80351.0,Indonesia,81239243284.0,,,-8.6517914,115.1215659,https://maps.google.com/?cid=0x0:0x66f30e3135e1bb26,
hotel,hotel,Malam Hari,"Gg. Jalak 14, Tibubeneng, Kec. Kuta Utara, Kabupaten Badung, Bali 80361","Tibubeneng, Kec. Kuta Utara, Kabupaten Badung",BALI,80361.0,Indonesia,81703154154.0,,,-8.6520654,115.144103,https://maps.google.com/?cid=0x0:0xf03adf69004bd732,
hotel,hotel,ANGIN VILLA,"juntuk, Jl. Jantuk Angsa No.40, Canggu, Kec. Mengwi, Kabupaten Badung, Bali 80351","Jl. Jantuk Angsa No.40, Canggu, Kec. Mengwi, Kabupaten Badung",BALI,80351.0,Indonesia,,,,-8.6342732,115.1313208,https://maps.google.com/?cid=0x0:0x56f89f1c074c51ec,
hotel,hotel,Balam Bali Villa,"Jl. Teleng No.100, Banjar Cengkok, Baha, Kec. Mengwi, Kabupaten Badung, Bali 80361","Banjar Cengkok, Baha, Kec. Mengwi, Kabupaten Badung",BALI,80361.0,Indonesia,85175187514.0,,,-8.5316543,115.1934482,https://maps.google.com/?cid=0x0:0x7d0ef99c18b76a4,
hotel,hotel,Dewi Sinta Hotel  Restaurant,"DTW Tanah Lot, Beraban, Kec. Kediri, Kabupaten Tabanan, Bali 82121","Beraban, Kec. Kediri, Kabupaten Tabanan",BALI,82121.0,Indonesia,361812933.0,,,-8.6184182,115.0883902,https://maps.google.com/?cid=0x0:0xa4fbd5d529531f7e,
hotel,hotel,Sari Uma Canggu by Hospitality Bali,"Jalan Raya, Jl. Pantai Batu Mejan Jl. Canggu Padang Linjong No.Br, Canggu, Kabupaten Badung, Bali 80351","Jl. Pantai Batu Mejan Jl. Canggu Padang Linjong No.Br, Canggu, Kabupaten Badung",BALI,80351.0,Indonesia,81916422456.0,,,-8.6387853,115.1406751,https://maps.google.com/?cid=0x0:0xf1038990011b462c,
hotel,hotel,Victory Munggu,"Munggu, Kec. Mengwi, Kabupaten Badung, Bali 80351","Kec. Mengwi, Kabupaten Badung",BALI,80351.0,Indonesia,85280551577.0,,,-8.63075,115.1220817,https://maps.google.com/?cid=0x0:0x83d36e4b2b46a5ac,
hotel,hotel,SUPER OYO 1356 Gusti Residence,"No. D1, Near, Canggu, Kec. Mengwi, Kabupaten Badung, Bali 80351","Near, Canggu, Kec. Mengwi, Kabupaten Badung",BALI,80351.0,Indonesia,2129707601.0,,,-8.6058125,115.1692678,https://maps.google.com/?cid=0x0:0xe7d84909eeb7b379,
hotel,hotel,Villa Kubu Jasmine Bali,"Jl. Pantai Pererenan No.156 A, Pererenan, Kec. Mengwi, Kabupaten Badung, Bali 80351","Pererenan, Kec. Mengwi, Kabupaten Badung",BALI,80351.0,Indonesia,818557798.0,,,-8.6482824,115.1221858,https://maps.google.com/?cid=0x0:0x40f1adddea9b14bd,
hotel,hotel,,,,BALI,,Indonesia,,,,,,https://maps.google.com/?cid=0x0:0xe7d84909eeb7b379%7C/g/11j10qgh2r%7Cid-ID,
hotel,hotel,Bali Sevilla Residence,"Jl. Raya Tumbakbayuh No.9, Pererenan, Kec. Mengwi, Kabupaten Badung, Bali 80351","Pererenan, Kec. Mengwi, Kabupaten Badung",BALI,80351.0,Indonesia,,,,-8.6123705,115.1471756,https://maps.google.com/?cid=0x0:0x4494b851064d223b,
hotel,hotel,AW guest house,"Jl. Gatotkaca, Munggu, Kec. Mengwi, Kota Denpasar, Bali 80232","Munggu, Kec. Mengwi, Kota Denpasar",BALI,80232.0,Indonesia,85759898418.0,,,-8.6216673,115.1211377,https://maps.google.com/?cid=0x0:0x5765e1e1fa500127,
hotel,hotel,Lilis Aksito Akusara,"Jl. Veteran No.96, Buduk, Kec. Mengwi, Kabupaten Badung, Bali 80351","Buduk, Kec. Mengwi, Kabupaten Badung",BALI,80351.0,Indonesia,87709494744.0,,,-8.6180477,115.1494261,https://maps.google.com/?cid=0x0:0x3379b4b6723aed59,
hotel,hotel,Best Canggu Hostel,"Bali Canggu, Jl. Kayu Tulang Perum Puri Sambandha No.A12, Canggu, Kec. Kuta Utara, Kabupaten Badung, Bali 82361","Jl. Kayu Tulang Perum Puri Sambandha No.A12, Canggu, Kec. Kuta Utara, Kabupaten Badung",BALI,82361.0,Indonesia,87735520032.0,,,-8.6305831,115.1541533,https://maps.google.com/?cid=0x0:0x3e2db6877aae0fc7,
hotel,hotel,Pondok Saren Anyar,"Jl. Raya Anggungan Lukluk , Kec. Mengwi, Badung, Bali, 80352","Kec. Mengwi, Badung",BALI,80352.0,Indonesia,2129707601.0,,,-8.5616965,115.1959227,https://maps.google.com/?cid=0x0:0xc44924ba406a072b,
hotel,hotel,Kampung Canggu,"Jl. Abasan No.99, Tibubeneng, Kec. Kuta Utara, Kabupaten Badung, Bali 80361","Tibubeneng, Kec. Kuta Utara, Kabupaten Badung",BALI,80361.0,Indonesia,81999973376.0,,,-8.6442195,115.1482392,https://maps.google.com/?cid=0x0:0x7e210323705a03a0,
hotel,hotel,RedDoorz @ Saren Anyar Homestay Lukluk,"Gg. Saren Anyar, Lukluk, Kec. Mengwi, Kabupaten Badung, Bali 80351","Lukluk, Kec. Mengwi, Kabupaten Badung",BALI,80351.0,Indonesia,895417300072.0,,,-8.5619669,115.1965264,https://maps.google.com/?cid=0x0:0xcbd88db32ff13f5b,
hotel,hotel,Bali 80353,"Kec. Petang, Kabupaten Badung, Bali","Kabupaten Badung, Bali",BALI,,Indonesia,,,,-8.3365862,115.2244853,https://maps.google.com/?cid=0x0:0x1c00c5eb6016be50,
hotel,hotel,Triyana Resort Carangsari,"H64F+JJH, Jl. Tukad Ayung XIX, Carangsari, Kec. Petang, Kabupaten Badung, Bali 80353","Jl. Tukad Ayung XIX, Carangsari, Kec. Petang, Kabupaten Badung",BALI,80353.0,Indonesia,81339498851.0,,,-8.4434295,115.2241015,https://maps.google.com/?cid=0x0:0x16dfa149b143af29,
hotel,hotel,HOMM Saranam Baturiti,"Jl. Baturiti - Mekarsari, Baturiti, Kec. Baturiti, Bedugul, Kabupaten Tabanan, Bali 82191","Baturiti, Kec. Baturiti, Bedugul, Kabupaten Tabanan",BALI,82191.0,Indonesia,3682301000.0,,,-8.3365842,115.1870232,https://maps.google.com/?cid=0x0:0x41f928ef0bde45a1,
hotel,hotel,Saranam Resort and Spa,"Jl. Baturiti - Mekarsari, Baturiti, Kec. Baturiti, Kabupaten Tabanan, Bali 82191","Baturiti, Kec. Baturiti, Kabupaten Tabanan",BALI,82191.0,Indonesia,,,,-8.336541,115.1871027,https://maps.google.com/?cid=0x0:0xc7464485745499bb,
hotel,hotel,,,,BALI,,Indonesia,,,,,,https://maps.google.com/?cid=0x0:0xc7464485745499bb%7C/g/11b6dpbbrg%7Cid-ID,
hotel,hotel,The pejalin eco retreat,"M6Q7+M7V, Jl. Auman, Pelaga, Kec. Petang, Kabupaten Badung, Bali 80353","Jl. Auman, Pelaga, Kec. Petang, Kabupaten Badung",BALI,80353.0,Indonesia,,,,-8.3125031,115.2116744,https://maps.google.com/?cid=0x0:0x7bed35cf0cbee175,
hotel,hotel,Puri Lumbung Village,"Jl. I.GST. NGR Rai, Carangsari, Kec. Petang, Kabupaten Badung, Bali 80353","Carangsari, Kec. Petang, Kabupaten Badung",BALI,80353.0,Indonesia,87860800006.0,,,-8.4444571,115.2224348,https://maps.google.com/?cid=0x0:0xe279ca8ee981aff0,
hotel,hotel,Ritual Ubud,"Br Singaperang, Buahan Kaja, Kec. Payangan, Kabupaten Gianyar, Bali 80572","Buahan Kaja, Kec. Payangan, Kabupaten Gianyar",BALI,80572.0,Indonesia,85738137872.0,,,-8.3392097,115.252521,https://maps.google.com/?cid=0x0:0xa60db14b2265c574,
hotel,hotel,Bali Rich Luxury Villa  Spa Ubud,"Jl Raya Kedewatan, Br Tanggayuda Bali, Tua, Marga, Tabanan Regency, Bali 82191","Br Tanggayuda Bali, Tua, Marga, Tabanan Regency",BALI,82191.0,Indonesia,,,,-8.40952,115.189,https://maps.google.com/?cid=0x0:0x92712492e23644b0,
hotel,hotel,Sukanami Villa Ubud,"Jl. Raya Payangan No.desa, meliling kelod, Kec. Payangan, Kabupaten Gianyar, Bali 80572","meliling kelod, Kec. Payangan, Kabupaten Gianyar",BALI,80572.0,Indonesia,85280073823.0,,,-8.4482886,115.242462,https://maps.google.com/?cid=0x0:0xe7eeb3999adabd7b,
hotel,hotel,Puri Ngoerah Byron ( Byron_Jungle_Resort ),"H638+QGF, Jl. Tukad Penet VI, Carangsari, Kec. Petang, Kabupaten Badung, Bali 80353","Jl. Tukad Penet VI, Carangsari, Kec. Petang, Kabupaten Badung",BALI,80353.0,Indonesia,85923414688.0,,,-8.4455644,115.2162855,https://maps.google.com/?cid=0x0:0x5080b6cfcba756c2,
hotel,hotel,Vaneka Garden House,"Banjar Begawan, Melinggih Kelod, Kec. Payangan, Kabupaten Gianyar, Bali 80572","Melinggih Kelod, Kec. Payangan, Kabupaten Gianyar",BALI,80572.0,Indonesia,81338315303.0,,,-8.4465234,115.2356882,https://maps.google.com/?cid=0x0:0xdedc5c871882597b,
hotel,hotel,Dukuh Ubud Villa,"Banjar, Jl. Bayad, Melinggih Kelod, Kec. Payangan, Kabupaten Gianyar, Bali 80572","Jl. Bayad, Melinggih Kelod, Kec. Payangan, Kabupaten Gianyar",BALI,80572.0,Indonesia,82135748585.0,,,-8.4485492,115.2424642,https://maps.google.com/?cid=0x0:0x4e720daaa7b985f3,
hotel,hotel,Bagus Agro Pelaga Resort,"Jl. Raya Pura Pucak Mangu, Pelaga, Kec. Petang, Kabupaten Badung, Bali 80353","Pelaga, Kec. Petang, Kabupaten Badung",BALI,80353.0,Indonesia,8179339090.0,,,-8.2845269,115.2254609,https://maps.google.com/?cid=0x0:0xba0a7442bb2ffe90,
hotel,hotel,,,,BALI,,Indonesia,,,,,,https://maps.google.com/?cid=0x0:0xba0a7442bb2ffe90%7C/g/1tdj7r56%7Cid-ID,
hotel,hotel,Pacung Indah,"M57P+CX3, Jl. Raya Pacung, Baturiti, Kec. Baturiti, Kabupaten Tabanan, Bali 82191","Jl. Raya Pacung, Baturiti, Kec. Baturiti, Kabupaten Tabanan",BALI,82191.0,Indonesia,36821020.0,,,-8.3364936,115.1874084,https://maps.google.com/?cid=0x0:0x3699461a35bff1a6,
hotel,hotel,Sentana''s Villa,"G6RC+F2W, Carangsari, Kec. Petang, Kabupaten Badung, Bali 80352","Carangsari, Kec. Petang, Kabupaten Badung",BALI,80352.0,Indonesia,,,,-8.4587542,115.2200937,https://maps.google.com/?cid=0x0:0x9d16d7f20efe73ae,
hotel,hotel,QUEENARA LOCAL HOUSE AND SPA FOR RENT,"H63H+262, Carangsari, Kec. Petang, Kabupaten Badung, Bali 80353","Carangsari, Kec. Petang, Kabupaten Badung",BALI,80353.0,Indonesia,,,,-8.447463,115.227797,https://maps.google.com/?cid=0x0:0xd5f87ea4eb6a1414,
hotel,hotel,Ayung Resort Ubud,"Banjar Begawan, Melinggih Kelod, Kec. Payangan, Kabupaten Gianyar, Bali 80572","Melinggih Kelod, Kec. Payangan, Kabupaten Gianyar",BALI,80572.0,Indonesia,3619001333.0,,,-8.4498983,115.2347794,https://maps.google.com/?cid=0x0:0x22bb35ead68d62fe,
hotel,hotel,,,,BALI,,Indonesia,,,,,,https://maps.google.com/?cid=0x0:0x22bb35ead68d62fe%7C/g/12hmn971v%7Cid-ID,
hotel,hotel,RUMAHKU Homestay,"P6HC+4F8, Pelaga, Kec. Petang, Kabupaten Badung, Bali 80353","Pelaga, Kec. Petang, Kabupaten Badung",BALI,80353.0,Indonesia,8164700255.0,,,-8.2723545,115.2209361,https://maps.google.com/?cid=0x0:0xc2117b70ab24261e,
hotel,hotel,Villa Gajah Mas,"Jl. Raya Baturiti, Batunya, Kec. Baturiti, Kabupaten Tabanan, Bali 82191","Batunya, Kec. Baturiti, Kabupaten Tabanan",BALI,82191.0,Indonesia,81337056767.0,,,-8.3247957,115.1858032,https://maps.google.com/?cid=0x0:0xf2b5aea7207eed71,
hotel,hotel,"Buahan, a Banyan Tree Escape","Buahan Kaja, Kec. Payangan, Kabupaten Gianyar, Bali 80572","Kec. Payangan, Kabupaten Gianyar",BALI,80572.0,Indonesia,3616208181.0,,,-8.365373,115.2384718,https://maps.google.com/?cid=0x0:0xe04e192e4db83f01,
hotel,hotel,,,,BALI,,Indonesia,,,,,,https://maps.google.com/?cid=0x0:0xe04e192e4db83f01%7C/g/11j2427587%7Cid-ID,
hotel,hotel,Kupu Kupu Jimbaran Suite,"Jl. Bukit Permai, Br. Pesalakan Bali, Tua, Marga, Tabanan Regency, Bali 82191","Br. Pesalakan Bali, Tua, Marga, Tabanan Regency",BALI,82191.0,Indonesia,,,,-8.40952,115.189,https://maps.google.com/?cid=0x0:0xa3e7ade2b5f43aa0,
hotel,hotel,Villa Semana,"Jalan. Banjar Semana, Desa Singakerta Bali, Tua, Marga, Tabanan Regency, Bali 82191","Desa Singakerta Bali, Tua, Marga, Tabanan Regency",BALI,82191.0,Indonesia,,,,-8.40952,115.189,https://maps.google.com/?cid=0x0:0x876418405a79ba6b,
hotel,hotel,Keshava Villa Bedugul,"Jl.Baturiti Bedugul, Banjar Pekarangan, Batunya, Kabupaten Tabanan, Bali 82191","Banjar Pekarangan, Batunya, Kabupaten Tabanan",BALI,82191.0,Indonesia,85117089873.0,,,-8.3021412,115.1757296,https://maps.google.com/?cid=0x0:0x543151802866b2cd,
hotel,hotel,,,,BALI,,Indonesia,,,,,,https://maps.google.com/?cid=0x0:0xac00018d2dde88a1%7C/g/11b6lmk6cj%7Cid-ID,
hotel,hotel,CLV Hotel  Villa,"Jl. Raya Bedugul, Candikuning, Kec. Baturiti, Kabupaten Tabanan, Bali 82191","Candikuning, Kec. Baturiti, Kabupaten Tabanan",BALI,82191.0,Indonesia,81999105252.0,,,-8.2712064,115.1623873,https://maps.google.com/?cid=0x0:0xac00018d2dde88a1,
restaurant,restaurant,Bali 80352,"Abiansemal, Kec. Abiansemal, Kabupaten Badung, Bali","Kabupaten Badung, Bali",BALI,,Indonesia,,,,-8.5584335,115.2244853,https://maps.google.com/?cid=0x0:0x1c00c5eb6016be40,
restaurant,Kedai Kopi,DI-HATI coffee  Eatery,"Jl. Raya Puspa Resti, Abiansemal, Kec. Abiansemal, Kabupaten Badung, Bali 80352","Abiansemal, Kec. Abiansemal, Kabupaten Badung",BALI,80352.0,Indonesia,3617990009.0,,,-8.5429326,115.2140378,https://maps.google.com/?cid=0x0:0x2fa8c4d94bba34bd,
restaurant,Bali,Warung Semana,"Jl. Raya Mambal Semana, Mambal, Kec. Abiansemal, Kabupaten Badung, Bali 80352","Mambal, Kec. Abiansemal, Kabupaten Badung",BALI,80352.0,Indonesia,8113979879.0,,,-8.5409603,115.2229643,https://maps.google.com/?cid=0x0:0xc709ec4a4987217e,
restaurant,Restoran,Warung Nasi Be Genyol 'Bu Edik',"Jl. Jempiring No.21, Darmasaba, Kec. Abiansemal, Kabupaten Badung, Bali 80352","Darmasaba, Kec. Abiansemal, Kabupaten Badung",BALI,80352.0,Indonesia,82144235153.0,,,-8.5943385,115.2108316,https://maps.google.com/?cid=0x0:0x7f272a40fc7bfb7b,
restaurant,Jawa,Warung Pojok Abiansemal,"F6G5+5JV, Jl. Janger, Dauh Yeh Cani, Kec. Abiansemal, Kabupaten Badung, Bali 80352","Jl. Janger, Dauh Yeh Cani, Kec. Abiansemal, Kabupaten Badung",BALI,80352.0,Indonesia,81936619090.0,,,-8.5245182,115.2090524,https://maps.google.com/?cid=0x0:0x80d544a15a67ba0c,
restaurant,Bali,Warung Demung,"Banjar Lambing, Jl. Raya Sibang Kaja, Sibang Kaja, Abiansemal, Badung Regency, Bali 80352","Jl. Raya Sibang Kaja, Sibang Kaja, Abiansemal, Badung Regency",BALI,80352.0,Indonesia,81236979264.0,,,-8.5660292,115.2204521,https://maps.google.com/?cid=0x0:0xcbd02b3eb5ef3427,
restaurant,Restoran,Warung Penyemeng,"Jl. Raya Mambal Semana, Mambal, Kec. Abiansemal, Kabupaten Badung, Bali 80352","Mambal, Kec. Abiansemal, Kabupaten Badung",BALI,80352.0,Indonesia,81916523812.0,,,-8.547824,115.221154,https://maps.google.com/?cid=0x0:0x48a28da5d37c0bed,
restaurant,Bali,warung makan babi guling pak kecap,"jalan raya tanah asri sibang gede, Darmasaba, Kec. Abiansemal, Kabupaten Badung, Bali 80352","Darmasaba, Kec. Abiansemal, Kabupaten Badung",BALI,80352.0,Indonesia,82144547556.0,,,-8.5781025,115.2107148,https://maps.google.com/?cid=0x0:0x8e103fe9aee0620e,
restaurant,Kafe,BAIKU WARUNG,"C6M7+85R, Sibang Kaja, Kec. Abiansemal, Kabupaten Badung, Bali 80352","Sibang Kaja, Kec. Abiansemal, Kabupaten Badung",BALI,80352.0,Indonesia,85882900340.0,,,-8.5666352,115.2129042,https://maps.google.com/?cid=0x0:0xf7f5ba1c7db5bf9c,
restaurant,Restoran,Pung Green Sibang Mujair NyatNyat  BAKAR Kintamani,"Jl. Tanah Ayu, Sibang Gede, Kec. Abiansemal, Kabupaten Badung, Bali 80352","Sibang Gede, Kec. Abiansemal, Kabupaten Badung",BALI,80352.0,Indonesia,81139605788.0,,,-8.5777578,115.2095565,https://maps.google.com/?cid=0x0:0x3e98f32ccbf7d0c0,
restaurant,Restoran,Warung Simbar Menjangan,"Jl. Tanah Putih, Darmasaba, Kec. Abiansemal, Kabupaten Badung, Bali 80352","Darmasaba, Kec. Abiansemal, Kabupaten Badung",BALI,80352.0,Indonesia,81999888387.0,,,-8.5839573,115.2043384,https://maps.google.com/?cid=0x0:0xe18d8abc213d75b5,
restaurant,Restoran,Warung Carik Aban,"Jl. Carik Aban, Darmasaba, Kec. Abiansemal, Kabupaten Badung, Bali 80351","Darmasaba, Kec. Abiansemal, Kabupaten Badung",BALI,80351.0,Indonesia,82211575593.0,,,-8.5763279,115.1991023,https://maps.google.com/?cid=0x0:0x78ec07d83432cb34,
restaurant,Ayam,Betutu Pak Coblos,"Jl. Raya Mambal, Abiansemal, Kec. Abiansemal, Kabupaten Badung, Bali 80352","Abiansemal, Kec. Abiansemal, Kabupaten Badung",BALI,80352.0,Indonesia,85100111691.0,,,-8.548886,115.2218511,https://maps.google.com/?cid=0x0:0x3c683d90fa16461d,
restaurant,Sup,Warung Sawah Sawah,"Jl. Raya Sangeh, Sangeh, Kec. Abiansemal, Kabupaten Badung, Bali 80352","Sangeh, Kec. Abiansemal, Kabupaten Badung",BALI,80352.0,Indonesia,87860827495.0,,,-8.4945353,115.2098996,https://maps.google.com/?cid=0x0:0x2ae872e0c2ff6c4c,
restaurant,Bali,Warung Babi Guling Men Malen,"Jl. Raya Angantaka-Kutri, Angantaka, Kec. Abiansemal, Kabupaten Badung, Bali 80352","Angantaka, Kec. Abiansemal, Kabupaten Badung",BALI,80352.0,Indonesia,82145889658.0,,,-8.5802537,115.2487455,https://maps.google.com/?cid=0x0:0xc1ac503a2f1ddcbf,
restaurant,Makanan Siap Saji,Babi Guling Bu Ngurah Mambal,"F62C+Q56, Mambal, Kec. Abiansemal, Kabupaten Badung, Bali 80352","Mambal, Kec. Abiansemal, Kabupaten Badung",BALI,80352.0,Indonesia,81239664237.0,,,-8.5480852,115.2204061,https://maps.google.com/?cid=0x0:0x30ea555a979ff0cb,
restaurant,Masakan Asia,MIE TIME WOAH,"Jl. Cemp. IV No.2, Mekar Bhuwana, Kec. Abiansemal, Kabupaten Badung, Bali 80352","Mekar Bhuwana, Kec. Abiansemal, Kabupaten Badung",BALI,80352.0,Indonesia,87750644792.0,,,-8.5500853,115.2267069,https://maps.google.com/?cid=0x0:0x6c54c8fab11d421,
restaurant,Restoran,Babi Guling Krasan,"pura puseh, Jl. Raya Krasan, Sedang, Abiansemal (selatan, Kabupaten Badung, Bali 80352","Jl. Raya Krasan, Sedang, Abiansemal (selatan, Kabupaten Badung",BALI,80352.0,Indonesia,8113982020.0,,,-8.5606872,115.2343264,https://maps.google.com/?cid=0x0:0xe1bfcb93f876361b,
restaurant,Ayam Penyet,Warung sego tempong mbok windul,"Jl. Raya Sibang Kaja, Sibang Kaja, Kec. Abiansemal, Kabupaten Badung, Bali 80352","Sibang Kaja, Kec. Abiansemal, Kabupaten Badung",BALI,80352.0,Indonesia,82216824249.0,,,-8.5671095,115.2201517,https://maps.google.com/?cid=0x0:0xe267a6181f291930,
restaurant,Masakan Asia Tenggara,Warung Super Sampi,"Jl. Raya Sibang Kaja, Sibang Kaja, Kec. Abiansemal, Kabupaten Badung, Bali 80352","Sibang Kaja, Kec. Abiansemal, Kabupaten Badung",BALI,80352.0,Indonesia,,,,-8.5632122,115.2209525,https://maps.google.com/?cid=0x0:0xc185ddadb0b27476,
restaurant,Restoran,Warung lojhi,"Jl. Raya Sangeh, Blahkiuh, Kec. Abiansemal, Kabupaten Badung, Bali 80352","Blahkiuh, Kec. Abiansemal, Kabupaten Badung",BALI,80352.0,Indonesia,87863497135.0,,,-8.5010849,115.2104347,https://maps.google.com/?cid=0x0:0x9f8dbf9af6d3823e,
restaurant,Ayam Goreng,ACK Fried Chicken Abiansemal,"F6G5+MQ7, Jl. Ciung Wanara, Abiansemal, Kec. Abiansemal, Kabupaten Badung, Bali 80352","Jl. Ciung Wanara, Abiansemal, Kec. Abiansemal, Kabupaten Badung",BALI,80352.0,Indonesia,87860187137.0,,,-8.5233304,115.2094272,https://maps.google.com/?cid=0x0:0x4a34d0bc342b8da8,
restaurant,Makanan Siap Saji,JFC TINGAS,"Jl. Raya Krasan No.53, Mekar Bhuwana, Kec. Abiansemal, Kabupaten Badung, Bali 80352","Mekar Bhuwana, Kec. Abiansemal, Kabupaten Badung",BALI,80352.0,Indonesia,81237870340.0,,,-8.5511276,115.2305337,https://maps.google.com/?cid=0x0:0xd53e025e3c0da2a4,
restaurant,Rumah Makan,Warung Dadong Located,"Jln. Singasari, Br. Tengah No.17, Blahkiuh, Kec. Abiansemal, Kabupaten Badung, Bali 80352","Br. Tengah No.17, Blahkiuh, Kec. Abiansemal, Kabupaten Badung",BALI,80352.0,Indonesia,85737556445.0,,,-8.5170114,115.2075547,https://maps.google.com/?cid=0x0:0x2d20a5d534953010,
restaurant,Rumah Makan,Warung Be Pasih Abiansemal,"Jl. Ciung Wanara, Abiansemal, Kec. Abiansemal, Kabupaten Badung, Bali 80352","Abiansemal, Kec. Abiansemal, Kabupaten Badung",BALI,80352.0,Indonesia,85239061550.0,,,-8.5228162,115.2094324,https://maps.google.com/?cid=0x0:0xf5bf1de9475ca644,
restaurant,Kedai Kopi,Subak Coffee  Eatery,"Jl. Carik Aban, Lukluk, Kec. Abiansemal, Kabupaten Badung, Bali","Kabupaten Badung, Bali",BALI,,Indonesia,,,,-8.5768892,115.1993365,https://maps.google.com/?cid=0x0:0x479a815ca9bba069,
restaurant,restaurant,Kuta,"Kec. Kuta, Kabupaten Badung, Bali","Kabupaten Badung, Bali",BALI,,Indonesia,,,,-8.7237964,115.1752277,https://maps.google.com/?cid=0x0:0x4030bfbca7d2c00,
restaurant,India,"Queen's of India: An Indian Food Cuisine Restaurant in Kuta, Bali","Jl. Kartika Plaza, Tuban, Kuta, Kec. Kuta, Kabupaten Badung, Bali 80361","Tuban, Kuta, Kec. Kuta, Kabupaten Badung",BALI,80361.0,Indonesia,361765988.0,,,-8.7320036,115.1673577,https://maps.google.com/?cid=0x0:0x118848d09e1d0c1d,
restaurant,Bali,Kori Restaurant  Bar Kuta,"Jl. Raya Legian Jl. Poppies II, Kuta, Kec. Kuta, Kabupaten Badung, Bali 80361","Kuta, Kec. Kuta, Kabupaten Badung",BALI,80361.0,Indonesia,361758605.0,,,-8.7173312,115.1730011,https://maps.google.com/?cid=0x0:0x4269ba418893bd67,
restaurant,Padang,Ground Zero Kitchen,"Jl. Raya Legian No.56X, Kuta, Kec. Kuta, Kabupaten Badung, Bali 80361","Kuta, Kec. Kuta, Kabupaten Badung",BALI,80361.0,Indonesia,,,,-8.7174834,115.1742943,https://maps.google.com/?cid=0x0:0xcc5ad6f3ad5f5936,
restaurant,Italia,b+ Caf√©  Restaurant Kuta,"Jl. Kartika Plaza, Kuta, Kec. Kuta, Kabupaten Badung, Bali 80361","Kuta, Kec. Kuta, Kabupaten Badung",BALI,80361.0,Indonesia,81930999887.0,,,-8.7280107,115.1672113,https://maps.google.com/?cid=0x0:0x1b5560eac6b09a49,
restaurant,Restoran,Warung Indonesia,"Jl. Poppies II Gg. Ronta, Kuta, Kec. Kuta, Kabupaten Badung, Bali 80361","Kuta, Kec. Kuta, Kabupaten Badung",BALI,80361.0,Indonesia,,,,-8.7179542,115.1737058,https://maps.google.com/?cid=0x0:0x5fd2c8d7586306d6,
restaurant,India,Bollywood masalaz - Best Indian Restaurant In Kuta Bali,"Jl. Kartika Plaza No.10, Kuta, Kec. Kuta, Kabupaten Badung, Bali 80361","Kuta, Kec. Kuta, Kabupaten Badung",BALI,80361.0,Indonesia,3614755686.0,,,-8.7317802,115.1674538,https://maps.google.com/?cid=0x0:0x3818948eb0d55f62,
restaurant,Restoran,Poppies Restaurant,"Jl. Raya Legian Jl. Poppies I No.16, Kuta, Kec. Kuta, Kabupaten Badung, Bali 80361","Kuta, Kec. Kuta, Kabupaten Badung",BALI,80361.0,Indonesia,361751059.0,,,-8.7214112,115.1745171,https://maps.google.com/?cid=0x0:0x57bda509b2e22edf,
restaurant,Masakan Barat,Natys Restaurant Kuta,"Jl. Bypass Ngurah Rai No.9, Kuta, Kec. Kuta, Kabupaten Badung, Bali 80361","Kuta, Kec. Kuta, Kabupaten Badung",BALI,80361.0,Indonesia,87865022291.0,,,-8.7267101,115.1800073,https://maps.google.com/?cid=0x0:0xca9e65f90af4b9a5,
restaurant,Jawa,Warung Makan Nikmat halal,"Gg. Biduri No.6A, Kuta, Kec. Kuta, Kabupaten Badung, Bali 80361","Kuta, Kec. Kuta, Kabupaten Badung",BALI,80361.0,Indonesia,,,,-8.7258097,115.174564,https://maps.google.com/?cid=0x0:0x5c69e8e6a84d4348,
restaurant,Betawi,Amanaia Kuta Bali - Indonesian Restaurant,"Jl. Kediri, Tuban, Kec. Kuta, Bali, 80361","Tuban, Kec. Kuta",BALI,80361.0,Indonesia,81339782079.0,,,-8.7370388,115.175028,https://maps.google.com/?cid=0x0:0x4213cda5a0059007,
restaurant,Yunani,Santorini Greek Restaurant Kuta,"Jalan Poppies 1 , Gg. Sorga, Kuta, Badung Regency, Bali 80361","Gg. Sorga, Kuta, Badung Regency",BALI,80361.0,Indonesia,81237748909.0,,,-8.7189386,115.1737894,https://maps.google.com/?cid=0x0:0x28e39bf2e1b3a6af,
restaurant,Italia,Jamie Oliver Kitchen | Kuta Beach,"Jalan Pantai Kuta, Banjar Pande Mas, Kuta, Kec. Kuta, Kabupaten Badung, Bali 80361","Banjar Pande Mas, Kuta, Kec. Kuta, Kabupaten Badung",BALI,80361.0,Indonesia,361762118.0,,,-8.7224464,115.1706772,https://maps.google.com/?cid=0x0:0xb7f8798b2e402872,
restaurant,Korea,Galmaegi INDONESIA,"Jl. Raya Kuta No.105, Kuta, Kec. Kuta, Kabupaten Badung, Bali 80361","Kuta, Kec. Kuta, Kabupaten Badung",BALI,80361.0,Indonesia,811201122.0,,,-8.7139304,115.1811941,https://maps.google.com/?cid=0x0:0xe0af8e33d79502b9,
restaurant,Restoran,Daily Social,"Sheraton Bali Kuta Resort, Jl. Pantai Kuta, Kuta, Kec. Kuta, Kabupaten Badung, Bali 80361","Jl. Pantai Kuta, Kuta, Kec. Kuta, Kabupaten Badung",BALI,80361.0,Indonesia,81138001188.0,,,-8.7185084,115.1693349,https://maps.google.com/?cid=0x0:0x4530fdd47c889aeb,
restaurant,Kafe,Crumb  Coaster,"Jl. Benesari No.2E, Kuta, Kec. Kuta, Kabupaten Badung, Bali 80361","Kuta, Kec. Kuta, Kabupaten Badung",BALI,80361.0,Indonesia,81999596319.0,,,-8.7171829,115.1724,https://maps.google.com/?cid=0x0:0xe011ac2683f24098,
restaurant,Indonesia,Gabah Restaurant  Bar,"Jalan Bakung Sari, Kuta, Kec. Kuta, Kabupaten Badung, Bali 80361","Kuta, Kec. Kuta, Kabupaten Badung",BALI,80361.0,Indonesia,361751864.0,,,-8.7248917,115.1715178,https://maps.google.com/?cid=0x0:0xd9f9404cc7e2a0cf,
restaurant,Hidangan Laut,Marina Bali Seafood,"Jl. Raya Kuta, Kuta, Kec. Kuta, Kabupaten Badung, Bali 80361","Kuta, Kec. Kuta, Kabupaten Badung",BALI,80361.0,Indonesia,361752304.0,,,-8.721162,115.179671,https://maps.google.com/?cid=0x0:0xda198663f8ef93c5,
restaurant,Masakan Perpaduan Asia,Kuta Social Club,"Rooftop, Mamaka by Ovolo, Jl. Pantai Kuta No.32, Legian, Kec. Kuta, Kabupaten Badung, Bali 80361","Mamaka by Ovolo, Jl. Pantai Kuta No.32, Legian, Kec. Kuta, Kabupaten Badung",BALI,80361.0,Indonesia,81139403232.0,,,-8.712884,115.1677995,https://maps.google.com/?cid=0x0:0x1c4329468bf18a94,
restaurant,Bali,Warung Damar,"Jalan Kartika Plaza, Bali Garden Beach Resort, Kec. Kuta, Bali 80361","Bali Garden Beach Resort, Kec. Kuta",BALI,80361.0,Indonesia,82237603543.0,,,-8.728235,115.169112,https://maps.google.com/?cid=0x0:0x79dfbaa9f8bb0fff,
restaurant,Bali,Un's Restaurant,"Jl. Poppies I, Kuta, Kec. Kuta, Kabupaten Badung, Bali 80361","Kuta, Kec. Kuta, Kabupaten Badung",BALI,80361.0,Indonesia,361752607.0,,,-8.7220081,115.1750307,https://maps.google.com/?cid=0x0:0x421d3b2ae0cae212,
restaurant,Restoran,FORK Bakery and Grill Bali,"Jl. Melasti No.1, Legian, Kec. Kuta, Kabupaten Badung, Bali 80361","Legian, Kec. Kuta, Kabupaten Badung",BALI,80361.0,Indonesia,88294605373.0,,,-8.7101613,115.1671333,https://maps.google.com/?cid=0x0:0x9f9c7180340a0e68,
restaurant,Hidangan Laut,Bali Sentosa Seafood,"Jl. Raya Kuta AA No.307, Kuta, Kec. Kuta, Kabupaten Badung, Bali 80361","Kuta, Kec. Kuta, Kabupaten Badung",BALI,80361.0,Indonesia,81939759888.0,,,-8.7281921,115.1771551,https://maps.google.com/?cid=0x0:0xa41c1e9187d1bcda,
restaurant,Italia,Little Italy Kuta,"Jl. Pantai Kuta No.10x, Kuta, Kec. Kuta, Kabupaten Badung, Bali 80361","Kuta, Kec. Kuta, Kabupaten Badung",BALI,80361.0,Indonesia,81353016875.0,,,-8.7225765,115.1728555,https://maps.google.com/?cid=0x0:0x77c57294fc35d49e,
restaurant,Indonesia,Mades Warung Kuta,"Jl. Pantai Kuta, Banjar Pande Mas, Kec. Kuta, Kabupaten Badung, Bali 80361","Banjar Pande Mas, Kec. Kuta, Kabupaten Badung",BALI,80361.0,Indonesia,361755297.0,,,-8.722296,115.174951,https://maps.google.com/?cid=0x0:0x72042f40946c75ff,
restaurant,Restoran,Yulia's Kitchen,"Jl. Pantai Kuta No.43, Kuta, Kec. Kuta, Kabupaten Badung, Bali 80361","Kuta, Kec. Kuta, Kabupaten Badung",BALI,80361.0,Indonesia,361751893.0,,,-8.722684,115.1719687,https://maps.google.com/?cid=0x0:0xd41cbef990ccbb1a,
restaurant,Italia,Aldente Italian Kitchen  Bar Kuta,"Jl. Kartika Plaza, Kuta, Kec. Kuta, Kabupaten Badung, Bali 80361","Kuta, Kec. Kuta, Kabupaten Badung",BALI,80361.0,Indonesia,81326034458.0,,,-8.7253086,115.171169,https://maps.google.com/?cid=0x0:0x72ad6a657e54d467,
restaurant,Indonesia,Dulang Kafe Kuta Square,"Pertokoan Kuta Square, Jl. Bakungsari No.22 blok C no 20, Kuta, Kec. Kuta, Kabupaten Badung, Bali 80361","Jl. Bakungsari No.22 blok C no 20, Kuta, Kec. Kuta, Kabupaten Badung",BALI,80361.0,Indonesia,361753389.0,,,-8.7234663,115.1714056,https://maps.google.com/?cid=0x0:0xde809104599f5bba,
restaurant,Indonesia,Shinta Warung,"Jl. Kartika Plaza Gg. Puspa Ayu, Kuta, Kec. Kuta, Kabupaten Badung, Bali 80361","Kuta, Kec. Kuta, Kabupaten Badung",BALI,80361.0,Indonesia,81237699189.0,,,-8.7300442,115.1691047,https://maps.google.com/?cid=0x0:0xa18ab1b3138124e2,
restaurant,restaurant,Bali 80361,"Kec. Kuta Sel., Kabupaten Badung, Bali","Kabupaten Badung, Bali",BALI,,Indonesia,,,,-8.7953431,115.1652008,https://maps.google.com/?cid=0x0:0x1c00c5eb6016be60,
restaurant,India,Sukun Restaurant Kuta,"Amnaya Resort, Jl. Kartika Plaza Gg. Puspa Ayu No.99, Kuta, Kec. Kuta Sel., Kabupaten Badung, Bali 80361","Jl. Kartika Plaza Gg. Puspa Ayu No.99, Kuta, Kec. Kuta Sel., Kabupaten Badung",BALI,80361.0,Indonesia,361755380.0,,,-8.7296605,115.1697776,https://maps.google.com/?cid=0x0:0x3f9a23f292901173,
restaurant,Betawi,Amanaia Kuta Bali - Indonesian Restaurant,"Jl. Kediri, Tuban, Kec. Kuta, Bali, 80361","Tuban, Kec. Kuta",BALI,80361.0,Indonesia,81339782079.0,,,-8.7370388,115.175028,https://maps.google.com/?cid=0x0:0x4213cda5a0059007,
restaurant,Restoran,Dua Sisi Kitchen  Bar,"Jl. Camplung Tanduk No.99, Seminyak, Kec. Kuta, Kabupaten Badung, Bali 80361","Seminyak, Kec. Kuta, Kabupaten Badung",BALI,80361.0,Indonesia,87800172888.0,,,-8.6922284,115.1614755,https://maps.google.com/?cid=0x0:0x33f0345aa567c4c1,
restaurant,Hidangan Laut,Kula Resto  Tonie's Seafood,"Jl. Merta Agung No.28, Kerobokan Kelod, Kec. Kuta Utara, Kabupaten Badung, Bali 80361","Kerobokan Kelod, Kec. Kuta Utara, Kabupaten Badung",BALI,80361.0,Indonesia,87788992188.0,,,-8.6652041,115.1681948,https://maps.google.com/?cid=0x0:0x47e44b14f8913430,
restaurant,Indonesia,Bali Timbungan,"Jl. Sunset Road No.88, Kuta, Kec. Kuta, Kabupaten Badung, Bali 80361","Kuta, Kec. Kuta, Kabupaten Badung",BALI,80361.0,Indonesia,81138003222.0,,,-8.7109406,115.1857,https://maps.google.com/?cid=0x0:0xe29a3947b8d3e5b1,
restaurant,Restoran,Kayumanis Resto Jimbaran,"Jl. Yoga Perkanthi, Jimbaran, Kec. Kuta Sel., Kabupaten Badung, Bali 80361","Jimbaran, Kec. Kuta Sel., Kabupaten Badung",BALI,80361.0,Indonesia,81775705777.0,,,-8.772637,115.17026,https://maps.google.com/?cid=0x0:0x1bb5e3950c36572b,
restaurant,Bali,Kori Restaurant  Bar Kuta,"Jl. Raya Legian Jl. Poppies II, Kuta, Kec. Kuta, Kabupaten Badung, Bali 80361","Kuta, Kec. Kuta, Kabupaten Badung",BALI,80361.0,Indonesia,361758605.0,,,-8.7173312,115.1730011,https://maps.google.com/?cid=0x0:0x4269ba418893bd67,
restaurant,Italia,b+ Caf√©  Restaurant Kuta,"Jl. Kartika Plaza, Kuta, Kec. Kuta, Kabupaten Badung, Bali 80361","Kuta, Kec. Kuta, Kabupaten Badung",BALI,80361.0,Indonesia,81930999887.0,,,-8.7280107,115.1672113,https://maps.google.com/?cid=0x0:0x1b5560eac6b09a49,
restaurant,Indonesia,Dua Umalas,"Jl. Umalas II No.88, Kerobokan Kelod, Kec. Kuta Utara, Kabupaten Badung, Bali 80361","Kerobokan Kelod, Kec. Kuta Utara, Kabupaten Badung",BALI,80361.0,Indonesia,3618475139.0,,,-8.6669814,115.1567986,https://maps.google.com/?cid=0x0:0x70a6294249a0233f,
restaurant,Indonesia,De Daun Restaurant Indonesian Fusion,"Jalan Pengubengan Kauh No.559, Kerobokan, Kuta Utara, Kerobokan Kelod, Kuta Utara, Badung Regency, Bali 80361","Kerobokan, Kuta Utara, Kerobokan Kelod, Kuta Utara, Badung Regency",BALI,80361.0,Indonesia,8124614569.0,,,-8.6642045,115.1702112,https://maps.google.com/?cid=0x0:0x1ee499806d27696b,
restaurant,Jepang,Hiiragi Restaurant,"Jl. Umalas Klecung, Kerobokan Kelod, Kec. Kuta Utara, Umalas, Kabupaten Badung, Bali 80361","Kerobokan Kelod, Kec. Kuta Utara, Umalas, Kabupaten Badung",BALI,80361.0,Indonesia,817427346.0,,,-8.6683241,115.1507073,https://maps.google.com/?cid=0x0:0xe2f321005be63a5c,
restaurant,Hidangan Laut,Huge Restaurant,"Jl. Batu Belig No.4, Kerobokan Kelod, Kec. Kuta Utara, Kabupaten Badung, Bali 80361","Kerobokan Kelod, Kec. Kuta Utara, Kabupaten Badung",BALI,80361.0,Indonesia,81330984292.0,,,-8.6717901,115.1596085,https://maps.google.com/?cid=0x0:0xd8ecd872d6e372ca,
restaurant,Kafetaria,Jendela Bali The Panoramic Resto,"Jl. Raya Uluwatu, Ungasan, Kec. Kuta Sel., Kabupaten Badung, Bali 80361","Ungasan, Kec. Kuta Sel., Kabupaten Badung",BALI,80361.0,Indonesia,81337685367.0,,,-8.8086738,115.1680313,https://maps.google.com/?cid=0x0:0x2540bda3ab984f76,
restaurant,Indonesia,Gabah Restaurant  Bar,"Jalan Bakung Sari, Kuta, Kec. Kuta, Kabupaten Badung, Bali 80361","Kuta, Kec. Kuta, Kabupaten Badung",BALI,80361.0,Indonesia,361751864.0,,,-8.7248917,115.1715178,https://maps.google.com/?cid=0x0:0xd9f9404cc7e2a0cf,
restaurant,Restoran,Ely's Kitchen Bali,"Jl. Pengubengan Kauh, Kerobokan Kelod, Kec. Kuta Utara, Kabupaten Badung, Bali 80361","Kerobokan Kelod, Kec. Kuta Utara, Kabupaten Badung",BALI,80361.0,Indonesia,85277660821.0,,,-8.6634066,115.1695779,https://maps.google.com/?cid=0x0:0xe195d64a797a5989,
restaurant,Restoran,Sukun Restaurant Nusa Dua,"Jl. Pratama No.87X, Tj. Benoa, Kec. Kuta Sel., Kabupaten Badung, Bali 80363","Tj. Benoa, Kec. Kuta Sel., Kabupaten Badung",BALI,80363.0,Indonesia,3614773380.0,,,-8.7704097,115.222019,https://maps.google.com/?cid=0x0:0xc529479e4fffb4f8,
restaurant,Restoran,Bambu,"Jl. Petitenget No.198, Kerobokan Kelod, Kec. Kuta Utara, Kabupaten Badung, Bali 80361","Kerobokan Kelod, Kec. Kuta Utara, Kabupaten Badung",BALI,80361.0,Indonesia,3618469797.0,,,-8.680299,115.1530378,https://maps.google.com/?cid=0x0:0x29893cdf056ad72c,
restaurant,Restoran,GRAHA_KITCHEN,"Jl. Bypass Ngurah Rai No.87-89, Benoa, Kec. Kuta Sel., Kabupaten Badung, Bali 80361","Benoa, Kec. Kuta Sel., Kabupaten Badung",BALI,80361.0,Indonesia,361778031.0,,,-8.7884945,115.2088149,https://maps.google.com/?cid=0x0:0x7112210b758f2d80,
restaurant,Bali,Warung Damar,"Jalan Kartika Plaza, Bali Garden Beach Resort, Kec. Kuta, Bali 80361","Bali Garden Beach Resort, Kec. Kuta",BALI,80361.0,Indonesia,82237603543.0,,,-8.728235,115.169112,https://maps.google.com/?cid=0x0:0x79dfbaa9f8bb0fff,
restaurant,Indonesia,Warung Chef Bagus Kuta,"Jl. Bakung Sari No.43, Kuta, Kec. Kuta Sel., Kabupaten Badung, Bali 80361","Kuta, Kec. Kuta Sel., Kabupaten Badung",BALI,80361.0,Indonesia,87861392149.0,,,-8.7246604,115.1740326,https://maps.google.com/?cid=0x0:0x7c9d7de61adb9659,
restaurant,Rumah Makan,Mapogu Restaurant,"Jl. Goa Gong No.88X, Jimbaran, Kec. Kuta Sel., Kabupaten Badung, Bali 80361","Jimbaran, Kec. Kuta Sel., Kabupaten Badung",BALI,80361.0,Indonesia,87876946888.0,,,-8.8029144,115.1723828,https://maps.google.com/?cid=0x0:0x2b9e1795d4293c9f,
restaurant,Indonesia,Warung Dedalu,"Jl. Petitenget No.235, Kerobokan Kelod, Kec. Kuta Utara, Kabupaten Badung, Bali 80361","Kerobokan Kelod, Kec. Kuta Utara, Kabupaten Badung",BALI,80361.0,Indonesia,87862363409.0,,,-8.6804658,115.1536405,https://maps.google.com/?cid=0x0:0x3a76ab075f766afe,
restaurant,Steak,Camino Resto  Bar,"Jl. Uluwatu II No.108X, Jimbaran, Kec. Kuta Sel., Kabupaten Badung, Bali 80361","Jimbaran, Kec. Kuta Sel., Kabupaten Badung",BALI,80361.0,Indonesia,82360707788.0,,,-8.784181,115.1709982,https://maps.google.com/?cid=0x0:0x922ba1b79f71bad7,
restaurant,Masakan Asia,Opia Bali,"Jl. Bukit Permai No.2, Jimbaran, Kec. Kuta Sel., Kabupaten Badung, Bali 80361","Jimbaran, Kec. Kuta Sel., Kabupaten Badung",BALI,80361.0,Indonesia,81999438787.0,,,-8.7860027,115.1590011,https://maps.google.com/?cid=0x0:0x3ad2b2c8b5e70990,
restaurant,Restoran Jerman,Tavern De Bali Sport Bar and Restaurant,"main Gate, Jl. ITDC Nusa Dua, Benoa, Kec. Kuta Sel., Kabupaten Badung, Bali 80361","Jl. ITDC Nusa Dua, Benoa, Kec. Kuta Sel., Kabupaten Badung",BALI,80361.0,Indonesia,82146081533.0,,,-8.7985518,115.2240662,https://maps.google.com/?cid=0x0:0x107c3f8684aed8d3,
restaurant,Indonesia,Balique,"Jl. Raya Uluwatu No.39, Jimbaran, Kec. Kuta Sel., Kabupaten Badung, Bali 80361","Jimbaran, Kec. Kuta Sel., Kabupaten Badung",BALI,80361.0,Indonesia,361704945.0,,,-8.7787221,115.1689532,https://maps.google.com/?cid=0x0:0xdd040edeca4e96f9,
restaurant,Jepang,Kushi Tomo Bali,"Jl. Raya Uluwatu Kel No.8D, Jimbaran, Kec. Kuta Sel., Bali, 80361","Jimbaran, Kec. Kuta Sel.",BALI,80361.0,Indonesia,85760030080.0,,,-8.7878243,115.1648439,https://maps.google.com/?cid=0x0:0x1c3b9c74c84a2bef,
restaurant,Indonesia,Shinta Warung,"Jl. Kartika Plaza Gg. Puspa Ayu, Kuta, Kec. Kuta, Kabupaten Badung, Bali 80361","Kuta, Kec. Kuta, Kabupaten Badung",BALI,80361.0,Indonesia,81237699189.0,,,-8.7300442,115.1691047,https://maps.google.com/?cid=0x0:0xa18ab1b3138124e2,
restaurant,Indonesia,Dua Umalas,"Jl. Umalas II No.88, Kerobokan Kelod, Kec. Kuta Utara, Kabupaten Badung, Bali 80361","Kerobokan Kelod, Kec. Kuta Utara, Kabupaten Badung",BALI,80361.0,Indonesia,3618475139.0,,,-8.6669814,115.1567986,https://maps.google.com/?cid=0x0:0x70a6294249a0233f,
restaurant,restaurant,Bali 80361,"Kec. Kuta Sel., Kabupaten Badung, Bali","Kabupaten Badung, Bali",BALI,,Indonesia,,,,-8.7953431,115.1652008,https://maps.google.com/?cid=0x0:0x1c00c5eb6016be60,
restaurant,Indonesia,De Daun Restaurant Indonesian Fusion,"Jalan Pengubengan Kauh No.559, Kerobokan, Kuta Utara, Kerobokan Kelod, Kuta Utara, Badung Regency, Bali 80361","Kerobokan, Kuta Utara, Kerobokan Kelod, Kuta Utara, Badung Regency",BALI,80361.0,Indonesia,8124614569.0,,,-8.6642045,115.1702112,https://maps.google.com/?cid=0x0:0x1ee499806d27696b,
restaurant,Steak,Uma Garden Seminyak,"Jl. Umalas 1 No.8, Kerobokan Kelod, Kec. Kuta Utara, Kabupaten Badung, Bali 80361","Kerobokan Kelod, Kec. Kuta Utara, Kabupaten Badung",BALI,80361.0,Indonesia,82147369323.0,,,-8.670248,115.1610599,https://maps.google.com/?cid=0x0:0xc741a78a7aeadf9e,
restaurant,Indonesia,NOAA Social Dining,"No.2000X, Jl. Petitenget, Kerobokan Kelod, Kuta Utara, Badung Regency, Bali 80361","Jl. Petitenget, Kerobokan Kelod, Kuta Utara, Badung Regency",BALI,80361.0,Indonesia,82260887245.0,,,-8.6771403,115.1542334,https://maps.google.com/?cid=0x0:0xd1180e90af754a32,
restaurant,Bali,Kori Restaurant  Bar Kuta,"Jl. Raya Legian Jl. Poppies II, Kuta, Kec. Kuta, Kabupaten Badung, Bali 80361","Kuta, Kec. Kuta, Kabupaten Badung",BALI,80361.0,Indonesia,361758605.0,,,-8.7173312,115.1730011,https://maps.google.com/?cid=0x0:0x4269ba418893bd67,
restaurant,Restoran,Bambu,"Jl. Petitenget No.198, Kerobokan Kelod, Kec. Kuta Utara, Kabupaten Badung, Bali 80361","Kerobokan Kelod, Kec. Kuta Utara, Kabupaten Badung",BALI,80361.0,Indonesia,3618469797.0,,,-8.680299,115.1530378,https://maps.google.com/?cid=0x0:0x29893cdf056ad72c,
restaurant,Betawi,Amanaia Kuta Bali - Indonesian Restaurant,"Jl. Kediri, Tuban, Kec. Kuta, Bali, 80361","Tuban, Kec. Kuta",BALI,80361.0,Indonesia,81339782079.0,,,-8.7370388,115.175028,https://maps.google.com/?cid=0x0:0x4213cda5a0059007,
restaurant,BBQ,Warung Nia Balinese Food  Pork Ribs,"Kayu Aya Square, Jl. Kayu Aya No.19-21, Seminyak, Kec. Kuta Utara, Bali, 80361","Jl. Kayu Aya No.19-21, Seminyak, Kec. Kuta Utara",BALI,80361.0,Indonesia,87761556688.0,,,-8.6859025,115.1565847,https://maps.google.com/?cid=0x0:0x5f14e09db2db6f26,
restaurant,Restoran makanan pedesaan,Sixtynine Kitchen,"Jl. Raya Kerobokan No.68, Kerobokan Kelod, Kec. Kuta Utara, Kabupaten Badung, Bali 80361","Kerobokan Kelod, Kec. Kuta Utara, Kabupaten Badung",BALI,80361.0,Indonesia,81999333685.0,,,-8.6693644,115.164255,https://maps.google.com/?cid=0x0:0x6cdfede431a96990,
restaurant,India,Sukun Restaurant Kuta,"Amnaya Resort, Jl. Kartika Plaza Gg. Puspa Ayu No.99, Kuta, Kec. Kuta Sel., Kabupaten Badung, Bali 80361","Jl. Kartika Plaza Gg. Puspa Ayu No.99, Kuta, Kec. Kuta Sel., Kabupaten Badung",BALI,80361.0,Indonesia,361755380.0,,,-8.7296605,115.1697776,https://maps.google.com/?cid=0x0:0x3f9a23f292901173,
restaurant,Bali,FIRE at W Retreat  Spa Bali,"Jalan Petitenget Kerobokan, Seminyak, Kuta Utara, Badung Regency, Bali 80361","Seminyak, Kuta Utara, Badung Regency",BALI,80361.0,Indonesia,3613000106.0,,,-8.677521,115.149103,https://maps.google.com/?cid=0x0:0x35cda9188f9c63ab,
restaurant,Restoran,Jaansan Bali Restaurant,"Mumbul, Jl. Bypass Ngurah Rai No.96-B, Nusa Dua, Kec. Kuta Sel., Kabupaten Badung, Bali 80361","Jl. Bypass Ngurah Rai No.96-B, Nusa Dua, Kec. Kuta Sel., Kabupaten Badung",BALI,80361.0,Indonesia,81239161910.0,,,-8.7847836,115.1935385,https://maps.google.com/?cid=0x0:0xcf4072ba0b326726,
restaurant,Vegetarian,Warung Mogan Vegetarian,"Jl. Mudu Taki No.99x, Dalung, Kec. Kuta Utara, Kabupaten Badung, Bali 80361","Dalung, Kec. Kuta Utara, Kabupaten Badung",BALI,80361.0,Indonesia,3618947665.0,,,-8.6317975,115.1779833,https://maps.google.com/?cid=0x0:0x2de279c77d28d549,
restaurant,Rumah Makan,RICEFIELDRESTO,"Jl. Subak Daksina No.19, Tibubeneng, Kec. Kuta Utara, Kabupaten Badung, Bali 80361","Tibubeneng, Kec. Kuta Utara, Kabupaten Badung",BALI,80361.0,Indonesia,85738765962.0,,,-8.628904,115.1554844,https://maps.google.com/?cid=0x0:0x8268938f5db6aa06,
restaurant,Restoran,Warung Sobat,"Jl. Batu Belig No.11 A, Kerobokan Kelod, Kec. Kuta Utara, Kabupaten Badung, Bali 80363","Kerobokan Kelod, Kec. Kuta Utara, Kabupaten Badung",BALI,80363.0,Indonesia,85829264436.0,,,-8.6728602,115.1498772,https://maps.google.com/?cid=0x0:0xb70388202cc17379,
restaurant,Jepang,Hiiragi Restaurant,"Jl. Umalas Klecung, Kerobokan Kelod, Kec. Kuta Utara, Umalas, Kabupaten Badung, Bali 80361","Kerobokan Kelod, Kec. Kuta Utara, Umalas, Kabupaten Badung",BALI,80361.0,Indonesia,817427346.0,,,-8.6683241,115.1507073,https://maps.google.com/?cid=0x0:0xe2f321005be63a5c,
restaurant,Indonesia,WARUNG KUBU SEGARA KUTA,"Jl. Segara Merta Gg. Jepun ll No.2, Kuta, Kec. Kuta, Kabupaten Badung, Bali 80361","Kuta, Kec. Kuta, Kabupaten Badung",BALI,80361.0,Indonesia,,,,-8.7387281,115.165905,https://maps.google.com/?cid=0x0:0x90a91fb237e955d3,
restaurant,Italia,b+ Caf√©  Restaurant Kuta,"Jl. Kartika Plaza, Kuta, Kec. Kuta, Kabupaten Badung, Bali 80361","Kuta, Kec. Kuta, Kabupaten Badung",BALI,80361.0,Indonesia,81930999887.0,,,-8.7280107,115.1672113,https://maps.google.com/?cid=0x0:0x1b5560eac6b09a49,
restaurant,Restoran,Dua Sisi Kitchen  Bar,"Jl. Camplung Tanduk No.99, Seminyak, Kec. Kuta, Kabupaten Badung, Bali 80361","Seminyak, Kec. Kuta, Kabupaten Badung",BALI,80361.0,Indonesia,87800172888.0,,,-8.6922284,115.1614755,https://maps.google.com/?cid=0x0:0x33f0345aa567c4c1,
restaurant,Rumah Makan,UMANE Cafe,"Jl. Pengubengan Kauh, Kerobokan, Kec. Kuta Utara, Kabupaten Badung, Bali 80361","Kerobokan, Kec. Kuta Utara, Kabupaten Badung",BALI,80361.0,Indonesia,8567897774.0,,,-8.6628137,115.1686276,https://maps.google.com/?cid=0x0:0xfbb00dd80d983126,
restaurant,Korea,Nami Chikin Korean Street Food,"Jl. Tegal Sari Raya Jl. Perum Dalung Permai No.20, Kerobokan Kaja, Kec. Kuta Utara, Kabupaten Badung, Bali 80361","Kerobokan Kaja, Kec. Kuta Utara, Kabupaten Badung",BALI,80361.0,Indonesia,82337664418.0,,,-8.6300387,115.1713203,https://maps.google.com/?cid=0x0:0x44ff3283e996b100,
restaurant,Restoran,Warung imeme mudutaki,"958H+WCM, Jl. Mudu Taki No.77x, Dalung, Kec. Kuta Utara, Kabupaten Badung, Bali 80361","Jl. Mudu Taki No.77x, Dalung, Kec. Kuta Utara, Kabupaten Badung",BALI,80361.0,Indonesia,85904358941.0,,,-8.6319629,115.1782528,https://maps.google.com/?cid=0x0:0x63605fbb95791cd0,
restaurant,Jepang,Norm Sushi Bar  Kitchen,"Jl. Kartika Plaza No.8x, Kuta, Kec. Kuta, Kabupaten Badung, Bali 80361","Kuta, Kec. Kuta, Kabupaten Badung",BALI,80361.0,Indonesia,81337730000.0,,,-8.7363418,115.1671,https://maps.google.com/?cid=0x0:0xf930227a54a05725,
restaurant,Restoran,MISANTO Coffee Eatery Meetings,"Dalung, Jl. Perum Dalung Permai No.4, Kerobokan Kaja, Kuta Utara, Badung Regency, Bali 80361","Jl. Perum Dalung Permai No.4, Kerobokan Kaja, Kuta Utara, Badung Regency",BALI,80361.0,Indonesia,81779079071.0,,,-8.6254186,115.1712301,https://maps.google.com/?cid=0x0:0x50728cdb21d66c84,
restaurant,Indonesia,Ulekan,"Jl. Tegal Sari Jl. Pantai Berawa No.34, Tibubeneng, Kec. Kuta Utara, Kabupaten Badung, Bali 80361","Tibubeneng, Kec. Kuta Utara, Kabupaten Badung",BALI,80361.0,Indonesia,82145948624.0,,,-8.6600737,115.1431002,https://maps.google.com/?cid=0x0:0xf22c6d8b11f93ea,
restaurant,restaurant,Kuta Utara,"Kec. Kuta Utara, Kabupaten Badung, Bali","Kabupaten Badung, Bali",BALI,,Indonesia,,,,-8.6248221,115.1705382,https://maps.google.com/?cid=0x0:0xdac0d412e07ae170,
restaurant,Ikan Bakar,Bale Udang Mang Engking Kuta,"Jl. Nakula No.88, Pemecutan Klod, Kec. Denpasar Bar., Kota Denpasar, Bali 80119","Pemecutan Klod, Kec. Denpasar Bar., Kota Denpasar",BALI,80119.0,Indonesia,8176780001.0,,,-8.699908,115.1828,https://maps.google.com/?cid=0x0:0xc37c62a5ab69489,
restaurant,Kafe,Zai Cafe Breakfast  Dinner,"Jl. Pantai Batu Bolong, Canggu, Kec. Kuta Utara, Kabupaten Badung, Bali 80351","Canggu, Kec. Kuta Utara, Kabupaten Badung",BALI,80351.0,Indonesia,81231609807.0,,,-8.6450592,115.1413825,https://maps.google.com/?cid=0x0:0xbff2a1a1fcdf0b52,
restaurant,restaurant,Bali 80351,"Kec. Mengwi, Kabupaten Badung, Bali","Kabupaten Badung, Bali",BALI,,Indonesia,,,,-8.5617185,115.1770586,https://maps.google.com/?cid=0x0:0x1c00c5eb6016be30,
restaurant,Sandwich,Sandwichopedia,"Jl. Pantai Pererenan No.8, Pererenan, Kec. Mengwi, Kabupaten Badung, Bali 80351","Pererenan, Kec. Mengwi, Kabupaten Badung",BALI,80351.0,Indonesia,81399324808.0,,,-8.6329337,115.1339115,https://maps.google.com/?cid=0x0:0xacc46b8d8eefa420,
restaurant,Indonesia,Warung Puri Boga Restaurant,"Jl. Raya Tumbakbayuh Br. Tiying Tutul, Tumbak Bayuh, Kec. Mengwi, Kabupaten Badung, Bali 80351","Tumbak Bayuh, Kec. Mengwi, Kabupaten Badung",BALI,80351.0,Indonesia,81337306796.0,,,-8.6252393,115.1447858,https://maps.google.com/?cid=0x0:0xb3964d6aad77921f,
restaurant,Vila,Moringa Cafe and Mart,"Jl. Veteran No.86, Buduk, Kec. Mengwi, Kabupaten Badung, Bali 80351","Buduk, Kec. Mengwi, Kabupaten Badung",BALI,80351.0,Indonesia,85738279888.0,,,-8.6169848,115.1500187,https://maps.google.com/?cid=0x0:0x8f12e8bf4297242b,
restaurant,Hidangan Laut,Sari Laut Bang Yos,"C59P+JQ4, Kapal, Kec. Mengwi, Kabupaten Badung, Bali 80351","Kapal, Kec. Mengwi, Kabupaten Badung",BALI,80351.0,Indonesia,81337126902.0,,,-8.5809761,115.1869665,https://maps.google.com/?cid=0x0:0x6f1b3d3761fc307c,
restaurant,Masakan Barat,Makoe Bali,"Jl. Raya Denpasar - Gilimanuk, Mengwitani, Kec. Mengwi, Kabupaten Badung, Bali 80351","Mengwitani, Kec. Mengwi, Kabupaten Badung",BALI,80351.0,Indonesia,8174758620.0,,,-8.5613989,115.1583305,https://maps.google.com/?cid=0x0:0x9916034fc64a56b7,
restaurant,Restoran,Warung Yess,"Mengwi, Kuta Utara, Jl. Pantai Pererenan, Pererenan, Kec. Mengwi, Kabupaten Badung, Bali 80351","Kuta Utara, Jl. Pantai Pererenan, Pererenan, Kec. Mengwi, Kabupaten Badung",BALI,80351.0,Indonesia,81353688196.0,,,-8.6421349,115.1294979,https://maps.google.com/?cid=0x0:0x8fefd0a0f0eb3107,
restaurant,Kafe,HARIKU cafe,"Jl. Raya Tumbakbayuh No.5, Tumbak Bayuh, Kec. Mengwi, Kabupaten Badung, Bali 80351","Tumbak Bayuh, Kec. Mengwi, Kabupaten Badung",BALI,80351.0,Indonesia,87862255817.0,,,-8.6259752,115.1443531,https://maps.google.com/?cid=0x0:0x36d246da23055ed,
restaurant,Hidangan Laut,Warung Sari Nadi Seafood,"Jl. Gadung - Belulang, Kapal, Kec. Mengwi, Kabupaten Badung, Bali 80351","Kapal, Kec. Mengwi, Kabupaten Badung",BALI,80351.0,Indonesia,3619064155.0,,,-8.5862671,115.1732604,https://maps.google.com/?cid=0x0:0x189f8484f6724210,
restaurant,Masakan Barat,SizzleWraps,"Jl. By Pass Tanah Lot, Munggu, Kec. Mengwi, Kabupaten Badung, Bali 80351","Munggu, Kec. Mengwi, Kabupaten Badung",BALI,80351.0,Indonesia,81239548256.0,,,-8.6216244,115.1193949,https://maps.google.com/?cid=0x0:0x79006ceb25a5222,
restaurant,Jepang,Kamikuno Asian Eatery,"Jl. Raya Kapal, Kapal, Kec. Mengwi, Kabupaten Badung, Bali 80351","Kapal, Kec. Mengwi, Kabupaten Badung",BALI,80351.0,Indonesia,3619098290.0,,,-8.5768766,115.1797754,https://maps.google.com/?cid=0x0:0x6d2c377041dde5a6,
restaurant,Restoran,Warung Uma Asri,"Werdi Bhuwana, Kec. Mengwi, Kabupaten Badung, Bali","Kabupaten Badung, Bali",BALI,,Indonesia,81703566667.0,,,-8.5307809,115.1713432,https://maps.google.com/?cid=0x0:0xb8383d682a67f2ef,
restaurant,Nasi,BABI GULING AYU MULI BEERINGKIT,"Jl. Raya Beringkit, Mengwitani, Kec. Mengwi, Kabupaten Badung, Bali 80351","Mengwitani, Kec. Mengwi, Kabupaten Badung",BALI,80351.0,Indonesia,81999024139.0,,,-8.5674201,115.175684,https://maps.google.com/?cid=0x0:0xfcab2516589a7493,
restaurant,China,DEPOT HENGKI,"Jl. Raya Kapal, Lukluk, Kec. Mengwi, Kabupaten Badung, Bali 80351","Lukluk, Kec. Mengwi, Kabupaten Badung",BALI,80351.0,Indonesia,82145900900.0,,,-8.5672671,115.1767031,https://maps.google.com/?cid=0x0:0xe8b4f5e95aa96e61,
restaurant,Ikan Bakar,Warung Ikan Bakar Jimbaran Mengwi,"Jl. Denpasar-Singaraja, Werdi Bhuwana, Kec. Mengwi, Kabupaten Badung, Bali 80351","Werdi Bhuwana, Kec. Mengwi, Kabupaten Badung",BALI,80351.0,Indonesia,81238927077.0,,,-8.5212431,115.1743102,https://maps.google.com/?cid=0x0:0xadc8c272c24b5fc8,
restaurant,Bali,Wr. Nasi Lukluk (WNL),"Jl. Raya Denpasar - Gilimanuk No.4, Lukluk, Kec. Mengwi, Kabupaten Badung, Bali 80351","Lukluk, Kec. Mengwi, Kabupaten Badung",BALI,80351.0,Indonesia,,,,-8.5817277,115.1878247,https://maps.google.com/?cid=0x0:0x47c7f91a84640fda,
restaurant,Sate,Warung Sate Bu Rai,"Jl. I. Gusti Ketut Jelantik No.1, Mengwi, Kec. Mengwi, Kabupaten Badung, Bali 80351","Mengwi, Kec. Mengwi, Kabupaten Badung",BALI,80351.0,Indonesia,81337565233.0,,,-8.5479564,115.1681704,https://maps.google.com/?cid=0x0:0xa47a3a78b7d4afc3,
restaurant,Restoran,Organic Ocean,"Jl. Pura Kramat, Seseh, Bali 80251",Seseh,BALI,80251.0,Indonesia,3619067555.0,,,-8.6468933,115.1148545,https://maps.google.com/?cid=0x0:0x36f1469930082fcb,
restaurant,Bali,Warung Tegan,"C5CM+9RF, Jl. Raya Kapal, Kapal, Kec. Mengwi, Kabupaten Badung, Bali 80351","Jl. Raya Kapal, Kapal, Kec. Mengwi, Kabupaten Badung",BALI,80351.0,Indonesia,87861073039.0,,,-8.5790723,115.184559,https://maps.google.com/?cid=0x0:0x33ceaeb0690610eb,
restaurant,Restoran,Warung Bamboo,"Jl. By Pass Munggu, Tanah Lot, Munggu, Kec. Mengwi, Kabupaten Badung, Bali 80351","Tanah Lot, Munggu, Kec. Mengwi, Kabupaten Badung",BALI,80351.0,Indonesia,8113985644.0,,,-8.6275114,115.1283669,https://maps.google.com/?cid=0x0:0xe1484f223e9c6b8f,
restaurant,Restoran,Warung D'dangin,"Abianbase, Mengwi, Abianbase, Kec. Mengwi, Kabupaten Badung, Bali 80351","Mengwi, Abianbase, Kec. Mengwi, Kabupaten Badung",BALI,80351.0,Indonesia,3619006691.0,,,-8.5842802,115.1820634,https://maps.google.com/?cid=0x0:0x4a5553ec12175a5b,
restaurant,Ikan Bakar,Warung The Ulam,"Jl. Raya Munggu, Tanah lot, Kec. Mengwi, Kabupaten Badung, Bali 80351","Tanah lot, Kec. Mengwi, Kabupaten Badung",BALI,80351.0,Indonesia,,,,-8.6207031,115.118354,https://maps.google.com/?cid=0x0:0x37f72a9e48f35920,
restaurant,Kedai Kopi,Palapa Cafe,"Jl. Pura Sada No.3, Kapal, Kec. Mengwi, Kabupaten Badung, Bali 80351","Kapal, Kec. Mengwi, Kabupaten Badung",BALI,80351.0,Indonesia,81238000075.0,,,-8.5679448,115.1784143,https://maps.google.com/?cid=0x0:0xc6e0bac0839c67b5,
restaurant,Restoran,Dapur Setia,"94HQ+GPG, Jl. Raya Tumbakbayuh - Pererenan, Tumbak Bayuh, Kec. Mengwi, Kabupaten Badung, Bali 80351","Jl. Raya Tumbakbayuh - Pererenan, Tumbak Bayuh, Kec. Mengwi, Kabupaten Badung",BALI,80351.0,Indonesia,81238078600.0,,,-8.6211819,115.1393345,https://maps.google.com/?cid=0x0:0xd6fb8ad461bf0347,
restaurant,restaurant,Bali 80353,"Kec. Petang, Kabupaten Badung, Bali","Kabupaten Badung, Bali",BALI,,Indonesia,,,,-8.3365862,115.2244853,https://maps.google.com/?cid=0x0:0x1c00c5eb6016be50,
restaurant,Sulawesi Selatan,Warung Daeng Bacok,"J6HF+RM9, Jl. Raya Pura Pucak Mangu, Petang, Kec. Petang, Kabupaten Badung, Bali 80353","Jl. Raya Pura Pucak Mangu, Petang, Kec. Petang, Kabupaten Badung",BALI,80353.0,Indonesia,,,,-8.3704646,115.2242411,https://maps.google.com/?cid=0x0:0x58fdc6724df98411,
restaurant,Rumah Makan,Warung Bali Pelaga,"P64J+8CF, Jl. Catur, Pelaga, Kec. Petang, Kabupaten Badung, Bali 80353","Jl. Catur, Pelaga, Kec. Petang, Kabupaten Badung",BALI,80353.0,Indonesia,82339662484.0,,,-8.2941845,115.2310323,https://maps.google.com/?cid=0x0:0xd79515f58a88155f,
restaurant,Brunch,Warung Listia,"M69F+MJG, Jl. Raya Pura Pucak Mangu, Pelaga, Kec. Petang, Kabupaten Badung, Bali 80353","Jl. Raya Pura Pucak Mangu, Pelaga, Kec. Petang, Kabupaten Badung",BALI,80353.0,Indonesia,83119005886.0,,,-8.3308238,115.2240635,https://maps.google.com/?cid=0x0:0x7050ba7edd26ad7a,
restaurant,Jawa,Wr. Makan Dwi Lestari,"P63P+F5G, Belok/Sidan, Kec. Petang, Kabupaten Badung, Bali 80353","Belok/Sidan, Kec. Petang, Kabupaten Badung",BALI,80353.0,Indonesia,,,,-8.2963178,115.2354458,https://maps.google.com/?cid=0x0:0x2855f904f94d7584,
restaurant,Rumah Makan,Warung Puri Bambu,"J647+FRC Lapangan umum, Petang, Kec. Petang, Kabupaten Badung, Bali 80353","Petang, Kec. Petang, Kabupaten Badung",BALI,80353.0,Indonesia,81337379790.0,,,-8.3942738,115.2133713,https://maps.google.com/?cid=0x0:0xca9abac4766cb38a,
restaurant,Jawa,Warung Blei_Putu (suda),"P64G+2FG, Pelaga, Kec. Petang, Kabupaten Badung, Bali 80353","Pelaga, Kec. Petang, Kabupaten Badung",BALI,80353.0,Indonesia,81805564863.0,,,-8.2949428,115.2262014,https://maps.google.com/?cid=0x0:0x411edd9ec1319306,
restaurant,Brunch,Warung Makan Pak Tompel,"J63C+896, Petang, Kec. Petang, Kabupaten Badung, Bali 80353","Petang, Kec. Petang, Kabupaten Badung",BALI,80353.0,Indonesia,85238785646.0,,,-8.3976299,115.2217054,https://maps.google.com/?cid=0x0:0xd4caafab2fba3a52,
restaurant,Pertanian,Sekarmukti Eco Agro,"Jl. I.GST. NGR Rai, Petang, Kec. Petang, Kabupaten Badung, Bali 80353","Petang, Kec. Petang, Kabupaten Badung",BALI,80353.0,Indonesia,87889609257.0,,,-8.406528,115.2195739,https://maps.google.com/?cid=0x0:0x38b0591b00df2bfa,
restaurant,Restoran,Waroeng Plaga Taste,"P64J+97P, Pelaga, Kec. Petang, Kabupaten Badung, Bali","Kabupaten Badung, Bali",BALI,,Indonesia,,,,-8.2938747,115.2308676,https://maps.google.com/?cid=0x0:0xce24a5f417a66bf0,
restaurant,Restoran,Warung Bu Desi,"P63J+RG8, Pelaga, Kec. Petang, Kabupaten Badung, Bali 80353","Pelaga, Kec. Petang, Kabupaten Badung",BALI,80353.0,Indonesia,,,,-8.295452,115.2313213,https://maps.google.com/?cid=0x0:0xb7c461746d9644fe,
restaurant,Rumah Makan,Tunjung  Lotus Restaurant,"Jl. Raya Pura Pucak Mangu, Pelaga, Kec. Petang, Kabupaten Badung, Bali 80353","Pelaga, Kec. Petang, Kabupaten Badung",BALI,80353.0,Indonesia,8179339090.0,,,-8.28513,115.22558,https://maps.google.com/?cid=0x0:0xa8b4edd10760dfa9,
restaurant,Makanan Siap Saji,Ack Fried Chicken Petang,"J639+CFX, Jl. I.GST. NGR Rai, Petang, Kec. Petang, Kabupaten Badung, Bali 80353","Jl. I.GST. NGR Rai, Petang, Kec. Petang, Kabupaten Badung",BALI,80353.0,Indonesia,85857226675.0,,,-8.3963901,115.2187369,https://maps.google.com/?cid=0x0:0xf862c5a7729319ab,
restaurant,restaurant,Pelaga Eco Park,"Pelaga, Kec. Petang, Kabupaten Badung, Bali 80353","Kec. Petang, Kabupaten Badung",BALI,80353.0,Indonesia,,,,-8.3463223,115.2166559,https://maps.google.com/?cid=0x0:0x6b4369b8eb6a6ab6,
restaurant,Pura,Pura Ulun Danu Beratan Bedugul,"Danau Beratan, Candikuning, Baturiti, Tabanan Regency, Bali 82191","Candikuning, Baturiti, Tabanan Regency",BALI,82191.0,Indonesia,82146129292.0,,,-8.2751807,115.1668234,https://maps.google.com/?cid=0x0:0x18246568e4db1b53,
restaurant,Toko Bebas Bea,Bandara Internasional I Gusti Ngurah Rai (DPS),"Bandara International I Gusti Ngurah Rai, Kabupaten Badung, Bali 80362",Kabupaten Badung,BALI,80362.0,Indonesia,85166911003.0,,,-8.7469933,115.1681655,https://maps.google.com/?cid=0x0:0xdf71da6ddd7bcc1f,
restaurant,Rumah Makan,Warung Petrux,"J69C+374, Jl. Raya Pura Pucak Mangu, Petang, Kec. Petang, Kabupaten Badung, Bali 80353","Jl. Raya Pura Pucak Mangu, Petang, Kec. Petang, Kabupaten Badung",BALI,80353.0,Indonesia,85738484251.0,,,-8.3823602,115.2207064,https://maps.google.com/?cid=0x0:0x22247ad1128aa9d8,
restaurant,Kafe,Oran Cafe,"Jl. Pura Puncak Antapsai Bon, Belok/Sidan, Kec. Petang, Kabupaten Badung, Bali 80353","Belok/Sidan, Kec. Petang, Kabupaten Badung",BALI,80353.0,Indonesia,87858142037.0,,,-8.2570386,115.2275278,https://maps.google.com/?cid=0x0:0x848aa2fc764d689b,
restaurant,Rumah Makan,Mie Obonk Petang,"Jl. I.GST. NGR Rai No.16, Pangsan, Kec. Petang, Kabupaten Badung, Bali 80353","Pangsan, Kec. Petang, Kabupaten Badung",BALI,80353.0,Indonesia,82146570190.0,,,-8.4043231,115.2190314,https://maps.google.com/?cid=0x0:0xba30cdb4c74aabad,
restaurant,restaurant,Bagus Agro Pelaga Resort,"Jl. Raya Pura Pucak Mangu, Pelaga, Kec. Petang, Kabupaten Badung, Bali 80353","Pelaga, Kec. Petang, Kabupaten Badung",BALI,80353.0,Indonesia,8179339090.0,,,-8.2845269,115.2254609,https://maps.google.com/?cid=0x0:0xba0a7442bb2ffe90,
restaurant,restaurant,,,,BALI,,Indonesia,,,,,,https://maps.google.com/?cid=0x0:0xba0a7442bb2ffe90%7C/g/1tdj7r56%7Cid-ID,
restaurant,Makanan Siap Saji,ACK Fried Chicken PELAGA,"Jl. Raya Pura Pucak Mangu No.12, Pelaga, Kec. Petang, Kabupaten Badung, Bali 80353","Pelaga, Kec. Petang, Kabupaten Badung",BALI,80353.0,Indonesia,81339925016.0,,,-8.2963798,115.2221186,https://maps.google.com/?cid=0x0:0x59d6b051a2616c1a,
restaurant,Indonesia,BOBALI Petang,"Jl. I.GST. NGR Rai No.16, Pangsan, Kec. Petang, Kabupaten Badung, Bali 80353","Pangsan, Kec. Petang, Kabupaten Badung",BALI,80353.0,Indonesia,85858515994.0,,,-8.4027132,115.2183521,https://maps.google.com/?cid=0x0:0x48011052bc61996f,
restaurant,restaurant,The pejalin eco retreat,"M6Q7+M7V, Jl. Auman, Pelaga, Kec. Petang, Kabupaten Badung, Bali 80353","Jl. Auman, Pelaga, Kec. Petang, Kabupaten Badung",BALI,80353.0,Indonesia,,,,-8.3125031,115.2116744,https://maps.google.com/?cid=0x0:0x7bed35cf0cbee175,
restaurant,Penginapan,Pondok Nyoman Bedugul,"Jl. Baturiti - Mekarsari, Baturiti, Kec. Baturiti, Kabupaten Tabanan, Bali 82191","Baturiti, Kec. Baturiti, Kabupaten Tabanan",BALI,82191.0,Indonesia,81558100429.0,,,-8.3390821,115.1861714,https://maps.google.com/?cid=0x0:0x1b4f6262dbefd52c,
restaurant,restaurant,Villa Casa Serenita Batunya,"Batunya, Kec. Baturiti, Kabupaten Tabanan, Bali 82191","Kec. Baturiti, Kabupaten Tabanan",BALI,82191.0,Indonesia,85101360224.0,,,-8.3242119,115.1902239,https://maps.google.com/?cid=0x0:0xc0347dda3022bbe1,
restaurant,restaurant,Ritual Ubud,"Br Singaperang, Buahan Kaja, Kec. Payangan, Kabupaten Gianyar, Bali 80572","Buahan Kaja, Kec. Payangan, Kabupaten Gianyar",BALI,80572.0,Indonesia,85738137872.0,,,-8.3392097,115.252521,https://maps.google.com/?cid=0x0:0xa60db14b2265c574,
restaurant,restaurant,Villa Gajah Mas,"Jl. Raya Baturiti, Batunya, Kec. Baturiti, Kabupaten Tabanan, Bali 82191","Batunya, Kec. Baturiti, Kabupaten Tabanan",BALI,82191.0,Indonesia,81337056767.0,,,-8.3247957,115.1858032,https://maps.google.com/?cid=0x0:0xf2b5aea7207eed71,
cafe,cafe,Bali 80352,"Abiansemal, Kec. Abiansemal, Kabupaten Badung, Bali","Kabupaten Badung, Bali",BALI,,Indonesia,,,,-8.5584335,115.2244853,https://maps.google.com/?cid=0x0:0x1c00c5eb6016be40,
cafe,Kedai Kopi,Coffee Shop - Yun Kopi  Red Bean Abiansemal,"Jl. Ciung Wanara, Dauh Yeh Cani, Kec. Abiansemal, Kabupaten Badung, Bali 80352","Dauh Yeh Cani, Kec. Abiansemal, Kabupaten Badung",BALI,80352.0,Indonesia,,,,-8.5208259,115.209435,https://maps.google.com/?cid=0x0:0xdf806c05708f79b8,
cafe,Kedai Kopi,DI-HATI coffee  Eatery,"Jl. Raya Puspa Resti, Abiansemal, Kec. Abiansemal, Kabupaten Badung, Bali 80352","Abiansemal, Kec. Abiansemal, Kabupaten Badung",BALI,80352.0,Indonesia,3617990009.0,,,-8.5429326,115.2140378,https://maps.google.com/?cid=0x0:0x2fa8c4d94bba34bd,
cafe,Toko kopi,KEDAE RADEN Coffee Eatery Community,"Jl. Margalet, Angantaka, Kec. Abiansemal, Kabupaten Badung, Bali 80352","Angantaka, Kec. Abiansemal, Kabupaten Badung",BALI,80352.0,Indonesia,89628385270.0,,,-8.5820657,115.2343094,https://maps.google.com/?cid=0x0:0x5378949209f81e8d,
cafe,Restoran,Depot Singgah,"Jalan raya, Mekar Bhuwana, Kec. Abiansemal, Kabupaten Badung, Bali 80352","Mekar Bhuwana, Kec. Abiansemal, Kabupaten Badung",BALI,80352.0,Indonesia,,,,-8.5503436,115.2322516,https://maps.google.com/?cid=0x0:0x9c092032754a6656,
cafe,Kedai Kopi,Sioul Coffee Bali,"Jl. Raya Lukluk - Darmasaba, Darmasaba, Kec. Abiansemal, Kabupaten Badung, Bali 80116","Darmasaba, Kec. Abiansemal, Kabupaten Badung",BALI,80116.0,Indonesia,81337610540.0,,,-8.5855403,115.1987308,https://maps.google.com/?cid=0x0:0x99fce74640d3fdc0,
cafe,Kedai Kopi,Ganesha Coffee Luwak,"Jl. Dewi Saraswati No.27, Banjar Tegal Kuning, Bongkasa Pertiwi, Kec. Abiansemal, Kabupaten Badung, Bali 80352","Banjar Tegal Kuning, Bongkasa Pertiwi, Kec. Abiansemal, Kabupaten Badung",BALI,80352.0,Indonesia,81262626477.0,,,-8.4941287,115.239045,https://maps.google.com/?cid=0x0:0xd549114c4624566a,
cafe,Kafe,Halona Coffee,"Jl. Raya Abiansemal No.21, Abiansemal, Kec. Abiansemal, Kabupaten Badung, Bali 80352","Abiansemal, Kec. Abiansemal, Kabupaten Badung",BALI,80352.0,Indonesia,8980551374.0,,,-8.5308727,115.2117458,https://maps.google.com/?cid=0x0:0x61288d00c4580123,
cafe,Kedai Kopi,Sogil Brew,"C6M7+54X, Sibang Kaja, Kec. Abiansemal, Kabupaten Badung, Bali","Kabupaten Badung, Bali",BALI,,Indonesia,,,,-8.5670337,115.2129461,https://maps.google.com/?cid=0x0:0x814f3f76466d059,
cafe,Kedai Kopi,KOMA - Kopi Mambal,"Jl. Pudak IV No.3, Mambal, Kecamatan Ubud, Kabupaten Badung, Bali 80352","Mambal, Kecamatan Ubud, Kabupaten Badung",BALI,80352.0,Indonesia,,,,-8.5470104,115.2177558,https://maps.google.com/?cid=0x0:0xc3f9ab0eb88b1824,
cafe,Kedai Kopi,Warung Nia,"C6XF+WH8, Jl. Raya Mambal, Abiansemal, Kec. Abiansemal, Kabupaten Badung, Bali 80352","Jl. Raya Mambal, Abiansemal, Kec. Abiansemal, Kabupaten Badung",BALI,80352.0,Indonesia,8123631501.0,,,-8.5502023,115.2239392,https://maps.google.com/?cid=0x0:0xca532c7a589480bf,
cafe,Kafe anak-anak,Warung Tebu Coffee  Eatery,"Let, Jl. Banjar Sesetan Jalan Marga Let, Angantaka, Kec. Abiansemal, Kabupaten Badung, Bali 80352","Jl. Banjar Sesetan Jalan Marga Let, Angantaka, Kec. Abiansemal, Kabupaten Badung",BALI,80352.0,Indonesia,81338769871.0,,,-8.5825625,115.2339531,https://maps.google.com/?cid=0x0:0x79add48f37287fc2,
cafe,Kafe,Jala Cafe,"F6G6+26C, Jl. Raya Abiansemal, Abiansemal, Kec. Abiansemal, Kabupaten Badung, Bali 80352","Jl. Raya Abiansemal, Abiansemal, Kec. Abiansemal, Kabupaten Badung",BALI,80352.0,Indonesia,82144636002.0,,,-8.5249255,115.2105167,https://maps.google.com/?cid=0x0:0xcc1e526c55fd9079,
cafe,Kafe,Warkop78,"Jl. Raya Gerih Blumbungan, Sibang Kaja, Kec. Abiansemal, Kabupaten Badung, Bali 80352","Sibang Kaja, Kec. Abiansemal, Kabupaten Badung",BALI,80352.0,Indonesia,81959998886.0,,,-8.5646045,115.2113325,https://maps.google.com/?cid=0x0:0x866872596988f64e,
cafe,Kedai Kopi,matemu coffee  patisserie,"Jl. Cemp. II Banjar Lembing No.2, Mekar Bhuwana, Kec. Abiansemal, Kabupaten Badung, Bali 80352","Mekar Bhuwana, Kec. Abiansemal, Kabupaten Badung",BALI,80352.0,Indonesia,81916254972.0,,,-8.5482574,115.2280272,https://maps.google.com/?cid=0x0:0xf175e812102ad1ad,
cafe,Kafe,BAIKU WARUNG,"C6M7+85R, Sibang Kaja, Kec. Abiansemal, Kabupaten Badung, Bali 80352","Sibang Kaja, Kec. Abiansemal, Kabupaten Badung",BALI,80352.0,Indonesia,85882900340.0,,,-8.5666352,115.2129042,https://maps.google.com/?cid=0x0:0xf7f5ba1c7db5bf9c,
cafe,Kedai Kopi,Es Teh Indonesia - Abiansemal,"Jl. Ciung Wanara, Dauh Yeh Cani, Kec. Abiansemal, Kabupaten Badung, Bali 80352","Dauh Yeh Cani, Kec. Abiansemal, Kabupaten Badung",BALI,80352.0,Indonesia,89673013888.0,,,-8.522821,115.209268,https://maps.google.com/?cid=0x0:0xc8354c2c8ad740a4,
cafe,China,Warung Kemulan,"Jl. Raya Gerih No.108, Sibang Kaja, Kec. Abiansemal, Kabupaten Badung, Bali 80352","Sibang Kaja, Kec. Abiansemal, Kabupaten Badung",BALI,80352.0,Indonesia,87860816875.0,,,-8.5699913,115.2095613,https://maps.google.com/?cid=0x0:0x7a5d61adf81a7f4a,
cafe,Bali,Warung Semana,"Jl. Raya Mambal Semana, Mambal, Kec. Abiansemal, Kabupaten Badung, Bali 80352","Mambal, Kec. Abiansemal, Kabupaten Badung",BALI,80352.0,Indonesia,8113979879.0,,,-8.5409603,115.2229643,https://maps.google.com/?cid=0x0:0xc709ec4a4987217e,
cafe,Kafe,Motivasi Coffee Vol. 5,"Jl. Leko No.91, Abiansemal, Kec. Abiansemal, Kabupaten Badung, Bali 80352","Abiansemal, Kec. Abiansemal, Kabupaten Badung",BALI,80352.0,Indonesia,85792723377.0,,,-8.5437119,115.2139374,https://maps.google.com/?cid=0x0:0x3c5fc86313ff33c7,
cafe,Kedai Kopi,sozo coffee and space,"Jl. Darmasaba Permai, Darmasaba, Kec. Abiansemal, Kabupaten Badung, Bali 80321","Darmasaba, Kec. Abiansemal, Kabupaten Badung",BALI,80321.0,Indonesia,81339090403.0,,,-8.583558,115.2139012,https://maps.google.com/?cid=0x0:0x31442700763c8f25,
cafe,Restoran,Berkopiria,"G676+32Q, Sangeh, Kec. Abiansemal, Kabupaten Badung, Bali 80352","Sangeh, Kec. Abiansemal, Kabupaten Badung",BALI,80352.0,Indonesia,81337427129.0,,,-8.4872774,115.2101136,https://maps.google.com/?cid=0x0:0xe5ff42f8090b7a78,
cafe,Restoran,Warung lojhi,"Jl. Raya Sangeh, Blahkiuh, Kec. Abiansemal, Kabupaten Badung, Bali 80352","Blahkiuh, Kec. Abiansemal, Kabupaten Badung",BALI,80352.0,Indonesia,87863497135.0,,,-8.5010849,115.2104347,https://maps.google.com/?cid=0x0:0x9f8dbf9af6d3823e,
cafe,Kedai Kopi,MADE COFFEE,"Mambal, Kec. Abiansemal, Kabupaten Badung, Bali 80352","Kec. Abiansemal, Kabupaten Badung",BALI,80352.0,Indonesia,,,,-8.5406962,115.2231183,https://maps.google.com/?cid=0x0:0xf3df881d1b59db18,
cafe,cafe,Kuta,"Kec. Kuta, Kabupaten Badung, Bali","Kabupaten Badung, Bali",BALI,,Indonesia,,,,-8.7237964,115.1752277,https://maps.google.com/?cid=0x0:0x4030bfbca7d2c00,
cafe,Kafe,Dijon Bali | Shop | Cafe | Catering,"SIMPANG SIUR SQUARE, A Jl. Setia Budi No.B A-B, Kuta, Kec. Kuta, Kabupaten Badung, Bali 80361","A Jl. Setia Budi No.B A-B, Kuta, Kec. Kuta, Kabupaten Badung",BALI,80361.0,Indonesia,361759640.0,,,-8.72055,115.182632,https://maps.google.com/?cid=0x0:0xdadceafb6cedb00d,
cafe,Kedai Kopi,Samo Coffee Bali,"Jl. Kartika Plaza Gg. Pudak Sari No.7, Kuta, Kec. Kuta, Kabupaten Badung, Bali 80361","Kuta, Kec. Kuta, Kabupaten Badung",BALI,80361.0,Indonesia,85922815888.0,,,-8.7320969,115.1688304,https://maps.google.com/?cid=0x0:0x4c9edcc6bc394b12,
cafe,Kedai Kopi,Wicis Coffee  Eatery,"Jl. Kediri No.60, Kuta, Kec. Kuta, Kabupaten Badung, Bali 80361","Kuta, Kec. Kuta, Kabupaten Badung",BALI,80361.0,Indonesia,,,,-8.737602,115.1696075,https://maps.google.com/?cid=0x0:0xc78966ce9f183b84,
cafe,Restoran,Lokal Caf√© Bali,"Jl. Kediri No.93, Kuta, Kec. Kuta, Kabupaten Badung, Bali 80361","Kuta, Kec. Kuta, Kabupaten Badung",BALI,80361.0,Indonesia,81903338388.0,,,-8.7381642,115.1702728,https://maps.google.com/?cid=0x0:0xa15834f202df451b,
cafe,Kedai Kopi,ROJIMA COFFEE,"Jl. Merta Nadi No.88E, Kuta, Kec. Kuta, Kabupaten Badung, Bali 80361","Kuta, Kec. Kuta, Kabupaten Badung",BALI,80361.0,Indonesia,85739236008.0,,,-8.7100324,115.1828302,https://maps.google.com/?cid=0x0:0xcbcbaa6ffdca07e4,
cafe,Kedai Kopi,Kopi Zeen : best cafe Bali Kuta,"Komplek Pertokoan Central Park, Jl. Patih Jelantik, Kuta, Kec. Kuta, Kabupaten Badung, Bali 80361","Jl. Patih Jelantik, Kuta, Kec. Kuta, Kabupaten Badung",BALI,80361.0,Indonesia,,,,-8.7118238,115.1798524,https://maps.google.com/?cid=0x0:0x43c45e475aaa916,
cafe,Brunch,Living Tree Bali Cafe,"Jl. Kartika Plaza No.92, Tuban, Kec. Kuta, Kabupaten Badung, Bali 80361","Tuban, Kec. Kuta, Kabupaten Badung",BALI,80361.0,Indonesia,81946307049.0,,,-8.7340061,115.1673388,https://maps.google.com/?cid=0x0:0x679ad9679699d576,
cafe,Kedai Kopi,Cafe Bali Seminyak,"Jalan Laksmana (Kayu Aya Seminyak Kuta, Kerobokan Kelod, Kec. Kuta Utara, Kabupaten Badung, Bali 80361","Kerobokan Kelod, Kec. Kuta Utara, Kabupaten Badung",BALI,80361.0,Indonesia,361736484.0,,,-8.684035,115.1594488,https://maps.google.com/?cid=0x0:0xb676fdcad12e7fa6,
cafe,Kafe,Benih Cafe,"Pertokoan Mekar Jaya, Jl. Benesari No.77, Kuta, Badung Regency, Bali 80361","Jl. Benesari No.77, Kuta, Badung Regency",BALI,80361.0,Indonesia,85333533683.0,,,-8.7142883,115.1720866,https://maps.google.com/?cid=0x0:0xcfbd09a718a9eded,
cafe,Kedai Kopi,TEHILA COFFEE | EATERY | SPACE,"Jl. Raya Tuban No., 504x, Kuta, Kec. Kuta, Kabupaten Badung, Bali 80361","504x, Kuta, Kec. Kuta, Kabupaten Badung",BALI,80361.0,Indonesia,,,,-8.7337936,115.1778809,https://maps.google.com/?cid=0x0:0x451e64fa70d7abc4,
cafe,Restoran,27 Surf  Cafe,"Jl. Benesari No.35, Kuta, Kec. Kuta, Kabupaten Badung, Bali 80361","Kuta, Kec. Kuta, Kabupaten Badung",BALI,80361.0,Indonesia,82147738388.0,,,-8.7135081,115.1718898,https://maps.google.com/?cid=0x0:0x84b924d4ec88adcf,
cafe,Restoran,Beach Bowl Bali Kuta,"Jl. Benesari, Pantai, Kuta, Kec. Kuta, Kabupaten Badung, Bali 80361","Pantai, Kuta, Kec. Kuta, Kabupaten Badung",BALI,80361.0,Indonesia,87855803493.0,,,-8.7127331,115.1694974,https://maps.google.com/?cid=0x0:0xeca52e9529f1a3dd,
cafe,Kafe,The Bare Bottle Kuta,"Jl. Bakung Sari Pertokoan, Jl. Raya Kuta No.D28, Kabupaten Badung, Bali 80361","Jl. Raya Kuta No.D28, Kabupaten Badung",BALI,80361.0,Indonesia,881037310016.0,,,-8.723775,115.1711865,https://maps.google.com/?cid=0x0:0x9af51ac18f3f08e,
cafe,Indonesia,Dulang Kafe Kuta Square,"Pertokoan Kuta Square, Jl. Bakungsari No.22 blok C no 20, Kuta, Kec. Kuta, Kabupaten Badung, Bali 80361","Jl. Bakungsari No.22 blok C no 20, Kuta, Kec. Kuta, Kabupaten Badung",BALI,80361.0,Indonesia,361753389.0,,,-8.7234663,115.1714056,https://maps.google.com/?cid=0x0:0xde809104599f5bba,
cafe,Kedai Kopi,ANIMA Bali Cafe  Lounge,"Jl. Dewi Sri No.101, Legian, Kec. Kuta, Kabupaten Badung, Bali 80361","Legian, Kec. Kuta, Kabupaten Badung",BALI,80361.0,Indonesia,81238393787.0,,,-8.7073653,115.178553,https://maps.google.com/?cid=0x0:0xcb7dcf0464bd886a,
cafe,Restoran,Coffee Corner,"Melasti Arto Centre, Jl. Melasti Blok 1  2, Legian, Kec. Kuta, Kabupaten Badung, Bali 80361","Jl. Melasti Blok 1  2, Legian, Kec. Kuta, Kabupaten Badung",BALI,80361.0,Indonesia,8113971982.0,,,-8.7083157,115.1715619,https://maps.google.com/?cid=0x0:0x5c2b50666c87b225,
cafe,Kafe,The Alleys Cafe,"Jl. Benesari Gg. Adi Dharma No.2, Kuta, Kec. Kuta, Kabupaten Badung, Bali 80361","Kuta, Kec. Kuta, Kabupaten Badung",BALI,80361.0,Indonesia,85738470588.0,,,-8.7141629,115.1719392,https://maps.google.com/?cid=0x0:0xacab144831a56a3c,
cafe,Kafe,KatadiaR Cafe Bali,"Jl. Benesari No.9, Kuta, Kec. Kuta, Kabupaten Badung, Bali 80361","Kuta, Kec. Kuta, Kabupaten Badung",BALI,80361.0,Indonesia,,,,-8.7137847,115.1720396,https://maps.google.com/?cid=0x0:0xac9ced981ae72613,
cafe,Kedai Kopi,Triyama coffee  eatery,"Jl. Blambangan No.4, Kuta, Kec. Kuta, Kabupaten Badung, Bali 80361","Kuta, Kec. Kuta, Kabupaten Badung",BALI,80361.0,Indonesia,85738821594.0,,,-8.7230514,115.1781666,https://maps.google.com/?cid=0x0:0xb675202860af6e85,
cafe,Kedai Kopi,% Arabica Bali Kuta Beachwalk,"Jl. Beachwalk Mall Lantai 1, Kuta, Kec. Kuta, Kabupaten Badung, Bali 80361","Kuta, Kec. Kuta, Kabupaten Badung",BALI,80361.0,Indonesia,81119180736.0,,,-8.7171906,115.1689465,https://maps.google.com/?cid=0x0:0x69b56a3984d87a03,
cafe,Kafe,Rima Coffee Bali,"Jl. Legian Gg. Bendesa No.2, Kuta, Kec. Kuta, Kabupaten Badung, Bali 80361","Kuta, Kec. Kuta, Kabupaten Badung",BALI,80361.0,Indonesia,82225705700.0,,,-8.7143509,115.1733152,https://maps.google.com/?cid=0x0:0x7ed95aa8e5b7d463,
cafe,Kafe,Chill Coffee Bar,"Jl. Bunisari No.18, Kuta, Kec. Kuta, Kabupaten Badung, Bali 80361","Kuta, Kec. Kuta, Kabupaten Badung",BALI,80361.0,Indonesia,817373080.0,,,-8.7227679,115.1755112,https://maps.google.com/?cid=0x0:0xc459e94a5c2c88d9,
cafe,Kafe,See You Cafe Breakfast  Dinner,"Jl. Benesari No.1, Kuta, Kec. Kuta, Kabupaten Badung, Bali 80361","Kuta, Kec. Kuta, Kabupaten Badung",BALI,80361.0,Indonesia,81215661586.0,,,-8.7128466,115.1684294,https://maps.google.com/?cid=0x0:0xa1d60f31fb618cd4,
cafe,Kafe,Coffee Paradise,"Jl. Raya Legian No.61, Kuta, Kec. Kuta, Kabupaten Badung, Bali 80361","Kuta, Kec. Kuta, Kabupaten Badung",BALI,80361.0,Indonesia,,,,-8.7195915,115.1748877,https://maps.google.com/?cid=0x0:0xcf22b812a37e35b2,
cafe,Restoran,EDGY CHEF  BARISTA,"Jl. Raya Legian No.54, Kuta, Kec. Kuta, Kabupaten Badung, Bali 80361","Kuta, Kec. Kuta, Kabupaten Badung",BALI,80361.0,Indonesia,81225266587.0,,,-8.7210257,115.1751879,https://maps.google.com/?cid=0x0:0xd0c739913d37c292,
cafe,cafe,Bali 80361,"Kec. Kuta Sel., Kabupaten Badung, Bali","Kabupaten Badung, Bali",BALI,,Indonesia,,,,-8.7953431,115.1652008,https://maps.google.com/?cid=0x0:0x1c00c5eb6016be60,
cafe,Kedai Kopi,seru coffee,"Gerbang Taman Griya, Jl. Danau Batur Raya, Jimbaran, Kec. Kuta Sel., Kabupaten Badung, Bali 80361","Jl. Danau Batur Raya, Jimbaran, Kec. Kuta Sel., Kabupaten Badung",BALI,80361.0,Indonesia,,,,-8.7846866,115.1876159,https://maps.google.com/?cid=0x0:0xe8531f5374920273,
cafe,Kedai Kopi,Caribu Coffee  Friends,"Jl. Uluwatu I No.77, Jimbaran, Kec. Kuta Sel., Kabupaten Badung, Bali 80361","Jimbaran, Kec. Kuta Sel., Kabupaten Badung",BALI,80361.0,Indonesia,81321078952.0,,,-8.7776588,115.1702729,https://maps.google.com/?cid=0x0:0x2c73e4625085b7fc,
cafe,Kedai Kopi,Samo Coffee Bali,"Jl. Kartika Plaza Gg. Pudak Sari No.7, Kuta, Kec. Kuta, Kabupaten Badung, Bali 80361","Kuta, Kec. Kuta, Kabupaten Badung",BALI,80361.0,Indonesia,85922815888.0,,,-8.7320969,115.1688304,https://maps.google.com/?cid=0x0:0x4c9edcc6bc394b12,
cafe,Kafe,Dijon Bali | Shop | Cafe | Catering,"SIMPANG SIUR SQUARE, A Jl. Setia Budi No.B A-B, Kuta, Kec. Kuta, Kabupaten Badung, Bali 80361","A Jl. Setia Budi No.B A-B, Kuta, Kec. Kuta, Kabupaten Badung",BALI,80361.0,Indonesia,361759640.0,,,-8.72055,115.182632,https://maps.google.com/?cid=0x0:0xdadceafb6cedb00d,
cafe,Kedai Kopi,Sugar Coffee  Eatery,"no121x depan spbu udayana, Jl. Raya Uluwatu, Jimbaran, Kec. Kuta Sel., Kabupaten Badung, Bali 80361","Jl. Raya Uluwatu, Jimbaran, Kec. Kuta Sel., Kabupaten Badung",BALI,80361.0,Indonesia,,,,-8.7977063,115.1607142,https://maps.google.com/?cid=0x0:0xfc417795bd611ae6,
cafe,Kafe,D'jali Cafe  Eatery,"Jl. Bypass Ngurah Rai No.657X, Benoa, Kec. Kuta Sel., Kabupaten Badung, Bali 80362","Benoa, Kec. Kuta Sel., Kabupaten Badung",BALI,80362.0,Indonesia,85280815758.0,,,-8.7852499,115.1985119,https://maps.google.com/?cid=0x0:0xe86f2400893ecbbb,
cafe,Kafe,Cafe TGC Bali,"Jl. Bumbak Dauh, Kerobokan, Kec. Kuta Utara, Kabupaten Badung, Bali 80361","Kerobokan, Kec. Kuta Utara, Kabupaten Badung",BALI,80361.0,Indonesia,81213231456.0,,,-8.655932,115.1517659,https://maps.google.com/?cid=0x0:0x7f7bd2cfc85fbcaa,
cafe,Restoran,Koffielots Coffee  Eatery,"Jl. Bypass Ngurah Rai No.63, Kedonganan, Kec. Kuta Sel., Kabupaten Badung, Bali 80361","Kedonganan, Kec. Kuta Sel., Kabupaten Badung",BALI,80361.0,Indonesia,81337378797.0,,,-8.7652462,115.1787207,https://maps.google.com/?cid=0x0:0x41423a66eed628f7,
cafe,Kedai Kopi,70 Fahrenheit Koffie CAFE - Jimbaran,"samping Auto Bridal, Jl. Raya Kampus Unud No.70, Jimbaran, Kec. Kuta Sel., Kabupaten Badung, Bali 80361","Jl. Raya Kampus Unud No.70, Jimbaran, Kec. Kuta Sel., Kabupaten Badung",BALI,80361.0,Indonesia,3614466770.0,,,-8.7906999,115.1777343,https://maps.google.com/?cid=0x0:0xde7513cb0fc2a489,
cafe,cafe,Bonbon Cafe Bali,"Jl. Prabu Udayana No.2, Jimbaran, Kec. Kuta Sel., Kabupaten Badung, Bali 80361","Jimbaran, Kec. Kuta Sel., Kabupaten Badung",BALI,80361.0,Indonesia,81338761956.0,,,-8.7968722,115.171252,https://maps.google.com/?cid=0x0:0x92f44695a6b18bc7,
cafe,Kafe,Fortysense coffee and eatery,"Jl. Setia Budi No.16, Kuta, Kec. Kuta, Kabupaten Badung, Bali 80361","Kuta, Kec. Kuta, Kabupaten Badung",BALI,80361.0,Indonesia,81999209900.0,,,-8.720172,115.181177,https://maps.google.com/?cid=0x0:0x29ed11e205c8df0,
cafe,Sarapan,Bali Beans Coffee  Co,"Jl. Umalas 1 No.67, Kerobokan Kelod, Kec. Kuta Utara, Kabupaten Badung, Bali 80361","Kerobokan Kelod, Kec. Kuta Utara, Kabupaten Badung",BALI,80361.0,Indonesia,81809366888.0,,,-8.6693684,115.1564459,https://maps.google.com/?cid=0x0:0x6a4c2adfc7a58144,
cafe,Kedai Kopi,Malaga Coffe Kuta Beach,"masuk pasar seni kuta lurus terus mentok terus belok kanan di food court pantai, Jl. Bakung Sari, pasar seni, Kec. Kuta, Kabupaten Badung, Bali 80361","Jl. Bakung Sari, pasar seni, Kec. Kuta, Kabupaten Badung",BALI,80361.0,Indonesia,85737049227.0,,,-8.7241343,115.1698237,https://maps.google.com/?cid=0x0:0x45429f427db27b78,
cafe,Indonesia,Dulang Kafe Kuta Square,"Pertokoan Kuta Square, Jl. Bakungsari No.22 blok C no 20, Kuta, Kec. Kuta, Kabupaten Badung, Bali 80361","Jl. Bakungsari No.22 blok C no 20, Kuta, Kec. Kuta, Kabupaten Badung",BALI,80361.0,Indonesia,361753389.0,,,-8.7234663,115.1714056,https://maps.google.com/?cid=0x0:0xde809104599f5bba,
cafe,Kedai Kopi,Semeja Coffee Bali,"Jl. Raya Kedampang No.7, Kerobokan Kelod, Kec. Kuta Utara, Kabupaten Badung, Bali 80361","Kerobokan Kelod, Kec. Kuta Utara, Kabupaten Badung",BALI,80361.0,Indonesia,85858678056.0,,,-8.6646022,115.172082,https://maps.google.com/?cid=0x0:0x8451908994dd01a3,
cafe,Kafe,Livingstone Seminyak,"Jl. Petitenget No.88X, Kerobokan Kelod, Kec. Kuta Utara, Kabupaten Badung, Bali 80361","Kerobokan Kelod, Kec. Kuta Utara, Kabupaten Badung",BALI,80361.0,Indonesia,8175780003.0,,,-8.6717861,115.1614222,https://maps.google.com/?cid=0x0:0xe817ee4f920738b6,
cafe,Kedai Kopi,Varial Coffee  Eatery,"Jl. Kubung Batu Raya, Jimbaran, Kec. Kuta Sel., Kabupaten Badung, Bali 80361","Jimbaran, Kec. Kuta Sel., Kabupaten Badung",BALI,80361.0,Indonesia,81339837681.0,,,-8.7867586,115.1883057,https://maps.google.com/?cid=0x0:0x39b6938b752ae4b8,
cafe,Kafe,C-Caf√© Jimbaran,"Jl. Uluwatu II No.54, Jimbaran, Kec. Kuta Sel., Kabupaten Badung, Bali 80361","Jimbaran, Kec. Kuta Sel., Kabupaten Badung",BALI,80361.0,Indonesia,81911612020.0,,,-8.7826675,115.1733584,https://maps.google.com/?cid=0x0:0xf34abe2115766031,
cafe,Kedai Kopi,Saibora Cafe and Bar,"Jl. Petitenget Kerobokan.115 Kerobokan Kelod, Kerobokan, Kec. Kuta Utara, Kabupaten Badung, Bali 80361","Kerobokan, Kec. Kuta Utara, Kabupaten Badung",BALI,80361.0,Indonesia,87765665669.0,,,-8.6715512,115.1617002,https://maps.google.com/?cid=0x0:0x90a1fc288a4521b1,
cafe,Kedai Kopi,Southwest Space Coffee Bali,"Jl. Binginsari, Jimbaran, Kec. Kuta Sel., Kabupaten Badung, Bali 80361","Jimbaran, Kec. Kuta Sel., Kabupaten Badung",BALI,80361.0,Indonesia,85173117043.0,,,-8.8006247,115.1685142,https://maps.google.com/?cid=0x0:0x9dd893f7c5013cc8,
cafe,Kedai Kopi,simplii.coffee,"Jl. Perum Pasraman Unud No.B98, Jimbaran, Kec. Kuta Sel., Kabupaten Badung, Bali 91831","Jimbaran, Kec. Kuta Sel., Kabupaten Badung",BALI,91831.0,Indonesia,81237860272.0,,,-8.7908841,115.1676083,https://maps.google.com/?cid=0x0:0x2eb358ffd2639546,
cafe,Kedai Kopi,Rena's,"Jalan Danau Batur II No.4, Jimbaran, Kuta Selatan, Kabupaten Badung, Bali, 8036, Jimbaran, South Kuta, Badung Regency, Bali 80361","Jimbaran, Kuta Selatan, Kabupaten Badung, Bali, 8036, Jimbaran, South Kuta, Badung Regency",BALI,80361.0,Indonesia,85158850329.0,,,-8.7851267,115.1870904,https://maps.google.com/?cid=0x0:0x461c579458c85c61,
cafe,Kedai Kopi,twoZa Coffee,"Jl. Poh Gading, Jimbaran, Kec. Kuta Sel., Kabupaten Badung, Bali 80361","Jimbaran, Kec. Kuta Sel., Kabupaten Badung",BALI,80361.0,Indonesia,81916475875.0,,,-8.7860528,115.1790889,https://maps.google.com/?cid=0x0:0x38e5761df514e0fc,
cafe,Kedai Kopi,Bull's Coffee Jimbaran,"Depan InterContinental Bali, Jl. Uluwatu I No.105, Jimbaran, Kec. Kuta Sel., Kabupaten Badung, Bali 80361","Jl. Uluwatu I No.105, Jimbaran, Kec. Kuta Sel., Kabupaten Badung",BALI,80361.0,Indonesia,89524764911.0,,,-8.7813506,115.1677079,https://maps.google.com/?cid=0x0:0x85528d69b5d58a8a,
cafe,Kedai Kopi,Biliek n co,"Jl. Celagi Basur No.1, Jimbaran, Kec. Kuta Sel., Kabupaten Badung, Bali 80361","Jimbaran, Kec. Kuta Sel., Kabupaten Badung",BALI,80361.0,Indonesia,85156978282.0,,,-8.7847994,115.1726627,https://maps.google.com/?cid=0x0:0x8963e3178eb896e9,
cafe,Kedai Kopi,Shortcut Coffee,"Jl. Blong Keker No.68, Jimbaran, Kec. Kuta Sel., Kabupaten Badung, Bali 80361","Jimbaran, Kec. Kuta Sel., Kabupaten Badung",BALI,80361.0,Indonesia,8116206189.0,,,-8.8041658,115.1462282,https://maps.google.com/?cid=0x0:0xf5ad11b1662a19e6,
cafe,Kedai Kopi,Nine Miles Coffee  Eatery,"Jl. Raya Kampus Unud No.10, Jimbaran, Kec. Kuta Sel., Kabupaten Badung, Bali 80361","Jimbaran, Kec. Kuta Sel., Kabupaten Badung",BALI,80361.0,Indonesia,,,,-8.787493,115.177661,https://maps.google.com/?cid=0x0:0x8a72d0e4bd6f55fc,
cafe,Kedai Kopi,TEHILA COFFEE | EATERY | SPACE,"Jl. Raya Tuban No., 504x, Kuta, Kec. Kuta, Kabupaten Badung, Bali 80361","504x, Kuta, Kec. Kuta, Kabupaten Badung",BALI,80361.0,Indonesia,,,,-8.7337936,115.1778809,https://maps.google.com/?cid=0x0:0x451e64fa70d7abc4,
cafe,cafe,Bali 80361,"Kec. Kuta Sel., Kabupaten Badung, Bali","Kabupaten Badung, Bali",BALI,,Indonesia,,,,-8.7953431,115.1652008,https://maps.google.com/?cid=0x0:0x1c00c5eb6016be60,
cafe,Kafe,Stuja Coffee,"Jl. Merta Agung Kelurahan No.3-7, Kerobokan Kelod, Kec. Kuta Utara, Kabupaten Badung, Bali 80361","Kerobokan Kelod, Kec. Kuta Utara, Kabupaten Badung",BALI,80361.0,Indonesia,82111586831.0,,,-8.6631441,115.1683035,https://maps.google.com/?cid=0x0:0x1751cb32ad4ad359,
cafe,Restoran,Milk Espresso Bali,"Jl. Tegal Sari No.28 b, Berawa, Tibubeneng, Kec. Kuta Utara, Kabupaten Badung, Bali 80361","Berawa, Tibubeneng, Kec. Kuta Utara, Kabupaten Badung",BALI,80361.0,Indonesia,82359177439.0,,,-8.6595608,115.1431225,https://maps.google.com/?cid=0x0:0x2a3ee9de4e5e87ac,
cafe,Kafe,Cafe TGC Bali,"Jl. Bumbak Dauh, Kerobokan, Kec. Kuta Utara, Kabupaten Badung, Bali 80361","Kerobokan, Kec. Kuta Utara, Kabupaten Badung",BALI,80361.0,Indonesia,81213231456.0,,,-8.655932,115.1517659,https://maps.google.com/?cid=0x0:0x7f7bd2cfc85fbcaa,
cafe,Kedai Kopi,Market,"Gg. Madya, Kerobokan Kelod, Kec. Kuta Utara, Kabupaten Badung, Bali 80361","Kerobokan Kelod, Kec. Kuta Utara, Kabupaten Badung",BALI,80361.0,Indonesia,85133633758.0,,,-8.6625992,115.1732765,https://maps.google.com/?cid=0x0:0x313d01e65209e0d,
cafe,Kafe,Dedari Cafe and Eatery,"85V8+FQW, Jl. Raya Kerobokan, Kerobokan Kaja, Kec. Kuta Utara, Kabupaten Badung, Bali 80361","Jl. Raya Kerobokan, Kerobokan Kaja, Kec. Kuta Utara, Kabupaten Badung",BALI,80361.0,Indonesia,87762984157.0,,,-8.6563995,115.166941,https://maps.google.com/?cid=0x0:0x5ce992e117614e30,
cafe,Kafe,Moodest Cafe,"Jl. Tegal Cupek No.34, Kerobokan, Kec. Kuta Utara, Kabupaten Badung, Bali 80361","Kerobokan, Kec. Kuta Utara, Kabupaten Badung",BALI,80361.0,Indonesia,87788445509.0,,,-8.6522084,115.1608077,https://maps.google.com/?cid=0x0:0xba1baca0da9aecd5,
cafe,Restoran,Tana Cafe,"Jl. Raya Kedampang No.100, Kerobokan Kelod, Kec. Kuta Utara, Kabupaten Badung, Bali 80361","Kerobokan Kelod, Kec. Kuta Utara, Kabupaten Badung",BALI,80361.0,Indonesia,81529829040.0,,,-8.657392,115.1730644,https://maps.google.com/?cid=0x0:0xe2e0b1b969ca82cf,
cafe,Kedai Kopi,Tentang Kopi,"Kerobokan Kelod, Kec. Kuta Utara, Kabupaten Badung, Bali","Kabupaten Badung, Bali",BALI,,Indonesia,,,,-8.6624035,115.1673977,https://maps.google.com/?cid=0x0:0x9359814de3e42e1d,
cafe,Kafe,Eko Cafe,"Jl. Bumbak Dauh No.89x, Kerobokan, Kec. Kuta Utara, Kabupaten Badung, Bali 80361","Kerobokan, Kec. Kuta Utara, Kabupaten Badung",BALI,80361.0,Indonesia,85100868787.0,,,-8.6517517,115.157122,https://maps.google.com/?cid=0x0:0x3026efeb88792d99,
cafe,Kedai Kopi,Dulu Coffee,"Gg. Asri I No.45, Tibubeneng, Kec. Kuta Utara, Kabupaten Badung, Bali, 80361","Tibubeneng, Kec. Kuta Utara, Kabupaten Badung",BALI,80361.0,Indonesia,,,,-8.6564199,115.1440479,https://maps.google.com/?cid=0x0:0x8645d4ea14ec5793,
cafe,Toko Roti,Alfajores Bali Cafe,"Jl. Bumbak Dauh No.63, Kerobokan, Kec. Kuta Utara, Kabupaten Badung, Bali 80361","Kerobokan, Kec. Kuta Utara, Kabupaten Badung",BALI,80361.0,Indonesia,81339099985.0,,,-8.652937,115.1544364,https://maps.google.com/?cid=0x0:0x59985ff1cd41cd6e,
cafe,Kafe,Ruko Cafe,"Jl. Pantai Berawa No.99, Tibubeneng, Kec. Kuta Utara, Kabupaten Badung, Bali 80361","Tibubeneng, Kec. Kuta Utara, Kabupaten Badung",BALI,80361.0,Indonesia,,,,-8.6640928,115.1398367,https://maps.google.com/?cid=0x0:0x1a26dd3284169dbf,
cafe,Kedai Kopi,25:PM Coffee - Kerobokan,"Jl. Raya Kedampang, Kerobokan Kelod, Kec. Kuta Utara, Kabupaten Badung, Bali 80361","Kerobokan Kelod, Kec. Kuta Utara, Kabupaten Badung",BALI,80361.0,Indonesia,82247497025.0,,,-8.6571757,115.1728981,https://maps.google.com/?cid=0x0:0xb8833ecb889d7e45,
cafe,Kafe,Pison Coffee - Petitenget,"Jl. Petitenget No.19A, Kerobokan Kelod, Kec. Kuta Utara, Kabupaten Badung, Bali 80361","Kerobokan Kelod, Kec. Kuta Utara, Kabupaten Badung",BALI,80361.0,Indonesia,82144560066.0,,,-8.6726601,115.160101,https://maps.google.com/?cid=0x0:0xba15c1642f13d144,
cafe,Kafe,Coffee Engine,"Jl. Raya Kerobokan No.14x, Kerobokan, Kec. Kuta Utara, Kabupaten Badung, Bali 80361","Kerobokan, Kec. Kuta Utara, Kabupaten Badung",BALI,80361.0,Indonesia,81936518019.0,,,-8.651831,115.1682183,https://maps.google.com/?cid=0x0:0x719eda40f238c3f7,
cafe,Toko Bagel,Bucu,"Jl. Umalas II No.67, Kerobokan Kelod, Kec. Kuta Utara, Kabupaten Badung, Bali 80361","Kerobokan Kelod, Kec. Kuta Utara, Kabupaten Badung",BALI,80361.0,Indonesia,87851366867.0,,,-8.6674152,115.1577585,https://maps.google.com/?cid=0x0:0x875ab63a9e525891,
cafe,Sarapan,Bali Beans Coffee  Co,"Jl. Umalas 1 No.67, Kerobokan Kelod, Kec. Kuta Utara, Kabupaten Badung, Bali 80361","Kerobokan Kelod, Kec. Kuta Utara, Kabupaten Badung",BALI,80361.0,Indonesia,81809366888.0,,,-8.6693684,115.1564459,https://maps.google.com/?cid=0x0:0x6a4c2adfc7a58144,
cafe,Kafe,sugarhead BAKEHOUSE  ACADEMY,"Jl. Mertanadi No.90A, Kerobokan, Kec. Kuta Utara, Kabupaten Badung, Bali 80361","Kerobokan, Kec. Kuta Utara, Kabupaten Badung",BALI,80361.0,Indonesia,8118727878.0,,,-8.673199,115.1669875,https://maps.google.com/?cid=0x0:0x86f35f68cc6ee10f,
cafe,Kedai Kopi,Cafe Bali Seminyak,"Jalan Laksmana (Kayu Aya Seminyak Kuta, Kerobokan Kelod, Kec. Kuta Utara, Kabupaten Badung, Bali 80361","Kerobokan Kelod, Kec. Kuta Utara, Kabupaten Badung",BALI,80361.0,Indonesia,361736484.0,,,-8.684035,115.1594488,https://maps.google.com/?cid=0x0:0xb676fdcad12e7fa6,
cafe,Kedai Kopi,Samo Coffee Bali,"Jl. Kartika Plaza Gg. Pudak Sari No.7, Kuta, Kec. Kuta, Kabupaten Badung, Bali 80361","Kuta, Kec. Kuta, Kabupaten Badung",BALI,80361.0,Indonesia,85922815888.0,,,-8.7320969,115.1688304,https://maps.google.com/?cid=0x0:0x4c9edcc6bc394b12,
cafe,Restoran,MISANTO Coffee Eatery Meetings,"Dalung, Jl. Perum Dalung Permai No.4, Kerobokan Kaja, Kuta Utara, Badung Regency, Bali 80361","Jl. Perum Dalung Permai No.4, Kerobokan Kaja, Kuta Utara, Badung Regency",BALI,80361.0,Indonesia,81779079071.0,,,-8.6254186,115.1712301,https://maps.google.com/?cid=0x0:0x50728cdb21d66c84,
cafe,Kafe,Dijon Bali | Shop | Cafe | Catering,"SIMPANG SIUR SQUARE, A Jl. Setia Budi No.B A-B, Kuta, Kec. Kuta, Kabupaten Badung, Bali 80361","A Jl. Setia Budi No.B A-B, Kuta, Kec. Kuta, Kabupaten Badung",BALI,80361.0,Indonesia,361759640.0,,,-8.72055,115.182632,https://maps.google.com/?cid=0x0:0xdadceafb6cedb00d,
cafe,Kafe,Kopikota Bali,"Jl. raya buduk.16, Jl. Raya Buduk No.16, Kabupaten Badung, Bali 80361","Jl. Raya Buduk No.16, Kabupaten Badung",BALI,80361.0,Indonesia,87862133323.0,,,-8.6072283,115.1702714,https://maps.google.com/?cid=0x0:0xe5ee8a2fb29c0469,
cafe,cafe,Kopikota Space,"Jl. Raya Padonan, Tibubeneng, Kec. Kuta Utara, Kabupaten Badung, Bali 80361","Tibubeneng, Kec. Kuta Utara, Kabupaten Badung",BALI,80361.0,Indonesia,88999500600.0,,,-8.6259608,115.163453,https://maps.google.com/?cid=0x0:0xe55febb917e55612,
cafe,Kedai Kopi,TEHILA COFFEE | EATERY | SPACE,"Jl. Raya Tuban No., 504x, Kuta, Kec. Kuta, Kabupaten Badung, Bali 80361","504x, Kuta, Kec. Kuta, Kabupaten Badung",BALI,80361.0,Indonesia,,,,-8.7337936,115.1778809,https://maps.google.com/?cid=0x0:0x451e64fa70d7abc4,
cafe,Kafe,Watercress Cafe,"No.21 A, Jl. Batu Belig, Kerobokan Kelod, Kec. Kuta Utara, Kabupaten Badung, Bali 80361","Jl. Batu Belig, Kerobokan Kelod, Kec. Kuta Utara, Kabupaten Badung",BALI,80361.0,Indonesia,85102808030.0,,,-8.6730415,115.1501476,https://maps.google.com/?cid=0x0:0x111cc7022b4fc571,
cafe,Restoran,Satusatucoffee,"Jl. Pantai Berawa No.36, Tibubeneng, Kec. Kuta Utara, Kabupaten Badung, Bali 80361","Tibubeneng, Kec. Kuta Utara, Kabupaten Badung",BALI,80361.0,Indonesia,87862077011.0,,,-8.6558639,115.1475222,https://maps.google.com/?cid=0x0:0xe4b94984490ec9b8,
cafe,Kedai Kopi,Nyoman's Coffee,"Jl. Danau Batur Gg. Mangga, Tibubeneng, Kec. Kuta Utara, Kabupaten Badung, Bali 80361","Tibubeneng, Kec. Kuta Utara, Kabupaten Badung",BALI,80361.0,Indonesia,85147459998.0,,,-8.6336395,115.1578294,https://maps.google.com/?cid=0x0:0x362cd96f60305cf3,
cafe,cafe,Bali 80351,"Kec. Mengwi, Kabupaten Badung, Bali","Kabupaten Badung, Bali",BALI,,Indonesia,,,,-8.5617185,115.1770586,https://maps.google.com/?cid=0x0:0x1c00c5eb6016be30,
cafe,Kafe,Zai Cafe Breakfast  Dinner,"Jl. Pantai Batu Bolong, Canggu, Kec. Kuta Utara, Kabupaten Badung, Bali 80351","Canggu, Kec. Kuta Utara, Kabupaten Badung",BALI,80351.0,Indonesia,81231609807.0,,,-8.6450592,115.1413825,https://maps.google.com/?cid=0x0:0xbff2a1a1fcdf0b52,
cafe,Kedai Kopi,Palapa Cafe,"Jl. Pura Sada No.3, Kapal, Kec. Mengwi, Kabupaten Badung, Bali 80351","Kapal, Kec. Mengwi, Kabupaten Badung",BALI,80351.0,Indonesia,81238000075.0,,,-8.5679448,115.1784143,https://maps.google.com/?cid=0x0:0xc6e0bac0839c67b5,
cafe,Italia,Comma Cafe,"Jl. Pratu Rai Madra, Cemagi, Kec. Mengwi, Kabupaten Badung, Bali 80351","Cemagi, Kec. Mengwi, Kabupaten Badung",BALI,80351.0,Indonesia,82345582621.0,,,-8.6372821,115.1050897,https://maps.google.com/?cid=0x0:0x2887aaf7ebb70269,
cafe,Kedai Kopi,Kenil Coffee Shop,"Jl. Raya Sempidi No.54, Lukluk, Kec. Mengwi, Kabupaten Badung, Bali 80351","Lukluk, Kec. Mengwi, Kabupaten Badung",BALI,80351.0,Indonesia,3614715262.0,,,-8.5873755,115.1870722,https://maps.google.com/?cid=0x0:0xb018c3913a58e1bb,
cafe,Kafe,CampBar Cafe  Bar,"Jl. Pratu Rai Madra Jalan Raya Mengening, Cemagi, Kec. Mengwi, Kabupaten Badung, Bali 80351","Cemagi, Kec. Mengwi, Kabupaten Badung",BALI,80351.0,Indonesia,81337179882.0,,,-8.6379136,115.104664,https://maps.google.com/?cid=0x0:0x26a850d4bf205602,
cafe,Brunch,TMO Coffee Bali | Tiying Tutul |,"Jl. Raya Tumbakbayuh No.52, Tumbak Bayuh, Kec. Mengwi, Kabupaten Badung, Bali 80351","Tumbak Bayuh, Kec. Mengwi, Kabupaten Badung",BALI,80351.0,Indonesia,,,,-8.6291856,115.1418777,https://maps.google.com/?cid=0x0:0xdeaf467d422b1c4c,
cafe,Kedai Kopi,The Living Room,"Jl. Raya Tiying Tutul, Pererenan, Kec. Mengwi, Bali, 80351","Pererenan, Kec. Mengwi",BALI,80351.0,Indonesia,,,,-8.6308014,115.1407038,https://maps.google.com/?cid=0x0:0xeba67882bc46a7b3,
cafe,Kedai Kopi,Torst Coffee,"Jl. Raya Tumbakbayuh, Tumbak Bayuh, Kec. Mengwi, Bali, 80351","Tumbak Bayuh, Kec. Mengwi",BALI,80351.0,Indonesia,88298595112.0,,,-8.6225176,115.1380078,https://maps.google.com/?cid=0x0:0x314d544970ae1a7b,
cafe,Kedai Kopi,Warung 789  Kopi Kita 789,"Jl. Sahadewa No.6, Munggu, Kec. Mengwi, Kabupaten Badung, Bali 80351","Munggu, Kec. Mengwi, Kabupaten Badung",BALI,80351.0,Indonesia,81916981108.0,,,-8.622136,115.1244169,https://maps.google.com/?cid=0x0:0xc0c83581c68218b6,
cafe,Kafe,NOAH cafe,"Jl. Pantai Pererenan No.60, Pererenan, Kec. Mengwi, Kabupaten Badung, Bali 80351","Pererenan, Kec. Mengwi, Kabupaten Badung",BALI,80351.0,Indonesia,,,,-8.6402578,115.1305872,https://maps.google.com/?cid=0x0:0x68979e3803efc016,
cafe,Kafe,HARIKU cafe,"Jl. Raya Tumbakbayuh No.5, Tumbak Bayuh, Kec. Mengwi, Kabupaten Badung, Bali 80351","Tumbak Bayuh, Kec. Mengwi, Kabupaten Badung",BALI,80351.0,Indonesia,87862255817.0,,,-8.6259752,115.1443531,https://maps.google.com/?cid=0x0:0x36d246da23055ed,
cafe,Kedai Kopi,Machinery Coffee  Eatery at Canggu - Pererenan,"Jl. Pantai Pererenan No.111, Pererenan, Kec. Mengwi, Kabupaten Badung, Bali 80351","Pererenan, Kec. Mengwi, Kabupaten Badung",BALI,80351.0,Indonesia,87722688969.0,,,-8.6459075,115.1267237,https://maps.google.com/?cid=0x0:0x807545c8c1a476a2,
cafe,Restoran,Village Cafe Bali,"Pererenan, Jl. Raya Tumbakbayuh - Pererenan, Kabupaten Badung, Bali 80351","Jl. Raya Tumbakbayuh - Pererenan, Kabupaten Badung",BALI,80351.0,Indonesia,82140734064.0,,,-8.6153017,115.1450762,https://maps.google.com/?cid=0x0:0xc4f26ee6058b07d4,
cafe,Kafe,HOME CAFE MENGWI,"Br. Tiying Tutul No.19, Pererenan, Mengwi, Badung Regency, Bali 80351","Pererenan, Mengwi, Badung Regency",BALI,80351.0,Indonesia,81338385937.0,,,-8.6325446,115.1402655,https://maps.google.com/?cid=0x0:0x380e0f3d3b775026,
cafe,Kafe,Brunch Club Pererenan,"Jl. Pantai Pererenan No.110, Pererenan, Kec. Mengwi, Kabupaten Badung, Bali 80351","Pererenan, Kec. Mengwi, Kabupaten Badung",BALI,80351.0,Indonesia,81138312910.0,,,-8.6458152,115.1265888,https://maps.google.com/?cid=0x0:0x9e9f8c098ad0d505,
cafe,Kedai Kopi,Greenbumi Cafe,"Jl. Gulingan, Mengwitani, Kec. Mengwi, Kab. Badung, Mengwitani, Kec. Mengwi, Kabupaten Badung, Bali 80351","Mengwitani, Kec. Mengwi, Kab. Badung, Mengwitani, Kec. Mengwi, Kabupaten Badung",BALI,80351.0,Indonesia,81934300054.0,,,-8.5569929,115.1798255,https://maps.google.com/?cid=0x0:0x389815213fac629c,
cafe,Restoran,Heroic Coffee  Grill,"Gg. Buni, Mengwitani, Kec. Mengwi, Kabupaten Badung, Bali 80351","Mengwitani, Kec. Mengwi, Kabupaten Badung",BALI,80351.0,Indonesia,,,,-8.5660671,115.1734885,https://maps.google.com/?cid=0x0:0x873ebf34981bc361,
cafe,Kedai Kopi,Mustache Cafe Bali,"Jl. Raya Munggu No.21, Munggu, Kec. Mengwi, Kabupaten Badung, Bali 80351","Munggu, Kec. Mengwi, Kabupaten Badung",BALI,80351.0,Indonesia,81558867828.0,,,-8.6409877,115.1194504,https://maps.google.com/?cid=0x0:0x401be633fee24fcc,
cafe,Masakan Barat,Makoe Bali,"Jl. Raya Denpasar - Gilimanuk, Mengwitani, Kec. Mengwi, Kabupaten Badung, Bali 80351","Mengwitani, Kec. Mengwi, Kabupaten Badung",BALI,80351.0,Indonesia,8174758620.0,,,-8.5613989,115.1583305,https://maps.google.com/?cid=0x0:0x9916034fc64a56b7,
cafe,Kafe,RiZE Cafe,"Jl. Pantai Pererenan No.150, Pererenan, Kec. Mengwi, Kabupaten Badung, Bali 80351","Pererenan, Kec. Mengwi, Kabupaten Badung",BALI,80351.0,Indonesia,82311917193.0,,,-8.6486946,115.1234556,https://maps.google.com/?cid=0x0:0xcbe83a1c05a8c8b3,
cafe,Restoran,R coffee seseh,"9449+FCQ, Jl. Raya Seseh, Munggu, Kec. Mengwi, Kabupaten Badung, Bali","Kabupaten Badung, Bali",BALI,,Indonesia,,,,-8.6437902,115.1186004,https://maps.google.com/?cid=0x0:0xfafafcc778b7fa7a,
cafe,Kedai Kopi,the 9/21 coffee  roastery,"Jl. Sabag Hyang gang sekar jepun, Abianbase, Kec. Mengwi, Kabupaten Badung, Bali 80361","Abianbase, Kec. Mengwi, Kabupaten Badung",BALI,80361.0,Indonesia,85337729721.0,,,-8.5927625,115.1738866,https://maps.google.com/?cid=0x0:0xd0256f78ba7c7551,
cafe,Kafe,Karya Coffee,"Jl. Tegal Sembung, Gulingan, Kec. Mengwi, Kabupaten Badung, Bali 80351","Gulingan, Kec. Mengwi, Kabupaten Badung",BALI,80351.0,Indonesia,85156957622.0,,,-8.5474767,115.182168,https://maps.google.com/?cid=0x0:0xb414deed4d4ca755,
cafe,Vila,Moringa Cafe and Mart,"Jl. Veteran No.86, Buduk, Kec. Mengwi, Kabupaten Badung, Bali 80351","Buduk, Kec. Mengwi, Kabupaten Badung",BALI,80351.0,Indonesia,85738279888.0,,,-8.6169848,115.1500187,https://maps.google.com/?cid=0x0:0x8f12e8bf4297242b,
cafe,Jawa,Warung Bebas Jember,"Jl.raya terminal No.2, Mengwitani, Kec. Mengwi, Kabupaten Badung, Bali 80351","Mengwitani, Kec. Mengwi, Kabupaten Badung",BALI,80351.0,Indonesia,,,,-8.5602296,115.161929,https://maps.google.com/?cid=0x0:0x1c7a43d7866f44cb,
cafe,cafe,Bali 80353,"Kec. Petang, Kabupaten Badung, Bali","Kabupaten Badung, Bali",BALI,,Indonesia,,,,-8.3365862,115.2244853,https://maps.google.com/?cid=0x0:0x1c00c5eb6016be50,
cafe,Tujuan Wisata,Bali Jhon Swing and Luwak Coffee Pageh Gelang,"M68G+CW, Pelaga, Kec. Petang, Kabupaten Badung, Bali 80353","Pelaga, Kec. Petang, Kabupaten Badung",BALI,80353.0,Indonesia,85829145642.0,,,-8.3322342,115.2280747,https://maps.google.com/?cid=0x0:0x6a3df6a02fba888f,
cafe,Kafe,Bali Beans Plantation,"Belok/Sidan, Kec. Petang, Kabupaten Badung, Bali 80353","Kec. Petang, Kabupaten Badung",BALI,80353.0,Indonesia,87824505018.0,,,-8.2564276,115.2450343,https://maps.google.com/?cid=0x0:0xafc9f788b5810e97,
cafe,Pertanian,KIADAN COFFEE FARM BALI,"Jl. Raya Pura Pucak Mangu, Pelaga, Kec. Petang, Kabupaten Badung, Bali 80353","Pelaga, Kec. Petang, Kabupaten Badung",BALI,80353.0,Indonesia,87836087500.0,,,-8.2961441,115.2224817,https://maps.google.com/?cid=0x0:0x1bf325ab72e685b3,
cafe,Toko,Sariartha kopi bali,"Jl.I Gst Ngurah rai desa No.br, Pangsan, Kec. Petang, Kabupaten Badung, Bali 80353","Pangsan, Kec. Petang, Kabupaten Badung",BALI,80353.0,Indonesia,85100449387.0,,,-8.4142908,115.22207,https://maps.google.com/?cid=0x0:0x1eabad7eea2d26d,
cafe,Rumah Makan,Warung Bali Pelaga,"P64J+8CF, Jl. Catur, Pelaga, Kec. Petang, Kabupaten Badung, Bali 80353","Jl. Catur, Pelaga, Kec. Petang, Kabupaten Badung",BALI,80353.0,Indonesia,82339662484.0,,,-8.2941845,115.2310323,https://maps.google.com/?cid=0x0:0xd79515f58a88155f,
cafe,Dapur Umum,Warung D'Bishe Bali's Coffee,"J6R9+3CX, Jl. Pura Kancing Gumi, Sulangai, Kec. Petang, Kabupaten Badung, Bali 80353","Jl. Pura Kancing Gumi, Sulangai, Kec. Petang, Kabupaten Badung",BALI,80353.0,Indonesia,,,,-8.3498731,115.2150869,https://maps.google.com/?cid=0x0:0x8f316ea5b96afe88,
cafe,Makanan Siap Saji,DEPOT AFRIDA,"J6JF+FFJ, Jl. Raya Pura Pucak Mangu, Petang, Kec. Petang, Kabupaten Badung, Bali 80353","Jl. Raya Pura Pucak Mangu, Petang, Kec. Petang, Kabupaten Badung",BALI,80353.0,Indonesia,82146512558.0,,,-8.3687889,115.2236402,https://maps.google.com/?cid=0x0:0x2cde080ad84f5805,
cafe,Kedai Kopi,DRIP Coffee,"Griya Sari Permata 2, Kabupaten Badung, Bali 80353",Kabupaten Badung,BALI,80353.0,Indonesia,82145781345.0,,,-8.3365862,115.2244853,https://maps.google.com/?cid=0x0:0x1f0bfa0886b81b30,
cafe,Sulawesi Selatan,Warung Daeng Bacok,"J6HF+RM9, Jl. Raya Pura Pucak Mangu, Petang, Kec. Petang, Kabupaten Badung, Bali 80353","Jl. Raya Pura Pucak Mangu, Petang, Kec. Petang, Kabupaten Badung",BALI,80353.0,Indonesia,,,,-8.3704646,115.2242411,https://maps.google.com/?cid=0x0:0x58fdc6724df98411,
cafe,Kedai Kopi,The Lost cafe,"Jl. Baturiti Bedugul No.108A, Batunya, Kec. Baturiti, Kabupaten Tabanan, Bali 82191","Batunya, Kec. Baturiti, Kabupaten Tabanan",BALI,82191.0,Indonesia,82146269490.0,,,-8.2990648,115.1755518,https://maps.google.com/?cid=0x0:0xb24eb870cdbd1d87,
cafe,Pertanian,Sekarmukti Eco Agro,"Jl. I.GST. NGR Rai, Petang, Kec. Petang, Kabupaten Badung, Bali 80353","Petang, Kec. Petang, Kabupaten Badung",BALI,80353.0,Indonesia,87889609257.0,,,-8.406528,115.2195739,https://maps.google.com/?cid=0x0:0x38b0591b00df2bfa,
cafe,Jawa,Warung Blei_Putu (suda),"P64G+2FG, Pelaga, Kec. Petang, Kabupaten Badung, Bali 80353","Pelaga, Kec. Petang, Kabupaten Badung",BALI,80353.0,Indonesia,81805564863.0,,,-8.2949428,115.2262014,https://maps.google.com/?cid=0x0:0x411edd9ec1319306,
cafe,Kedai Kopi,Kopi Bali Arabica Badung ATP,"P65Q+QJ7, Jl. Catur, Belok/Sidan, Kec. Petang, Kabupaten Badung, Bali 80353","Jl. Catur, Belok/Sidan, Kec. Petang, Kabupaten Badung",BALI,80353.0,Indonesia,,,,-8.2904358,115.2390427,https://maps.google.com/?cid=0x0:0x96d63920c4a0e93a,
cafe,Komplek perumahan,Semanik Kopi,"P669+5CF, Pelaga, Kec. Petang, Kabupaten Badung, Bali 80353","Pelaga, Kec. Petang, Kabupaten Badung",BALI,80353.0,Indonesia,85237874543.0,,,-8.2895683,115.2185576,https://maps.google.com/?cid=0x0:0xdb4aa546b0942d19,
cafe,Restoran,Waroeng Plaga Taste,"P64J+97P, Pelaga, Kec. Petang, Kabupaten Badung, Bali","Kabupaten Badung, Bali",BALI,,Indonesia,,,,-8.2938747,115.2308676,https://maps.google.com/?cid=0x0:0xce24a5f417a66bf0,
cafe,Kedai Kopi,Khatulistiwa Kopi  Kakao,"G6XC+WHC Br.Beng, Carangsari, Kec. Petang, Kabupaten Badung, Bali 80353","Carangsari, Kec. Petang, Kabupaten Badung",BALI,80353.0,Indonesia,3618086667.0,,,-8.4501925,115.2213756,https://maps.google.com/?cid=0x0:0x66796d06ceaeb41d,
cafe,Restoran,KEDAI EJA PELAGA,"Jl. Raya Pura Pucak Mangu No.12, Pelaga, Kec. Petang, Kabupaten Badung, Bali 80353","Pelaga, Kec. Petang, Kabupaten Badung",BALI,80353.0,Indonesia,85964361962.0,,,-8.2952205,115.2245613,https://maps.google.com/?cid=0x0:0x15a17bcc1c4f1390,
cafe,cafe,WARUNG YAN WUNS,"M624+3CW, Sulangai, Kec. Petang, Kabupaten Badung, Bali 80353","Sulangai, Kec. Petang, Kabupaten Badung",BALI,80353.0,Indonesia,85852034314.0,,,-8.3491671,115.2066171,https://maps.google.com/?cid=0x0:0xfa92f4cebdf206a8,
cafe,Kedai Kopi,Caf√© Sukka Baturiti,"Jl. Raya Baturiti, Baturiti, Kec. Baturiti, Kabupaten Tabanan, Bali 82191","Baturiti, Kec. Baturiti, Kabupaten Tabanan",BALI,82191.0,Indonesia,3682301563.0,,,-8.3267362,115.1861051,https://maps.google.com/?cid=0x0:0x8fe093ba4cdda58b,
cafe,Jus,Es Teller WW,"J659+6FV, Petang, Kec. Petang, Kabupaten Badung, Bali 80353","Petang, Kec. Petang, Kabupaten Badung",BALI,80353.0,Indonesia,82144640565.0,,,-8.3918812,115.2186707,https://maps.google.com/?cid=0x0:0x2747fb9fe2dcb0fc,
cafe,Brunch,Warung Listia,"M69F+MJG, Jl. Raya Pura Pucak Mangu, Pelaga, Kec. Petang, Kabupaten Badung, Bali 80353","Jl. Raya Pura Pucak Mangu, Pelaga, Kec. Petang, Kabupaten Badung",BALI,80353.0,Indonesia,83119005886.0,,,-8.3308238,115.2240635,https://maps.google.com/?cid=0x0:0x7050ba7edd26ad7a,
cafe,Kedai Kopi,Petang Cafe Gallery,"Jl. Meruya Ilir Raya No.25, RT.1/RW.5, Meruya Utara, Kec. Kembangan, Kota Jakarta Barat, Daerah Khusus Ibukota Jakarta 11630","RT.1/RW.5, Meruya Utara, Kec. Kembangan, Kota Jakarta Barat",BALI,11630.0,Indonesia,895619418378.0,,,-6.1982423,106.7589015,https://maps.google.com/?cid=0x0:0xa323879896865c3e,
cafe,Kedai Kopi,Warkop Pagi Petang,"CRWC+MVC, RT.03/RW.04, Cibuluh, Kec. Bogor Utara, Kota Bogor, Jawa Barat 16151","RT.03/RW.04, Cibuluh, Kec. Bogor Utara, Kota Bogor",BALI,16151.0,Indonesia,,,,-6.5546519,106.8220006,https://maps.google.com/?cid=0x0:0x8ffd81d235287a9b,
cafe,Kafe,NGOPI PETANG,"Jl. Musyawarah b No.2, Serua, Kec. Ciputat, Kota Tangerang Selatan, Banten 15414","Serua, Kec. Ciputat, Kota Tangerang Selatan",BALI,15414.0,Indonesia,,,,-6.3153007,106.7127086,https://maps.google.com/?cid=0x0:0x72806ddb811700a4,
cafe,Kafe,di Pagi Petang Food  Beverage - Depok,"Jl Raya Pekapuran RT 001/002 No 44, Sukatani, Kec. Tapos, Kota Depok, Jawa Barat","Kota Depok, Jawa Barat",BALI,,Indonesia,81323961824.0,,,-6.3973947,106.8759824,https://maps.google.com/?cid=0x0:0xea6b0e84cc27ed11,
