Category,Real Category,Business Name,Address,City,State,Postal Code,Country,Phone,Email,Website,Latitude,Longitude,Map Link,Details Link
building materials,building materials,Bali 80352,"Abiansemal, Kec. Abiansemal, Kabupaten Badung, Bali","Kabupaten Badung, Bali",BALI,,Indonesia,,,,-8.5584335,115.2244853,https://maps.google.com/?cid=0x0:0x1c00c5eb6016be40,
building materials,Toko Bahan Bangunan,UD. Surya Jaya Bangunan,"Jl. Raya Angantaka - Sibang Gede, Sedang, Kec. Abiansemal, Kabupaten Badung, Bali 80352","Sedang, Kec. Abiansemal, Kabupaten Badung",BALI,80352.0,Indonesia,87860331710.0,,,-8.5796852,115.2353893,https://maps.google.com/?cid=0x0:0x7f30301e5f1d7c9c,
building materials,Toko Bahan Bangunan,Nila Sari,"C6MR+J38, Jalan Batur Banjar Kauripan, Sedang, Kec. Abiansemal, Kabupaten Badung, Bali 80352","Jalan Batur Banjar Kauripan, Sedang, Kec. Abiansemal, Kabupaten Badung",BALI,80352.0,Indonesia,8123680668.0,,,-8.565966,115.2402058,https://maps.google.com/?cid=0x0:0xdc9b3703fa04b811,
building materials,Toko Bahan Bangunan,TB Mutiara Abadi,"Jl. Darmasaba Permai V No.C68, Darmasaba, Kec. Abiansemal, Kabupaten Badung, Bali 80352","Darmasaba, Kec. Abiansemal, Kabupaten Badung",BALI,80352.0,Indonesia,3618441503.0,,,-8.5854819,115.2131526,https://maps.google.com/?cid=0x0:0x3ed8abc08e8dd588,
building materials,building materials,UD.JAYA BANGUN MATRIAL DEWATA,"C6Q9+WGP, Sibang Kaja, Kec. Abiansemal, Kabupaten Badung, Bali 80352","Sibang Kaja, Kec. Abiansemal, Kabupaten Badung",BALI,80352.0,Indonesia,85809110931.0,,,-8.5601625,115.2188281,https://maps.google.com/?cid=0x0:0x6516cb8b8673ca11,
building materials,Toko Bahan Bangunan,Toko Delapan Satu,"Jl. Raya Krasan No.66, Sedang, Kec. Abiansemal, Kabupaten Badung, Bali 80352","Sedang, Kec. Abiansemal, Kabupaten Badung",BALI,80352.0,Indonesia,361460176.0,,,-8.56173,115.2344957,https://maps.google.com/?cid=0x0:0xfea13eb414cf3d7f,
building materials,Toko Bahan Bangunan,Blumbungan. CV,"C6QM+9QF, Jl. Raya Krasan, Sedang, Kec. Abiansemal, Kabupaten Badung, Bali 80352","Jl. Raya Krasan, Sedang, Kec. Abiansemal, Kabupaten Badung",BALI,80352.0,Indonesia,361460176.0,,,-8.5615696,115.2344158,https://maps.google.com/?cid=0x0:0x90a75126bdf727cc,
building materials,Toko Bahan Bangunan,TB ARTA SARANA,"Jl. Tanah Ayu, blumbungan, Sibang Gede, Kec. Abiansemal, Kabupaten Badung, Bali 80352","blumbungan, Sibang Gede, Kec. Abiansemal, Kabupaten Badung",BALI,80352.0,Indonesia,85383000300.0,,,-8.5725842,115.2109615,https://maps.google.com/?cid=0x0:0xcea3f56facdebfa9,
building materials,Toko Bahan Bangunan,anugerah warna,"Jl. Raya Abiansemal No.21, Abiansemal, Kec. Abiansemal, Kabupaten Badung, Bali 80352","Abiansemal, Kec. Abiansemal, Kabupaten Badung",BALI,80352.0,Indonesia,81916501618.0,,,-8.5306947,115.2042719,https://maps.google.com/?cid=0x0:0x91c334c2dbedc687,
building materials,Toko Bahan Bangunan,UD. Puri Indah,"Jl. Raya Abiansemal No.21, Abiansemal, Kec. Abiansemal, Kabupaten Badung, Bali 80352","Abiansemal, Kec. Abiansemal, Kabupaten Badung",BALI,80352.0,Indonesia,85100428775.0,,,-8.5272429,115.2120746,https://maps.google.com/?cid=0x0:0xca2c8d30f5e005b1,
building materials,Toko Bahan Bangunan,DEPO WIRA-HD/PT.CATUR PUTRI MANDIRI JAYA,"Jl. Raya Gerih, Sibang Kaja, Kec. Abiansemal, Kabupaten Badung, Bali 80352","Sibang Kaja, Kec. Abiansemal, Kabupaten Badung",BALI,80352.0,Indonesia,877523370737.0,,,-8.5684539,115.2099929,https://maps.google.com/?cid=0x0:0x665a266d22ebb8d3,
building materials,Toko Bahan Bangunan,Cv candi bali,"No Jl. Raya Sayan No.53, Sayan, Kecamatan Ubud, Kabupaten Gianyar, Bali 80571","Sayan, Kecamatan Ubud, Kabupaten Gianyar",BALI,80571.0,Indonesia,87862427163.0,,,-8.5065631,115.2422231,https://maps.google.com/?cid=0x0:0x353fbbc9d3f83b9e,
building materials,Toko Bahan Bangunan,UD. Sari Yasa,"F6H5+MVC, Jl. Ciung Wanara, Abiansemal, Kec. Abiansemal, Kabupaten Badung, Bali 80352","Jl. Ciung Wanara, Abiansemal, Kec. Abiansemal, Kabupaten Badung",BALI,80352.0,Indonesia,81353195010.0,,,-8.5208076,115.209641,https://maps.google.com/?cid=0x0:0x984915a7de92b981,
building materials,Toko Bunga,Toko Kembang Sari,"Jl. Ciung Wanara No.168, Blahkiuh, Kec. Abiansemal, Kabupaten Badung, Bali 80352","Blahkiuh, Kec. Abiansemal, Kabupaten Badung",BALI,80352.0,Indonesia,87773785215.0,,,-8.5058763,115.2102882,https://maps.google.com/?cid=0x0:0xb8a3571d8b229f1d,
building materials,Toko Bahan Bangunan,UD Saren Bali,"Jalan Menuri, Darmasaba, Abiansemal, Kabupaten Badung, Bali 80115, Darmasaba, Kec. Abiansemal, Kabupaten Badung, Bali 80352","Darmasaba, Abiansemal, Kabupaten Badung, Bali",BALI,80115.0,Indonesia,85737264757.0,,,-8.5978033,115.2090625,https://maps.google.com/?cid=0x0:0x42658c29b755d47f,
building materials,Toko Bahan Bangunan,UD Wisnu Karya,"C57X+R36, Jalan Raya, Darmasaba, Kec. Abiansemal, Kabupaten Badung, Bali 80352","Jalan Raya, Darmasaba, Kec. Abiansemal, Kabupaten Badung",BALI,80352.0,Indonesia,82147585658.0,,,-8.5854646,115.1976485,https://maps.google.com/?cid=0x0:0xfb2948518709ddb,
building materials,Toko Bahan Bangunan,UD Adi Jaya,"F6G5+48M, Jl. Janger, Dauh Yeh Cani, Kec. Abiansemal, Kabupaten Badung, Bali 80352","Jl. Janger, Dauh Yeh Cani, Kec. Abiansemal, Kabupaten Badung",BALI,80352.0,Indonesia,3618943322.0,,,-8.5246512,115.2082945,https://maps.google.com/?cid=0x0:0xfeb52ee46d73b9a8,
building materials,Toko Bahan Bangunan,Artha Guna Bangunan,"Jl. Raya Darmasaba, Darmasaba, Kec. Abiansemal, Kabupaten Badung, Bali 80352","Darmasaba, Kec. Abiansemal, Kabupaten Badung",BALI,80352.0,Indonesia,81916641657.0,,,-8.5926014,115.2154335,https://maps.google.com/?cid=0x0:0xa39001bf799f0221,
building materials,Toko Bahan Bangunan,TOKO TB De'bon,"F6G2+GMF, Unnamed Road, Dauh Yeh Cani, Kec. Abiansemal, Kabupaten Badung, Bali 80352","Unnamed Road, Dauh Yeh Cani, Kec. Abiansemal, Kabupaten Badung",BALI,80352.0,Indonesia,81335123123.0,,,-8.5236787,115.2016631,https://maps.google.com/?cid=0x0:0xaa2b8819159f3829,
building materials,Pasar bahan bangunan,UD. Putra Dandan Jaya 2,"Jl. Raya Krasan No.16, Sedang, Kec. Abiansemal, Kabupaten Badung, Bali 80352","Sedang, Kec. Abiansemal, Kabupaten Badung",BALI,80352.0,Indonesia,82144032111.0,,,-8.5666241,115.2346072,https://maps.google.com/?cid=0x0:0xfc7e9b0d886d753d,
building materials,Toko Bahan Bangunan,Toko Bangunan Mutiara K3,"Jl. Ciung Wanara, Sangeh, Kec. Abiansemal, Kabupaten Badung, Bali 80352","Sangeh, Kec. Abiansemal, Kabupaten Badung",BALI,80352.0,Indonesia,,,,-8.5019072,115.2100904,https://maps.google.com/?cid=0x0:0x475c101f276f99c0,
building materials,Toko Bahan Bangunan,Toko Manuarta,"F6VJ+G32, Jl. Raya Pengembungan, Bongkasa, Kec. Abiansemal, Kabupaten Badung, Bali 80352","Jl. Raya Pengembungan, Bongkasa, Kec. Abiansemal, Kabupaten Badung",BALI,80352.0,Indonesia,,,,-8.5062495,115.2301406,https://maps.google.com/?cid=0x0:0xb7aeacdb63f0ca26,
building materials,Toko Bahan Bangunan,Toko UD Wira Jaya,"Jl. Ciung Wanara, Blahkiuh, Kec. Abiansemal, Kabupaten Badung, Bali 80352","Blahkiuh, Kec. Abiansemal, Kabupaten Badung",BALI,80352.0,Indonesia,81237666226.0,,,-8.4979956,115.2095848,https://maps.google.com/?cid=0x0:0xe97f06b00ec35b50,
building materials,building materials,Abiansemal,"Kec. Abiansemal, Kabupaten Badung, Bali","Kabupaten Badung, Bali",BALI,,Indonesia,,,,-8.5646342,115.2206964,https://maps.google.com/?cid=0x0:0x4030bfbca7d2bf0,
building materials,Toko Bahan Bangunan,TB Iswara Graha,"G62P+3MR, Jl. Tanggayuda, Bongkasa, Kec. Abiansemal, Kabupaten Badung, Bali 80352","Jl. Tanggayuda, Bongkasa, Kec. Abiansemal, Kabupaten Badung",BALI,80352.0,Indonesia,8123977489.0,,,-8.4997746,115.2366352,https://maps.google.com/?cid=0x0:0xd659ddac16ca001d,
building materials,Toko Bahan Bangunan,Gudang UD Wirajaya 1,"F6R7+CRR, Jl. Kalianget, Blahkiuh, Kec. Abiansemal, Kabupaten Badung, Bali 80352","Jl. Kalianget, Blahkiuh, Kec. Abiansemal, Kabupaten Badung",BALI,80352.0,Indonesia,81936221012.0,,,-8.5088919,115.2145011,https://maps.google.com/?cid=0x0:0x48d7f8beea729546,
building materials,Toko Bahan Bangunan,CV. Dalem Sangeh,"Jl. Ciung Wanara No.25, Sangeh, Kec. Abiansemal, Kabupaten Badung, Bali 80352","Sangeh, Kec. Abiansemal, Kabupaten Badung",BALI,80352.0,Indonesia,,,,-8.4892068,115.2099528,https://maps.google.com/?cid=0x0:0xefa0ad677c0e8974,
building materials,building materials,Kuta,"Kec. Kuta, Kabupaten Badung, Bali","Kabupaten Badung, Bali",BALI,,Indonesia,,,,-8.7237964,115.1752277,https://maps.google.com/?cid=0x0:0x4030bfbca7d2c00,
building materials,Toko Bahan Bangunan,Mekar Abadi Bangunan,"Jl. Bypass Ngurah Rai No.777, Jimbaran, Kec. Kuta Sel., Kabupaten Badung, Bali 80361","Jimbaran, Kec. Kuta Sel., Kabupaten Badung",BALI,80361.0,Indonesia,361705432.0,,,-8.7711655,115.1781008,https://maps.google.com/?cid=0x0:0x520fefd585a03977,
building materials,Toko Perlengkapan Rumah,MR. DIY Central Kuta,"Ruko Central Kuta, Jl. Patih Jelantik, Komp. Istana Kuta Galeria No.19, Kuta, Badung Regency, Bali 80361","Jl. Patih Jelantik, Komp. Istana Kuta Galeria No.19, Kuta, Badung Regency",BALI,80361.0,Indonesia,2130022789.0,,,-8.7121629,115.1803466,https://maps.google.com/?cid=0x0:0xb5fe953e1eb22628,
building materials,Toko Bahan Bangunan,Toko Bangunan Sari Kembang,"Jl. Toyaning No.5, Kedonganan, Kec. Kuta, Kabupaten Badung, Bali 80361","Kedonganan, Kec. Kuta, Kabupaten Badung",BALI,80361.0,Indonesia,85103474555.0,,,-8.7609644,115.1778617,https://maps.google.com/?cid=0x0:0x6867de01e7ecf1a8,
building materials,Toko Bahan Bangunan,Toko Bangunan Sri Sedana Kuta,"75GG+PJH, Jl. Raya, Kuta, Kec. Kuta, Kabupaten Badung, Bali 80361","Jl. Raya, Kuta, Kec. Kuta, Kabupaten Badung",BALI,80361.0,Indonesia,82164640099.0,,,-8.723192,115.1765998,https://maps.google.com/?cid=0x0:0xc6e913ea8fe3603c,
building materials,Toko Bahan Bangunan,UD. Kuta Mas,"Jl. Raya Kuta No.88, Kuta, Kec. Kuta, Kabupaten Badung, Bali 80361","Kuta, Kec. Kuta, Kabupaten Badung",BALI,80361.0,Indonesia,361761819.0,,,-8.7181815,115.1812436,https://maps.google.com/?cid=0x0:0xec69b0d2718a6c06,
building materials,Toko Bahan Bangunan,UD. Santoso,"Jl. Raya Kuta No.115, Kuta, Kec. Kuta, Kabupaten Badung, Bali 80361","Kuta, Kec. Kuta, Kabupaten Badung",BALI,80361.0,Indonesia,82257963199.0,,,-8.722346,115.1784519,https://maps.google.com/?cid=0x0:0xa3dbde089ceeed04,
building materials,Toko Bahan Bangunan,New Pasir Mas,"Jl. Raya Uluwatu No.34, Kedonganan, Kec. Kuta, Kabupaten Badung, Bali 80361","Kedonganan, Kec. Kuta, Kabupaten Badung",BALI,80361.0,Indonesia,8123899368.0,,,-8.7614311,115.1756834,https://maps.google.com/?cid=0x0:0x4136f55996128658,
building materials,Toko Bahan Bangunan,Toko Bahan Bangunan Dewa Bratha,"Jalan Raya, Kuta, Badung Regency, Bali 80361","Kuta, Badung Regency",BALI,80361.0,Indonesia,81933090966.0,,,-8.724797,115.1767877,https://maps.google.com/?cid=0x0:0x210c742969ad0388,
building materials,Toko Bahan Bangunan,BUILDING HARDWARE SOLUTION BALI,"Jl. Mahendradatta Selatan No.178, Padangsambian, Kec. Denpasar Bar., Kota Denpasar, Bali 80119","Padangsambian, Kec. Denpasar Bar., Kota Denpasar",BALI,80119.0,Indonesia,85783003968.0,,,-8.6830927,115.1886271,https://maps.google.com/?cid=0x0:0xd38ca0642e6459d2,
building materials,Toko Bahan Bangunan,UD. Mega Jaya (Toko Bangunan),"Jl. Raya Kuta No.78x, Kuta, Kec. Kuta, Kabupaten Badung, Bali 80361","Kuta, Kec. Kuta, Kabupaten Badung",BALI,80361.0,Indonesia,361753760.0,,,-8.7315333,115.177566,https://maps.google.com/?cid=0x0:0xb243112c5645c439,
building materials,Toko Bahan Bangunan,Atlantic Hardware Store,"Jl. Sunset Road No.65 A, Legian, Kec. Kuta, Kabupaten Badung, Bali 80361","Legian, Kec. Kuta, Kabupaten Badung",BALI,80361.0,Indonesia,81239673975.0,,,-8.7050249,115.1820732,https://maps.google.com/?cid=0x0:0x181fc03fafedc4a2,
building materials,Toko Bahan Bangunan,TOKO 2 DARA ABADI BANGUNAN,"Jl. Kubu Anyar No.22, Kuta, Kec. Kuta, Kabupaten Badung, Bali 80361","Kuta, Kec. Kuta, Kabupaten Badung",BALI,80361.0,Indonesia,361757422.0,,,-8.7291484,115.1727313,https://maps.google.com/?cid=0x0:0xa3ed648699af7e0a,
building materials,Kontraktor Lantai,ecoSmart HUB,"Jl. Sunset Road No.1, Kuta, Bali, Kabupaten Badung, Bali 80361","Kuta, Bali, Kabupaten Badung",BALI,80361.0,Indonesia,361752133.0,,,-8.720357,115.1831573,https://maps.google.com/?cid=0x0:0x9c674cbd1236837f,
building materials,Toko Bahan Bangunan,Toko Karya Harja,"Jl. Kediri No.43, Kuta, Kec. Kuta, Kabupaten Badung, Bali 80361","Kuta, Kec. Kuta, Kabupaten Badung",BALI,80361.0,Indonesia,81292899820.0,,,-8.7387499,115.1723169,https://maps.google.com/?cid=0x0:0x7ac6fd372e8aa383,
building materials,Pemasok Bahan Bangunan,Duta Anugerah Bangunan,"Jl. Nakula No.11, Pemecutan Klod, Kec. Denpasar Bar., Kota Denpasar, Bali 80119","Pemecutan Klod, Kec. Denpasar Bar., Kota Denpasar",BALI,80119.0,Indonesia,82145099676.0,,,-8.7001555,115.1836053,https://maps.google.com/?cid=0x0:0x293e07a01c1ef865,
building materials,Pasar bahan bangunan,Toko Bangunan Bali Terlengkap - Mitra10 Bypass,"Jl. Bypass Ngurah Rai No.840-842, Pedungan, Denpasar Selatan, Kota Denpasar, Bali 80221","Pedungan, Denpasar Selatan, Kota Denpasar",BALI,80221.0,Indonesia,,,,-8.7203774,115.1954387,https://maps.google.com/?cid=0x0:0x23461395016b0860,
building materials,Toko Bahan Bangunan,Mitra Jaya,"Jl. Majapahit No.108, Legian, Kec. Kuta, Kabupaten Badung, Bali 80361","Legian, Kec. Kuta, Kabupaten Badung",BALI,80361.0,Indonesia,82115906558.0,,,-8.711387,115.1770325,https://maps.google.com/?cid=0x0:0x9ab297ccabaf1155,
building materials,Toko Bahan Bangunan,Suri Mas UD.,"Jl. Raya Kuta No.99X, Kuta, Kec. Kuta, Kabupaten Badung, Bali 80361","Kuta, Kec. Kuta, Kabupaten Badung",BALI,80361.0,Indonesia,361751539.0,,,-8.7286153,115.1772059,https://maps.google.com/?cid=0x0:0x485c8734473b39b1,
building materials,Toko Bahan Bangunan,Toko Bangunan Wardani,"No Jl. Raya Tuban No.85X, Tuban, Kec. Kuta, Kabupaten Badung, Bali 80361","Tuban, Kec. Kuta, Kabupaten Badung",BALI,80361.0,Indonesia,82186585910.0,,,-8.7402894,115.1787482,https://maps.google.com/?cid=0x0:0x491b39cfc4b5f9bf,
building materials,Toko Bahan Bangunan,toko bangunan ud. ron-ron,"8588+7PJ, Jl. Raya Taman, Seminyak, Kec. Kuta, Kabupaten Badung, Bali 80361","Jl. Raya Taman, Seminyak, Kec. Kuta, Kabupaten Badung",BALI,80361.0,Indonesia,81916232220.0,,,-8.6843075,115.1668041,https://maps.google.com/?cid=0x0:0x32edbb68b8e470e5,
building materials,Toko Bahan Bangunan,Ud Surapati Mas (new),"Jl. Dewi Sri IV No.57, Legian, Kec. Kuta, Kabupaten Badung, Bali 80361","Legian, Kec. Kuta, Kabupaten Badung",BALI,80361.0,Indonesia,81916249819.0,,,-8.7012552,115.174438,https://maps.google.com/?cid=0x0:0x3fa4f652b5da160f,
building materials,Toko Bahan Bangunan,Toko Bangunan MERTA SARI,"Jl. Kuruksetra No.51, Benoa, Kec. Kuta Sel., Kabupaten Badung, Bali 80361","Benoa, Kec. Kuta Sel., Kabupaten Badung",BALI,80361.0,Indonesia,81805624456.0,,,-8.8001744,115.2162498,https://maps.google.com/?cid=0x0:0x5409999d662dd146,
building materials,building materials,Bali 80361,"Kec. Kuta Sel., Kabupaten Badung, Bali","Kabupaten Badung, Bali",BALI,,Indonesia,,,,-8.7953431,115.1652008,https://maps.google.com/?cid=0x0:0x1c00c5eb6016be60,
building materials,Toko Bahan Bangunan,Toko Bangunan MERTA SARI,"Jl. Kuruksetra No.51, Benoa, Kec. Kuta Sel., Kabupaten Badung, Bali 80361","Benoa, Kec. Kuta Sel., Kabupaten Badung",BALI,80361.0,Indonesia,81805624456.0,,,-8.8001744,115.2162498,https://maps.google.com/?cid=0x0:0x5409999d662dd146,
building materials,Toko Bahan Bangunan,Toko Bangunan Jimbaran Baru,"Jl. Bypass Ngurah Rai No.25x, Jimbaran, Kec. Kuta Sel., Kabupaten Badung, Bali 80361","Jimbaran, Kec. Kuta Sel., Kabupaten Badung",BALI,80361.0,Indonesia,895366567535.0,,,-8.7842513,115.1913182,https://maps.google.com/?cid=0x0:0xe8893974142c658e,
building materials,Toko Bahan Bangunan,Adhi Putra Bangunan (JOTUN),"Ungasan, Kec. Kuta Sel., Kabupaten Badung, Bali 80361","Kec. Kuta Sel., Kabupaten Badung",BALI,80361.0,Indonesia,81333704111.0,,,-8.8152016,115.1562145,https://maps.google.com/?cid=0x0:0x2fecc01ac8eff5b8,
building materials,Toko Bahan Bangunan,Mekar Abadi Bangunan,"Jl. Bypass Ngurah Rai No.777, Jimbaran, Kec. Kuta Sel., Kabupaten Badung, Bali 80361","Jimbaran, Kec. Kuta Sel., Kabupaten Badung",BALI,80361.0,Indonesia,361705432.0,,,-8.7711655,115.1781008,https://maps.google.com/?cid=0x0:0x520fefd585a03977,
building materials,Toko Bahan Bangunan,Unud Jaya Bangunan (UJB) Jimbaran Bali,"Jl. Raya Kampus Unud, Jimbaran, Kec. Kuta Sel., Kabupaten Badung, Bali 80361","Jimbaran, Kec. Kuta Sel., Kabupaten Badung",BALI,80361.0,Indonesia,,,,-8.7940929,115.1764836,https://maps.google.com/?cid=0x0:0x6291104a343deec1,
building materials,Toko Bahan Bangunan,BUILDING HARDWARE SOLUTION BALI,"Jl. Mahendradatta Selatan No.178, Padangsambian, Kec. Denpasar Bar., Kota Denpasar, Bali 80119","Padangsambian, Kec. Denpasar Bar., Kota Denpasar",BALI,80119.0,Indonesia,85783003968.0,,,-8.6830927,115.1886271,https://maps.google.com/?cid=0x0:0xd38ca0642e6459d2,
building materials,Toko Bahan Bangunan,Bali Building Solutions,"Jl. Padang Udayana No.1, Padangsambian, Kec. Denpasar Bar., Kota Denpasar, Bali 80118","Padangsambian, Kec. Denpasar Bar., Kota Denpasar",BALI,80118.0,Indonesia,8113810033.0,,,-8.651246,115.1898701,https://maps.google.com/?cid=0x0:0xca57bc43f4a5c674,
building materials,Toko Bahan Bangunan,Bali Mitra Jaya,"perum Jl. Puri Gading No.18, Jimbaran, South Kuta, Badung Regency, Bali 80361","Jimbaran, South Kuta, Badung Regency",BALI,80361.0,Indonesia,85102831117.0,,,-8.8032858,115.1545152,https://maps.google.com/?cid=0x0:0x67024e3fb78bd2d,
building materials,Toko Bahan Bangunan,Bali Pasir Mas,"Jl. Uluwatu II No.100, Jimbaran, Kec. Kuta Sel., Kabupaten Badung, Bali 80361","Jimbaran, Kec. Kuta Sel., Kabupaten Badung",BALI,80361.0,Indonesia,87762601298.0,,,-8.7838371,115.1719526,https://maps.google.com/?cid=0x0:0xc080e1217ab47968,
building materials,Toko Bahan Bangunan,TOKO TRUS,"Jl. Nuansa Utama Sel., Benoa, Kec. Kuta Sel., Kabupaten Badung, Bali 80361","Benoa, Kec. Kuta Sel., Kabupaten Badung",BALI,80361.0,Indonesia,85858911338.0,,,-8.8010087,115.1849633,https://maps.google.com/?cid=0x0:0xd1b6652271934470,
building materials,Toko Bahan Bangunan,Toko Bangunan Mitra Jaya,"Jl. By Pass Ngurah Rai No. 88x, Nusa Dua, Kuta Selatan, Benoa, South Kuta, Badung Regency, Bali 82363","Nusa Dua, Kuta Selatan, Benoa, South Kuta, Badung Regency",BALI,82363.0,Indonesia,,,,-8.7886429,115.2089751,https://maps.google.com/?cid=0x0:0xd44b775bdf1ebe53,
building materials,Toko Bahan Bangunan,PUTRA LESTARI,"Jl. Raya Uluwatu No.83, Ungasan, Kec. Kuta Sel., Kabupaten Badung, Bali 80361","Ungasan, Kec. Kuta Sel., Kabupaten Badung",BALI,80361.0,Indonesia,82144101777.0,,,-8.8171715,115.154488,https://maps.google.com/?cid=0x0:0x4ccd910ca9254d03,
building materials,Toko Bahan Bangunan,Toko Dharma Abadi Bangunan,"19 Jalan Pratama Gang Pendidikan, Benoa, Kec. Kuta Sel., Kabupaten Badung, Bali 80361","Benoa, Kec. Kuta Sel., Kabupaten Badung",BALI,80361.0,Indonesia,83160960400.0,,,-8.779129,115.22199,https://maps.google.com/?cid=0x0:0xbc76b461f67b7d02,
building materials,Toko Bahan Bangunan,Muda Sejahtera Toko Bangunan,"55FM+Q7H, Jl. Dharmawangsa Gg. Jalak Putih, Kutuh, Kec. Kuta Sel., Kabupaten Badung, Bali 80361","Jl. Dharmawangsa Gg. Jalak Putih, Kutuh, Kec. Kuta Sel., Kabupaten Badung",BALI,80361.0,Indonesia,85167599087.0,,,-8.825559,115.1832252,https://maps.google.com/?cid=0x0:0x41b138e70a0acf00,
building materials,Toko Bahan Bangunan,NIRMALA BANGUNAN 1,"Jl. Uluwatu II No.10, Jimbaran, Kec. Kuta Sel., Kabupaten Badung, Bali 80361","Jimbaran, Kec. Kuta Sel., Kabupaten Badung",BALI,80361.0,Indonesia,82144584842.0,,,-8.7817553,115.1742951,https://maps.google.com/?cid=0x0:0x8a7d5b30aeb42a28,
building materials,Toko Bahan Bangunan,SN Bangunan,"Jl. Tengah II, Kerobokan, Kec. Kuta Utara, Kabupaten Badung, Bali 80361","Kerobokan, Kec. Kuta Utara, Kabupaten Badung",BALI,80361.0,Indonesia,81337572288.0,,,-8.6474097,115.159791,https://maps.google.com/?cid=0x0:0x4aec7a4b24fb9d36,
building materials,Toko Bahan Bangunan,TOKO CIPTA BANGUNAN,"Jl. Bypass Ngurah Rai No.89, Jimbaran, Kec. Kuta Sel., Kabupaten Badung, Bali 80361","Jimbaran, Kec. Kuta Sel., Kabupaten Badung",BALI,80361.0,Indonesia,81139416078.0,,,-8.7842374,115.1899083,https://maps.google.com/?cid=0x0:0xd4a7ff133658b55e,
building materials,Toko Kayu,"Sukses jaya supplier bambu , kayu , triplek ,dll","Jimbaran - Uluwatu No.88, Pecatu, Kec. Kuta Sel., Kabupaten Badung, Bali 80361","Pecatu, Kec. Kuta Sel., Kabupaten Badung",BALI,80361.0,Indonesia,82145551616.0,,,-8.8363789,115.1190534,https://maps.google.com/?cid=0x0:0xfca3837ce6739e79,
building materials,Toko Bahan Bangunan,Ud. Indah Karya,"I, Jl. Raya Uluwatu No.26, Jimbaran, Kec. Kuta Sel., Kabupaten Badung, Bali 80361","Jl. Raya Uluwatu No.26, Jimbaran, Kec. Kuta Sel., Kabupaten Badung",BALI,80361.0,Indonesia,361701348.0,,,-8.7721985,115.1734764,https://maps.google.com/?cid=0x0:0x8e8b7fb7f719d664,
building materials,Toko Bahan Bangunan,Ud ABIAN OJA ( material building ),"Jl. Raya Canggu No.55x, Kerobokan, Kec. Kuta Utara, Kabupaten Badung, Bali 80361","Kerobokan, Kec. Kuta Utara, Kabupaten Badung",BALI,80361.0,Indonesia,8161999912.0,,,-8.6467292,115.1673449,https://maps.google.com/?cid=0x0:0xe4a0775b32eedf17,
building materials,Toko Bahan Bangunan,UD Surapati Mas,"85H7+VW8, Jl. Raya Kerobokan, Kerobokan Kelod, Kec. Kuta, Kabupaten Badung, Bali 80361","Jl. Raya Kerobokan, Kerobokan Kelod, Kec. Kuta, Kabupaten Badung",BALI,80361.0,Indonesia,,,,-8.670339,115.164814,https://maps.google.com/?cid=0x0:0x9dabc8549f28855c,
building materials,Toko Bahan Bangunan,toko bangunan ud. ron-ron,"8588+7PJ, Jl. Raya Taman, Seminyak, Kec. Kuta, Kabupaten Badung, Bali 80361","Jl. Raya Taman, Seminyak, Kec. Kuta, Kabupaten Badung",BALI,80361.0,Indonesia,81916232220.0,,,-8.6843075,115.1668041,https://maps.google.com/?cid=0x0:0x32edbb68b8e470e5,
building materials,Toko Bahan Bangunan,Sari Pramana Bangunan,"Jl. Kendedes No.57, Ungasan, Kec. Kuta Sel., Kabupaten Badung, Bali 80361","Ungasan, Kec. Kuta Sel., Kabupaten Badung",BALI,80361.0,Indonesia,859106961557.0,,,-8.8271563,115.1626185,https://maps.google.com/?cid=0x0:0x649e20ae748ad00,
building materials,Toko Bahan Bangunan,Khrisna 9 Building Material,"Jl. Raya Buduk No.15, Dalung, Kec. Kuta Utara, Kabupaten Badung, Bali 80351","Dalung, Kec. Kuta Utara, Kabupaten Badung",BALI,80351.0,Indonesia,,,,-8.6074166,115.1704513,https://maps.google.com/?cid=0x0:0xd045be6ec1d7c356,
building materials,building materials,Bali 80361,"Kec. Kuta Sel., Kabupaten Badung, Bali","Kabupaten Badung, Bali",BALI,,Indonesia,,,,-8.7953431,115.1652008,https://maps.google.com/?cid=0x0:0x1c00c5eb6016be60,
building materials,Toko Bahan Bangunan,Karya Utama,"Jl. Raya Canggu No.72, Kerobokan, Kec. Kuta Utara, Kabupaten Badung, Bali 80361","Kerobokan, Kec. Kuta Utara, Kabupaten Badung",BALI,80361.0,Indonesia,85100424366.0,,,-8.6408577,115.1536703,https://maps.google.com/?cid=0x0:0xf0e4668697df057f,
building materials,Toko Bahan Bangunan,Ud ABIAN OJA ( material building ),"Jl. Raya Canggu No.55x, Kerobokan, Kec. Kuta Utara, Kabupaten Badung, Bali 80361","Kerobokan, Kec. Kuta Utara, Kabupaten Badung",BALI,80361.0,Indonesia,8161999912.0,,,-8.6467292,115.1673449,https://maps.google.com/?cid=0x0:0xe4a0775b32eedf17,
building materials,Toko Bahan Bangunan,Toko Bangunan Berkat Padonan,"Jl. Raya Padonan No.48C, Tibubeneng, Kec. Kuta Utara, Kabupaten Badung, Bali 80361","Tibubeneng, Kec. Kuta Utara, Kabupaten Badung",BALI,80361.0,Indonesia,81239214036.0,,,-8.6368552,115.1585952,https://maps.google.com/?cid=0x0:0x5d680a282d6b971b,
building materials,Toko Bahan Bangunan,Khrisna 9 Building Material,"Jl. Raya Buduk No.15, Dalung, Kec. Kuta Utara, Kabupaten Badung, Bali 80351","Dalung, Kec. Kuta Utara, Kabupaten Badung",BALI,80351.0,Indonesia,,,,-8.6074166,115.1704513,https://maps.google.com/?cid=0x0:0xd045be6ec1d7c356,
building materials,Toko Bahan Bangunan,Toko Bangunan Sri Sedana Kuta,"75GG+PJH, Jl. Raya, Kuta, Kec. Kuta, Kabupaten Badung, Bali 80361","Jl. Raya, Kuta, Kec. Kuta, Kabupaten Badung",BALI,80361.0,Indonesia,82164640099.0,,,-8.723192,115.1765998,https://maps.google.com/?cid=0x0:0xc6e913ea8fe3603c,
building materials,Toko Bahan Bangunan,Bali Building Solutions,"Jl. Padang Udayana No.1, Padangsambian, Kec. Denpasar Bar., Kota Denpasar, Bali 80118","Padangsambian, Kec. Denpasar Bar., Kota Denpasar",BALI,80118.0,Indonesia,8113810033.0,,,-8.651246,115.1898701,https://maps.google.com/?cid=0x0:0xca57bc43f4a5c674,
building materials,Toko Bahan Bangunan,Toko Bangunan Ud.K3,"Perum Bumi, Jl. Perum Dalung Permai No.11 - 14 Blok K3, Kerobokan Kaja, Kec. Kuta Utara, Kabupaten Badung, Bali 80361","Jl. Perum Dalung Permai No.11 - 14 Blok K3, Kerobokan Kaja, Kec. Kuta Utara, Kabupaten Badung",BALI,80361.0,Indonesia,81236004173.0,,,-8.6320337,115.1700266,https://maps.google.com/?cid=0x0:0xd0bde3d5db4f4204,
building materials,Pabrikan mebel,Whatwood Bali,"Jl. Raya Semer No.131, Kerobokan Kelod, Kec. Kuta Utara, Kabupaten Badung, Bali 80363","Kerobokan Kelod, Kec. Kuta Utara, Kabupaten Badung",BALI,80363.0,Indonesia,82146487179.0,,,-8.6493865,115.1625623,https://maps.google.com/?cid=0x0:0x8a53faa1b15e6348,
building materials,Toko Bahan Bangunan,SN Bangunan,"Jl. Tengah II, Kerobokan, Kec. Kuta Utara, Kabupaten Badung, Bali 80361","Kerobokan, Kec. Kuta Utara, Kabupaten Badung",BALI,80361.0,Indonesia,81337572288.0,,,-8.6474097,115.159791,https://maps.google.com/?cid=0x0:0x4aec7a4b24fb9d36,
building materials,Toko Bahan Bangunan,Anugerah Mulia Bangunan,"Jl. Teuku Umar Barat No.100X, Kerobokan Kelod, Kec. Kuta Utara, Kabupaten Badung, Bali 80117","Kerobokan Kelod, Kec. Kuta Utara, Kabupaten Badung",BALI,80117.0,Indonesia,85101205888.0,,,-8.6733833,115.1757234,https://maps.google.com/?cid=0x0:0xeab7a323339b2c9c,
building materials,Toko Bahan Bangunan,CV AYU MAKMUR SEJAHTERA,"Jalan Pipitan Sari No.19, Canggu, Kec. Kuta Utara, Kabupaten Badung, Bali 80351","Canggu, Kec. Kuta Utara, Kabupaten Badung",BALI,80351.0,Indonesia,85107160833.0,,,-8.6349061,115.1482293,https://maps.google.com/?cid=0x0:0xb09eb2151862978b,
building materials,Toko Bahan Bangunan,toko bangunan ud. ron-ron,"8588+7PJ, Jl. Raya Taman, Seminyak, Kec. Kuta, Kabupaten Badung, Bali 80361","Jl. Raya Taman, Seminyak, Kec. Kuta, Kabupaten Badung",BALI,80361.0,Indonesia,81916232220.0,,,-8.6843075,115.1668041,https://maps.google.com/?cid=0x0:0x32edbb68b8e470e5,
building materials,Pasar bahan bangunan,Graha Kita 18,"No Jl. Gatot Subroto Barat No.88, Kerobokan Kaja, Kuta Utara, Badung Regency, Bali 80117","Kerobokan Kaja, Kuta Utara, Badung Regency",BALI,80117.0,Indonesia,82213121818.0,,,-8.637072,115.179454,https://maps.google.com/?cid=0x0:0x4466add9eb0b3c74,
building materials,Pemasok Bahan Bangunan,Toko Bangunan Bangun Dunia,"Jl. Aseman Bagus No.22, Tibubeneng, Kec. Kuta Utara, Kabupaten Badung, Bali 80361","Tibubeneng, Kec. Kuta Utara, Kabupaten Badung",BALI,80361.0,Indonesia,81936152010.0,,,-8.6391226,115.1585334,https://maps.google.com/?cid=0x0:0x9f2fb62353cfec9d,
building materials,Toko Bahan Bangunan,Ud Ayu Jaya Bangunan,"Jl. Gn. Tangkuban Perahu No.4, Kerobokan Kelod, Kec. Kuta Utara, Kabupaten Badung, Bali 80361","Kerobokan Kelod, Kec. Kuta Utara, Kabupaten Badung",BALI,80361.0,Indonesia,82145207255.0,,,-8.6750802,115.1722605,https://maps.google.com/?cid=0x0:0xd784cbab451c1408,
building materials,Toko Bahan Bangunan,UD Surapati Mas,"85H7+VW8, Jl. Raya Kerobokan, Kerobokan Kelod, Kec. Kuta, Kabupaten Badung, Bali 80361","Jl. Raya Kerobokan, Kerobokan Kelod, Kec. Kuta, Kabupaten Badung",BALI,80361.0,Indonesia,,,,-8.670339,115.164814,https://maps.google.com/?cid=0x0:0x9dabc8549f28855c,
building materials,Toko Bahan Bangunan,Toko Bangunan UD. BUDAYA INDAH (CABANG PADONAN),"Jl. Raya Padonan No.43, Tibubeneng, Kec. Kuta Utara, Kabupaten Badung, Bali 80361","Tibubeneng, Kec. Kuta Utara, Kabupaten Badung",BALI,80361.0,Indonesia,81228670418.0,,,-8.6377327,115.1577328,https://maps.google.com/?cid=0x0:0x6230082e7056294d,
building materials,Toko Bahan Bangunan,Toko Bangunan UD. Budaya Indah (Cabang Padonan),"Jl. Raya Padonan No.32B, Tibubeneng, Kec. Kuta Utara, Kabupaten Badung, Bali 80361","Tibubeneng, Kec. Kuta Utara, Kabupaten Badung",BALI,80361.0,Indonesia,81228670418.0,,,-8.6249127,115.1654959,https://maps.google.com/?cid=0x0:0xe186bc2012eda747,
building materials,Kontraktor,Bali Limestone,"Jl. Raya Dalung No.80, Dalung, Kec. Kuta Utara, Kabupaten Badung, Bali 80361","Dalung, Kec. Kuta Utara, Kabupaten Badung",BALI,80361.0,Indonesia,82322884855.0,,,-8.6087636,115.1725662,https://maps.google.com/?cid=0x0:0x4a6f733118fb669a,
building materials,Toko Bahan Bangunan,UD. Tano,"Jl. Raya Semer No.77, Kerobokan, Kec. Kuta Utara, Kabupaten Badung, Bali 80361","Kerobokan, Kec. Kuta Utara, Kabupaten Badung",BALI,80361.0,Indonesia,81916470208.0,,,-8.651686,115.1620529,https://maps.google.com/?cid=0x0:0xb5792ffd5a5abe1a,
building materials,Toko Bahan Bangunan,UD Cahaya Abadi,"Jl. Pantai Berawa No.120X, Tibubeneng, Kec. Kuta Utara, Kabupaten Badung, Bali 80361","Tibubeneng, Kec. Kuta Utara, Kabupaten Badung",BALI,80361.0,Indonesia,3618446113.0,,,-8.647861,115.1496755,https://maps.google.com/?cid=0x0:0x71efa1b76cb8cfae,
building materials,Toko Bahan Bangunan,Tunggal jaya truss,"Tibubeneng, Kec. Kuta Utara, Kabupaten Badung, Bali 80361","Kec. Kuta Utara, Kabupaten Badung",BALI,80361.0,Indonesia,82147351789.0,,,-8.6448595,115.1531205,https://maps.google.com/?cid=0x0:0x12555c0c3d771e63,
building materials,Toko Bahan Bangunan,Sinta Sari Bangunan,"Jl. Mudu Taki No.18, Dalung, Kec. Kuta Utara, Kabupaten Badung, Bali 80361","Dalung, Kec. Kuta Utara, Kabupaten Badung",BALI,80361.0,Indonesia,82186748493.0,,,-8.6347605,115.1784278,https://maps.google.com/?cid=0x0:0x99702eae03ae96f3,
building materials,Toko Bahan Bangunan,Toko Bangunan Jaya,"Jl. Raya Kerobokan No. 9X, Kuta, Kerobokan Kaja, Kec. Kuta Utara, Kabupaten Badung, Bali 80361","Kuta, Kerobokan Kaja, Kec. Kuta Utara, Kabupaten Badung",BALI,80361.0,Indonesia,361413259.0,,,-8.6379473,115.1744855,https://maps.google.com/?cid=0x0:0x6a95397fed9a0144,
building materials,Toko Bahan Bangunan,TB. Sari Yasa,"Jl. Sawira No.2, Kerobokan, Kec. Kuta Utara, Kabupaten Badung, Bali 80361","Kerobokan, Kec. Kuta Utara, Kabupaten Badung",BALI,80361.0,Indonesia,82147610138.0,,,-8.6467448,115.16304,https://maps.google.com/?cid=0x0:0xb05c4872b782ffeb,
building materials,Toko Bahan Bangunan,Bali Persada International. PT,"Jl. Raya Kerobokan No.39, Kerobokan, Kec. Kuta Utara, Kabupaten Badung, Bali 80361","Kerobokan, Kec. Kuta Utara, Kabupaten Badung",BALI,80361.0,Indonesia,,,,-8.6579651,115.1680377,https://maps.google.com/?cid=0x0:0xa36e3fc241141f02,
building materials,Toko Bahan Bangunan,UD Yuli Yadnya,"85WH+G5J, Jl. Raya Muding, Kerobokan Kelod, Kec. Kuta Utara, Kabupaten Badung, Bali 80361","Jl. Raya Muding, Kerobokan Kelod, Kec. Kuta Utara, Kabupaten Badung",BALI,80361.0,Indonesia,8123933178.0,,,-8.6536571,115.1778838,https://maps.google.com/?cid=0x0:0xac3567480c25e64d,
building materials,Toko Bahan Bangunan,Gema muara sari,"85Q8+MW5, Jl. Raya Kerobokan, Kerobokan Kelod, Kec. Kuta Utara, Kabupaten Badung, Bali 80361","Jl. Raya Kerobokan, Kerobokan Kelod, Kec. Kuta Utara, Kabupaten Badung",BALI,80361.0,Indonesia,87761437999.0,,,-8.6608691,115.1673502,https://maps.google.com/?cid=0x0:0xb79600de12a6a4c5,
building materials,building materials,Bali 80351,"Kec. Mengwi, Kabupaten Badung, Bali","Kabupaten Badung, Bali",BALI,,Indonesia,,,,-8.5617185,115.1770586,https://maps.google.com/?cid=0x0:0x1c00c5eb6016be30,
building materials,Toko Bahan Bangunan,Bakti General Material Building,"Jl. By Pass Munggu No.8, Munggu, Kec. Mengwi, Kabupaten Badung, Bali 80351","Munggu, Kec. Mengwi, Kabupaten Badung",BALI,80351.0,Indonesia,82236959066.0,,,-8.6285934,115.130139,https://maps.google.com/?cid=0x0:0x6eaa39dbecf508df,
building materials,Toko Bahan Bangunan,TB. Multi Sarana Bangunan,"Jl. Kopral I Nym Suwena Jl. Menuju Canggu, Buduk, Kec. Mengwi, Kabupaten Badung, Bali 80351","Buduk, Kec. Mengwi, Kabupaten Badung",BALI,80351.0,Indonesia,82145287130.0,,,-8.6105205,115.1612379,https://maps.google.com/?cid=0x0:0x34bfd663ab4da292,
building materials,Toko Bahan Bangunan,UD MS (Merta Sedana)/Toko Bangunan,"Jl. Sading-Badung No.171, Sading, Kec. Mengwi, Kabupaten Badung, Bali 80351","Sading, Kec. Mengwi, Kabupaten Badung",BALI,80351.0,Indonesia,81547294696.0,,,-8.5876838,115.2003509,https://maps.google.com/?cid=0x0:0x31ac5b0a171a081e,
building materials,Toko Bahan Bangunan,Kirana Mart Bangunan,"Jl. Ganda Mayu No.8, Mengwi, Kec. Mengwi, Kabupaten Badung, Bali 80351","Mengwi, Kec. Mengwi, Kabupaten Badung",BALI,80351.0,Indonesia,81353899859.0,,,-8.5482053,115.1688526,https://maps.google.com/?cid=0x0:0x3294711faf9655e0,
building materials,building materials,Mill Gajah Surya,"Jalan Anggrek 1 , Banjar Tegal Saat Baleran , Desa, Kapal, Kec. Mengwi, Kabupaten Badung, Bali 80351","Banjar Tegal Saat Baleran , Desa, Kapal, Kec. Mengwi, Kabupaten Badung",BALI,80351.0,Indonesia,81338798295.0,,,-8.5820447,115.1725774,https://maps.google.com/?cid=0x0:0xe436b27bb4a13e94,
building materials,Produsen,Cahaya Rani,"Jl. Sang Hyang, Abianbase, Kec. Mengwi, Kabupaten Badung, Bali 80351","Abianbase, Kec. Mengwi, Kabupaten Badung",BALI,80351.0,Indonesia,81353357420.0,,,-8.5917752,115.1711472,https://maps.google.com/?cid=0x0:0x61257f0d5431f2c,
building materials,Toko Bahan Bangunan,Depo Interior Bali,"Jl. Raya Kapal No.83, Kapal, Kec. Mengwi, Kabupaten Badung, Bali 80351","Kapal, Kec. Mengwi, Kabupaten Badung",BALI,80351.0,Indonesia,82257584554.0,,,-8.5801348,115.1858162,https://maps.google.com/?cid=0x0:0x31a99da8cc54efc9,
building materials,Toko Bahan Bangunan,TB. Puri Indah Utama,"Jl. Raya Anggungan No.11, Lukluk, Kec. Mengwi, Kabupaten Badung, Bali 80351","Lukluk, Kec. Mengwi, Kabupaten Badung",BALI,80351.0,Indonesia,3619007172.0,,,-8.5801365,115.1901664,https://maps.google.com/?cid=0x0:0xdd78925c8d2cc1b6,
building materials,Toko Bahan Bangunan,Building material KK gypsum BALI,"Jl. Raya Tumbakbayuh - Pererenan, Pererenan, Kec. Mengwi, Kabupaten Badung, Bali 80321","Pererenan, Kec. Mengwi, Kabupaten Badung",BALI,80321.0,Indonesia,8113987688.0,,,-8.628273,115.1345523,https://maps.google.com/?cid=0x0:0x5a15608589e00636,
building materials,Toko Bahan Bangunan,UD. Gian Putra,"C59V+VF8, Jl. Laksmana, Lukluk, Kec. Mengwi, Kabupaten Badung, Bali 80351","Jl. Laksmana, Lukluk, Kec. Mengwi, Kabupaten Badung",BALI,80351.0,Indonesia,81337990477.0,,,-8.5803466,115.19371,https://maps.google.com/?cid=0x0:0x3cfc1f106e34f371,
building materials,Toko Bahan Bangunan,UD. Sari Buana,"C5XC+442, Jl. I. Gusti Ngurahrai-Mengwi, Mengwitani, Kec. Mengwi, Kabupaten Badung, Bali 80351","Jl. I. Gusti Ngurahrai-Mengwi, Mengwitani, Kec. Mengwi, Kabupaten Badung",BALI,80351.0,Indonesia,87722746208.0,,,-8.5522478,115.1702673,https://maps.google.com/?cid=0x0:0xe68e4c6c5a43be99,
building materials,Toko Bahan Bangunan,UD. WID,"Jl. Raya Anggungan No.83, Lukluk, Kec. Mengwi, Kabupaten Badung, Bali 80351","Lukluk, Kec. Mengwi, Kabupaten Badung",BALI,80351.0,Indonesia,82342652660.0,,,-8.5691757,115.1950314,https://maps.google.com/?cid=0x0:0x2c2bf454d62b6a16,
building materials,Toko Bahan Bangunan,RD Jaya,"Jl. Cemara I No.16, Kapal, Kec. Mengwi, Kabupaten Badung, Bali 80361","Kapal, Kec. Mengwi, Kabupaten Badung",BALI,80361.0,Indonesia,81239390607.0,,,-8.5703902,115.1793902,https://maps.google.com/?cid=0x0:0xee972aaf699f546b,
building materials,Toko Bahan Bangunan,Dewi Karya Utama,"Jl. Raya Tangeb, Buduk, Kec. Mengwi, Kabupaten Badung, Bali 80351","Buduk, Kec. Mengwi, Kabupaten Badung",BALI,80351.0,Indonesia,,,,-8.5973918,115.1618879,https://maps.google.com/?cid=0x0:0x92d7562c7383638c,
building materials,Toko Perlengkapan Rumah,Alam Sari. UD,"C58W+48P, Jl. Raya Perang Jl. Raya Lukluk - Darmasaba, Lukluk, Kec. Mengwi, Kabupaten Badung, Bali 80351","Jl. Raya Perang Jl. Raya Lukluk - Darmasaba, Lukluk, Kec. Mengwi, Kabupaten Badung",BALI,80351.0,Indonesia,85100863223.0,,,-8.5846676,115.1958392,https://maps.google.com/?cid=0x0:0xda3fcc5022fe2132,
building materials,Toko Bahan Bangunan,CV. ARJUNA SEJAHTERA BERSAMA,"Jl. Raya Panglan No.22, Kapal, Kec. Mengwi, Kabupaten Badung, Bali 80351","Kapal, Kec. Mengwi, Kabupaten Badung",BALI,80351.0,Indonesia,8123603654.0,,,-8.5632227,115.1860972,https://maps.google.com/?cid=0x0:0xeb74089108f5751,
building materials,Toko Bahan Bangunan,UD Sinar Mas,"Jl. Pratu Rai Madra No.17, Mengwitani, Kec. Mengwi, Kabupaten Badung, Bali 80351","Mengwitani, Kec. Mengwi, Kabupaten Badung",BALI,80351.0,Indonesia,8123619028.0,,,-8.5656015,115.1653283,https://maps.google.com/?cid=0x0:0xa7cc01c09568eae1,
building materials,Toko Bahan Bangunan,Ud.Nadia,"C5P9+445, Jl. Madra, Mengwitani, Kec. Mengwi, Kabupaten Badung, Bali 80351","Jl. Madra, Mengwitani, Kec. Mengwi, Kabupaten Badung",BALI,80351.0,Indonesia,81338749043.0,,,-8.5647302,115.1678734,https://maps.google.com/?cid=0x0:0x6b90c51e5ab0d311,
building materials,Toko Bahan Bangunan,UD. Sri Rejeki,"C5VJ+52H, Jl. Raya Pengadangan Mengwi, Mengwitani, Kec. Mengwi, Kabupaten Badung, Bali 80351","Jl. Raya Pengadangan Mengwi, Mengwitani, Kec. Mengwi, Kabupaten Badung",BALI,80351.0,Indonesia,85100195577.0,,,-8.5570673,115.1801242,https://maps.google.com/?cid=0x0:0x70c76da91ff0811b,
building materials,Toko Bahan Bangunan,UD. Tresna Jaya,"Jl. Sang Hyang No.55X, Buduk, Kec. Mengwi, Kabupaten Badung, Bali 80351","Buduk, Kec. Mengwi, Kabupaten Badung",BALI,80351.0,Indonesia,81353021199.0,,,-8.5990343,115.1679533,https://maps.google.com/?cid=0x0:0xc3e02b6c7016fff7,
building materials,Toko Bahan Bangunan,Toko Mertasari,"Pererenan, Kec. Mengwi, Kabupaten Badung, Bali 80351","Kec. Mengwi, Kabupaten Badung",BALI,80351.0,Indonesia,81211223357.0,,,-8.6347965,115.1403803,https://maps.google.com/?cid=0x0:0xd9b785877e317dec,
building materials,Toko Bahan Bangunan,UD. EVAN,"94F8+QVF, Jl. Pantai Seseh, Cemagi, Kec. Mengwi, Kabupaten Badung, Bali 80351","Jl. Pantai Seseh, Cemagi, Kec. Mengwi, Kabupaten Badung",BALI,80351.0,Indonesia,8123973855.0,,,-8.6255542,115.1171788,https://maps.google.com/?cid=0x0:0x801c067ca91b1d34,
building materials,Toko Kerajinan Tangan,UD.Widia UKIR,"Jl. Wisnu Marga Belayu, Peken, Kec. Mengwi, Kabupaten Badung, Bali 80351","Peken, Kec. Mengwi, Kabupaten Badung",BALI,80351.0,Indonesia,85739166266.0,,,-8.5193374,115.1739868,https://maps.google.com/?cid=0x0:0x8da97d2edfe2da4a,
building materials,Toko Bahan Bangunan,UD. Werdhi Ratih,"C5WC+Q65, Jl. I Gusti Ngurah Rai, Mengwi, Kec. Mengwi, Kabupaten Badung, Bali 80351","Jl. I Gusti Ngurah Rai, Mengwi, Kec. Mengwi, Kabupaten Badung",BALI,80351.0,Indonesia,85738111754.0,,,-8.5531132,115.1706023,https://maps.google.com/?cid=0x0:0x63b8955ea70d6ba6,
building materials,Pasar bahan bangunan,BANGUN SARI,"Jl. Raya Panglan No.81x, Kapal, Kec. Mengwi, Kabupaten Badung, Bali 80351","Kapal, Kec. Mengwi, Kabupaten Badung",BALI,80351.0,Indonesia,821147860939.0,,,-8.558727,115.188996,https://maps.google.com/?cid=0x0:0x3eb2c20326fc31a6,
building materials,Grosir keramik,UD Tiga Putra,"Jl. I Gusti Ngurah Rai, Mengwi, Kec. Mengwi, Kabupaten Badung, Bali 80351","Mengwi, Kec. Mengwi, Kabupaten Badung",BALI,80351.0,Indonesia,3618756767.0,,,-8.5366151,115.1704233,https://maps.google.com/?cid=0x0:0x9cf7e28a29dbdf78,
building materials,building materials,Bali 80353,"Kec. Petang, Kabupaten Badung, Bali","Kabupaten Badung, Bali",BALI,,Indonesia,,,,-8.3365862,115.2244853,https://maps.google.com/?cid=0x0:0x1c00c5eb6016be50,
building materials,Toko Bahan Bangunan,UD. Ubud Sari Jaya,"H6GF+M37, Jl. Raya Sangeh Petang, Getasan, Kec. Petang, Kabupaten Badung, Bali 80353","Jl. Raya Sangeh Petang, Getasan, Kec. Petang, Kabupaten Badung",BALI,80353.0,Indonesia,81529130443.0,,,-8.4233331,115.2226791,https://maps.google.com/?cid=0x0:0x447ca7710b5053c2,
building materials,Toko Bahan Bangunan,Ud. Parta Jaya,"J6JF+QMW, Jl. Raya Pura Pucak Mangu, Sulangai, Kec. Petang, Kabupaten Badung, Bali 80353","Jl. Raya Pura Pucak Mangu, Sulangai, Kec. Petang, Kabupaten Badung",BALI,80353.0,Indonesia,85338233506.0,,,-8.3680067,115.224193,https://maps.google.com/?cid=0x0:0x1b1453a69257d92f,
building materials,Toko Bahan Bangunan,UD Pratama,"Jl. I.GST. NGR Rai No.184, Petang, Kec. Petang, Kabupaten Badung, Bali 80353","Petang, Kec. Petang, Kabupaten Badung",BALI,80353.0,Indonesia,85239407535.0,,,-8.3960759,115.2187662,https://maps.google.com/?cid=0x0:0x64c1b9c8cf3a22ae,
building materials,Toko Bahan Bangunan,UD. Mertha Nadi,"jl. Puncak Mangu km 40 petang, Pelaga, denpasar,badung, Kabupaten Badung, Bali 80353","Pelaga, denpasar,badung, Kabupaten Badung",BALI,80353.0,Indonesia,81338031114.0,,,-8.374808,115.2235743,https://maps.google.com/?cid=0x0:0xb62f4739bd15b40e,
building materials,Toko Bahan Bangunan,UD Dua Cahaya,"J69F+W34, Jl. Raya Pura Pucak Mangu, Petang, Kec. Petang, Kabupaten Badung, Bali 80353","Jl. Raya Pura Pucak Mangu, Petang, Kec. Petang, Kabupaten Badung",BALI,80353.0,Indonesia,81338532242.0,,,-8.3802307,115.2227006,https://maps.google.com/?cid=0x0:0xb4c78ae19661db18,
building materials,Toko Bahan Bangunan,UD Sari Merta,"P62C+HMC, Jl. Raya Pura Pucak Mangu, Pelaga, Kec. Petang, Kabupaten Badung, Bali 80353","Jl. Raya Pura Pucak Mangu, Pelaga, Kec. Petang, Kabupaten Badung",BALI,80353.0,Indonesia,85953713776.0,,,-8.2985581,115.2216457,https://maps.google.com/?cid=0x0:0x96e9ab9e51b99e4,
building materials,Toko Bahan Bangunan,UD Putra Sedana,"H64F+44X, Jl. I.GST. NGR Rai, Samuan Carangsari, Petang, Kabupaten Badung, Bali, Carangsari, Kec. Petang, Kabupaten Badung, Bali 80353","Jl. I.GST. NGR Rai, Samuan Carangsari, Petang, Kabupaten Badung, Bali, Carangsari, Kec. Petang, Kabupaten Badung",BALI,80353.0,Indonesia,85333220875.0,,,-8.4446437,115.2228692,https://maps.google.com/?cid=0x0:0x9ecd65b68875561a,
building materials,Toko Bahan Bangunan,Sendi Teknik,"M6F3+77V, Jl. Pura Kancing Gumi, Sulangai, Kec. Petang, Kabupaten Badung, Bali 80353","Jl. Pura Kancing Gumi, Sulangai, Kec. Petang, Kabupaten Badung",BALI,80353.0,Indonesia,81338594432.0,,,-8.3267625,115.203163,https://maps.google.com/?cid=0x0:0x15b5671abdd8be91,
building materials,Toko Bahan Bangunan,UD.MERTA BUANA,"M6F3+557, Jl. Pura Kancing Gumi, Sulangai, Kec. Petang, Kabupaten Tabanan, Bali 80353","Jl. Pura Kancing Gumi, Sulangai, Kec. Petang, Kabupaten Tabanan",BALI,80353.0,Indonesia,81805671119.0,,,-8.3270824,115.2029074,https://maps.google.com/?cid=0x0:0x875c4fb35dd27641,
building materials,Toko Bahan Bangunan,UD Batu Lantang,"J648+6VC, Jl. Raya, Luwus, Petang, Badung Regency, Bali 80352","Jl. Raya, Luwus, Petang, Badung Regency",BALI,80352.0,Indonesia,8563806500.0,,,-8.3944374,115.2171467,https://maps.google.com/?cid=0x0:0xd126a60e45890eca,
building materials,Toko Bahan Bangunan,Ud. Murah Rejeki,"G6WC+V77, Carangsari, Kec. Petang, Kabupaten Badung, Bali 80353","Carangsari, Kec. Petang, Kabupaten Badung",BALI,80353.0,Indonesia,82237466025.0,,,-8.4528352,115.2206574,https://maps.google.com/?cid=0x0:0x9eeec4f817abe7df,
building materials,Toko Bahan Bangunan,Ud.Sundra Jaya,"Jl. Petang No.551, Luwus, Kec. Baturiti, Kabupaten Tabanan, Bali 82191","Luwus, Kec. Baturiti, Kabupaten Tabanan",BALI,82191.0,Indonesia,,,,-8.3974304,115.2030836,https://maps.google.com/?cid=0x0:0x90e42d29070385f5,
building materials,Bengkel Logam,Bengkel Las D'Sultan,"Banjar Angantiga, Jl. Raya Pura Pucak Mangu, Petang, Kec. Petang, Kabupaten Badung, Bali 80353","Jl. Raya Pura Pucak Mangu, Petang, Kec. Petang, Kabupaten Badung",BALI,80353.0,Indonesia,82145962556.0,,,-8.3753503,115.2236604,https://maps.google.com/?cid=0x0:0x7b33ca358b375423,
building materials,building materials,Gudang,"J659+6FV, Petang, Kec. Petang, Kabupaten Badung, Bali 80353","Petang, Kec. Petang, Kabupaten Badung",BALI,80353.0,Indonesia,,,,-8.3919286,115.2186864,https://maps.google.com/?cid=0x0:0xab27cc2af7c5f5ed,
building materials,building materials,Toko bangunan sari karma,"H5RQ+5HV, Tua, Kec. Marga, Kabupaten Tabanan, Bali","Kabupaten Tabanan, Bali",BALI,,Indonesia,,,,-8.4095178,115.188916,https://maps.google.com/?cid=0x0:0x7c666d5f2847241a,
building materials,Toko Bahan Bangunan,Cahaya Permata,"Jl. Raya Denpasar, Sembung, Kec. Mengwi, Kabupaten Badung, Bali 80351","Sembung, Kec. Mengwi, Kabupaten Badung",BALI,80351.0,Indonesia,82147848169.0,,,-8.4695653,115.1851515,https://maps.google.com/?cid=0x0:0x97d99274890748f8,
building materials,Toko Bahan Bangunan,UD.TUNAS MERTA,"Mekarsari, Kec. Baturiti, Kabupaten Tabanan, Bali 82191","Kec. Baturiti, Kabupaten Tabanan",BALI,82191.0,Indonesia,81246052838.0,,,-8.3850124,115.1951399,https://maps.google.com/?cid=0x0:0x65de83674adb8a49,
building materials,Toko Perlengkapan Rumah,UD. Tara Merta Jaya,"Q7G2+CW8, Catur, Kec. Kintamani, Kabupaten Bangli, Bali 80652","Catur, Kec. Kintamani, Kabupaten Bangli",BALI,80652.0,Indonesia,,,,-8.223968,115.252317,https://maps.google.com/?cid=0x0:0xb132011c163c0682,
building materials,Toko,UD. Nadi Sari,"Jl. Abimanyu, Sembung, Kec. Mengwi, Kabupaten Badung, Bali 80351","Sembung, Kec. Mengwi, Kabupaten Badung",BALI,80351.0,Indonesia,85738999939.0,,,-8.4745238,115.2014626,https://maps.google.com/?cid=0x0:0xdbb1a5f4dd91d4a9,
building materials,Gudang,Gudang anggaguna,"M624+4G5, Banjar wanasari, Sulangai, Kec. Kintamani, Kabupaten Badung, Bali 80353","Banjar wanasari, Sulangai, Kec. Kintamani, Kabupaten Badung",BALI,80353.0,Indonesia,87864432789.0,,,-8.349744,115.2063449,https://maps.google.com/?cid=0x0:0x10bac8f21b201fe,
building improvement,building improvement,Bali 80352,"Abiansemal, Kec. Abiansemal, Kabupaten Badung, Bali","Kabupaten Badung, Bali",BALI,,Indonesia,,,,-8.5584335,115.2244853,https://maps.google.com/?cid=0x0:0x1c00c5eb6016be40,
building improvement,Kontraktor Kolam Renang,Bali Ecosystem Pool,"Jl. Cemp. IV No.7, Mekar Bhuwana, Kec. Abiansemal, Kabupaten Badung, Bali 80352","Mekar Bhuwana, Kec. Abiansemal, Kabupaten Badung",BALI,80352.0,Indonesia,81399990003.0,,,-8.5493716,115.22615,https://maps.google.com/?cid=0x0:0x8094a3ebb3db49d4,
building improvement,Perusahaan Konstruksi,CII,"Jl. Raya Mambal, Mekar Bhuwana, Kec. Abiansemal, Kabupaten Badung, Bali 80352","Mekar Bhuwana, Kec. Abiansemal, Kabupaten Badung",BALI,80352.0,Indonesia,82144636265.0,,,-8.5497563,115.2384694,https://maps.google.com/?cid=0x0:0x1e2ab985cc37c2c7,
building improvement,Kantor Perusahaan,Wisma Cipta Karya,"Jl. Raya Semana No.64, Mambal, Kec. Abiansemal, Kabupaten Badung, Bali 80352","Mambal, Kec. Abiansemal, Kabupaten Badung",BALI,80352.0,Indonesia,87861994599.0,,,-8.5285882,115.2323678,https://maps.google.com/?cid=0x0:0x58213a80dc2e8e0a,
building improvement,Tukang Las,Wira Bali Style,"Jl. Raya Mambal, Mekar Bhuwana, Kec. Abiansemal, Kabupaten Badung, Bali 80352","Mekar Bhuwana, Kec. Abiansemal, Kabupaten Badung",BALI,80352.0,Indonesia,82144082725.0,,,-8.549053,115.2391533,https://maps.google.com/?cid=0x0:0xf32410202ad8a1c2,
building improvement,Tukang Las,Sinar Utama,"C6CJ+56V, Jalan Raya Angantaka - Sibang Gede, Angantake, Abiansemal, Sibang Gede, Kec. Abiansemal, Kabupaten Badung, Bali 80352","Jalan Raya Angantaka - Sibang Gede, Angantake, Abiansemal, Sibang Gede, Kec. Abiansemal, Kabupaten Badung",BALI,80352.0,Indonesia,85338672889.0,,,-8.5795225,115.2305565,https://maps.google.com/?cid=0x0:0x66b57b2d73f3ef52,
building improvement,Jasa Konstruksi dan Bangunan,divajaya,"Jl. Darma Saba Permai IV No.1, Darmasaba, Kec. Abiansemal, Kabupaten Badung, Bali 80352","Darmasaba, Kec. Abiansemal, Kabupaten Badung",BALI,80352.0,Indonesia,89606380090.0,,,-8.5868187,115.2124589,https://maps.google.com/?cid=0x0:0x7cdb75f2149f78ea,
building improvement,Kontraktor,Bali Baja Ringan,"Jl. Arja I No.1, Dauh Yeh Cani, Kec. Abiansemal, Kabupaten Badung, Bali 80352","Dauh Yeh Cani, Kec. Abiansemal, Kabupaten Badung",BALI,80352.0,Indonesia,81805325425.0,,,-8.5307311,115.2042605,https://maps.google.com/?cid=0x0:0xf47b2b0dd8a01032,
building improvement,Toko Bahan Bangunan,UD. Surya Jaya Bangunan,"Jl. Raya Angantaka - Sibang Gede, Sedang, Kec. Abiansemal, Kabupaten Badung, Bali 80352","Sedang, Kec. Abiansemal, Kabupaten Badung",BALI,80352.0,Indonesia,87860331710.0,,,-8.5796852,115.2353893,https://maps.google.com/?cid=0x0:0x7f30301e5f1d7c9c,
building improvement,Pembangunan Perumahan,Home 26.,"F6RC+VRC, Punggul, Kec. Abiansemal, Kabupaten Badung, Bali 80352","Punggul, Kec. Abiansemal, Kabupaten Badung",BALI,80352.0,Indonesia,,,,-8.507853,115.2220804,https://maps.google.com/?cid=0x0:0x3bd75fd848eacd11,
building improvement,Kantor Perusahaan,DMS Blahkiuh,"Jl. Ayodia No.5, Blahkiuh, Kec. Abiansemal, Kabupaten Badung, Bali 80352","Blahkiuh, Kec. Abiansemal, Kabupaten Badung",BALI,80352.0,Indonesia,,,,-8.5169316,115.207237,https://maps.google.com/?cid=0x0:0x5683e825d6c0a013,
building improvement,Jasa Konstruksi dan Bangunan,Pandayu,"Jl. Raya Mambal Abiansemal No.22, Mambal, Kec. Abiansemal, Kabupaten Badung, Bali 80352","Mambal, Kec. Abiansemal, Kabupaten Badung",BALI,80352.0,Indonesia,82147348722.0,,,-8.5549074,115.2191478,https://maps.google.com/?cid=0x0:0x352f6f50f6a326a4,
building improvement,building improvement,Bale bamboo,"Jalan Raya anggantaka, Sibang Gede, Kec. Abiansemal, Kabupaten Badung, Bali","Kabupaten Badung, Bali",BALI,,Indonesia,82145299409.0,,,-8.5797794,115.2340883,https://maps.google.com/?cid=0x0:0x232ebe93129f7645,
building improvement,Perusahaan Konstruksi,Tebageria,"Darmasaba, Kec. Abiansemal, Kabupaten Badung, Bali 80352","Kec. Abiansemal, Kabupaten Badung",BALI,80352.0,Indonesia,8123947346.0,,,-8.586284,115.208991,https://maps.google.com/?cid=0x0:0xf4cf6c88468354b9,
building improvement,Perusahaan Konstruksi,Workshop Interior by Kanita,"Jl. Raya Sibanggede No.16, Darmasaba, Kec. Abiansemal, Kabupaten Badung, Bali 80352","Darmasaba, Kec. Abiansemal, Kabupaten Badung",BALI,80352.0,Indonesia,,,,-8.5784959,115.2174647,https://maps.google.com/?cid=0x0:0x8fc33793b3d14918,
building improvement,Jasa Konstruksi dan Bangunan,Eviekaartdesign,"C66R+PJ2, Jl. Arjuna, Angantaka, Kec. Abiansemal, Kabupaten Badung, Bali 80352","Jl. Arjuna, Angantaka, Kec. Abiansemal, Kabupaten Badung",BALI,80352.0,Indonesia,82340411154.0,,,-8.5882498,115.2415095,https://maps.google.com/?cid=0x0:0xa6f77ae06578aa08,
building improvement,Jasa Konstruksi dan Bangunan,BG LASS,"Br. Telanga, Gg. I No.1, Darmasaba, Kec. Abiansemal, Kabupaten Badung, Bali 80351","Gg. I No.1, Darmasaba, Kec. Abiansemal, Kabupaten Badung",BALI,80351.0,Indonesia,,,,-8.5877177,115.2091068,https://maps.google.com/?cid=0x0:0xdd6ee7c6fc6d5512,
building improvement,Perusahaan Konstruksi,Baja Ringan  Plafon Gipsum,"Jalan Tanah Ayu, Gang Taman Asri Blk. A No.8, Kec. Abiansemal, Kabupaten Badung, Bali 80352","Gang Taman Asri Blk. A No.8, Kec. Abiansemal, Kabupaten Badung",BALI,80352.0,Indonesia,85338510916.0,,,-8.5740979,115.2100849,https://maps.google.com/?cid=0x0:0x3ea534a86bdbadc1,
building improvement,Tukang Las,Citra darma,"Jl. Raya Darmasaba No.10, Darmasaba, Kec. Abiansemal, Kabupaten Badung, Bali 80352","Darmasaba, Kec. Abiansemal, Kabupaten Badung",BALI,80352.0,Indonesia,81237661007.0,,,-8.5922131,115.2152712,https://maps.google.com/?cid=0x0:0x983cd6a5e94aafda,
building improvement,Kantor Perusahaan,Puncak Baja,"F6C6+7RQ, Jalan Raya, Abiansemal, Badung Regency, Bali 80352","Jalan Raya, Abiansemal, Badung Regency",BALI,80352.0,Indonesia,81338701706.0,,,-8.5292956,115.2121103,https://maps.google.com/?cid=0x0:0x78b9ac2c25f94971,
building improvement,Toko Bahan Bangunan,TB Iswara Graha,"G62P+3MR, Jl. Tanggayuda, Bongkasa, Kec. Abiansemal, Kabupaten Badung, Bali 80352","Jl. Tanggayuda, Bongkasa, Kec. Abiansemal, Kabupaten Badung",BALI,80352.0,Indonesia,8123977489.0,,,-8.4997746,115.2366352,https://maps.google.com/?cid=0x0:0xd659ddac16ca001d,
building improvement,Toko Mebel,PARISUDA Bali,"Jl. Raya Angantaka, Angantaka, Kec. Abiansemal, Kabupaten Badung, Bali 80352","Angantaka, Kec. Abiansemal, Kabupaten Badung",BALI,80352.0,Indonesia,82144461513.0,,,-8.5759356,115.2385422,https://maps.google.com/?cid=0x0:0x3f522681fe685978,
building improvement,Pemasok Bahan Bangunan,Supplayer Genteng Dan Baja Ringan Civil Contruction Roof,"C6C6+R29, Jl. Tanah Asri, Sibang Gede, Kec. Abiansemal, Kabupaten Badung, Bali 80352","Jl. Tanah Asri, Sibang Gede, Kec. Abiansemal, Kabupaten Badung",BALI,80352.0,Indonesia,81805566070.0,,,-8.5779668,115.2100972,https://maps.google.com/?cid=0x0:0xd6d38b8e9334a72b,
building improvement,Perusahaan Konstruksi,Tunas Karya Makmur,"F64C+4WX, Jl. Raya Mambal Semana, Mambal, Kec. Abiansemal, Kabupaten Badung, Bali 80352","Jl. Raya Mambal Semana, Mambal, Kec. Abiansemal, Kabupaten Badung",BALI,80352.0,Indonesia,81999389393.0,,,-8.5441561,115.2220509,https://maps.google.com/?cid=0x0:0xf25272bb362b96bb,
building improvement,Perusahaan Konstruksi,Prefab World Bali,"Br. Sigaran, Jl. Kamboja No.34 Ds, Sedang, Abiansemal, Badung Regency, Bali 80352","Jl. Kamboja No.34 Ds, Sedang, Abiansemal, Badung Regency",BALI,80352.0,Indonesia,361460181.0,,,-8.5677636,115.2390501,https://maps.google.com/?cid=0x0:0xa549bfcdef8dca22,
building improvement,Tukang Las,Bengkel Robot Las,"C654+QP8, Jl. Kecubung, Darmasaba, Kec. Abiansemal, Kabupaten Badung, Bali 80352","Jl. Kecubung, Darmasaba, Kec. Abiansemal, Kabupaten Badung",BALI,80352.0,Indonesia,85238651671.0,,,-8.5905751,115.206842,https://maps.google.com/?cid=0x0:0x2ab04954a840ac60,
building improvement,Sekolah Arsitektur,Bamboo Pure,"C6J8+9JW, Banjar Piakan, Sibang Kaja, Kec. Abiansemal, Kabupaten Badung, Bali 80352","Banjar Piakan, Sibang Kaja, Kec. Abiansemal, Kabupaten Badung",BALI,80352.0,Indonesia,81320052700.0,,,-8.5690071,115.2165737,https://maps.google.com/?cid=0x0:0x68dcf89875893e3f,
building improvement,Toko Bahan Bangunan,Depo Bangunan Anugrah Dewata,"Jl. Raya Tebongkang, Singakerta, Kecamatan Ubud, Kabupaten Gianyar, Bali 80571","Singakerta, Kecamatan Ubud, Kabupaten Gianyar",BALI,80571.0,Indonesia,,,,-8.5321801,115.2441498,https://maps.google.com/?cid=0x0:0x72ab999e92861840,
building improvement,Toko Bahan Bangunan,UD. Cahaya Sari,"Jl. Raya Jagapati No.20, Jagapati, Kec. Abiansemal, Kabupaten Badung, Bali 80352","Jagapati, Kec. Abiansemal, Kabupaten Badung",BALI,80352.0,Indonesia,361463372.0,,,-8.5965027,115.2399851,https://maps.google.com/?cid=0x0:0x82dba5938790b257,
building improvement,Kantor Perusahaan,We Care Restaurant Design | Restaurant Building | Kitchen Equipment | Stainless Steel Equipment,"Jl. Majapahit No.4, Kuta, Kec. Kuta, Kabupaten Badung, Bali 80361","Kuta, Kec. Kuta, Kabupaten Badung",BALI,80361.0,Indonesia,81225348866.0,,,-8.7189167,115.1790291,https://maps.google.com/?cid=0x0:0x2bda957676a19367,
building improvement,building improvement,Kuta,"Kec. Kuta, Kabupaten Badung, Bali","Kabupaten Badung, Bali",BALI,,Indonesia,,,,-8.7237964,115.1752277,https://maps.google.com/?cid=0x0:0x4030bfbca7d2c00,
building improvement,Toko Perlengkapan Rumah,MR. DIY Central Kuta,"Ruko Central Kuta, Jl. Patih Jelantik, Komp. Istana Kuta Galeria No.19, Kuta, Badung Regency, Bali 80361","Jl. Patih Jelantik, Komp. Istana Kuta Galeria No.19, Kuta, Badung Regency",BALI,80361.0,Indonesia,2130022789.0,,,-8.7121629,115.1803466,https://maps.google.com/?cid=0x0:0xb5fe953e1eb22628,
building improvement,Agen real estat,Building Solutions Bali,"Jalan Batu Belig No. 11C, Kuta Utara, Kabupaten Badung, Bali 80361, Kerobokan Kelod, Badung, Bali, 80361","Kuta Utara, Kabupaten Badung, Bali",BALI,80361.0,Indonesia,85101802244.0,,,-8.672868,115.153774,https://maps.google.com/?cid=0x0:0xa270511b4a1ed211,
building improvement,Jasa Konstruksi dan Bangunan,BMG Construction,"Jl. Bypass Ngurah Rai, Kedonganan, Kec. Kuta Sel., Kabupaten Badung, Bali 80361","Kedonganan, Kec. Kuta Sel., Kabupaten Badung",BALI,80361.0,Indonesia,81345670300.0,,,-8.7669425,115.1781223,https://maps.google.com/?cid=0x0:0x1b8f94e1a1680df8,
building improvement,building improvement,Bali Construction  Villa Contractor by Kingswood,,,BALI,,Indonesia,82266362343.0,,,-5.4152696,115.143262,https://maps.google.com/?cid=0x0:0x267e2fcc92fa6aaa,
building improvement,Toko Perlengkapan Rumah,MR.DIY,"Lippo Mall Kuta Lantai UG Jl. Kartika Plaza, Lingkungan Jl. Segara Merta No.57-61, Kec. Kuta, Kabupaten Badung, Bali 80361","Lingkungan Jl. Segara Merta No.57-61, Kec. Kuta, Kabupaten Badung",BALI,80361.0,Indonesia,2130022789.0,,,-8.7353398,115.1668928,https://maps.google.com/?cid=0x0:0xda501c2c1f1b825f,
building improvement,Kontraktor Umum,Bali Contractor,"Jl. Patih Jelantik, Komp. Istana Kuta Galeria, Ring 11, LT1B, Kuta, Bali 80361","Komp. Istana Kuta Galeria, Ring 11, LT1B, Kuta",BALI,80361.0,Indonesia,818108808.0,,,-8.7114148,115.179423,https://maps.google.com/?cid=0x0:0x9d6178254cb1fff,
building improvement,Kontraktor Umum,Building Construction  Renovation Services - May  Lou Bali Builder,"Jl. I Gusti Ngurah Rai No.66, Mengwi, Kec. Denpasar Bar., Kabupaten Badung, Bali 80351","Mengwi, Kec. Denpasar Bar., Kabupaten Badung",BALI,80351.0,Indonesia,81238238473.0,,,-8.5444535,115.1704888,https://maps.google.com/?cid=0x0:0x899449075c77f891,
building improvement,Toko Bahan Bangunan,Bali Building Solutions,"Jl. Padang Udayana No.1, Padangsambian, Kec. Denpasar Bar., Kota Denpasar, Bali 80118","Padangsambian, Kec. Denpasar Bar., Kota Denpasar",BALI,80118.0,Indonesia,8113810033.0,,,-8.651246,115.1898701,https://maps.google.com/?cid=0x0:0xca57bc43f4a5c674,
building improvement,Kompleks Apartemen,Building in Bali,"Jl. Raya Babakan Canggu, Canggu, Kec. Kuta Utara, Kabupaten Badung, Bali 80361","Canggu, Kec. Kuta Utara, Kabupaten Badung",BALI,80361.0,Indonesia,81294204447.0,,,-8.631419,115.1499667,https://maps.google.com/?cid=0x0:0x1c1289c7c53ffc9e,
building improvement,Kontraktor Umum,Bali Construction Office,"547F+X8P, Jl. Raya Uluwatu Pecatu, Pecatu, Kec. Kuta Sel., Kabupaten Badung, Bali 80361","Jl. Raya Uluwatu Pecatu, Pecatu, Kec. Kuta Sel., Kabupaten Badung",BALI,80361.0,Indonesia,81337772564.0,,,-8.8350151,115.1233227,https://maps.google.com/?cid=0x0:0xa43e2d4bc79f6a15,
building improvement,Toko Wallpaper,Empire Custom Wallpaper Bali / Toko Wallpaper Terdekat,"Ruko Nusa Indah, Jl. Raya Kuta No.87 Blok 1, Kuta, Kec. Kuta, Kabupaten Badung, Bali 80361","Jl. Raya Kuta No.87 Blok 1, Kuta, Kec. Kuta, Kabupaten Badung",BALI,80361.0,Indonesia,81387777783.0,,,-8.7296199,115.1771516,https://maps.google.com/?cid=0x0:0x82f0eaee37b6d3a1,
building improvement,Toko Mebel Dapur,Home Style Bali,"Jl. Sunset Road No.85 X, Seminyak, Kec. Kuta, Kabupaten Badung, Bali 80361","Seminyak, Kec. Kuta, Kabupaten Badung",BALI,80361.0,Indonesia,81138838000.0,,,-8.6835954,115.1675671,https://maps.google.com/?cid=0x0:0xdff8d954c0470c28,
building improvement,Toko Perlengkapan Rumah,AZKO - CENTRAL PARK KUTA,"Abian Base Central Park, Jl. Patih Jelantik, Kuta, Kec. Kuta, Kabupaten Badung, Bali 80361","Jl. Patih Jelantik, Kuta, Kec. Kuta, Kabupaten Badung",BALI,80361.0,Indonesia,81338271085.0,,,-8.7118103,115.1791282,https://maps.google.com/?cid=0x0:0xb39a507d9f60dc06,
building improvement,Toko Bahan Bangunan,Depo Bangunan Denpasar,"Jl. Teuku Umar Barat No.388, Padangsambian Klod, Kec. Denpasar Bar., Kota Denpasar, Bali 80117","Padangsambian Klod, Kec. Denpasar Bar., Kota Denpasar",BALI,80117.0,Indonesia,81132219366.0,,,-8.6748173,115.1834429,https://maps.google.com/?cid=0x0:0x672c2cf4aebd108e,
building improvement,Jasa Konstruksi dan Bangunan,Blooming Tree Group,"Jl. Merta Agung ruko merta agung No.12, Kerobokan Kelod, Kec. Kuta Utara, Bali, 80361","Kerobokan Kelod, Kec. Kuta Utara",BALI,80361.0,Indonesia,85338798818.0,,,-8.6681663,115.1666742,https://maps.google.com/?cid=0x0:0x8e1e739a0eb52034,
building improvement,Toko Wallpaper,Rensa Interior Decoration - wpc wallpanel lantai vinyl spc wallpaper plafon pvc - Bali,"Jl. Imam Bonjol No.341, Pemecutan Klod, Kec. Denpasar Bar., Kota Denpasar, Bali 80119","Pemecutan Klod, Kec. Denpasar Bar., Kota Denpasar",BALI,80119.0,Indonesia,81558104222.0,,,-8.6920312,115.1891369,https://maps.google.com/?cid=0x0:0xd3c1804af48708a5,
building improvement,Perusahaan Konstruksi,DKS Construction,"Jl. Dukuh Indah No.88x, Kerobokan, Kec. Kuta Utara, Kabupaten Badung, Bali 80361","Kerobokan, Kec. Kuta Utara, Kabupaten Badung",BALI,80361.0,Indonesia,87890003132.0,,,-8.6658621,115.1580721,https://maps.google.com/?cid=0x0:0xa56725ccbf3e7437,
building improvement,Toko Bahan Bangunan,Nakula Jaya Abadi,"Jl. Nakula No.69 X, Legian, Kec. Kuta, Kabupaten Badung, Bali 80361","Legian, Kec. Kuta, Kabupaten Badung",BALI,80361.0,Indonesia,85166898822.0,,,-8.6980234,115.1736725,https://maps.google.com/?cid=0x0:0xb52e3b792a894a82,
building improvement,Toko Alat Dapur,Restoware,"Jl. Segara Madu No.168, Kedonganan, Kec. Kuta, Kabupaten Badung, Bali 80361","Kedonganan, Kec. Kuta, Kabupaten Badung",BALI,80361.0,Indonesia,82188880173.0,,,-8.7563941,115.1717821,https://maps.google.com/?cid=0x0:0x4004e612099ca736,
building improvement,Pemasok Bahan Bangunan,Duta Anugerah Bangunan,"Jl. Nakula No.11, Pemecutan Klod, Kec. Denpasar Bar., Kota Denpasar, Bali 80119","Pemecutan Klod, Kec. Denpasar Bar., Kota Denpasar",BALI,80119.0,Indonesia,82145099676.0,,,-8.7001555,115.1836053,https://maps.google.com/?cid=0x0:0x293e07a01c1ef865,
building improvement,building improvement,Set-up- B3,,,BALI,,Indonesia,8111842464.0,,,-8.789168,115.1599781,https://maps.google.com/?cid=0x0:0xc973b5a973d587e8,
building improvement,Perusahaan Manajemen Properti,Bali Construction - Dewata Agung Propertindo,"Jl. Sunset Road No.28, Seminyak, Kec. Kuta, Kabupaten Badung, Bali 80361","Seminyak, Kec. Kuta, Kabupaten Badung",BALI,80361.0,Indonesia,8113936979.0,,,-8.6832321,115.1675169,https://maps.google.com/?cid=0x0:0xb228bac80a3f623e,
building improvement,Kontraktor Lantai,Ecosafe Bali,"75MF+2PP Ecosafe Bali, Jl. Raya Legian, Kuta, Kec. Kuta, Kabupaten Badung, Bali 80361","Jl. Raya Legian, Kuta, Kec. Kuta, Kabupaten Badung",BALI,80361.0,Indonesia,,,,-8.7174154,115.1743428,https://maps.google.com/?cid=0x0:0x3184af0bde84cd21,
building improvement,Grosir bahan konstruksi,ecoSmart WORKS,"Jl. Sunset Road No.1, Kuta, Kec. Kuta, Kabupaten Badung, Bali 80361","Kuta, Kec. Kuta, Kabupaten Badung",BALI,80361.0,Indonesia,82144457127.0,,,-8.7201849,115.1831723,https://maps.google.com/?cid=0x0:0x6311a9c2c94a7030,
building improvement,Toko Alat Dapur,PT Hafele Indotama,"Jl. Bypass Ngurah Rai, Kuta, Kec. Kuta, Kabupaten Badung, Bali 80361","Kuta, Kec. Kuta, Kabupaten Badung",BALI,80361.0,Indonesia,361764278.0,,,-8.7222575,115.1818478,https://maps.google.com/?cid=0x0:0x82972967b9fd0ba0,
building improvement,Jasa penyewaan perancah,Satrya Anugerah Scaffolding Bali,"Jl. Taman Baruna No.12 Blok A, Jimbaran, Kec. Kuta Sel., Kabupaten Badung, Bali 80361","Jimbaran, Kec. Kuta Sel., Kabupaten Badung",BALI,80361.0,Indonesia,82236635686.0,,,-8.7795074,115.1835619,https://maps.google.com/?cid=0x0:0xf5c932172f517c12,
building improvement,building improvement,Bali 80361,"Kec. Kuta Sel., Kabupaten Badung, Bali","Kabupaten Badung, Bali",BALI,,Indonesia,,,,-8.7953431,115.1652008,https://maps.google.com/?cid=0x0:0x1c00c5eb6016be60,
building improvement,Agen real estat,Building Solutions Bali,"Jalan Batu Belig No. 11C, Kuta Utara, Kabupaten Badung, Bali 80361, Kerobokan Kelod, Badung, Bali, 80361","Kuta Utara, Kabupaten Badung, Bali",BALI,80361.0,Indonesia,85101802244.0,,,-8.672868,115.153774,https://maps.google.com/?cid=0x0:0xa270511b4a1ed211,
building improvement,Kantor Perusahaan,Mirah Investment  Development - Head Office,"Jl. Raya Anyar No.24, Kerobokan, Kec. Kuta Utara, Kabupaten Badung, Bali 80361","Kerobokan, Kec. Kuta Utara, Kabupaten Badung",BALI,80361.0,Indonesia,85100800800.0,,,-8.648981,115.1621551,https://maps.google.com/?cid=0x0:0x77be0e6a861123a,
building improvement,Jasa Konstruksi dan Bangunan,BMG Construction,"Jl. Bypass Ngurah Rai, Kedonganan, Kec. Kuta Sel., Kabupaten Badung, Bali 80361","Kedonganan, Kec. Kuta Sel., Kabupaten Badung",BALI,80361.0,Indonesia,81345670300.0,,,-8.7669425,115.1781223,https://maps.google.com/?cid=0x0:0x1b8f94e1a1680df8,
building improvement,Perusahaan Konstruksi,888 Design and Build - Bali Construction Company,"Uluwatu Square Jl. Uluwatu Raya No.178, Jimbaran, Kec. Kuta Sel., Kabupaten Badung, Bali 80361","Jimbaran, Kec. Kuta Sel., Kabupaten Badung",BALI,80361.0,Indonesia,81338367208.0,,,-8.7973253,115.1619913,https://maps.google.com/?cid=0x0:0xd2fdc7ee4e3de2ab,
building improvement,Kontraktor Umum,Bali Construction Office,"547F+X8P, Jl. Raya Uluwatu Pecatu, Pecatu, Kec. Kuta Sel., Kabupaten Badung, Bali 80361","Jl. Raya Uluwatu Pecatu, Pecatu, Kec. Kuta Sel., Kabupaten Badung",BALI,80361.0,Indonesia,81337772564.0,,,-8.8350151,115.1233227,https://maps.google.com/?cid=0x0:0xa43e2d4bc79f6a15,
building improvement,Toko Perlengkapan Rumah,MR.DIY,"Lippo Mall Kuta Lantai UG Jl. Kartika Plaza, Lingkungan Jl. Segara Merta No.57-61, Kec. Kuta, Kabupaten Badung, Bali 80361","Lingkungan Jl. Segara Merta No.57-61, Kec. Kuta, Kabupaten Badung",BALI,80361.0,Indonesia,2130022789.0,,,-8.7353398,115.1668928,https://maps.google.com/?cid=0x0:0xda501c2c1f1b825f,
building improvement,Kompleks Apartemen,Building in Bali,"Jl. Raya Babakan Canggu, Canggu, Kec. Kuta Utara, Kabupaten Badung, Bali 80361","Canggu, Kec. Kuta Utara, Kabupaten Badung",BALI,80361.0,Indonesia,81294204447.0,,,-8.631419,115.1499667,https://maps.google.com/?cid=0x0:0x1c1289c7c53ffc9e,
building improvement,Toko Bahan Bangunan,Bali Building Solutions,"Jl. Padang Udayana No.1, Padangsambian, Kec. Denpasar Bar., Kota Denpasar, Bali 80118","Padangsambian, Kec. Denpasar Bar., Kota Denpasar",BALI,80118.0,Indonesia,8113810033.0,,,-8.651246,115.1898701,https://maps.google.com/?cid=0x0:0xca57bc43f4a5c674,
building improvement,Toko Perlengkapan Rumah,MR.DIY Nirmala Nusa Dua,"Jl. Bypass Ngurah Rai No.81, Jimbaran, Kec. Kuta Sel., Kabupaten Badung, Bali 80361","Jimbaran, Kec. Kuta Sel., Kabupaten Badung",BALI,80361.0,Indonesia,2130022789.0,,,-8.7837251,115.1872472,https://maps.google.com/?cid=0x0:0xabdd323a6117d892,
building improvement,Jasa Konstruksi dan Bangunan,SPESIALIS BANGUNAN PAK WARTE,"Benoa, Kec. Kuta Sel., Kabupaten Badung, Bali 80361","Kec. Kuta Sel., Kabupaten Badung",BALI,80361.0,Indonesia,81916640250.0,,,-8.7888867,115.2048293,https://maps.google.com/?cid=0x0:0xcaaa1fa879b5f3b4,
building improvement,Perusahaan Konstruksi,Umira Sinergi Global,"SOHO Dharmawangsa, Jl. Dharmawangsa No.5A, Benoa, South Kuta, Badung Regency, Bali 80361","Jl. Dharmawangsa No.5A, Benoa, South Kuta, Badung Regency",BALI,80361.0,Indonesia,81539320248.0,,,-8.8123674,115.1930881,https://maps.google.com/?cid=0x0:0xd2fd5fcc1ed219a3,
building improvement,Perusahaan Konstruksi,FIX BALI,"Jl. Gedong Sari II No.888, Benoa, Kec. Kuta Sel., Kabupaten Badung, Bali 80363","Benoa, Kec. Kuta Sel., Kabupaten Badung",BALI,80363.0,Indonesia,81237724099.0,,,-8.790247,115.1982023,https://maps.google.com/?cid=0x0:0x668d21188afcdf66,
building improvement,Toko Perlengkapan Rumah,MR DIY Nirmala Unggasan,"Nirmala Ungasan, Ungasan, Kec. Kuta Sel., Kabupaten Badung, Bali 80361","Ungasan, Kec. Kuta Sel., Kabupaten Badung",BALI,80361.0,Indonesia,2130022789.0,,,-8.815832,115.1555237,https://maps.google.com/?cid=0x0:0x37057449c5351505,
building improvement,Jasa penyewaan perancah,Satrya Anugerah Scaffolding Bali,"Jl. Taman Baruna No.12 Blok A, Jimbaran, Kec. Kuta Sel., Kabupaten Badung, Bali 80361","Jimbaran, Kec. Kuta Sel., Kabupaten Badung",BALI,80361.0,Indonesia,82236635686.0,,,-8.7795074,115.1835619,https://maps.google.com/?cid=0x0:0xf5c932172f517c12,
building improvement,Developer Rumah Hunian Khusus,Tukang Bangunan di Bali,"Lingk Jl. Puri Nusa Dua No.47, Benoa, Kec. Kuta Sel., Denpasar, Bali 80363","Benoa, Kec. Kuta Sel., Denpasar",BALI,80363.0,Indonesia,85858460313.0,,,-8.7928986,115.2120561,https://maps.google.com/?cid=0x0:0x64dca86405b08b8,
building improvement,Kontraktor Umum,Bali Contractor,"Jl. Patih Jelantik, Komp. Istana Kuta Galeria, Ring 11, LT1B, Kuta, Bali 80361","Komp. Istana Kuta Galeria, Ring 11, LT1B, Kuta",BALI,80361.0,Indonesia,818108808.0,,,-8.7114148,115.179423,https://maps.google.com/?cid=0x0:0x9d6178254cb1fff,
building improvement,Toko Bahan Bangunan,Jimbaran Baru Bangunan,"Jl. Raya Uluwatu, Ungasan, Kec. Kuta Sel., Kabupaten Badung, Bali 80361","Ungasan, Kec. Kuta Sel., Kabupaten Badung",BALI,80361.0,Indonesia,895368702067.0,,,-8.8121183,115.1576161,https://maps.google.com/?cid=0x0:0xee96497b3e23dd4c,
building improvement,Toko Bahan Bangunan,Adhi Putra Bangunan (JOTUN),"Ungasan, Kec. Kuta Sel., Kabupaten Badung, Bali 80361","Kec. Kuta Sel., Kabupaten Badung",BALI,80361.0,Indonesia,81333704111.0,,,-8.8152016,115.1562145,https://maps.google.com/?cid=0x0:0x2fecc01ac8eff5b8,
building improvement,Kontraktor Kolam Renang,"James Ponds, Kontraktor Villa swimming pool Builder","BALANGAN PRATAMA RESIDENCE, Jl. Balangan Biru I No.IV/06, Jimbaran, South Kuta, Badung Regency, Bali 80361","Jl. Balangan Biru I No.IV/06, Jimbaran, South Kuta, Badung Regency",BALI,80361.0,Indonesia,81911011000.0,,,-8.8027945,115.1411596,https://maps.google.com/?cid=0x0:0xafe0b87dc16cb0d6,
building improvement,Perusahaan teknik sipil,Karyanusa Asia,"Gedung Alamanda Bali, Jl. Bypass Ngurah Rai No.67 Lantai 5, Kedonganan, Kec. Kuta Sel., Kabupaten Badung, Bali 80361","Jl. Bypass Ngurah Rai No.67 Lantai 5, Kedonganan, Kec. Kuta Sel., Kabupaten Badung",BALI,80361.0,Indonesia,81803888872.0,,,-8.7656071,115.1787227,https://maps.google.com/?cid=0x0:0x4187606fee88d71b,
building improvement,Pasar bahan bangunan,Toko Bangunan Bali Terlengkap - Mitra10 Bypass,"Jl. Bypass Ngurah Rai No.840-842, Pedungan, Denpasar Selatan, Kota Denpasar, Bali 80221","Pedungan, Denpasar Selatan, Kota Denpasar",BALI,80221.0,Indonesia,,,,-8.7203774,115.1954387,https://maps.google.com/?cid=0x0:0x23461395016b0860,
building improvement,Jasa Konstruksi dan Bangunan,PT.HORAS INDONESIA,"Jl. Garuda I No.2, Ungasan, Kec. Kuta Sel., Kabupaten Badung, Bali 80361","Ungasan, Kec. Kuta Sel., Kabupaten Badung",BALI,80361.0,Indonesia,8123984612.0,,,-8.8168457,115.1684356,https://maps.google.com/?cid=0x0:0x2b386042af2c8cc3,
building improvement,building improvement,Pemborong Bangunan Rumah Tinggal,,,BALI,,Indonesia,87852738191.0,,,-8.4554714,115.071577,https://maps.google.com/?cid=0x0:0x432354ee188e284,
building improvement,building improvement,Bali 80361,"Kec. Kuta Sel., Kabupaten Badung, Bali","Kabupaten Badung, Bali",BALI,,Indonesia,,,,-8.7953431,115.1652008,https://maps.google.com/?cid=0x0:0x1c00c5eb6016be60,
building improvement,Kantor Perusahaan,Mirah Investment  Development - Head Office,"Jl. Raya Anyar No.24, Kerobokan, Kec. Kuta Utara, Kabupaten Badung, Bali 80361","Kerobokan, Kec. Kuta Utara, Kabupaten Badung",BALI,80361.0,Indonesia,85100800800.0,,,-8.648981,115.1621551,https://maps.google.com/?cid=0x0:0x77be0e6a861123a,
building improvement,Kompleks Apartemen,Building in Bali,"Jl. Raya Babakan Canggu, Canggu, Kec. Kuta Utara, Kabupaten Badung, Bali 80361","Canggu, Kec. Kuta Utara, Kabupaten Badung",BALI,80361.0,Indonesia,81294204447.0,,,-8.631419,115.1499667,https://maps.google.com/?cid=0x0:0x1c1289c7c53ffc9e,
building improvement,Perusahaan Konstruksi,Bali Home Builder,"Jl. Raya Semer No.47A, Kerobokan, Kec. Kuta Utara, Kabupaten Badung, Bali 80361","Kerobokan, Kec. Kuta Utara, Kabupaten Badung",BALI,80361.0,Indonesia,81238154049.0,,,-8.6558678,115.1624155,https://maps.google.com/?cid=0x0:0x4353c312fe81ffd6,
building improvement,Pemasok batu,Lux4home Indonesia - Stone Bathtubs  Stone Sinks,"Perum Dalung Permai Bt OO Kerobokan Kaja 15258, Kerobokan Kaja, Kec. Kuta Utara, Kabupaten Badung, Bali 80362","Kerobokan Kaja, Kec. Kuta Utara, Kabupaten Badung",BALI,80362.0,Indonesia,48602222677.0,,,-8.6384516,115.1736648,https://maps.google.com/?cid=0x0:0x88a9ec33bfbfa971,
building improvement,Toko Bahan Bangunan,Karya Utama,"Jl. Raya Canggu No.72, Kerobokan, Kec. Kuta Utara, Kabupaten Badung, Bali 80361","Kerobokan, Kec. Kuta Utara, Kabupaten Badung",BALI,80361.0,Indonesia,85100424366.0,,,-8.6408577,115.1536703,https://maps.google.com/?cid=0x0:0xf0e4668697df057f,
building improvement,Perusahaan arsitektur,ADE BALI ARCHITECT,"Jl. Pantai Berawa No.53, Tegalgundul, Tibubeneng, Kec. Kuta Utara, Kabupaten Badung, Bali 80361","Tegalgundul, Tibubeneng, Kec. Kuta Utara, Kabupaten Badung",BALI,80361.0,Indonesia,87860377899.0,,,-8.6605954,115.1424282,https://maps.google.com/?cid=0x0:0x543227ce86a5b72f,
building improvement,Perusahaan Konstruksi,Greywoods Villa Design  Construction Company Bali,"Jl. Pantai Berawa, Tibubeneng, Kec. Kuta Utara, Kabupaten Badung, Bali 80361","Tibubeneng, Kec. Kuta Utara, Kabupaten Badung",BALI,80361.0,Indonesia,87770777050.0,,,-8.650663,115.1491319,https://maps.google.com/?cid=0x0:0x67e4e740e2e00ec9,
building improvement,Agen Properti,META BUILDS,"84VQ+FXF, Jl. Anggrek Gg. Anggrek, Tibubeneng, Kec. Kuta Utara, Kabupaten Badung, Bali 80114, Tibubeneng, Kec. Kuta Utara, Kabupaten Badung, Bali 80361","Jl. Anggrek Gg. Anggrek, Tibubeneng, Kec. Kuta Utara, Kabupaten Badung, Bali",BALI,80114.0,Indonesia,8113851188.0,,,-8.6563099,115.1396558,https://maps.google.com/?cid=0x0:0x47ea938f0afda5e9,
building improvement,Toko Bahan Bangunan,Bali Building Solutions,"Jl. Padang Udayana No.1, Padangsambian, Kec. Denpasar Bar., Kota Denpasar, Bali 80118","Padangsambian, Kec. Denpasar Bar., Kota Denpasar",BALI,80118.0,Indonesia,8113810033.0,,,-8.651246,115.1898701,https://maps.google.com/?cid=0x0:0xca57bc43f4a5c674,
building improvement,Pengembang Realestat,Sunny Development Group,"Jl. Pemelisan Agung Gg. Anggrek No.4, Tibubeneng, Kec. Kuta Utara, Kabupaten Badung, Bali 80361","Tibubeneng, Kec. Kuta Utara, Kabupaten Badung",BALI,80361.0,Indonesia,81138308920.0,,,-8.6581579,115.1386366,https://maps.google.com/?cid=0x0:0x54a0a2f8c7863697,
building improvement,Arsitek,Lumbung Architect Bali,"Jl. Muding Indah XIII Jl. Gatot Subroto Barat No.9, Kerobokan Kaja, Kec. Kuta Utara, Kabupaten Badung, Bali 80363","Kerobokan Kaja, Kec. Kuta Utara, Kabupaten Badung",BALI,80363.0,Indonesia,859106532925.0,,,-8.6385877,115.1802914,https://maps.google.com/?cid=0x0:0x301bcad5575c275b,
building improvement,Desainer arsitektur,Kadecons Architect,"Jl. Pengubengan Kauh No.170, Kerobokan Kelod, Kec. Kuta Utara, Kabupaten Badung, Bali 80361","Kerobokan Kelod, Kec. Kuta Utara, Kabupaten Badung",BALI,80361.0,Indonesia,3618476839.0,,,-8.6635542,115.1701362,https://maps.google.com/?cid=0x0:0x1596b1fa04c829d7,
building improvement,Kontraktor Umum,Bali Contractor,"Jl. Patih Jelantik, Komp. Istana Kuta Galeria, Ring 11, LT1B, Kuta, Bali 80361","Komp. Istana Kuta Galeria, Ring 11, LT1B, Kuta",BALI,80361.0,Indonesia,818108808.0,,,-8.7114148,115.179423,https://maps.google.com/?cid=0x0:0x9d6178254cb1fff,
building improvement,Perusahaan Konstruksi,DKS Construction,"Jl. Dukuh Indah No.88x, Kerobokan, Kec. Kuta Utara, Kabupaten Badung, Bali 80361","Kerobokan, Kec. Kuta Utara, Kabupaten Badung",BALI,80361.0,Indonesia,87890003132.0,,,-8.6658621,115.1580721,https://maps.google.com/?cid=0x0:0xa56725ccbf3e7437,
building improvement,Jasa Konstruksi dan Bangunan,Handyman Group Bali,"Jl Kunyit Tawahsari Perm Dewata Town House, ,Kuta utara, Dalung Kwanji, Jl. mertanadi, Kerobokan, Kec. Kuta Utara, Kabupaten Badung, Bali 80361",",Kuta utara, Dalung Kwanji, Jl. mertanadi, Kerobokan, Kec. Kuta Utara, Kabupaten Badung",BALI,80361.0,Indonesia,81916421992.0,,,-8.6250633,115.1806996,https://maps.google.com/?cid=0x0:0xb8900ee9278457d2,
building improvement,Perusahaan Konstruksi,PT. Uma Konstruksi dan Properti,"Jl. Raya Anyar No.16 A, Kerobokan, Kec. Kuta Utara, Kabupaten Badung, Bali 80361","Kerobokan, Kec. Kuta Utara, Kabupaten Badung",BALI,80361.0,Indonesia,3619399320.0,,,-8.6471755,115.1615657,https://maps.google.com/?cid=0x0:0x3d22b9f914052288,
building improvement,building improvement,Set-up- B3,,,BALI,,Indonesia,8111842464.0,,,-8.789168,115.1599781,https://maps.google.com/?cid=0x0:0xc973b5a973d587e8,
building improvement,building improvement,Quadro Villa,"Jl. Raya Canggu, Kerobokan, Kec. Kuta Utara, Kabupaten Badung, Bali 80361","Kerobokan, Kec. Kuta Utara, Kabupaten Badung",BALI,80361.0,Indonesia,8340947274.0,,,-8.6459475,115.1685846,https://maps.google.com/?cid=0x0:0xaeee14bb83dcb875,
building improvement,Perusahaan Konstruksi,One more awful building construction,"943P+2JR, Jl. Canggu Padang Linjong, Canggu, Kec. Kuta Utara, Kabupaten Badung, Bali","Kabupaten Badung, Bali",BALI,,Indonesia,,,,-8.6473593,115.1365148,https://maps.google.com/?cid=0x0:0x181f628d475983ce,
building improvement,Rumah wisata,Desa Biasa,"Jl. Raya Kerobokan Br. Dukuh Sari No.78x, Kerobokan Kelod, Kec. Kuta Utara, Kabupaten Badung, Bali 80361","Kerobokan Kelod, Kec. Kuta Utara, Kabupaten Badung",BALI,80361.0,Indonesia,81338476080.0,,,-8.6583164,115.1664093,https://maps.google.com/?cid=0x0:0xbedc6a110396c62f,
building improvement,Toko Bahan Bangunan,UD Cahaya Abadi,"Jl. Pantai Berawa No.120X, Tibubeneng, Kec. Kuta Utara, Kabupaten Badung, Bali 80361","Tibubeneng, Kec. Kuta Utara, Kabupaten Badung",BALI,80361.0,Indonesia,3618446113.0,,,-8.647861,115.1496755,https://maps.google.com/?cid=0x0:0x71efa1b76cb8cfae,
building improvement,building improvement,SAKTI KONTRAKTOR - Cabang BALI,"Jl. Cemp. I No.27, Dalung, Kec. Kuta Utara, Kabupaten Badung, Bali 80351","Dalung, Kec. Kuta Utara, Kabupaten Badung",BALI,80351.0,Indonesia,8988000609.0,,,-8.6113343,115.169754,https://maps.google.com/?cid=0x0:0x83772bac545dc244,
building improvement,Bengkel AC,"INTI DAYA TEKNIK, kontraktor ac, jasa desain hvc building,villa,hotel,mall,general service ac and maintenance","Gg.komplek pu 01 No.12, Kerobokan Kaja, Kec. Kuta Utara, Kabupaten Badung, Bali 80117","Kerobokan Kaja, Kec. Kuta Utara, Kabupaten Badung",BALI,80117.0,Indonesia,85205813404.0,,,-8.6486336,115.1772187,https://maps.google.com/?cid=0x0:0x4398492933aa406b,
building improvement,Perusahaan Konstruksi,TWR Building Solution,"Gg. Plaga Br. Padang Bali No.4, Dalung, Kec. Kuta Utara, Kabupaten Badung, Bali 80361","Dalung, Kec. Kuta Utara, Kabupaten Badung",BALI,80361.0,Indonesia,81239349791.0,,,-8.6217203,115.1707824,https://maps.google.com/?cid=0x0:0x845e9f58f4617e9a,
building improvement,building improvement,Bali 80351,"Kec. Mengwi, Kabupaten Badung, Bali","Kabupaten Badung, Bali",BALI,,Indonesia,,,,-8.5617185,115.1770586,https://maps.google.com/?cid=0x0:0x1c00c5eb6016be30,
building improvement,Kontraktor Umum,Building Construction  Renovation Services - May  Lou Bali Builder,"Jl. I Gusti Ngurah Rai No.66, Mengwi, Kec. Denpasar Bar., Kabupaten Badung, Bali 80351","Mengwi, Kec. Denpasar Bar., Kabupaten Badung",BALI,80351.0,Indonesia,81238238473.0,,,-8.5444535,115.1704888,https://maps.google.com/?cid=0x0:0x899449075c77f891,
building improvement,Tukang Las,Wahyu Utama Bengkel Las  Kontraktor Bangunan,"Jln. Pratu Rai Madra, Br. Delod Sema No.Ds, Kekeran, Kec. Mengwi, Kabupaten Badung, Bali 80351","Br. Delod Sema No.Ds, Kekeran, Kec. Mengwi, Kabupaten Badung",BALI,80351.0,Indonesia,81339574930.0,,,-8.5780017,115.1630653,https://maps.google.com/?cid=0x0:0x4465622683dce66d,
building improvement,Vila,Proyek p.agus,"Br tuka Gg. Keramat, Buduk, Kec. Mengwi, Kabupaten Badung, Bali 80351","Buduk, Kec. Mengwi, Kabupaten Badung",BALI,80351.0,Indonesia,85336540711.0,,,-8.6121409,115.1620051,https://maps.google.com/?cid=0x0:0x1323bb565f2acdc8,
building improvement,Perusahaan Konstruksi,Bali Team Construction,"Jl. Raya Abianbase No.20, Abianbase, Kec. Mengwi, Kabupaten Badung, Bali 80351","Abianbase, Kec. Mengwi, Kabupaten Badung",BALI,80351.0,Indonesia,81776600888.0,,,-8.5876689,115.1781043,https://maps.google.com/?cid=0x0:0x5fe0829518323233,
building improvement,Jasa Konstruksi dan Bangunan,Bali Konstruksi Advertising,"Jl. I. Gusti Ngurahrai-Mengwi No.9, Mengwitani, Kec. Mengwi, Kabupaten Badung, Bali 80351","Mengwitani, Kec. Mengwi, Kabupaten Badung",BALI,80351.0,Indonesia,82257273727.0,,,-8.5606315,115.1717262,https://maps.google.com/?cid=0x0:0xffa4fbaf170456c5,
building improvement,Toko Bahan Bangunan,UD MS (Merta Sedana)/Toko Bangunan,"Jl. Sading-Badung No.171, Sading, Kec. Mengwi, Kabupaten Badung, Bali 80351","Sading, Kec. Mengwi, Kabupaten Badung",BALI,80351.0,Indonesia,81547294696.0,,,-8.5876838,115.2003509,https://maps.google.com/?cid=0x0:0x31ac5b0a171a081e,
building improvement,Jasa Konstruksi dan Bangunan,Handyman Group Bali,"Jl Kunyit Tawahsari Perm Dewata Town House, ,Kuta utara, Dalung Kwanji, Jl. mertanadi, Kerobokan, Kec. Kuta Utara, Kabupaten Badung, Bali 80361",",Kuta utara, Dalung Kwanji, Jl. mertanadi, Kerobokan, Kec. Kuta Utara, Kabupaten Badung",BALI,80361.0,Indonesia,81916421992.0,,,-8.6250633,115.1806996,https://maps.google.com/?cid=0x0:0xb8900ee9278457d2,
building improvement,building improvement,Bali Tirta Property,"Jl. Kopral I Nyoman Suwena, Buduk, Kec. Mengwi, Kabupaten Badung, Bali 80351","Buduk, Kec. Mengwi, Kabupaten Badung",BALI,80351.0,Indonesia,81338266998.0,,,-8.6107123,115.1610876,https://maps.google.com/?cid=0x0:0x8cc4425b2e375e55,
building improvement,Toko Bahan Bangunan,Rumah pakum,"Banjar gangga sari, Jl. Kecubung, Kapal, Kec. Mengwi, Kabupaten Badung, Bali 80351","Jl. Kecubung, Kapal, Kec. Mengwi, Kabupaten Badung",BALI,80351.0,Indonesia,81338633429.0,,,-8.5723626,115.1787325,https://maps.google.com/?cid=0x0:0xfe2da9e7f6b84223,
building improvement,Perusahaan arsitektur,CV. GRIYA MAHA LOKA,"Jl. Raya Lukluk - Sempidi No.12, Lukluk, Kec. Mengwi, Kabupaten Badung, Bali 80351","Lukluk, Kec. Mengwi, Kabupaten Badung",BALI,80351.0,Indonesia,,,,-8.5834764,115.187956,https://maps.google.com/?cid=0x0:0xd654a52391f6787b,
building improvement,Toko Kayu,JUAL KAYU BEKISTING/BAGESTING MURAH BALI (BALI CHEAP WOOD SUPPLIERS),"Gg. Gumitir II Jl. Raya Abianbase No.77, Abianbase, Kec. Mengwi, Kabupaten Badung, Bali 80351","Abianbase, Kec. Mengwi, Kabupaten Badung",BALI,80351.0,Indonesia,89684117829.0,,,-8.5933325,115.1753622,https://maps.google.com/?cid=0x0:0xb98bc11d3d685299,
building improvement,Toko Kayu,UD Bina Artha,"Jl. Raya Sempidi No.40, Sempidi, Kec. Mengwi, Kabupaten Badung, Bali 80351","Sempidi, Kec. Mengwi, Kabupaten Badung",BALI,80351.0,Indonesia,81338767777.0,,,-8.5994808,115.1864008,https://maps.google.com/?cid=0x0:0x147f92ead47c8e8d,
building improvement,Toko Batu,UD. Dodi Karya Kapal. Pot Tanaman Pot Bali  Kolam Koi Bali,"Jl. Raya Kapal Jl. Raya Denpasar - Gilimanuk, Kapal, Kec. Mengwi, Kabupaten Badung, Bali 80351","Kapal, Kec. Mengwi, Kabupaten Badung",BALI,80351.0,Indonesia,85792289612.0,,,-8.5718134,115.1803328,https://maps.google.com/?cid=0x0:0x88e853e106015b92,
building improvement,Pemasok kayu,PT. Taru Nusa Kencana,"Jl. Raya Munggu-Kapal No.99x, Munggu, Kec. Mengwi, Kabupaten Badung, Bali 80351","Munggu, Kec. Mengwi, Kabupaten Badung",BALI,80351.0,Indonesia,81937288488.0,,,-8.608417,115.1417253,https://maps.google.com/?cid=0x0:0x908817c4ecf77bc8,
building improvement,Toko Bahan Bangunan,Ud.Nadia,"C5P9+445, Jl. Madra, Mengwitani, Kec. Mengwi, Kabupaten Badung, Bali 80351","Jl. Madra, Mengwitani, Kec. Mengwi, Kabupaten Badung",BALI,80351.0,Indonesia,81338749043.0,,,-8.5647302,115.1678734,https://maps.google.com/?cid=0x0:0x6b90c51e5ab0d311,
building improvement,Toko,KarMa Cement Tile workshop,"Gang Mawar VIII No.8, Kapal, Kec. Mengwi, Kabupaten Badung, Bali 80351","Kapal, Kec. Mengwi, Kabupaten Badung",BALI,80351.0,Indonesia,818154474.0,,,-8.5728172,115.1817866,https://maps.google.com/?cid=0x0:0x55edbffb26f0251b,
building improvement,Arsitek,Cipta Bali Architect,"Jl. Widuri, Kapal, Kec. Mengwi, Kabupaten Badung, Bali 80351","Kapal, Kec. Mengwi, Kabupaten Badung",BALI,80351.0,Indonesia,,,,-8.5728817,115.1914437,https://maps.google.com/?cid=0x0:0x105fa01745bff556,
building improvement,Bengkel Logam,BENGKEL LAS ADI DHARMA,"F59C+4HF, Jl. I Gusti Ngurah Rai, Werdi Bhuwana, Kec. Mengwi, Kabupaten Badung, Bali 80351","Jl. I Gusti Ngurah Rai, Werdi Bhuwana, Kec. Mengwi, Kabupaten Badung",BALI,80351.0,Indonesia,81337654929.0,,,-8.5321878,115.1714275,https://maps.google.com/?cid=0x0:0x2e14f156f10c93cb,
building improvement,Perusahaan Konstruksi,PT. Sasmitha Isti Konstruksi,"C539+22J, Jl. Pesona Cica, Abianbase, Kec. Mengwi, Kabupaten Badung, Bali 80351","Jl. Pesona Cica, Abianbase, Kec. Mengwi, Kabupaten Badung",BALI,80351.0,Indonesia,,,,-8.5974047,115.1675064,https://maps.google.com/?cid=0x0:0x322d5c4a95956742,
building improvement,Toko Alat Listrik,PT MAHA PUTRA ENGINEERING - Kontraktor Listrik - MEP - AC - Plumbing - Instalatir PLN - Fire Protection -Terbaik di Bali,"Jl. Raya Tumbakbayuh - Pererenan No.23, Pererenan, Kec. Mengwi, Kabupaten Badung, Bali 80351","Pererenan, Kec. Mengwi, Kabupaten Badung",BALI,80351.0,Indonesia,85100320000.0,,,-8.628416,115.1340482,https://maps.google.com/?cid=0x0:0x361ed3b8f935eab4,
building improvement,building improvement,Bali 80353,"Kec. Petang, Kabupaten Badung, Bali","Kabupaten Badung, Bali",BALI,,Indonesia,,,,-8.3365862,115.2244853,https://maps.google.com/?cid=0x0:0x1c00c5eb6016be50,
building improvement,Perusahaan Konstruksi,IJUKBALI LEnon Gen't,"J6Q7+8G2, Sulangai, Kec. Petang, Kabupaten Badung, Bali 80353","Sulangai, Kec. Petang, Kabupaten Badung",BALI,80353.0,Indonesia,,,,-8.3617294,115.2137556,https://maps.google.com/?cid=0x0:0x130cbd148346f67a,
building improvement,Jasa Konstruksi dan Bangunan,A 3 jaya lass,"Jalan Majapahit, Petang, Kec. Petang, Kabupaten Badung, Bali 80353","Petang, Kec. Petang, Kabupaten Badung",BALI,80353.0,Indonesia,87765470939.0,,,-8.3749149,115.2240609,https://maps.google.com/?cid=0x0:0x16d33a67ab24d4b8,
building improvement,Kontraktor Umum,WAHYUARTA.STELYBALI,"J6G3+WX2, Jl. Lipah, Petang, Kec. Petang, Kabupaten Badung, Bali 82191","Jl. Lipah, Petang, Kec. Petang, Kabupaten Badung",BALI,82191.0,Indonesia,,,,-8.3727297,115.2048888,https://maps.google.com/?cid=0x0:0xc21d269650644169,
building improvement,Bengkel Logam,Bengkel Las Dedel Besi,"Jl. I.GST. NGR Rai, Samuan Carangsari, Petang, Kabupaten Badung, Bali 80353, Carangsari, Kec. Petang, Kabupaten Badung, Bali 80353","Samuan Carangsari, Petang, Kabupaten Badung, Bali",BALI,80353.0,Indonesia,85960402681.0,,,-8.4601404,115.2174893,https://maps.google.com/?cid=0x0:0x7137d6cb6d131fc8,
building improvement,building improvement,Bali Villa Construction,,,BALI,,Indonesia,8113809014.0,,,-8.4554714,115.071577,https://maps.google.com/?cid=0x0:0x7a4947b8dca25a7c,
building improvement,Tujuan Wisata,Alam Tirta Outbound,"Banjar Samuan Kangin, Carangsari, Kec. Petang, Kabupaten Badung, Bali 80353","Carangsari, Kec. Petang, Kabupaten Badung",BALI,80353.0,Indonesia,85792303781.0,,,-8.458932,115.221619,https://maps.google.com/?cid=0x0:0xc360f243f600582c,
building improvement,Tukang Las,Karya Beling,"G6QW+2RX, Jl. Raya Tanggayuda, Melinggih Kelod, Kecamatan Ubud, Kabupaten Gianyar, Bali 80571","Jl. Raya Tanggayuda, Melinggih Kelod, Kecamatan Ubud, Kabupaten Gianyar",BALI,80571.0,Indonesia,85737200711.0,,,-8.4623886,115.2471122,https://maps.google.com/?cid=0x0:0xaf6a22f2a365310,
building improvement,building improvement,Pelaga Eco Park,"Pelaga, Kec. Petang, Kabupaten Badung, Bali 80353","Kec. Petang, Kabupaten Badung",BALI,80353.0,Indonesia,,,,-8.3463223,115.2166559,https://maps.google.com/?cid=0x0:0x6b4369b8eb6a6ab6,
hardware store,hardware store,Bali 80352,"Abiansemal, Kec. Abiansemal, Kabupaten Badung, Bali","Kabupaten Badung, Bali",BALI,,Indonesia,,,,-8.5584335,115.2244853,https://maps.google.com/?cid=0x0:0x1c00c5eb6016be40,
hardware store,Toko Bahan Bangunan,TB ARTA SARANA,"Jl. Tanah Ayu, blumbungan, Sibang Gede, Kec. Abiansemal, Kabupaten Badung, Bali 80352","blumbungan, Sibang Gede, Kec. Abiansemal, Kabupaten Badung",BALI,80352.0,Indonesia,85383000300.0,,,-8.5725842,115.2109615,https://maps.google.com/?cid=0x0:0xcea3f56facdebfa9,
hardware store,Toko Bahan Bangunan,UD. Puri Indah,"Jl. Raya Abiansemal No.21, Abiansemal, Kec. Abiansemal, Kabupaten Badung, Bali 80352","Abiansemal, Kec. Abiansemal, Kabupaten Badung",BALI,80352.0,Indonesia,85100428775.0,,,-8.5272429,115.2120746,https://maps.google.com/?cid=0x0:0xca2c8d30f5e005b1,
hardware store,Toko Bahan Bangunan,Tb.Putra Mandiri (PM),"Jl. Ciung Wanara No.17, Sangeh, Kec. Abiansemal, Kabupaten Badung, Bali 80352","Sangeh, Kec. Abiansemal, Kabupaten Badung",BALI,80352.0,Indonesia,3617995955.0,,,-8.4905412,115.2095147,https://maps.google.com/?cid=0x0:0x2112c3882afd9a8f,
hardware store,Toko Bahan Bangunan,Inang Jaya,"C676+6RW, Jalan Raya, Darmasaba, Kec. Abiansemal, Kabupaten Badung, Bali 80352","Jalan Raya, Darmasaba, Kec. Abiansemal, Kabupaten Badung",BALI,80352.0,Indonesia,8123999862.0,,,-8.586876,115.212072,https://maps.google.com/?cid=0x0:0x1b8192bc9ccc979b,
hardware store,Toko Bahan Bangunan,UD. Surya Jaya Bangunan,"Jl. Raya Angantaka - Sibang Gede, Sedang, Kec. Abiansemal, Kabupaten Badung, Bali 80352","Sedang, Kec. Abiansemal, Kabupaten Badung",BALI,80352.0,Indonesia,87860331710.0,,,-8.5796852,115.2353893,https://maps.google.com/?cid=0x0:0x7f30301e5f1d7c9c,
hardware store,Toko Bahan Bangunan,UD Sari Usaha,"F6J5+HXJ, Jl. Ciung Wanara, Blahkiuh, Kec. Abiansemal, Kabupaten Badung, Bali 80352","Jl. Ciung Wanara, Blahkiuh, Kec. Abiansemal, Kabupaten Badung",BALI,80352.0,Indonesia,85100428975.0,,,-8.518529,115.209894,https://maps.google.com/?cid=0x0:0x187c7ab59ae79d11,
hardware store,Toko Bahan Bangunan,UD Wisnu Karya,"C57X+R36, Jalan Raya, Darmasaba, Kec. Abiansemal, Kabupaten Badung, Bali 80352","Jalan Raya, Darmasaba, Kec. Abiansemal, Kabupaten Badung",BALI,80352.0,Indonesia,82147585658.0,,,-8.5854646,115.1976485,https://maps.google.com/?cid=0x0:0xfb2948518709ddb,
hardware store,Toko Bahan Bangunan,Sedana Jaya,"C6V6+54R, Jl. Raya Gerih, Abiansemal, Kec. Abiansemal, Kabupaten Badung, Bali 80352","Jl. Raya Gerih, Abiansemal, Kec. Abiansemal, Kabupaten Badung",BALI,80352.0,Indonesia,81238080781.0,,,-8.557023,115.210272,https://maps.google.com/?cid=0x0:0xa2dc85bac1828331,
hardware store,Toko Bahan Bangunan,UD. Cahaya Sari,"Jl. Raya Jagapati No.20, Jagapati, Kec. Abiansemal, Kabupaten Badung, Bali 80352","Jagapati, Kec. Abiansemal, Kabupaten Badung",BALI,80352.0,Indonesia,361463372.0,,,-8.5965027,115.2399851,https://maps.google.com/?cid=0x0:0x82dba5938790b257,
hardware store,Toko Bahan Bangunan,BIMA KARYA PERKASA MATERIAL NEW,"Jl. Katjong Seleman, Darmasaba, Kec. Abiansemal, Kabupaten Badung, Bali 80351","Darmasaba, Kec. Abiansemal, Kabupaten Badung",BALI,80351.0,Indonesia,81338811106.0,,,-8.5960181,115.2062651,https://maps.google.com/?cid=0x0:0x7ac4b1fedf340aba,
hardware store,Toko Bahan Bangunan,Artha Guna Bangunan,"Jl. Raya Darmasaba, Darmasaba, Kec. Abiansemal, Kabupaten Badung, Bali 80352","Darmasaba, Kec. Abiansemal, Kabupaten Badung",BALI,80352.0,Indonesia,81916641657.0,,,-8.5926014,115.2154335,https://maps.google.com/?cid=0x0:0xa39001bf799f0221,
hardware store,Toko Bahan Bangunan,UD. SUKA MERTA,"F6G3+7XQ, Jl. Janger, Dauh Yeh Cani, Kec. Abiansemal, Kabupaten Badung, Bali 80352","Jl. Janger, Dauh Yeh Cani, Kec. Abiansemal, Kabupaten Badung",BALI,80352.0,Indonesia,361244617.0,,,-8.5242931,115.2049981,https://maps.google.com/?cid=0x0:0xac212fb4fbae075c,
hardware store,Toko Bahan Bangunan,UD Yasa Mambal,"C6W9+7J6, Jl. Raya Mambal Abiansemal, Mambal, Kec. Abiansemal, Kabupaten Badung, Bali 80361","Jl. Raya Mambal Abiansemal, Mambal, Kec. Abiansemal, Kabupaten Badung",BALI,80361.0,Indonesia,361469222.0,,,-8.5543327,115.219024,https://maps.google.com/?cid=0x0:0x8c942ffcbc78da44,
hardware store,Toko Bahan Bangunan,Warung Sari Kelapa,"C6J6+F24, Jalan Raya Gerih,Abiansemal,Badung, Sibang Kaja, Kec. Abiansemal, Kabupaten Badung, Bali 80352","Jalan Raya Gerih,Abiansemal,Badung, Sibang Kaja, Kec. Abiansemal, Kabupaten Badung",BALI,80352.0,Indonesia,81238918608.0,,,-8.5688644,115.210068,https://maps.google.com/?cid=0x0:0xd9054661755b6ba5,
hardware store,Toko Bahan Bangunan,Depo Bangunan Anugrah Dewata,"Jl. Raya Tebongkang, Singakerta, Kecamatan Ubud, Kabupaten Gianyar, Bali 80571","Singakerta, Kecamatan Ubud, Kabupaten Gianyar",BALI,80571.0,Indonesia,,,,-8.5321801,115.2441498,https://maps.google.com/?cid=0x0:0x72ab999e92861840,
hardware store,Toko Bahan Bangunan,UD Amerta Dana Jaya 2,"C6J6+V47, Jl. Raya Gerih, Sibang Kaja, Kec. Abiansemal, Kabupaten Badung, Bali 80352","Jl. Raya Gerih, Sibang Kaja, Kec. Abiansemal, Kabupaten Badung",BALI,80352.0,Indonesia,87761008136.0,,,-8.5678375,115.210303,https://maps.google.com/?cid=0x0:0xe9c513b16faf5c2c,
hardware store,Toko Bahan Bangunan,Toko Sumber Artha,"Jl. Raya Angantaka No.18A, Sedang, Kec. Abiansemal, Kabupaten Badung, Bali 80352","Sedang, Kec. Abiansemal, Kabupaten Badung",BALI,80352.0,Indonesia,81933005000.0,,,-8.5681649,115.235067,https://maps.google.com/?cid=0x0:0x51d1f6ccf48ba1f4,
hardware store,Toko Bahan Bangunan,Toko Besi Surya Jaya,"Jl. Raya Mambal, Mambal, Kec. Abiansemal, Kabupaten Badung, Bali 80352","Mambal, Kec. Abiansemal, Kabupaten Badung",BALI,80352.0,Indonesia,82144007511.0,,,-8.5535571,115.2193036,https://maps.google.com/?cid=0x0:0xf34fc7f714c4a12a,
hardware store,Toko Alat-Alat,Merta Sari,"C676+999, Jalan Raya, Darmasaba, Kec. Abiansemal, Kabupaten Badung, Bali 80352","Jalan Raya, Darmasaba, Kec. Abiansemal, Kabupaten Badung",BALI,80352.0,Indonesia,85338293544.0,,,-8.5865955,115.2109691,https://maps.google.com/?cid=0x0:0x2ebccba904986594,
hardware store,Toko Bahan Bangunan,UD Dharma Jati,"F6V9+2J5, Jalan Raya, Punggul, Abiansemal, Badung Regency, Bali 80352","Jalan Raya, Punggul, Abiansemal, Badung Regency",BALI,80352.0,Indonesia,8123670834.0,,,-8.5074976,115.2191041,https://maps.google.com/?cid=0x0:0xbd9e06b25aa2c321,
hardware store,hardware store,Abiansemal,"Kec. Abiansemal, Kabupaten Badung, Bali","Kabupaten Badung, Bali",BALI,,Indonesia,,,,-8.5646342,115.2206964,https://maps.google.com/?cid=0x0:0x4030bfbca7d2bf0,
hardware store,Toko Bahan Bangunan,Toko UD Wira Jaya,"Jl. Ciung Wanara, Blahkiuh, Kec. Abiansemal, Kabupaten Badung, Bali 80352","Blahkiuh, Kec. Abiansemal, Kabupaten Badung",BALI,80352.0,Indonesia,81237666226.0,,,-8.4979956,115.2095848,https://maps.google.com/?cid=0x0:0xe97f06b00ec35b50,
hardware store,Toko Bahan Bangunan,UD.Sumber Rata,"C672+852, Jalan Raya Darmasaba,Abiansemal,Badung, Sading, Kec. Mengwi, Kabupaten Badung, Bali 80352","Jalan Raya Darmasaba,Abiansemal,Badung, Sading, Kec. Mengwi, Kabupaten Badung",BALI,80352.0,Indonesia,81338972220.0,,,-8.586736,115.200395,https://maps.google.com/?cid=0x0:0xf94526165ae3660e,
hardware store,Toko Bahan Bangunan,Toko Delapan Satu,"Jl. Raya Krasan No.66, Sedang, Kec. Abiansemal, Kabupaten Badung, Bali 80352","Sedang, Kec. Abiansemal, Kabupaten Badung",BALI,80352.0,Indonesia,361460176.0,,,-8.56173,115.2344957,https://maps.google.com/?cid=0x0:0xfea13eb414cf3d7f,
hardware store,Toko Bahan Bangunan,UD A3 Jaya Abadi,"C6C7+W65, Jl. Raya Sibanggede, Sibang Gede, Kec. Abiansemal, Kabupaten Badung, Bali 80352","Jl. Raya Sibanggede, Sibang Gede, Kec. Abiansemal, Kabupaten Badung",BALI,80352.0,Indonesia,3612742280.0,,,-8.5777257,115.2131202,https://maps.google.com/?cid=0x0:0xfc7e1b5562349845,
hardware store,hardware store,80361,"Jl. Kresna No.4, Legian, Kec. Kuta, Kabupaten Badung, Bali 80361","Legian, Kec. Kuta, Kabupaten Badung",BALI,80361.0,Indonesia,,,,-8.7089351,115.1779155,https://maps.google.com/?cid=0x0:0xdda8b53eb9aca45,
hardware store,Toko Perlengkapan Rumah,MR. DIY Central Kuta,"Ruko Central Kuta, Jl. Patih Jelantik, Komp. Istana Kuta Galeria No.19, Kuta, Badung Regency, Bali 80361","Jl. Patih Jelantik, Komp. Istana Kuta Galeria No.19, Kuta, Badung Regency",BALI,80361.0,Indonesia,2130022789.0,,,-8.7121629,115.1803466,https://maps.google.com/?cid=0x0:0xb5fe953e1eb22628,
hardware store,Toko Bahan Bangunan,Atlantic Hardware Store,"Jl. Sunset Road No.65 A, Legian, Kec. Kuta, Kabupaten Badung, Bali 80361","Legian, Kec. Kuta, Kabupaten Badung",BALI,80361.0,Indonesia,81239673975.0,,,-8.7050249,115.1820732,https://maps.google.com/?cid=0x0:0x181fc03fafedc4a2,
hardware store,Toko bahan makanan,AZKO Mall Bali Galeria,"Mal Bali Galeria Level 1, Jl. Bypass Ngurah Rai, Kuta, Kec. Kuta, Kabupaten Badung, Bali 80361","Jl. Bypass Ngurah Rai, Kuta, Kec. Kuta, Kabupaten Badung",BALI,80361.0,Indonesia,82146459885.0,,,-8.7228901,115.1851101,https://maps.google.com/?cid=0x0:0x325e6877f2de7bbc,
hardware store,Toko Bahan Bangunan,Nakula Jaya Abadi,"Jl. Nakula No.69 X, Legian, Kec. Kuta, Kabupaten Badung, Bali 80361","Legian, Kec. Kuta, Kabupaten Badung",BALI,80361.0,Indonesia,85166898822.0,,,-8.6980234,115.1736725,https://maps.google.com/?cid=0x0:0xb52e3b792a894a82,
hardware store,Toko Bahan Bangunan,Mitra Jaya,"Jl. Majapahit No.108, Legian, Kec. Kuta, Kabupaten Badung, Bali 80361","Legian, Kec. Kuta, Kabupaten Badung",BALI,80361.0,Indonesia,82115906558.0,,,-8.711387,115.1770325,https://maps.google.com/?cid=0x0:0x9ab297ccabaf1155,
hardware store,Toko Bahan Bangunan,Toko Karya Harja,"Jl. Kediri No.43, Kuta, Kec. Kuta, Kabupaten Badung, Bali 80361","Kuta, Kec. Kuta, Kabupaten Badung",BALI,80361.0,Indonesia,81292899820.0,,,-8.7387499,115.1723169,https://maps.google.com/?cid=0x0:0x7ac6fd372e8aa383,
hardware store,Toko Perlengkapan Rumah,AZKO Nusa Dua Bali,"Jl. By Pass Ngurah Rai 162, Kec. Kuta Selatan, Jimbaran, Bali, 80363","Kec. Kuta Selatan, Jimbaran",BALI,80363.0,Indonesia,82146879787.0,,,-8.7833742,115.1852221,https://maps.google.com/?cid=0x0:0xe84bdfaaebc0f664,
hardware store,Toko Bahan Bangunan,az.ko,"Jl. Sunset Road No.88 - 99, Kerobokan Kelod, Kec. Kuta Utara, Kabupaten Badung, Bali 80361","Kerobokan Kelod, Kec. Kuta Utara, Kabupaten Badung",BALI,80361.0,Indonesia,8873401311.0,,,-8.6826084,115.1667757,https://maps.google.com/?cid=0x0:0x44d3d4705d33f046,
hardware store,Toko Bahan Bangunan,toko bangunan ud. ron-ron,"8588+7PJ, Jl. Raya Taman, Seminyak, Kec. Kuta, Kabupaten Badung, Bali 80361","Jl. Raya Taman, Seminyak, Kec. Kuta, Kabupaten Badung",BALI,80361.0,Indonesia,81916232220.0,,,-8.6843075,115.1668041,https://maps.google.com/?cid=0x0:0x32edbb68b8e470e5,
hardware store,Toko Bahan Bangunan,Mannah Bali 79,"Jl. Kresna No.20, Legian, Kec. Kuta, Kabupaten Badung, Bali 80361","Legian, Kec. Kuta, Kabupaten Badung",BALI,80361.0,Indonesia,81237542901.0,,,-8.7083273,115.1775328,https://maps.google.com/?cid=0x0:0xef48108634f4d2c2,
hardware store,Toko Bahan Bangunan,TOKO BANGUNAN AGUNG JAYA SENTOSA,"Jl. Raya Kuta permai No.58, Kuta, Kec. Kuta, Kota Denpasar, Bali 80114","Kuta, Kec. Kuta, Kota Denpasar",BALI,80114.0,Indonesia,817588530.0,,,-8.7122364,115.1810231,https://maps.google.com/?cid=0x0:0xa3aa27b5bd94c842,
hardware store,Toko Bahan Bangunan,TOKO 2 DARA ABADI BANGUNAN,"Jl. Kubu Anyar No.22, Kuta, Kec. Kuta, Kabupaten Badung, Bali 80361","Kuta, Kec. Kuta, Kabupaten Badung",BALI,80361.0,Indonesia,361757422.0,,,-8.7291484,115.1727313,https://maps.google.com/?cid=0x0:0xa3ed648699af7e0a,
hardware store,Toko Perlengkapan Rumah,MR.DIY,"Lippo Mall Kuta Lantai UG Jl. Kartika Plaza, Lingkungan Jl. Segara Merta No.57-61, Kec. Kuta, Kabupaten Badung, Bali 80361","Lingkungan Jl. Segara Merta No.57-61, Kec. Kuta, Kabupaten Badung",BALI,80361.0,Indonesia,2130022789.0,,,-8.7353398,115.1668928,https://maps.google.com/?cid=0x0:0xda501c2c1f1b825f,
hardware store,Toko Bahan Bangunan,BUILDING HARDWARE SOLUTION BALI,"Jl. Mahendradatta Selatan No.178, Padangsambian, Kec. Denpasar Bar., Kota Denpasar, Bali 80119","Padangsambian, Kec. Denpasar Bar., Kota Denpasar",BALI,80119.0,Indonesia,85783003968.0,,,-8.6830927,115.1886271,https://maps.google.com/?cid=0x0:0xd38ca0642e6459d2,
hardware store,Toko bahan makanan,AZKO Teuku Umar Bali,"Jl. Teuku Umar No.93, Dauh Puri Klod, Kec. Denpasar Bar., Kota Denpasar, Bali 80113","Dauh Puri Klod, Kec. Denpasar Bar., Kota Denpasar",BALI,80113.0,Indonesia,8551500582.0,,,-8.6728657,115.2085596,https://maps.google.com/?cid=0x0:0xed41d32b7ab7ddf8,
hardware store,Toko Bahan Bangunan,UD. Jaya Abadi,"Jl. Gelogor Carik Gg. Cafe Dewi No. 6, Kuta, Badung, Kuta, Kec. Kuta, Kota Denpasar, Bali 80361","Kuta, Badung, Kuta, Kec. Kuta, Kota Denpasar",BALI,80361.0,Indonesia,81336115574.0,,,-8.7188705,115.1862591,https://maps.google.com/?cid=0x0:0xa80f1ea1eabd68cc,
hardware store,Toko Bahan Bangunan,T.B. Kresna Jaya,"852F+R5F, Jl. Kresna, Legian, Kec. Kuta, Kabupaten Badung, Bali 80361","Jl. Kresna, Legian, Kec. Kuta, Kabupaten Badung",BALI,80361.0,Indonesia,85220736691.0,,,-8.697936,115.172913,https://maps.google.com/?cid=0x0:0x475115eb18476fd5,
hardware store,Toko Bahan Bangunan,Ud. Puspa Sari,"Jl. Gn. Tangkuban Perahu No.88, Kerobokan Kelod, Kec. Kuta Utara, Kabupaten Badung, Bali 80361","Kerobokan Kelod, Kec. Kuta Utara, Kabupaten Badung",BALI,80361.0,Indonesia,361731583.0,,,-8.6775936,115.1744004,https://maps.google.com/?cid=0x0:0x8ac2abaf3dcf980b,
hardware store,Toko Bahan Bangunan,Toko Bangunan  Listrik ( Tuban ),"756H+4FF, Jl. Raya Tuban, Tuban, Kec. Kuta, Kabupaten Badung, Bali 80361","Jl. Raya Tuban, Tuban, Kec. Kuta, Kabupaten Badung",BALI,80361.0,Indonesia,85779648213.0,,,-8.7396941,115.1786646,https://maps.google.com/?cid=0x0:0x41d98785b077a28b,
hardware store,Toko Bahan Bangunan,Toko Bangunan Sri Sedana Kuta,"75GG+PJH, Jl. Raya, Kuta, Kec. Kuta, Kabupaten Badung, Bali 80361","Jl. Raya, Kuta, Kec. Kuta, Kabupaten Badung",BALI,80361.0,Indonesia,82164640099.0,,,-8.723192,115.1765998,https://maps.google.com/?cid=0x0:0xc6e913ea8fe3603c,
hardware store,Toko Bahan Bangunan,Jimbaran Baru Teknik 2,"Gg. Taman Anyar No.17x, Jimbaran, Kec. Kuta Sel., Kabupaten Badung, Bali 80361","Jimbaran, Kec. Kuta Sel., Kabupaten Badung",BALI,80361.0,Indonesia,81339368504.0,,,-8.7840182,115.1906357,https://maps.google.com/?cid=0x0:0x4550e6e813ab05c4,
hardware store,hardware store,Bali 80361,"Kec. Kuta Sel., Kabupaten Badung, Bali","Kabupaten Badung, Bali",BALI,,Indonesia,,,,-8.7953431,115.1652008,https://maps.google.com/?cid=0x0:0x1c00c5eb6016be60,
hardware store,Toko Perlengkapan Rumah,MR DIY Nirmala Unggasan,"Nirmala Ungasan, Ungasan, Kec. Kuta Sel., Kabupaten Badung, Bali 80361","Ungasan, Kec. Kuta Sel., Kabupaten Badung",BALI,80361.0,Indonesia,2130022789.0,,,-8.815832,115.1555237,https://maps.google.com/?cid=0x0:0x37057449c5351505,
hardware store,Toko Bahan Bangunan,JIMBARAN REJEKI,"658W+456, Gg. Taman Anyar, Jimbaran, Kec. Kuta Sel., Kabupaten Badung, Bali 80361","Gg. Taman Anyar, Jimbaran, Kec. Kuta Sel., Kabupaten Badung",BALI,80361.0,Indonesia,8123227962.0,,,-8.7847115,115.1954055,https://maps.google.com/?cid=0x0:0xf5a6687db82f513b,
hardware store,Toko Bahan Bangunan,Toko Bangunan MERTA SARI,"Jl. Kuruksetra No.51, Benoa, Kec. Kuta Sel., Kabupaten Badung, Bali 80361","Benoa, Kec. Kuta Sel., Kabupaten Badung",BALI,80361.0,Indonesia,81805624456.0,,,-8.8001744,115.2162498,https://maps.google.com/?cid=0x0:0x5409999d662dd146,
hardware store,Toko Bahan Bangunan,TB. Adil Makmur Nusa Dua,"Jl. Bypass Ngurah Rai No.25-99, Benoa, Kec. Kuta Sel., Kabupaten Badung, Bali 80361","Benoa, Kec. Kuta Sel., Kabupaten Badung",BALI,80361.0,Indonesia,81290908008.0,,,-8.7969502,115.2203048,https://maps.google.com/?cid=0x0:0x128de70a87926848,
hardware store,Toko Perlengkapan Rumah,MR.DIY Nirmala Nusa Dua,"Jl. Bypass Ngurah Rai No.81, Jimbaran, Kec. Kuta Sel., Kabupaten Badung, Bali 80361","Jimbaran, Kec. Kuta Sel., Kabupaten Badung",BALI,80361.0,Indonesia,2130022789.0,,,-8.7837251,115.1872472,https://maps.google.com/?cid=0x0:0xabdd323a6117d892,
hardware store,hardware store,Bali 80361,"Kec. Kuta Sel., Kabupaten Badung, Bali","Kabupaten Badung, Bali",BALI,,Indonesia,,,,-8.7953431,115.1652008,https://maps.google.com/?cid=0x0:0x1c00c5eb6016be60,
hardware store,Toko Perlengkapan Rumah,AZKO Nusa Dua Bali,"Jl. By Pass Ngurah Rai 162, Kec. Kuta Selatan, Jimbaran, Bali, 80363","Kec. Kuta Selatan, Jimbaran",BALI,80363.0,Indonesia,82146879787.0,,,-8.7833742,115.1852221,https://maps.google.com/?cid=0x0:0xe84bdfaaebc0f664,
hardware store,Toko Bahan Bangunan,Atlantic Hardware Store,"Jl. Sunset Road No.65 A, Legian, Kec. Kuta, Kabupaten Badung, Bali 80361","Legian, Kec. Kuta, Kabupaten Badung",BALI,80361.0,Indonesia,81239673975.0,,,-8.7050249,115.1820732,https://maps.google.com/?cid=0x0:0x181fc03fafedc4a2,
hardware store,Toko Bahan Bangunan,toko bangunan ud. ron-ron,"8588+7PJ, Jl. Raya Taman, Seminyak, Kec. Kuta, Kabupaten Badung, Bali 80361","Jl. Raya Taman, Seminyak, Kec. Kuta, Kabupaten Badung",BALI,80361.0,Indonesia,81916232220.0,,,-8.6843075,115.1668041,https://maps.google.com/?cid=0x0:0x32edbb68b8e470e5,
hardware store,Toko Bahan Bangunan,az.ko,"Jl. Sunset Road No.88 - 99, Kerobokan Kelod, Kec. Kuta Utara, Kabupaten Badung, Bali 80361","Kerobokan Kelod, Kec. Kuta Utara, Kabupaten Badung",BALI,80361.0,Indonesia,8873401311.0,,,-8.6826084,115.1667757,https://maps.google.com/?cid=0x0:0x44d3d4705d33f046,
hardware store,Toko Perlengkapan Rumah,MR DIY Nirmala Unggasan,"Nirmala Ungasan, Ungasan, Kec. Kuta Sel., Kabupaten Badung, Bali 80361","Ungasan, Kec. Kuta Sel., Kabupaten Badung",BALI,80361.0,Indonesia,2130022789.0,,,-8.815832,115.1555237,https://maps.google.com/?cid=0x0:0x37057449c5351505,
hardware store,Toko Bahan Bangunan,BUILDING HARDWARE SOLUTION BALI,"Jl. Mahendradatta Selatan No.178, Padangsambian, Kec. Denpasar Bar., Kota Denpasar, Bali 80119","Padangsambian, Kec. Denpasar Bar., Kota Denpasar",BALI,80119.0,Indonesia,85783003968.0,,,-8.6830927,115.1886271,https://maps.google.com/?cid=0x0:0xd38ca0642e6459d2,
hardware store,Toko bahan makanan,AZKO Mall Bali Galeria,"Mal Bali Galeria Level 1, Jl. Bypass Ngurah Rai, Kuta, Kec. Kuta, Kabupaten Badung, Bali 80361","Jl. Bypass Ngurah Rai, Kuta, Kec. Kuta, Kabupaten Badung",BALI,80361.0,Indonesia,82146459885.0,,,-8.7228901,115.1851101,https://maps.google.com/?cid=0x0:0x325e6877f2de7bbc,
hardware store,Toko Perlengkapan Rumah,MR.DIY,"Lippo Mall Kuta Lantai UG Jl. Kartika Plaza, Lingkungan Jl. Segara Merta No.57-61, Kec. Kuta, Kabupaten Badung, Bali 80361","Lingkungan Jl. Segara Merta No.57-61, Kec. Kuta, Kabupaten Badung",BALI,80361.0,Indonesia,2130022789.0,,,-8.7353398,115.1668928,https://maps.google.com/?cid=0x0:0xda501c2c1f1b825f,
hardware store,Toko Perlengkapan Rumah,MR.DIY Nirmala Nusa Dua,"Jl. Bypass Ngurah Rai No.81, Jimbaran, Kec. Kuta Sel., Kabupaten Badung, Bali 80361","Jimbaran, Kec. Kuta Sel., Kabupaten Badung",BALI,80361.0,Indonesia,2130022789.0,,,-8.7837251,115.1872472,https://maps.google.com/?cid=0x0:0xabdd323a6117d892,
hardware store,Toko Bahan Bangunan,TB. Adil Makmur Nusa Dua,"Jl. Bypass Ngurah Rai No.25-99, Benoa, Kec. Kuta Sel., Kabupaten Badung, Bali 80361","Benoa, Kec. Kuta Sel., Kabupaten Badung",BALI,80361.0,Indonesia,81290908008.0,,,-8.7969502,115.2203048,https://maps.google.com/?cid=0x0:0x128de70a87926848,
hardware store,hardware store,Kuta Selatan,"Kec. Kuta Sel., Kabupaten Badung, Bali","Kabupaten Badung, Bali",BALI,,Indonesia,,,,-8.7815919,115.1787738,https://maps.google.com/?cid=0x0:0x73840119194c50f4,
hardware store,Toko Bahan Bangunan,Adhi Putra Bangunan (JOTUN),"Ungasan, Kec. Kuta Sel., Kabupaten Badung, Bali 80361","Kec. Kuta Sel., Kabupaten Badung",BALI,80361.0,Indonesia,81333704111.0,,,-8.8152016,115.1562145,https://maps.google.com/?cid=0x0:0x2fecc01ac8eff5b8,
hardware store,Toko Bahan Bangunan,Jimbaran Baru Teknik 2,"Gg. Taman Anyar No.17x, Jimbaran, Kec. Kuta Sel., Kabupaten Badung, Bali 80361","Jimbaran, Kec. Kuta Sel., Kabupaten Badung",BALI,80361.0,Indonesia,81339368504.0,,,-8.7840182,115.1906357,https://maps.google.com/?cid=0x0:0x4550e6e813ab05c4,
hardware store,Toko Bahan Bangunan,Toko Bangunan MERTA SARI,"Jl. Kuruksetra No.51, Benoa, Kec. Kuta Sel., Kabupaten Badung, Bali 80361","Benoa, Kec. Kuta Sel., Kabupaten Badung",BALI,80361.0,Indonesia,81805624456.0,,,-8.8001744,115.2162498,https://maps.google.com/?cid=0x0:0x5409999d662dd146,
hardware store,Toko Bahan Bangunan,JIMBARAN REJEKI,"658W+456, Gg. Taman Anyar, Jimbaran, Kec. Kuta Sel., Kabupaten Badung, Bali 80361","Gg. Taman Anyar, Jimbaran, Kec. Kuta Sel., Kabupaten Badung",BALI,80361.0,Indonesia,8123227962.0,,,-8.7847115,115.1954055,https://maps.google.com/?cid=0x0:0xf5a6687db82f513b,
hardware store,Toko Bahan Bangunan,Bintang Makmur Bangunan,"Jalan Dharmawangsa, Jl. Raya Kampial Jl. Nusa Dua No.88X, Benoa, Kabupaten Badung, Bali 80361","Jl. Raya Kampial Jl. Nusa Dua No.88X, Benoa, Kabupaten Badung",BALI,80361.0,Indonesia,85106031199.0,,,-8.8048704,115.2056468,https://maps.google.com/?cid=0x0:0x65cc223f073b3bb6,
hardware store,Toko Bahan Bangunan,Toko Maju Mandiri,"55WP+WVP, Jalan Nuansa Utama Timur D, Jimbaran Kuta Selatan, Benoa, Kec. Kuta Sel., Kabupaten Badung, Bali 80361","Jalan Nuansa Utama Timur D, Jimbaran Kuta Selatan, Benoa, Kec. Kuta Sel., Kabupaten Badung",BALI,80361.0,Indonesia,81328665577.0,,,-8.8026575,115.1872036,https://maps.google.com/?cid=0x0:0x4e605bfb54970d19,
hardware store,Toko Alat Listrik,Toko Karya Bali Gemilang,"6666+86G, Jl. Bypass Ngurah Rai, Benoa, Kec. Kuta Sel., Kabupaten Badung, Bali 80361","Jl. Bypass Ngurah Rai, Benoa, Kec. Kuta Sel., Kabupaten Badung",BALI,80361.0,Indonesia,81805674765.0,,,-8.7891978,115.2105691,https://maps.google.com/?cid=0x0:0x283d0022b13c489b,
hardware store,Toko Bahan Bangunan,UD.Sari Galih,"654V+QHC, Jl. Taman Giri, Benoa, Kec. Kuta Sel., Kabupaten Badung, Bali 80361","Jl. Taman Giri, Benoa, Kec. Kuta Sel., Kabupaten Badung",BALI,80361.0,Indonesia,82145245779.0,,,-8.7930721,115.1938961,https://maps.google.com/?cid=0x0:0x2854973464e0ca66,
hardware store,Toko Bahan Bangunan,UD dian sari,"Jl. Bypass Ngurah Rai, Benoa, Kec. Kuta Sel., Kabupaten Badung, Bali 80361","Benoa, Kec. Kuta Sel., Kabupaten Badung",BALI,80361.0,Indonesia,,,,-8.7881156,115.2087413,https://maps.google.com/?cid=0x0:0x607ba24d175837f3,
hardware store,Toko Bahan Bangunan,Toko Bangunan Jimbaran Baru,"Jl. Bypass Ngurah Rai No.25x, Jimbaran, Kec. Kuta Sel., Kabupaten Badung, Bali 80361","Jimbaran, Kec. Kuta Sel., Kabupaten Badung",BALI,80361.0,Indonesia,895366567535.0,,,-8.7842513,115.1913182,https://maps.google.com/?cid=0x0:0xe8893974142c658e,
hardware store,Toko Bahan Bangunan,Toko Karya Harja,"Jl. Kediri No.43, Kuta, Kec. Kuta, Kabupaten Badung, Bali 80361","Kuta, Kec. Kuta, Kabupaten Badung",BALI,80361.0,Indonesia,81292899820.0,,,-8.7387499,115.1723169,https://maps.google.com/?cid=0x0:0x7ac6fd372e8aa383,
hardware store,Toko Bahan Bangunan,Trisna Sari Indah Group,"652F+7P6, Jl. Bleng Bong Sari, Jimbaran, Kec. Kuta Sel., Kabupaten Badung, Bali 80361","Jl. Bleng Bong Sari, Jimbaran, Kec. Kuta Sel., Kabupaten Badung",BALI,80361.0,Indonesia,8155787817.0,,,-8.799349,115.174273,https://maps.google.com/?cid=0x0:0x3768b60462113885,
hardware store,Toko Bahan Bangunan,Toko Bangunan ARTA JAYA,"Jl. Bypass Ngurah Rai No.141, Benoa, Kec. Kuta Sel., Kabupaten Badung, Bali 80361","Benoa, Kec. Kuta Sel., Kabupaten Badung",BALI,80361.0,Indonesia,87855978183.0,,,-8.7850455,115.2000951,https://maps.google.com/?cid=0x0:0xd2699ae5ef80df34,
hardware store,Toko Bahan Bangunan,Nirmala Taman Griya Bangunan,"Jl.Batur Raya No.64, Jimbaran, Kec. Kuta Sel., Kabupaten Badung, Bali 80361","Jimbaran, Kec. Kuta Sel., Kabupaten Badung",BALI,80361.0,Indonesia,85100627026.0,,,-8.7904313,115.1874449,https://maps.google.com/?cid=0x0:0x4b8ea03544d2c1e1,
hardware store,Toko Bahan Bangunan,Bali Gypsum,"Jl. Dharmawangsa, Benoa, Kec. Kuta Sel., Kabupaten Badung, Bali 80361","Benoa, Kec. Kuta Sel., Kabupaten Badung",BALI,80361.0,Indonesia,85105039988.0,,,-8.8133547,115.1928534,https://maps.google.com/?cid=0x0:0x45d6762f94f0ca20,
hardware store,Toko,Sari bangunan 2,"Jl. Nuansa Utama No.15, Jimbaran, Kec. Kuta Sel., Kabupaten Badung, Bali 80361","Jimbaran, Kec. Kuta Sel., Kabupaten Badung",BALI,80361.0,Indonesia,85102565085.0,,,-8.7957172,115.1866983,https://maps.google.com/?cid=0x0:0x484e3ba5091bc33a,
hardware store,Toko Perlengkapan Rumah,MR. DIY Central Kuta,"Ruko Central Kuta, Jl. Patih Jelantik, Komp. Istana Kuta Galeria No.19, Kuta, Badung Regency, Bali 80361","Jl. Patih Jelantik, Komp. Istana Kuta Galeria No.19, Kuta, Badung Regency",BALI,80361.0,Indonesia,2130022789.0,,,-8.7121629,115.1803466,https://maps.google.com/?cid=0x0:0xb5fe953e1eb22628,
hardware store,hardware store,Bali 80361,"Kec. Kuta Sel., Kabupaten Badung, Bali","Kabupaten Badung, Bali",BALI,,Indonesia,,,,-8.7953431,115.1652008,https://maps.google.com/?cid=0x0:0x1c00c5eb6016be60,
hardware store,Toko Perlengkapan Rumah,AZKO Gatsu Barat Bali,"Jalan Gatot Subroto Barat No.86 Padangsambian Kaja, Kerobokan Kaja, Kec. Kuta Utara, Kabupaten Badung, Bali 80117","Kerobokan Kaja, Kec. Kuta Utara, Kabupaten Badung",BALI,80117.0,Indonesia,89684600388.0,,,-8.6370796,115.1796971,https://maps.google.com/?cid=0x0:0x3011434a518952fe,
hardware store,Toko Bahan Bangunan,Atlantic Hardware Store,"Jl. Sunset Road No.65 A, Legian, Kec. Kuta, Kabupaten Badung, Bali 80361","Legian, Kec. Kuta, Kabupaten Badung",BALI,80361.0,Indonesia,81239673975.0,,,-8.7050249,115.1820732,https://maps.google.com/?cid=0x0:0x181fc03fafedc4a2,
hardware store,Toko Perlengkapan Rumah,AZKO Nusa Dua Bali,"Jl. By Pass Ngurah Rai 162, Kec. Kuta Selatan, Jimbaran, Bali, 80363","Kec. Kuta Selatan, Jimbaran",BALI,80363.0,Indonesia,82146879787.0,,,-8.7833742,115.1852221,https://maps.google.com/?cid=0x0:0xe84bdfaaebc0f664,
hardware store,Toko Bahan Bangunan,toko bangunan ud. ron-ron,"8588+7PJ, Jl. Raya Taman, Seminyak, Kec. Kuta, Kabupaten Badung, Bali 80361","Jl. Raya Taman, Seminyak, Kec. Kuta, Kabupaten Badung",BALI,80361.0,Indonesia,81916232220.0,,,-8.6843075,115.1668041,https://maps.google.com/?cid=0x0:0x32edbb68b8e470e5,
hardware store,Toko bahan makanan,AZKO Mall Bali Galeria,"Mal Bali Galeria Level 1, Jl. Bypass Ngurah Rai, Kuta, Kec. Kuta, Kabupaten Badung, Bali 80361","Jl. Bypass Ngurah Rai, Kuta, Kec. Kuta, Kabupaten Badung",BALI,80361.0,Indonesia,82146459885.0,,,-8.7228901,115.1851101,https://maps.google.com/?cid=0x0:0x325e6877f2de7bbc,
hardware store,Toko Bahan Bangunan,BUILDING HARDWARE SOLUTION BALI,"Jl. Mahendradatta Selatan No.178, Padangsambian, Kec. Denpasar Bar., Kota Denpasar, Bali 80119","Padangsambian, Kec. Denpasar Bar., Kota Denpasar",BALI,80119.0,Indonesia,85783003968.0,,,-8.6830927,115.1886271,https://maps.google.com/?cid=0x0:0xd38ca0642e6459d2,
hardware store,Toko Bahan Bangunan,Karya Utama,"Jl. Raya Canggu No.72, Kerobokan, Kec. Kuta Utara, Kabupaten Badung, Bali 80361","Kerobokan, Kec. Kuta Utara, Kabupaten Badung",BALI,80361.0,Indonesia,85100424366.0,,,-8.6408577,115.1536703,https://maps.google.com/?cid=0x0:0xf0e4668697df057f,
hardware store,Toko,Central Brass Bali,"Jl. Gn. Tangkuban Perahu No.71, Kerobokan, Kec. Kuta Utara, Kabupaten Badung, Bali 80361","Kerobokan, Kec. Kuta Utara, Kabupaten Badung",BALI,80361.0,Indonesia,85540584188.0,,,-8.6720352,115.1668641,https://maps.google.com/?cid=0x0:0xbb3e060fbcba7766,
hardware store,Pabrikan mebel,Whatwood Bali,"Jl. Raya Semer No.131, Kerobokan Kelod, Kec. Kuta Utara, Kabupaten Badung, Bali 80363","Kerobokan Kelod, Kec. Kuta Utara, Kabupaten Badung",BALI,80363.0,Indonesia,82146487179.0,,,-8.6493865,115.1625623,https://maps.google.com/?cid=0x0:0x8a53faa1b15e6348,
hardware store,Toko Bahan Bangunan,UD Dalung Sari,"95WC+HM4, Jalan Raya Dalung Abianbase Kuta Utara, Dalung, Kec. Kuta Utara, Kabupaten Badung, Bali 80351","Jalan Raya Dalung Abianbase Kuta Utara, Dalung, Kec. Kuta Utara, Kabupaten Badung",BALI,80351.0,Indonesia,85100666699.0,,,-8.6036059,115.1717039,https://maps.google.com/?cid=0x0:0xf818cd335c345ca9,
hardware store,hardware store,Minara Bolt Shop,"Jl. Raya Canggu No.88, Kerobokan, Kec. Kuta Utara, Kabupaten Badung, Bali 80361","Kerobokan, Kec. Kuta Utara, Kabupaten Badung",BALI,80361.0,Indonesia,,,,-8.6451898,115.1694363,https://maps.google.com/?cid=0x0:0x66f5a1cf539fbb59,
hardware store,Toko,UD. Surya Abadi,"Jl. Raya Padonan No.1, Tibubeneng, Kec. Kuta Utara, Kabupaten Badung, Bali 80351","Tibubeneng, Kec. Kuta Utara, Kabupaten Badung",BALI,80351.0,Indonesia,81999418866.0,,,-8.6261174,115.1648648,https://maps.google.com/?cid=0x0:0xe28bbd2ff5f85832,
hardware store,Toko Bahan Bangunan,Ud. Puspa Sari,"Jl. Gn. Tangkuban Perahu No.88, Kerobokan Kelod, Kec. Kuta Utara, Kabupaten Badung, Bali 80361","Kerobokan Kelod, Kec. Kuta Utara, Kabupaten Badung",BALI,80361.0,Indonesia,361731583.0,,,-8.6775936,115.1744004,https://maps.google.com/?cid=0x0:0x8ac2abaf3dcf980b,
hardware store,Toko Bahan Bangunan,Toko Bangunan Berkat Padonan,"Jl. Raya Padonan No.48C, Tibubeneng, Kec. Kuta Utara, Kabupaten Badung, Bali 80361","Tibubeneng, Kec. Kuta Utara, Kabupaten Badung",BALI,80361.0,Indonesia,81239214036.0,,,-8.6368552,115.1585952,https://maps.google.com/?cid=0x0:0x5d680a282d6b971b,
hardware store,Toko Bahan Bangunan,Sinar Terang Bangunan,"Jl. Raya Canggu No.28X, Canggu, Kec. Kuta Utara, Kabupaten Badung, Bali 80351","Canggu, Kec. Kuta Utara, Kabupaten Badung",BALI,80351.0,Indonesia,85100429236.0,,,-8.6379,115.1490791,https://maps.google.com/?cid=0x0:0xf8a8e44e370a5629,
hardware store,Pemasok Bahan Bangunan,Hal Mar Sanitary,"Jl. Gatot Subroto Barat No.18X, Kerobokan Kaja, Kec. Kuta Utara, Kabupaten Badung, Bali 80361","Kerobokan Kaja, Kec. Kuta Utara, Kabupaten Badung",BALI,80361.0,Indonesia,,,,-8.6372623,115.1764434,https://maps.google.com/?cid=0x0:0xdc299cbc7becffd6,
hardware store,Toko Bahan Bangunan,UD. Suni,"Jl. Mertanadi No.65, Kerobokan Kelod, Kec. Kuta Utara, Kabupaten Badung, Bali 80361","Kerobokan Kelod, Kec. Kuta Utara, Kabupaten Badung",BALI,80361.0,Indonesia,361735169.0,,,-8.6771383,115.1671565,https://maps.google.com/?cid=0x0:0x47d19192ea429bab,
hardware store,Pemasok Bahan Bangunan,Toko Bangunan Bangun Dunia,"Jl. Aseman Bagus No.22, Tibubeneng, Kec. Kuta Utara, Kabupaten Badung, Bali 80361","Tibubeneng, Kec. Kuta Utara, Kabupaten Badung",BALI,80361.0,Indonesia,81936152010.0,,,-8.6391226,115.1585334,https://maps.google.com/?cid=0x0:0x9f2fb62353cfec9d,
hardware store,Toko Bahan Bangunan,UD Sinar Jaya,"95F6+5Q9, Jl. Raya Padonan, Tibubeneng, Kec. Kuta Utara, Kabupaten Badung, Bali 80361","Jl. Raya Padonan, Tibubeneng, Kec. Kuta Utara, Kabupaten Badung",BALI,80361.0,Indonesia,8123901564.0,,,-8.627096,115.161987,https://maps.google.com/?cid=0x0:0x6c9025e66f409a18,
hardware store,Toko Bahan Bangunan,Toko Bangunan Jaya Abadi,"Jl. Raya Babakan Canggu No.30 , Canggu, Kuta Utara, Kabupaten Badung, Bali 80351, Jl. Raya Babakan Canggu, Canggu, Kec. Kuta Utara, Kabupaten Badung, Bali 80361","Canggu, Kuta Utara, Kabupaten Badung, Bali",BALI,80351.0,Indonesia,3618445488.0,,,-8.6292207,115.1514613,https://maps.google.com/?cid=0x0:0x7cbabe652a98a9bc,
hardware store,Toko Bahan Bangunan,Toko Surya Sejati Bangunan,"Jl Bila No 100 XX , Br. Dukuh Dalung , Kuta Utara, Dalung, Kec. Kuta Utara, Kabupaten Badung, Bali 80361","Br. Dukuh Dalung , Kuta Utara, Dalung, Kec. Kuta Utara, Kabupaten Badung",BALI,80361.0,Indonesia,81936066614.0,,,-8.6191503,115.1653779,https://maps.google.com/?cid=0x0:0x2ccdeeb0d8fb30bc,
hardware store,Toko Bahan Bangunan,UD Protio,"95VC+VF8, Jalan Raya Dalung Abianbase Kuta Utara, Dalung, Kec. Kuta Utara, Kabupaten Badung, Bali 80351","Jalan Raya Dalung Abianbase Kuta Utara, Dalung, Kec. Kuta Utara, Kabupaten Badung",BALI,80351.0,Indonesia,81999033996.0,,,-8.6053471,115.1712173,https://maps.google.com/?cid=0x0:0x451629be9779307c,
hardware store,Toko Bahan Bangunan,Ud. Sinar Mentari,"Jl. Padang Kartika No.12X, Kerobokan Kaja, Kec. Kuta Utara, Kabupaten Badung, Bali 80117","Kerobokan Kaja, Kec. Kuta Utara, Kabupaten Badung",BALI,80117.0,Indonesia,81337572288.0,,,-8.6546921,115.1781806,https://maps.google.com/?cid=0x0:0xfb87f6d3f4557e7a,
hardware store,Toko Bahan Bangunan,TOKO CIPTA DHARMA,"Jl. Gn. Tangkuban Perahu No.999, Kerobokan Kelod, Kec. Kuta Utara, Kabupaten Badung, Bali 80361","Kerobokan Kelod, Kec. Kuta Utara, Kabupaten Badung",BALI,80361.0,Indonesia,81338761761.0,,,-8.6748274,115.1726671,https://maps.google.com/?cid=0x0:0xad4cfb22dbd0f8e,
hardware store,Toko Bahan Bangunan,UD. Tano,"Jl. Raya Semer No.77, Kerobokan, Kec. Kuta Utara, Kabupaten Badung, Bali 80361","Kerobokan, Kec. Kuta Utara, Kabupaten Badung",BALI,80361.0,Indonesia,81916470208.0,,,-8.651686,115.1620529,https://maps.google.com/?cid=0x0:0xb5792ffd5a5abe1a,
hardware store,Toko Bahan Bangunan,Purya Jaya (Toko Besi),"Jl. Raya Abianbase No.119, Abianbase, Kec. Mengwi, Kabupaten Badung, Bali 80351","Abianbase, Kec. Mengwi, Kabupaten Badung",BALI,80351.0,Indonesia,81943764566.0,,,-8.6017951,115.172593,https://maps.google.com/?cid=0x0:0x68c35f819e39a9c6,
hardware store,hardware store,Bali 80351,"Kec. Mengwi, Kabupaten Badung, Bali","Kabupaten Badung, Bali",BALI,,Indonesia,,,,-8.5617185,115.1770586,https://maps.google.com/?cid=0x0:0x1c00c5eb6016be30,
hardware store,Toko Bahan Bangunan,UD. Sari Buana,"C5XC+442, Jl. I. Gusti Ngurahrai-Mengwi, Mengwitani, Kec. Mengwi, Kabupaten Badung, Bali 80351","Jl. I. Gusti Ngurahrai-Mengwi, Mengwitani, Kec. Mengwi, Kabupaten Badung",BALI,80351.0,Indonesia,87722746208.0,,,-8.5522478,115.1702673,https://maps.google.com/?cid=0x0:0xe68e4c6c5a43be99,
hardware store,Pasar bahan bangunan,BANGUN SARI,"Jl. Raya Panglan No.81x, Kapal, Kec. Mengwi, Kabupaten Badung, Bali 80351","Kapal, Kec. Mengwi, Kabupaten Badung",BALI,80351.0,Indonesia,821147860939.0,,,-8.558727,115.188996,https://maps.google.com/?cid=0x0:0x3eb2c20326fc31a6,
hardware store,Toko Bahan Bangunan,UD Sinar Mas,"Jl. Pratu Rai Madra No.17, Mengwitani, Kec. Mengwi, Kabupaten Badung, Bali 80351","Mengwitani, Kec. Mengwi, Kabupaten Badung",BALI,80351.0,Indonesia,8123619028.0,,,-8.5656015,115.1653283,https://maps.google.com/?cid=0x0:0xa7cc01c09568eae1,
hardware store,Toko Bahan Bangunan,UD. Waras,"C5MM+7JJ, Jl. Penglan, Banjar Cepake, Kapal, Mengwi, Bali, Kapal, Kec. Mengwi, Kabupaten Badung, Bali 80531","Jl. Penglan, Banjar Cepake, Kapal, Mengwi, Bali, Kapal, Kec. Mengwi, Kabupaten Badung",BALI,80531.0,Indonesia,82144702273.0,,,-8.566777,115.1840019,https://maps.google.com/?cid=0x0:0x4ee45f42903430e,
hardware store,Toko Elektronik,TB. Ayu Listrik,"C5XC+H4G, Jl. I Gusti Ngurah Rai, Mengwi, Kec. Mengwi, Kabupaten Badung, Bali 80351","Jl. I Gusti Ngurah Rai, Mengwi, Kec. Mengwi, Kabupaten Badung",BALI,80351.0,Indonesia,85102983258.0,,,-8.5510613,115.170317,https://maps.google.com/?cid=0x0:0xf42989f88f33b600,
hardware store,Toko Bahan Bangunan,Dogles Jaya,"C55P+MMW, Jl. Raya Lukluk - Sempidi, Lukluk, Kec. Mengwi, Kabupaten Badung, Bali 80351","Jl. Raya Lukluk - Sempidi, Lukluk, Kec. Mengwi, Kabupaten Badung",BALI,80351.0,Indonesia,81558254642.0,,,-8.5907549,115.1866932,https://maps.google.com/?cid=0x0:0x65be9699b74631a4,
hardware store,Toko Bahan Bangunan,Toko Anom Yasa,"F58C+69F, Jl. I Gusti Ngurah Rai, Werdi Bhuwana, Kec. Mengwi, Kabupaten Badung, Bali 80351","Jl. I Gusti Ngurah Rai, Werdi Bhuwana, Kec. Mengwi, Kabupaten Badung",BALI,80351.0,Indonesia,361813878.0,,,-8.534436,115.170913,https://maps.google.com/?cid=0x0:0x99ee853a7008fb4,
hardware store,Toko Bahan Bangunan,Sari Sedana,"Jl. Raya Anggungan No.10, Lukluk, Kec. Mengwi, Kabupaten Badung, Bali 80351","Lukluk, Kec. Mengwi, Kabupaten Badung",BALI,80351.0,Indonesia,85100844856.0,,,-8.5810178,115.1890812,https://maps.google.com/?cid=0x0:0x2f67b5ccf93fad07,
hardware store,Toko Perlengkapan Rumah,berkat bangunan global,"Jl. Raya Sading No.134A, Sading, Kec. Mengwi, Kabupaten Badung, Bali 80531","Sading, Kec. Mengwi, Kabupaten Badung",BALI,80531.0,Indonesia,82237888883.0,,,-8.5917882,115.1992477,https://maps.google.com/?cid=0x0:0x314696fd9363ba06,
hardware store,Toko Bahan Bangunan,Ud Ririn,"C5HH+3W3, Jalan Raya Kapal Desa Kapal Mengwi, Kapal, Kec. Mengwi, Kabupaten Badung, Bali 80531","Jalan Raya Kapal Desa Kapal Mengwi, Kapal, Kec. Mengwi, Kabupaten Badung",BALI,80531.0,Indonesia,81237883518.0,,,-8.572365,115.179807,https://maps.google.com/?cid=0x0:0x6174de24c0d30a50,
hardware store,Toko Bahan Bangunan,K. Setiawati Toko Pasir,"947R+W6X, Jl. Raya Pererenan Tanah Lot, Canggu, Mengwi, Pererenan, Kec. Mengwi, Kabupaten Badung, Bali 80351","Jl. Raya Pererenan Tanah Lot, Canggu, Mengwi, Pererenan, Kec. Mengwi, Kabupaten Badung",BALI,80351.0,Indonesia,82341105113.0,,,-8.6351322,115.1406076,https://maps.google.com/?cid=0x0:0x8a20fe10a3843f63,
hardware store,Toko Batu,Angel Stone,"95X5+HPJ, Jl. Raya Tangeb, Abianbase, Kec. Mengwi, Kabupaten Badung, Bali 80351","Jl. Raya Tangeb, Abianbase, Kec. Mengwi, Kabupaten Badung",BALI,80351.0,Indonesia,82339816691.0,,,-8.601049,115.159255,https://maps.google.com/?cid=0x0:0xc9cb99bd5b92bef,
hardware store,Toko Bahan Bangunan,UD Sri Udari,"Jl. Raya Panglan No.234, Kapal, Kec. Mengwi, Kabupaten Badung, Bali 80351","Kapal, Kec. Mengwi, Kabupaten Badung",BALI,80351.0,Indonesia,8164701516.0,,,-8.5641106,115.1858181,https://maps.google.com/?cid=0x0:0x7c3138deefcd5d88,
hardware store,Toko Bahan Bangunan,UD.DEWATA BANGUNAN,"Jl. Raya Denpasar, Werdi Bhuwana, Kec. Mengwi, Kabupaten Badung, Bali 80351","Werdi Bhuwana, Kec. Mengwi, Kabupaten Badung",BALI,80351.0,Indonesia,85805335796.0,,,-8.5095673,115.1786802,https://maps.google.com/?cid=0x0:0x42964b7d70d0238f,
hardware store,Toko Bahan Bangunan,Wira Jaya,"C5Q6+J82, Jalan Terminal, Mengwitani, Kec. Mengwi, Kabupaten Badung, Bali 80351","Jalan Terminal, Mengwitani, Kec. Mengwi, Kabupaten Badung",BALI,80351.0,Indonesia,85100893036.0,,,-8.5609968,115.1607719,https://maps.google.com/?cid=0x0:0xb8cb3bd9399db6d8,
hardware store,Toko Bahan Bangunan,UD. Dana Jaya,"C5MM+6HV, Jl. Penglan, Banjar cepaka, Kapal, Mengwi, Bali, Kapal, Kec. Mengwi, Kabupaten Badung, Bali 80531","Jl. Penglan, Banjar cepaka, Kapal, Mengwi, Bali, Kapal, Kec. Mengwi, Kabupaten Badung",BALI,80531.0,Indonesia,85755463123.0,,,-8.566899,115.183935,https://maps.google.com/?cid=0x0:0xc5bb0f34441f1a14,
hardware store,Toko Bahan Bangunan,Kadung Tresna,"Jl. Pratu Rai Madra No.15, Mengwitani, Kec. Mengwi, Kabupaten Badung, Bali 80351","Mengwitani, Kec. Mengwi, Kabupaten Badung",BALI,80351.0,Indonesia,8123619028.0,,,-8.5651937,115.1653082,https://maps.google.com/?cid=0x0:0x791c3f1be9d5af89,
hardware store,Toko Bahan Bangunan,Ud. Sri Utama,"F55G+3FC, Jl. Soka, Gulingan, Kec. Mengwi, Kabupaten Badung, Bali 80351","Jl. Soka, Gulingan, Kec. Mengwi, Kabupaten Badung",BALI,80351.0,Indonesia,81337795300.0,,,-8.5423034,115.1761557,https://maps.google.com/?cid=0x0:0x195ad8548723193c,
hardware store,Toko Bahan Bangunan,Decormart Bali,"Sebelah Pepito, Jl. Raya Pererenan Tanah Lot, Pererenan, Kec. Mengwi, Bali, 80351","Jl. Raya Pererenan Tanah Lot, Pererenan, Kec. Mengwi",BALI,80351.0,Indonesia,81251111089.0,,,-8.6309533,115.1333386,https://maps.google.com/?cid=0x0:0xaa2cfc11720f8c49,
hardware store,Toko Bahan Bangunan,UD. Graha Mandiri,"95WP+99H Depan Puspem, Jl. Raya Sempidi, Sempidi, Kec. Mengwi, Kabupaten Badung, Bali 80631","Jl. Raya Sempidi, Sempidi, Kec. Mengwi, Kabupaten Badung",BALI,80631.0,Indonesia,361422666.0,,,-8.6040581,115.1859715,https://maps.google.com/?cid=0x0:0xfae31b7e159f5c08,
hardware store,Toko Bahan Bangunan,Graha Adiharta,"Jl. Perang Lukluk- Darmasaba No.GH20, Lukluk,Mengwi, Lukluk, Kec. Mengwi, Kabupaten Badung, Bali 80352","Lukluk,Mengwi, Lukluk, Kec. Mengwi, Kabupaten Badung",BALI,80352.0,Indonesia,81916338078.0,,,-8.5795366,115.1940005,https://maps.google.com/?cid=0x0:0x17d752d316bb2c7a,
hardware store,Toko,SURGA BAUT CANGGU2,"Jl. Raya Canggu, Pererenan, Kec. Mengwi, Kabupaten Badung, Bali 80351","Pererenan, Kec. Mengwi, Kabupaten Badung",BALI,80351.0,Indonesia,87851383631.0,,,-8.6333422,115.1374577,https://maps.google.com/?cid=0x0:0x8f44fe6e9783258f,
hardware store,Toko Bahan Bangunan,Mekar Jaya Gypsum,"C58W+47, Lukluk, Kec. Mengwi, Kabupaten Badung, Bali 80351","Lukluk, Kec. Mengwi, Kabupaten Badung",BALI,80351.0,Indonesia,81999311823.0,,,-8.5846516,115.1956997,https://maps.google.com/?cid=0x0:0xd3df91326cb1e279,
hardware store,hardware store,Bali 80353,"Kec. Petang, Kabupaten Badung, Bali","Kabupaten Badung, Bali",BALI,,Indonesia,,,,-8.3365862,115.2244853,https://maps.google.com/?cid=0x0:0x1c00c5eb6016be50,
hardware store,Toko Bahan Bangunan,UD Pratama,"Jl. I.GST. NGR Rai No.184, Petang, Kec. Petang, Kabupaten Badung, Bali 80353","Petang, Kec. Petang, Kabupaten Badung",BALI,80353.0,Indonesia,85239407535.0,,,-8.3960759,115.2187662,https://maps.google.com/?cid=0x0:0x64c1b9c8cf3a22ae,
hardware store,Toko Bahan Bangunan,UD Dua Cahaya,"J69F+W34, Jl. Raya Pura Pucak Mangu, Petang, Kec. Petang, Kabupaten Badung, Bali 80353","Jl. Raya Pura Pucak Mangu, Petang, Kec. Petang, Kabupaten Badung",BALI,80353.0,Indonesia,81338532242.0,,,-8.3802307,115.2227006,https://maps.google.com/?cid=0x0:0xb4c78ae19661db18,
hardware store,Toko Bahan Bangunan,Ud. Adi Putra,"P63C+3RC, Jl. Raya Pura Pucak Mangu, Pelaga, Kec. Petang, Kabupaten Badung, Bali 80353","Jl. Raya Pura Pucak Mangu, Pelaga, Kec. Petang, Kabupaten Badung",BALI,80353.0,Indonesia,81237674715.0,,,-8.2973141,115.2220241,https://maps.google.com/?cid=0x0:0xeb3a28b17d543a76,
hardware store,Toko Bahan Bangunan,UD Putra Sedana,"H64F+44X, Jl. I.GST. NGR Rai, Samuan Carangsari, Petang, Kabupaten Badung, Bali, Carangsari, Kec. Petang, Kabupaten Badung, Bali 80353","Jl. I.GST. NGR Rai, Samuan Carangsari, Petang, Kabupaten Badung, Bali, Carangsari, Kec. Petang, Kabupaten Badung",BALI,80353.0,Indonesia,85333220875.0,,,-8.4446437,115.2228692,https://maps.google.com/?cid=0x0:0x9ecd65b68875561a,
hardware store,Toko Bahan Bangunan,TB Surya Premana Sangeh,"Jl. Abimanyu, Sangeh, Kec. Abiansemal, Kabupaten Badung, Bali 80352","Sangeh, Kec. Abiansemal, Kabupaten Badung",BALI,80352.0,Indonesia,81936688007.0,,,-8.4764862,115.2072661,https://maps.google.com/?cid=0x0:0xae21182b4e410034,
hardware store,Toko Bahan Bangunan,Toko PARWATA,"G78H+X5M, Jalan Raya, Banjar Gentong, Tegallalang, Gianyar Regency, Bali 80561","Jalan Raya, Banjar Gentong, Tegallalang, Gianyar Regency",BALI,80561.0,Indonesia,361973052.0,,,-8.482544,115.277922,https://maps.google.com/?cid=0x0:0xaa4e719a96cd754f,
hardware store,Toko Bahan Bangunan,KHETALAJI HARDWARE,"HP Pump ke Pas, Bisalpur Bali Road, Tua, Marga, Tabanan Regency, Bali","Kabupaten Tabanan, Bali",BALI,,Indonesia,,,,-8.4095178,115.188916,https://maps.google.com/?cid=0x0:0xc2785d263c9cf67d,
hardware store,Toko Bahan Bangunan,Atlantic Hardware Store,"Jl. Sunset Road No.65 A, Legian, Kec. Kuta, Kabupaten Badung, Bali 80361","Legian, Kec. Kuta, Kabupaten Badung",BALI,80361.0,Indonesia,81239673975.0,,,-8.7050249,115.1820732,https://maps.google.com/?cid=0x0:0x181fc03fafedc4a2,
toko bangunan,toko bangunan,Bali 80352,"Abiansemal, Kec. Abiansemal, Kabupaten Badung, Bali","Kabupaten Badung, Bali",BALI,,Indonesia,,,,-8.5584335,115.2244853,https://maps.google.com/?cid=0x0:0x1c00c5eb6016be40,
toko bangunan,Toko Bahan Bangunan,UD. Surya Jaya Bangunan,"Jl. Raya Angantaka - Sibang Gede, Sedang, Kec. Abiansemal, Kabupaten Badung, Bali 80352","Sedang, Kec. Abiansemal, Kabupaten Badung",BALI,80352.0,Indonesia,87860331710.0,,,-8.5796852,115.2353893,https://maps.google.com/?cid=0x0:0x7f30301e5f1d7c9c,
toko bangunan,Toko Bahan Bangunan,TB ARTA SARANA,"Jl. Tanah Ayu, blumbungan, Sibang Gede, Kec. Abiansemal, Kabupaten Badung, Bali 80352","blumbungan, Sibang Gede, Kec. Abiansemal, Kabupaten Badung",BALI,80352.0,Indonesia,85383000300.0,,,-8.5725842,115.2109615,https://maps.google.com/?cid=0x0:0xcea3f56facdebfa9,
toko bangunan,Toko Bahan Bangunan,Toko Bangunan Mutiara K3,"Jl. Ciung Wanara, Sangeh, Kec. Abiansemal, Kabupaten Badung, Bali 80352","Sangeh, Kec. Abiansemal, Kabupaten Badung",BALI,80352.0,Indonesia,,,,-8.5019072,115.2100904,https://maps.google.com/?cid=0x0:0x475c101f276f99c0,
toko bangunan,Toko Bahan Bangunan,Toko UD Wira Jaya,"Jl. Ciung Wanara, Blahkiuh, Kec. Abiansemal, Kabupaten Badung, Bali 80352","Blahkiuh, Kec. Abiansemal, Kabupaten Badung",BALI,80352.0,Indonesia,81237666226.0,,,-8.4979956,115.2095848,https://maps.google.com/?cid=0x0:0xe97f06b00ec35b50,
toko bangunan,Toko bahan makanan,Graha Prima,"Jl. Raya Darmasaba, Darmasaba, Kec. Abiansemal, Kabupaten Badung, Bali 80352","Darmasaba, Kec. Abiansemal, Kabupaten Badung",BALI,80352.0,Indonesia,87861993118.0,,,-8.5870113,115.2016677,https://maps.google.com/?cid=0x0:0x840e320012f41bb9,
toko bangunan,Toko Bahan Bangunan,Nila Sari,"C6MR+J38, Jalan Batur Banjar Kauripan, Sedang, Kec. Abiansemal, Kabupaten Badung, Bali 80352","Jalan Batur Banjar Kauripan, Sedang, Kec. Abiansemal, Kabupaten Badung",BALI,80352.0,Indonesia,8123680668.0,,,-8.565966,115.2402058,https://maps.google.com/?cid=0x0:0xdc9b3703fa04b811,
toko bangunan,Toko Bahan Bangunan,UD. Puri Indah,"Jl. Raya Abiansemal No.21, Abiansemal, Kec. Abiansemal, Kabupaten Badung, Bali 80352","Abiansemal, Kec. Abiansemal, Kabupaten Badung",BALI,80352.0,Indonesia,85100428775.0,,,-8.5272429,115.2120746,https://maps.google.com/?cid=0x0:0xca2c8d30f5e005b1,
toko bangunan,Toko Bunga,Toko Kembang Sari,"Jl. Ciung Wanara No.168, Blahkiuh, Kec. Abiansemal, Kabupaten Badung, Bali 80352","Blahkiuh, Kec. Abiansemal, Kabupaten Badung",BALI,80352.0,Indonesia,87773785215.0,,,-8.5058763,115.2102882,https://maps.google.com/?cid=0x0:0xb8a3571d8b229f1d,
toko bangunan,Pasar bahan bangunan,UD. Putra Dandan Jaya 2,"Jl. Raya Krasan No.16, Sedang, Kec. Abiansemal, Kabupaten Badung, Bali 80352","Sedang, Kec. Abiansemal, Kabupaten Badung",BALI,80352.0,Indonesia,82144032111.0,,,-8.5666241,115.2346072,https://maps.google.com/?cid=0x0:0xfc7e9b0d886d753d,
toko bangunan,Toko Bahan Bangunan,TB Iswara Graha,"G62P+3MR, Jl. Tanggayuda, Bongkasa, Kec. Abiansemal, Kabupaten Badung, Bali 80352","Jl. Tanggayuda, Bongkasa, Kec. Abiansemal, Kabupaten Badung",BALI,80352.0,Indonesia,8123977489.0,,,-8.4997746,115.2366352,https://maps.google.com/?cid=0x0:0xd659ddac16ca001d,
toko bangunan,Toko Bahan Bangunan,TB Mutiara Abadi,"Jl. Darmasaba Permai V No.C68, Darmasaba, Kec. Abiansemal, Kabupaten Badung, Bali 80352","Darmasaba, Kec. Abiansemal, Kabupaten Badung",BALI,80352.0,Indonesia,3618441503.0,,,-8.5854819,115.2131526,https://maps.google.com/?cid=0x0:0x3ed8abc08e8dd588,
toko bangunan,Toko Bahan Bangunan,TOKO TB De'bon,"F6G2+GMF, Unnamed Road, Dauh Yeh Cani, Kec. Abiansemal, Kabupaten Badung, Bali 80352","Unnamed Road, Dauh Yeh Cani, Kec. Abiansemal, Kabupaten Badung",BALI,80352.0,Indonesia,81335123123.0,,,-8.5236787,115.2016631,https://maps.google.com/?cid=0x0:0xaa2b8819159f3829,
toko bangunan,Toko Bahan Bangunan,BIMA KARYA PERKASA MATERIAL NEW,"Jl. Katjong Seleman, Darmasaba, Kec. Abiansemal, Kabupaten Badung, Bali 80351","Darmasaba, Kec. Abiansemal, Kabupaten Badung",BALI,80351.0,Indonesia,81338811106.0,,,-8.5960181,115.2062651,https://maps.google.com/?cid=0x0:0x7ac4b1fedf340aba,
toko bangunan,Toko Bahan Bangunan,Toko Bangunan Karya Yasa,"F6P4+J9W, Jl. Barong Br. Kedampal, Blahkiuh, Kec. Abiansemal, Kabupaten Badung, Bali 80352","Jl. Barong Br. Kedampal, Blahkiuh, Kec. Abiansemal, Kabupaten Badung",BALI,80352.0,Indonesia,8123993122.0,,,-8.513399,115.205952,https://maps.google.com/?cid=0x0:0x127893b2679ca63,
toko bangunan,toko bangunan,UD.JAYA BANGUN MATRIAL DEWATA,"C6Q9+WGP, Sibang Kaja, Kec. Abiansemal, Kabupaten Badung, Bali 80352","Sibang Kaja, Kec. Abiansemal, Kabupaten Badung",BALI,80352.0,Indonesia,85809110931.0,,,-8.5601625,115.2188281,https://maps.google.com/?cid=0x0:0x6516cb8b8673ca11,
toko bangunan,Toko Bahan Bangunan,Depo Bangunan Anugrah Dewata,"Jl. Raya Tebongkang, Singakerta, Kecamatan Ubud, Kabupaten Gianyar, Bali 80571","Singakerta, Kecamatan Ubud, Kabupaten Gianyar",BALI,80571.0,Indonesia,,,,-8.5321801,115.2441498,https://maps.google.com/?cid=0x0:0x72ab999e92861840,
toko bangunan,Toko Bahan Bangunan,Toko Dana Sari,"C6MC+63P, Jl. Raya Sibang Kaja, Sedang, Kec. Abiansemal, Kabupaten Badung, Bali 80352","Jl. Raya Sibang Kaja, Sedang, Kec. Abiansemal, Kabupaten Badung",BALI,80352.0,Indonesia,361469346.0,,,-8.5669113,115.2202183,https://maps.google.com/?cid=0x0:0x6a197262a1e01af6,
toko bangunan,Toko Bahan Bangunan,Toko Manuarta,"F6VJ+G32, Jl. Raya Pengembungan, Bongkasa, Kec. Abiansemal, Kabupaten Badung, Bali 80352","Jl. Raya Pengembungan, Bongkasa, Kec. Abiansemal, Kabupaten Badung",BALI,80352.0,Indonesia,,,,-8.5062495,115.2301406,https://maps.google.com/?cid=0x0:0xb7aeacdb63f0ca26,
toko bangunan,Toko Bahan Bangunan,UD Adi Jaya,"F6G5+48M, Jl. Janger, Dauh Yeh Cani, Kec. Abiansemal, Kabupaten Badung, Bali 80352","Jl. Janger, Dauh Yeh Cani, Kec. Abiansemal, Kabupaten Badung",BALI,80352.0,Indonesia,3618943322.0,,,-8.5246512,115.2082945,https://maps.google.com/?cid=0x0:0xfeb52ee46d73b9a8,
toko bangunan,Toko Bahan Bangunan,anugerah warna,"Jl. Raya Abiansemal No.21, Abiansemal, Kec. Abiansemal, Kabupaten Badung, Bali 80352","Abiansemal, Kec. Abiansemal, Kabupaten Badung",BALI,80352.0,Indonesia,81916501618.0,,,-8.5306947,115.2042719,https://maps.google.com/?cid=0x0:0x91c334c2dbedc687,
toko bangunan,Toko Bahan Bangunan,Artha Guna Bangunan,"Jl. Raya Darmasaba, Darmasaba, Kec. Abiansemal, Kabupaten Badung, Bali 80352","Darmasaba, Kec. Abiansemal, Kabupaten Badung",BALI,80352.0,Indonesia,81916641657.0,,,-8.5926014,115.2154335,https://maps.google.com/?cid=0x0:0xa39001bf799f0221,
toko bangunan,Toko Bahan Bangunan,DEPO WIRA-HD/PT.CATUR PUTRI MANDIRI JAYA,"Jl. Raya Gerih, Sibang Kaja, Kec. Abiansemal, Kabupaten Badung, Bali 80352","Sibang Kaja, Kec. Abiansemal, Kabupaten Badung",BALI,80352.0,Indonesia,877523370737.0,,,-8.5684539,115.2099929,https://maps.google.com/?cid=0x0:0x665a266d22ebb8d3,
toko bangunan,Toko Bahan Bangunan,Mekar Abadi Bangunan,"Jl. Bypass Ngurah Rai No.777, Jimbaran, Kec. Kuta Sel., Kabupaten Badung, Bali 80361","Jimbaran, Kec. Kuta Sel., Kabupaten Badung",BALI,80361.0,Indonesia,361705432.0,,,-8.7711655,115.1781008,https://maps.google.com/?cid=0x0:0x520fefd585a03977,
toko bangunan,Toko Bahan Bangunan,Murah Makmur Bangunan,"Jl. Bypass Ngurah Rai No.888, Kelan, Kec. Kuta, Kabupaten Badung, Bali 80361","Kelan, Kec. Kuta, Kabupaten Badung",BALI,80361.0,Indonesia,82233812345.0,,,-8.7572246,115.1796061,https://maps.google.com/?cid=0x0:0xe8391b7b971789a4,
toko bangunan,Toko Bahan Bangunan,Toko Bangunan Sari Kembang,"Jl. Toyaning No.5, Kedonganan, Kec. Kuta, Kabupaten Badung, Bali 80361","Kedonganan, Kec. Kuta, Kabupaten Badung",BALI,80361.0,Indonesia,85103474555.0,,,-8.7609644,115.1778617,https://maps.google.com/?cid=0x0:0x6867de01e7ecf1a8,
toko bangunan,Toko Bahan Bangunan,TOKO 2 DARA ABADI BANGUNAN,"Jl. Kubu Anyar No.22, Kuta, Kec. Kuta, Kabupaten Badung, Bali 80361","Kuta, Kec. Kuta, Kabupaten Badung",BALI,80361.0,Indonesia,361757422.0,,,-8.7291484,115.1727313,https://maps.google.com/?cid=0x0:0xa3ed648699af7e0a,
toko bangunan,Toko Bahan Bangunan,Toko Bangunan Jimbaran Baru,"Jl. Bypass Ngurah Rai No.25x, Jimbaran, Kec. Kuta Sel., Kabupaten Badung, Bali 80361","Jimbaran, Kec. Kuta Sel., Kabupaten Badung",BALI,80361.0,Indonesia,895366567535.0,,,-8.7842513,115.1913182,https://maps.google.com/?cid=0x0:0xe8893974142c658e,
toko bangunan,Toko Bahan Bangunan,Toko Bahan Bangunan Dewa Bratha,"Jalan Raya, Kuta, Badung Regency, Bali 80361","Kuta, Badung Regency",BALI,80361.0,Indonesia,81933090966.0,,,-8.724797,115.1767877,https://maps.google.com/?cid=0x0:0x210c742969ad0388,
toko bangunan,Toko Bahan Bangunan,Sumber Makmur Bangunan,"Jl. Raya Kuta No.23, Kuta, Kec. Kuta, Kabupaten Badung, Bali 80361","Kuta, Kec. Kuta, Kabupaten Badung",BALI,80361.0,Indonesia,361756569.0,,,-8.7085564,115.18147,https://maps.google.com/?cid=0x0:0x59bc244ae8bc271f,
toko bangunan,Toko Bahan Bangunan,Muda Sejahtera Toko Bangunan,"55FM+Q7H, Jl. Dharmawangsa Gg. Jalak Putih, Kutuh, Kec. Kuta Sel., Kabupaten Badung, Bali 80361","Jl. Dharmawangsa Gg. Jalak Putih, Kutuh, Kec. Kuta Sel., Kabupaten Badung",BALI,80361.0,Indonesia,85167599087.0,,,-8.825559,115.1832252,https://maps.google.com/?cid=0x0:0x41b138e70a0acf00,
toko bangunan,Toko Bahan Bangunan,UD. Mega Jaya (Toko Bangunan),"Jl. Raya Kuta No.78x, Kuta, Kec. Kuta, Kabupaten Badung, Bali 80361","Kuta, Kec. Kuta, Kabupaten Badung",BALI,80361.0,Indonesia,361753760.0,,,-8.7315333,115.177566,https://maps.google.com/?cid=0x0:0xb243112c5645c439,
toko bangunan,Toko Bahan Bangunan,NIRMALA BANGUNAN 1,"Jl. Uluwatu II No.10, Jimbaran, Kec. Kuta Sel., Kabupaten Badung, Bali 80361","Jimbaran, Kec. Kuta Sel., Kabupaten Badung",BALI,80361.0,Indonesia,82144584842.0,,,-8.7817553,115.1742951,https://maps.google.com/?cid=0x0:0x8a7d5b30aeb42a28,
toko bangunan,Toko Bahan Bangunan,Toko Bangunan Jaya,"Jl. Raya Kerobokan No. 9X, Kuta, Kerobokan Kaja, Kec. Kuta Utara, Kabupaten Badung, Bali 80361","Kuta, Kerobokan Kaja, Kec. Kuta Utara, Kabupaten Badung",BALI,80361.0,Indonesia,361413259.0,,,-8.6379473,115.1744855,https://maps.google.com/?cid=0x0:0x6a95397fed9a0144,
toko bangunan,Toko Bahan Bangunan,TOKO CIPTA BANGUNAN,"Jl. Bypass Ngurah Rai No.89, Jimbaran, Kec. Kuta Sel., Kabupaten Badung, Bali 80361","Jimbaran, Kec. Kuta Sel., Kabupaten Badung",BALI,80361.0,Indonesia,81139416078.0,,,-8.7842374,115.1899083,https://maps.google.com/?cid=0x0:0xd4a7ff133658b55e,
toko bangunan,Toko Bahan Bangunan,Toko Bangunan Wardani,"No Jl. Raya Tuban No.85X, Tuban, Kec. Kuta, Kabupaten Badung, Bali 80361","Tuban, Kec. Kuta, Kabupaten Badung",BALI,80361.0,Indonesia,82186585910.0,,,-8.7402894,115.1787482,https://maps.google.com/?cid=0x0:0x491b39cfc4b5f9bf,
toko bangunan,Toko Bahan Bangunan,toko bangunan ud. ron-ron,"8588+7PJ, Jl. Raya Taman, Seminyak, Kec. Kuta, Kabupaten Badung, Bali 80361","Jl. Raya Taman, Seminyak, Kec. Kuta, Kabupaten Badung",BALI,80361.0,Indonesia,81916232220.0,,,-8.6843075,115.1668041,https://maps.google.com/?cid=0x0:0x32edbb68b8e470e5,
toko bangunan,Toko Bahan Bangunan,Toko Karya Harja,"Jl. Kediri No.43, Kuta, Kec. Kuta, Kabupaten Badung, Bali 80361","Kuta, Kec. Kuta, Kabupaten Badung",BALI,80361.0,Indonesia,81292899820.0,,,-8.7387499,115.1723169,https://maps.google.com/?cid=0x0:0x7ac6fd372e8aa383,
toko bangunan,Toko Bahan Bangunan,Toko Bangunan MERTA SARI,"Jl. Kuruksetra No.51, Benoa, Kec. Kuta Sel., Kabupaten Badung, Bali 80361","Benoa, Kec. Kuta Sel., Kabupaten Badung",BALI,80361.0,Indonesia,81805624456.0,,,-8.8001744,115.2162498,https://maps.google.com/?cid=0x0:0x5409999d662dd146,
toko bangunan,Toko Bahan Bangunan,Unud Jaya Bangunan (UJB) Jimbaran Bali,"Jl. Raya Kampus Unud, Jimbaran, Kec. Kuta Sel., Kabupaten Badung, Bali 80361","Jimbaran, Kec. Kuta Sel., Kabupaten Badung",BALI,80361.0,Indonesia,,,,-8.7940929,115.1764836,https://maps.google.com/?cid=0x0:0x6291104a343deec1,
toko bangunan,Toko Bahan Bangunan,Mahakarya Bangunan,"Jl. Bypass Ngurah Rai No.09X, Jimbaran, Kec. Kuta Sel., Kabupaten Badung, Bali 80361","Jimbaran, Kec. Kuta Sel., Kabupaten Badung",BALI,80361.0,Indonesia,85100212626.0,,,-8.7697634,115.1777727,https://maps.google.com/?cid=0x0:0xfb78d698f13f3c09,
toko bangunan,Toko Perlengkapan Rumah,CAHAYA BALI Toko bangunan,"Jl. Banjar Kuwum Gg. Cendrawasih, Kerobokan Kelod, Kec. Kuta Utara, Kabupaten Badung, Bali 80361","Kerobokan Kelod, Kec. Kuta Utara, Kabupaten Badung",BALI,80361.0,Indonesia,,,,-8.6629294,115.157545,https://maps.google.com/?cid=0x0:0xf59825e9bec17918,
toko bangunan,Toko Bahan Bangunan,Bali Pasir Mas,"Jl. Uluwatu II No.100, Jimbaran, Kec. Kuta Sel., Kabupaten Badung, Bali 80361","Jimbaran, Kec. Kuta Sel., Kabupaten Badung",BALI,80361.0,Indonesia,87762601298.0,,,-8.7838371,115.1719526,https://maps.google.com/?cid=0x0:0xc080e1217ab47968,
toko bangunan,toko bangunan,Bali 80361,"Kec. Kuta Sel., Kabupaten Badung, Bali","Kabupaten Badung, Bali",BALI,,Indonesia,,,,-8.7953431,115.1652008,https://maps.google.com/?cid=0x0:0x1c00c5eb6016be60,
toko bangunan,Toko Bahan Bangunan,Toko Bangunan Mitra Jaya,"Jl. By Pass Ngurah Rai No. 88x, Nusa Dua, Kuta Selatan, Benoa, South Kuta, Badung Regency, Bali 82363","Nusa Dua, Kuta Selatan, Benoa, South Kuta, Badung Regency",BALI,82363.0,Indonesia,,,,-8.7886429,115.2089751,https://maps.google.com/?cid=0x0:0xd44b775bdf1ebe53,
toko bangunan,Toko Perlengkapan Rumah,MR. DIY Central Kuta,"Ruko Central Kuta, Jl. Patih Jelantik, Komp. Istana Kuta Galeria No.19, Kuta, Badung Regency, Bali 80361","Jl. Patih Jelantik, Komp. Istana Kuta Galeria No.19, Kuta, Badung Regency",BALI,80361.0,Indonesia,2130022789.0,,,-8.7121629,115.1803466,https://maps.google.com/?cid=0x0:0xb5fe953e1eb22628,
toko bangunan,Toko Bahan Bangunan,Karya Utama,"Jl. Raya Canggu No.72, Kerobokan, Kec. Kuta Utara, Kabupaten Badung, Bali 80361","Kerobokan, Kec. Kuta Utara, Kabupaten Badung",BALI,80361.0,Indonesia,85100424366.0,,,-8.6408577,115.1536703,https://maps.google.com/?cid=0x0:0xf0e4668697df057f,
toko bangunan,Toko Bahan Bangunan,UD. Kuta Mas,"Jl. Raya Kuta No.88, Kuta, Kec. Kuta, Kabupaten Badung, Bali 80361","Kuta, Kec. Kuta, Kabupaten Badung",BALI,80361.0,Indonesia,361761819.0,,,-8.7181815,115.1812436,https://maps.google.com/?cid=0x0:0xec69b0d2718a6c06,
toko bangunan,Toko Bahan Bangunan,Toko Bangunan Mitra Jaya,"Jl. By Pass Ngurah Rai No. 88x, Nusa Dua, Kuta Selatan, Benoa, South Kuta, Badung Regency, Bali 82363","Nusa Dua, Kuta Selatan, Benoa, South Kuta, Badung Regency",BALI,82363.0,Indonesia,,,,-8.7886429,115.2089751,https://maps.google.com/?cid=0x0:0xd44b775bdf1ebe53,
toko bangunan,Toko Bahan Bangunan,Mitra Jaya,"Jl. Nakula No.10e, Pemecutan Klod, Kec. Denpasar Bar., Kota Denpasar, Bali 80119","Pemecutan Klod, Kec. Denpasar Bar., Kota Denpasar",BALI,80119.0,Indonesia,8123816916.0,,,-8.699999,115.1836906,https://maps.google.com/?cid=0x0:0xb054074c1a3143cf,
toko bangunan,toko bangunan,Bali 80361,"Kec. Kuta Sel., Kabupaten Badung, Bali","Kabupaten Badung, Bali",BALI,,Indonesia,,,,-8.7953431,115.1652008,https://maps.google.com/?cid=0x0:0x1c00c5eb6016be60,
toko bangunan,Toko Bahan Bangunan,Toko Bangunan Jaya,"Jl. Raya Kerobokan No. 9X, Kuta, Kerobokan Kaja, Kec. Kuta Utara, Kabupaten Badung, Bali 80361","Kuta, Kerobokan Kaja, Kec. Kuta Utara, Kabupaten Badung",BALI,80361.0,Indonesia,361413259.0,,,-8.6379473,115.1744855,https://maps.google.com/?cid=0x0:0x6a95397fed9a0144,
toko bangunan,Toko Bahan Bangunan,Toko Bangunan Sari Kembang,"Jl. Toyaning No.5, Kedonganan, Kec. Kuta, Kabupaten Badung, Bali 80361","Kedonganan, Kec. Kuta, Kabupaten Badung",BALI,80361.0,Indonesia,85103474555.0,,,-8.7609644,115.1778617,https://maps.google.com/?cid=0x0:0x6867de01e7ecf1a8,
toko bangunan,Toko Perlengkapan Rumah,CAHAYA BALI Toko bangunan,"Jl. Banjar Kuwum Gg. Cendrawasih, Kerobokan Kelod, Kec. Kuta Utara, Kabupaten Badung, Bali 80361","Kerobokan Kelod, Kec. Kuta Utara, Kabupaten Badung",BALI,80361.0,Indonesia,,,,-8.6629294,115.157545,https://maps.google.com/?cid=0x0:0xf59825e9bec17918,
toko bangunan,Toko Bahan Bangunan,Toko Bangunan Sri Sedana Kuta,"75GG+PJH, Jl. Raya, Kuta, Kec. Kuta, Kabupaten Badung, Bali 80361","Jl. Raya, Kuta, Kec. Kuta, Kabupaten Badung",BALI,80361.0,Indonesia,82164640099.0,,,-8.723192,115.1765998,https://maps.google.com/?cid=0x0:0xc6e913ea8fe3603c,
toko bangunan,Toko Bahan Bangunan,Muda Sejahtera Toko Bangunan,"55FM+Q7H, Jl. Dharmawangsa Gg. Jalak Putih, Kutuh, Kec. Kuta Sel., Kabupaten Badung, Bali 80361","Jl. Dharmawangsa Gg. Jalak Putih, Kutuh, Kec. Kuta Sel., Kabupaten Badung",BALI,80361.0,Indonesia,85167599087.0,,,-8.825559,115.1832252,https://maps.google.com/?cid=0x0:0x41b138e70a0acf00,
toko bangunan,Toko Bahan Bangunan,Toko Bangunan MERTA SARI,"Jl. Kuruksetra No.51, Benoa, Kec. Kuta Sel., Kabupaten Badung, Bali 80361","Benoa, Kec. Kuta Sel., Kabupaten Badung",BALI,80361.0,Indonesia,81805624456.0,,,-8.8001744,115.2162498,https://maps.google.com/?cid=0x0:0x5409999d662dd146,
toko bangunan,Toko Perlengkapan Rumah,Cahaya Bali Bangunan Kerobokan,"Jl.Raya Kerobokan, Jl. Umalas Kangin, Kabupaten Badung, Bali 80361","Jl. Umalas Kangin, Kabupaten Badung",BALI,80361.0,Indonesia,,,,-8.6680747,115.1649848,https://maps.google.com/?cid=0x0:0x719cc6ef4946d1b6,
toko bangunan,Toko Bahan Bangunan,Mekar Abadi Bangunan,"Jl. Bypass Ngurah Rai No.777, Jimbaran, Kec. Kuta Sel., Kabupaten Badung, Bali 80361","Jimbaran, Kec. Kuta Sel., Kabupaten Badung",BALI,80361.0,Indonesia,361705432.0,,,-8.7711655,115.1781008,https://maps.google.com/?cid=0x0:0x520fefd585a03977,
toko bangunan,Toko Bahan Bangunan,Murah Makmur Bangunan,"Jl. Bypass Ngurah Rai No.888, Kelan, Kec. Kuta, Kabupaten Badung, Bali 80361","Kelan, Kec. Kuta, Kabupaten Badung",BALI,80361.0,Indonesia,82233812345.0,,,-8.7572246,115.1796061,https://maps.google.com/?cid=0x0:0xe8391b7b971789a4,
toko bangunan,Toko Bahan Bangunan,toko bangunan ud. ron-ron,"8588+7PJ, Jl. Raya Taman, Seminyak, Kec. Kuta, Kabupaten Badung, Bali 80361","Jl. Raya Taman, Seminyak, Kec. Kuta, Kabupaten Badung",BALI,80361.0,Indonesia,81916232220.0,,,-8.6843075,115.1668041,https://maps.google.com/?cid=0x0:0x32edbb68b8e470e5,
toko bangunan,Toko Bahan Bangunan,Karya Utama,"Jl. Raya Canggu No.72, Kerobokan, Kec. Kuta Utara, Kabupaten Badung, Bali 80361","Kerobokan, Kec. Kuta Utara, Kabupaten Badung",BALI,80361.0,Indonesia,85100424366.0,,,-8.6408577,115.1536703,https://maps.google.com/?cid=0x0:0xf0e4668697df057f,
toko bangunan,Toko Bahan Bangunan,TOKO TRUS,"Jl. Nuansa Utama Sel., Benoa, Kec. Kuta Sel., Kabupaten Badung, Bali 80361","Benoa, Kec. Kuta Sel., Kabupaten Badung",BALI,80361.0,Indonesia,85858911338.0,,,-8.8010087,115.1849633,https://maps.google.com/?cid=0x0:0xd1b6652271934470,
toko bangunan,Toko Bahan Bangunan,Toko Bangunan Puspa Nadi,"Jl. Raya Uluwatu No.88X, Jimbaran, Kec. Kuta Sel., Kabupaten Badung, Bali 80361","Jimbaran, Kec. Kuta Sel., Kabupaten Badung",BALI,80361.0,Indonesia,81338020262.0,,,-8.8029785,115.159744,https://maps.google.com/?cid=0x0:0x60d8e90e0bfa2fbb,
toko bangunan,Toko Bahan Bangunan,TB. Adil Makmur Nusa Dua,"Jl. Bypass Ngurah Rai No.25-99, Benoa, Kec. Kuta Sel., Kabupaten Badung, Bali 80361","Benoa, Kec. Kuta Sel., Kabupaten Badung",BALI,80361.0,Indonesia,81290908008.0,,,-8.7969502,115.2203048,https://maps.google.com/?cid=0x0:0x128de70a87926848,
toko bangunan,Pasar bahan bangunan,Toko Bangunan Bali Terlengkap - Mitra10 Bypass,"Jl. Bypass Ngurah Rai No.840-842, Pedungan, Denpasar Selatan, Kota Denpasar, Bali 80221","Pedungan, Denpasar Selatan, Kota Denpasar",BALI,80221.0,Indonesia,,,,-8.7203774,115.1954387,https://maps.google.com/?cid=0x0:0x23461395016b0860,
toko bangunan,Toko Bahan Bangunan,Unud Jaya Bangunan (UJB) Jimbaran Bali,"Jl. Raya Kampus Unud, Jimbaran, Kec. Kuta Sel., Kabupaten Badung, Bali 80361","Jimbaran, Kec. Kuta Sel., Kabupaten Badung",BALI,80361.0,Indonesia,,,,-8.7940929,115.1764836,https://maps.google.com/?cid=0x0:0x6291104a343deec1,
toko bangunan,Toko Bahan Bangunan,Adhi Putra Bangunan (JOTUN),"Ungasan, Kec. Kuta Sel., Kabupaten Badung, Bali 80361","Kec. Kuta Sel., Kabupaten Badung",BALI,80361.0,Indonesia,81333704111.0,,,-8.8152016,115.1562145,https://maps.google.com/?cid=0x0:0x2fecc01ac8eff5b8,
toko bangunan,Toko Bahan Bangunan,TOKO 2 DARA ABADI BANGUNAN,"Jl. Kubu Anyar No.22, Kuta, Kec. Kuta, Kabupaten Badung, Bali 80361","Kuta, Kec. Kuta, Kabupaten Badung",BALI,80361.0,Indonesia,361757422.0,,,-8.7291484,115.1727313,https://maps.google.com/?cid=0x0:0xa3ed648699af7e0a,
toko bangunan,Toko Bahan Bangunan,Jimbaran Baru Bangunan,"Jl. Raya Uluwatu, Ungasan, Kec. Kuta Sel., Kabupaten Badung, Bali 80361","Ungasan, Kec. Kuta Sel., Kabupaten Badung",BALI,80361.0,Indonesia,895368702067.0,,,-8.8121183,115.1576161,https://maps.google.com/?cid=0x0:0xee96497b3e23dd4c,
toko bangunan,Toko Bahan Bangunan,Jimbaran Baru Teknik 2,"Gg. Taman Anyar No.17x, Jimbaran, Kec. Kuta Sel., Kabupaten Badung, Bali 80361","Jimbaran, Kec. Kuta Sel., Kabupaten Badung",BALI,80361.0,Indonesia,81339368504.0,,,-8.7840182,115.1906357,https://maps.google.com/?cid=0x0:0x4550e6e813ab05c4,
toko bangunan,Pemasok Bahan Bangunan,Toko Bangunan Bangun Dunia,"Jl. Aseman Bagus No.22, Tibubeneng, Kec. Kuta Utara, Kabupaten Badung, Bali 80361","Tibubeneng, Kec. Kuta Utara, Kabupaten Badung",BALI,80361.0,Indonesia,81936152010.0,,,-8.6391226,115.1585334,https://maps.google.com/?cid=0x0:0x9f2fb62353cfec9d,
toko bangunan,Toko Bahan Bangunan,Karya Utama,"Jl. Raya Canggu No.72, Kerobokan, Kec. Kuta Utara, Kabupaten Badung, Bali 80361","Kerobokan, Kec. Kuta Utara, Kabupaten Badung",BALI,80361.0,Indonesia,85100424366.0,,,-8.6408577,115.1536703,https://maps.google.com/?cid=0x0:0xf0e4668697df057f,
toko bangunan,Toko Bahan Bangunan,Toko Bangunan Jaya,"Jl. Raya Kerobokan No. 9X, Kuta, Kerobokan Kaja, Kec. Kuta Utara, Kabupaten Badung, Bali 80361","Kuta, Kerobokan Kaja, Kec. Kuta Utara, Kabupaten Badung",BALI,80361.0,Indonesia,361413259.0,,,-8.6379473,115.1744855,https://maps.google.com/?cid=0x0:0x6a95397fed9a0144,
toko bangunan,Toko Perlengkapan Rumah,CAHAYA BALI Toko bangunan,"Jl. Banjar Kuwum Gg. Cendrawasih, Kerobokan Kelod, Kec. Kuta Utara, Kabupaten Badung, Bali 80361","Kerobokan Kelod, Kec. Kuta Utara, Kabupaten Badung",BALI,80361.0,Indonesia,,,,-8.6629294,115.157545,https://maps.google.com/?cid=0x0:0xf59825e9bec17918,
toko bangunan,Toko Bahan Bangunan,Toko Bangunan Ud.K3,"Perum Bumi, Jl. Perum Dalung Permai No.11 - 14 Blok K3, Kerobokan Kaja, Kec. Kuta Utara, Kabupaten Badung, Bali 80361","Jl. Perum Dalung Permai No.11 - 14 Blok K3, Kerobokan Kaja, Kec. Kuta Utara, Kabupaten Badung",BALI,80361.0,Indonesia,81236004173.0,,,-8.6320337,115.1700266,https://maps.google.com/?cid=0x0:0xd0bde3d5db4f4204,
toko bangunan,Toko Bahan Bangunan,UD Cahaya Abadi,"Jl. Pantai Berawa No.120X, Tibubeneng, Kec. Kuta Utara, Kabupaten Badung, Bali 80361","Tibubeneng, Kec. Kuta Utara, Kabupaten Badung",BALI,80361.0,Indonesia,3618446113.0,,,-8.647861,115.1496755,https://maps.google.com/?cid=0x0:0x71efa1b76cb8cfae,
toko bangunan,Toko Perlengkapan Rumah,Cahaya Bali Bangunan Kerobokan,"Jl.Raya Kerobokan, Jl. Umalas Kangin, Kabupaten Badung, Bali 80361","Jl. Umalas Kangin, Kabupaten Badung",BALI,80361.0,Indonesia,,,,-8.6680747,115.1649848,https://maps.google.com/?cid=0x0:0x719cc6ef4946d1b6,
toko bangunan,Toko Bahan Bangunan,SN Bangunan,"Jl. Tengah II, Kerobokan, Kec. Kuta Utara, Kabupaten Badung, Bali 80361","Kerobokan, Kec. Kuta Utara, Kabupaten Badung",BALI,80361.0,Indonesia,81337572288.0,,,-8.6474097,115.159791,https://maps.google.com/?cid=0x0:0x4aec7a4b24fb9d36,
toko bangunan,Toko Bahan Bangunan,Toko Bangunan Jaya Abadi,"Jl. Raya Babakan Canggu No.30 , Canggu, Kuta Utara, Kabupaten Badung, Bali 80351, Jl. Raya Babakan Canggu, Canggu, Kec. Kuta Utara, Kabupaten Badung, Bali 80361","Canggu, Kuta Utara, Kabupaten Badung, Bali",BALI,80351.0,Indonesia,3618445488.0,,,-8.6292207,115.1514613,https://maps.google.com/?cid=0x0:0x7cbabe652a98a9bc,
toko bangunan,Toko Bahan Bangunan,Toko Bangunan UD. BUDAYA INDAH (CABANG PADONAN),"Jl. Raya Padonan No.43, Tibubeneng, Kec. Kuta Utara, Kabupaten Badung, Bali 80361","Tibubeneng, Kec. Kuta Utara, Kabupaten Badung",BALI,80361.0,Indonesia,81228670418.0,,,-8.6377327,115.1577328,https://maps.google.com/?cid=0x0:0x6230082e7056294d,
toko bangunan,Toko Bahan Bangunan,Toko Bangunan Sari Kembang,"Jl. Toyaning No.5, Kedonganan, Kec. Kuta, Kabupaten Badung, Bali 80361","Kedonganan, Kec. Kuta, Kabupaten Badung",BALI,80361.0,Indonesia,85103474555.0,,,-8.7609644,115.1778617,https://maps.google.com/?cid=0x0:0x6867de01e7ecf1a8,
toko bangunan,Pemasok Bahan Bangunan,Jimbaran Baru,"Jl. Raya Canggu No.652, Tibubeneng, Kec. Kuta Utara, Kabupaten Badung, Bali 80361","Tibubeneng, Kec. Kuta Utara, Kabupaten Badung",BALI,80361.0,Indonesia,895368702063.0,,,-8.6442209,115.1576954,https://maps.google.com/?cid=0x0:0xb8a2c7e819c0d1f7,
toko bangunan,Toko Bahan Bangunan,Toko Surya Sejati Bangunan,"Jl Bila No 100 XX , Br. Dukuh Dalung , Kuta Utara, Dalung, Kec. Kuta Utara, Kabupaten Badung, Bali 80361","Br. Dukuh Dalung , Kuta Utara, Dalung, Kec. Kuta Utara, Kabupaten Badung",BALI,80361.0,Indonesia,81936066614.0,,,-8.6191503,115.1653779,https://maps.google.com/?cid=0x0:0x2ccdeeb0d8fb30bc,
toko bangunan,Toko Bahan Bangunan,toko bangunan ud. ron-ron,"8588+7PJ, Jl. Raya Taman, Seminyak, Kec. Kuta, Kabupaten Badung, Bali 80361","Jl. Raya Taman, Seminyak, Kec. Kuta, Kabupaten Badung",BALI,80361.0,Indonesia,81916232220.0,,,-8.6843075,115.1668041,https://maps.google.com/?cid=0x0:0x32edbb68b8e470e5,
toko bangunan,Toko Bahan Bangunan,UD Wibowo,"Jl. Raya Canggu No.168, Kerobokan, Kec. Kuta Utara, Kabupaten Badung, Bali 80361","Kerobokan, Kec. Kuta Utara, Kabupaten Badung",BALI,80361.0,Indonesia,3618446080.0,,,-8.643657,115.1570184,https://maps.google.com/?cid=0x0:0xbb82a00bb357565c,
toko bangunan,Toko Bahan Bangunan,Toko Bangunan Sri Sedana Kuta,"75GG+PJH, Jl. Raya, Kuta, Kec. Kuta, Kabupaten Badung, Bali 80361","Jl. Raya, Kuta, Kec. Kuta, Kabupaten Badung",BALI,80361.0,Indonesia,82164640099.0,,,-8.723192,115.1765998,https://maps.google.com/?cid=0x0:0xc6e913ea8fe3603c,
toko bangunan,Toko Bahan Bangunan,Sinta Sari Bangunan,"Jl. Mudu Taki No.18, Dalung, Kec. Kuta Utara, Kabupaten Badung, Bali 80361","Dalung, Kec. Kuta Utara, Kabupaten Badung",BALI,80361.0,Indonesia,82186748493.0,,,-8.6347605,115.1784278,https://maps.google.com/?cid=0x0:0x99702eae03ae96f3,
toko bangunan,Toko Bahan Bangunan,Toko Bangunan Karya Asih II,"Jl. Pandu No.58, Dalung, Kec. Kuta Utara, Kabupaten Badung, Bali 80361","Dalung, Kec. Kuta Utara, Kabupaten Badung",BALI,80361.0,Indonesia,85366941711.0,,,-8.6210111,115.1657879,https://maps.google.com/?cid=0x0:0xf82a8d303bfcdeee,
toko bangunan,Toko Bahan Bangunan,Toko Bangunan Sinar Cahaya Bagunan,"9538+FFQ, Jl. Raya Canggu, Kerobokan, Kec. Kuta Utara, Kabupaten Badung, Bali 80361","Jl. Raya Canggu, Kerobokan, Kec. Kuta Utara, Kabupaten Badung",BALI,80361.0,Indonesia,82192147276.0,,,-8.6462934,115.166247,https://maps.google.com/?cid=0x0:0xdbf6f4161af96c8e,
toko bangunan,Toko Bahan Bangunan,Toko Murti Sari,"Jalan Pantai Berawa, Br. Tegal Gundul No.52, Tibubeneng, Kuta Utara, Tibubeneng, Kec. Kuta Utara, Kabupaten Badung, Bali 80361","Br. Tegal Gundul No.52, Tibubeneng, Kuta Utara, Tibubeneng, Kec. Kuta Utara, Kabupaten Badung",BALI,80361.0,Indonesia,81999198877.0,,,-8.6604996,115.1425871,https://maps.google.com/?cid=0x0:0xc66a34835deafb18,
toko bangunan,Toko Bahan Bangunan,UD. Tano,"Jl. Raya Semer No.77, Kerobokan, Kec. Kuta Utara, Kabupaten Badung, Bali 80361","Kerobokan, Kec. Kuta Utara, Kabupaten Badung",BALI,80361.0,Indonesia,81916470208.0,,,-8.651686,115.1620529,https://maps.google.com/?cid=0x0:0xb5792ffd5a5abe1a,
toko bangunan,Toko Bahan Bangunan,Toko Bangunan,"Jl. Bila No.5, Dalung, Kec. Kuta Utara, Kabupaten Badung, Bali 80361","Dalung, Kec. Kuta Utara, Kabupaten Badung",BALI,80361.0,Indonesia,82174981439.0,,,-8.6188124,115.1650013,https://maps.google.com/?cid=0x0:0x1d27174677aea21,
toko bangunan,Toko Bahan Bangunan,Toko Bangunan Dalung Jaya,"Jl. Tibung Sari, Dalung, Kec. Kuta Utara, Kabupaten Badung, Bali 80361","Dalung, Kec. Kuta Utara, Kabupaten Badung",BALI,80361.0,Indonesia,87862224488.0,,,-8.6231384,115.1812397,https://maps.google.com/?cid=0x0:0x2b875e4cad3bb0bc,
toko bangunan,Toko Bahan Bangunan,TOKO 2 DARA ABADI BANGUNAN,"Jl. Kubu Anyar No.22, Kuta, Kec. Kuta, Kabupaten Badung, Bali 80361","Kuta, Kec. Kuta, Kabupaten Badung",BALI,80361.0,Indonesia,361757422.0,,,-8.7291484,115.1727313,https://maps.google.com/?cid=0x0:0xa3ed648699af7e0a,
toko bangunan,toko bangunan,Bali 80361,"Kec. Kuta Sel., Kabupaten Badung, Bali","Kabupaten Badung, Bali",BALI,,Indonesia,,,,-8.7953431,115.1652008,https://maps.google.com/?cid=0x0:0x1c00c5eb6016be60,
toko bangunan,Toko Bahan Bangunan,Murah Makmur Bangunan,"Jl. Bypass Ngurah Rai No.888, Kelan, Kec. Kuta, Kabupaten Badung, Bali 80361","Kelan, Kec. Kuta, Kabupaten Badung",BALI,80361.0,Indonesia,82233812345.0,,,-8.7572246,115.1796061,https://maps.google.com/?cid=0x0:0xe8391b7b971789a4,
toko bangunan,Toko Bahan Bangunan,Toko Bangunan Mitra Jaya,"Jl. By Pass Ngurah Rai No. 88x, Nusa Dua, Kuta Selatan, Benoa, South Kuta, Badung Regency, Bali 82363","Nusa Dua, Kuta Selatan, Benoa, South Kuta, Badung Regency",BALI,82363.0,Indonesia,,,,-8.7886429,115.2089751,https://maps.google.com/?cid=0x0:0xd44b775bdf1ebe53,
toko bangunan,Toko Bahan Bangunan,Toko Bangunan MERTA SARI,"Jl. Kuruksetra No.51, Benoa, Kec. Kuta Sel., Kabupaten Badung, Bali 80361","Benoa, Kec. Kuta Sel., Kabupaten Badung",BALI,80361.0,Indonesia,81805624456.0,,,-8.8001744,115.2162498,https://maps.google.com/?cid=0x0:0x5409999d662dd146,
toko bangunan,Toko Bahan Bangunan,Muda Sejahtera Toko Bangunan,"55FM+Q7H, Jl. Dharmawangsa Gg. Jalak Putih, Kutuh, Kec. Kuta Sel., Kabupaten Badung, Bali 80361","Jl. Dharmawangsa Gg. Jalak Putih, Kutuh, Kec. Kuta Sel., Kabupaten Badung",BALI,80361.0,Indonesia,85167599087.0,,,-8.825559,115.1832252,https://maps.google.com/?cid=0x0:0x41b138e70a0acf00,
toko bangunan,toko bangunan,Bali 80351,"Kec. Mengwi, Kabupaten Badung, Bali","Kabupaten Badung, Bali",BALI,,Indonesia,,,,-8.5617185,115.1770586,https://maps.google.com/?cid=0x0:0x1c00c5eb6016be30,
toko bangunan,Toko Bahan Bangunan,UD MS (Merta Sedana)/Toko Bangunan,"Jl. Sading-Badung No.171, Sading, Kec. Mengwi, Kabupaten Badung, Bali 80351","Sading, Kec. Mengwi, Kabupaten Badung",BALI,80351.0,Indonesia,81547294696.0,,,-8.5876838,115.2003509,https://maps.google.com/?cid=0x0:0x31ac5b0a171a081e,
toko bangunan,Toko Bahan Bangunan,Toko Bangunan Karya Indah,"C5JJ+9JC, Jl. Raya Kapal, Kapal, Kec. Mengwi, Kabupaten Badung, Bali 80351","Jl. Raya Kapal, Kapal, Kec. Mengwi, Kabupaten Badung",BALI,80351.0,Indonesia,361422687.0,,,-8.56905,115.18152,https://maps.google.com/?cid=0x0:0x5f039d309af9ff55,
toko bangunan,Toko Bahan Bangunan,Bakti General Material Building,"Jl. By Pass Munggu No.8, Munggu, Kec. Mengwi, Kabupaten Badung, Bali 80351","Munggu, Kec. Mengwi, Kabupaten Badung",BALI,80351.0,Indonesia,82236959066.0,,,-8.6285934,115.130139,https://maps.google.com/?cid=0x0:0x6eaa39dbecf508df,
toko bangunan,Toko Bahan Bangunan,Toko Mertasari,"Pererenan, Kec. Mengwi, Kabupaten Badung, Bali 80351","Kec. Mengwi, Kabupaten Badung",BALI,80351.0,Indonesia,81211223357.0,,,-8.6347965,115.1403803,https://maps.google.com/?cid=0x0:0xd9b785877e317dec,
toko bangunan,Toko Bahan Bangunan,UD. Tresna Jaya,"Jl. Sang Hyang No.55X, Buduk, Kec. Mengwi, Kabupaten Badung, Bali 80351","Buduk, Kec. Mengwi, Kabupaten Badung",BALI,80351.0,Indonesia,81353021199.0,,,-8.5990343,115.1679533,https://maps.google.com/?cid=0x0:0xc3e02b6c7016fff7,
toko bangunan,Toko,Prima Teknik  Bangunan,"Jl. Gadung - Belulang No.88X, Kapal, Kec. Mengwi, Kabupaten Badung, Bali 80351","Kapal, Kec. Mengwi, Kabupaten Badung",BALI,80351.0,Indonesia,81246466520.0,,,-8.5867555,115.1730676,https://maps.google.com/?cid=0x0:0x50cafca19bf6f7e9,
toko bangunan,Toko Bahan Bangunan,Kirana Mart Bangunan,"Jl. Ganda Mayu No.8, Mengwi, Kec. Mengwi, Kabupaten Badung, Bali 80351","Mengwi, Kec. Mengwi, Kabupaten Badung",BALI,80351.0,Indonesia,81353899859.0,,,-8.5482053,115.1688526,https://maps.google.com/?cid=0x0:0x3294711faf9655e0,
toko bangunan,Toko Bahan Bangunan,Toko bangunan srimurti,"94RX+26P, Jl. Raya Tumbakbayuh, Bayuh, Kec. Mengwi, Kabupaten Badung, Bali 80351","Jl. Raya Tumbakbayuh, Bayuh, Kec. Mengwi, Kabupaten Badung",BALI,80351.0,Indonesia,82146351177.0,,,-8.6099114,115.148089,https://maps.google.com/?cid=0x0:0x5d2a8d1b1bdeeb79,
toko bangunan,Toko Bahan Bangunan,Toko Bangunan Tiga Pilar Utama,"94VX+G5C, Jl. Raya Munggu-Kapal, Munggu, Kec. Mengwi, Kabupaten Badung, Bali 80351","Jl. Raya Munggu-Kapal, Munggu, Kec. Mengwi, Kabupaten Badung",BALI,80351.0,Indonesia,,,,-8.6061356,115.1479465,https://maps.google.com/?cid=0x0:0x40ad16f493c04501,
toko bangunan,Toko Bahan Bangunan,UD Tiga Putra Keramik  Bangunan,"Jl. I. Gusti Ketut Jelantik No.66, Werdi Bhuwana, Kec. Mengwi, Kabupaten Badung, Bali 80351","Werdi Bhuwana, Kec. Mengwi, Kabupaten Badung",BALI,80351.0,Indonesia,81237905355.0,,,-8.5339821,115.1704118,https://maps.google.com/?cid=0x0:0x27a3252338cddee1,
toko bangunan,Toko Bahan Bangunan,TB. Puri Indah Utama,"Jl. Raya Anggungan No.11, Lukluk, Kec. Mengwi, Kabupaten Badung, Bali 80351","Lukluk, Kec. Mengwi, Kabupaten Badung",BALI,80351.0,Indonesia,3619007172.0,,,-8.5801365,115.1901664,https://maps.google.com/?cid=0x0:0xdd78925c8d2cc1b6,
toko bangunan,Toko Bahan Bangunan,Karya Utama,"Jl. Raya Canggu No.72, Kerobokan, Kec. Kuta Utara, Kabupaten Badung, Bali 80361","Kerobokan, Kec. Kuta Utara, Kabupaten Badung",BALI,80361.0,Indonesia,85100424366.0,,,-8.6408577,115.1536703,https://maps.google.com/?cid=0x0:0xf0e4668697df057f,
toko bangunan,Toko Bahan Bangunan,UD Satria Jaya,"Jl. Raya Buduk, Buduk, Kec. Mengwi, Kabupaten Badung, Bali 80351","Buduk, Kec. Mengwi, Kabupaten Badung",BALI,80351.0,Indonesia,85100218853.0,,,-8.6073204,115.1710115,https://maps.google.com/?cid=0x0:0xa4ec1767c70c1942,
toko bangunan,Toko Bahan Bangunan,Adi Karya,"C5C9+JQQ, Kekeran, Kec. Mengwi, Kabupaten Badung, Bali 80351","Kekeran, Kec. Mengwi, Kabupaten Badung",BALI,80351.0,Indonesia,,,,-8.5780961,115.1690484,https://maps.google.com/?cid=0x0:0xb9a2139b957b5c7e,
toko bangunan,Toko Bahan Bangunan,UD. Gian Putra,"C59V+VF8, Jl. Laksmana, Lukluk, Kec. Mengwi, Kabupaten Badung, Bali 80351","Jl. Laksmana, Lukluk, Kec. Mengwi, Kabupaten Badung",BALI,80351.0,Indonesia,81337990477.0,,,-8.5803466,115.19371,https://maps.google.com/?cid=0x0:0x3cfc1f106e34f371,
toko bangunan,Toko Bahan Bangunan,Ud.Nadia,"C5P9+445, Jl. Madra, Mengwitani, Kec. Mengwi, Kabupaten Badung, Bali 80351","Jl. Madra, Mengwitani, Kec. Mengwi, Kabupaten Badung",BALI,80351.0,Indonesia,81338749043.0,,,-8.5647302,115.1678734,https://maps.google.com/?cid=0x0:0x6b90c51e5ab0d311,
toko bangunan,Toko Bahan Bangunan,Toko Bangunan Ape Kaden,"No., Jl. Sang Hyang No.10, Abianbase, Kec. Mengwi, Kabupaten Badung, Bali 80351","Jl. Sang Hyang No.10, Abianbase, Kec. Mengwi, Kabupaten Badung",BALI,80351.0,Indonesia,81237569221.0,,,-8.590871,115.1710684,https://maps.google.com/?cid=0x0:0xfcbc8e3e644c0985,
toko bangunan,Toko,Toko Besi WK Mengwi,"Jl. Raya Mengwitani, Mengwi, Kec. Mengwi, Kabupaten Badung, Bali 80351","Mengwi, Kec. Mengwi, Kabupaten Badung",BALI,80351.0,Indonesia,85100236900.0,,,-8.5610148,115.1707302,https://maps.google.com/?cid=0x0:0x75935eb02a6d4104,
toko bangunan,Grosir keramik,UD Tiga Putra,"Jl. I Gusti Ngurah Rai, Mengwi, Kec. Mengwi, Kabupaten Badung, Bali 80351","Mengwi, Kec. Mengwi, Kabupaten Badung",BALI,80351.0,Indonesia,3618756767.0,,,-8.5366151,115.1704233,https://maps.google.com/?cid=0x0:0x9cf7e28a29dbdf78,
toko bangunan,Toko Bahan Bangunan,Mekar Jaya Bangunan 2,"Jl. Raya Tumbakbayuh - Pererenan No.8, Tumbak Bayuh, Kec. Mengwi, Kabupaten Badung, Bali 80351","Tumbak Bayuh, Kec. Mengwi, Kabupaten Badung",BALI,80351.0,Indonesia,82144161757.0,,,-8.6126389,115.1472417,https://maps.google.com/?cid=0x0:0x586b6760eecf40c5,
toko bangunan,Toko Bahan Bangunan,UD. EVAN,"94F8+QVF, Jl. Pantai Seseh, Cemagi, Kec. Mengwi, Kabupaten Badung, Bali 80351","Jl. Pantai Seseh, Cemagi, Kec. Mengwi, Kabupaten Badung",BALI,80351.0,Indonesia,8123973855.0,,,-8.6255542,115.1171788,https://maps.google.com/?cid=0x0:0x801c067ca91b1d34,
toko bangunan,Toko Bahan Bangunan,UD. Sinar Harapan,"948P+PV9, Pererenan, Mengwi, Badung Regency, Bali 80351, Kabupaten Badung, Bali 80363","Pererenan, Mengwi, Badung Regency, Bali",BALI,80351.0,Indonesia,81337572288.0,,,-8.6331875,115.1371875,https://maps.google.com/?cid=0x0:0x14ca56225291765e,
toko bangunan,Toko Bahan Bangunan,TOKO BAHTERA,"WhatsApp Tokoh >>u003co87>>u003e- I55o66Io, Jl. Raya Abianbase No.125, Abianbase, Kec. Mengwi, Kabupaten Badung, Bali 80351","Jl. Raya Abianbase No.125, Abianbase, Kec. Mengwi, Kabupaten Badung",BALI,80351.0,Indonesia,8161999912.0,,,-8.5988817,115.1737468,https://maps.google.com/?cid=0x0:0x90ba54ca81110044,
toko bangunan,Pusat Perbelanjaan,Wika Bangunan. UD,"JL. Raya Munggu, No. 100 XX, Mengwi, Munggu, Denpasar, Kabupaten Badung, Bali 80351","No. 100 XX, Mengwi, Munggu, Denpasar, Kabupaten Badung",BALI,80351.0,Indonesia,3617424656.0,,,-8.6234966,115.1244808,https://maps.google.com/?cid=0x0:0x19c632be2eb28172,
toko bangunan,Toko Bahan Bangunan,"CAHYA alat listrik dan bangunan""","Jl. Arjuna Gg. Bima No.35, Sading, Kec. Mengwi, Kabupaten Badung, Bali 80351","Sading, Kec. Mengwi, Kabupaten Badung",BALI,80351.0,Indonesia,87862245888.0,,,-8.6036137,115.198976,https://maps.google.com/?cid=0x0:0x7eb2148f7c9d7ff6,
toko bangunan,Toko Bahan Bangunan,TB. Multi Sarana Bangunan,"Jl. Kopral I Nym Suwena Jl. Menuju Canggu, Buduk, Kec. Mengwi, Kabupaten Badung, Bali 80351","Buduk, Kec. Mengwi, Kabupaten Badung",BALI,80351.0,Indonesia,82145287130.0,,,-8.6105205,115.1612379,https://maps.google.com/?cid=0x0:0x34bfd663ab4da292,
toko bangunan,Toko Bahan Bangunan,Purya Jaya (Toko Besi),"Jl. Raya Abianbase No.119, Abianbase, Kec. Mengwi, Kabupaten Badung, Bali 80351","Abianbase, Kec. Mengwi, Kabupaten Badung",BALI,80351.0,Indonesia,81943764566.0,,,-8.6017951,115.172593,https://maps.google.com/?cid=0x0:0x68c35f819e39a9c6,
toko bangunan,toko bangunan,Bali 80353,"Kec. Petang, Kabupaten Badung, Bali","Kabupaten Badung, Bali",BALI,,Indonesia,,,,-8.3365862,115.2244853,https://maps.google.com/?cid=0x0:0x1c00c5eb6016be50,
toko bangunan,Toko Bahan Bangunan,Ud. Parta Jaya,"J6JF+QMW, Jl. Raya Pura Pucak Mangu, Sulangai, Kec. Petang, Kabupaten Badung, Bali 80353","Jl. Raya Pura Pucak Mangu, Sulangai, Kec. Petang, Kabupaten Badung",BALI,80353.0,Indonesia,85338233506.0,,,-8.3680067,115.224193,https://maps.google.com/?cid=0x0:0x1b1453a69257d92f,
toko bangunan,Toko Bahan Bangunan,UD. Ubud Sari Jaya,"H6GF+M37, Jl. Raya Sangeh Petang, Getasan, Kec. Petang, Kabupaten Badung, Bali 80353","Jl. Raya Sangeh Petang, Getasan, Kec. Petang, Kabupaten Badung",BALI,80353.0,Indonesia,81529130443.0,,,-8.4233331,115.2226791,https://maps.google.com/?cid=0x0:0x447ca7710b5053c2,
toko bangunan,Toko Bahan Bangunan,UD Pratama,"Jl. I.GST. NGR Rai No.184, Petang, Kec. Petang, Kabupaten Badung, Bali 80353","Petang, Kec. Petang, Kabupaten Badung",BALI,80353.0,Indonesia,85239407535.0,,,-8.3960759,115.2187662,https://maps.google.com/?cid=0x0:0x64c1b9c8cf3a22ae,
toko bangunan,Toko Bahan Bangunan,UD Dua Cahaya,"J69F+W34, Jl. Raya Pura Pucak Mangu, Petang, Kec. Petang, Kabupaten Badung, Bali 80353","Jl. Raya Pura Pucak Mangu, Petang, Kec. Petang, Kabupaten Badung",BALI,80353.0,Indonesia,81338532242.0,,,-8.3802307,115.2227006,https://maps.google.com/?cid=0x0:0xb4c78ae19661db18,
toko bangunan,Toko Bahan Bangunan,UD. Mertha Nadi,"jl. Puncak Mangu km 40 petang, Pelaga, denpasar,badung, Kabupaten Badung, Bali 80353","Pelaga, denpasar,badung, Kabupaten Badung",BALI,80353.0,Indonesia,81338031114.0,,,-8.374808,115.2235743,https://maps.google.com/?cid=0x0:0xb62f4739bd15b40e,
toko bangunan,Toko Bahan Bangunan,UD Sari Merta,"P62C+HMC, Jl. Raya Pura Pucak Mangu, Pelaga, Kec. Petang, Kabupaten Badung, Bali 80353","Jl. Raya Pura Pucak Mangu, Pelaga, Kec. Petang, Kabupaten Badung",BALI,80353.0,Indonesia,85953713776.0,,,-8.2985581,115.2216457,https://maps.google.com/?cid=0x0:0x96e9ab9e51b99e4,
toko bangunan,Toko Bahan Bangunan,Ud. Murah Rejeki,"G6WC+V77, Carangsari, Kec. Petang, Kabupaten Badung, Bali 80353","Carangsari, Kec. Petang, Kabupaten Badung",BALI,80353.0,Indonesia,82237466025.0,,,-8.4528352,115.2206574,https://maps.google.com/?cid=0x0:0x9eeec4f817abe7df,
toko bangunan,Toko Bahan Bangunan,UD Putra Sedana,"H64F+44X, Jl. I.GST. NGR Rai, Samuan Carangsari, Petang, Kabupaten Badung, Bali, Carangsari, Kec. Petang, Kabupaten Badung, Bali 80353","Jl. I.GST. NGR Rai, Samuan Carangsari, Petang, Kabupaten Badung, Bali, Carangsari, Kec. Petang, Kabupaten Badung",BALI,80353.0,Indonesia,85333220875.0,,,-8.4446437,115.2228692,https://maps.google.com/?cid=0x0:0x9ecd65b68875561a,
toko bangunan,Toko Bahan Bangunan,Sendi Teknik,"M6F3+77V, Jl. Pura Kancing Gumi, Sulangai, Kec. Petang, Kabupaten Badung, Bali 80353","Jl. Pura Kancing Gumi, Sulangai, Kec. Petang, Kabupaten Badung",BALI,80353.0,Indonesia,81338594432.0,,,-8.3267625,115.203163,https://maps.google.com/?cid=0x0:0x15b5671abdd8be91,
toko bangunan,Toko Bahan Bangunan,UD.MERTA BUANA,"M6F3+557, Jl. Pura Kancing Gumi, Sulangai, Kec. Petang, Kabupaten Tabanan, Bali 80353","Jl. Pura Kancing Gumi, Sulangai, Kec. Petang, Kabupaten Tabanan",BALI,80353.0,Indonesia,81805671119.0,,,-8.3270824,115.2029074,https://maps.google.com/?cid=0x0:0x875c4fb35dd27641,
toko bangunan,Toko Bahan Bangunan,UD Batu Lantang,"J648+6VC, Jl. Raya, Luwus, Petang, Badung Regency, Bali 80352","Jl. Raya, Luwus, Petang, Badung Regency",BALI,80352.0,Indonesia,8563806500.0,,,-8.3944374,115.2171467,https://maps.google.com/?cid=0x0:0xd126a60e45890eca,
toko bangunan,toko bangunan,Toko bangunan sari karma,"H5RQ+5HV, Tua, Kec. Marga, Kabupaten Tabanan, Bali","Kabupaten Tabanan, Bali",BALI,,Indonesia,,,,-8.4095178,115.188916,https://maps.google.com/?cid=0x0:0x7c666d5f2847241a,
toko bangunan,Toko Bahan Bangunan,D.S Bangunan,"J5FV+9J2, Jl. Mekarsari - Baturiti Bedugul, Luwus, Kec. Baturiti, Kabupaten Tabanan, Bali 82191","Jl. Mekarsari - Baturiti Bedugul, Luwus, Kec. Baturiti, Kabupaten Tabanan",BALI,82191.0,Indonesia,85337223884.0,,,-8.37662,115.1940215,https://maps.google.com/?cid=0x0:0x70b634d0a8719f00,
toko bangunan,toko bangunan,Toko Bangunan UD sila Artha,"Jl. Raya No.Desa, Candikuning, Kec. Baturiti, Kabupaten Tabanan, Bali 82191","Candikuning, Kec. Baturiti, Kabupaten Tabanan",BALI,82191.0,Indonesia,87863092756.0,,,-8.3929864,115.2361842,https://maps.google.com/?cid=0x0:0x7bf7ada4fdef799e,
toko bangunan,Toko Bahan Bangunan,Cahaya Permata,"Jl. Raya Denpasar, Sembung, Kec. Mengwi, Kabupaten Badung, Bali 80351","Sembung, Kec. Mengwi, Kabupaten Badung",BALI,80351.0,Indonesia,82147848169.0,,,-8.4695653,115.1851515,https://maps.google.com/?cid=0x0:0x97d99274890748f8,
toko bangunan,Toko Bahan Bangunan,Graha Listrik  Bangunan,"Jl. Raya Payangan No.26, Melinggih Kelod, Kec. Payangan, Kabupaten Gianyar, Bali 80572","Melinggih Kelod, Kec. Payangan, Kabupaten Gianyar",BALI,80572.0,Indonesia,87761312188.0,,,-8.4413387,115.2442274,https://maps.google.com/?cid=0x0:0x98de81913a9ffe5c,
toko bangunan,Toko Bahan Bangunan,Okta Mandiri,"G5GX+R46, Jl. Abimanyu, Sembung, Kec. Mengwi, Kabupaten Badung, Bali 82181","Jl. Abimanyu, Sembung, Kec. Mengwi, Kabupaten Badung",BALI,82181.0,Indonesia,81338754696.0,,,-8.4729619,115.1977808,https://maps.google.com/?cid=0x0:0x27c167830c932a2d,
toko bangunan,Toko Bahan Bangunan,Ud.Sundra Jaya,"Jl. Petang No.551, Luwus, Kec. Baturiti, Kabupaten Tabanan, Bali 82191","Luwus, Kec. Baturiti, Kabupaten Tabanan",BALI,82191.0,Indonesia,,,,-8.3974304,115.2030836,https://maps.google.com/?cid=0x0:0x90e42d29070385f5,
toko bangunan,Toko Perlengkapan Rumah,UD. Tara Merta Jaya,"Q7G2+CW8, Catur, Kec. Kintamani, Kabupaten Bangli, Bali 80652","Catur, Kec. Kintamani, Kabupaten Bangli",BALI,80652.0,Indonesia,,,,-8.223968,115.252317,https://maps.google.com/?cid=0x0:0xb132011c163c0682,
toko bangunan,Toko Bahan Bangunan,Toko Bangunan Hari-hari,"Jl. Mandala Utara No.21, RT.17/RW.4, Tomang, Kec. Grogol petamburan, Kota Jakarta Barat, Daerah Khusus Ibukota Jakarta 11440","RT.17/RW.4, Tomang, Kec. Grogol petamburan, Kota Jakarta Barat",BALI,11440.0,Indonesia,215642893.0,,,-6.1721247,106.7983298,https://maps.google.com/?cid=0x0:0x91aa30314dd11ef,
toko bangunan,Toko Bahan Bangunan,Toko BKH,"Jl. Danau Sunter Selatan No.45, RT.11/RW.11, Sunter Jaya, Kec. Tj. Priok, Jkt Utara, Daerah Khusus Ibukota Jakarta 14350","RT.11/RW.11, Sunter Jaya, Kec. Tj. Priok, Jkt Utara",BALI,14350.0,Indonesia,81802100222.0,,,-6.1439053,106.884716,https://maps.google.com/?cid=0x0:0x4197096d73f28b7d,
