Category,Real Category,Business Name,Address,City,State,Postal Code,Country,Phone,Email,Website,Latitude,Longitude,Map Link,Details Link
mall,mall,Bali 80352,"Abiansemal, Kec. Abiansemal, Kabupaten Badung, Bali","Kabupaten Badung, Bali",BALI,,Indonesia,,,,-8.5584335,115.2244853,https://maps.google.com/?cid=0x0:0x1c00c5eb6016be40,
mall,Pusat Perbelanjaan,Toko Arlan,"Jl. Sahadewa No.8, Darmasaba, Kec. Abiansemal, Kabupaten Badung, Bali 80352","Darmasaba, Kec. Abiansemal, Kabupaten Badung",BALI,80352.0,Indonesia,81239580000.0,,,-8.5879415,115.2067712,https://maps.google.com/?cid=0x0:0x741d34400c422e71,
mall,Minimarket,Indomaret ciung wanara,"F6F6+X34, Jalan Raya, Abiansemal, Badung Regency, Bali 80352","Jalan Raya, Abiansemal, Badung Regency",BALI,80352.0,Indonesia,,,,-8.525118,115.2102126,https://maps.google.com/?cid=0x0:0xc1d4d21036f959f6,
mall,Pusat Perbelanjaan,Anugerah Sejati,"F629+4G9, Jl. Raya Mambal Gg. Kenyeri II, Mambal, Kec. Abiansemal, Kabupaten Badung, Bali 80352","Jl. Raya Mambal Gg. Kenyeri II, Mambal, Kec. Abiansemal, Kabupaten Badung",BALI,80352.0,Indonesia,,,,-8.5497103,115.2188567,https://maps.google.com/?cid=0x0:0xac999fb2f2f7083f,
mall,Pusat Perbelanjaan,Toko Anugerah Dewata,"C6G9+QC3, Sibang Gede, Kec. Abiansemal, Kabupaten Badung, Bali 80352","Sibang Gede, Kec. Abiansemal, Kabupaten Badung",BALI,80352.0,Indonesia,85103001032.0,,,-8.5731057,115.2185524,https://maps.google.com/?cid=0x0:0xdae1f3a4531ee3a2,
mall,Minimarket,Toko Sigede2,"Jl. Tanah Putih No.16, Darmasaba, Kec. Abiansemal, Kabupaten Badung, Bali 80352","Darmasaba, Kec. Abiansemal, Kabupaten Badung",BALI,80352.0,Indonesia,85238920222.0,,,-8.5821747,115.2046613,https://maps.google.com/?cid=0x0:0x61d48c75e42adf26,
mall,Pusat Perbelanjaan,Mulyashoppy,"C6Q8+M7V, Jl. Pitu, Sibang Kaja, Kec. Abiansemal, Kabupaten Badung, Bali 80352","Jl. Pitu, Sibang Kaja, Kec. Abiansemal, Kabupaten Badung",BALI,80352.0,Indonesia,81939361382.0,,,-8.5607651,115.2156801,https://maps.google.com/?cid=0x0:0x599fb376bf05ca19,
mall,Toko,Sumber Abadi Lancar (SAL),"C6H9+RMH, Sibang Kaja, Kec. Abiansemal, Kabupaten Badung, Bali 80352","Sibang Kaja, Kec. Abiansemal, Kabupaten Badung",BALI,80352.0,Indonesia,81939899510.0,,,-8.5704312,115.2192248,https://maps.google.com/?cid=0x0:0x7ebcac4bf67953d5,
mall,Pusat Perbelanjaan,WAR-Wira Adi Roosters,"F689+W3V, Jl. Gn. Sari III, Abiansemal, Kec. Abiansemal, Kabupaten Badung, Bali 80352","Jl. Gn. Sari III, Abiansemal, Kec. Abiansemal, Kabupaten Badung",BALI,80352.0,Indonesia,81999566155.0,,,-8.5326486,115.2176588,https://maps.google.com/?cid=0x0:0x79a0834586d84d27,
mall,Pasar Makanan Segar,Pasar sibanggede 2,"Jl. Raya Sibanggede No.21, Sibang Gede, Kec. Abiansemal, Kabupaten Badung, Bali 80352","Sibang Gede, Kec. Abiansemal, Kabupaten Badung",BALI,80352.0,Indonesia,,,,-8.5778033,115.2175872,https://maps.google.com/?cid=0x0:0x6ed967933fed347d,
mall,Pasar,PASAR KERTHASARI LATU GERIH,"F637+WPR, Abiansemal, Kec. Abiansemal, Kabupaten Badung, Bali 80352","Abiansemal, Kec. Abiansemal, Kabupaten Badung",BALI,80352.0,Indonesia,,,,-8.545129,115.2142648,https://maps.google.com/?cid=0x0:0x9d7ee27bce7ce642,
mall,Pusat Perbelanjaan,TOKO MESARI,"C6R5+J9G, Jl. Raya Gerih, Abiansemal, Kec. Abiansemal, Kabupaten Badung, Bali 80352","Jl. Raya Gerih, Abiansemal, Kec. Abiansemal, Kabupaten Badung",BALI,80352.0,Indonesia,,,,-8.5582668,115.2081778,https://maps.google.com/?cid=0x0:0xdfcc3d5eeb9b5c54,
mall,Toko Pakaian,Moonlight fashion bali,"F6H5+HQ2, Jl. Ciung Wanara, Blahkiuh, Kec. Abiansemal, Kabupaten Badung, Bali 80352","Jl. Ciung Wanara, Blahkiuh, Kec. Abiansemal, Kabupaten Badung",BALI,80352.0,Indonesia,,,,-8.5211093,115.2093969,https://maps.google.com/?cid=0x0:0xdd7e08ad05572d8f,
mall,Pusat Perbelanjaan,Ayunda Shop,"Sibang Kaja, Kec. Abiansemal, Kabupaten Badung, Bali 80352","Kec. Abiansemal, Kabupaten Badung",BALI,80352.0,Indonesia,87761647441.0,,,-8.5641875,115.2094375,https://maps.google.com/?cid=0x0:0xef8fe2ff902aee0d,
mall,Pusat Perbelanjaan,Art J House Bali,"Jl. Arja No.19, Dauh Yeh Cani, Kec. Abiansemal, Kabupaten Badung, Bali 80352","Dauh Yeh Cani, Kec. Abiansemal, Kabupaten Badung",BALI,80352.0,Indonesia,81916500621.0,,,-8.5317689,115.2029942,https://maps.google.com/?cid=0x0:0x779085b94cbbe694,
mall,Toko Bunga,Toko Bunga Indah,"F629+Q8W, Jl. Raya Sibang Kaja, Mambal, Kec. Abiansemal, Kabupaten Badung, Bali 80352","Jl. Raya Sibang Kaja, Mambal, Kec. Abiansemal, Kabupaten Badung",BALI,80352.0,Indonesia,3617475576.0,,,-8.5480168,115.2183136,https://maps.google.com/?cid=0x0:0x4b51ccd969538616,
mall,Pusat Perbelanjaan,Warung Esa Yadnya,"C6C9+9CM, Jl. Raya Angantaka - Sibang Gede, Sibang Gede, Kec. Abiansemal, Kabupaten Badung, Bali 80352","Jl. Raya Angantaka - Sibang Gede, Sibang Gede, Kec. Abiansemal, Kabupaten Badung",BALI,80352.0,Indonesia,85333183580.0,,,-8.5790344,115.2185613,https://maps.google.com/?cid=0x0:0xa0d5e6842e5af4d3,
mall,Toko,Sari Jaya Buah,"C6Q4+JP5, Jl. Raya Gerih, Abiansemal, Kec. Abiansemal, Kabupaten Badung, Bali 80352","Jl. Raya Gerih, Abiansemal, Kec. Abiansemal, Kabupaten Badung",BALI,80352.0,Indonesia,81238736699.0,,,-8.5609903,115.2068662,https://maps.google.com/?cid=0x0:0xa346dbbbdec15f38,
mall,Toko Olahraga Luar Ruangan,Sibang Sport,"Jalan Kaget Nomor 14 Banjar Bantas Kaja, Sibang Gede, Kec. Abiansemal, Kabupaten Badung, Bali 80352","Sibang Gede, Kec. Abiansemal, Kabupaten Badung",BALI,80352.0,Indonesia,85858199236.0,,,-8.5780474,115.220809,https://maps.google.com/?cid=0x0:0x72c087b7b390726b,
mall,Toko Rokok Elektrik,Prima Vapor Darmasaba,"Darmasaba, Kec. Abiansemal, Kabupaten Badung, Bali 80352","Kec. Abiansemal, Kabupaten Badung",BALI,80352.0,Indonesia,81246662662.0,,,-8.586872,115.2087215,https://maps.google.com/?cid=0x0:0x31c2d2e1895e3aa3,
mall,Toko,Wr. Men dwik,"Jl. Terompong No.11-27, Dauh Yeh Cani, Kec. Abiansemal, Kabupaten Badung, Bali 80352","Dauh Yeh Cani, Kec. Abiansemal, Kabupaten Badung",BALI,80352.0,Indonesia,,,,-8.5272719,115.2072651,https://maps.google.com/?cid=0x0:0x76d0b9b2bb305a6,
mall,Pusat Perbelanjaan,Warung Nuasih,"C6F9+52P, Sibang Gede, Kec. Abiansemal, Kabupaten Badung, Bali 80352","Sibang Gede, Kec. Abiansemal, Kabupaten Badung",BALI,80352.0,Indonesia,,,,-8.5770989,115.2175806,https://maps.google.com/?cid=0x0:0x7a1b9a5b8f0748ec,
mall,mall,Kuta,"Kec. Kuta, Kabupaten Badung, Bali","Kabupaten Badung, Bali",BALI,,Indonesia,,,,-8.7237964,115.1752277,https://maps.google.com/?cid=0x0:0x4030bfbca7d2c00,
mall,Pusat Perbelanjaan,Beachwalk Shopping Center,"Jl. Pantai Kuta, Kuta, Kec. Kuta Sel., Kabupaten Badung, Bali 80361","Kuta, Kec. Kuta Sel., Kabupaten Badung",BALI,80361.0,Indonesia,3618464888.0,,,-8.7169483,115.168807,https://maps.google.com/?cid=0x0:0x2545b9cc094b5de6,
mall,Pusat Perbelanjaan,Lippo Mall Kuta,"Jalan Kartika Plaza, Lingkungan Jl. Segara Merta, Kec. Kuta, Kabupaten Badung, Bali 80361","Lingkungan Jl. Segara Merta, Kec. Kuta, Kabupaten Badung",BALI,80361.0,Indonesia,3618978001.0,,,-8.735538,115.1664885,https://maps.google.com/?cid=0x0:0x80362f07119ddba5,
mall,Pusat Perbelanjaan,Mal Bali Galeria,"Jl. Bypass Ngurah Rai, Kuta, Kec. Kuta, Kabupaten Badung, Bali 80361","Kuta, Kec. Kuta, Kabupaten Badung",BALI,80361.0,Indonesia,361755277.0,,,-8.7232236,115.1843392,https://maps.google.com/?cid=0x0:0x165e0786352e0779,
mall,Pusat Perbelanjaan,Lippo Plaza,"75MP+X65, Jl. Sunset Road, Kuta, Kec. Kuta, Kabupaten Badung, Bali 80361","Jl. Sunset Road, Kuta, Kec. Kuta, Kabupaten Badung",BALI,80361.0,Indonesia,361768514.0,,,-8.7151072,115.1856159,https://maps.google.com/?cid=0x0:0xb2c988e4cf9eb7eb,
mall,Taman Hiburan,Trans Studio Mall Bali,"Jl. Imam Bonjol No.440, Pemecutan Klod, Kec. Denpasar Bar., Kota Denpasar, Bali 80361","Pemecutan Klod, Kec. Denpasar Bar., Kota Denpasar",BALI,80361.0,Indonesia,8112016666.0,,,-8.7019292,115.18342,https://maps.google.com/?cid=0x0:0x963e65849b5da299,
mall,Pusat Perbelanjaan,BALI  DREAM (Discovery mall),"Jl. Kartika Plaza No.1, Kuta, Kec. Kuta, Kabupaten Badung, Bali 80361","Kuta, Kec. Kuta, Kabupaten Badung",BALI,80361.0,Indonesia,,,,-8.7281761,115.1678126,https://maps.google.com/?cid=0x0:0xf2cbe038bac0c6b3,
mall,Pusat Perbelanjaan,Bali Collection,"56XJ+22F, Jl. Kw. Nusa Dua Resort, Benoa, Kec. Kuta Sel., Kabupaten Badung, Bali 80361","Jl. Kw. Nusa Dua Resort, Benoa, Kec. Kuta Sel., Kabupaten Badung",BALI,80361.0,Indonesia,361771662.0,,,-8.8024416,115.23006,https://maps.google.com/?cid=0x0:0x9d4b4f208e1df4ab,
mall,Pusat Perbelanjaan,Seminyak Square,"Jl. Kayu Aya No.1, Seminyak, Kec. Kuta, Kabupaten Badung, Bali 80361","Seminyak, Kec. Kuta, Kabupaten Badung",BALI,80361.0,Indonesia,81337212337.0,,,-8.6838546,115.1571397,https://maps.google.com/?cid=0x0:0xd960b2362f7999e9,
mall,Toko,The Keranjang Bali,"Jl. Bypass Ngurah Rai No.97, Kuta, Kec. Kuta, Kabupaten Badung, Bali 80361","Kuta, Kec. Kuta, Kabupaten Badung",BALI,80361.0,Indonesia,3614755575.0,,,-8.7317652,115.1780595,https://maps.google.com/?cid=0x0:0xe0ebf60ebb8f4472,
mall,Toko Suvenir,Krisna Oleh - Oleh Bali Sunset Road,"Jl. Sunset Road No.88, Kuta, Kec. Kuta, Kabupaten Badung, Bali 80361","Kuta, Kec. Kuta, Kabupaten Badung",BALI,80361.0,Indonesia,361750031.0,,,-8.7039687,115.1797989,https://maps.google.com/?cid=0x0:0xd34e5efbafb416dd,
mall,Pasar tradisional,Kuta Square,"Jl. Bakung Sari No.1, Kuta, Kec. Kuta, Kabupaten Badung, Bali 80361","Kuta, Kec. Kuta, Kabupaten Badung",BALI,80361.0,Indonesia,,,,-8.7233229,115.1713872,https://maps.google.com/?cid=0x0:0x32b400be26bd5d31,
mall,Pusat Perbelanjaan,Seminyak Village,"Jl. Kayu Jati No.8, Seminyak, Kec. Kuta, Kabupaten Badung, Bali 80361","Seminyak, Kec. Kuta, Kabupaten Badung",BALI,80361.0,Indonesia,361738097.0,,,-8.6833565,115.157134,https://maps.google.com/?cid=0x0:0x9fa7c9f3a4479c3a,
mall,Pusat Perbelanjaan,KCMTKU Optikal Mall Bali Galeria,"Mall Bali Galeria, Jl. Bypass Ngurah Rai, Kuta, Kec. Kuta, Kabupaten Badung, Bali","Kabupaten Badung, Bali",BALI,,Indonesia,85257029983.0,,,-8.7232236,115.1843392,https://maps.google.com/?cid=0x0:0x1a044886f3f64214,
mall,Pusat Perbelanjaan,KUTA ICON,"7578+RM3, Kuta, Kec. Kuta, Kabupaten Badung, Bali 80361","Kuta, Kec. Kuta, Kabupaten Badung",BALI,80361.0,Indonesia,,,,-8.73548,115.166673,https://maps.google.com/?cid=0x0:0x1a6c4f462b258082,
mall,Toserba,Centro Dept Store - Discovery Shopping Mall Bali,"75C9+G8F, Discovery Shopping Mall UG Floor, Jl. Kartika Plaza, Kuta, Kec. Kuta, Kabupaten Badung, Bali 80361","Discovery Shopping Mall UG Floor, Jl. Kartika Plaza, Kuta, Kec. Kuta, Kabupaten Badung",BALI,80361.0,Indonesia,361769629.0,,,-8.728692,115.1682815,https://maps.google.com/?cid=0x0:0xb15a79b0f80d23f6,
mall,Pusat Perbelanjaan,Sunset Point Shopping Centre,"Jl. Sunset Road No.88-99, Kerobokan Kelod, Kec. Kuta Utara, Kabupaten Badung, Bali 80361","Kerobokan Kelod, Kec. Kuta Utara, Kabupaten Badung",BALI,80361.0,Indonesia,361736630.0,,,-8.6827436,115.1668511,https://maps.google.com/?cid=0x0:0x9b10edd2901b1db9,
mall,Pusat Perbelanjaan,Beachwalk - Extension,"75MC+Q6P, Kuta, Kec. Kuta, Kabupaten Badung, Bali 80361","Kuta, Kec. Kuta, Kabupaten Badung",BALI,80361.0,Indonesia,,,,-8.7155397,115.170593,https://maps.google.com/?cid=0x0:0x52455ee7659fab27,
mall,Pusat Perbelanjaan,Bandung Collection Tuban,"Jl. Raya Kuta No.15c, Kuta, Kec. Kuta, Kabupaten Badung, Bali 80361","Kuta, Kec. Kuta, Kabupaten Badung",BALI,80361.0,Indonesia,,,,-8.7314659,115.17732,https://maps.google.com/?cid=0x0:0x36631d3377d8bc88,
mall,Toko Suvenir,Larisa Oleh-oleh Bali,"Jl. Raya Kuta No.45 B, Kuta, Kec. Kuta, Kabupaten Badung, Bali 80361","Kuta, Kec. Kuta, Kabupaten Badung",BALI,80361.0,Indonesia,89664486886.0,,,-8.7274326,115.1767557,https://maps.google.com/?cid=0x0:0xd1e58cb0486487d4,
mall,Pusat Perbelanjaan,Boutique Mall Galleria,"75GJ+JQG, Kuta, Kec. Kuta, Kabupaten Badung, Bali 80361","Kuta, Kec. Kuta, Kabupaten Badung",BALI,80361.0,Indonesia,,,,-8.7234482,115.1819458,https://maps.google.com/?cid=0x0:0x7866055c50279382,
mall,Toko Suvenir,Rama Krisna Oleh Oleh Bali 24 Jam,"Jl. Raya Tuban No.2X, Tuban, Kec. Kuta, Kabupaten Badung, Bali 80361","Tuban, Kec. Kuta, Kabupaten Badung",BALI,80361.0,Indonesia,361764532.0,,,-8.7419832,115.1784244,https://maps.google.com/?cid=0x0:0xc7eda90b6495109,
mall,Ruang Kerja Bersama,Park23 Creative Hub,"Jl. Kediri, Tuban, Kec. Kuta, Kabupaten Badung, Bali 80361","Tuban, Kec. Kuta, Kabupaten Badung",BALI,80361.0,Indonesia,,,,-8.7371405,115.1757056,https://maps.google.com/?cid=0x0:0xc965aafe3ca8c124,
mall,Pusat Perbelanjaan,Junitoko Mall Bali Galeria (MBG),"75GM+PQJ, Jl. Bypass Ngurah Rai Jl. Mall Bali Galeria, Kuta, Kec. Kuta, Kabupaten Badung, Bali 80361","Jl. Bypass Ngurah Rai Jl. Mall Bali Galeria, Kuta, Kec. Kuta, Kabupaten Badung",BALI,80361.0,Indonesia,8172328900.0,,,-8.7231505,115.1843889,https://maps.google.com/?cid=0x0:0x8b16d3a3e942f87b,
mall,Pusat Perbelanjaan,Big Gallery,"Jl. Kartika Plaza No.68x, Kuta, Kec. Kuta, Kabupaten Badung, Bali 80361","Kuta, Kec. Kuta, Kabupaten Badung",BALI,80361.0,Indonesia,8995326462.0,,,-8.7364633,115.1673708,https://maps.google.com/?cid=0x0:0x87d0a3d279c2d149,
mall,Pusat Perbelanjaan,Kuta Point Ardenia,"Point Ardenia, Jl. Bakung Sari No.81, Kuta, Kec. Kuta, Kabupaten Badung, Bali 80364","Jl. Bakung Sari No.81, Kuta, Kec. Kuta, Kabupaten Badung",BALI,80364.0,Indonesia,361751073.0,,,-8.7247792,115.1719124,https://maps.google.com/?cid=0x0:0x4493c96313ef2e2f,
mall,Pusat Perbelanjaan,Sahid Kuta Lifestyle Resort Bali,"75J9+QM6, Jl. Pantai Kuta, Kuta, Kec. Kuta, Kabupaten Badung, Bali 80361","Jl. Pantai Kuta, Kuta, Kec. Kuta, Kabupaten Badung",BALI,80361.0,Indonesia,,,,-8.7180973,115.1691452,https://maps.google.com/?cid=0x0:0xf50bab4c609be140,
mall,mall,Bali 80361,"Kec. Kuta Sel., Kabupaten Badung, Bali","Kabupaten Badung, Bali",BALI,,Indonesia,,,,-8.7953431,115.1652008,https://maps.google.com/?cid=0x0:0x1c00c5eb6016be60,
mall,Pusat Perbelanjaan,Beachwalk Shopping Center,"Jl. Pantai Kuta, Kuta, Kec. Kuta Sel., Kabupaten Badung, Bali 80361","Kuta, Kec. Kuta Sel., Kabupaten Badung",BALI,80361.0,Indonesia,3618464888.0,,,-8.7169483,115.168807,https://maps.google.com/?cid=0x0:0x2545b9cc094b5de6,
mall,Pusat Perbelanjaan,Discovery Mall Bali,"Jl. Kartika Plaza, Kuta, Kec. Kuta, Kabupaten Badung, Bali 80361","Kuta, Kec. Kuta, Kabupaten Badung",BALI,80361.0,Indonesia,361755522.0,,,-8.7289661,115.1685057,https://maps.google.com/?cid=0x0:0x8fc4fb036e5763c9,
mall,Pusat Perbelanjaan,Mal Bali Galeria,"Jl. Bypass Ngurah Rai, Kuta, Kec. Kuta, Kabupaten Badung, Bali 80361","Kuta, Kec. Kuta, Kabupaten Badung",BALI,80361.0,Indonesia,361755277.0,,,-8.7232236,115.1843392,https://maps.google.com/?cid=0x0:0x165e0786352e0779,
mall,Pusat Perbelanjaan,Seminyak Square,"Jl. Kayu Aya No.1, Seminyak, Kec. Kuta, Kabupaten Badung, Bali 80361","Seminyak, Kec. Kuta, Kabupaten Badung",BALI,80361.0,Indonesia,81337212337.0,,,-8.6838546,115.1571397,https://maps.google.com/?cid=0x0:0xd960b2362f7999e9,
mall,Pusat Perbelanjaan,Bali Collection,"56XJ+22F, Jl. Kw. Nusa Dua Resort, Benoa, Kec. Kuta Sel., Kabupaten Badung, Bali 80361","Jl. Kw. Nusa Dua Resort, Benoa, Kec. Kuta Sel., Kabupaten Badung",BALI,80361.0,Indonesia,361771662.0,,,-8.8024416,115.23006,https://maps.google.com/?cid=0x0:0x9d4b4f208e1df4ab,
mall,Mal outlet,Sidewalk Jimbaran,"Jl. Raya Uluwatu No.138A, Ungasan, Kec. Kuta Sel., Kabupaten Badung, Bali 80361","Ungasan, Kec. Kuta Sel., Kabupaten Badung",BALI,80361.0,Indonesia,3614469999.0,,,-8.7964593,115.1613483,https://maps.google.com/?cid=0x0:0x5dde40cad6316d8b,
mall,Pusat Perbelanjaan,Sunset Point Shopping Centre,"Jl. Sunset Road No.88-99, Kerobokan Kelod, Kec. Kuta Utara, Kabupaten Badung, Bali 80361","Kerobokan Kelod, Kec. Kuta Utara, Kabupaten Badung",BALI,80361.0,Indonesia,361736630.0,,,-8.6827436,115.1668511,https://maps.google.com/?cid=0x0:0x9b10edd2901b1db9,
mall,Pusat Perbelanjaan,Seminyak Village,"Jl. Kayu Jati No.8, Seminyak, Kec. Kuta, Kabupaten Badung, Bali 80361","Seminyak, Kec. Kuta, Kabupaten Badung",BALI,80361.0,Indonesia,361738097.0,,,-8.6833565,115.157134,https://maps.google.com/?cid=0x0:0x9fa7c9f3a4479c3a,
mall,Pusat Perbelanjaan,Samasta Lifestyle Village,"Jl. Wanagiri No.1, Jimbaran, Kec. Kuta Sel., Kabupaten Badung, Bali 80364","Jimbaran, Kec. Kuta Sel., Kabupaten Badung",BALI,80364.0,Indonesia,3614468600.0,,,-8.7854194,115.1646306,https://maps.google.com/?cid=0x0:0xdf163c083d2953e7,
mall,Toko Suvenir,Krisna Oleh - Oleh Bali Sunset Road,"Jl. Sunset Road No.88, Kuta, Kec. Kuta, Kabupaten Badung, Bali 80361","Kuta, Kec. Kuta, Kabupaten Badung",BALI,80361.0,Indonesia,361750031.0,,,-8.7039687,115.1797989,https://maps.google.com/?cid=0x0:0xd34e5efbafb416dd,
mall,Pusat Perbelanjaan,Pasar Sentral Nusa Dua,"Jalan Pintas Siligita No.88, Benoa, Kuta Selatan, Benoa, Kec. Kuta Sel., Kabupaten Badung, Bali 80361","Benoa, Kuta Selatan, Benoa, Kec. Kuta Sel., Kabupaten Badung",BALI,80361.0,Indonesia,,,,-8.7959149,115.2164963,https://maps.google.com/?cid=0x0:0xdb685de1deb52dba,
mall,Pusat Perbelanjaan,Nusa Dua Square,"Jl. Bypass Ngurah Rai Nusa Dua Square No.168, Jimbaran, Kec. Kuta Sel., Kabupaten Badung, Bali 80361","Jimbaran, Kec. Kuta Sel., Kabupaten Badung",BALI,80361.0,Indonesia,,,,-8.783311,115.1849389,https://maps.google.com/?cid=0x0:0x8276076a140cc77f,
mall,Pusat Perbelanjaan,Kurnia Agungmulia Sejahtera Taman Griya,"657Q+H25, Jl.Batur Raya, Jimbaran, Kec. Kuta Sel., Kabupaten Badung, Bali 80361","Jl.Batur Raya, Jimbaran, Kec. Kuta Sel., Kabupaten Badung",BALI,80361.0,Indonesia,81285550515.0,,,-8.7861096,115.1876048,https://maps.google.com/?cid=0x0:0xa184a70247ac41b9,
mall,mall,Bali BBQ Shop,"Jl. Raya Uluwatu, Ungasan, Kec. Kuta Sel., Kabupaten Badung, Bali 80361","Ungasan, Kec. Kuta Sel., Kabupaten Badung",BALI,80361.0,Indonesia,81353636647.0,,,-8.8068825,115.1589883,https://maps.google.com/?cid=0x0:0xa4bb30b052106964,
mall,Toserba,Centro Dept Store - Discovery Shopping Mall Bali,"75C9+G8F, Discovery Shopping Mall UG Floor, Jl. Kartika Plaza, Kuta, Kec. Kuta, Kabupaten Badung, Bali 80361","Discovery Shopping Mall UG Floor, Jl. Kartika Plaza, Kuta, Kec. Kuta, Kabupaten Badung",BALI,80361.0,Indonesia,361769629.0,,,-8.728692,115.1682815,https://maps.google.com/?cid=0x0:0xb15a79b0f80d23f6,
mall,Toko Pakaian,Bandung Collection Kedonganan,"65PG+J49, Jl. Raya Uluwatu, Kedonganan, Kec. Kuta, Kabupaten Badung, Bali 80361","Jl. Raya Uluwatu, Kedonganan, Kec. Kuta, Kabupaten Badung",BALI,80361.0,Indonesia,81547487223.0,,,-8.763435,115.175445,https://maps.google.com/?cid=0x0:0xd66d9d00032f0ce5,
mall,Pusat Perbelanjaan,Jimbaran,"656G+JPJ, Jl. Raya Kampus Udayana, Jimbaran, Kec. Kuta Sel., Kabupaten Badung, Bali 80361","Jl. Raya Kampus Udayana, Jimbaran, Kec. Kuta Sel., Kabupaten Badung",BALI,80361.0,Indonesia,,,,-8.7884158,115.1767567,https://maps.google.com/?cid=0x0:0x203e50f9c9e3dda9,
mall,Pusat Perbelanjaan,Kalimas Arcade,"Jl. Uluwatu II No.01, Jimbaran, Kec. Kuta Sel., Kabupaten Badung, Bali 80361","Jimbaran, Kec. Kuta Sel., Kabupaten Badung",BALI,80361.0,Indonesia,,,,-8.7860728,115.1675468,https://maps.google.com/?cid=0x0:0x5bc5dfac5da70adc,
mall,Perusahaan jaringan bisnis,Shopping Mall Atomy Network Marketing Korea I Gratis Daftar di Atomy,"Jl.Nuansa Utama XXI, Lingk.Taman Griya No.23, Jimbaran, Kec. Kuta Sel., Kabupaten Badung, Bali 80361","Lingk.Taman Griya No.23, Jimbaran, Kec. Kuta Sel., Kabupaten Badung",BALI,80361.0,Indonesia,82245678359.0,,,-8.7906945,115.1592718,https://maps.google.com/?cid=0x0:0x42610ceb20a5780d,
mall,Pusat Perbelanjaan,TOKO BERKAT,"657Q+V59, Jl. Danau Batur Raya, Jimbaran, Kec. Kuta Sel., Kabupaten Badung, Bali 80361","Jl. Danau Batur Raya, Jimbaran, Kec. Kuta Sel., Kabupaten Badung",BALI,80361.0,Indonesia,361772964.0,,,-8.7853283,115.1879926,https://maps.google.com/?cid=0x0:0x31e625f3813e6855,
mall,Toko,Shinycase.,"659R+8MQ, Jimbaran, Kec. Kuta Sel., Kabupaten Badung, Bali 80361","Jimbaran, Kec. Kuta Sel., Kabupaten Badung",BALI,80361.0,Indonesia,87759046108.0,,,-8.7816659,115.1917334,https://maps.google.com/?cid=0x0:0x5c19725c77ba7cc5,
mall,Pusat Perbelanjaan,Jimbaran Shopstyles,"Jl. Raya Uluwatu, Tuban, Kec. Kuta Sel., Kabupaten Badung, Bali 80361","Tuban, Kec. Kuta Sel., Kabupaten Badung",BALI,80361.0,Indonesia,,,,-8.7831177,115.1669696,https://maps.google.com/?cid=0x0:0x147081cba50c3b54,
mall,Mal outlet,Jangkrik Bali,"JL Pecatu, 80363, Pecatu, Kec. Kuta Sel., Kabupaten Badung, Bali 80361","80363, Pecatu, Kec. Kuta Sel., Kabupaten Badung",BALI,80361.0,Indonesia,361703891.0,,,-8.827403,115.138049,https://maps.google.com/?cid=0x0:0x1ee0a72c998df7a3,
mall,mall,Bali 80361,"Kec. Kuta Sel., Kabupaten Badung, Bali","Kabupaten Badung, Bali",BALI,,Indonesia,,,,-8.7953431,115.1652008,https://maps.google.com/?cid=0x0:0x1c00c5eb6016be60,
mall,Pusat Perbelanjaan,Beachwalk Shopping Center,"Jl. Pantai Kuta, Kuta, Kec. Kuta Sel., Kabupaten Badung, Bali 80361","Kuta, Kec. Kuta Sel., Kabupaten Badung",BALI,80361.0,Indonesia,3618464888.0,,,-8.7169483,115.168807,https://maps.google.com/?cid=0x0:0x2545b9cc094b5de6,
mall,Pusat Perbelanjaan,Lippo Mall Kuta,"Jalan Kartika Plaza, Lingkungan Jl. Segara Merta, Kec. Kuta, Kabupaten Badung, Bali 80361","Lingkungan Jl. Segara Merta, Kec. Kuta, Kabupaten Badung",BALI,80361.0,Indonesia,3618978001.0,,,-8.735538,115.1664885,https://maps.google.com/?cid=0x0:0x80362f07119ddba5,
mall,Pusat Perbelanjaan,Sunset Point Shopping Centre,"Jl. Sunset Road No.88-99, Kerobokan Kelod, Kec. Kuta Utara, Kabupaten Badung, Bali 80361","Kerobokan Kelod, Kec. Kuta Utara, Kabupaten Badung",BALI,80361.0,Indonesia,361736630.0,,,-8.6827436,115.1668511,https://maps.google.com/?cid=0x0:0x9b10edd2901b1db9,
mall,Pusat Perbelanjaan,Mal Bali Galeria,"Jl. Bypass Ngurah Rai, Kuta, Kec. Kuta, Kabupaten Badung, Bali 80361","Kuta, Kec. Kuta, Kabupaten Badung",BALI,80361.0,Indonesia,361755277.0,,,-8.7232236,115.1843392,https://maps.google.com/?cid=0x0:0x165e0786352e0779,
mall,Pasar,PASAR KEROBOKAN,"85H8+45M, Kerobokan Kelod, Kec. Kuta Utara, Kabupaten Badung, Bali 80361","Kerobokan Kelod, Kec. Kuta Utara, Kabupaten Badung",BALI,80361.0,Indonesia,85259629607.0,,,-8.672164,115.165437,https://maps.google.com/?cid=0x0:0x64a305870ab724b5,
mall,Pusat Perbelanjaan,Bali Collection,"56XJ+22F, Jl. Kw. Nusa Dua Resort, Benoa, Kec. Kuta Sel., Kabupaten Badung, Bali 80361","Jl. Kw. Nusa Dua Resort, Benoa, Kec. Kuta Sel., Kabupaten Badung",BALI,80361.0,Indonesia,361771662.0,,,-8.8024416,115.23006,https://maps.google.com/?cid=0x0:0x9d4b4f208e1df4ab,
mall,Pusat Perbelanjaan,K-SQUARE,"85Q8+2XX, Jl. Raya Kerobokan, Kerobokan Kelod, Kec. Kuta Utara, Kabupaten Badung, Bali 80361","Jl. Raya Kerobokan, Kerobokan Kelod, Kec. Kuta Utara, Kabupaten Badung",BALI,80361.0,Indonesia,81337887774.0,,,-8.6623885,115.1674708,https://maps.google.com/?cid=0x0:0x462dd220e150baaa,
mall,Pusat Perbelanjaan,KUTA ICON,"7578+RM3, Kuta, Kec. Kuta, Kabupaten Badung, Bali 80361","Kuta, Kec. Kuta, Kabupaten Badung",BALI,80361.0,Indonesia,,,,-8.73548,115.166673,https://maps.google.com/?cid=0x0:0x1a6c4f462b258082,
mall,Toko,Bali Mart,"Jl. Perum Dalung Permai No.83, Kerobokan Kaja, Kec. Kuta Utara, Kabupaten Badung, Bali 80361","Kerobokan Kaja, Kec. Kuta Utara, Kabupaten Badung",BALI,80361.0,Indonesia,81805382160.0,,,-8.6313406,115.1681837,https://maps.google.com/?cid=0x0:0x7cab929c1fc54297,
mall,Pusat Perbelanjaan,Seminyak Village,"Jl. Kayu Jati No.8, Seminyak, Kec. Kuta, Kabupaten Badung, Bali 80361","Seminyak, Kec. Kuta, Kabupaten Badung",BALI,80361.0,Indonesia,361738097.0,,,-8.6833565,115.157134,https://maps.google.com/?cid=0x0:0x9fa7c9f3a4479c3a,
mall,Pengembang Realestat,Tamora Square,"Jl. Subak Sari 13, Tibubeneng, Kec. Kuta Utara, Kabupaten Badung, Bali 80361","Tibubeneng, Kec. Kuta Utara, Kabupaten Badung",BALI,80361.0,Indonesia,85810810419.0,,,-8.6646484,115.1472626,https://maps.google.com/?cid=0x0:0x773cae7455129837,
mall,Pusat Perbelanjaan,Seminyak Square,"Jl. Kayu Aya No.1, Seminyak, Kec. Kuta, Kabupaten Badung, Bali 80361","Seminyak, Kec. Kuta, Kabupaten Badung",BALI,80361.0,Indonesia,81337212337.0,,,-8.6838546,115.1571397,https://maps.google.com/?cid=0x0:0xd960b2362f7999e9,
mall,Pusat Perbelanjaan,"BERABAN SQUARE, Seminyak, Bali.","Jl. Beraban No.46, Kerobokan Kelod, Kec. Kuta Utara, Kabupaten Badung, Bali 80361","Kerobokan Kelod, Kec. Kuta Utara, Kabupaten Badung",BALI,80361.0,Indonesia,81353241313.0,,,-8.6801255,115.162951,https://maps.google.com/?cid=0x0:0x50dbfdda9f280654,
mall,Pusat Perbelanjaan,Batu Belig Square,"Jl. Batu Belig No.38, Kerobokan Kelod, Kec. Kuta Utara, Kabupaten Badung, Bali 80361","Kerobokan Kelod, Kec. Kuta Utara, Kabupaten Badung",BALI,80361.0,Indonesia,,,,-8.6728211,115.1518932,https://maps.google.com/?cid=0x0:0x5342ba513940426,
mall,Toko,Canggu Plaza,"84PW+7H9, Jl. Taman Wisata Tibubeneng, Canggu, Kuta Utara, Tibubeneng, Kec. Kuta Utara, Kabupaten Badung, Bali 80361","Jl. Taman Wisata Tibubeneng, Canggu, Kuta Utara, Tibubeneng, Kec. Kuta Utara, Kabupaten Badung",BALI,80361.0,Indonesia,,,,-8.6643399,115.1464734,https://maps.google.com/?cid=0x0:0xa7ef44acf27b50a6,
mall,Toko Suvenir,Krisna Oleh - Oleh Bali Sunset Road,"Jl. Sunset Road No.88, Kuta, Kec. Kuta, Kabupaten Badung, Bali 80361","Kuta, Kec. Kuta, Kabupaten Badung",BALI,80361.0,Indonesia,361750031.0,,,-8.7039687,115.1797989,https://maps.google.com/?cid=0x0:0xd34e5efbafb416dd,
mall,Toserba,Centro Dept Store - Discovery Shopping Mall Bali,"75C9+G8F, Discovery Shopping Mall UG Floor, Jl. Kartika Plaza, Kuta, Kec. Kuta, Kabupaten Badung, Bali 80361","Discovery Shopping Mall UG Floor, Jl. Kartika Plaza, Kuta, Kec. Kuta, Kabupaten Badung",BALI,80361.0,Indonesia,361769629.0,,,-8.728692,115.1682815,https://maps.google.com/?cid=0x0:0xb15a79b0f80d23f6,
mall,Toko,Pertokoan Semer Jaya - Banjar Semer Kerobokan,"Jl. Raya Kerobokan No.10A, Kerobokan Kelod, Kec. Kuta Utara, Kabupaten Badung, Bali 80361","Kerobokan Kelod, Kec. Kuta Utara, Kabupaten Badung",BALI,80361.0,Indonesia,3618475633.0,,,-8.6619605,115.1671644,https://maps.google.com/?cid=0x0:0x1e0b8d721b27ff08,
mall,Pusat Perbelanjaan,Bandung Collection,"Jl. Raya Padang Luwih No.2B, Dalung, Kec. Kuta Utara, Kabupaten Badung, Bali 80351","Dalung, Kec. Kuta Utara, Kabupaten Badung",BALI,80351.0,Indonesia,,,,-8.6112281,115.1757338,https://maps.google.com/?cid=0x0:0x45f2a66891612fe9,
mall,Pemasok Air Minum Dalam Kemasan,Jual Milagros Kuta Utara Badung Bali,"Jl. Bhinneka Nusa Kauh I No.16, Dalung, Kec. Kuta Utara, Kabupaten Badung, Bali 80361","Dalung, Kec. Kuta Utara, Kabupaten Badung",BALI,80361.0,Indonesia,81999942202.0,,,-8.6237208,115.171277,https://maps.google.com/?cid=0x0:0xa8c3c7d3a51ef5b2,
mall,Grosir pakaian dan kain,THISMY BALI,"Perumahan Cemara Giri graha 2 Dalung kec, Kuta Utara Blok I kabupaten Badung, utama, Bali 80351","Kuta Utara Blok I kabupaten Badung, utama",BALI,80351.0,Indonesia,81386867669.0,,,-8.6061925,115.1717237,https://maps.google.com/?cid=0x0:0xf8fb51726b0f65ec,
mall,Toko Mainan,Toko mainan Valencia toys  accesories,"Jl. Raya Padang Luwih No.4, Kerobokan Kaja, Kec. Kuta Utara, Kabupaten Badung, Bali 80361","Kerobokan Kaja, Kec. Kuta Utara, Kabupaten Badung",BALI,80361.0,Indonesia,81339152002.0,,,-8.6362794,115.1751699,https://maps.google.com/?cid=0x0:0x4542f9341c2af350,
mall,Pusat Perbelanjaan,Kuta Point Ardenia,"Point Ardenia, Jl. Bakung Sari No.81, Kuta, Kec. Kuta, Kabupaten Badung, Bali 80364","Jl. Bakung Sari No.81, Kuta, Kec. Kuta, Kabupaten Badung",BALI,80364.0,Indonesia,361751073.0,,,-8.7247792,115.1719124,https://maps.google.com/?cid=0x0:0x4493c96313ef2e2f,
mall,Pusat Perbelanjaan,Finery Bali Store,"Jl. Raya Padonan No.98, Tibubeneng, Kec. Kuta Utara, Kabupaten Badung, Bali 80361","Tibubeneng, Kec. Kuta Utara, Kabupaten Badung",BALI,80361.0,Indonesia,85792191630.0,,,-8.6328332,115.1606319,https://maps.google.com/?cid=0x0:0xd9faf64ee7b5633b,
mall,Pusat Perbelanjaan,TOKO TAMAN SARI,"Jl. Karang Suwung, Tibubeneng, Kec. Kuta Utara, Kabupaten Badung, Bali 80361","Tibubeneng, Kec. Kuta Utara, Kabupaten Badung",BALI,80361.0,Indonesia,81338330900.0,,,-8.6490793,115.148898,https://maps.google.com/?cid=0x0:0xf009276a803c6c03,
mall,Butik,TORELLO_FASHION,"Jl. Raya Padonan No.90, Tibubeneng, Kec. Kuta Utara, Kabupaten Badung, Bali 80361","Tibubeneng, Kec. Kuta Utara, Kabupaten Badung",BALI,80361.0,Indonesia,87761433334.0,,,-8.6333196,115.159594,https://maps.google.com/?cid=0x0:0xc8740efb6e350a38,
mall,Toko Pakaian,Dindah Fashion Bali,"Jl. Pesona Dalung Blk. A3 No.7, Kerobokan Kaja, Kec. Kuta Utara, Kabupaten Badung, Bali 80361","Kerobokan Kaja, Kec. Kuta Utara, Kabupaten Badung",BALI,80361.0,Indonesia,83119938150.0,,,-8.632084,115.167617,https://maps.google.com/?cid=0x0:0x33150259c9ab8e1a,
mall,Pusat Perbelanjaan,Menara Baut,"9539+WP8, Jl. Raya Canggu, Kerobokan Kaja, Kec. Kuta Utara, Kabupaten Badung, Bali 80361","Jl. Raya Canggu, Kerobokan Kaja, Kec. Kuta Utara, Kabupaten Badung",BALI,80361.0,Indonesia,3618445960.0,,,-8.6452034,115.169315,https://maps.google.com/?cid=0x0:0xc7d0dd1e04d5143f,
mall,mall,Bali 80351,"Kec. Mengwi, Kabupaten Badung, Bali","Kabupaten Badung, Bali",BALI,,Indonesia,,,,-8.5617185,115.1770586,https://maps.google.com/?cid=0x0:0x1c00c5eb6016be30,
mall,Pusat Perbelanjaan,shoppingbali,"Jl. Cempaka No.1 VII, Kapal, Kec. Mengwi, Kabupaten Badung, Bali 80351","Kapal, Kec. Mengwi, Kabupaten Badung",BALI,80351.0,Indonesia,81246674651.0,,,-8.5675061,115.1825148,https://maps.google.com/?cid=0x0:0xe60f3e685083a2b2,
mall,Pusat Perbelanjaan,Tu Inggris,"depan bengkel las yukti karya, br cepaka Jl. Jepun No.3, Kapal, Kec. Mengwi, Kabupaten Badung, Bali 80351","br cepaka Jl. Jepun No.3, Kapal, Kec. Mengwi, Kabupaten Badung",BALI,80351.0,Indonesia,87861473321.0,,,-8.5671824,115.181994,https://maps.google.com/?cid=0x0:0xf9b38bbd1b600284,
mall,Toko,Resmi Abadi Jaya,"C5PC+GCF, Jl. Raya Beringkit, Mengwitani, Kec. Mengwi, Kabupaten Badung, Bali 80351","Jl. Raya Beringkit, Mengwitani, Kec. Mengwi, Kabupaten Badung",BALI,80351.0,Indonesia,81238647005.0,,,-8.5636917,115.171053,https://maps.google.com/?cid=0x0:0xa44bc0e6be2facdb,
mall,Toko,Warung Bu Weda,"Jl. Widuri I No.2, Kapal, Kec. Mengwi, Kabupaten Badung, Bali 80351","Kapal, Kec. Mengwi, Kabupaten Badung",BALI,80351.0,Indonesia,81999878965.0,,,-8.5694512,115.1832872,https://maps.google.com/?cid=0x0:0xc50f865a908bacf2,
mall,Minimarket,Surya Mart,"C5PP+PG2, Jl. Panglan, Banjar cepake, Mengwi, Bali, Kapal, Kec. Mengwi, Kabupaten Badung, Bali 80531","Jl. Panglan, Banjar cepake, Mengwi, Bali, Kapal, Kec. Mengwi, Kabupaten Badung",BALI,80531.0,Indonesia,85792213456.0,,,-8.563227,115.1862571,https://maps.google.com/?cid=0x0:0xf7d732e44f1afd6e,
mall,Komplek perumahan,Nenek Desak,"C57H+RW7, Jl. Raya Abianbase, Kapal, Kec. Mengwi, Kabupaten Badung, Bali 80351","Jl. Raya Abianbase, Kapal, Kec. Mengwi, Kabupaten Badung",BALI,80351.0,Indonesia,85238941320.0,,,-8.5854554,115.1798034,https://maps.google.com/?cid=0x0:0x4759fb1dc04510e5,
mall,Toko Buah dan Sayur,BUAH SEHAT BALI / girly shop kapal,"Jl. Tambaksari No.8, Kapal, Kec. Mengwi, Kabupaten Badung, Bali 80351","Kapal, Kec. Mengwi, Kabupaten Badung",BALI,80351.0,Indonesia,81916741444.0,,,-8.5763241,115.1772142,https://maps.google.com/?cid=0x0:0xf4578418a7dcd525,
mall,Pembangunan Perumahan,Psy Mobilindo,"Jl. Ratna, Gulingan, Kec. Mengwi, Kabupaten Badung, Bali 80351","Gulingan, Kec. Mengwi, Kabupaten Badung",BALI,80351.0,Indonesia,85792058844.0,,,-8.5454969,115.1817497,https://maps.google.com/?cid=0x0:0x42328dd827410bc3,
mall,Pusat Perbelanjaan,Made Bali Mart,"Jalan Raya Sempidi No.41 Sempidi Mengwi Badung Bali 80351 Badung Bali, Sempidi, Kec. Mengwi, Kabupaten Badung, Bali 80631",Badung Bali,BALI,80351.0,Indonesia,361424633.0,,,-8.5993138,115.1863767,https://maps.google.com/?cid=0x0:0x6842687e82a0dc76,
mall,Pusat Perbelanjaan,BahuBali,"Ps. Mengwi, Jl. Lakasamana barat, banjar Peregae, Mengwi, Kec. Mengwi, Kabupaten Badung, Bali 80351","Jl. Lakasamana barat, banjar Peregae, Mengwi, Kec. Mengwi, Kabupaten Badung",BALI,80351.0,Indonesia,85792163791.0,,,-8.5437741,115.1675646,https://maps.google.com/?cid=0x0:0x6fc86d871f094529,
mall,Pusat Perbelanjaan,AndiLaundry (WENDA),"C5VH+VQM, Jl. Raya Pengadangan Mengwi, Mengwitani, Kec. Mengwi, Kabupaten Badung, Bali 80351","Jl. Raya Pengadangan Mengwi, Mengwitani, Kec. Mengwi, Kabupaten Badung",BALI,80351.0,Indonesia,81916324437.0,,,-8.555294,115.179407,https://maps.google.com/?cid=0x0:0x71f593fd3197e462,
mall,Toko,Dupa C12,"C5JH+9JG, Jl. Cemara, Kapal, Kec. Mengwi, Kabupaten Badung, Bali 80351","Jl. Cemara, Kapal, Kec. Mengwi, Kabupaten Badung",BALI,80351.0,Indonesia,81353078889.0,,,-8.569075,115.179072,https://maps.google.com/?cid=0x0:0xd33ef44198cbc45b,
mall,Pusat Perbelanjaan,Paonjajebali,"C5P9+H6M, Jalan Raya, Mengwitani, Mengwi, Badung Regency, Bali 80351","Jalan Raya, Mengwitani, Mengwi, Badung Regency",BALI,80351.0,Indonesia,85792979004.0,,,-8.5635346,115.1680493,https://maps.google.com/?cid=0x0:0x179f3b2dfffa6be6,
mall,Pusat Perbelanjaan,D'Yan Collection,"F53M+G5H, Br. Ulun Uma, Jl. Raya Mengwi - Penarungan, Gulingan, Mengwi, Badung Regency, Bali 80351","Br. Ulun Uma, Jl. Raya Mengwi - Penarungan, Gulingan, Mengwi, Badung Regency",BALI,80351.0,Indonesia,,,,-8.5461982,115.1829827,https://maps.google.com/?cid=0x0:0xd9e6d32127334f3c,
mall,Jasa Tanaman Interior,Bali garden sempidi,"95WP+X98, Jl. Raya Denpasar - Gilimanuk, Sempidi, Kec. Mengwi, Kabupaten Badung, Bali 80351","Jl. Raya Denpasar - Gilimanuk, Sempidi, Kec. Mengwi, Kabupaten Badung",BALI,80351.0,Indonesia,87863555004.0,,,-8.6025984,115.1859651,https://maps.google.com/?cid=0x0:0x39c50abacd8fdd6d,
mall,Salon Kuku,Nails Byna Bali,"Jl. Raya Kapal No.76, Kapal, Kec. Mengwi, Kabupaten Badung, Bali 80351","Kapal, Kec. Mengwi, Kabupaten Badung",BALI,80351.0,Indonesia,81337720127.0,,,-8.5738393,115.1794366,https://maps.google.com/?cid=0x0:0xc89ba6137296131c,
mall,Kantor Perusahaan,DISTRIBUTOR BIOGREEN MENGWITANI,"Gg. Perkutut No.14, Mengwitani, Kec. Mengwi, Kabupaten Badung, Bali 80351","Mengwitani, Kec. Mengwi, Kabupaten Badung",BALI,80351.0,Indonesia,87862236096.0,,,-8.5675615,115.1660675,https://maps.google.com/?cid=0x0:0x4ce7af637d448f3b,
mall,Toko,Jegeg Bagus,"C5MF+7H7, Jl. Raya Beringkit Noi.7, Mengwitani, Kec. Mengwi, Kabupaten Badung, Bali 80351","Jl. Raya Beringkit Noi.7, Mengwitani, Kec. Mengwi, Kabupaten Badung",BALI,80351.0,Indonesia,85237353555.0,,,-8.566849,115.1739321,https://maps.google.com/?cid=0x0:0xc2db016e25a6a531,
mall,Pusat Perbelanjaan,Yudistira Yadnya,"Jl. Br.Tengah Gulingan, Gulingan, Kec. Mengwi, Kabupaten Badung, Bali 80351","Gulingan, Kec. Mengwi, Kabupaten Badung",BALI,80351.0,Indonesia,881037702437.0,,,-8.5450871,115.1834408,https://maps.google.com/?cid=0x0:0x4d67474f8cb7a263,
mall,Pusat Perbelanjaan,UD Buana Karya Bali,"C58F+MVQ, No, Jl. Gadung - Belulang, Kapal, Kec. Mengwi, Kabupaten Badung, Bali 80351","No, Jl. Gadung - Belulang, Kapal, Kec. Mengwi, Kabupaten Badung",BALI,80351.0,Indonesia,8123978243.0,,,-8.5832774,115.1747285,https://maps.google.com/?cid=0x0:0xa8158be816f66889,
mall,Toko Pakaian,Kubu Patet Uyeng,"C579+W53, Abianbase, Kec. Mengwi, Kabupaten Badung, Bali 80351","Abianbase, Kec. Mengwi, Kabupaten Badung",BALI,80351.0,Indonesia,87858794486.0,,,-8.5852368,115.1679188,https://maps.google.com/?cid=0x0:0xf7d36e7fbe357f3,
mall,Pusat Perbelanjaan,Jero betta bali,"C5RC+QGC, Jalan, Mengwitani, Mengwi, Badung Regency, Bali 80351","Jalan, Mengwitani, Mengwi, Badung Regency",BALI,80351.0,Indonesia,81239955955.0,,,-8.55806,115.1712627,https://maps.google.com/?cid=0x0:0x311012a775d80d31,
mall,Toko Suvenir,ART CINTA Jaya Bali Statue,"C59J+JCJ, Jl. Raya Abianbase, Kapal, Kec. Mengwi, Kabupaten Badung, Bali 80351","Jl. Raya Abianbase, Kapal, Kec. Mengwi, Kabupaten Badung",BALI,80351.0,Indonesia,87860003113.0,,,-8.5809025,115.181012,https://maps.google.com/?cid=0x0:0x9ad2a22478405fc0,
mall,Pusat Perbelanjaan,Upakara Putri Yadnya,"F53C+32R, Jl. I Gusti Ngurah Rai, Mengwi, Kec. Mengwi, Kabupaten Badung, Bali 80351","Jl. I Gusti Ngurah Rai, Mengwi, Kec. Mengwi, Kabupaten Badung",BALI,80351.0,Indonesia,,,,-8.5473028,115.1700482,https://maps.google.com/?cid=0x0:0x4dc2172f135fb704,
mall,mall,Bali 80353,"Kec. Petang, Kabupaten Badung, Bali","Kabupaten Badung, Bali",BALI,,Indonesia,,,,-8.3365862,115.2244853,https://maps.google.com/?cid=0x0:0x1c00c5eb6016be50,
mall,Pusat Perbelanjaan,Guntur Mini Market,"Jl. I.GST. NGR Rai, Pangsan, Kec. Petang, Kabupaten Badung, Bali 80353","Pangsan, Kec. Petang, Kabupaten Badung",BALI,80353.0,Indonesia,,,,-8.4036871,115.2184527,https://maps.google.com/?cid=0x0:0xff0ea8a0035782d5,
mall,Toko Swalayan,Triya Mart,"J639+MCM, Jl. I.GST. NGR Rai, Petang, Kec. Petang, Kabupaten Badung, Bali 80353","Jl. I.GST. NGR Rai, Petang, Kec. Petang, Kabupaten Badung",BALI,80353.0,Indonesia,81246432626.0,,,-8.3957929,115.2185546,https://maps.google.com/?cid=0x0:0x3d99bd1d0d1b75cb,
mall,Pusat Perbelanjaan,Warung canang,"Jl. Raya Pura Pucak Mangu, Pelaga, Kec. Petang, Kabupaten Badung, Bali 80353","Pelaga, Kec. Petang, Kabupaten Badung",BALI,80353.0,Indonesia,82145079005.0,,,-8.3254739,115.2221242,https://maps.google.com/?cid=0x0:0x27ef5495a99750af,
mall,Toko umum,Warung Made,"P63Q+XCM, Belok/Sidan, Kec. Petang, Kabupaten Badung, Bali 80353","Belok/Sidan, Kec. Petang, Kabupaten Badung",BALI,80353.0,Indonesia,,,,-8.2950252,115.2385559,https://maps.google.com/?cid=0x0:0x86b0fede2718e1c8,
mall,Mesin Sangrai Kopi,Pabrik Kopi Badak,"Jl. Gusti Ngurahrai No.184, Carangsari, Kec. Petang, Kabupaten Badung, Bali 80352","Carangsari, Kec. Petang, Kabupaten Badung",BALI,80352.0,Indonesia,,,,-8.462795,115.214459,https://maps.google.com/?cid=0x0:0x60ca91ff542331d4,
mall,Kafe,Dagang tuak dek sevo,"Jl. Tukad Ayung No.11, Carangsari, Kec. Petang, Kabupaten Badung, Bali 80353","Carangsari, Kec. Petang, Kabupaten Badung",BALI,80353.0,Indonesia,,,,-8.4536035,115.229788,https://maps.google.com/?cid=0x0:0x360b8b66aed327a1,
mall,Toko Swalayan,Warung Bu Letri,"Getasan, Kec. Petang, Kabupaten Badung, Bali 80353","Kec. Petang, Kabupaten Badung",BALI,80353.0,Indonesia,81236467228.0,,,-8.4215111,115.2228358,https://maps.google.com/?cid=0x0:0x8f8f464988d5103d,
mall,Bengkel Sepeda Motor,Artha Sari Jaya Motor,"Jl. I.GST. NGR Rai, Getasan, Kec. Petang, Kabupaten Badung, Bali 80353","Getasan, Kec. Petang, Kabupaten Badung",BALI,80353.0,Indonesia,81239005925.0,,,-8.4306208,115.2226873,https://maps.google.com/?cid=0x0:0x5d92ccad4ac06773,
mall,Pusat Perbelanjaan,Warung Sayur *SINTYAR*,"P6C7+846, Br., Jl. Semanik, Pelaga, Kec. Petang, Kabupaten Badung, Bali 80353","Br., Jl. Semanik, Pelaga, Kec. Petang, Kabupaten Badung",BALI,80353.0,Indonesia,,,,-8.2792078,115.2127657,https://maps.google.com/?cid=0x0:0xc73dfffb4c713abf,
mall,Pusat Perbelanjaan,Warung Bu Yasni tiyingan pelaga,"Jl. Tiyingan, Pelaga, Kec. Petang, Kabupaten Badung, Bali 80353","Pelaga, Kec. Petang, Kabupaten Badung",BALI,80353.0,Indonesia,81338901221.0,,,-8.2927069,115.2126106,https://maps.google.com/?cid=0x0:0xa600985a5ece983c,
mall,Toko,Bali Bagus,"Jl. Mekarsari - Baturiti Bedugul No.575, Mekarsari, Kec. Baturiti, Kabupaten Tabanan, Bali 82191","Mekarsari, Kec. Baturiti, Kabupaten Tabanan",BALI,82191.0,Indonesia,3682033302.0,,,-8.3870458,115.1953569,https://maps.google.com/?cid=0x0:0xc88ffc63b6a627e3,
mall,Toko,Abishop (Uthu Daiicih),"Banjar Abing, Sulangai, Kec. Petang, Kabupaten Badung, Bali 80353","Sulangai, Kec. Petang, Kabupaten Badung",BALI,80353.0,Indonesia,82144213492.0,,,-8.3589094,115.2146261,https://maps.google.com/?cid=0x0:0xff01a0c0dfd8ab99,
mall,Pusat Perbelanjaan,Warung Buk Gata,"P65F+CXV, Jl. Raya Pura Pucak Mangu, Pelaga, Kec. Petang, Kabupaten Badung, Bali 80353","Jl. Raya Pura Pucak Mangu, Pelaga, Kec. Petang, Kabupaten Badung",BALI,80353.0,Indonesia,,,,-8.291155,115.22504,https://maps.google.com/?cid=0x0:0xf194175a876b42ea,
mall,Toko bahan makanan,Sari Pangan Grosir  Retail,"H66F+25P Br. Telugtug, Carangsari, Kec. Petang, Kabupaten Badung, Bali 80353","Carangsari, Kec. Petang, Kabupaten Badung",BALI,80353.0,Indonesia,85940801720.0,,,-8.4399066,115.2229674,https://maps.google.com/?cid=0x0:0x77d089b2c1b55682,
mall,Pusat Perbelanjaan,Summarecon Mall Kelapa Gading,"Jl. Boulevard Raya, Klp. Gading Tim., Kec. Klp. Gading, Jkt Utara, Daerah Khusus Ibukota Jakarta 14240","Klp. Gading Tim., Kec. Klp. Gading, Jkt Utara",BALI,14240.0,Indonesia,214531101.0,,,-6.1572666,106.9084263,https://maps.google.com/?cid=0x0:0x1c1a278e20ff1c47,
mall,Pusat Perbelanjaan,Mall Of Indonesia,"Jl. Boulevard Bar. Raya No.12, RT.18/RW.19, Klp. Gading Bar., Kec. Klp. Gading, Jkt Utara, Daerah Khusus Ibukota Jakarta 14240","RT.18/RW.19, Klp. Gading Bar., Kec. Klp. Gading, Jkt Utara",BALI,14240.0,Indonesia,2145867888.0,,,-6.1514549,106.8918949,https://maps.google.com/?cid=0x0:0x3431c7aaadd1f1b6,
mall,Pusat Perbelanjaan,Mall Kelapa Gading 5,"Jl. Boulevard Raya, RT.13/RW.18, Klp. Gading Tim., Kec. Klp. Gading, Jkt Utara, Daerah Khusus Ibukota Jakarta 14240","RT.13/RW.18, Klp. Gading Tim., Kec. Klp. Gading, Jkt Utara",BALI,14240.0,Indonesia,214531101.0,,,-6.1567385,106.910945,https://maps.google.com/?cid=0x0:0xf81b02e78061a7af,
mall,Pusat Perbelanjaan,Mall Artha Gading Jakarta,"Jl. Artha Gading Sel. No.1, Klp. Gading Bar., Kec. Klp. Gading, Jkt Utara, Daerah Khusus Ibukota Jakarta 14240","Klp. Gading Bar., Kec. Klp. Gading, Jkt Utara",BALI,14240.0,Indonesia,2145864000.0,,,-6.1457739,106.8919187,https://maps.google.com/?cid=0x0:0x176166b3d087c724,
mall,Perhentian bus,Poins Mall,"Jl. R.A. Kartini No.1, RT.9/RW.7, Lb. Bulus, Kec. Cilandak, Kota Jakarta Selatan, Daerah Khusus Ibukota Jakarta 12440","RT.9/RW.7, Lb. Bulus, Kec. Cilandak, Kota Jakarta Selatan",BALI,12440.0,Indonesia,2175921122.0,,,-6.2899462,106.7781514,https://maps.google.com/?cid=0x0:0xf56df5d4319c363a,
mall,Layanan Penukaran Mata Uang,Ratumas Valasindo - Mal Kelapa Gading 3,"Mal Kelapa Gading 3 Lower Ground Floor Unit 36 A, JL. Boulevard Raya Kelapa Gading, North Jakarta, 14240, RT.13/RW.18, East Kelapa Gading, Kelapa Gading, North Jakarta City, Jakarta 14240","JL. Boulevard Raya Kelapa Gading, North Jakarta,",BALI,14240.0,Indonesia,2145853981.0,,,-6.1566977,106.9090096,https://maps.google.com/?cid=0x0:0xd6d99ad821f75ecd,
mall,Minimarket,Indomaret Boulevard Selatan TVCO,"H 4 / 1, Jl. Boulevard Raya, RT.1/RW.2, Klp. Gading Tim., Kec. Klp. Gading, Jkt Utara, Daerah Khusus Ibukota Jakarta 14240","Jl. Boulevard Raya, RT.1/RW.2, Klp. Gading Tim., Kec. Klp. Gading, Jkt Utara",BALI,14240.0,Indonesia,1500580.0,,,-6.1719976,106.8984441,https://maps.google.com/?cid=0x0:0x510ade5829225630,
supermarket,supermarket,Bali 80352,"Abiansemal, Kec. Abiansemal, Kabupaten Badung, Bali","Kabupaten Badung, Bali",BALI,,Indonesia,,,,-8.5584335,115.2244853,https://maps.google.com/?cid=0x0:0x1c00c5eb6016be40,
supermarket,Toko,Toko Mahadewi,"Jl. Raya Mambal No.7, Mambal, Kec. Abiansemal, Kabupaten Badung, Bali 80352","Mambal, Kec. Abiansemal, Kabupaten Badung",BALI,80352.0,Indonesia,85747235123.0,,,-8.5498806,115.2224898,https://maps.google.com/?cid=0x0:0x751c7b2f863d2197,
supermarket,Toko bahan makanan,Puri Susuk Boga Mini Market,"Jl. Raya Angantaka No.1a, Sedang, Kec. Abiansemal, Kabupaten Badung, Bali 80352","Sedang, Kec. Abiansemal, Kabupaten Badung",BALI,80352.0,Indonesia,85847850421.0,,,-8.5686506,115.236796,https://maps.google.com/?cid=0x0:0x30b4f42b55e0f24e,
supermarket,Toko bahan makanan,Soka 1 Minimarket,"Jl. Raya Sibang Kaja No.3, Sibang Kaja, Kec. Abiansemal, Kabupaten Badung, Bali 80352","Sibang Kaja, Kec. Abiansemal, Kabupaten Badung",BALI,80352.0,Indonesia,85935256152.0,,,-8.5609407,115.2196922,https://maps.google.com/?cid=0x0:0xe8a855e6e90983d9,
supermarket,Minimarket,Indomaret Mambal,"C6W9+RPG, Jl. Raya Mambal, Mambal, Kec. Abiansemal, Kabupaten Badung, Bali 80352","Jl. Raya Mambal, Mambal, Kec. Abiansemal, Kabupaten Badung",BALI,80352.0,Indonesia,,,,-8.5529495,115.2193217,https://maps.google.com/?cid=0x0:0x94921bf9f92dd316,
supermarket,Pasar,Mini Market Jaya Kerti,"Mambal, Kec. Abiansemal, Kabupaten Badung, Bali 80352","Kec. Abiansemal, Kabupaten Badung",BALI,80352.0,Indonesia,85100269928.0,,,-8.5541119,115.2191124,https://maps.google.com/?cid=0x0:0x521f7b7ac5a7025e,
supermarket,Minimarket,MM Indomaret,"F696+HMM, Jalan Raya, Abiansemal, Badung Regency, Bali 80352","Jalan Raya, Abiansemal, Badung Regency",BALI,80352.0,Indonesia,,,,-8.5310498,115.2116624,https://maps.google.com/?cid=0x0:0x65b306315f756f88,
supermarket,Toko bahan makanan,Alfamart,"C676+9P9, Jl. Raya Darmasaba, Darmasaba, Kec. Abiansemal, Kabupaten Badung, Bali 80352","Jl. Raya Darmasaba, Darmasaba, Kec. Abiansemal, Kabupaten Badung",BALI,80352.0,Indonesia,1500959.0,,,-8.5865378,115.2117738,https://maps.google.com/?cid=0x0:0xbf54a199174dbada,
supermarket,Toko Swalayan,Soka 3 Minimarket,"Jl. Raya Sibanggede No.80352, Sibang Gede, Kec. Abiansemal, Kabupaten Badung, Bali 80352","Sibang Gede, Kec. Abiansemal, Kabupaten Badung",BALI,80352.0,Indonesia,85737057561.0,,,-8.5747597,115.2183313,https://maps.google.com/?cid=0x0:0x3bf2da5af6248494,
supermarket,Minimarket,Ayu Nadi,"Jl. Raya Sibang Kaja No.1, Sibang Kaja, Kec. Abiansemal, Kabupaten Badung, Bali 80352","Sibang Kaja, Kec. Abiansemal, Kabupaten Badung",BALI,80352.0,Indonesia,87705557558.0,,,-8.5712559,115.2189856,https://maps.google.com/?cid=0x0:0x46e3180002acefcc,
supermarket,Minimarket,Indomaret Sibangkaja 2,"C6PC+76F, Sibang Kaja, Kec. Abiansemal, Kabupaten Badung, Bali 80352","Sibang Kaja, Kec. Abiansemal, Kabupaten Badung",BALI,80352.0,Indonesia,81353386087.0,,,-8.5643173,115.2205592,https://maps.google.com/?cid=0x0:0x49872f739f623c22,
supermarket,Toko Swalayan,Soka 4 Minimarket,"Jl. Raya Mambal No.63, Mekar Bhuwana, Kec. Abiansemal, Kabupaten Badung, Bali 80352","Mekar Bhuwana, Kec. Abiansemal, Kabupaten Badung",BALI,80352.0,Indonesia,,,,-8.5487842,115.2391018,https://maps.google.com/?cid=0x0:0xbed5734c6e9936a,
supermarket,Toko bahan makanan,Warung Pak Kumis,"Jl. Raya Gerih No.108, Sibang Kaja, Kec. Abiansemal, Kabupaten Badung, Bali 80352","Sibang Kaja, Kec. Abiansemal, Kabupaten Badung",BALI,80352.0,Indonesia,81237780950.0,,,-8.5659635,115.2109499,https://maps.google.com/?cid=0x0:0xaa4ab87d3d716c88,
supermarket,Toko Bahan Bangunan,Ud. Dharma Karya,"Jl. Raya Angantaka No.88, Angantaka, Kec. Abiansemal, Badung,Abiansemal, Bali 80352","Angantaka, Kec. Abiansemal, Badung,Abiansemal",BALI,80352.0,Indonesia,85100419620.0,,,-8.5776398,115.2385878,https://maps.google.com/?cid=0x0:0x8f0067d698b51bf0,
supermarket,Toko grosir,TOKO WISNU,"di sebelah selatan warung rujak Bu Dayu (D'Carik) dan Danan Jaya Kebaya, Jl. Raya Mambal Semana, Mambal, Kec. Abiansemal, Kabupaten Badung, Bali 80352","Jl. Raya Mambal Semana, Mambal, Kec. Abiansemal, Kabupaten Badung",BALI,80352.0,Indonesia,85737109414.0,,,-8.5442105,115.2222469,https://maps.google.com/?cid=0x0:0x2ba546f4dce798d2,
supermarket,Toko Swalayan,Alfamart Mambal,"Jl. Raya Mambal, Br.Agung, Kec. Abiansemal, Kabupaten Badung, Bali 80352","Br.Agung, Kec. Abiansemal, Kabupaten Badung",BALI,80352.0,Indonesia,1500959.0,,,-8.5513,115.21962,https://maps.google.com/?cid=0x0:0xf098b2bb515b8ed8,
supermarket,Minimarket,Indomaret latu,"Jl. Raya Mambal, Abiansemal, Kec. Abiansemal, Kabupaten Badung, Bali 80352","Abiansemal, Kec. Abiansemal, Kabupaten Badung",BALI,80352.0,Indonesia,816500580.0,,,-8.5446806,115.2142192,https://maps.google.com/?cid=0x0:0x13aba3b335b1e26a,
supermarket,Toko Swalayan,Bintang Supermarket Ubud,"Jl. Raya Sanggingan No.45, Sayan, Kecamatan Ubud, Kabupaten Gianyar, Bali 80515","Sayan, Kecamatan Ubud, Kabupaten Gianyar",BALI,80515.0,Indonesia,361972972.0,,,-8.4997384,115.2523733,https://maps.google.com/?cid=0x0:0xedf5038642b75298,
supermarket,Minimarket,Toko Seruyan,"Jl. Raya Abiansemal No.25, Abiansemal, Kec. Abiansemal, Kabupaten Badung, Bali 80352","Abiansemal, Kec. Abiansemal, Kabupaten Badung",BALI,80352.0,Indonesia,,,,-8.5251087,115.2113636,https://maps.google.com/?cid=0x0:0x1f94b46455c6bab8,
supermarket,Toko bahan makanan,Indomaret | Sibang Kaja,"Jl. Sibang Kaja, Abian Mambal, Abian Semal, Jl. Raya Sibang Kaja No.1, Sibang Kaja, Abiansemal, Badung Regency, Bali 80352","Abian Mambal, Abian Semal, Jl. Raya Sibang Kaja No.1, Sibang Kaja, Abiansemal, Badung Regency",BALI,80352.0,Indonesia,816500580.0,,,-8.5722159,115.2186929,https://maps.google.com/?cid=0x0:0xfa9cb1db08d9b242,
supermarket,Minimarket,Alfamart Sibang,"Jl. Raya Sibang Kaja No.1, Sibang Kaja, Kec. Abiansemal, Kabupaten Badung, Bali 80352","Sibang Kaja, Kec. Abiansemal, Kabupaten Badung",BALI,80352.0,Indonesia,21500959.0,,,-8.5711988,115.2189999,https://maps.google.com/?cid=0x0:0xf313b19a5c939098,
supermarket,Minimarket,Indomaret Angantaka,"Jl. Raya Angantaka No.23, Angantaka, Kec. Abiansemal, Kabupaten Badung, Bali 80352","Angantaka, Kec. Abiansemal, Kabupaten Badung",BALI,80352.0,Indonesia,,,,-8.5790418,115.2388184,https://maps.google.com/?cid=0x0:0xe59841dd375ed102,
supermarket,Pasar Makanan Segar,Pasar tradisional Tegal Darmasaba,"C674+4J6, Jl. Raya Darmasaba, Darmasaba, Kec. Abiansemal, Kabupaten Badung, Bali 80352","Jl. Raya Darmasaba, Darmasaba, Kec. Abiansemal, Kabupaten Badung",BALI,80352.0,Indonesia,,,,-8.5872169,115.2065081,https://maps.google.com/?cid=0x0:0x936b8f0f1a0c6f6b,
supermarket,Minimarket,Alfamart Abiansemal,"F6F6+CXR, Jl. Raya Abiansemal, Abiansemal, Kec. Abiansemal, Kabupaten Badung, Bali 80352","Jl. Raya Abiansemal, Abiansemal, Kec. Abiansemal, Kabupaten Badung",BALI,80352.0,Indonesia,,,,-8.5263906,115.2123806,https://maps.google.com/?cid=0x0:0xf39e681003043166,
supermarket,Minimarket,Warna Mini Market,"F647+R2G, Jalan Pusparesti,Abiansemal,Badung, Abiansemal, Kec. Abiansemal, Kabupaten Badung, Bali 80352","Jalan Pusparesti,Abiansemal,Badung, Abiansemal, Kec. Abiansemal, Kabupaten Badung",BALI,80352.0,Indonesia,81236038098.0,,,-8.5429415,115.2125774,https://maps.google.com/?cid=0x0:0x28908b1802b51afe,
supermarket,supermarket,Kuta,"Kec. Kuta, Kabupaten Badung, Bali","Kabupaten Badung, Bali",BALI,,Indonesia,,,,-8.7237964,115.1752277,https://maps.google.com/?cid=0x0:0x4030bfbca7d2c00,
supermarket,Toko Swalayan,Grand Lucky Supermarket,"Jl. Sunset Road No.29, Kuta, Kec. Kuta, Kabupaten Badung, Bali 80361","Kuta, Kec. Kuta, Kabupaten Badung",BALI,80361.0,Indonesia,361762308.0,,,-8.7071714,115.1837175,https://maps.google.com/?cid=0x0:0xf625ece1b610a74c,
supermarket,Toko Swalayan,Papaya Fresh Gallery - Kuta,"Jalan Merta Nadi No.Banjar, Abian Base, Kec. Kuta, Kabupaten Badung, Bali 80361","Abian Base, Kec. Kuta, Kabupaten Badung",BALI,80361.0,Indonesia,361759222.0,,,-8.7098685,115.1829325,https://maps.google.com/?cid=0x0:0xb20273175e52a48,
supermarket,Supermarket Industri,Bintang Supermarket Seminyak,"Jl. Raya Seminyak No.17, Seminyak, Kec. Kuta Utara, Kabupaten Badung, Bali 80361","Seminyak, Kec. Kuta Utara, Kabupaten Badung",BALI,80361.0,Indonesia,361730552.0,,,-8.6941736,115.1678886,https://maps.google.com/?cid=0x0:0x3582fbdbb0c18258,
supermarket,Toko bahan makanan,Bali Jaya Mart,"Jl. Raya Kuta No.132, Kuta, Kec. Kuta, Kabupaten Badung, Bali 80361","Kuta, Kec. Kuta, Kabupaten Badung",BALI,80361.0,Indonesia,361751949.0,,,-8.7229568,115.176559,https://maps.google.com/?cid=0x0:0x44b4f2c68071fb3b,
supermarket,supermarket,Foodmart Supermarket Beachwalk,"Jl. Pantai Kuta, Kuta, Kec. Kuta, Kabupaten Badung, Bali 80361","Kuta, Kec. Kuta, Kabupaten Badung",BALI,80361.0,Indonesia,81237922593.0,,,-8.7164477,115.1691307,https://maps.google.com/?cid=0x0:0x44f505f1235b2398,
supermarket,Minimarket,Pepito Supermarket Tuban,"Jl. Kediri No.36A, Kuta, Kec. Kuta, Kabupaten Badung, Bali 80361","Kuta, Kec. Kuta, Kabupaten Badung",BALI,80361.0,Indonesia,8174871284.0,,,-8.7383284,115.1724093,https://maps.google.com/?cid=0x0:0x58845cb56ce66d7e,
supermarket,Toko Swalayan,Hypermart - Mal Bali Galeria,"Mal Galeria. Simpang Dewa Ruci, Jl. Bypass Ngurah Rai, Kuta, Kec. Kuta, Kabupaten Badung, Bali 80361","Jl. Bypass Ngurah Rai, Kuta, Kec. Kuta, Kabupaten Badung",BALI,80361.0,Indonesia,361767056.0,,,-8.7228901,115.1851101,https://maps.google.com/?cid=0x0:0xb6f879d29622916c,
supermarket,Toko bahan makanan,Coco Supermarket Seminyak,"Jl. Laksamana No. 65-67 Kuta Selatan, Kerobokan Kelod, Kec. Kuta Utara, Kabupaten Badung, Bali 80361","Kerobokan Kelod, Kec. Kuta Utara, Kabupaten Badung",BALI,80361.0,Indonesia,8563717787.0,,,-8.6835849,115.1629226,https://maps.google.com/?cid=0x0:0xc9e8bcfdf0420185,
supermarket,Minimarket,Toko Bali Jaya Kuta,"Jl. Raya Kuta No.138, Kuta, Kec. Kuta, Kabupaten Badung, Bali 80361","Kuta, Kec. Kuta, Kabupaten Badung",BALI,80361.0,Indonesia,361751826.0,,,-8.7233206,115.1764851,https://maps.google.com/?cid=0x0:0xeba11afebcfc3fd5,
supermarket,Toko bahan makanan,Cocomart Kartika,"Jl. Kartika Plaza No.107, Kuta, Kec. Kuta, Kabupaten Badung, Bali 80361","Kuta, Kec. Kuta, Kabupaten Badung",BALI,80361.0,Indonesia,81558361361.0,,,-8.7343748,115.1674183,https://maps.google.com/?cid=0x0:0xfbabb77635af840e,
supermarket,Toko Swalayan,Pepito Express Pantai Kuta,"Jl. Pantai Kuta No.32, Legian, Kec. Kuta, Kabupaten Badung, Bali","Kabupaten Badung, Bali",BALI,,Indonesia,87802166111.0,,,-8.7131292,115.1677576,https://maps.google.com/?cid=0x0:0x3e59f07c466c2c46,
supermarket,Toko Swalayan,Frestive Seminyak - Supermarket,"Jl. Kunti I No.117X, Seminyak, Kec. Kuta, Kabupaten Badung, Bali 80361","Seminyak, Kec. Kuta, Kabupaten Badung",BALI,80361.0,Indonesia,85940748190.0,,,-8.688543,115.1704673,https://maps.google.com/?cid=0x0:0x78c10fd0ef02bffd,
supermarket,Toko Swalayan,Toko Balikita Kuta,"Jl. Patih Jelantik, Komp. Istana Kuta Galeria, Kuta, Kec. Kuta, Kabupaten Badung, Bali 80361","Komp. Istana Kuta Galeria, Kuta, Kec. Kuta, Kabupaten Badung",BALI,80361.0,Indonesia,,,,-8.7112851,115.180133,https://maps.google.com/?cid=0x0:0xeb3dc976f870494,
supermarket,Toko Swalayan,Nirmala Kuta,"759H+RC5, Jl. Bypass Ngurah Rai, Kuta, Kec. Kuta, Kabupaten Badung, Bali 80361","Jl. Bypass Ngurah Rai, Kuta, Kec. Kuta, Kabupaten Badung",BALI,80361.0,Indonesia,,,,-8.73049,115.1786213,https://maps.google.com/?cid=0x0:0x476ad79e5d21406d,
supermarket,Toko Swalayan,Pepito Market Seminyak,"Jl. Raya Kerobokan, Kerobokan Kelod, Kec. Kuta Utara, Kabupaten Badung, Bali 80361","Kerobokan Kelod, Kec. Kuta Utara, Kabupaten Badung",BALI,80361.0,Indonesia,87700032888.0,,,-8.6732453,115.1651277,https://maps.google.com/?cid=0x0:0x4cd6c77b12aeb8bb,
supermarket,Toko Kelontong Korea,Mu Gung Hwa Korean Supermarket Bali,"Jl. Sunset Road No.6, Seminyak, Kec. Kuta, Kabupaten Badung, Bali 80361","Seminyak, Kec. Kuta, Kabupaten Badung",BALI,80361.0,Indonesia,81337030939.0,,,-8.7144536,115.186461,https://maps.google.com/?cid=0x0:0xfcc6a5701f84d812,
supermarket,Toko bahan makanan,Frestive Kerobokan - Supermarket,"Jl. Raya Kerobokan, Banjar, Taman, Kabupaten Badung, Bali 80361","Banjar, Taman, Kabupaten Badung",BALI,80361.0,Indonesia,87861718854.0,,,-8.6733495,115.1650827,https://maps.google.com/?cid=0x0:0x6f83634b6a7faaba,
supermarket,Toko Swalayan,Coco Supermarket Jimbaran,"Jl. Uluwatu I No.80, Jimbaran, Kec. Kuta Sel., Kabupaten Badung, Bali 80361","Jimbaran, Kec. Kuta Sel., Kabupaten Badung",BALI,80361.0,Indonesia,8563717787.0,,,-8.7778518,115.1698744,https://maps.google.com/?cid=0x0:0x70063d505a0d150f,
supermarket,Toko bahan makanan,Ayu Nadi Grosir  Eceran Tuban,"7569+459, Jl. Dewi Sartika, Tuban, Kec. Kuta, Kabupaten Badung, Bali 80361","Jl. Dewi Sartika, Tuban, Kec. Kuta, Kabupaten Badung",BALI,80361.0,Indonesia,3619361021.0,,,-8.7397085,115.1679854,https://maps.google.com/?cid=0x0:0xd430d33888d56f04,
supermarket,supermarket,Bali 80361,"Kec. Kuta Sel., Kabupaten Badung, Bali","Kabupaten Badung, Bali",BALI,,Indonesia,,,,-8.7953431,115.1652008,https://maps.google.com/?cid=0x0:0x1c00c5eb6016be60,
supermarket,Toko Swalayan,Gourmet Market Bali by Pepito,"Sidewalk Jimbaran, Jl. Raya Uluwatu No.138, Jimbaran, Kec. Kuta Sel., Kabupaten Badung, Bali 80361","Jl. Raya Uluwatu No.138, Jimbaran, Kec. Kuta Sel., Kabupaten Badung",BALI,80361.0,Indonesia,8174871288.0,,,-8.796546,115.1611734,https://maps.google.com/?cid=0x0:0xdc415049546c11d3,
supermarket,Toko Swalayan,Nirmala Supermarket Ungasan,"Jl. Raya Uluwatu, Ungasan, Kec. Kuta Sel., Kabupaten Badung, Bali 80361","Ungasan, Kec. Kuta Sel., Kabupaten Badung",BALI,80361.0,Indonesia,361705454.0,,,-8.815793,115.1556778,https://maps.google.com/?cid=0x0:0x931af7fb84b3bbb3,
supermarket,Toko Swalayan,Pepito Market Petitenget,"Jl. Petitenget No.18, Kerobokan Kelod, Kuta Utara, Kerobokan Kelod, Kec. Kuta Utara, Kabupaten Badung, Bali 80361","Kerobokan Kelod, Kuta Utara, Kerobokan Kelod, Kec. Kuta Utara, Kabupaten Badung",BALI,80361.0,Indonesia,87700021888.0,,,-8.6735672,115.1578147,https://maps.google.com/?cid=0x0:0x63763bb525319cbf,
supermarket,supermarket,Bali 80361,"Kec. Kuta Sel., Kabupaten Badung, Bali","Kabupaten Badung, Bali",BALI,,Indonesia,,,,-8.7953431,115.1652008,https://maps.google.com/?cid=0x0:0x1c00c5eb6016be60,
supermarket,Toko bahan makanan,Coco Supermarket Seminyak,"Jl. Laksamana No. 65-67 Kuta Selatan, Kerobokan Kelod, Kec. Kuta Utara, Kabupaten Badung, Bali 80361","Kerobokan Kelod, Kec. Kuta Utara, Kabupaten Badung",BALI,80361.0,Indonesia,8563717787.0,,,-8.6835849,115.1629226,https://maps.google.com/?cid=0x0:0xc9e8bcfdf0420185,
supermarket,Supermarket Industri,Bintang Supermarket Seminyak,"Jl. Raya Seminyak No.17, Seminyak, Kec. Kuta Utara, Kabupaten Badung, Bali 80361","Seminyak, Kec. Kuta Utara, Kabupaten Badung",BALI,80361.0,Indonesia,361730552.0,,,-8.6941736,115.1678886,https://maps.google.com/?cid=0x0:0x3582fbdbb0c18258,
supermarket,Toko Swalayan,Grand Lucky Supermarket,"Jl. Sunset Road No.29, Kuta, Kec. Kuta, Kabupaten Badung, Bali 80361","Kuta, Kec. Kuta, Kabupaten Badung",BALI,80361.0,Indonesia,361762308.0,,,-8.7071714,115.1837175,https://maps.google.com/?cid=0x0:0xf625ece1b610a74c,
supermarket,Toko Swalayan,Papaya Fresh Gallery - Kuta,"Jalan Merta Nadi No.Banjar, Abian Base, Kec. Kuta, Kabupaten Badung, Bali 80361","Abian Base, Kec. Kuta, Kabupaten Badung",BALI,80361.0,Indonesia,361759222.0,,,-8.7098685,115.1829325,https://maps.google.com/?cid=0x0:0xb20273175e52a48,
supermarket,Toko Swalayan,Foodmart Primo Kuta,"Lippo Mall Kuta LG Floor, Jl. Kartika Plaza, Lingkungan Segara, Kuta, Badung Regency, Bali 80361","Jl. Kartika Plaza, Lingkungan Segara, Kuta, Badung Regency",BALI,80361.0,Indonesia,3618469470.0,,,-8.735421,115.1665878,https://maps.google.com/?cid=0x0:0xb2b930f0897dc399,
supermarket,Toko bahan makanan,Bali Jaya Mart,"Jl. Raya Kuta No.132, Kuta, Kec. Kuta, Kabupaten Badung, Bali 80361","Kuta, Kec. Kuta, Kabupaten Badung",BALI,80361.0,Indonesia,361751949.0,,,-8.7229568,115.176559,https://maps.google.com/?cid=0x0:0x44b4f2c68071fb3b,
supermarket,Toko Swalayan,Pepito Market Seminyak,"Jl. Raya Kerobokan, Kerobokan Kelod, Kec. Kuta Utara, Kabupaten Badung, Bali 80361","Kerobokan Kelod, Kec. Kuta Utara, Kabupaten Badung",BALI,80361.0,Indonesia,87700032888.0,,,-8.6732453,115.1651277,https://maps.google.com/?cid=0x0:0x4cd6c77b12aeb8bb,
supermarket,Toko bahan makanan,Frestive Kerobokan - Supermarket,"Jl. Raya Kerobokan, Banjar, Taman, Kabupaten Badung, Bali 80361","Banjar, Taman, Kabupaten Badung",BALI,80361.0,Indonesia,87861718854.0,,,-8.6733495,115.1650827,https://maps.google.com/?cid=0x0:0x6f83634b6a7faaba,
supermarket,Toko Swalayan,Coco Supermarket Jimbaran,"Jl. Uluwatu I No.80, Jimbaran, Kec. Kuta Sel., Kabupaten Badung, Bali 80361","Jimbaran, Kec. Kuta Sel., Kabupaten Badung",BALI,80361.0,Indonesia,8563717787.0,,,-8.7778518,115.1698744,https://maps.google.com/?cid=0x0:0x70063d505a0d150f,
supermarket,Toko Swalayan,Ithon Mart,"Ithon Mart Kuruksetra, Jl. Kuruksetra, Benoa, Kec. Kuta Sel., Kabupaten Badung, Bali 80361","Jl. Kuruksetra, Benoa, Kec. Kuta Sel., Kabupaten Badung",BALI,80361.0,Indonesia,361774533.0,,,-8.8016442,115.21298,https://maps.google.com/?cid=0x0:0x5013c92c84926425,
supermarket,Toko Swalayan,Ithon Mart,"Jl. Bypass Ngurah Rai No.9, Jimbaran, Kec. Kuta Sel., Kabupaten Badung, Bali 80361","Jimbaran, Kec. Kuta Sel., Kabupaten Badung",BALI,80361.0,Indonesia,361774533.0,,,-8.7848166,115.1981738,https://maps.google.com/?cid=0x0:0x2054d18089a15348,
supermarket,Toko Swalayan,Frestive Seminyak - Supermarket,"Jl. Kunti I No.117X, Seminyak, Kec. Kuta, Kabupaten Badung, Bali 80361","Seminyak, Kec. Kuta, Kabupaten Badung",BALI,80361.0,Indonesia,85940748190.0,,,-8.688543,115.1704673,https://maps.google.com/?cid=0x0:0x78c10fd0ef02bffd,
supermarket,Toko Swalayan,Nirmala Supermarket Ungasan,"Jl. Raya Uluwatu, Ungasan, Kec. Kuta Sel., Kabupaten Badung, Bali 80361","Ungasan, Kec. Kuta Sel., Kabupaten Badung",BALI,80361.0,Indonesia,361705454.0,,,-8.815793,115.1556778,https://maps.google.com/?cid=0x0:0x931af7fb84b3bbb3,
supermarket,Toko Swalayan,Coco Super Mumbul,"658V+3R4, Jl. Bypass Ngurah Rai, Jimbaran, Kec. Kuta Sel., Kabupaten Badung, Bali 80361","Jl. Bypass Ngurah Rai, Jimbaran, Kec. Kuta Sel., Kabupaten Badung",BALI,80361.0,Indonesia,8563717787.0,,,-8.7847444,115.1944768,https://maps.google.com/?cid=0x0:0x227ae5ebdd57870c,
supermarket,Toko Swalayan,Pepito Market Uluwatu,"Jl. Raya Uluwatu, Ungasan, Kec. Kuta Sel., Kabupaten Badung, Bali 80361","Ungasan, Kec. Kuta Sel., Kabupaten Badung",BALI,80361.0,Indonesia,87884838779.0,,,-8.8067787,115.1590153,https://maps.google.com/?cid=0x0:0x9e2e877f47635135,
supermarket,Toko Kelontong Korea,Mu Gung Hwa Korean Supermarket Bali,"Jl. Sunset Road No.6, Seminyak, Kec. Kuta, Kabupaten Badung, Bali 80361","Seminyak, Kec. Kuta, Kabupaten Badung",BALI,80361.0,Indonesia,81337030939.0,,,-8.7144536,115.186461,https://maps.google.com/?cid=0x0:0xfcc6a5701f84d812,
supermarket,Minimarket,Coco Mart Uluwatu,"Ungasan, Kec. Kuta Sel., Kabupaten Badung, Bali 80361","Kec. Kuta Sel., Kabupaten Badung",BALI,80361.0,Indonesia,,,,-8.8044188,115.1595621,https://maps.google.com/?cid=0x0:0xe48918563b70a3fe,
supermarket,Minimarket,Coco Mart Bali Cliff,"Jl. Pura Batu Pageh No.123, Ungasan, Kec. Kuta Sel., Kabupaten Badung, Bali 80361","Ungasan, Kec. Kuta Sel., Kabupaten Badung",BALI,80361.0,Indonesia,,,,-8.8240647,115.1639945,https://maps.google.com/?cid=0x0:0xfc039988f1502731,
supermarket,Toko Swalayan,Pepito Express Kutuh,"Jl. Dharmawangsa No.7, Kutuh, Kec. Kuta Sel., Kabupaten Badung, Bali 80361","Kutuh, Kec. Kuta Sel., Kabupaten Badung",BALI,80361.0,Indonesia,87800216133.0,,,-8.8292775,115.1738935,https://maps.google.com/?cid=0x0:0xce814f6afab7fc86,
supermarket,Minimarket,Nusa Dewata,"Jl. Nuansa Utama Timur D No.35,Jimbaran, Jimbaran, Kec. Kuta Sel., Kabupaten Badung, Bali 80361","Jimbaran, Kec. Kuta Sel., Kabupaten Badung",BALI,80361.0,Indonesia,3618959072.0,,,-8.8021817,115.1860404,https://maps.google.com/?cid=0x0:0x4a65437ab87923f3,
supermarket,supermarket,Foodmart Supermarket Beachwalk,"Jl. Pantai Kuta, Kuta, Kec. Kuta, Kabupaten Badung, Bali 80361","Kuta, Kec. Kuta, Kabupaten Badung",BALI,80361.0,Indonesia,81237922593.0,,,-8.7164477,115.1691307,https://maps.google.com/?cid=0x0:0x44f505f1235b2398,
supermarket,Toko Swalayan,Coco Mart Nuansa Utama,"55XM+CVR, Jl. Nuansa Utama, Benoa, Kec. Kuta Sel., Kabupaten Badung, Bali 80361","Jl. Nuansa Utama, Benoa, Kec. Kuta Sel., Kabupaten Badung",BALI,80361.0,Indonesia,3618479797.0,,,-8.80139,115.1846433,https://maps.google.com/?cid=0x0:0x484f762864a295c2,
supermarket,Minimarket,NUANSA DEWATA,"Jl. Taman Giri No.77, Benoa, Kec. Kuta Sel., Kabupaten Badung, Bali 80361","Benoa, Kec. Kuta Sel., Kabupaten Badung",BALI,80361.0,Indonesia,3618498290.0,,,-8.7926905,115.1947554,https://maps.google.com/?cid=0x0:0xbd143ec8ffcb22d8,
supermarket,Toko Swalayan,Pepito Market Petitenget,"Jl. Petitenget No.18, Kerobokan Kelod, Kuta Utara, Kerobokan Kelod, Kec. Kuta Utara, Kabupaten Badung, Bali 80361","Kerobokan Kelod, Kuta Utara, Kerobokan Kelod, Kec. Kuta Utara, Kabupaten Badung",BALI,80361.0,Indonesia,87700021888.0,,,-8.6735672,115.1578147,https://maps.google.com/?cid=0x0:0x63763bb525319cbf,
supermarket,supermarket,Bali 80361,"Kec. Kuta Sel., Kabupaten Badung, Bali","Kabupaten Badung, Bali",BALI,,Indonesia,,,,-8.7953431,115.1652008,https://maps.google.com/?cid=0x0:0x1c00c5eb6016be60,
supermarket,Supermarket Industri,Bintang Supermarket Seminyak,"Jl. Raya Seminyak No.17, Seminyak, Kec. Kuta Utara, Kabupaten Badung, Bali 80361","Seminyak, Kec. Kuta Utara, Kabupaten Badung",BALI,80361.0,Indonesia,361730552.0,,,-8.6941736,115.1678886,https://maps.google.com/?cid=0x0:0x3582fbdbb0c18258,
supermarket,Toko bahan makanan,Coco Supermarket Seminyak,"Jl. Laksamana No. 65-67 Kuta Selatan, Kerobokan Kelod, Kec. Kuta Utara, Kabupaten Badung, Bali 80361","Kerobokan Kelod, Kec. Kuta Utara, Kabupaten Badung",BALI,80361.0,Indonesia,8563717787.0,,,-8.6835849,115.1629226,https://maps.google.com/?cid=0x0:0xc9e8bcfdf0420185,
supermarket,Toko Swalayan,Frestive,"Jl. Pemelisan Agung Banjar Berawa, desa No.20, Tibubeneng, Kec. Kuta Utara, Kabupaten Badung, Bali","Kabupaten Badung, Bali",BALI,,Indonesia,81913460992.0,,,-8.6596301,115.1389377,https://maps.google.com/?cid=0x0:0x19949921ae3f6e5a,
supermarket,Toko Swalayan,Frestive Batu Bolong,"Jl. Pantai Batu Bolong Jl. Kubu Manyar, Canggu, Kec. Kuta Utara, Kabupaten Badung, Bali 80361","Canggu, Kec. Kuta Utara, Kabupaten Badung",BALI,80361.0,Indonesia,81339368167.0,,,-8.6427622,115.1420988,https://maps.google.com/?cid=0x0:0x5225a1d2d3fa1023,
supermarket,Toko Swalayan,Pepito Market Gunung Sanghyang,"Jl. Gunung Sanghyang No.79A, Kerobokan, Kec. Kuta Utara, Kabupaten Badung, Bali 80361","Kerobokan, Kec. Kuta Utara, Kabupaten Badung",BALI,80361.0,Indonesia,81901366111.0,,,-8.6469912,115.1745646,https://maps.google.com/?cid=0x0:0x549b92ef0c66b5b2,
supermarket,Toko bahan makanan,Bali Jaya Mart,"Jl. Raya Kuta No.132, Kuta, Kec. Kuta, Kabupaten Badung, Bali 80361","Kuta, Kec. Kuta, Kabupaten Badung",BALI,80361.0,Indonesia,361751949.0,,,-8.7229568,115.176559,https://maps.google.com/?cid=0x0:0x44b4f2c68071fb3b,
supermarket,Toko Swalayan,Pepito Market Semer,"85R7+P4Q, Jl. Raya Semer, Dukuh Sari, Kerobokan Kelod, Kec. Kuta Utara, Kabupaten Badung, Bali 80361","Jl. Raya Semer, Dukuh Sari, Kerobokan Kelod, Kec. Kuta Utara, Kabupaten Badung",BALI,80361.0,Indonesia,87700080888.0,,,-8.6581643,115.162852,https://maps.google.com/?cid=0x0:0x96480054dc854e98,
supermarket,Toko Swalayan,Papaya Fresh Gallery - Kuta,"Jalan Merta Nadi No.Banjar, Abian Base, Kec. Kuta, Kabupaten Badung, Bali 80361","Abian Base, Kec. Kuta, Kabupaten Badung",BALI,80361.0,Indonesia,361759222.0,,,-8.7098685,115.1829325,https://maps.google.com/?cid=0x0:0xb20273175e52a48,
supermarket,Toko Swalayan,Pepito Market Petitenget,"Jl. Petitenget No.18, Kerobokan Kelod, Kuta Utara, Kerobokan Kelod, Kec. Kuta Utara, Kabupaten Badung, Bali 80361","Kerobokan Kelod, Kuta Utara, Kerobokan Kelod, Kec. Kuta Utara, Kabupaten Badung",BALI,80361.0,Indonesia,87700021888.0,,,-8.6735672,115.1578147,https://maps.google.com/?cid=0x0:0x63763bb525319cbf,
supermarket,Toko Swalayan,Grand Lucky Supermarket,"Jl. Sunset Road No.29, Kuta, Kec. Kuta, Kabupaten Badung, Bali 80361","Kuta, Kec. Kuta, Kabupaten Badung",BALI,80361.0,Indonesia,361762308.0,,,-8.7071714,115.1837175,https://maps.google.com/?cid=0x0:0xf625ece1b610a74c,
supermarket,Toko Swalayan,Foodmart Primo Kuta,"Lippo Mall Kuta LG Floor, Jl. Kartika Plaza, Lingkungan Segara, Kuta, Badung Regency, Bali 80361","Jl. Kartika Plaza, Lingkungan Segara, Kuta, Badung Regency",BALI,80361.0,Indonesia,3618469470.0,,,-8.735421,115.1665878,https://maps.google.com/?cid=0x0:0xb2b930f0897dc399,
supermarket,Toko Swalayan,Pepito Market Eco Beach,"Jl. Pantai Batu Bolong, Canggu, Kec. Kuta Utara, Kabupaten Badung, Bali 80351","Canggu, Kec. Kuta Utara, Kabupaten Badung",BALI,80351.0,Indonesia,87700059888.0,,,-8.6430533,115.1423669,https://maps.google.com/?cid=0x0:0xc796a80d9a3ace96,
supermarket,Toko Swalayan,Pepito Express,"Jl. Dukuh Indah No.56, Kerobokan Kelod, Kec. Kuta Utara, Kabupaten Badung, Bali 80361","Kerobokan Kelod, Kec. Kuta Utara, Kabupaten Badung",BALI,80361.0,Indonesia,87700063888.0,,,-8.6653864,115.1624633,https://maps.google.com/?cid=0x0:0x8e37c702aa91a61c,
supermarket,Toko bahan makanan,Tiara Gatzu,"Jl. Gatot Subroto Barat No.567, Kerobokan Kaja, Kec. Kuta Utara, Kabupaten Badung, Bali 80361","Kerobokan Kaja, Kec. Kuta Utara, Kabupaten Badung",BALI,80361.0,Indonesia,361418918.0,,,-8.637497,115.174752,https://maps.google.com/?cid=0x0:0x85b0bb1ebfc3af59,
supermarket,Toko Swalayan,Mini Market Sri Nadi,"Jl. Bumbak Dauh, Kerobokan, Kec. Kuta Utara, Kabupaten Badung, Bali 80361","Kerobokan, Kec. Kuta Utara, Kabupaten Badung",BALI,80361.0,Indonesia,3618475533.0,,,-8.6625913,115.1521419,https://maps.google.com/?cid=0x0:0x929b7b4696132776,
supermarket,Toko Swalayan,Pepito Market Canggu,"Jl. Raya Canggu No.101X, Kerobokan, Kec. Kuta Utara, Kabupaten Badung, Bali 80361","Kerobokan, Kec. Kuta Utara, Kabupaten Badung",BALI,80361.0,Indonesia,8174871289.0,,,-8.643591,115.1577432,https://maps.google.com/?cid=0x0:0x4290c0781faf6289,
supermarket,Minimarket,Indra Mart,"Jl. Raya Semer No.15, Kerobokan Kelod, Kec. Kuta Utara, Kabupaten Badung, Bali 80361","Kerobokan Kelod, Kec. Kuta Utara, Kabupaten Badung",BALI,80361.0,Indonesia,82287870693.0,,,-8.6619553,115.1642447,https://maps.google.com/?cid=0x0:0xefb0dd447760bac7,
supermarket,Minimarket,Coco Mart,"Blok Jl. Canggu Permai IV No.B1, Tibubeneng, Kuta Utara, Badung Regency, Bali 80361","Tibubeneng, Kuta Utara, Badung Regency",BALI,80361.0,Indonesia,3618444733.0,,,-8.6493436,115.1464019,https://maps.google.com/?cid=0x0:0x4994898cb2e81ef7,
supermarket,supermarket,Foodmart Supermarket Beachwalk,"Jl. Pantai Kuta, Kuta, Kec. Kuta, Kabupaten Badung, Bali 80361","Kuta, Kec. Kuta, Kabupaten Badung",BALI,80361.0,Indonesia,81237922593.0,,,-8.7164477,115.1691307,https://maps.google.com/?cid=0x0:0x44f505f1235b2398,
supermarket,Toko bahan makanan,Frestive Kerobokan - Supermarket,"Jl. Raya Kerobokan, Banjar, Taman, Kabupaten Badung, Bali 80361","Banjar, Taman, Kabupaten Badung",BALI,80361.0,Indonesia,87861718854.0,,,-8.6733495,115.1650827,https://maps.google.com/?cid=0x0:0x6f83634b6a7faaba,
supermarket,Toko Swalayan,Mini Mart,"Jl. Raya Canggu No.17, Tibubeneng, Kec. Kuta Utara, Kabupaten Badung, Bali 80361","Tibubeneng, Kec. Kuta Utara, Kabupaten Badung",BALI,80361.0,Indonesia,,,,-8.6416401,115.1547153,https://maps.google.com/?cid=0x0:0x231aac8f5898bee3,
supermarket,Toko Swalayan,Popular,"Jl. Subak Sari No.84, Tibubeneng, Kec. Kuta Utara, Kabupaten Badung, Bali 80361","Tibubeneng, Kec. Kuta Utara, Kabupaten Badung",BALI,80361.0,Indonesia,87700040888.0,,,-8.669202,115.1466267,https://maps.google.com/?cid=0x0:0xd23766ba4d0e842e,
supermarket,Toko Makanan Sehat,Canggu Station,"Jl. Subak Sari No.8, Canggu, Kec. Kuta Utara, Kabupaten Badung, Bali 80361","Canggu, Kec. Kuta Utara, Kabupaten Badung",BALI,80361.0,Indonesia,8113804855.0,,,-8.663824,115.1464934,https://maps.google.com/?cid=0x0:0x5b79e88b1647617e,
supermarket,Pusat Perbelanjaan,Iwaka Supermarket Dalung,"Jl. Raya Dalung No.85, Dalung, Kec. Kuta Utara, Kabupaten Badung, Bali 80351","Dalung, Kec. Kuta Utara, Kabupaten Badung",BALI,80351.0,Indonesia,81916480822.0,,,-8.6071967,115.1716305,https://maps.google.com/?cid=0x0:0xb559fedc5ddba871,
supermarket,supermarket,Bali 80351,"Kec. Mengwi, Kabupaten Badung, Bali","Kabupaten Badung, Bali",BALI,,Indonesia,,,,-8.5617185,115.1770586,https://maps.google.com/?cid=0x0:0x1c00c5eb6016be30,
supermarket,Toko Daging Premium,Bali Direct Store Pererenan,"Jl. Pantai Pererenan No.69, Pererenan, Kec. Mengwi, Kabupaten Badung, Bali 80351","Pererenan, Kec. Mengwi, Kabupaten Badung",BALI,80351.0,Indonesia,81236858045.0,,,-8.639195,115.1309198,https://maps.google.com/?cid=0x0:0xb06062b3c9a1a92,
supermarket,Toko Swalayan,Pepito Market Pererenan,"Pepito Market Pererenan, Pererenan, Kec. Mengwi, Kabupaten Badung, Bali 80351","Pererenan, Kec. Mengwi, Kabupaten Badung",BALI,80351.0,Indonesia,8174871294.0,,,-8.6308655,115.1331624,https://maps.google.com/?cid=0x0:0x42d5fe26a8ef5dc0,
supermarket,Minimarket,Indomaret Kapal,"C59J+H97, Kapal, Kec. Mengwi, Kabupaten Badung, Bali 80351","Kapal, Kec. Mengwi, Kabupaten Badung",BALI,80351.0,Indonesia,,,,-8.5810927,115.1809296,https://maps.google.com/?cid=0x0:0x47990b772dc576d2,
supermarket,Minimarket,Alfamart,"Jl. Mengwi-Mengwitani, Mengwitani, Kec. Mengwi, Kabupaten Badung, Bali 80351","Mengwitani, Kec. Mengwi, Kabupaten Badung",BALI,80351.0,Indonesia,1500959.0,,,-8.5630647,115.1658527,https://maps.google.com/?cid=0x0:0x2db26ef19db109db,
supermarket,Minimarket,Indomaret Mengwitani,"Jalan Raya, Mengwitani, Mengwi, Badung Regency, Bali 80351","Mengwitani, Mengwi, Badung Regency",BALI,80351.0,Indonesia,211500280.0,,,-8.5632821,115.1657453,https://maps.google.com/?cid=0x0:0xd4c130f3dfa2890b,
supermarket,Toko,Alfamart,"Br. Menak, Jl. Raya Denpasar - Gilimanuk, Beringkit, Kec. Mengwi, Kabupaten Badung, Bali 80351","Jl. Raya Denpasar - Gilimanuk, Beringkit, Kec. Mengwi, Kabupaten Badung",BALI,80351.0,Indonesia,1500959.0,,,-8.5672649,115.1746787,https://maps.google.com/?cid=0x0:0xe4f2cf22a0021995,
supermarket,Toko,Toko Setia,"Jl. Raya Lukluk - Sempidi No.4, Darmasaba, Kec. Mengwi, Kabupaten Badung, Bali 80351","Darmasaba, Kec. Mengwi, Kabupaten Badung",BALI,80351.0,Indonesia,85937012373.0,,,-8.582731,115.1895836,https://maps.google.com/?cid=0x0:0x27aeffd7604a5ce8,
supermarket,Minimarket,Indomaret Anggungan,"C5FV+Q5X, Jl. Raya Anggungan, Lukluk, Kec. Mengwi, Kabupaten Badung, Bali 80351","Jl. Raya Anggungan, Lukluk, Kec. Mengwi, Kabupaten Badung",BALI,80351.0,Indonesia,,,,-8.5755039,115.1929872,https://maps.google.com/?cid=0x0:0x74c210455cb23d78,
supermarket,Toko Makanan Sehat,Alive Wholefoods Store Canggu,"Jl. Canggu Padang Linjong No.14a, Canggu, Kec. Kuta Utara, Kabupaten Badung, Bali 80351","Canggu, Kec. Kuta Utara, Kabupaten Badung",BALI,80351.0,Indonesia,82146165452.0,,,-8.641887,115.139118,https://maps.google.com/?cid=0x0:0xc86a09ca901b192f,
supermarket,Minimarket,Varis Mini Market II,"JL. Raya Mengwitani, No. 2-X, Mengwi, Mengwitani, Tabanan, Kabupaten Badung, Bali 80351","No. 2-X, Mengwi, Mengwitani, Tabanan, Kabupaten Badung",BALI,80351.0,Indonesia,362829920.0,,,-8.5668689,115.1739478,https://maps.google.com/?cid=0x0:0xa770c88a03105620,
supermarket,Minimarket,Alfamart Penarungan,"Jl. Oleg, Penarungan, Kec. Mengwi, Kabupaten Badung, Bali 80351","Penarungan, Kec. Mengwi, Kabupaten Badung",BALI,80351.0,Indonesia,211500959.0,,,-8.5334665,115.2001806,https://maps.google.com/?cid=0x0:0x9e17f04b5cff6c1a,
supermarket,Minimarket,Indomaret,"Jl. I Gusti Ngurah Rai No.62, Mengwi, Kec. Mengwi, Kabupaten Badung, Bali 80351","Mengwi, Kec. Mengwi, Kabupaten Badung",BALI,80351.0,Indonesia,816500580.0,,,-8.545593,115.1701756,https://maps.google.com/?cid=0x0:0x683636fe8fbc6c29,
supermarket,Toko Swalayan,Toko Dolphin,"Jl. Soka No.12, Kapal, Kec. Mengwi, Kabupaten Badung, Bali 80362","Kapal, Kec. Mengwi, Kabupaten Badung",BALI,80362.0,Indonesia,81337792429.0,,,-8.5693053,115.1777307,https://maps.google.com/?cid=0x0:0x8f1bde292db5006f,
supermarket,Pasar tradisional,Pedagang D Pasar Hewan Beringki,"Jl. Kebo Iwa Mengwitani Banjar, Mengwitani, Kec. Mengwi, Kabupaten Badung, Bali 80351","Mengwitani, Kec. Mengwi, Kabupaten Badung",BALI,80351.0,Indonesia,,,,-8.5635755,115.1735317,https://maps.google.com/?cid=0x0:0x1c6b57d6426b7332,
supermarket,Toko Bahan Bangunan,Kirana Mart Bangunan,"Jl. Ganda Mayu No.8, Mengwi, Kec. Mengwi, Kabupaten Badung, Bali 80351","Mengwi, Kec. Mengwi, Kabupaten Badung",BALI,80351.0,Indonesia,81353899859.0,,,-8.5482053,115.1688526,https://maps.google.com/?cid=0x0:0x3294711faf9655e0,
supermarket,Pasar Ternak,Lawar Kebo Pasar Beringkit,"Pasar Umum Beringkit Mangupura, Mengwitani, Kec. Mengwi, Kabupaten Badung, Bali 80351","Mengwitani, Kec. Mengwi, Kabupaten Badung",BALI,80351.0,Indonesia,85738381225.0,,,-8.563224,115.1742388,https://maps.google.com/?cid=0x0:0x57d28ea76cc0b899,
supermarket,Toko bahan makanan,Indomaret ngurah rai Mengwi,"C5RC+QH7, Mengwitani, Kec. Mengwi, Kabupaten Badung, Bali 80351","Mengwitani, Kec. Mengwi, Kabupaten Badung",BALI,80351.0,Indonesia,,,,-8.5580844,115.1714263,https://maps.google.com/?cid=0x0:0x19939d32403e0f4a,
supermarket,Minimarket,Indomaret Kapal | Bright,"Jl. Raya Kapal No.9, Kapal, Kec. Mengwi, Kabupaten Badung, Bali 80351","Kapal, Kec. Mengwi, Kabupaten Badung",BALI,80351.0,Indonesia,81139605110.0,,,-8.5775369,115.1803127,https://maps.google.com/?cid=0x0:0xea4c94d6e75a3b9,
supermarket,Toko bahan makanan,Indomaret Tunjung Kapal,"Jl. Raya Mengwi, Kapal, Kec. Mengwi, Kabupaten Badung, Bali 80351","Kapal, Kec. Mengwi, Kabupaten Badung",BALI,80351.0,Indonesia,816500580.0,,,-8.576541,115.1780192,https://maps.google.com/?cid=0x0:0x682a34aa784af2fb,
supermarket,Toko Swalayan,Mengwi Mart,"F549+FWF, Pasar Jl. Rama, Mengwi, Kec. Mengwi, Kabupaten Badung, Bali 80351","Pasar Jl. Rama, Mengwi, Kec. Mengwi, Kabupaten Badung",BALI,80351.0,Indonesia,,,,-8.5438046,115.1697958,https://maps.google.com/?cid=0x0:0x418b5e53c5782a74,
supermarket,Kantor Perusahaan,PT. Indomarco Prismatama TBK - Mengwi,"Jl. Raya Mengwi No.17, Werdi Bhuwana, Kec. Mengwi, Kabupaten Badung, Bali 80351","Werdi Bhuwana, Kec. Mengwi, Kabupaten Badung",BALI,80351.0,Indonesia,361829288.0,,,-8.491075,115.1846597,https://maps.google.com/?cid=0x0:0xbe7c1783865791b6,
supermarket,Minimarket,Indomaret,"Jl. Raya Lukluk No.221, Lukluk, Kec. Mengwi, Kabupaten Badung, Bali 80351","Lukluk, Kec. Mengwi, Kabupaten Badung",BALI,80351.0,Indonesia,,,,-8.6022127,115.1862291,https://maps.google.com/?cid=0x0:0xbedac2c7599bae64,
supermarket,Toko Swalayan,Frestive Pererenan,"Banjar Kang Kang, Jl. Raya Pererenan Tanah Lot No.97, Pererenan, Kec. Mengwi, Kabupaten Badung, Bali 80351","Jl. Raya Pererenan Tanah Lot No.97, Pererenan, Kec. Mengwi, Kabupaten Badung",BALI,80351.0,Indonesia,82213393734.0,,,-8.6326843,115.135426,https://maps.google.com/?cid=0x0:0x1e7146c10d0129d2,
supermarket,Minimarket,Indomaret abianbase,"Jl. Raya Abianbase, Abianbase, Kec. Mengwi, Kabupaten Badung, Bali 80351","Abianbase, Kec. Mengwi, Kabupaten Badung",BALI,80351.0,Indonesia,,,,-8.5999013,115.1732826,https://maps.google.com/?cid=0x0:0xa1ecffd47f482750,
supermarket,supermarket,Bali 80353,"Kec. Petang, Kabupaten Badung, Bali","Kabupaten Badung, Bali",BALI,,Indonesia,,,,-8.3365862,115.2244853,https://maps.google.com/?cid=0x0:0x1c00c5eb6016be50,
supermarket,Toko bahan makanan,Indomaret Petang,"J649+JH3, Jalan, Petang, Badung Regency, Bali 80353","Jalan, Petang, Badung Regency",BALI,80353.0,Indonesia,,,,-8.3934781,115.2189073,https://maps.google.com/?cid=0x0:0x46fff00f900da4a0,
supermarket,Toko,Toko Ferdi,"Jl. Raya Pura Pucak Mangu, Petang, Kec. Petang, Kabupaten Badung, Bali 80353","Petang, Kec. Petang, Kabupaten Badung",BALI,80353.0,Indonesia,85739024744.0,,,-8.3758543,115.2236314,https://maps.google.com/?cid=0x0:0x1a6fd0ed89b07582,
supermarket,Minimarket,"Alfamart,Pangsan,Petang","Jl. Raya Petang No.Br, Pangsan, Kec. Petang, Kabupaten Badung, Bali 80353","Pangsan, Kec. Petang, Kabupaten Badung",BALI,80353.0,Indonesia,1500959.0,,,-8.4173478,115.2224321,https://maps.google.com/?cid=0x0:0xf46836a3f8af71ab,
supermarket,Toko bahan makanan,Melisa mart,"J6X4+HJ4, Sulangai, Kec. Petang, Kabupaten Badung, Bali 80353","Sulangai, Kec. Petang, Kabupaten Badung",BALI,80353.0,Indonesia,82340117007.0,,,-8.3511197,115.2065869,https://maps.google.com/?cid=0x0:0x5e192ef45304f77f,
supermarket,Toko,Gayatri Mart,"J6WH+6G7, Jl. Raya Pura Pucak Mangu, Sulangai, Kec. Petang, Kabupaten Badung, Bali 80353","Jl. Raya Pura Pucak Mangu, Sulangai, Kec. Petang, Kabupaten Badung",BALI,80353.0,Indonesia,81246499499.0,,,-8.354467,115.2288023,https://maps.google.com/?cid=0x0:0x2e0fd9cc68bdfd8d,
supermarket,Toko bahan makanan,Wr. Tunas Mertha,"Jl. Raya Pura Pucak Mangu, Sulangai, Kec. Petang, Kabupaten Badung, Bali 80353","Sulangai, Kec. Petang, Kabupaten Badung",BALI,80353.0,Indonesia,82236336001.0,,,-8.3430159,115.2271494,https://maps.google.com/?cid=0x0:0xa728b4604d0b4364,
supermarket,Minimarket,UD. Sarining Upadana,"Belok/Sidan, Kec. Petang, Kabupaten Badung, Bali 80353","Kec. Petang, Kabupaten Badung",BALI,80353.0,Indonesia,81339909818.0,,,-8.2958011,115.2388264,https://maps.google.com/?cid=0x0:0xf6cc49897899d425,
supermarket,Toko Swalayan,Toko Yadnya Risky Artha,"Jl. Pucak Mangu No 12, Br. Pelaga, Desa, Pelaga, Kec. Petang, Kabupaten Badung, Bali 80353","Br. Pelaga, Desa, Pelaga, Kec. Petang, Kabupaten Badung",BALI,80353.0,Indonesia,82341413000.0,,,-8.2915695,115.2250566,https://maps.google.com/?cid=0x0:0x850c0a4145924bcf,
supermarket,Toko bahan makanan,Toko Ria,"J639+R29, Petang, Kec. Petang, Kabupaten Badung, Bali 80353","Petang, Kec. Petang, Kabupaten Badung",BALI,80353.0,Indonesia,,,,-8.3954525,115.2175966,https://maps.google.com/?cid=0x0:0x9783ce68c21ba0a6,
supermarket,Toko bahan makanan,Aurellia market,"J6W8+36Q, Sulangai, Kec. Petang, Kabupaten Badung, Bali","Kabupaten Badung, Bali",BALI,,Indonesia,81529433708.0,,,-8.3547994,115.2156248,https://maps.google.com/?cid=0x0:0xcea87bac36913f34,
supermarket,Toko bahan makanan,Buk dheo,"J6X4+M94, Unnamed Road, Sulangai, Kec. Petang, Kabupaten Badung, Bali 80353","Unnamed Road, Sulangai, Kec. Petang, Kabupaten Badung",BALI,80353.0,Indonesia,81547585322.0,,,-8.3508652,115.2059687,https://maps.google.com/?cid=0x0:0x8cafaef350c5e108,
supermarket,Toko bahan makanan,Toko Bu Agus,"J6JF+9HF, Jl. Raya Pura Pucak Mangu, Petang, Kec. Petang, Kabupaten Badung, Bali 80353","Jl. Raya Pura Pucak Mangu, Petang, Kec. Petang, Kabupaten Badung",BALI,80353.0,Indonesia,87860654222.0,,,-8.3690594,115.22392,https://maps.google.com/?cid=0x0:0xca231ed00b4d06b2,
supermarket,Toko bahan makanan,Toko Sedana Graha,"J68C+346, Jl. Raya Pura Pucak Mangu, Petang, Kec. Petang, Kabupaten Badung, Bali 80353","Jl. Raya Pura Pucak Mangu, Petang, Kec. Petang, Kabupaten Badung",BALI,80353.0,Indonesia,,,,-8.3848358,115.2202781,https://maps.google.com/?cid=0x0:0xa7917224d84aaf8f,
supermarket,Toko bahan makanan,WR BU RISKA Market,"M69G+9C6, Jl. Nungnung, Pelaga, Kec. Petang, Kabupaten Badung, Bali 80353","Jl. Nungnung, Pelaga, Kec. Petang, Kabupaten Badung",BALI,80353.0,Indonesia,,,,-8.3319374,115.2271944,https://maps.google.com/?cid=0x0:0x7c936806065d5e5f,
supermarket,Toko bahan makanan,Wr. Buk Gede,"M6MC+226, Jl. Raya Pura Pucak Mangu, Pelaga, Kec. Petang, Kabupaten Badung, Bali 80353","Jl. Raya Pura Pucak Mangu, Pelaga, Kec. Petang, Kabupaten Badung",BALI,80353.0,Indonesia,81239488009.0,,,-8.3174561,115.2200121,https://maps.google.com/?cid=0x0:0xbfbe483198212914,
supermarket,Grosir Barang Kelontong,GUDANG KUNYIT JAHE,"Jl. Pura Kancing Gumi, Sulangai, Kec. Petang, Kabupaten Badung, Bali 80353","Sulangai, Kec. Petang, Kabupaten Badung",BALI,80353.0,Indonesia,,,,-8.3546065,115.2168613,https://maps.google.com/?cid=0x0:0xc27d6ebe9b1c608,
supermarket,Toko bahan makanan,Warung Buk Tutik,"Jl. Petang, Petang, Kec. Petang, Kabupaten Badung, Bali 80353","Petang, Kec. Petang, Kabupaten Badung",BALI,80353.0,Indonesia,81558822991.0,,,-8.3818839,115.222134,https://maps.google.com/?cid=0x0:0xfc09fe3c510fa8ac,
supermarket,Toko,Toko dongtut,"Sulangai, Kec. Petang, Kabupaten Badung, Bali 80353","Kec. Petang, Kabupaten Badung",BALI,80353.0,Indonesia,87852981269.0,,,-8.3560204,115.2290199,https://maps.google.com/?cid=0x0:0xdc952ff734c1a9c5,
supermarket,Toko,Warung Gesta,"J6PG+M4G, Jl. Raya Pura Pucak Mangu, Sulangai, Kec. Petang, Kabupaten Badung, Bali 80353","Jl. Raya Pura Pucak Mangu, Sulangai, Kec. Petang, Kabupaten Badung",BALI,80353.0,Indonesia,82146162663.0,,,-8.36332,115.2253355,https://maps.google.com/?cid=0x0:0xb92adbbd5d46ccf0,
supermarket,Toko Bahan Bangunan,Ud. Parta Jaya,"J6JF+QMW, Jl. Raya Pura Pucak Mangu, Sulangai, Kec. Petang, Kabupaten Badung, Bali 80353","Jl. Raya Pura Pucak Mangu, Sulangai, Kec. Petang, Kabupaten Badung",BALI,80353.0,Indonesia,85338233506.0,,,-8.3680067,115.224193,https://maps.google.com/?cid=0x0:0x1b1453a69257d92f,
supermarket,Pusat Perbelanjaan,Pasarina by Ranch Market,"Mall Sarinah, Jl. M.H. Thamrin No.11 Lantai Dasar, Kota Jakarta Pusat, Daerah Khusus Ibukota Jakarta 10350","Jl. M.H. Thamrin No.11 Lantai Dasar, Kota Jakarta Pusat",BALI,10350.0,Indonesia,,,,-6.1876584,106.8243519,https://maps.google.com/?cid=0x0:0x506bfb552a5cedbb,
supermarket,Toko,UD. Pula Sari,"Jalan I Gusti Ngurah Rai, Petang, Badung, Kabupaten Badung, Bali 80353, Petang, Kec. Petang, Kabupaten Badung, Bali 80352","Petang, Badung, Kabupaten Badung, Bali",BALI,80353.0,Indonesia,81338040053.0,,,-8.3993648,115.2185404,https://maps.google.com/?cid=0x0:0x109839c8e7b456f,
supermarket,Toko Meja,PERO Indonesia,"Dharmo Adhira, Ruko Beverly, Jl. Pangeran Antasari No.67 4, RT.4/RW.1, Cilandak Bar., Kec. Cilandak, Kota Jakarta Selatan, Daerah Khusus Ibukota Jakarta 12410","Ruko Beverly, Jl. Pangeran Antasari No.67 4, RT.4/RW.1, Cilandak Bar., Kec. Cilandak, Kota Jakarta Selatan",BALI,12410.0,Indonesia,2127820967.0,,,-6.2879496,106.8066094,https://maps.google.com/?cid=0x0:0xe74d8fc1b8b16a1c,
supermarket,Toko Ponsel,Warung nata cell,"M6QV+H3, Belok/Sidan, Kec. Petang, Kabupaten Badung, Bali 80353","Belok/Sidan, Kec. Petang, Kabupaten Badung",BALI,80353.0,Indonesia,,,,-8.3101733,115.2432444,https://maps.google.com/?cid=0x0:0xd0e5d251968a08ee,
supermarket,Toko bahan makanan,Indomaret Carangsari 2,"H62C+5H8, Carangsari, Kec. Petang, Kabupaten Badung, Bali 80353","Carangsari, Kec. Petang, Kabupaten Badung",BALI,80353.0,Indonesia,,,,-8.4495922,115.2214477,https://maps.google.com/?cid=0x0:0x538cb2d476ac3dd,
supermarket,Pasar,Kosong,"Jl. Semanik, Pelaga, Kec. Petang, Kabupaten Badung, Bali 80353","Pelaga, Kec. Petang, Kabupaten Badung",BALI,80353.0,Indonesia,,,,-8.2826389,115.2173278,https://maps.google.com/?cid=0x0:0xc37347b6a2a7024d,
