Category,Real Category,Business Name,Address,City,State,Postal Code,Country,Phone,Email,Website,Latitude,Longitude,Map Link,Details Link
perumahan,perumahan,Bali 80352,"Abiansemal, Kec. Abiansemal, Kabupaten Badung, Bali","Kabupaten Badung, Bali",BALI,,Indonesia,,,,-8.5584335,115.2244853,https://maps.google.com/?cid=0x0:0x1c00c5eb6016be40,
perumahan,Hotel,Perumahan Villa Ayung,"C687+PFR, Sibang Gede, Kec. Abiansemal, Kabupaten Badung, Bali 80352","Sibang Gede, Kec. Abiansemal, Kabupaten Badung",BALI,80352.0,Indonesia,,,,-8.5831443,115.2136304,https://maps.google.com/?cid=0x0:0xf195236c61ff7b83,
perumahan,Komplek perumahan,Perumahan Pondok Intan Asri,"C6HM+4JC, Jl. Bija, Sedang, Kec. Abiansemal, Kabupaten Badung, Bali 80352","Jl. Bija, Sedang, Kec. Abiansemal, Kabupaten Badung",BALI,80352.0,Indonesia,,,,-8.5721787,115.2340065,https://maps.google.com/?cid=0x0:0x3a87058b57a2d33f,
perumahan,Komplek perumahan,Perumahan geria sika asri,"C6R7+8J4, Sibang Kaja, Kec. Abiansemal, Kabupaten Badung, Bali 80352","Sibang Kaja, Kec. Abiansemal, Kabupaten Badung",BALI,80352.0,Indonesia,,,,-8.5592433,115.2140689,https://maps.google.com/?cid=0x0:0xde8e60a950c9955d,
perumahan,Perumahan,Perum Tanah Ayu Banjar Dualang Sibang Gede,"C6H6+2FF, Sibang Gede, Kec. Abiansemal, Kabupaten Badung, Bali 80352","Sibang Gede, Kec. Abiansemal, Kabupaten Badung",BALI,80352.0,Indonesia,,,,-8.5724387,115.2111658,https://maps.google.com/?cid=0x0:0x9987586a607df595,
perumahan,Komplek perumahan,Perumahan,"C6P6+63M, Jl. Raya Gerih, Sibang Kaja, Kec. Abiansemal, Kabupaten Badung, Bali 80352","Jl. Raya Gerih, Sibang Kaja, Kec. Abiansemal, Kabupaten Badung",BALI,80352.0,Indonesia,,,,-8.5646988,115.209796,https://maps.google.com/?cid=0x0:0x7f4edadbcf641206,
perumahan,Perhimpunan Pengembang Perumahan,Perumahan,"Perumahan bumi Dian, Blk. C No.43, Sibang Gede, Kec. Abiansemal, Kabupaten Badung, Bali 80352","Blk. C No.43, Sibang Gede, Kec. Abiansemal, Kabupaten Badung",BALI,80352.0,Indonesia,,,,-8.5827075,115.2111278,https://maps.google.com/?cid=0x0:0x2e0093788d44eb07,
perumahan,Komplek perumahan,Tanah Ayu Residence Sibang Gede,"Jl. Mekar Suci, Sibang Gede, Kec. Abiansemal, Kabupaten Badung, Bali 80352","Sibang Gede, Kec. Abiansemal, Kabupaten Badung",BALI,80352.0,Indonesia,,,,-8.5751678,115.2104642,https://maps.google.com/?cid=0x0:0xc23ffa08ae8ef4ac,
perumahan,Pembangunan Perumahan,Perum tegal pitu,"C6R7+7CG, Jl. Pitu, Sibang Kaja, Kec. Abiansemal, Kabupaten Badung, Bali 80352","Jl. Pitu, Sibang Kaja, Kec. Abiansemal, Kabupaten Badung",BALI,80352.0,Indonesia,,,,-8.5593067,115.2135819,https://maps.google.com/?cid=0x0:0xcee181e036229edc,
perumahan,Asosiasi pemilik rumah,Rumah,"Jl. Anggrek No.14, Sibang Kaja, Kec. Abiansemal, Kabupaten Badung, Bali 80352","Sibang Kaja, Kec. Abiansemal, Kabupaten Badung",BALI,80352.0,Indonesia,,,,-8.5654827,115.2164486,https://maps.google.com/?cid=0x0:0x15d178a295a97cec,
perumahan,Konsultan Realestat,Perumahan Pesona Graha Pratama,"Blk. A, Sibang Gede, Kec. Abiansemal, Kabupaten Badung, Bali 80352","Sibang Gede, Kec. Abiansemal, Kabupaten Badung",BALI,80352.0,Indonesia,,,,-8.5760445,115.2081892,https://maps.google.com/?cid=0x0:0xc15cfb5da66871c5,
perumahan,Komplek perumahan,Rumah Pak Musa,"C6Q7+XQP, Sibang Kaja, Kec. Abiansemal, Kabupaten Badung, Bali 80352","Sibang Kaja, Kec. Abiansemal, Kabupaten Badung",BALI,80352.0,Indonesia,,,,-8.559955,115.214322,https://maps.google.com/?cid=0x0:0x55349e4af747a884,
perumahan,Komplek perumahan,Perumahan Arjuna 1,"C6F6+WH4, Gg. Arjuna, Sibang Gede, Kec. Abiansemal, Kabupaten Badung, Bali 80352","Gg. Arjuna, Sibang Gede, Kec. Abiansemal, Kabupaten Badung",BALI,80352.0,Indonesia,,,,-8.57524,115.2115305,https://maps.google.com/?cid=0x0:0x9cc9327925b1b19,
perumahan,Komplek perumahan,rumah,"Jl. Raya Mambal No.7, Mambal, Kec. Abiansemal, Kabupaten Badung, Bali 80352","Mambal, Kec. Abiansemal, Kabupaten Badung",BALI,80352.0,Indonesia,,,,-8.5493731,115.2213192,https://maps.google.com/?cid=0x0:0x114b1c3bf45e08c0,
perumahan,Penginapan,Eco Village - Sibang,"Jl. Blumbungan 1, Gang Drupadi Banjar Piakan, Desa, Sibang Kaja, Kec. Abiansemal, Kabupaten Badung, Bali 80352","Gang Drupadi Banjar Piakan, Desa, Sibang Kaja, Kec. Abiansemal, Kabupaten Badung",BALI,80352.0,Indonesia,87761338541.0,,,-8.5704329,115.2124358,https://maps.google.com/?cid=0x0:0x9d8a280d8eb4f929,
perumahan,Komplek perumahan,Jero sebelah pura desa,"Jl. Raya Sibang Kaja No.27, Sibang Kaja, Kec. Abiansemal, Kabupaten Badung, Bali 80352","Sibang Kaja, Kec. Abiansemal, Kabupaten Badung",BALI,80352.0,Indonesia,,,,-8.568555,115.219888,https://maps.google.com/?cid=0x0:0xd85b1c21a703c827,
perumahan,Balai masyarakat,Rumah Mangku Pasek Br. Lambing SibangKaja,"C6PF+82Q, Sibang Kaja, Kec. Abiansemal, Kabupaten Badung, Bali 80352","Sibang Kaja, Kec. Abiansemal, Kabupaten Badung",BALI,80352.0,Indonesia,,,,-8.5656376,115.2231714,https://maps.google.com/?cid=0x0:0x16d591ccc0b5c5fc,
perumahan,Pembangunan Perumahan,perumahan darmasaba permai blok B-7,"perumahan, Jl. Darmasaba Permai Blk. B No.07, Kec. Abiansemal, Kabupaten Badung, Bali 80352","Jl. Darmasaba Permai Blk. B No.07, Kec. Abiansemal, Kabupaten Badung",BALI,80352.0,Indonesia,,,,-8.5850798,115.2134872,https://maps.google.com/?cid=0x0:0x3031bb27cf92db7e,
perumahan,Penginapan,Perumahan taman blumbungan,"C6J3+QW4 perumahan taman blumbungan, Jl. Taman Beji br. Piakan desa, Sibang Kaja, Kec. Abiansemal, Kabupaten Badung, Bali 80352","Jl. Taman Beji br. Piakan desa, Sibang Kaja, Kec. Abiansemal, Kabupaten Badung",BALI,80352.0,Indonesia,,,,-8.5681105,115.2048388,https://maps.google.com/?cid=0x0:0x9c0004be56550884,
perumahan,Pembangunan Perumahan,Jeroan Tengah,"Jl. Anggrek II No.5, Mekar Bhuwana, Kec. Abiansemal, Kabupaten Badung, Bali 80352","Mekar Bhuwana, Kec. Abiansemal, Kabupaten Badung",BALI,80352.0,Indonesia,,,,-8.5518328,115.226685,https://maps.google.com/?cid=0x0:0x49c911a46ceda1e8,
perumahan,Perhimpunan Pengembang Perumahan,Perumahan Uma Enjung,"C6CP+355 Perumahan Uma Enjung, Jl. Raya Angantaka - Sibang Gede, Angantaka, Abiansemal, Badung Regency, Bali 80352","Jl. Raya Angantaka - Sibang Gede, Angantaka, Abiansemal, Badung Regency",BALI,80352.0,Indonesia,,,,-8.5798645,115.2354736,https://maps.google.com/?cid=0x0:0xda96254f6b82ea6d,
perumahan,Otoritas Perumahan,Griya alam fajar,"C69W+XWW, Jl. Raya Angantaka - Sibang Gede, Angantaka, Kec. Abiansemal, Kabupaten Badung, Bali 80352","Jl. Raya Angantaka - Sibang Gede, Angantaka, Kec. Abiansemal, Kabupaten Badung",BALI,80352.0,Indonesia,,,,-8.5800237,115.2473337,https://maps.google.com/?cid=0x0:0xb5e9efce133acc8,
perumahan,Perhimpunan Pengembang Perumahan,"Griya Mas, Latu Abiansemal","Jl. Pendet No.59, Abiansemal, Kec. Abiansemal, Kabupaten Badung, Bali 80352","Abiansemal, Kec. Abiansemal, Kabupaten Badung",BALI,80352.0,Indonesia,,,,-8.5331357,115.2130873,https://maps.google.com/?cid=0x0:0xdd0c723fa02899e2,
perumahan,Komplek perumahan,Rumah Keluarga Pak Mustika,"Jalan Bantas I No.18, Sibang Gede, Kec. Abiansemal, Kabupaten Badung, Bali 80352","Sibang Gede, Kec. Abiansemal, Kabupaten Badung",BALI,80352.0,Indonesia,,,,-8.5739999,115.2207003,https://maps.google.com/?cid=0x0:0x340334785e7f5086,
perumahan,Pembangunan Perumahan,Bali,"Jl. Raya Abiansemal, Abiansemal, Kec. Abiansemal, Kabupaten Badung, Bali 80352","Abiansemal, Kec. Abiansemal, Kabupaten Badung",BALI,80352.0,Indonesia,,,,-8.5289342,115.2119983,https://maps.google.com/?cid=0x0:0x170ba551c0fc1275,
perumahan,Komplek perumahan,Dewa Yadnya,"C6M6+Q35, Sibang Kaja, Kec. Abiansemal, Kabupaten Badung, Bali 80352","Sibang Kaja, Kec. Abiansemal, Kabupaten Badung",BALI,80352.0,Indonesia,,,,-8.5656095,115.2102305,https://maps.google.com/?cid=0x0:0x4ce8302814b213cf,
perumahan,Perusahaan Manajemen Properti,VILLA CAHYA,"Sibang Gede, Kec. Abiansemal, Kabupaten Badung, Bali 80352","Kec. Abiansemal, Kabupaten Badung",BALI,80352.0,Indonesia,,,,-8.5617695,115.2286552,https://maps.google.com/?cid=0x0:0xe5386e2e57a95431,
perumahan,Pembangunan Perumahan,UMATEBA 22 HOME'S,"C6H8+W95, Gg. Umateba, Sibang Kaja, Kec. Abiansemal, Kabupaten Badung, Bali 80352","Gg. Umateba, Sibang Kaja, Kec. Abiansemal, Kabupaten Badung",BALI,80352.0,Indonesia,,,,-8.5702465,115.2159977,https://maps.google.com/?cid=0x0:0x9ca764f0204353c5,
perumahan,Komplek perumahan,Jeroan Gede Kaja Kangin,"Jl. Raya Mambal No.34, Mekar Bhuwana, Kec. Abiansemal, Kabupaten Badung, Bali 80352","Mekar Bhuwana, Kec. Abiansemal, Kabupaten Badung",BALI,80352.0,Indonesia,,,,-8.5508998,115.2266247,https://maps.google.com/?cid=0x0:0x567108dcb4be530f,
perumahan,Komplek perumahan,Perumahan,"Perumahan Kampial Indah, Benoa, Kec. Kuta Sel., Kabupaten Badung, Bali 80361","Benoa, Kec. Kuta Sel., Kabupaten Badung",BALI,80361.0,Indonesia,81293005394.0,,,-8.8051801,115.202137,https://maps.google.com/?cid=0x0:0x79fbba0e1f3c9055,
perumahan,Guest house,Jln kuta permai 1 blok c no 08 kuta bali,"75CJ+W3J, Kuta, Kec. Kuta, Kabupaten Badung, Bali 80361","Kuta, Kec. Kuta, Kabupaten Badung",BALI,80361.0,Indonesia,81262352665.0,,,-8.7276586,115.1801445,https://maps.google.com/?cid=0x0:0x88733a75562d164f,
perumahan,perumahan,Kuta,"Kec. Kuta, Kabupaten Badung, Bali","Kabupaten Badung, Bali",BALI,,Indonesia,,,,-8.7237964,115.1752277,https://maps.google.com/?cid=0x0:0x4030bfbca7d2c00,
perumahan,Kompleks Kondominium,Kuta Palace Residence,"76M8+HXP, Pedungan, Denpasar Selatan, Kota Denpasar, Bali 80222","Pedungan, Denpasar Selatan, Kota Denpasar",BALI,80222.0,Indonesia,,,,-8.7161433,115.2172671,https://maps.google.com/?cid=0x0:0x1c99c0bc45c687e1,
perumahan,Komplek perumahan,V Residence,"Jl. Bypass Ngurah Rai No.38A, Kuta, Kec. Kuta, Kabupaten Badung, Bali 80361","Kuta, Kec. Kuta, Kabupaten Badung",BALI,80361.0,Indonesia,82229000389.0,,,-8.7258914,115.181702,https://maps.google.com/?cid=0x0:0x546a87eb634e647,
perumahan,Inspektur Tempat Tinggal,Kompleks Perumahan Bea Cukai Kelan,"Jl. Bypass Ngurah Rai, Tuban, Kec. Kuta, Kabupaten Badung, Bali 80361","Tuban, Kec. Kuta, Kabupaten Badung",BALI,80361.0,Indonesia,,,,-8.75689,115.1787377,https://maps.google.com/?cid=0x0:0x49a332d3dee14cd9,
perumahan,Rumah Pondokan,PERUMAHAN KUTA PERMAI (tempekan kuta permai),"Jl. Bypass Ngurah Rai, lingkungan Br, Jabajero, Kec. Kuta, Kabupaten Badung, Bali 80361","lingkungan Br, Jabajero, Kec. Kuta, Kabupaten Badung",BALI,80361.0,Indonesia,81703979000.0,,,-8.7277961,115.1800617,https://maps.google.com/?cid=0x0:0x9ee9cd80e6b4c04d,
perumahan,Komplek perumahan,Garden Town House - Sunset Rd,"75MQ+53Q, Pemogan, Denpasar Selatan, Kota Denpasar, Bali 80361","Pemogan, Denpasar Selatan, Kota Denpasar",BALI,80361.0,Indonesia,,,,-8.7170465,115.1877237,https://maps.google.com/?cid=0x0:0x61713d5e27c17df2,
perumahan,Perumahan,PERUMAHAN TAMAN JIMBARAN,"Perumahan taman Jimbaran.XII No.2, Jimbaran, Kec. Kuta Sel., Kabupaten Badung, Bali 80361","Jimbaran, Kec. Kuta Sel., Kabupaten Badung",BALI,80361.0,Indonesia,87761143260.0,,,-8.7791847,115.1921045,https://maps.google.com/?cid=0x0:0xa105e2c75417065c,
perumahan,Komplek perumahan,KOS,"75GF+C7F, Gg. Kutuh, Kuta, Kec. Kuta, Kabupaten Badung, Bali 80361","Gg. Kutuh, Kuta, Kec. Kuta, Kabupaten Badung",BALI,80361.0,Indonesia,,,,-8.723928,115.1731633,https://maps.google.com/?cid=0x0:0xf6ac37cac1483c64,
perumahan,Komplek perumahan,Kute,"75GH+HXQ, Kuta, Kec. Kuta, Kabupaten Badung, Bali 80361","Kuta, Kec. Kuta, Kabupaten Badung",BALI,80361.0,Indonesia,,,,-8.7235463,115.1799706,https://maps.google.com/?cid=0x0:0xdc001426da2034cf,
perumahan,perumahan,BJ,"759F+683, Gg. Sadasari Gg. Klp., Kuta, Kec. Kuta, Kabupaten Badung, Bali 80361","Gg. Sadasari Gg. Klp., Kuta, Kec. Kuta, Kabupaten Badung",BALI,80361.0,Indonesia,,,,-8.7319945,115.1732892,https://maps.google.com/?cid=0x0:0x49e82bd000a7af6,
perumahan,Pembangunan Perumahan,Gg. Kamboja kuta kabupaten badung bali,"75QF+2V2, Gg. Kamboja, Kuta, Kec. Kuta, Kabupaten Badung, Bali 80361","Gg. Kamboja, Kuta, Kec. Kuta, Kabupaten Badung",BALI,80361.0,Indonesia,,,,-8.7124782,115.1746461,https://maps.google.com/?cid=0x0:0x715cbd7b7a234d75,
perumahan,Losmen,Rumah kuta,"Jl. Pantai Kuta No.26, Kuta, Kec. Kuta, Kabupaten Badung, Bali 80361","Kuta, Kec. Kuta, Kabupaten Badung",BALI,80361.0,Indonesia,,,,-8.7223307,115.1741879,https://maps.google.com/?cid=0x0:0x235a7a6b70269a12,
perumahan,Perhimpunan Pengembang Perumahan,Harvestland Residence Kuta Blok D11,"75FJ+5QJ, Jl. HarvestLand, Kuta, Kec. Kuta, Kabupaten Badung, Bali 80361","Jl. HarvestLand, Kuta, Kec. Kuta, Kabupaten Badung",BALI,80361.0,Indonesia,,,,-8.7270381,115.1818902,https://maps.google.com/?cid=0x0:0xa40a98d41a76fd36,
perumahan,Penginapan,Pondok Dewi Sri,"Jl. Dewi Sri II No.55, Kuta, Kec. Kuta, Kabupaten Badung, Bali 80361","Kuta, Kec. Kuta, Kabupaten Badung",BALI,80361.0,Indonesia,82144710329.0,,,-8.7066481,115.1798105,https://maps.google.com/?cid=0x0:0xdeb252e9085e15f3,
perumahan,Komplek perumahan,Rumah kost,"759G+477, Jl. Nyangnyang Sari, Kuta, Kec. Kuta, Kabupaten Badung, Bali 80361","Jl. Nyangnyang Sari, Kuta, Kec. Kuta, Kabupaten Badung",BALI,80361.0,Indonesia,,,,-8.7322152,115.1757407,https://maps.google.com/?cid=0x0:0x2428fd5cf3a7e90c,
perumahan,perumahan,jalan mataram kuta,"756F+9J4, Jl. Mandiri, Tuban, Kec. Kuta, Kabupaten Badung, Bali 80361","Jl. Mandiri, Tuban, Kec. Kuta, Kabupaten Badung",BALI,80361.0,Indonesia,,,,-8.7391096,115.174072,https://maps.google.com/?cid=0x0:0xb19eed80532ef0d4,
perumahan,Komplek perumahan,Z House,"75FG+QGR, Kuta, Kec. Kuta, Kabupaten Badung, Bali 80361","Kuta, Kec. Kuta, Kabupaten Badung",BALI,80361.0,Indonesia,81805304324.0,,,-8.7255165,115.1762746,https://maps.google.com/?cid=0x0:0xf3133b80de732ac6,
perumahan,Komplek perumahan,Bu krisna ( kamar 5c),"Gang Biduri No.9B, Jl. Bakung Sari, Kuta, Kec. Kuta, Kabupaten Badung, Bali 80361","Jl. Bakung Sari, Kuta, Kec. Kuta, Kabupaten Badung",BALI,80361.0,Indonesia,,,,-8.7262829,115.1729689,https://maps.google.com/?cid=0x0:0x689337283482c05d,
perumahan,Perhimpunan Pengembang Perumahan,Harvestland Residence Kuta C6,"75FJ+4J7, Jl. HarvestLand, Kuta, Kec. Kuta, Kabupaten Badung, Bali 80361","Jl. HarvestLand, Kuta, Kec. Kuta, Kabupaten Badung",BALI,80361.0,Indonesia,,,,-8.7272171,115.1815556,https://maps.google.com/?cid=0x0:0x397695583df644c8,
perumahan,Komplek perumahan,Gang lojor,"Jl. Raya Kuta No.20x, Kuta, Kec. Kuta, Kabupaten Badung, Bali 80361","Kuta, Kec. Kuta, Kabupaten Badung",BALI,80361.0,Indonesia,,,,-8.7192014,115.1803392,https://maps.google.com/?cid=0x0:0xa1e8f694267ee3c2,
perumahan,Komplek perumahan,Gang Durian Kuta,"75PF+5Q6, Jl. Raya Legian, Kuta, Kec. Kuta, Kabupaten Badung, Bali 80361","Jl. Raya Legian, Kuta, Kec. Kuta, Kabupaten Badung",BALI,80361.0,Indonesia,,,,-8.7145866,115.1743812,https://maps.google.com/?cid=0x0:0xb5d28d056e33d4d6,
perumahan,Perhimpunan Pengembang Perumahan,Harvestland Residence Kuta Blok E,"Jl. Kuta Permai III No.9, Kuta, Kec. Kuta, Kabupaten Badung, Bali 80361","Kuta, Kec. Kuta, Kabupaten Badung",BALI,80361.0,Indonesia,,,,-8.7271649,115.1820551,https://maps.google.com/?cid=0x0:0x7d92ca69e3426aaf,
perumahan,Komplek perumahan,Matara Kuta Residence,"Gg. Mawar No.9, Kuta, Kec. Kuta, Kabupaten Badung, Bali 80361","Kuta, Kec. Kuta, Kabupaten Badung",BALI,80361.0,Indonesia,,,,-8.731824,115.1756915,https://maps.google.com/?cid=0x0:0x485fb9fd4fc1c47d,
perumahan,Komplek perumahan,Perumahan,"Perumahan Kampial Indah, Benoa, Kec. Kuta Sel., Kabupaten Badung, Bali 80361","Benoa, Kec. Kuta Sel., Kabupaten Badung",BALI,80361.0,Indonesia,81293005394.0,,,-8.8051801,115.202137,https://maps.google.com/?cid=0x0:0x79fbba0e1f3c9055,
perumahan,Komplek perumahan,Perumahan Kori Jimbaran,"65FQ+J88, Jl, Kor, Jimbaran, Kec. Kuta Sel., Kabupaten Badung, Bali 80361","Jl, Kor, Jimbaran, Kec. Kuta Sel., Kabupaten Badung",BALI,80361.0,Indonesia,,,,-8.7759696,115.1883181,https://maps.google.com/?cid=0x0:0x53612c2aada7268f,
perumahan,Kompleks Apartemen,Puri Gading,"Jl. Jalak, Jimbaran, Kec. Kuta Sel., Kabupaten Badung, Bali 80361","Jimbaran, Kec. Kuta Sel., Kabupaten Badung",BALI,80361.0,Indonesia,8159241828.0,,,-8.8048669,115.1523726,https://maps.google.com/?cid=0x0:0x80ee8064276a2c97,
perumahan,Komplek perumahan,Griya Brahmana,"56W2+F96, Perumahan Kampial Indah, Benoa, Kec. Kuta Sel., Kabupaten Badung, Bali 80361","Perumahan Kampial Indah, Benoa, Kec. Kuta Sel., Kabupaten Badung",BALI,80361.0,Indonesia,,,,-8.8038303,115.2008876,https://maps.google.com/?cid=0x0:0xe65af7af0badadda,
perumahan,Komplek perumahan,Rumah Arsyla,"Perumahan Kampial Indah No.58 blok A, Benoa, Kec. Kuta Sel., Kabupaten Badung, Bali 80361","Benoa, Kec. Kuta Sel., Kabupaten Badung",BALI,80361.0,Indonesia,,,,-8.8040903,115.2013828,https://maps.google.com/?cid=0x0:0xb68b8c306c63d507,
perumahan,Komplek perumahan,Home,"56W3+668, Jl. Soka V, Benoa, Kec. Kuta Sel., Kabupaten Badung, Bali 80361","Jl. Soka V, Benoa, Kec. Kuta Sel., Kabupaten Badung",BALI,80361.0,Indonesia,,,,-8.8044511,115.2030729,https://maps.google.com/?cid=0x0:0xd51fc587f9dd99d,
perumahan,Komplek perumahan,NUR.C.47,"56W3+CFC, Jl. Soka VI, Benoa, Kec. Kuta Sel., Kabupaten Badung, Bali 80361","Jl. Soka VI, Benoa, Kec. Kuta Sel., Kabupaten Badung",BALI,80361.0,Indonesia,81246532618.0,,,-8.8039471,115.2036347,https://maps.google.com/?cid=0x0:0xb9fcbac0ad8cdded,
perumahan,Komplek perumahan,A.28,"56W2+3FJ, Benoa, Kec. Kuta Sel., Kabupaten Badung, Bali 80361","Benoa, Kec. Kuta Sel., Kabupaten Badung",BALI,80361.0,Indonesia,,,,-8.8047394,115.2011297,https://maps.google.com/?cid=0x0:0x672dba2d76b0123e,
perumahan,Komplek perumahan,TJ,"Jl. Soka V No.C12, Benoa, Kec. Kuta Sel., Kabupaten Badung, Bali 80361","Benoa, Kec. Kuta Sel., Kabupaten Badung",BALI,80361.0,Indonesia,,,,-8.8043918,115.2035665,https://maps.google.com/?cid=0x0:0xb6d4a5e6099df112,
perumahan,Pembangunan Perumahan,The Satria's,"56W2+5HG, Benoa, Kec. Kuta Sel., Kabupaten Badung, Bali 80361","Benoa, Kec. Kuta Sel., Kabupaten Badung",BALI,80361.0,Indonesia,,,,-8.8045297,115.2014563,https://maps.google.com/?cid=0x0:0x7cdbed00401c65ea,
perumahan,Otoritas Perumahan,"RUMAH SECOND BAGUS MEWAH MURAH, KAMPIAL RESIDENCE","56W3+729, Benoa, Kec. Kuta Sel., Kabupaten Badung, Bali 80361","Benoa, Kec. Kuta Sel., Kabupaten Badung",BALI,80361.0,Indonesia,,,,-8.8043305,115.2026059,https://maps.google.com/?cid=0x0:0xb5cfad8cd36633ba,
perumahan,Apartemen sewa liburan,RUMAH TANIO,"Perumahan Kampial Indah No.37a, Benoa, Kec. Kuta Sel., Kabupaten Badung, Bali 80361","Benoa, Kec. Kuta Sel., Kabupaten Badung",BALI,80361.0,Indonesia,,,,-8.804404,115.201857,https://maps.google.com/?cid=0x0:0x4d506c2557335f46,
perumahan,Hotel,House Sturzis Bali Nusa Dua,"Perumahan Kampial Indah Jl. Kedaung No.19, Benoa, Kec. Kuta Sel., Kabupaten Badung, Bali 80361","Benoa, Kec. Kuta Sel., Kabupaten Badung",BALI,80361.0,Indonesia,,,,-8.8037209,115.202637,https://maps.google.com/?cid=0x0:0xd7e5d5e31ef7d488,
perumahan,perumahan,PremaNusadua,"56W3+CFM, Jl. Soka VI, NoC46, Benoa, Kec. Kuta Sel., Kabupaten Badung, Bali 80361","Jl. Soka VI, NoC46, Benoa, Kec. Kuta Sel., Kabupaten Badung",BALI,80361.0,Indonesia,,,,-8.8039101,115.2036865,https://maps.google.com/?cid=0x0:0x78fc61d362c336d7,
perumahan,Guest house,Jln kuta permai 1 blok c no 08 kuta bali,"75CJ+W3J, Kuta, Kec. Kuta, Kabupaten Badung, Bali 80361","Kuta, Kec. Kuta, Kabupaten Badung",BALI,80361.0,Indonesia,81262352665.0,,,-8.7276586,115.1801445,https://maps.google.com/?cid=0x0:0x88733a75562d164f,
perumahan,Komplek perumahan,Royal Cempaka,"56W2+PG5, Gg. Cemp., Benoa, Kec. Kuta Sel., Kabupaten Badung, Bali 80361","Gg. Cemp., Benoa, Kec. Kuta Sel., Kabupaten Badung",BALI,80361.0,Indonesia,,,,-8.8032441,115.2013469,https://maps.google.com/?cid=0x0:0xaf13cf47fec61961,
perumahan,Komplek perumahan,Rumah pak kaba,"56W2+6F7, Perumahan Kampial Indah Jl. Kedaung, Benoa, Kec. Kuta Sel., Kabupaten Badung, Bali 80361","Perumahan Kampial Indah Jl. Kedaung, Benoa, Kec. Kuta Sel., Kabupaten Badung",BALI,80361.0,Indonesia,,,,-8.8044702,115.2011707,https://maps.google.com/?cid=0x0:0x85c8fdeded86e8fc,
perumahan,Komplek perumahan,Royal Garden village,"Gg. Cemp. No.17, Benoa, Kec. Kuta Sel., Kabupaten Badung, Bali 80361","Benoa, Kec. Kuta Sel., Kabupaten Badung",BALI,80361.0,Indonesia,,,,-8.8032852,115.2014894,https://maps.google.com/?cid=0x0:0x788c101f7eabc417,
perumahan,Komplek perumahan,Rumah BabyZee,"pagar warna pink, Perumahan Kampial Indah No.A/2, Benoa, Kec. Kuta Sel., Kabupaten Badung, Bali 80361","Perumahan Kampial Indah No.A/2, Benoa, Kec. Kuta Sel., Kabupaten Badung",BALI,80361.0,Indonesia,,,,-8.8040526,115.2014246,https://maps.google.com/?cid=0x0:0x8943bf0589322757,
perumahan,Komplek perumahan,Pondok Meranggi,"56V2+WGG, Benoa, Kec. Kuta Sel., Kabupaten Badung, Bali 80361","Benoa, Kec. Kuta Sel., Kabupaten Badung",BALI,80361.0,Indonesia,,,,-8.8051996,115.2013201,https://maps.google.com/?cid=0x0:0x4c062ed46b5bd7a3,
perumahan,Komplek perumahan,Kori Nuansa Jimbaran,"Jl. Nuansa Utama XXVII No.28, Jimbaran, Kec. Kuta Sel., Kabupaten Badung, Bali 80361","Jimbaran, Kec. Kuta Sel., Kabupaten Badung",BALI,80361.0,Indonesia,3618479976.0,,,-8.8013065,115.1862265,https://maps.google.com/?cid=0x0:0x5500f45437ae1983,
perumahan,perumahan,Bali 80361,"Kec. Kuta Sel., Kabupaten Badung, Bali","Kabupaten Badung, Bali",BALI,,Indonesia,,,,-8.7953431,115.1652008,https://maps.google.com/?cid=0x0:0x1c00c5eb6016be60,
perumahan,Rumah wisata,PERUMAHAN BUKIT HIJAU,"6534+8M5, Jimbaran, Kec. Kuta Sel., Kabupaten Badung, Bali 80361","Jimbaran, Kec. Kuta Sel., Kabupaten Badung",BALI,80361.0,Indonesia,,,,-8.7967392,115.15673,https://maps.google.com/?cid=0x0:0xc234e1a858d59636,
perumahan,Komplek perumahan,Perumahan Panorama Jimbaran,"656H+3M4, Jl. Panorama Jimbaran, Jimbaran, Kec. Kuta Sel., Kabupaten Badung, Bali 80361","Jl. Panorama Jimbaran, Jimbaran, Kec. Kuta Sel., Kabupaten Badung",BALI,80361.0,Indonesia,,,,-8.7898615,115.179209,https://maps.google.com/?cid=0x0:0x6a1b4972ae44a2cf,
perumahan,Perumahan,PERUMAHAN TAMAN JIMBARAN,"Perumahan taman Jimbaran.XII No.2, Jimbaran, Kec. Kuta Sel., Kabupaten Badung, Bali 80361","Jimbaran, Kec. Kuta Sel., Kabupaten Badung",BALI,80361.0,Indonesia,87761143260.0,,,-8.7791847,115.1921045,https://maps.google.com/?cid=0x0:0xa105e2c75417065c,
perumahan,Komplek perumahan,Bali Arum Jimbaran,"Jl. Raya Kampus Unud No.10 no E, Jimbaran, Kec. Kuta Sel., Kabupaten Badung, Bali 80361","Jimbaran, Kec. Kuta Sel., Kabupaten Badung",BALI,80361.0,Indonesia,,,,-8.7914799,115.1800962,https://maps.google.com/?cid=0x0:0x36dfb4bc5006b930,
perumahan,Pembangunan Perumahan,Perumahan Puri Jimbaran,"Jl. Celagi Basur, Jimbaran, Kec. Kuta Sel., Kabupaten Badung, Bali 80361","Jimbaran, Kec. Kuta Sel., Kabupaten Badung",BALI,80361.0,Indonesia,81339746955.0,,,-8.7883391,115.1736752,https://maps.google.com/?cid=0x0:0x9eef3c60fb2f8e4c,
perumahan,Komplek perumahan,Perumahan Permata Ariza,"perumahan permata ariza, Jl. Perum Permata Ariza No.12A Blok Q, Jimbaran, South Kuta, Badung Regency, Bali 80361","Jl. Perum Permata Ariza No.12A Blok Q, Jimbaran, South Kuta, Badung Regency",BALI,80361.0,Indonesia,,,,-8.7933252,115.1550713,https://maps.google.com/?cid=0x0:0x18f54d9e73897c76,
perumahan,Pengembang Realestat,Harvestland Jimbaran,"65CJ+HJ7, Jimbaran, Kec. Kuta Sel., Kabupaten Badung, Bali 80361","Jimbaran, Kec. Kuta Sel., Kabupaten Badung",BALI,80361.0,Indonesia,,,,-8.7785992,115.1815424,https://maps.google.com/?cid=0x0:0xa18d9e5a373b510e,
perumahan,perumahan,Bali 80361,"Kec. Kuta Sel., Kabupaten Badung, Bali","Kabupaten Badung, Bali",BALI,,Indonesia,,,,-8.7953431,115.1652008,https://maps.google.com/?cid=0x0:0x1c00c5eb6016be60,
perumahan,Perumahan,Kuta Family Residence,"Jl. Mertanadi Blk. A No.9A, Kerobokan Kelod, Kec. Kuta Utara, Kabupaten Badung, Bali 80361","Kerobokan Kelod, Kec. Kuta Utara, Kabupaten Badung",BALI,80361.0,Indonesia,,,,-8.6775197,115.1700228,https://maps.google.com/?cid=0x0:0x46244bc35d4d8768,
perumahan,Perumahan,Perumahan Dalung Permai kuta utara,"Berawa, Jl. Pantai Berawa, Kec. Kuta Utara, Kabupaten Badung, Bali 80361","Jl. Pantai Berawa, Kec. Kuta Utara, Kabupaten Badung",BALI,80361.0,Indonesia,85822022062.0,,,-8.6473926,115.1503992,https://maps.google.com/?cid=0x0:0xc28361237c4f77d9,
perumahan,Pembangunan Perumahan,VILLA KENIA,"Gg. P.Bali No.41, Kerobokan, Kec. Kuta Utara, Kabupaten Badung, Bali 80361","Kerobokan, Kec. Kuta Utara, Kabupaten Badung",BALI,80361.0,Indonesia,,,,-8.6557347,115.1549407,https://maps.google.com/?cid=0x0:0xc814369823e59b1d,
perumahan,Komplek perumahan,Baliarum Residence Gunung Salak,"Jl. Gunung Salak No.2, Kerobokan, Kec. Kuta Utara, Kabupaten Badung, Bali 80117","Kerobokan, Kec. Kuta Utara, Kabupaten Badung",BALI,80117.0,Indonesia,,,,-8.6579292,115.1751754,https://maps.google.com/?cid=0x0:0x6edaf13eb180777b,
perumahan,Komplek perumahan,Perum Prima Graha Muding Kaja,"PERUM PRIMAGRAHA D14, Kerobokan Kaja, Kec. Kuta Utara, Kabupaten Badung, Bali 80117","Kerobokan Kaja, Kec. Kuta Utara, Kabupaten Badung",BALI,80117.0,Indonesia,,,,-8.6476409,115.1799279,https://maps.google.com/?cid=0x0:0xbc4f15b6f28df248,
perumahan,Komplek perumahan,Bali Arum Green Village Kerobokan,"Jl. Raya Kerobokan No.777, Kerobokan, Kec. Kuta Utara, Kabupaten Badung, Bali 80361","Kerobokan, Kec. Kuta Utara, Kabupaten Badung",BALI,80361.0,Indonesia,,,,-8.6491989,115.169793,https://maps.google.com/?cid=0x0:0x9af69ae190ba6707,
perumahan,Komplek perumahan,Bale Park,"85VF+FP3, Jl. Raya Kesambi, Kerobokan, Kec. Kuta Utara, Kabupaten Badung, Bali 80361","Jl. Raya Kesambi, Kerobokan, Kec. Kuta Utara, Kabupaten Badung",BALI,80361.0,Indonesia,,,,-8.6563625,115.1743124,https://maps.google.com/?cid=0x0:0xd55b5e370a14629d,
perumahan,Perhimpunan Pengembang Perumahan,Perumahan Pesona Taman Kwanji,"Jl. Panji No.47, Dalung, Kec. Kuta Utara, Kabupaten Badung, Bali 80117","Dalung, Kec. Kuta Utara, Kabupaten Badung",BALI,80117.0,Indonesia,,,,-8.613935,115.180797,https://maps.google.com/?cid=0x0:0xb377bffb5171d985,
perumahan,Komplek perumahan,Perum Pegending Permai,"Jl. Pegending VIII No.7, Dalung, Kec. Kuta Utara, Kabupaten Badung, Bali 80361","Dalung, Kec. Kuta Utara, Kabupaten Badung",BALI,80361.0,Indonesia,81351449990.0,,,-8.6250973,115.155896,https://maps.google.com/?cid=0x0:0x57d55ca3f1c256c9,
perumahan,Komplek perumahan,"Perumahan Graha Permai Indah, Kwanji-Dalung","95QH+348, Unnamed Road, Dalung, Kuta Utara, Badung Regency, Bali 80361","Unnamed Road, Dalung, Kuta Utara, Badung Regency",BALI,80361.0,Indonesia,,,,-8.612335,115.177828,https://maps.google.com/?cid=0x0:0x67e5470c49fe9d77,
perumahan,Guest house,Jln kuta permai 1 blok c no 08 kuta bali,"75CJ+W3J, Kuta, Kec. Kuta, Kabupaten Badung, Bali 80361","Kuta, Kec. Kuta, Kabupaten Badung",BALI,80361.0,Indonesia,81262352665.0,,,-8.7276586,115.1801445,https://maps.google.com/?cid=0x0:0x88733a75562d164f,
perumahan,Komplek perumahan,The Kubu Bali Residence,"Kubu Bali Residence nomer, Jl. LC pertiwi Jl. Gatot Subroto Barat Blok E, Kerobokan Kaja, Kuta Utara, Badung Regency, Bali 80361","Jl. LC pertiwi Jl. Gatot Subroto Barat Blok E, Kerobokan Kaja, Kuta Utara, Badung Regency",BALI,80361.0,Indonesia,,,,-8.6387888,115.1756359,https://maps.google.com/?cid=0x0:0x64e1a8e142115b2a,
perumahan,Komplek perumahan,Sunshine Village,"Gg. Mangga, Tibubeneng, Kec. Kuta Utara, Kabupaten Badung, Bali 80361","Tibubeneng, Kec. Kuta Utara, Kabupaten Badung",BALI,80361.0,Indonesia,82121165431.0,,,-8.6317562,115.1581397,https://maps.google.com/?cid=0x0:0xffc0c35535ebe95b,
perumahan,Komplek perumahan,Teratai Grand Village,"Jl. Kayu Tulang No.99x, Canggu, Kec. Kuta Utara, Kabupaten Badung, Bali 80361","Canggu, Kec. Kuta Utara, Kabupaten Badung",BALI,80361.0,Indonesia,,,,-8.6465208,115.1417234,https://maps.google.com/?cid=0x0:0xd3c3ce0fcd7de6a5,
perumahan,Komplek perumahan,PERUMAHAN UMA SARI PENGILIAN DALUNG NO. II,"95G7+XVH, Dalung, Kec. Kuta Utara, Kabupaten Badung, Bali 80361","Dalung, Kec. Kuta Utara, Kabupaten Badung",BALI,80361.0,Indonesia,83115330686.0,,,-8.6225587,115.1647441,https://maps.google.com/?cid=0x0:0x653e3ab8307a6b78,
perumahan,Komplek perumahan,Uma Sari Residence,"Jl. Petitenget No.11, Kerobokan Kelod, Kec. Kuta Utara, Kabupaten Badung, Bali 80361","Kerobokan Kelod, Kec. Kuta Utara, Kabupaten Badung",BALI,80361.0,Indonesia,,,,-8.6728826,115.1600917,https://maps.google.com/?cid=0x0:0xa3b7edf13fa714a8,
perumahan,Vila,River House Bali,"Jl. Taman Sari No.5, Kerobokan Kelod, Kec. Kuta Utara, Kabupaten Badung, Bali 80117","Kerobokan Kelod, Kec. Kuta Utara, Kabupaten Badung",BALI,80117.0,Indonesia,,,,-8.6692226,115.1768391,https://maps.google.com/?cid=0x0:0xd2c9c01ca82b7b62,
perumahan,Komplek perumahan,Perumahan,"Perum Puri Dawas Asri II Jl. Bolong Catu No.6, Tibubeneng, Kuta Utara, Badung Regency, Bali 80361","Tibubeneng, Kuta Utara, Badung Regency",BALI,80361.0,Indonesia,,,,-8.6288182,115.1647351,https://maps.google.com/?cid=0x0:0xe33b8a630cd6f4f5,
perumahan,Komplek perumahan,Perumahan dalung permai,"95MF+3QX, Dalung, Kec. Kuta Utara, Kabupaten Badung, Bali 80361","Dalung, Kec. Kuta Utara, Kabupaten Badung",BALI,80361.0,Indonesia,,,,-8.6172625,115.1744844,https://maps.google.com/?cid=0x0:0x32466c39e4e7d969,
perumahan,Komplek perumahan,"Surya Bhuana IX Dalung Permai, Kuta Utara, Kabupaten Badung, Bali","Jl. Surya Bhuana VII No.7, Kerobokan Kaja, Kec. Kuta Utara, Kabupaten Badung, Bali 80361","Kerobokan Kaja, Kec. Kuta Utara, Kabupaten Badung",BALI,80361.0,Indonesia,,,,-8.6343497,115.1707443,https://maps.google.com/?cid=0x0:0x854c33c5ba256030,
perumahan,Komplek perumahan,"Perumahan Boundary Garden Blok Tulip Br.Dama,Tibubeneng, Kuta Utara, Badung ,Bali 80361","Jl. Campuan Asri IV I No.20, Dalung, Kec. Kuta Utara, Kabupaten Badung, Bali 80361","Dalung, Kec. Kuta Utara, Kabupaten Badung",BALI,80361.0,Indonesia,,,,-8.6266201,115.1669033,https://maps.google.com/?cid=0x0:0xf0492f81cf0daf61,
perumahan,Rumah Kayu,Perum Griya Nuansa Raya br Tibubeneng Badung Kuta Utara Bali,"Perumahan Griya Nuansa Raya No.br blok D4, Tibubeneng, Kec. Kuta Utara, Kabupaten Badung, Bali 80351","Tibubeneng, Kec. Kuta Utara, Kabupaten Badung",BALI,80351.0,Indonesia,,,,-8.6313742,115.1611536,https://maps.google.com/?cid=0x0:0x4b8466fe1f21dd27,
perumahan,Perumahan,"Jl.Rahayu, Banjar Dawas, Desa Tibubeneng, kecamatan Kuta Utara, Kabupaten Badung, Propinsi Bali","Jl. Rahayu No.14, Tibubeneng, Kec. Kuta Utara, Kabupaten Badung, Bali 80361","Tibubeneng, Kec. Kuta Utara, Kabupaten Badung",BALI,80361.0,Indonesia,,,,-8.6292729,115.1651497,https://maps.google.com/?cid=0x0:0x3b3f644419ca19cd,
perumahan,Komplek perumahan,Perumahan Kesambi Raya,"85WF+PHH, Kerobokan, Kec. Kuta Utara, Kabupaten Badung, Bali 80361","Kerobokan, Kec. Kuta Utara, Kabupaten Badung",BALI,80361.0,Indonesia,3619063591.0,,,-8.6531904,115.1739762,https://maps.google.com/?cid=0x0:0x81650d29a1f978e0,
perumahan,Komplek perumahan,Perumahan Priskila Taman Mulia,"Perumahan Priskila Taman Mulia Blok A/11, Buduk, Kec. Kuta Utara, Kabupaten Badung, Bali 80351","Buduk, Kec. Kuta Utara, Kabupaten Badung",BALI,80351.0,Indonesia,,,,-8.6063988,115.1695383,https://maps.google.com/?cid=0x0:0x3b6d80ad0534afe3,
perumahan,Komplek perumahan,"Grand Srikandi Mansion, Jalan Cepaka VI G No 3, Dalung, Kuta Utara Bali","Grand Srikandi Mansion, Jl. Cepaka VI G No.3, Dalung, Kuta Utara, Badung Regency, Bali 80351","Jl. Cepaka VI G No.3, Dalung, Kuta Utara, Badung Regency",BALI,80351.0,Indonesia,881037636912.0,,,-8.6105351,115.166034,https://maps.google.com/?cid=0x0:0xf466bf051fc29805,
perumahan,Komplek perumahan,Perumahan Priskila,"959H+W7F Perum Priskila, Jl. Mudu Taki, Tegal Jaya, Kuta Utara, Badung Regency, Bali 80117","Jl. Mudu Taki, Tegal Jaya, Kuta Utara, Badung Regency",BALI,80117.0,Indonesia,,,,-8.6301952,115.1781631,https://maps.google.com/?cid=0x0:0x4d36855f5a35405c,
perumahan,Perumahan,Perumahan Dawas Lumbung Lestari,"95C7+FQQ, Jl. Raya Dawas, Tibubeneng, Kec. Kuta Utara, Kabupaten Badung, Bali 80361","Jl. Raya Dawas, Tibubeneng, Kec. Kuta Utara, Kabupaten Badung",BALI,80361.0,Indonesia,,,,-8.6287976,115.1644879,https://maps.google.com/?cid=0x0:0xd997f1fb5e692897,
perumahan,Komplek perumahan,Perumahan Wana Asri,"95XF+X66, Abianbase, Kec. Mengwi, Kabupaten Badung, Bali 80351","Abianbase, Kec. Mengwi, Kabupaten Badung",BALI,80351.0,Indonesia,,,,-8.6000899,115.1730047,https://maps.google.com/?cid=0x0:0x774a3c4dea4ff43f,
perumahan,perumahan,Bali 80351,"Kec. Mengwi, Kabupaten Badung, Bali","Kabupaten Badung, Bali",BALI,,Indonesia,,,,-8.5617185,115.1770586,https://maps.google.com/?cid=0x0:0x1c00c5eb6016be30,
perumahan,Perumahan,Perumahan Lumbung Lestari,"Perumahan Lumbung Lestari, Jl. Raya Tangeb, Abianbase, Mengwi, Badung Regency, Bali 80351","Jl. Raya Tangeb, Abianbase, Mengwi, Badung Regency",BALI,80351.0,Indonesia,,,,-8.5996551,115.1646959,https://maps.google.com/?cid=0x0:0xf2b12f678ee42c5,
perumahan,Kompleks Kondominium,Perumahan Multi Permai I,"Jl. Multi Permai No.7, Sading, Kec. Mengwi, Kabupaten Badung, Bali 80116","Sading, Kec. Mengwi, Kabupaten Badung",BALI,80116.0,Indonesia,,,,-8.6070969,115.1925027,https://maps.google.com/?cid=0x0:0xaa09fbc2e0c625a,
perumahan,Komplek perumahan,Perumahan Lukluk Indah,"Jl. Raya Anggungan No.18, Lukluk, Kec. Mengwi, Kabupaten Badung, Bali 80351","Lukluk, Kec. Mengwi, Kabupaten Badung",BALI,80351.0,Indonesia,,,,-8.5784718,115.1907602,https://maps.google.com/?cid=0x0:0x2edccf5db5c85544,
perumahan,Komplek perumahan,Rumah,"Jl. Bukit Tinggi No.20, Kapal, Kec. Mengwi, Kabupaten Badung, Bali 80351","Kapal, Kec. Mengwi, Kabupaten Badung",BALI,80351.0,Indonesia,,,,-8.5730424,115.174268,https://maps.google.com/?cid=0x0:0x814cb3054153839e,
perumahan,Komplek perumahan,Rumah cemara,"Jl. Menuh III Gg. I No.6, Kapal, Kec. Mengwi, Kabupaten Badung, Bali 80351","Kapal, Kec. Mengwi, Kabupaten Badung",BALI,80351.0,Indonesia,,,,-8.5794279,115.1746234,https://maps.google.com/?cid=0x0:0xa2182009594da917,
perumahan,Komplek perumahan,rumah strong,"C5CQ+7RR, Lukluk, Kec. Mengwi, Kabupaten Badung, Bali 80351","Lukluk, Kec. Mengwi, Kabupaten Badung",BALI,80351.0,Indonesia,,,,-8.5795257,115.1894999,https://maps.google.com/?cid=0x0:0xe791e8a31def30b1,
perumahan,Komplek perumahan,Rumah berkah,"C5JF+7MH, Jl. Bukit Tinggi, Mengwitani, Kec. Mengwi, Kabupaten Badung, Bali 80351","Jl. Bukit Tinggi, Mengwitani, Kec. Mengwi, Kabupaten Badung",BALI,80351.0,Indonesia,,,,-8.5693232,115.1742198,https://maps.google.com/?cid=0x0:0xfe25d90cebeb2b7a,
perumahan,Gedung Apartemen,Greenlot Residence,"Jl raya munggu tanah lot, Greenlot Sambandha, Munggu, Kec. Mengwi, Kabupaten Badung, Bali 80351","Greenlot Sambandha, Munggu, Kec. Mengwi, Kabupaten Badung",BALI,80351.0,Indonesia,81805576809.0,,,-8.6172527,115.1164259,https://maps.google.com/?cid=0x0:0x5c768268b895d88e,
perumahan,Komplek perumahan,Rumah ila heri,"perumahan lukluk indahBlok No.d 38, Lukluk, Kec. Mengwi, Kabupaten Badung, Bali 80351","Lukluk, Kec. Mengwi, Kabupaten Badung",BALI,80351.0,Indonesia,,,,-8.5781393,115.1907207,https://maps.google.com/?cid=0x0:0xe60b4f7f8969f1a6,
perumahan,Komplek perumahan,Perumahan loka indah,"F5FH+Q83, Unnamed Road, Baha, Kec. Mengwi, Kabupaten Badung, Bali 80351","Unnamed Road, Baha, Kec. Mengwi, Kabupaten Badung",BALI,80351.0,Indonesia,,,,-8.5256197,115.1782885,https://maps.google.com/?cid=0x0:0xdff8a415d56f25be,
perumahan,Komplek perumahan,Rumah kenzokevin,"C56J+934, Jl. Dukuh Sari II, Abianbase, Kec. Mengwi, Kabupaten Badung, Bali 80351","Jl. Dukuh Sari II, Abianbase, Kec. Mengwi, Kabupaten Badung",BALI,80351.0,Indonesia,,,,-8.589105,115.1801112,https://maps.google.com/?cid=0x0:0xd97868a27eef5531,
perumahan,Pembangunan Perumahan,EkaSaputra Mengwi,"F559+JQ3, Mengwi, Kec. Mengwi, Kabupaten Badung, Bali 80351","Mengwi, Kec. Mengwi, Kabupaten Badung",BALI,80351.0,Indonesia,881037599679.0,,,-8.5409825,115.1694206,https://maps.google.com/?cid=0x0:0xf266e4cb443e8e33,
perumahan,Pembangunan Perumahan,UD.Satyadewi,"Jl. Cemara, Kapal, Kec. Mengwi, Kabupaten Badung, Bali 80351","Kapal, Kec. Mengwi, Kabupaten Badung",BALI,80351.0,Indonesia,85792397143.0,,,-8.5694937,115.1802739,https://maps.google.com/?cid=0x0:0x2b544604f86bab4b,
perumahan,Komplek perumahan,Puri Mayun Wed Mengwi,"Jl. I Gusti Ngurah Rai No.66, Mengwi, Kec. Mengwi, Kabupaten Badung, Bali 80351","Mengwi, Kec. Mengwi, Kabupaten Badung",BALI,80351.0,Indonesia,81238238473.0,,,-8.5445549,115.1701652,https://maps.google.com/?cid=0x0:0xefba79615637658,
perumahan,Komplek perumahan,Garasi Klasik,"F53F+GPM, Gulingan, Kec. Mengwi, Kabupaten Badung, Bali 80351","Gulingan, Kec. Mengwi, Kabupaten Badung",BALI,80351.0,Indonesia,,,,-8.5464628,115.1740068,https://maps.google.com/?cid=0x0:0xa887dbcd6e6e21c9,
perumahan,perumahan,Taoshi Rumah,"C597+5P9, Jl. Sianggiang II, Kekeran, Kec. Mengwi, Kabupaten Badung, Bali 80351","Jl. Sianggiang II, Kekeran, Kec. Mengwi, Kabupaten Badung",BALI,80351.0,Indonesia,,,,-8.5820839,115.1643583,https://maps.google.com/?cid=0x0:0xf267cf3a3272717a,
perumahan,Komplek perumahan,RCK,"C5QQ+538, Jl. Raya Panglan, Kapal Mengwi, Badung Utara, Kapal, Mengwi, Badung Regency, Bali 80351","Jl. Raya Panglan, Kapal Mengwi, Badung Utara, Kapal, Mengwi, Badung Regency",BALI,80351.0,Indonesia,,,,-8.5620894,115.1877132,https://maps.google.com/?cid=0x0:0xaaf8406e862abf2b,
perumahan,Perumahan,garasi,"C5VC+WQP, Gg. Soka, Mengwitani, Kec. Mengwi, Kabupaten Badung, Bali 80351","Gg. Soka, Mengwitani, Kec. Mengwi, Kabupaten Badung",BALI,80351.0,Indonesia,,,,-8.5551735,115.1719637,https://maps.google.com/?cid=0x0:0x1cc0a2461339ac74,
perumahan,Otoritas Perumahan,"Perumahan Kodam XI Udayana. Br.Kaja, Buduk, Mengwi, Badung, Bali","Jl. Tunon No.37, Buduk, Kec. Mengwi, Kabupaten Badung, Bali 80351","Buduk, Kec. Mengwi, Kabupaten Badung",BALI,80351.0,Indonesia,,,,-8.6000512,115.1671125,https://maps.google.com/?cid=0x0:0x9d3672fcf5cb214d,
perumahan,Perumahan,Rumah darma asih,"Jl. Kecubung No.3, Kapal, Kec. Mengwi, Kabupaten Badung, Bali 80351","Kapal, Kec. Mengwi, Kabupaten Badung",BALI,80351.0,Indonesia,,,,-8.5723534,115.1787389,https://maps.google.com/?cid=0x0:0xfff9d3f55384997,
perumahan,Komplek perumahan,Rumah budi artawan,"Jl. Raya Panglan No.2, Kapal, Kec. Mengwi, Kabupaten Badung, Bali 80351","Kapal, Kec. Mengwi, Kabupaten Badung",BALI,80351.0,Indonesia,,,,-8.5559622,115.1906808,https://maps.google.com/?cid=0x0:0x4e9325dbdf40fdd8,
perumahan,Perumahan,Perumahan Permata Anyar Sempidi,"Perum Permata Anyar, Jl. Permata Biru No.11, Perum Permata Anyar, Lukluk, Mengwi, Badung Regency, Bali 80351","Jl. Permata Biru No.11, Perum Permata Anyar, Lukluk, Mengwi, Badung Regency",BALI,80351.0,Indonesia,,,,-8.5930794,115.1800008,https://maps.google.com/?cid=0x0:0x71dc1c17a205596a,
perumahan,Gedung Apartemen,Rumah abianbase,"C5CJ+74M, Kapal, Kec. Mengwi, Kabupaten Badung, Bali 80351","Kapal, Kec. Mengwi, Kabupaten Badung",BALI,80351.0,Indonesia,,,,-8.5792676,115.1801863,https://maps.google.com/?cid=0x0:0x482b1365adbe3020,
perumahan,Pembangunan Perumahan,Aa mas projectmanajement,"C5JG+5G6, Gg. I, Mengwitani, Kec. Mengwi, Kabupaten Badung, Bali 80351","Gg. I, Mengwitani, Kec. Mengwi, Kabupaten Badung",BALI,80351.0,Indonesia,81236166825.0,,,-8.5695819,115.1762559,https://maps.google.com/?cid=0x0:0x10e484d36cc871fa,
perumahan,Komplek perumahan,Perumahan gang sandat,"C5CV+M77, Jl. Raya Anggungan, Lukluk, Kec. Mengwi, Kabupaten Badung, Bali 80351","Jl. Raya Anggungan, Lukluk, Kec. Mengwi, Kabupaten Badung",BALI,80351.0,Indonesia,,,,-8.5783367,115.1931711,https://maps.google.com/?cid=0x0:0x56e1166d29c12e68,
perumahan,Komplek perumahan,Ita home,"C5MP+QJX, Kapal, Kec. Mengwi, Kabupaten Badung, Bali 80351","Kapal, Kec. Mengwi, Kabupaten Badung",BALI,80351.0,Indonesia,,,,-8.5655246,115.1866152,https://maps.google.com/?cid=0x0:0x68997398ee221d04,
perumahan,Perumahan,BUDUK RESIDENCE,"Jl. Tibuan No.16, Buduk, Kec. Mengwi, Kabupaten Badung, Bali 80351","Buduk, Kec. Mengwi, Kabupaten Badung",BALI,80351.0,Indonesia,81378888188.0,,,-8.6048883,115.1652165,https://maps.google.com/?cid=0x0:0x57f175c478be58e1,
perumahan,perumahan,Bali 80353,"Kec. Petang, Kabupaten Badung, Bali","Kabupaten Badung, Bali",BALI,,Indonesia,,,,-8.3365862,115.2244853,https://maps.google.com/?cid=0x0:0x1c00c5eb6016be50,
perumahan,Komplek perumahan,"Petang,kabupaten badung bali","J64C+6PG, Petang, Kec. Petang, Kabupaten Badung, Bali 80353","Petang, Kec. Petang, Kabupaten Badung",BALI,80353.0,Indonesia,,,,-8.394427,115.2218365,https://maps.google.com/?cid=0x0:0xa3cd0c6ece3d1041,
perumahan,Pembangunan Perumahan,Sintrue_Bali,"M6H7+M2, Pelaga, Kec. Petang, Kabupaten Badung, Bali","Kabupaten Badung, Bali",BALI,,Indonesia,,,,-8.3208602,115.2125906,https://maps.google.com/?cid=0x0:0x160636740c60d8fe,
perumahan,Komplek perumahan,Rumah grandong,"J6VH+8M3, Sulangai, Kec. Petang, Kabupaten Badung, Bali 80353","Sulangai, Kec. Petang, Kabupaten Badung",BALI,80353.0,Indonesia,,,,-8.3568779,115.2284448,https://maps.google.com/?cid=0x0:0x2a1dad336a6b4b61,
perumahan,Komplek perumahan,Puri Anyar Petang,"J639+CFX, Jl. I.GST. NGR Rai, Petang, Kec. Petang, Kabupaten Badung, Bali 80353","Jl. I.GST. NGR Rai, Petang, Kec. Petang, Kabupaten Badung",BALI,80353.0,Indonesia,,,,-8.3964493,115.2186036,https://maps.google.com/?cid=0x0:0x5a691393a35dd5f9,
perumahan,Komplek perumahan,Komang tuty,"M6JQ+2QH, Belok/Sidan, Kec. Petang, Kabupaten Badung, Bali 80353","Belok/Sidan, Kec. Petang, Kabupaten Badung",BALI,80353.0,Indonesia,,,,-8.3199465,115.2394692,https://maps.google.com/?cid=0x0:0xa9c93c7686e9f0b4,
perumahan,Komplek perumahan,Rumah dodik,"M6W9+5X5, Pelaga, Kec. Petang, Kabupaten Badung, Bali 80353","Pelaga, Kec. Petang, Kabupaten Badung",BALI,80353.0,Indonesia,,,,-8.304375,115.2196167,https://maps.google.com/?cid=0x0:0x88c5c52c9fd6d9d3,
perumahan,Komplek perumahan,Rumah Turah,"M6HC+FG5, Jl. Raya Pura Pucak Mangu, Pelaga, Kec. Petang, Kabupaten Badung, Bali 80353","Jl. Raya Pura Pucak Mangu, Pelaga, Kec. Petang, Kabupaten Badung",BALI,80353.0,Indonesia,,,,-8.321374,115.221366,https://maps.google.com/?cid=0x0:0x91185f76e03c583b,
perumahan,Pembangunan Perumahan,Pondok suputra,"M6HG+XH7, Pelaga, Kec. Petang, Kabupaten Badung, Bali 80353","Pelaga, Kec. Petang, Kabupaten Badung",BALI,80353.0,Indonesia,,,,-8.3200875,115.2264111,https://maps.google.com/?cid=0x0:0x736c446a82365826,
perumahan,Perumahan,Egy home,"M6VJ+G5G, Pelaga, Kec. Petang, Kabupaten Badung, Bali 80353","Pelaga, Kec. Petang, Kabupaten Badung",BALI,80353.0,Indonesia,,,,-8.3061928,115.2304392,https://maps.google.com/?cid=0x0:0x2c2b634383c46320,
perumahan,Komplek perumahan,Rumah Pekak Wis,"J689+78R, Petang, Kec. Petang, Kabupaten Badung, Bali 80353","Petang, Kec. Petang, Kabupaten Badung",BALI,80353.0,Indonesia,,,,-8.3842555,115.2182753,https://maps.google.com/?cid=0x0:0x250558faf55a2dbd,
perumahan,Komplek perumahan,Gana Home Stay,"M63M+PR9, Br,Penikit, Belok/Sidan, Kec. Petang, Kabupaten Badung, Bali 80353","Br,Penikit, Belok/Sidan, Kec. Petang, Kabupaten Badung",BALI,80353.0,Indonesia,,,,-8.3457133,115.2345951,https://maps.google.com/?cid=0x0:0xd9624c8486839c5b,
perumahan,Komplek perumahan,Rumah Siswanata,"P63C+8P4 Br. Kiadan, Pelaga, Kec. Petang, Kabupaten Badung, Bali 80353","Pelaga, Kec. Petang, Kabupaten Badung",BALI,80353.0,Indonesia,81805513972.0,,,-8.296742,115.2218253,https://maps.google.com/?cid=0x0:0xf04e3443c6c8e012,
perumahan,Perumahan rakyat,Pondok kak galung,"M6QV+H3, Belok/Sidan, Kec. Petang, Kabupaten Badung, Bali 80353","Belok/Sidan, Kec. Petang, Kabupaten Badung",BALI,80353.0,Indonesia,,,,-8.3093737,115.2420539,https://maps.google.com/?cid=0x0:0x4e8eb2e21419dc25,
perumahan,Pembangunan Perumahan,PONDOK YANA GUNA,"M675+887, Jl.Puitan, Sulangai, Kec. Petang, Kabupaten Badung, Bali 80353","Jl.Puitan, Sulangai, Kec. Petang, Kabupaten Badung",BALI,80353.0,Indonesia,,,,-8.3363141,115.2078806,https://maps.google.com/?cid=0x0:0xcef5dfef6de5d52f,
perumahan,Pembangunan Perumahan,KOMANG BOTAK HOME,"J6W8+36Q, Sulangai, Kec. Petang, Kabupaten Badung, Bali 80353","Sulangai, Kec. Petang, Kabupaten Badung",BALI,80353.0,Indonesia,,,,-8.3547102,115.2158064,https://maps.google.com/?cid=0x0:0xd86882f4ec193f92,
perumahan,Komplek perumahan,Puri Kantor Petang Badung,"J639+WCP, Jl. I.GST. NGR Rai, Petang, Kec. Petang, Kabupaten Badung, Bali 80353","Jl. I.GST. NGR Rai, Petang, Kec. Petang, Kabupaten Badung",BALI,80353.0,Indonesia,,,,-8.3951692,115.2185458,https://maps.google.com/?cid=0x0:0x5802b2c3ea9bbd7d,
perumahan,Komplek perumahan,Rumah Dina,"P626+FQJ, Jl. Auman, Pelaga, Kec. Petang, Kabupaten Badung, Bali 80353","Jl. Auman, Pelaga, Kec. Petang, Kabupaten Badung",BALI,80353.0,Indonesia,,,,-8.2987229,115.2118693,https://maps.google.com/?cid=0x0:0x71c7cc36324811e9,
perumahan,Komplek perumahan,Melissa home,"J6X4+HJJ, Sulangai, Kec. Petang, Kabupaten Badung, Bali","Kabupaten Badung, Bali",BALI,,Indonesia,,,,-8.351037,115.2065112,https://maps.google.com/?cid=0x0:0xda2851ca7502577,
perumahan,Komplek perumahan,rumah,"J63C+XHQ, Petang, Kec. Petang, Kabupaten Badung, Bali 80353","Petang, Kec. Petang, Kabupaten Badung",BALI,80353.0,Indonesia,,,,-8.3950301,115.2214873,https://maps.google.com/?cid=0x0:0x18116e54a5366eea,
perumahan,Komplek perumahan,HOMESTAY ITA,"M6JG+VJM, Jalan Bukian, Pelaga, Kec. Petang, Kabupaten Badung, Bali 80353","Jalan Bukian, Pelaga, Kec. Petang, Kabupaten Badung",BALI,80353.0,Indonesia,,,,-8.3168547,115.227081,https://maps.google.com/?cid=0x0:0xc7ea7413fe9130f5,
perumahan,Perumahan,Pondok Ten pole,"M665+425, Sulangai, Kec. Petang, Kabupaten Badung, Bali 80353","Sulangai, Kec. Petang, Kabupaten Badung",BALI,80353.0,Indonesia,,,,-8.3397434,115.2076192,https://maps.google.com/?cid=0x0:0x1b95c435366989cf,
perumahan,Komplek perumahan,Rumah,"J629+F9H, Petang, Kec. Petang, Kabupaten Badung, Bali 80353","Petang, Kec. Petang, Kabupaten Badung",BALI,80353.0,Indonesia,,,,-8.3988845,115.218505,https://maps.google.com/?cid=0x0:0x48c3f427887b7306,
perumahan,Kompleks Kondominium,Griya Tegeh Keniten Semanik,"P688+R4, Pelaga, Kec. Petang, Kabupaten Badung, Bali 80353","Pelaga, Kec. Petang, Kabupaten Badung",BALI,80353.0,Indonesia,,,,-8.2829606,115.2153581,https://maps.google.com/?cid=0x0:0x883ec535ec3acfd8,
perumahan,Komplek perumahan,Rumah Banjar Pundung,"Jl. Puputan Badung Br. Pundung No.9, Pangsan, Kec. Petang, Kabupaten Badung, Bali 80353","Pangsan, Kec. Petang, Kabupaten Badung",BALI,80353.0,Indonesia,,,,-8.4055884,115.2224552,https://maps.google.com/?cid=0x0:0xb0aabdbc6ec0f027,
perumahan,Pembangunan Perumahan,Swagita's Home,"J6F5+74R, Jl. Lipah, Petang, Kec. Petang, Kabupaten Badung, Bali","Kabupaten Badung, Bali",BALI,,Indonesia,,,,-8.3767685,115.2077658,https://maps.google.com/?cid=0x0:0x584a7590233881ec,
perumahan,Komplek perumahan,Tanah Petang Bapak,"M67G+22, Sulangai, Kec. Petang, Kabupaten Badung, Bali","Kabupaten Badung, Bali",BALI,,Indonesia,,,,-8.3375099,115.2250807,https://maps.google.com/?cid=0x0:0x55958adec8862dfc,
perumahan,Komplek perumahan,PONDOK BATAN MANGGIS (DNJE),"M6V9+GXW, banjar kiadan, Pelaga, Kec. Petang, Kabupaten Badung, Bali","Kabupaten Badung, Bali",BALI,,Indonesia,,,,-8.3061401,115.2199435,https://maps.google.com/?cid=0x0:0xd4ab7872b677f06,
