Category,Real Category,Business Name,Address,City,State,Postal Code,Country,Phone,Latitude,Longitude,Map Link
cafe,cafe,Kec. Waropen Bawah,"Kabupaten Waropen, Papua","Kabupaten Waropen, Papua",PAPUA,,Indonesia,,-2.2420315,136.3794418,https://maps.google.com/?cid=0x0:0x9b57b47411779662
cafe,Rumah Makan,cafe UJM Waropen Papua,"QCR8+5C7, Kemon Jaya Sp V, Kec. Urei Faisei, Kabupaten Waropen, Papua 98261","Kemon Jaya Sp V, Kec. Urei Faisei, Kabupaten Waropen",PAPUA,98261.0,Indonesia,,-2.2095908,136.4160381,https://maps.google.com/?cid=0x0:0x8902420b92236840
cafe,Kedai Kopi,Kedai sagena,"Q9CQ+X62, Unnamed Road, Nonomi, Kec. Waropen Bawah, Kabupaten Waropen, Papua 98261","Unnamed Road, Nonomi, Kec. Waropen Bawah, Kabupaten Waropen",PAPUA,98261.0,Indonesia,82236762244.0,-2.227605,136.3880247,https://maps.google.com/?cid=0x0:0x52229e6c8f7ba452
cafe,Kafe,Coffe Khometz,"QCVJ+W3W, Unnamed Road, Mambui, Kec. Urei Faisei, Kabupaten Waropen, Papua 98261","Unnamed Road, Mambui, Kec. Urei Faisei, Kabupaten Waropen",PAPUA,98261.0,Indonesia,,-2.2051368,136.4301991,https://maps.google.com/?cid=0x0:0x1850c1aaecd41c3b
cafe,Toko Pakaian,Rebellion Cafe  Boutique,"Jl. Poros SMA N Waren No.420, Sawara Jaya Sp VI, Kec. Waropen Bawah, Kabupaten Waropen, Papua 98261","Sawara Jaya Sp VI, Kec. Waropen Bawah, Kabupaten Waropen",PAPUA,98261.0,Indonesia,8114914567.0,-2.261715,136.344696,https://maps.google.com/?cid=0x0:0xda72ecdb91bd2adf
cafe,Rumah Makan,SAFIA KITCHEN,"Jl, Nonomi, Kec. Waropen Bawah, Kabupaten Waropen, Papua 98261","Nonomi, Kec. Waropen Bawah, Kabupaten Waropen",PAPUA,98261.0,Indonesia,,-2.2348345,136.3811871,https://maps.google.com/?cid=0x0:0xb3cbc4e852ec3e9f
cafe,Rumah Kaca,Cafe Pasaden@ Urfas 3,"QCVM+R8G, Unnamed Road, Mambui, Kec. Urei Faisei, Kabupaten Waropen, Papua 98261","Unnamed Road, Mambui, Kec. Urei Faisei, Kabupaten Waropen",PAPUA,98261.0,Indonesia,81342088282.0,-2.205447,136.433335,https://maps.google.com/?cid=0x0:0x5799ac3ce9026d57
cafe,Kafe,AUSIWERINI,"QFQ4+3X7, Unnamed Road, Nubuai, Kec. Urei Faisei, Kabupaten Waropen, Papua 98261","Unnamed Road, Nubuai, Kec. Urei Faisei, Kabupaten Waropen",PAPUA,98261.0,Indonesia,,-2.2123375,136.4574074,https://maps.google.com/?cid=0x0:0xd44a7552f7501b2a
cafe,Kantor Pemerintah,Waropen,"Q97G+GH2, Waren Satu, Kec. Waropen Bawah, Kabupaten Waropen, Papua 98261","Waren Satu, Kec. Waropen Bawah, Kabupaten Waropen",PAPUA,98261.0,Indonesia,,-2.2362472,136.3763883,https://maps.google.com/?cid=0x0:0x536df782b72a092e
cafe,Brunch,Rumah Makan Sulawesi,"Q98J+CRG, Jln poros waren-urfas, Nonomi, Kec. Waropen Bawah, Kabupaten Waropen, Papua 98261","Jln poros waren-urfas, Nonomi, Kec. Waropen Bawah, Kabupaten Waropen",PAPUA,98261.0,Indonesia,81344620886.0,-2.2339251,136.3820659,https://maps.google.com/?cid=0x0:0xafe62e912aeb3578
cafe,Nasi,Warung bintang timur,"QCV9+CWM, Kemon Jaya Sp V, Kec. Urei Faisei, Kabupaten Waropen, Papua 98261","Kemon Jaya Sp V, Kec. Urei Faisei, Kabupaten Waropen",PAPUA,98261.0,Indonesia,,-2.206419,136.4197968,https://maps.google.com/?cid=0x0:0xc686402bfd25f1dd
cafe,Rumah Makan,Kemon jaya,"QCP8+MP3, Kemon Jaya Sp V, Kec. Urei Faisei, Kabupaten Waropen, Papua 98261","Kemon Jaya Sp V, Kec. Urei Faisei, Kabupaten Waropen",PAPUA,98261.0,Indonesia,,-2.214062,136.417364,https://maps.google.com/?cid=0x0:0xe856e7f344d367fe
cafe,Kedai Kopi,KEDAI BAKAU SHOP (AAA),"Kemon Jaya Sp V, Kec. Urei Faisei, Kabupaten Waropen, Papua 98261","Kec. Urei Faisei, Kabupaten Waropen",PAPUA,98261.0,Indonesia,81247220162.0,-2.2263352,136.4216167,https://maps.google.com/?cid=0x0:0xfe9b3982a41e1b4f
cafe,cafe,Masirei,"Kabupaten Waropen, Papua","Kabupaten Waropen, Papua",PAPUA,,Indonesia,,-2.5326635,137.0193913,https://maps.google.com/?cid=0x0:0xef8885c7f7c8ae85
cafe,Kedai Kopi,Para-Para Coffie Kang Sesil,"Jln. Salera, Bumi Mulia, Kec. Wanggar, Kabupaten Nabire, Papua 98856","Bumi Mulia, Kec. Wanggar, Kabupaten Nabire",PAPUA,98856.0,Indonesia,85362273211.0,-3.4512105,135.4166996,https://maps.google.com/?cid=0x0:0x66ec1dab96e26e99
cafe,Kafe,Cafe Aiman 88,"JGR3+PVM, Jl. Dr. Sam Ratulangi, Oyehe, Distrik Nabire, Kabupaten Nabire, Papua","Kabupaten Nabire, Papua",PAPUA,,Indonesia,,-3.3581155,135.5045574,https://maps.google.com/?cid=0x0:0x56283c99b487797f
cafe,Kafe,Kamusio Makmur Abadi,"Jl. Ds Jl. Yan Mamoribo, Siriwini, Distrik Nabire, Kabupaten Nabire, Papua 98820","Siriwini, Distrik Nabire, Kabupaten Nabire",PAPUA,98820.0,Indonesia,85244333338.0,-3.3360074,135.5238244,https://maps.google.com/?cid=0x0:0x724150ba86b31e13
cafe,Rumah Kaca,Cafe Pasaden@ Urfas 3,"QCVM+R8G, Unnamed Road, Mambui, Kec. Urei Faisei, Kabupaten Waropen, Papua 98261","Unnamed Road, Mambui, Kec. Urei Faisei, Kabupaten Waropen",PAPUA,98261.0,Indonesia,81342088282.0,-2.205447,136.433335,https://maps.google.com/?cid=0x0:0x5799ac3ce9026d57
cafe,cafe,Sangam Varma,"54CW+M9P, Didiwoi, Walani, Kabupaten Waropen, Papua 98263","Didiwoi, Walani, Kabupaten Waropen",PAPUA,98263.0,Indonesia,,-2.8282879,137.1459597,https://maps.google.com/?cid=0x0:0x4ee2ecce64bae81c
cafe,Mesin Sangrai Kopi,Alenia Papua Coffee  Kitchen,"Jl. Kemang Raya No.66 B 8, RT.8/RW.2, Bangka, Kec. Mampang Prpt., Kota Jakarta Selatan, Daerah Khusus Ibukota Jakarta 12730","RT.8/RW.2, Bangka, Kec. Mampang Prpt., Kota Jakarta Selatan",PAPUA,12730.0,Indonesia,2171790141.0,-6.2638119,106.8158777,https://maps.google.com/?cid=0x0:0xe49807fcfab68b48
cafe,Toko Roti Grosir,BreadTake Bakery  Bete Cafe,"JGR3+FCP, Jl. Dr. Sam Ratulangi, Oyehe, Distrik Nabire, Kabupaten Nabire, Papua 98811","Jl. Dr. Sam Ratulangi, Oyehe, Distrik Nabire, Kabupaten Nabire",PAPUA,98811.0,Indonesia,81247477704.0,-3.3587936,135.5035916,https://maps.google.com/?cid=0x0:0x408c27d90630af3c
cafe,Kedai Kopi,Mozas coffee  eatery,"FV5J+7CR, Jl. Cendrawasih, Kwamki, Kec. Mimika Baru, Kabupaten Mimika, Papua 99971","Jl. Cendrawasih, Kwamki, Kec. Mimika Baru, Kabupaten Mimika",PAPUA,99971.0,Indonesia,82346211581.0,-4.541764,136.8810199,https://maps.google.com/?cid=0x0:0x472df8cc9760865b
cafe,Kedai Kopi,Three - C Caffe  Resto,"Kios Putih, Belakang, Yafdas, Samofa, Biak Numfor Regency, Papua","Kabupaten Biak Numfor, Papua",PAPUA,,Indonesia,8124825299.0,-1.1568604,136.0741199,https://maps.google.com/?cid=0x0:0xda23b17446b60b0c
cafe,Bar Karaoke,Cafe Kendedes,"JGV4+HR3, Oyehe, Distrik Nabire, Kabupaten Nabire, Papua 98811","Oyehe, Distrik Nabire, Kabupaten Nabire",PAPUA,98811.0,Indonesia,81299280973.0,-3.356115,135.5070535,https://maps.google.com/?cid=0x0:0xe4bf2c3c921d70e3
cafe,Restoran,Pit's Corner ( Papua Specialty Coffee ),"Jalan kasuari no.2 Dok V Atas, Mandala, Jayapura Utara, Jayapura City, Papua 99114","Mandala, Jayapura Utara, Jayapura City",PAPUA,99114.0,Indonesia,9675160443.0,-2.5310642,140.71875,https://maps.google.com/?cid=0x0:0xf39f3950a3bf5ed2
cafe,Kedai Kopi,Mosslife Coffee - Taman Literasi,"Taman Literasi Martha Christina Tiahahu, Jl. Sisingamangaraja Unit D1, Melawai, Kec. Kby. Baru, Kota Jakarta Selatan, Daerah Khusus Ibukota Jakarta 12160","Jl. Sisingamangaraja Unit D1, Melawai, Kec. Kby. Baru, Kota Jakarta Selatan",PAPUA,12160.0,Indonesia,81399047472.0,-6.243269,106.7983685,https://maps.google.com/?cid=0x0:0x218ac94f5e22db66
cafe,Kedai Kopi,ME Coffee,"Seberang Saga, Jl. Cenderawasih Pos No. 86 Ardipura, Entrop, Distrik Jayapura Selatan, Kota Jayapura, Papua 99221","Jl. Cenderawasih Pos No. 86 Ardipura, Entrop, Distrik Jayapura Selatan, Kota Jayapura",PAPUA,99221.0,Indonesia,8114828411.0,-2.5665645,140.7020391,https://maps.google.com/?cid=0x0:0xcedc6b8445b20d5a
cafe,Kedai Kopi,Ghaiwando Caffe Outdoor,"MHGF+FHJ, Wobari, Risei Sayati, Kabupaten Waropen, Papua","Kabupaten Waropen, Papua",PAPUA,,Indonesia,,-2.3237858,136.5738995,https://maps.google.com/?cid=0x0:0xdb304f4a78fdf2f1
cafe,cafe,Risei Sayati,"Kabupaten Waropen, Papua","Kabupaten Waropen, Papua",PAPUA,,Indonesia,,-2.5853714,136.8640458,https://maps.google.com/?cid=0x0:0x79e0df267d2a13e
cafe,Rumah Makan,cafe UJM Waropen Papua,"QCR8+5C7, Kemon Jaya Sp V, Kec. Urei Faisei, Kabupaten Waropen, Papua 98261","Kemon Jaya Sp V, Kec. Urei Faisei, Kabupaten Waropen",PAPUA,98261.0,Indonesia,,-2.2095908,136.4160381,https://maps.google.com/?cid=0x0:0x8902420b92236840
cafe,cafe,Ghaiwando Coffee,"CV77+VJ3, Fafado, Risei Sayati, Kabupaten Waropen, Papua","Kabupaten Waropen, Papua",PAPUA,,Indonesia,,-2.5853714,136.8640458,https://maps.google.com/?cid=0x0:0xd9bd24741041dc87
cafe,Rumah Kaca,Cafe Pasaden@ Urfas 3,"QCVM+R8G, Unnamed Road, Mambui, Kec. Urei Faisei, Kabupaten Waropen, Papua 98261","Unnamed Road, Mambui, Kec. Urei Faisei, Kabupaten Waropen",PAPUA,98261.0,Indonesia,81342088282.0,-2.205447,136.433335,https://maps.google.com/?cid=0x0:0x5799ac3ce9026d57
cafe,cafe,Kec. Urei Faisei,"Kabupaten Waropen, Papua","Kabupaten Waropen, Papua",PAPUA,,Indonesia,,-2.209971,136.4499194,https://maps.google.com/?cid=0x0:0xd94366d88a18b612
cafe,Rumah Makan,cafe UJM Waropen Papua,"QCR8+5C7, Kemon Jaya Sp V, Kec. Urei Faisei, Kabupaten Waropen, Papua 98261","Kemon Jaya Sp V, Kec. Urei Faisei, Kabupaten Waropen",PAPUA,98261.0,Indonesia,,-2.2095908,136.4160381,https://maps.google.com/?cid=0x0:0x8902420b92236840
cafe,Kafe,AUSIWERINI,"QFQ4+3X7, Unnamed Road, Nubuai, Kec. Urei Faisei, Kabupaten Waropen, Papua 98261","Unnamed Road, Nubuai, Kec. Urei Faisei, Kabupaten Waropen",PAPUA,98261.0,Indonesia,,-2.2123375,136.4574074,https://maps.google.com/?cid=0x0:0xd44a7552f7501b2a
cafe,Rumah Kaca,Cafe Pasaden@ Urfas 3,"QCVM+R8G, Unnamed Road, Mambui, Kec. Urei Faisei, Kabupaten Waropen, Papua 98261","Unnamed Road, Mambui, Kec. Urei Faisei, Kabupaten Waropen",PAPUA,98261.0,Indonesia,81342088282.0,-2.205447,136.433335,https://maps.google.com/?cid=0x0:0x5799ac3ce9026d57
cafe,Kafe,Coffe Khometz,"QCVJ+W3W, Unnamed Road, Mambui, Kec. Urei Faisei, Kabupaten Waropen, Papua 98261","Unnamed Road, Mambui, Kec. Urei Faisei, Kabupaten Waropen",PAPUA,98261.0,Indonesia,,-2.2051368,136.4301991,https://maps.google.com/?cid=0x0:0x1850c1aaecd41c3b
cafe,Rumah Makan,RM. Pringgodani,"QCR8+43G, Kemon Jaya Sp V, Kec. Urei Faisei, Kabupaten Waropen, Papua 98261","Kemon Jaya Sp V, Kec. Urei Faisei, Kabupaten Waropen",PAPUA,98261.0,Indonesia,,-2.2096927,136.4152133,https://maps.google.com/?cid=0x0:0x5cc1016b6971bb7f
cafe,Rumah Makan,Warung Makan Segeri,"QCV9+5F7, Jl. Batupapan, Kemon Jaya Sp V, Kec. Urei Faisei, Kabupaten Waropen, Papua 98261","Jl. Batupapan, Kemon Jaya Sp V, Kec. Urei Faisei, Kabupaten Waropen",PAPUA,98261.0,Indonesia,82198369836.0,-2.2070744,136.4186797,https://maps.google.com/?cid=0x0:0x27f457fb279c5891
cafe,Martabak,Waiter's Food,"QFR2+G2M, Ureifasei Tiga/Paradoi, Kec. Urei Faisei, Kabupaten Waropen, Papua","Kabupaten Waropen, Papua",PAPUA,,Indonesia,85244541720.0,-2.2086557,136.450046,https://maps.google.com/?cid=0x0:0x97bbfbe3793a4fbb
cafe,Nasi,Warung bintang timur,"QCV9+CWM, Kemon Jaya Sp V, Kec. Urei Faisei, Kabupaten Waropen, Papua 98261","Kemon Jaya Sp V, Kec. Urei Faisei, Kabupaten Waropen",PAPUA,98261.0,Indonesia,,-2.206419,136.4197968,https://maps.google.com/?cid=0x0:0xc686402bfd25f1dd
cafe,Rumah Makan,WARUNG SEDERHANA,"QCR8+43X, Kemon Jaya Sp V, Kec. Urei Faisei, Kabupaten Waropen, Papua","Kabupaten Waropen, Papua",PAPUA,,Indonesia,,-2.2096396,136.4152311,https://maps.google.com/?cid=0x0:0x3a291e6bdd003ce7
cafe,Kedai Kopi,KEDAI BAKAU SHOP (AAA),"Kemon Jaya Sp V, Kec. Urei Faisei, Kabupaten Waropen, Papua 98261","Kec. Urei Faisei, Kabupaten Waropen",PAPUA,98261.0,Indonesia,81247220162.0,-2.2263352,136.4216167,https://maps.google.com/?cid=0x0:0xfe9b3982a41e1b4f
cafe,Rumah Makan,Kemon jaya,"QCP8+MP3, Kemon Jaya Sp V, Kec. Urei Faisei, Kabupaten Waropen, Papua 98261","Kemon Jaya Sp V, Kec. Urei Faisei, Kabupaten Waropen",PAPUA,98261.0,Indonesia,,-2.214062,136.417364,https://maps.google.com/?cid=0x0:0xe856e7f344d367fe
cafe,Warnet,Kay.Net,"QCVJ+MVP, Mambui, Kec. Urei Faisei, Kabupaten Waropen, Papua 98261","Mambui, Kec. Urei Faisei, Kabupaten Waropen",PAPUA,98261.0,Indonesia,,-2.205782,136.4321948,https://maps.google.com/?cid=0x0:0x5e15059b71882b2d
cafe,Martabak,RESTO  MARTABAK KOMETZ,"QCVV+372, Jln Poros urfas, Urei Faisei Dua, Kec. Urei Faisei, Kabupaten Waropen, Papua","Kabupaten Waropen, Papua",PAPUA,,Indonesia,,-2.2073618,136.4431493,https://maps.google.com/?cid=0x0:0xd22682abdb3886ae
cafe,cafe,Inggerus,"Kabupaten Waropen, Papua","Kabupaten Waropen, Papua",PAPUA,,Indonesia,,-2.7458074,136.4777687,https://maps.google.com/?cid=0x0:0x450866f7860e3381
cafe,Kafe,PUA-PUA CAFE,"Jl. Budi Utomo, Nawaripi, Kec. Mimika Baru, Kabupaten Mimika, Papua 99952","Nawaripi, Kec. Mimika Baru, Kabupaten Mimika",PAPUA,99952.0,Indonesia,82346750560.0,-4.5620805,136.8806057,https://maps.google.com/?cid=0x0:0xb7cc07f877baacb2
cafe,cafe,Cafe Anzhar Lazhar kitchen,"5M4C+H6F, Firo, Inggerus, Kabupaten Waropen, Papua","Kabupaten Waropen, Papua",PAPUA,,Indonesia,,-2.8435717,136.670534,https://maps.google.com/?cid=0x0:0x5f0dd9ccf54016a8
cafe,Restoran,Yasbeer Cafe dan resto,"Engros, Kec. Abepura, Kota Jayapura, Papua","Kota Jayapura, Papua",PAPUA,,Indonesia,81248941111.0,-2.6005334,140.7153915,https://maps.google.com/?cid=0x0:0x34cbd734e60fa36b
cafe,cafe,Ronggaiwa Beach Cafe,"5M4C+H6F, Kampung Ronggaiwa Blakang SPBU distrik Urei Faisei, Firo, Inggerus, Kabupaten Waropen, Papua 98261","Kampung Ronggaiwa Blakang SPBU distrik Urei Faisei, Firo, Inggerus, Kabupaten Waropen",PAPUA,98261.0,Indonesia,82119536673.0,-2.8435717,136.670534,https://maps.google.com/?cid=0x0:0xf2e0bffcaa3ca8fb
cafe,Kafe,Ghaiwando,"MJJF+X3, Wobari, Risei Sayati, Kabupaten Waropen, Papua","Kabupaten Waropen, Papua",PAPUA,,Indonesia,,-2.3175658,136.622748,https://maps.google.com/?cid=0x0:0xf3954c1dc915643c
cafe,cafe,Papua 98263,"Kabupaten Waropen, Papua","Kabupaten Waropen, Papua",PAPUA,,Indonesia,,-2.8580182,136.9805103,https://maps.google.com/?cid=0x0:0xcb1ac3e3a0828ae1
cafe,Kedai Kopi,Ghaiwando Caffe Outdoor,"MHGF+FHJ, Wobari, Risei Sayati, Kabupaten Waropen, Papua","Kabupaten Waropen, Papua",PAPUA,,Indonesia,,-2.3237858,136.5738995,https://maps.google.com/?cid=0x0:0xdb304f4a78fdf2f1
cafe,Toko Pakaian,Rebellion Cafe  Boutique,"Jl. Poros SMA N Waren No.420, Sawara Jaya Sp VI, Kec. Waropen Bawah, Kabupaten Waropen, Papua 98261","Sawara Jaya Sp VI, Kec. Waropen Bawah, Kabupaten Waropen",PAPUA,98261.0,Indonesia,8114914567.0,-2.261715,136.344696,https://maps.google.com/?cid=0x0:0xda72ecdb91bd2adf
cafe,cafe,Sangam Varma,"54CW+M9P, Didiwoi, Walani, Kabupaten Waropen, Papua 98263","Didiwoi, Walani, Kabupaten Waropen",PAPUA,98263.0,Indonesia,,-2.8282879,137.1459597,https://maps.google.com/?cid=0x0:0x4ee2ecce64bae81c
cafe,Kafe,Carffein Of House,"CGM9+CQ8, Jl. Raya Abepura - Sentani, Hinekombe, Kec. Sentani, Kabupaten Jayapura, Papua","Kabupaten Jayapura, Papua",PAPUA,,Indonesia,82248155536.0,-2.5664649,140.5194407,https://maps.google.com/?cid=0x0:0x13454181ab9468f2
cafe,cafe,Ronggaiwa Beach Cafe,"5M4C+H6F, Kampung Ronggaiwa Blakang SPBU distrik Urei Faisei, Firo, Inggerus, Kabupaten Waropen, Papua 98261","Kampung Ronggaiwa Blakang SPBU distrik Urei Faisei, Firo, Inggerus, Kabupaten Waropen",PAPUA,98261.0,Indonesia,82119536673.0,-2.8435717,136.670534,https://maps.google.com/?cid=0x0:0xf2e0bffcaa3ca8fb
cafe,cafe,Ghaiwando Coffee,"CV77+VJ3, Fafado, Risei Sayati, Kabupaten Waropen, Papua","Kabupaten Waropen, Papua",PAPUA,,Indonesia,,-2.5853714,136.8640458,https://maps.google.com/?cid=0x0:0xd9bd24741041dc87
cafe,cafe,Ghaiwando Cafe  Waribo Outdoor,"Wobari, Ghaiwando, Kabupaten Waropen, Papua 98674","Ghaiwando, Kabupaten Waropen",PAPUA,98674.0,Indonesia,82397608800.0,-2.3155621,136.6210457,https://maps.google.com/?cid=0x0:0x17fcc24606f65753
cafe,Kafe,cafe bakau holtekam kota jayapura,"9PRF+58, Nafri, Kec. Abepura, Kota Jayapura, Papua","Kota Jayapura, Papua",PAPUA,,Indonesia,8124022007.0,-2.6095335,140.7232587,https://maps.google.com/?cid=0x0:0x440c4543fd3a011e
cafe,Kafe,Kiri Coffee and Eatery,"Jl. Lingkar Selatan Jl. Ciracas, Serang, Kec. Serang, Kota Serang, Kota Serang, Banten 42116","Serang, Kec. Serang, Kota Serang, Kota Serang",PAPUA,42116.0,Indonesia,81366660488.0,-6.1274993,106.1513164,https://maps.google.com/?cid=0x0:0x20bcd3a15fd95489
cafe,cafe,Papua 98262,"Kabupaten Mamberamo Raya, Papua","Kabupaten Mamberamo Raya, Papua",PAPUA,,Indonesia,,-2.4075711,137.6061625,https://maps.google.com/?cid=0x0:0xcf10b52983f1589a
cafe,Kafe,AUSIWERINI,"QFQ4+3X7, Unnamed Road, Nubuai, Kec. Urei Faisei, Kabupaten Waropen, Papua 98261","Unnamed Road, Nubuai, Kec. Urei Faisei, Kabupaten Waropen",PAPUA,98261.0,Indonesia,,-2.2123375,136.4574074,https://maps.google.com/?cid=0x0:0xd44a7552f7501b2a
cafe,Rumah Makan,cafe UJM Waropen Papua,"QCR8+5C7, Kemon Jaya Sp V, Kec. Urei Faisei, Kabupaten Waropen, Papua 98261","Kemon Jaya Sp V, Kec. Urei Faisei, Kabupaten Waropen",PAPUA,98261.0,Indonesia,,-2.2095908,136.4160381,https://maps.google.com/?cid=0x0:0x8902420b92236840
cafe,Rumah Kaca,Cafe Pasaden@ Urfas 3,"QCVM+R8G, Unnamed Road, Mambui, Kec. Urei Faisei, Kabupaten Waropen, Papua 98261","Unnamed Road, Mambui, Kec. Urei Faisei, Kabupaten Waropen",PAPUA,98261.0,Indonesia,81342088282.0,-2.205447,136.433335,https://maps.google.com/?cid=0x0:0x5799ac3ce9026d57
cafe,Kedai Kopi,Kedai sagena,"Q9CQ+X62, Unnamed Road, Nonomi, Kec. Waropen Bawah, Kabupaten Waropen, Papua 98261","Unnamed Road, Nonomi, Kec. Waropen Bawah, Kabupaten Waropen",PAPUA,98261.0,Indonesia,82236762244.0,-2.227605,136.3880247,https://maps.google.com/?cid=0x0:0x52229e6c8f7ba452
cafe,Kafe,Coffe Khometz,"QCVJ+W3W, Unnamed Road, Mambui, Kec. Urei Faisei, Kabupaten Waropen, Papua 98261","Unnamed Road, Mambui, Kec. Urei Faisei, Kabupaten Waropen",PAPUA,98261.0,Indonesia,,-2.2051368,136.4301991,https://maps.google.com/?cid=0x0:0x1850c1aaecd41c3b
cafe,Toko Pakaian,Rebellion Cafe  Boutique,"Jl. Poros SMA N Waren No.420, Sawara Jaya Sp VI, Kec. Waropen Bawah, Kabupaten Waropen, Papua 98261","Sawara Jaya Sp VI, Kec. Waropen Bawah, Kabupaten Waropen",PAPUA,98261.0,Indonesia,8114914567.0,-2.261715,136.344696,https://maps.google.com/?cid=0x0:0xda72ecdb91bd2adf
cafe,cafe,ISTANA KUE DAN CAFE,"QFQ3+5H8, Nubuai, Kec. Urei Faisei, Kabupaten Waropen, Papua 98261","Nubuai, Kec. Urei Faisei, Kabupaten Waropen",PAPUA,98261.0,Indonesia,,-2.2120982,136.4539474,https://maps.google.com/?cid=0x0:0x66874e26ec30cc04
cafe,Vila,Cafe  Resto Efata,"Unnamed Road, Doyo Lama, Distrik Waibu, Kabupaten Jayapura, Papua 99352","Doyo Lama, Distrik Waibu, Kabupaten Jayapura",PAPUA,99352.0,Indonesia,81393727460.0,-2.5656718,140.4652682,https://maps.google.com/?cid=0x0:0xdf6899334b660461
cafe,Kafe,Tana Papua Coffee and Roastery,"Jl. Raya Abepura, Vim, Kec. Abepura, Kota Jayapura, Papua 99220","Vim, Kec. Abepura, Kota Jayapura",PAPUA,99220.0,Indonesia,82175416609.0,-2.6047712,140.6727079,https://maps.google.com/?cid=0x0:0x747c727d4b94ebf6
cafe,Rumah Makan,SAFIA KITCHEN,"Jl, Nonomi, Kec. Waropen Bawah, Kabupaten Waropen, Papua 98261","Nonomi, Kec. Waropen Bawah, Kabupaten Waropen",PAPUA,98261.0,Indonesia,,-2.2348345,136.3811871,https://maps.google.com/?cid=0x0:0xb3cbc4e852ec3e9f
cafe,Kafe,cafe bakau holtekam kota jayapura,"9PRF+58, Nafri, Kec. Abepura, Kota Jayapura, Papua","Kota Jayapura, Papua",PAPUA,,Indonesia,8124022007.0,-2.6095335,140.7232587,https://maps.google.com/?cid=0x0:0x440c4543fd3a011e
cafe,Kedai Kopi,KEDAI BAKAU SHOP (AAA),"Kemon Jaya Sp V, Kec. Urei Faisei, Kabupaten Waropen, Papua 98261","Kec. Urei Faisei, Kabupaten Waropen",PAPUA,98261.0,Indonesia,81247220162.0,-2.2263352,136.4216167,https://maps.google.com/?cid=0x0:0xfe9b3982a41e1b4f
cafe,Nasi,Warung bintang timur,"QCV9+CWM, Kemon Jaya Sp V, Kec. Urei Faisei, Kabupaten Waropen, Papua 98261","Kemon Jaya Sp V, Kec. Urei Faisei, Kabupaten Waropen",PAPUA,98261.0,Indonesia,,-2.206419,136.4197968,https://maps.google.com/?cid=0x0:0xc686402bfd25f1dd
cafe,Kafe,Waanal Coffee And Resto,"Jl. Cendrawasih, Karang Senang, Kec. Kuala Kencana, Kabupaten Mimika, Papua 99910","Karang Senang, Kec. Kuala Kencana, Kabupaten Mimika",PAPUA,99910.0,Indonesia,81248677897.0,-4.4916566,136.8474106,https://maps.google.com/?cid=0x0:0xe6f6936c8a14d771
cafe,cafe,Papua 98861,"Kabupaten Nabire, Papua","Kabupaten Nabire, Papua",PAPUA,,Indonesia,,-3.1060477,135.9800848,https://maps.google.com/?cid=0x0:0x6de7561b85a7e092
cafe,Rumah Makan,cafe UJM Waropen Papua,"QCR8+5C7, Kemon Jaya Sp V, Kec. Urei Faisei, Kabupaten Waropen, Papua 98261","Kemon Jaya Sp V, Kec. Urei Faisei, Kabupaten Waropen",PAPUA,98261.0,Indonesia,,-2.2095908,136.4160381,https://maps.google.com/?cid=0x0:0x8902420b92236840
cafe,Kedai Kopi,Enauto Coffee Papua,"Jl. Sudirman, Bukit Meriam, Samping Jl. PDAM No.70F, Karang Mulia, Nabire Regency, Papua 98815","Bukit Meriam, Samping Jl. PDAM No.70F, Karang Mulia, Nabire Regency",PAPUA,98815.0,Indonesia,82187015600.0,-3.3732958,135.5020802,https://maps.google.com/?cid=0x0:0x9e65249c3b29dc0e
cafe,Toko Roti Grosir,BreadTake Bakery  Bete Cafe,"JGR3+FCP, Jl. Dr. Sam Ratulangi, Oyehe, Distrik Nabire, Kabupaten Nabire, Papua 98811","Jl. Dr. Sam Ratulangi, Oyehe, Distrik Nabire, Kabupaten Nabire",PAPUA,98811.0,Indonesia,81247477704.0,-3.3587936,135.5035916,https://maps.google.com/?cid=0x0:0x408c27d90630af3c
cafe,Kafe,Kafein73,"Jalan Surojo Tanojo No.33, Karang Mulia, Distrik Nabire, Kabupaten Nabire, Papua 98816","Karang Mulia, Distrik Nabire, Kabupaten Nabire",PAPUA,98816.0,Indonesia,81332554266.0,-3.367565,135.5124908,https://maps.google.com/?cid=0x0:0x55feff2e62087516
cafe,Kedai Kopi,"Lapak Watiyauwo - Nabire, Papua Tengah","Jl. Trikora, Morgo, Distrik Nabire, Kabupaten Nabire, Papua 98811","Morgo, Distrik Nabire, Kabupaten Nabire",PAPUA,98811.0,Indonesia,,-3.3616223,135.493398,https://maps.google.com/?cid=0x0:0xb5e0627d924440a8
cafe,Kafe,Komoke Kopi,"Karang Mulia, Distrik Nabire, Kabupaten Nabire, Papua 98811","Distrik Nabire, Kabupaten Nabire",PAPUA,98811.0,Indonesia,,-3.3712012,135.5085193,https://maps.google.com/?cid=0x0:0x891a51e85eabaf6d
cafe,Warnet,Cafe SEROJA ONE -SO-,"QH9V+9W4, Tlk., Samabusa, Distrik Tlk. Kimi, Kabupaten Nabire, Papua 98818","Tlk., Samabusa, Distrik Tlk. Kimi, Kabupaten Nabire",PAPUA,98818.0,Indonesia,8124844051.0,-3.2316219,135.5948259,https://maps.google.com/?cid=0x0:0x2b8dda7602463498
cafe,Kedai Kopi,KEDAI SEBLAK CAFE GARASI,"Jl. Ilaga, Girimulyo, Distrik Nabire, Kabupaten Nabire, Papua 98811","Girimulyo, Distrik Nabire, Kabupaten Nabire",PAPUA,98811.0,Indonesia,81333531421.0,-3.3813552,135.508224,https://maps.google.com/?cid=0x0:0xb468a723d3fc0b27
cafe,Restoran,Papua Cafe,"JV38+MF6, Kuala Kencana, Kec. Kuala Kencana, Kabupaten Mimika, Papua 99910","Kuala Kencana, Kec. Kuala Kencana, Kabupaten Mimika",PAPUA,99910.0,Indonesia,811490804.0,-4.395844,136.8661365,https://maps.google.com/?cid=0x0:0x314a0b94209cdb62
cafe,Kafe,Warunk Zipur (Cafe  Mart),"MG7P+4X, Siriwini, Distrik Nabire, Kabupaten Nabire, Papua","Kabupaten Nabire, Papua",PAPUA,,Indonesia,85254679650.0,-3.3372481,135.5377122,https://maps.google.com/?cid=0x0:0xe658d06bc57d90c3
cafe,Restoran,Janji Koe,"Girimulyo, Distrik Nabire, Kabupaten Nabire, Papua 98811","Distrik Nabire, Kabupaten Nabire",PAPUA,98811.0,Indonesia,81332330303.0,-3.3789333,135.5109474,https://maps.google.com/?cid=0x0:0xb9ffc6ced4eabab6
cafe,Restoran,RM. Suramadu,"RPJV+FWR, Jl. Lagari, Legari Jaya, Makimi, Kabupaten Nabire, Papua 98861","Jl. Lagari, Legari Jaya, Makimi, Kabupaten Nabire",PAPUA,98861.0,Indonesia,,-3.16876,135.744774,https://maps.google.com/?cid=0x0:0x7dcad415325ccd86
cafe,Kedai Kopi,AtmÃ¨ Coffee -Tebet,"Jl. KH Abdullah Syafei No.59A 5, RT.5/RW.2, Manggarai Sel., Kec. Tebet, jakarta, Daerah Khusus Ibukota Jakarta 12860","RT.5/RW.2, Manggarai Sel., Kec. Tebet, jakarta",PAPUA,12860.0,Indonesia,881024391018.0,-6.2236119,106.8506077,https://maps.google.com/?cid=0x0:0x6be7be4e7cce290e
cafe,cafe,Papua 98263,"Kabupaten Waropen, Papua","Kabupaten Waropen, Papua",PAPUA,,Indonesia,,-2.8580182,136.9805103,https://maps.google.com/?cid=0x0:0xcb1ac3e3a0828ae1
cafe,cafe,Mendadak Caffe,"JG83+PG6, Girimulyo, Distrik Nabire, Kabupaten Nabire, Papua 98811","Girimulyo, Distrik Nabire, Kabupaten Nabire",PAPUA,98811.0,Indonesia,85243995168.0,-3.3832241,135.5037735,https://maps.google.com/?cid=0x0:0xa88f32c45ec0613
hotel,hotel,Hotel Merpati,"Jl. Yos Sudarso, Serui Kota, Kec. Yapen Sel., Kabupaten Kepulauan Yapen, Papua 98215","Serui Kota, Kec. Yapen Sel., Kabupaten Kepulauan Yapen",PAPUA,98215.0,Indonesia,82359590808.0,-1.884878,136.2444474,https://maps.google.com/?cid=0x0:0xe3554649eda8754d
hotel,hotel,Kec. Waropen Bawah,"Kabupaten Waropen, Papua","Kabupaten Waropen, Papua",PAPUA,,Indonesia,,-2.2420315,136.3794418,https://maps.google.com/?cid=0x0:0x9b57b47411779662
hotel,Hotel,HOTEL ELFANSO WIDURI,"Urei Faisei Dua, Kec. Urei Faisei, Kabupaten Waropen, Papua 98261","Kec. Urei Faisei, Kabupaten Waropen",PAPUA,98261.0,Indonesia,81280364323.0,-2.2130062,136.4439587,https://maps.google.com/?cid=0x0:0x91b0fa9d797f4c92
hotel,hotel,Hotel Maureen,"46GR+P4R, Jl. Sudirman, Serui Kota, Kec. Yapen Sel., Kabupaten Kepulauan Yapen, Papua 98213","Jl. Sudirman, Serui Kota, Kec. Yapen Sel., Kabupaten Kepulauan Yapen",PAPUA,98213.0,Indonesia,81354165909.0,-1.8731433,136.2401965,https://maps.google.com/?cid=0x0:0xb028b61c6c000d80
hotel,hotel,Leonar,"QCCG+227, Batu Zaman, Kec. Waropen Bawah, Kabupaten Waropen, Papua 98261","Batu Zaman, Kec. Waropen Bawah, Kabupaten Waropen",PAPUA,98261.0,Indonesia,,-2.22958,136.4260943,https://maps.google.com/?cid=0x0:0x8b6a3090cb59ac87
hotel,Rumah wisata,PENGINAPAN KAMOWA,"Q93G+62C, Waren Satu, Kec. Waropen Bawah, Kabupaten Waropen, Papua 98261","Waren Satu, Kec. Waropen Bawah, Kabupaten Waropen",PAPUA,98261.0,Indonesia,,-2.2469478,136.3750135,https://maps.google.com/?cid=0x0:0x6ffabd23c94f7e15
hotel,Motel,Penginapan paman,"QCJC+WXV, Batu Zaman, Kec. Waropen Bawah, Kabupaten Waropen, Papua 98261","Batu Zaman, Kec. Waropen Bawah, Kabupaten Waropen",PAPUA,98261.0,Indonesia,,-2.2176447,136.4224157,https://maps.google.com/?cid=0x0:0x6fefdb8202913319
hotel,Rumah wisata,HENA HOUSE,"QCFG+2FR, Batu Zaman, Kec. Waropen Bawah, Kabupaten Waropen, Papua","Kabupaten Waropen, Papua",PAPUA,,Indonesia,,-2.2273791,136.4261486,https://maps.google.com/?cid=0x0:0x13e81bcbfdabb4f6
hotel,Hotel,LAGALIGO PENGINAPAN,"Jalan poros SP V, Khemon Jaya, Kec. Urei Faisei, Kabupaten Waropen, Papua 98662","Khemon Jaya, Kec. Urei Faisei, Kabupaten Waropen",PAPUA,98662.0,Indonesia,85239145799.0,-2.2107184,136.4163856,https://maps.google.com/?cid=0x0:0x4724873fc7a6197b
hotel,Vila,Waren,"Q97M+34H, Sarafambai, Kec. Waropen Bawah, Kabupaten Waropen, Papua 98261","Sarafambai, Kec. Waropen Bawah, Kabupaten Waropen",PAPUA,98261.0,Indonesia,,-2.2373112,136.3828667,https://maps.google.com/?cid=0x0:0x1efac2b0c9a430df
hotel,hotel,Hotel Musi Entrop,"Entrop, Distrik Jayapura Selatan, Kota Jayapura, Papua 99221","Distrik Jayapura Selatan, Kota Jayapura",PAPUA,99221.0,Indonesia,895417300072.0,-2.5754909,140.6909951,https://maps.google.com/?cid=0x0:0x20e691e9ad57b566
hotel,hotel,Masirei,"Kabupaten Waropen, Papua","Kabupaten Waropen, Papua",PAPUA,,Indonesia,,-2.5326635,137.0193913,https://maps.google.com/?cid=0x0:0xef8885c7f7c8ae85
hotel,hotel,Bisnis Hotel,"Kwamki, Kec. Mimika Baru, Kabupaten Mimika, Papua 99971","Kec. Mimika Baru, Kabupaten Mimika",PAPUA,99971.0,Indonesia,9013264510.0,-4.5452777,136.8833867,https://maps.google.com/?cid=0x0:0x690d0340d9882c9c
hotel,hotel,Hotel R6,"Jl.Cendrawasih SP2, Papua 99952","Kabupaten Mimika, Papua",PAPUA,,Indonesia,82245112457.0,-4.538464,136.8691429,https://maps.google.com/?cid=0x0:0xb392d58fbaabfb69
hotel,hotel,Hotel Merpati,"Jl. Yos Sudarso, Serui Kota, Kec. Yapen Sel., Kabupaten Kepulauan Yapen, Papua 98215","Serui Kota, Kec. Yapen Sel., Kabupaten Kepulauan Yapen",PAPUA,98215.0,Indonesia,82359590808.0,-1.884878,136.2444474,https://maps.google.com/?cid=0x0:0xe3554649eda8754d
hotel,hotel,"Swiss-Belhotel Jayapura, Papua","Pusat Bisnis Jayapura, Jl. Pacific Permai, Bayangkara, Kec. Jayapura Utara, Kota Jayapura, Papua 99112","Jl. Pacific Permai, Bayangkara, Kec. Jayapura Utara, Kota Jayapura",PAPUA,99112.0,Indonesia,967551888.0,-2.539046,140.711573,https://maps.google.com/?cid=0x0:0xbd14f75af0c6e48b
hotel,hotel,Rimba Papua Hotel,"Jl. Kwamki Narama No. 1, Kwamki, Kec. Mimika Baru, Kabupaten Mimika, Papua 99971","Kwamki, Kec. Mimika Baru, Kabupaten Mimika",PAPUA,99971.0,Indonesia,901494949.0,-4.5151124,136.884599,https://maps.google.com/?cid=0x0:0xa65056700db32492
hotel,hotel,Hotel Maureen,"46GR+P4R, Jl. Sudirman, Serui Kota, Kec. Yapen Sel., Kabupaten Kepulauan Yapen, Papua 98213","Jl. Sudirman, Serui Kota, Kec. Yapen Sel., Kabupaten Kepulauan Yapen",PAPUA,98213.0,Indonesia,81354165909.0,-1.8731433,136.2401965,https://maps.google.com/?cid=0x0:0xb028b61c6c000d80
hotel,hotel,Hotel Karya Papua,"JGX6+2PM, Jl. R.E. Martadinata Kalinona, Nabarua, Distrik Nabire, Papua 98816","Jl. R.E. Martadinata Kalinona, Nabarua, Distrik Nabire",PAPUA,98816.0,Indonesia,82164655697.0,-3.3524082,135.5118114,https://maps.google.com/?cid=0x0:0x8196bf4b8aafbb3f
hotel,hotel,Horison Inn Relat Jayapura,"Jl. Pantai Klp. No.21 - 23, Argapura, Distrik Jayapura Selatan, Kota Jayapura, Papua","Kota Jayapura, Papua",PAPUA,,Indonesia,9675160779.0,-2.5537101,140.7148929,https://maps.google.com/?cid=0x0:0xb98fc1bbb5c5c494
hotel,hotel,Hotel Rivior Sarmi,"4PVX+XHH, Sarmi, Kec. Sarmi, Kabupaten Sarmi, Papua 99373","Sarmi, Kec. Sarmi, Kabupaten Sarmi",PAPUA,99373.0,Indonesia,81247768282.0,-1.8550507,138.7489752,https://maps.google.com/?cid=0x0:0x687222ae96a90f78
hotel,hotel,Hotel Mapia,"Jl. Jend. Ahmad Yani No.23, Mandala, Kec. Biak Kota, Kabupaten Biak Numfor, Papua 98111","Mandala, Kec. Biak Kota, Kabupaten Biak Numfor",PAPUA,98111.0,Indonesia,98121383.0,-1.1848375,136.0856602,https://maps.google.com/?cid=0x0:0x15f6e40202cd7120
hotel,hotel,Hotel Mahavira I,"Karang Mulia, Distrik Nabire, Kabupaten Nabire, Papua 98811","Distrik Nabire, Kabupaten Nabire",PAPUA,98811.0,Indonesia,,-3.3731863,135.5098879,https://maps.google.com/?cid=0x0:0xeffead9206fb0816
hotel,hotel,Hotel Mutiara,"CM3C+873, Jl. Perkutut, Vim, Kec. Abepura, Kota Jayapura, Papua 99225","Jl. Perkutut, Vim, Kec. Abepura, Kota Jayapura",PAPUA,99225.0,Indonesia,81348430963.0,-2.5967398,140.6706613,https://maps.google.com/?cid=0x0:0xb730b0fce1d80fe4
hotel,Hotel,Hotel Merpati Urfas,"Urei Faisei Dua, Kec. Urei Faisei, Kabupaten Waropen, Papua 98261","Kec. Urei Faisei, Kabupaten Waropen",PAPUA,98261.0,Indonesia,81329417600.0,-2.2073912,136.4433758,https://maps.google.com/?cid=0x0:0x8056a065e1249145
hotel,hotel,Risei Sayati,"Kabupaten Waropen, Papua","Kabupaten Waropen, Papua",PAPUA,,Indonesia,,-2.5853714,136.8640458,https://maps.google.com/?cid=0x0:0x79e0df267d2a13e
hotel,Hotel,LAGALIGO PENGINAPAN,"Jalan poros SP V, Khemon Jaya, Kec. Urei Faisei, Kabupaten Waropen, Papua 98662","Khemon Jaya, Kec. Urei Faisei, Kabupaten Waropen",PAPUA,98662.0,Indonesia,85239145799.0,-2.2107184,136.4163856,https://maps.google.com/?cid=0x0:0x4724873fc7a6197b
hotel,hotel,Horison Inn Relat Jayapura,"Jl. Pantai Klp. No.21 - 23, Argapura, Distrik Jayapura Selatan, Kota Jayapura, Papua","Kota Jayapura, Papua",PAPUA,,Indonesia,9675160779.0,-2.5537101,140.7148929,https://maps.google.com/?cid=0x0:0xb98fc1bbb5c5c494
hotel,hotel,Hotel Maureen,"46GR+P4R, Jl. Sudirman, Serui Kota, Kec. Yapen Sel., Kabupaten Kepulauan Yapen, Papua 98213","Jl. Sudirman, Serui Kota, Kec. Yapen Sel., Kabupaten Kepulauan Yapen",PAPUA,98213.0,Indonesia,81354165909.0,-1.8731433,136.2401965,https://maps.google.com/?cid=0x0:0xb028b61c6c000d80
hotel,hotel,Kec. Urei Faisei,"Kabupaten Waropen, Papua","Kabupaten Waropen, Papua",PAPUA,,Indonesia,,-2.209971,136.4499194,https://maps.google.com/?cid=0x0:0xd94366d88a18b612
hotel,Hotel,HOTEL ELFANSO WIDURI,"Urei Faisei Dua, Kec. Urei Faisei, Kabupaten Waropen, Papua 98261","Kec. Urei Faisei, Kabupaten Waropen",PAPUA,98261.0,Indonesia,81280364323.0,-2.2130062,136.4439587,https://maps.google.com/?cid=0x0:0x91b0fa9d797f4c92
hotel,Hotel,Hotel Merpati Urfas,"Urei Faisei Dua, Kec. Urei Faisei, Kabupaten Waropen, Papua 98261","Kec. Urei Faisei, Kabupaten Waropen",PAPUA,98261.0,Indonesia,81329417600.0,-2.2073912,136.4433758,https://maps.google.com/?cid=0x0:0x8056a065e1249145
hotel,Motel,LBS,"Jln samratulangi Demisa, Aiboa/Epawa, Oadate, Kabupaten Waropen, Papua 98261","Aiboa/Epawa, Oadate, Kabupaten Waropen",PAPUA,98261.0,Indonesia,85353927191.0,-2.6524141,136.4370494,https://maps.google.com/?cid=0x0:0x85facf0cd455b591
hotel,hotel,Inggerus,"Kabupaten Waropen, Papua","Kabupaten Waropen, Papua",PAPUA,,Indonesia,,-2.7458074,136.4777687,https://maps.google.com/?cid=0x0:0x450866f7860e3381
hotel,hotel,Hotel berpati di Waropen,"5M4C+H6F, Firo, Inggerus, Kabupaten Waropen, Papua","Kabupaten Waropen, Papua",PAPUA,,Indonesia,,-2.8435717,136.670534,https://maps.google.com/?cid=0x0:0x9c5853f911bc7189
hotel,hotel,Papua 98263,"Kabupaten Waropen, Papua","Kabupaten Waropen, Papua",PAPUA,,Indonesia,,-2.8580182,136.9805103,https://maps.google.com/?cid=0x0:0xcb1ac3e3a0828ae1
hotel,hotel,RAFAEL INN TIMIKA,"Jl. Kelimutu, Kwamki, Kec. Mimika Baru, Kabupaten Mimika, Papua 99912","Kwamki, Kec. Mimika Baru, Kabupaten Mimika",PAPUA,99912.0,Indonesia,81222201567.0,-4.5369955,136.8758451,https://maps.google.com/?cid=0x0:0xb5f301a0d62aeed0
hotel,hotel,Asana Biak Papua,"Jl. M Yamin No.04, Mandala, Kec. Biak Kota, Kabupaten Biak Numfor, Papua 98111","Mandala, Kec. Biak Kota, Kabupaten Biak Numfor",PAPUA,98111.0,Indonesia,8114743111.0,-1.1918619,136.1049095,https://maps.google.com/?cid=0x0:0x94321ded15c5a4a3
hotel,hotel,Hotel R6,"Jl.Cendrawasih SP2, Papua 99952","Kabupaten Mimika, Papua",PAPUA,,Indonesia,82245112457.0,-4.538464,136.8691429,https://maps.google.com/?cid=0x0:0xb392d58fbaabfb69
hotel,hotel,HOMESTAY KARAWATU INN,"R39H+HC6, Jl. Dahlia, Burokub, Kec. Biak Kota, Kabupaten Biak Numfor, Papua 98111","Jl. Dahlia, Burokub, Kec. Biak Kota, Kabupaten Biak Numfor",PAPUA,98111.0,Indonesia,9812911069.0,-1.1810921,136.0785209,https://maps.google.com/?cid=0x0:0xa2c4864ec378cf15
hotel,hotel,Arumbai Hotel,"Jl. Imam Bonjol No.2, Fandoi, Kec. Biak Kota, Kabupaten Biak Numfor, Papua 98111","Fandoi, Kec. Biak Kota, Kabupaten Biak Numfor",PAPUA,98111.0,Indonesia,,-1.1831962,136.0817419,https://maps.google.com/?cid=0x0:0x92f1df543a771343
hotel,hotel,Hotel Karya Papua,"JGX6+2PM, Jl. R.E. Martadinata Kalinona, Nabarua, Distrik Nabire, Papua 98816","Jl. R.E. Martadinata Kalinona, Nabarua, Distrik Nabire",PAPUA,98816.0,Indonesia,82164655697.0,-3.3524082,135.5118114,https://maps.google.com/?cid=0x0:0x8196bf4b8aafbb3f
hotel,hotel,Hotel Sahid Papua,"Jl. Klp. 2 No.18, Entrop, Distrik Jayapura Selatan, Kota Jayapura, Papua 99221","Entrop, Distrik Jayapura Selatan, Kota Jayapura",PAPUA,99221.0,Indonesia,8114814009.0,-2.5661461,140.6996539,https://maps.google.com/?cid=0x0:0x9c8a2fd141b3aa33
hotel,hotel,Hotel Merpati,"Jl. Yos Sudarso, Serui Kota, Kec. Yapen Sel., Kabupaten Kepulauan Yapen, Papua 98215","Serui Kota, Kec. Yapen Sel., Kabupaten Kepulauan Yapen",PAPUA,98215.0,Indonesia,82359590808.0,-1.884878,136.2444474,https://maps.google.com/?cid=0x0:0xe3554649eda8754d
hotel,hotel,,,,PAPUA,,Indonesia,,,,https://maps.google.com/?cid=0x0:0x9c8a2fd141b3aa33%7C/g/11b73kkp76%7Cid-ID
hotel,hotel,Hotel Maureen,"46GR+P4R, Jl. Sudirman, Serui Kota, Kec. Yapen Sel., Kabupaten Kepulauan Yapen, Papua 98213","Jl. Sudirman, Serui Kota, Kec. Yapen Sel., Kabupaten Kepulauan Yapen",PAPUA,98213.0,Indonesia,81354165909.0,-1.8731433,136.2401965,https://maps.google.com/?cid=0x0:0xb028b61c6c000d80
hotel,hotel,Rimba Papua Hotel,"Jl. Kwamki Narama No. 1, Kwamki, Kec. Mimika Baru, Kabupaten Mimika, Papua 99971","Kwamki, Kec. Mimika Baru, Kabupaten Mimika",PAPUA,99971.0,Indonesia,901494949.0,-4.5151124,136.884599,https://maps.google.com/?cid=0x0:0xa65056700db32492
hotel,hotel,Horison Inn Relat Jayapura,"Jl. Pantai Klp. No.21 - 23, Argapura, Distrik Jayapura Selatan, Kota Jayapura, Papua","Kota Jayapura, Papua",PAPUA,,Indonesia,9675160779.0,-2.5537101,140.7148929,https://maps.google.com/?cid=0x0:0xb98fc1bbb5c5c494
hotel,hotel,Hotel Mahavira I,"Karang Mulia, Distrik Nabire, Kabupaten Nabire, Papua 98811","Distrik Nabire, Kabupaten Nabire",PAPUA,98811.0,Indonesia,,-3.3731863,135.5098879,https://maps.google.com/?cid=0x0:0xeffead9206fb0816
hotel,hotel,Papua,,Papua,PAPUA,,Indonesia,,-4.269928,138.0803529,https://maps.google.com/?cid=0x0:0xeba94e9c5eefe673
hotel,Hotel,Hotel Merpati Urfas,"Urei Faisei Dua, Kec. Urei Faisei, Kabupaten Waropen, Papua 98261","Kec. Urei Faisei, Kabupaten Waropen",PAPUA,98261.0,Indonesia,81329417600.0,-2.2073912,136.4433758,https://maps.google.com/?cid=0x0:0x8056a065e1249145
hotel,Hotel,HOTEL ELFANSO WIDURI,"Urei Faisei Dua, Kec. Urei Faisei, Kabupaten Waropen, Papua 98261","Kec. Urei Faisei, Kabupaten Waropen",PAPUA,98261.0,Indonesia,81280364323.0,-2.2130062,136.4439587,https://maps.google.com/?cid=0x0:0x91b0fa9d797f4c92
hotel,Tujuan Wisata,Pantai Sarawandori,"Sarawandori, Kabupaten Kepulauan Yapen, Papua 98215",Kabupaten Kepulauan Yapen,PAPUA,98215.0,Indonesia,,-1.8726789,136.1916924,https://maps.google.com/?cid=0x0:0x19b525c726fb1bc3
hotel,hotel,HOTEL PARKSIDE WAENA,"Jl. Raya Waena, Kp. Waena, Kec. Abepura, Kota Jayapura, Papua 99532","Kp. Waena, Kec. Abepura, Kota Jayapura",PAPUA,99532.0,Indonesia,8114829200.0,-2.5965369,140.6348713,https://maps.google.com/?cid=0x0:0xeecc070595c2799f
hotel,hotel,Pantai Base-G,"Tj. Ria, Kec. Jayapura Utara, Kota Jayapura, Papua","Kota Jayapura, Papua",PAPUA,,Indonesia,,-2.5174272,140.7397204,https://maps.google.com/?cid=0x0:0x9c239c300165aea7
hotel,hotel,"Swiss-Belhotel Jayapura, Papua","Pusat Bisnis Jayapura, Jl. Pacific Permai, Bayangkara, Kec. Jayapura Utara, Kota Jayapura, Papua 99112","Jl. Pacific Permai, Bayangkara, Kec. Jayapura Utara, Kota Jayapura",PAPUA,99112.0,Indonesia,967551888.0,-2.539046,140.711573,https://maps.google.com/?cid=0x0:0xbd14f75af0c6e48b
hotel,hotel,Horison Ultima Entrop,"Jl. Klp. 2, Entrop, Distrik Jayapura Selatan, Kota Jayapura, Papua 99224","Entrop, Distrik Jayapura Selatan, Kota Jayapura",PAPUA,99224.0,Indonesia,82248288877.0,-2.5691415,140.7031448,https://maps.google.com/?cid=0x0:0x606edeb95bbfcc9f
hotel,hotel,,,,PAPUA,,Indonesia,,,,https://maps.google.com/?cid=0x0:0xbd14f75af0c6e48b%7C/g/120xv389%7Cid-ID
hotel,Hotel,Entrop Kapsul Hotel,"Jl. Klp. 2, Entrop, Distrik Jayapura Selatan, Kota Jayapura, Papua 99224","Entrop, Distrik Jayapura Selatan, Kota Jayapura",PAPUA,99224.0,Indonesia,8114800588.0,-2.5676594,140.7017639,https://maps.google.com/?cid=0x0:0xd53f1049ff652d19
hotel,Tujuan Wisata,Pantai Nabire,"JFQV+GJQ, Distrik Nabire, Kabupaten Nabire, Papua","Kabupaten Nabire, Papua",PAPUA,,Indonesia,81286063601.0,-3.3611683,135.4941189,https://maps.google.com/?cid=0x0:0x7fa0779bf407a013
hotel,hotel,Hotel Grand Papua Nabire,"Jln christina martha tiahahu No.gang, Kalibobo, Klp. Dua, Kabupaten Nabire, Papua 98818","Kalibobo, Klp. Dua, Kabupaten Nabire",PAPUA,98818.0,Indonesia,811485907.0,-3.3671756,135.4846675,https://maps.google.com/?cid=0x0:0x3f34c171d042cba3
hotel,hotel,Hotel Karya Papua,"JGX6+2PM, Jl. R.E. Martadinata Kalinona, Nabarua, Distrik Nabire, Papua 98816","Jl. R.E. Martadinata Kalinona, Nabarua, Distrik Nabire",PAPUA,98816.0,Indonesia,82164655697.0,-3.3524082,135.5118114,https://maps.google.com/?cid=0x0:0x8196bf4b8aafbb3f
hotel,hotel,Hotel Maureen,"46GR+P4R, Jl. Sudirman, Serui Kota, Kec. Yapen Sel., Kabupaten Kepulauan Yapen, Papua 98213","Jl. Sudirman, Serui Kota, Kec. Yapen Sel., Kabupaten Kepulauan Yapen",PAPUA,98213.0,Indonesia,81354165909.0,-1.8731433,136.2401965,https://maps.google.com/?cid=0x0:0xb028b61c6c000d80
hotel,hotel,Papua 98861,"Kabupaten Nabire, Papua","Kabupaten Nabire, Papua",PAPUA,,Indonesia,,-3.1060477,135.9800848,https://maps.google.com/?cid=0x0:0x6de7561b85a7e092
hotel,hotel,Hotel Grand Papua Nabire,"Jln christina martha tiahahu No.gang, Kalibobo, Klp. Dua, Kabupaten Nabire, Papua 98818","Kalibobo, Klp. Dua, Kabupaten Nabire",PAPUA,98818.0,Indonesia,811485907.0,-3.3671756,135.4846675,https://maps.google.com/?cid=0x0:0x3f34c171d042cba3
hotel,hotel,Hotel Baliem Pilamo,"Jl. Trikora No.114, Wamena Kota, Distrik Wamena, Kabupaten Jayawijaya, Papua 99511","Wamena Kota, Distrik Wamena, Kabupaten Jayawijaya",PAPUA,99511.0,Indonesia,81344090719.0,-4.089872,138.9452891,https://maps.google.com/?cid=0x0:0x4c66aca0c6c4c202
hotel,hotel,The Baliem Valley Resort,"Desa Sekan Kecamatan Siepkosi, Pugima, Distrik Wamena, Kabupaten Jayawijaya, Papua 80034","Pugima, Distrik Wamena, Kabupaten Jayawijaya",PAPUA,80034.0,Indonesia,,-4.0595129,139.0293485,https://maps.google.com/?cid=0x0:0xa5f70df54e54f86c
hotel,hotel,Grand Baliem Hotel,"Jl. Sumbawa No.1, Wamena Kota, Wamena, Jayawijaya Regency, Papua 99511","Wamena Kota, Wamena, Jayawijaya Regency",PAPUA,99511.0,Indonesia,81211516887.0,-4.0970243,138.9489266,https://maps.google.com/?cid=0x0:0xd313b387275f5f0b
hotel,hotel,HOTEL CARMEL NABIRE,"depan lapangan futsal karya papua, Kalibobo, Distrik Nabire, Kabupaten Nabire, Papua 98818","Kalibobo, Distrik Nabire, Kabupaten Nabire",PAPUA,98818.0,Indonesia,,-3.3684894,135.4857691,https://maps.google.com/?cid=0x0:0x11d8009e440737e4
hotel,hotel,Hotel Grand Sartika,"WW2Q+GM5, Jl. Bayangkara, Hurekama, Distrik Wamena, Kabupaten Jayawijaya, Papua 99511","Jl. Bayangkara, Hurekama, Distrik Wamena, Kabupaten Jayawijaya",PAPUA,99511.0,Indonesia,96931723.0,-4.0989887,138.9395079,https://maps.google.com/?cid=0x0:0x6ff62b4e3628ae0b
hotel,hotel,Hotel Karya Papua,"JGX6+2PM, Jl. R.E. Martadinata Kalinona, Nabarua, Distrik Nabire, Papua 98816","Jl. R.E. Martadinata Kalinona, Nabarua, Distrik Nabire",PAPUA,98816.0,Indonesia,82164655697.0,-3.3524082,135.5118114,https://maps.google.com/?cid=0x0:0x8196bf4b8aafbb3f
hotel,hotel,Hotel Putri Dani,"Jl. Irian No.40, Hurekama, Distrik Wamena, Kabupaten Jayawijaya, Papua 99511","Hurekama, Distrik Wamena, Kabupaten Jayawijaya",PAPUA,99511.0,Indonesia,81315241808.0,-4.0957582,138.9392487,https://maps.google.com/?cid=0x0:0x8f74e0c2ea557b12
hotel,hotel,Hotel Rainbow,"Jl. Irian No.26, Wamena Kota, Distrik Wamena, Kabupaten Jayawijaya, Papua 99511","Wamena Kota, Distrik Wamena, Kabupaten Jayawijaya",PAPUA,99511.0,Indonesia,81248000685.0,-4.0943536,138.9419192,https://maps.google.com/?cid=0x0:0x8a8c32fe134fd547
hotel,hotel,Hotel Getz Nabire,"Jl. Merdeka No.16 I, Oyehe, Distrik Nabire, Kabupaten Nabire, Papua 98816","Oyehe, Distrik Nabire, Kabupaten Nabire",PAPUA,98816.0,Indonesia,81247569189.0,-3.3601669,135.5007178,https://maps.google.com/?cid=0x0:0xf8bbcc7a50b817c6
hotel,hotel,Yahor inn Hotel Nabire,"Jl. Mandala, Kalibobo, Distrik Nabire, Kabupaten Nabire, Papua 98818","Kalibobo, Distrik Nabire, Kabupaten Nabire",PAPUA,98818.0,Indonesia,8219092030.0,-3.3751714,135.4774701,https://maps.google.com/?cid=0x0:0x9aa5dbef6e871c35
hotel,hotel,Hotel Cartenz Wamena,"Jl. Yos Sudarso No.45, Hurekama, Distrik Wamena, Kabupaten Jayawijaya, Papua 99511","Hurekama, Distrik Wamena, Kabupaten Jayawijaya",PAPUA,99511.0,Indonesia,81344804750.0,-4.1012558,138.9376982,https://maps.google.com/?cid=0x0:0xf2c5765f17cbf383
hotel,hotel,Hotel Anggrek,"Jl. Ambon No.1, Wamena Kota, Distrik Wamena, Kabupaten Jayawijaya, Papua 99511","Wamena Kota, Distrik Wamena, Kabupaten Jayawijaya",PAPUA,99511.0,Indonesia,,-4.0951401,138.9486951,https://maps.google.com/?cid=0x0:0x8c14510cd7032458
hotel,Rumah wisata,Hotel Delafista,"Jl. Kusuma Bangsa, Kali Susu, Distrik Nabire, Kabupaten Nabire, Papua 98817","Kali Susu, Distrik Nabire, Kabupaten Nabire",PAPUA,98817.0,Indonesia,81247474763.0,-3.3563968,135.5104771,https://maps.google.com/?cid=0x0:0x1a6c2ed5debdcb07
hotel,Hotel,Filadelfia homestay,"JGQ3+QHW, Kali Susu, Distrik Nabire, Kabupaten Nabire, Papua 98811","Kali Susu, Distrik Nabire, Kabupaten Nabire",PAPUA,98811.0,Indonesia,,-3.3605789,135.5037946,https://maps.google.com/?cid=0x0:0x7af029bd03cdc00b
hotel,hotel,Masirei,"Kabupaten Waropen, Papua","Kabupaten Waropen, Papua",PAPUA,,Indonesia,,-2.5326635,137.0193913,https://maps.google.com/?cid=0x0:0xef8885c7f7c8ae85
hotel,hotel,Arumbai Hotel,"Jl. Imam Bonjol No.2, Fandoi, Kec. Biak Kota, Kabupaten Biak Numfor, Papua 98111","Fandoi, Kec. Biak Kota, Kabupaten Biak Numfor",PAPUA,98111.0,Indonesia,,-1.1831962,136.0817419,https://maps.google.com/?cid=0x0:0x92f1df543a771343
hotel,hotel,Rimba Papua Hotel,"Jl. Kwamki Narama No. 1, Kwamki, Kec. Mimika Baru, Kabupaten Mimika, Papua 99971","Kwamki, Kec. Mimika Baru, Kabupaten Mimika",PAPUA,99971.0,Indonesia,901494949.0,-4.5151124,136.884599,https://maps.google.com/?cid=0x0:0xa65056700db32492
hotel,hotel,Hotel Maureen,"46GR+P4R, Jl. Sudirman, Serui Kota, Kec. Yapen Sel., Kabupaten Kepulauan Yapen, Papua 98213","Jl. Sudirman, Serui Kota, Kec. Yapen Sel., Kabupaten Kepulauan Yapen",PAPUA,98213.0,Indonesia,81354165909.0,-1.8731433,136.2401965,https://maps.google.com/?cid=0x0:0xb028b61c6c000d80
hotel,hotel,Hotel Mapia,"Jl. Jend. Ahmad Yani No.23, Mandala, Kec. Biak Kota, Kabupaten Biak Numfor, Papua 98111","Mandala, Kec. Biak Kota, Kabupaten Biak Numfor",PAPUA,98111.0,Indonesia,98121383.0,-1.1848375,136.0856602,https://maps.google.com/?cid=0x0:0x15f6e40202cd7120
hotel,hotel,Hotel Mahavira I,"Karang Mulia, Distrik Nabire, Kabupaten Nabire, Papua 98811","Distrik Nabire, Kabupaten Nabire",PAPUA,98811.0,Indonesia,,-3.3731863,135.5098879,https://maps.google.com/?cid=0x0:0xeffead9206fb0816
hotel,hotel,Hotel Manna,"Jl. Imam Bonjol, Fandoi, Biak Papua, Kabupaten Biak Numfor, Papua 98112","Fandoi, Biak Papua, Kabupaten Biak Numfor",PAPUA,98112.0,Indonesia,98122224.0,-1.1808075,136.0821667,https://maps.google.com/?cid=0x0:0x58ba27a7cb3a5bd6
hotel,hotel,Hotel Greend Idaman,"Persatuan, Kec. Mandobo, Kabupaten Boven Digoel, Papua 99663","Kec. Mandobo, Kabupaten Boven Digoel",PAPUA,99663.0,Indonesia,82229338883.0,-6.1143736,140.3221803,https://maps.google.com/?cid=0x0:0x7e63bcf9bd853452
hotel,hotel,MARANNU HOTEL,"Atsy, Kabupaten Asmat, Papua 99776",Kabupaten Asmat,PAPUA,99776.0,Indonesia,,-5.7342393,138.3857665,https://maps.google.com/?cid=0x0:0xf7641c8f50c5152d
hotel,hotel,Papua 98263,"Kabupaten Waropen, Papua","Kabupaten Waropen, Papua",PAPUA,,Indonesia,,-2.8580182,136.9805103,https://maps.google.com/?cid=0x0:0xcb1ac3e3a0828ae1
restaurant,restaurant,Kec. Waropen Bawah,"Kabupaten Waropen, Papua","Kabupaten Waropen, Papua",PAPUA,,Indonesia,,-2.2420315,136.3794418,https://maps.google.com/?cid=0x0:0x9b57b47411779662
restaurant,Rumah Makan,cafe UJM Waropen Papua,"QCR8+5C7, Kemon Jaya Sp V, Kec. Urei Faisei, Kabupaten Waropen, Papua 98261","Kemon Jaya Sp V, Kec. Urei Faisei, Kabupaten Waropen",PAPUA,98261.0,Indonesia,,-2.2095908,136.4160381,https://maps.google.com/?cid=0x0:0x8902420b92236840
restaurant,Rumah Makan,SAFIA KITCHEN,"Jl, Nonomi, Kec. Waropen Bawah, Kabupaten Waropen, Papua 98261","Nonomi, Kec. Waropen Bawah, Kabupaten Waropen",PAPUA,98261.0,Indonesia,,-2.2348345,136.3811871,https://maps.google.com/?cid=0x0:0xb3cbc4e852ec3e9f
restaurant,Brunch,Rumah Makan Sulawesi,"Q98J+CRG, Jln poros waren-urfas, Nonomi, Kec. Waropen Bawah, Kabupaten Waropen, Papua 98261","Jln poros waren-urfas, Nonomi, Kec. Waropen Bawah, Kabupaten Waropen",PAPUA,98261.0,Indonesia,81344620886.0,-2.2339251,136.3820659,https://maps.google.com/?cid=0x0:0xafe62e912aeb3578
restaurant,Rumah Makan,Kemon jaya,"QCP8+MP3, Kemon Jaya Sp V, Kec. Urei Faisei, Kabupaten Waropen, Papua 98261","Kemon Jaya Sp V, Kec. Urei Faisei, Kabupaten Waropen",PAPUA,98261.0,Indonesia,,-2.214062,136.417364,https://maps.google.com/?cid=0x0:0xe856e7f344d367fe
restaurant,Nasi,Warung bintang timur,"QCV9+CWM, Kemon Jaya Sp V, Kec. Urei Faisei, Kabupaten Waropen, Papua 98261","Kemon Jaya Sp V, Kec. Urei Faisei, Kabupaten Waropen",PAPUA,98261.0,Indonesia,,-2.206419,136.4197968,https://maps.google.com/?cid=0x0:0xc686402bfd25f1dd
restaurant,Rumah Makan,RM. Pringgodani,"QCR8+43G, Kemon Jaya Sp V, Kec. Urei Faisei, Kabupaten Waropen, Papua 98261","Kemon Jaya Sp V, Kec. Urei Faisei, Kabupaten Waropen",PAPUA,98261.0,Indonesia,,-2.2096927,136.4152133,https://maps.google.com/?cid=0x0:0x5cc1016b6971bb7f
restaurant,Ayam,Bakso Sulung,"QCFC+3RG, Usaiwa, urei faisei, Batu Zaman, Kec. Waropen Bawah, Kabupaten Waropen, Papua 98271","Usaiwa, urei faisei, Batu Zaman, Kec. Waropen Bawah, Kabupaten Waropen",PAPUA,98271.0,Indonesia,,-2.2273128,136.4220931,https://maps.google.com/?cid=0x0:0xf4ca8daf08a32407
restaurant,Rumah Makan,WARUNG SEDERHANA,"QCR8+43X, Kemon Jaya Sp V, Kec. Urei Faisei, Kabupaten Waropen, Papua","Kabupaten Waropen, Papua",PAPUA,,Indonesia,,-2.2096396,136.4152311,https://maps.google.com/?cid=0x0:0x3a291e6bdd003ce7
restaurant,Toko Pakaian,Rebellion Cafe  Boutique,"Jl. Poros SMA N Waren No.420, Sawara Jaya Sp VI, Kec. Waropen Bawah, Kabupaten Waropen, Papua 98261","Sawara Jaya Sp VI, Kec. Waropen Bawah, Kabupaten Waropen",PAPUA,98261.0,Indonesia,8114914567.0,-2.261715,136.344696,https://maps.google.com/?cid=0x0:0xda72ecdb91bd2adf
restaurant,Rumah Makan,Warung Makan Segeri,"QCV9+5F7, Jl. Batupapan, Kemon Jaya Sp V, Kec. Urei Faisei, Kabupaten Waropen, Papua 98261","Jl. Batupapan, Kemon Jaya Sp V, Kec. Urei Faisei, Kabupaten Waropen",PAPUA,98261.0,Indonesia,82198369836.0,-2.2070744,136.4186797,https://maps.google.com/?cid=0x0:0x27f457fb279c5891
restaurant,Brunch,Gado-gado mbak AYU,"QCCC+WW2, Batu Zaman, Kec. Waropen Bawah, Kabupaten Waropen, Papua 98261","Batu Zaman, Kec. Waropen Bawah, Kabupaten Waropen",PAPUA,98261.0,Indonesia,,-2.2277296,136.4222564,https://maps.google.com/?cid=0x0:0x78a310dd6721ebc7
restaurant,Dapur Umum,Kitchen Ompal,"Q93G+Q9P, Waren Dua, Kec. Waropen Bawah, Kabupaten Waropen, Papua 98261","Waren Dua, Kec. Waropen Bawah, Kabupaten Waropen",PAPUA,98261.0,Indonesia,82262209942.0,-2.2455304,136.375944,https://maps.google.com/?cid=0x0:0xf3a6fa220e25911e
restaurant,Dapur Umum,Warung Bakso nonomi,"Nonomi, Kec. Waropen Bawah, Kabupaten Waropen, Papua 98261","Kec. Waropen Bawah, Kabupaten Waropen",PAPUA,98261.0,Indonesia,,-2.2295397,136.3858974,https://maps.google.com/?cid=0x0:0xa7775069621c2480
restaurant,restaurant,Masirei,"Kabupaten Waropen, Papua","Kabupaten Waropen, Papua",PAPUA,,Indonesia,,-2.5326635,137.0193913,https://maps.google.com/?cid=0x0:0xef8885c7f7c8ae85
restaurant,Hidangan Laut,B-One Restaurant,"FP45+5CR, Numbai, Distrik Jayapura Selatan, Kota Jayapura, Papua 99222","Numbai, Distrik Jayapura Selatan, Kota Jayapura",PAPUA,99222.0,Indonesia,81344533058.0,-2.5445125,140.7085143,https://maps.google.com/?cid=0x0:0xb8053f84d614fc3e
restaurant,Rumah Makan,RestoCafe Rumah Laut,"Jl. Koti, Numbai, Distrik Jayapura Selatan, Kota Jayapura, Papua 99222","Numbai, Distrik Jayapura Selatan, Kota Jayapura",PAPUA,99222.0,Indonesia,9675160842.0,-2.5443152,140.7078561,https://maps.google.com/?cid=0x0:0xa0b850e17d17f09d
restaurant,Ikan Bakar,Resto Jangkar,"Jl. Yos Sudarso, Nawaripi, Kec. Mimika Baru, Kabupaten Mimika, Papua 99971","Nawaripi, Kec. Mimika Baru, Kabupaten Mimika",PAPUA,99971.0,Indonesia,82238302339.0,-4.5681968,136.8865993,https://maps.google.com/?cid=0x0:0x73ed65e33721012a
restaurant,Restoran,Rumah Makan Firkha,"Unnamed Road, Sel., Papua Bar. 98482, Waisai, Waigeo Selatan, Raja Ampat Regency, West Papua 98482","Sel., Papua Bar.",PAPUA,98482.0,Indonesia,81248958330.0,-0.4105585,130.8154948,https://maps.google.com/?cid=0x0:0x343296861e6e6914
restaurant,Restoran,So Yummy Resto,"FV3Q+QR9, Kwamki, Kec. Mimika Baru, Kabupaten Mimika, Papua 99971","Kwamki, Kec. Mimika Baru, Kabupaten Mimika",PAPUA,99971.0,Indonesia,81240005760.0,-4.5455973,136.8896159,https://maps.google.com/?cid=0x0:0xad18f6a2fb6ee6f8
restaurant,Hidangan Laut,Republik Seafood,"Sawagumu, Kec. Sorong Utara, Kota Sorong, Papua Bar. 98412","Kec. Sorong Utara, Kota Sorong",PAPUA,98412.0,Indonesia,81344615005.0,-0.8883945,131.3109228,https://maps.google.com/?cid=0x0:0xec5acb934a352d67
restaurant,Mesin Sangrai Kopi,Alenia Papua Coffee  Kitchen,"Jl. Kemang Raya No.66 B 8, RT.8/RW.2, Bangka, Kec. Mampang Prpt., Kota Jakarta Selatan, Daerah Khusus Ibukota Jakarta 12730","RT.8/RW.2, Bangka, Kec. Mampang Prpt., Kota Jakarta Selatan",PAPUA,12730.0,Indonesia,2171790141.0,-6.2638119,106.8158777,https://maps.google.com/?cid=0x0:0xe49807fcfab68b48
restaurant,Restoran,Restaurant Yougwa,"CJ63+H23, Jl. Raya Abepura - Sentani, Asei Kecil, Kec. Sentani Tim., Kabupaten Jayapura, Papua 99351","Jl. Raya Abepura - Sentani, Asei Kecil, Kec. Sentani Tim., Kabupaten Jayapura",PAPUA,99351.0,Indonesia,8114801448.0,-2.5886245,140.602559,https://maps.google.com/?cid=0x0:0x65e60fc66014e79c
restaurant,Sulawesi Selatan,Coto Mangkasara Galaxy,"FV4M+XVR, Kwamki, Kec. Mimika Baru, Kabupaten Mimika, Papua 99971","Kwamki, Kec. Mimika Baru, Kabupaten Mimika",PAPUA,99971.0,Indonesia,,-4.5425091,136.8846267,https://maps.google.com/?cid=0x0:0x5fb4274cfb32211d
restaurant,Hidangan Laut,Restoran Kitamurae,"JFQX+VFF, Jl. Yos Sudarso, Oyehe, Distrik Nabire, Kabupaten Nabire, Papua 98811","Jl. Yos Sudarso, Oyehe, Distrik Nabire, Kabupaten Nabire",PAPUA,98811.0,Indonesia,,-3.3602385,135.4986694,https://maps.google.com/?cid=0x0:0x89fab04009b2a705
restaurant,Masakan Asia,RM Kuala Oriental,"Jl. Budi Utomo No.88A, Kwamki, Kec. Mimika Baru, Kabupaten Mimika, Papua 99971","Kwamki, Kec. Mimika Baru, Kabupaten Mimika",PAPUA,99971.0,Indonesia,81224989888.0,-4.5432787,136.8840215,https://maps.google.com/?cid=0x0:0xa200bb016a6f04d5
restaurant,Mi,Mandala Sentani,"CGM6+RFC, Jl. Raya Kemiri, Hinekombe, Kec. Sentani, Kabupaten Jayapura, Papua 99359","Jl. Raya Kemiri, Hinekombe, Kec. Sentani, Kabupaten Jayapura",PAPUA,99359.0,Indonesia,9675191911.0,-2.5654544,140.5110728,https://maps.google.com/?cid=0x0:0x7b5dba085f85a8f9
restaurant,Rumah Makan,Rumah Makan Sendok Garpu Jayapura,"Jl. Raya Abepura-Kotaraja Kota Baru, Wai Mhorock, Kec. Abepura, Kota Jayapura, Papua 99225","Wai Mhorock, Kec. Abepura, Kota Jayapura",PAPUA,99225.0,Indonesia,82310000123.0,-2.6057136,140.6694308,https://maps.google.com/?cid=0x0:0x9b347169a4f00047
restaurant,restaurant,Risei Sayati,"Kabupaten Waropen, Papua","Kabupaten Waropen, Papua",PAPUA,,Indonesia,,-2.5853714,136.8640458,https://maps.google.com/?cid=0x0:0x79e0df267d2a13e
restaurant,Kedai Kopi,Ghaiwando Caffe Outdoor,"MHGF+FHJ, Wobari, Risei Sayati, Kabupaten Waropen, Papua","Kabupaten Waropen, Papua",PAPUA,,Indonesia,,-2.3237858,136.5738995,https://maps.google.com/?cid=0x0:0xdb304f4a78fdf2f1
restaurant,Rumah Makan,SAFIA KITCHEN,"Jl, Nonomi, Kec. Waropen Bawah, Kabupaten Waropen, Papua 98261","Nonomi, Kec. Waropen Bawah, Kabupaten Waropen",PAPUA,98261.0,Indonesia,,-2.2348345,136.3811871,https://maps.google.com/?cid=0x0:0xb3cbc4e852ec3e9f
restaurant,Rumah Makan,RM. Pringgodani,"QCR8+43G, Kemon Jaya Sp V, Kec. Urei Faisei, Kabupaten Waropen, Papua 98261","Kemon Jaya Sp V, Kec. Urei Faisei, Kabupaten Waropen",PAPUA,98261.0,Indonesia,,-2.2096927,136.4152133,https://maps.google.com/?cid=0x0:0x5cc1016b6971bb7f
restaurant,Rumah Makan,Warung Makan Segeri,"QCV9+5F7, Jl. Batupapan, Kemon Jaya Sp V, Kec. Urei Faisei, Kabupaten Waropen, Papua 98261","Jl. Batupapan, Kemon Jaya Sp V, Kec. Urei Faisei, Kabupaten Waropen",PAPUA,98261.0,Indonesia,82198369836.0,-2.2070744,136.4186797,https://maps.google.com/?cid=0x0:0x27f457fb279c5891
restaurant,Rumah Makan,cafe UJM Waropen Papua,"QCR8+5C7, Kemon Jaya Sp V, Kec. Urei Faisei, Kabupaten Waropen, Papua 98261","Kemon Jaya Sp V, Kec. Urei Faisei, Kabupaten Waropen",PAPUA,98261.0,Indonesia,,-2.2095908,136.4160381,https://maps.google.com/?cid=0x0:0x8902420b92236840
restaurant,Rumah Makan,Kemon jaya,"QCP8+MP3, Kemon Jaya Sp V, Kec. Urei Faisei, Kabupaten Waropen, Papua 98261","Kemon Jaya Sp V, Kec. Urei Faisei, Kabupaten Waropen",PAPUA,98261.0,Indonesia,,-2.214062,136.417364,https://maps.google.com/?cid=0x0:0xe856e7f344d367fe
restaurant,Martabak,Waiter's Food,"QFR2+G2M, Ureifasei Tiga/Paradoi, Kec. Urei Faisei, Kabupaten Waropen, Papua","Kabupaten Waropen, Papua",PAPUA,,Indonesia,85244541720.0,-2.2086557,136.450046,https://maps.google.com/?cid=0x0:0x97bbfbe3793a4fbb
restaurant,Rumah Makan,WARUNG SEDERHANA,"QCR8+43X, Kemon Jaya Sp V, Kec. Urei Faisei, Kabupaten Waropen, Papua","Kabupaten Waropen, Papua",PAPUA,,Indonesia,,-2.2096396,136.4152311,https://maps.google.com/?cid=0x0:0x3a291e6bdd003ce7
restaurant,Rumah Makan,Warung makan mbak AYU,"PCP8+MQ3, Jalan poros spv, Botawa, Kec. Urei Faisei, Kabupaten Waropen, Papua","Kabupaten Waropen, Papua",PAPUA,,Indonesia,,-2.2633621,136.4169369,https://maps.google.com/?cid=0x0:0x619a85f3572a8ef8
restaurant,Ayam,Warung makan celebes,"Q94H+VVJ, Waren Satu, Kec. Waropen Bawah, Kabupaten Waropen, Papua 98261","Waren Satu, Kec. Waropen Bawah, Kabupaten Waropen",PAPUA,98261.0,Indonesia,,-2.2425449,136.3789384,https://maps.google.com/?cid=0x0:0xd43171da454d8c24
restaurant,Brunch,Rumah Makan Sulawesi,"Q98J+CRG, Jln poros waren-urfas, Nonomi, Kec. Waropen Bawah, Kabupaten Waropen, Papua 98261","Jln poros waren-urfas, Nonomi, Kec. Waropen Bawah, Kabupaten Waropen",PAPUA,98261.0,Indonesia,81344620886.0,-2.2339251,136.3820659,https://maps.google.com/?cid=0x0:0xafe62e912aeb3578
restaurant,Nasi,Warung bintang timur,"QCV9+CWM, Kemon Jaya Sp V, Kec. Urei Faisei, Kabupaten Waropen, Papua 98261","Kemon Jaya Sp V, Kec. Urei Faisei, Kabupaten Waropen",PAPUA,98261.0,Indonesia,,-2.206419,136.4197968,https://maps.google.com/?cid=0x0:0xc686402bfd25f1dd
restaurant,Kafe,AUSIWERINI,"QFQ4+3X7, Unnamed Road, Nubuai, Kec. Urei Faisei, Kabupaten Waropen, Papua 98261","Unnamed Road, Nubuai, Kec. Urei Faisei, Kabupaten Waropen",PAPUA,98261.0,Indonesia,,-2.2123375,136.4574074,https://maps.google.com/?cid=0x0:0xd44a7552f7501b2a
restaurant,restaurant,Kec. Urei Faisei,"Kabupaten Waropen, Papua","Kabupaten Waropen, Papua",PAPUA,,Indonesia,,-2.209971,136.4499194,https://maps.google.com/?cid=0x0:0xd94366d88a18b612
restaurant,Rumah Makan,Warung Makan Segeri,"QCV9+5F7, Jl. Batupapan, Kemon Jaya Sp V, Kec. Urei Faisei, Kabupaten Waropen, Papua 98261","Jl. Batupapan, Kemon Jaya Sp V, Kec. Urei Faisei, Kabupaten Waropen",PAPUA,98261.0,Indonesia,82198369836.0,-2.2070744,136.4186797,https://maps.google.com/?cid=0x0:0x27f457fb279c5891
restaurant,Nasi,Warung bintang timur,"QCV9+CWM, Kemon Jaya Sp V, Kec. Urei Faisei, Kabupaten Waropen, Papua 98261","Kemon Jaya Sp V, Kec. Urei Faisei, Kabupaten Waropen",PAPUA,98261.0,Indonesia,,-2.206419,136.4197968,https://maps.google.com/?cid=0x0:0xc686402bfd25f1dd
restaurant,Rumah Makan,RM. Pringgodani,"QCR8+43G, Kemon Jaya Sp V, Kec. Urei Faisei, Kabupaten Waropen, Papua 98261","Kemon Jaya Sp V, Kec. Urei Faisei, Kabupaten Waropen",PAPUA,98261.0,Indonesia,,-2.2096927,136.4152133,https://maps.google.com/?cid=0x0:0x5cc1016b6971bb7f
restaurant,Martabak,Waiter's Food,"QFR2+G2M, Ureifasei Tiga/Paradoi, Kec. Urei Faisei, Kabupaten Waropen, Papua","Kabupaten Waropen, Papua",PAPUA,,Indonesia,85244541720.0,-2.2086557,136.450046,https://maps.google.com/?cid=0x0:0x97bbfbe3793a4fbb
restaurant,Kafe,AUSIWERINI,"QFQ4+3X7, Unnamed Road, Nubuai, Kec. Urei Faisei, Kabupaten Waropen, Papua 98261","Unnamed Road, Nubuai, Kec. Urei Faisei, Kabupaten Waropen",PAPUA,98261.0,Indonesia,,-2.2123375,136.4574074,https://maps.google.com/?cid=0x0:0xd44a7552f7501b2a
restaurant,Rumah Makan,WARUNG SEDERHANA,"QCR8+43X, Kemon Jaya Sp V, Kec. Urei Faisei, Kabupaten Waropen, Papua","Kabupaten Waropen, Papua",PAPUA,,Indonesia,,-2.2096396,136.4152311,https://maps.google.com/?cid=0x0:0x3a291e6bdd003ce7
restaurant,Rumah Makan,Kemon jaya,"QCP8+MP3, Kemon Jaya Sp V, Kec. Urei Faisei, Kabupaten Waropen, Papua 98261","Kemon Jaya Sp V, Kec. Urei Faisei, Kabupaten Waropen",PAPUA,98261.0,Indonesia,,-2.214062,136.417364,https://maps.google.com/?cid=0x0:0xe856e7f344d367fe
restaurant,Restoran,MANIS MANJA,"QCVQ+G6W, Ureifaisei Satu/Sanggei, Kec. Urei Faisei, Kabupaten Waropen, Papua 98261","Ureifaisei Satu/Sanggei, Kec. Urei Faisei, Kabupaten Waropen",PAPUA,98261.0,Indonesia,81391264543.0,-2.2061469,136.4380911,https://maps.google.com/?cid=0x0:0xb430b6a2f946cffc
restaurant,Ayam,Bakso Sulung,"QCFC+3RG, Usaiwa, urei faisei, Batu Zaman, Kec. Waropen Bawah, Kabupaten Waropen, Papua 98271","Usaiwa, urei faisei, Batu Zaman, Kec. Waropen Bawah, Kabupaten Waropen",PAPUA,98271.0,Indonesia,,-2.2273128,136.4220931,https://maps.google.com/?cid=0x0:0xf4ca8daf08a32407
restaurant,Rumah Kaca,Cafe Pasaden@ Urfas 3,"QCVM+R8G, Unnamed Road, Mambui, Kec. Urei Faisei, Kabupaten Waropen, Papua 98261","Unnamed Road, Mambui, Kec. Urei Faisei, Kabupaten Waropen",PAPUA,98261.0,Indonesia,81342088282.0,-2.205447,136.433335,https://maps.google.com/?cid=0x0:0x5799ac3ce9026d57
restaurant,Rumah Makan,Rumah makan,"QCP8+MP3, Kemon Jaya Sp V, Kec. Urei Faisei, Kabupaten Waropen, Papua 98261","Kemon Jaya Sp V, Kec. Urei Faisei, Kabupaten Waropen",PAPUA,98261.0,Indonesia,,-2.2140649,136.4173409,https://maps.google.com/?cid=0x0:0x2d4fae651be1463b
restaurant,restaurant,ISTANA KUE DAN CAFE,"QFQ3+5H8, Nubuai, Kec. Urei Faisei, Kabupaten Waropen, Papua 98261","Nubuai, Kec. Urei Faisei, Kabupaten Waropen",PAPUA,98261.0,Indonesia,,-2.2120982,136.4539474,https://maps.google.com/?cid=0x0:0x66874e26ec30cc04
restaurant,Rumah Makan,Warung makan mbak AYU,"PCP8+MQ3, Jalan poros spv, Botawa, Kec. Urei Faisei, Kabupaten Waropen, Papua","Kabupaten Waropen, Papua",PAPUA,,Indonesia,,-2.2633621,136.4169369,https://maps.google.com/?cid=0x0:0x619a85f3572a8ef8
restaurant,restaurant,Inggerus,"Kabupaten Waropen, Papua","Kabupaten Waropen, Papua",PAPUA,,Indonesia,,-2.7458074,136.4777687,https://maps.google.com/?cid=0x0:0x450866f7860e3381
restaurant,restaurant,Cafe Anzhar Lazhar kitchen,"5M4C+H6F, Firo, Inggerus, Kabupaten Waropen, Papua","Kabupaten Waropen, Papua",PAPUA,,Indonesia,,-2.8435717,136.670534,https://maps.google.com/?cid=0x0:0x5f0dd9ccf54016a8
restaurant,Restoran,Haven Kitchen  Bar,"9 Old Post Rd, Lopez Island, WA 98261, Amerika Serikat","Lopez Island, WA",PAPUA,98261.0,Indonesia,13604683272.0,48.5238563,-122.9153945,https://maps.google.com/?cid=0x0:0xf0db583d6fa3b8e6
restaurant,Masakan Pasifik Barat Laut,Setsunai,"45 Eads Ln, Lopez Island, WA 98261, Amerika Serikat","Lopez Island, WA",PAPUA,98261.0,Indonesia,13602989052.0,48.5243274,-122.9133083,https://maps.google.com/?cid=0x0:0x47429c7014b19251
restaurant,Kafe,Vita's Wildly Delicious,"77 Village Rd, Lopez Island, WA 98261, Amerika Serikat","Lopez Island, WA",PAPUA,98261.0,Indonesia,13604684268.0,48.524288,-122.9125809,https://maps.google.com/?cid=0x0:0xee8af20c17d96e1e
restaurant,Masakan Amerika Modern,Islander Bar and Grill,"2864 Fisherman Bay Rd, Lopez Island, WA 98261, Amerika Serikat","Lopez Island, WA",PAPUA,98261.0,Indonesia,13604682234.0,48.5132588,-122.9132329,https://maps.google.com/?cid=0x0:0xde338f79bd5f144b
restaurant,restaurant,Papua 98263,"Kabupaten Waropen, Papua","Kabupaten Waropen, Papua",PAPUA,,Indonesia,,-2.8580182,136.9805103,https://maps.google.com/?cid=0x0:0xcb1ac3e3a0828ae1
restaurant,restaurant,Cafe Anzhar Lazhar kitchen,"5M4C+H6F, Firo, Inggerus, Kabupaten Waropen, Papua","Kabupaten Waropen, Papua",PAPUA,,Indonesia,,-2.8435717,136.670534,https://maps.google.com/?cid=0x0:0x5f0dd9ccf54016a8
restaurant,Restoran,Restaurant Yougwa,"CJ63+H23, Jl. Raya Abepura - Sentani, Asei Kecil, Kec. Sentani Tim., Kabupaten Jayapura, Papua 99351","Jl. Raya Abepura - Sentani, Asei Kecil, Kec. Sentani Tim., Kabupaten Jayapura",PAPUA,99351.0,Indonesia,8114801448.0,-2.5886245,140.602559,https://maps.google.com/?cid=0x0:0x65e60fc66014e79c
restaurant,Kafe,Ghaiwando,"MJJF+X3, Wobari, Risei Sayati, Kabupaten Waropen, Papua","Kabupaten Waropen, Papua",PAPUA,,Indonesia,,-2.3175658,136.622748,https://maps.google.com/?cid=0x0:0xf3954c1dc915643c
restaurant,Rumah Makan,Warung makan mbak AYU,"PCP8+MQ3, Jalan poros spv, Botawa, Kec. Urei Faisei, Kabupaten Waropen, Papua","Kabupaten Waropen, Papua",PAPUA,,Indonesia,,-2.2633621,136.4169369,https://maps.google.com/?cid=0x0:0x619a85f3572a8ef8
restaurant,Rumah Makan,RestoCafe Rumah Laut,"Jl. Koti, Numbai, Distrik Jayapura Selatan, Kota Jayapura, Papua 99222","Numbai, Distrik Jayapura Selatan, Kota Jayapura",PAPUA,99222.0,Indonesia,9675160842.0,-2.5443152,140.7078561,https://maps.google.com/?cid=0x0:0xa0b850e17d17f09d
restaurant,Hidangan Laut,B-One Restaurant,"FP45+5CR, Numbai, Distrik Jayapura Selatan, Kota Jayapura, Papua 99222","Numbai, Distrik Jayapura Selatan, Kota Jayapura",PAPUA,99222.0,Indonesia,81344533058.0,-2.5445125,140.7085143,https://maps.google.com/?cid=0x0:0xb8053f84d614fc3e
restaurant,Rumah Makan,Rumah Makan Sendok Garpu Jayapura,"Jl. Raya Abepura-Kotaraja Kota Baru, Wai Mhorock, Kec. Abepura, Kota Jayapura, Papua 99225","Wai Mhorock, Kec. Abepura, Kota Jayapura",PAPUA,99225.0,Indonesia,82310000123.0,-2.6057136,140.6694308,https://maps.google.com/?cid=0x0:0x9b347169a4f00047
restaurant,Restoran,Restoran Pinang Sirih,"F9WW+QV2, Jl. Sesate, Bambu Pemali, Kec. Merauke, Kabupaten Merauke, Papua 99614","Jl. Sesate, Bambu Pemali, Kec. Merauke, Kabupaten Merauke",PAPUA,99614.0,Indonesia,82132128881.0,-8.5030737,140.3966377,https://maps.google.com/?cid=0x0:0x7c98c0bee5496ce9
restaurant,restaurant,Sangam Varma,"54CW+M9P, Didiwoi, Walani, Kabupaten Waropen, Papua 98263","Didiwoi, Walani, Kabupaten Waropen",PAPUA,98263.0,Indonesia,,-2.8282879,137.1459597,https://maps.google.com/?cid=0x0:0x4ee2ecce64bae81c
restaurant,restaurant,Kirihi,"Kabupaten Waropen, Papua","Kabupaten Waropen, Papua",PAPUA,,Indonesia,,-3.0261206,136.7478493,https://maps.google.com/?cid=0x0:0x2d36f2f348b9a54e
restaurant,Restoran,Kiri Restaurant,"F8Q7+W6M, Krong Kaeb, Kamboja","Krong Kaeb, Kamboja",PAPUA,,Indonesia,85598359704.0,10.4898444,104.3130512,https://maps.google.com/?cid=0x0:0x98f2087d6a1c4e30
restaurant,Jepang,Ironiku Japanese Restaurant,"Jl. Ciranjang No.7 2, RT.2/RW.1, Rw. Bar., Kec. Kby. Baru, Kota Jakarta Selatan, Daerah Khusus Ibukota Jakarta 12180","RT.2/RW.1, Rw. Bar., Kec. Kby. Baru, Kota Jakarta Selatan",PAPUA,12180.0,Indonesia,81356583333.0,-6.2382342,106.8110066,https://maps.google.com/?cid=0x0:0x66da2eb388191ec2
restaurant,restaurant,Papua 98262,"Kabupaten Mamberamo Raya, Papua","Kabupaten Mamberamo Raya, Papua",PAPUA,,Indonesia,,-2.4075711,137.6061625,https://maps.google.com/?cid=0x0:0xcf10b52983f1589a
restaurant,Rumah Makan,cafe UJM Waropen Papua,"QCR8+5C7, Kemon Jaya Sp V, Kec. Urei Faisei, Kabupaten Waropen, Papua 98261","Kemon Jaya Sp V, Kec. Urei Faisei, Kabupaten Waropen",PAPUA,98261.0,Indonesia,,-2.2095908,136.4160381,https://maps.google.com/?cid=0x0:0x8902420b92236840
restaurant,Kafe,AUSIWERINI,"QFQ4+3X7, Unnamed Road, Nubuai, Kec. Urei Faisei, Kabupaten Waropen, Papua 98261","Unnamed Road, Nubuai, Kec. Urei Faisei, Kabupaten Waropen",PAPUA,98261.0,Indonesia,,-2.2123375,136.4574074,https://maps.google.com/?cid=0x0:0xd44a7552f7501b2a
restaurant,Nasi,Warung bintang timur,"QCV9+CWM, Kemon Jaya Sp V, Kec. Urei Faisei, Kabupaten Waropen, Papua 98261","Kemon Jaya Sp V, Kec. Urei Faisei, Kabupaten Waropen",PAPUA,98261.0,Indonesia,,-2.206419,136.4197968,https://maps.google.com/?cid=0x0:0xc686402bfd25f1dd
restaurant,Rumah Makan,Kemon jaya,"QCP8+MP3, Kemon Jaya Sp V, Kec. Urei Faisei, Kabupaten Waropen, Papua 98261","Kemon Jaya Sp V, Kec. Urei Faisei, Kabupaten Waropen",PAPUA,98261.0,Indonesia,,-2.214062,136.417364,https://maps.google.com/?cid=0x0:0xe856e7f344d367fe
restaurant,Ayam,Warung makan celebes,"Q94H+VVJ, Waren Satu, Kec. Waropen Bawah, Kabupaten Waropen, Papua 98261","Waren Satu, Kec. Waropen Bawah, Kabupaten Waropen",PAPUA,98261.0,Indonesia,,-2.2425449,136.3789384,https://maps.google.com/?cid=0x0:0xd43171da454d8c24
restaurant,Brunch,Rumah Makan Sulawesi,"Q98J+CRG, Jln poros waren-urfas, Nonomi, Kec. Waropen Bawah, Kabupaten Waropen, Papua 98261","Jln poros waren-urfas, Nonomi, Kec. Waropen Bawah, Kabupaten Waropen",PAPUA,98261.0,Indonesia,81344620886.0,-2.2339251,136.3820659,https://maps.google.com/?cid=0x0:0xafe62e912aeb3578
restaurant,Rumah Makan,Warung makan mbak AYU,"PCP8+MQ3, Jalan poros spv, Botawa, Kec. Urei Faisei, Kabupaten Waropen, Papua","Kabupaten Waropen, Papua",PAPUA,,Indonesia,,-2.2633621,136.4169369,https://maps.google.com/?cid=0x0:0x619a85f3572a8ef8
restaurant,Padang,Resto Yougwa Danau Sentani,"Jl. Batu Ceper No.73 15, RT.15/RW.1, Kb. Klp., Kecamatan Gambir, Kota Jakarta Pusat, Daerah Khusus Ibukota Jakarta 10120","RT.15/RW.1, Kb. Klp., Kecamatan Gambir, Kota Jakarta Pusat",PAPUA,10120.0,Indonesia,8119622272.0,-6.162043,106.8243928,https://maps.google.com/?cid=0x0:0xd6689d47fce71c89
restaurant,Rumah Makan,RM. Pringgodani,"QCR8+43G, Kemon Jaya Sp V, Kec. Urei Faisei, Kabupaten Waropen, Papua 98261","Kemon Jaya Sp V, Kec. Urei Faisei, Kabupaten Waropen",PAPUA,98261.0,Indonesia,,-2.2096927,136.4152133,https://maps.google.com/?cid=0x0:0x5cc1016b6971bb7f
restaurant,Brunch,Gado-gado mbak AYU,"QCCC+WW2, Batu Zaman, Kec. Waropen Bawah, Kabupaten Waropen, Papua 98261","Batu Zaman, Kec. Waropen Bawah, Kabupaten Waropen",PAPUA,98261.0,Indonesia,,-2.2277296,136.4222564,https://maps.google.com/?cid=0x0:0x78a310dd6721ebc7
restaurant,Rumah Kaca,Cafe Pasaden@ Urfas 3,"QCVM+R8G, Unnamed Road, Mambui, Kec. Urei Faisei, Kabupaten Waropen, Papua 98261","Unnamed Road, Mambui, Kec. Urei Faisei, Kabupaten Waropen",PAPUA,98261.0,Indonesia,81342088282.0,-2.205447,136.433335,https://maps.google.com/?cid=0x0:0x5799ac3ce9026d57
restaurant,Rumah Makan,WARUNG SEDERHANA,"QCR8+43X, Kemon Jaya Sp V, Kec. Urei Faisei, Kabupaten Waropen, Papua","Kabupaten Waropen, Papua",PAPUA,,Indonesia,,-2.2096396,136.4152311,https://maps.google.com/?cid=0x0:0x3a291e6bdd003ce7
restaurant,Martabak,Waiter's Food,"QFR2+G2M, Ureifasei Tiga/Paradoi, Kec. Urei Faisei, Kabupaten Waropen, Papua","Kabupaten Waropen, Papua",PAPUA,,Indonesia,85244541720.0,-2.2086557,136.450046,https://maps.google.com/?cid=0x0:0x97bbfbe3793a4fbb
restaurant,restaurant,Papua 98861,"Kabupaten Nabire, Papua","Kabupaten Nabire, Papua",PAPUA,,Indonesia,,-3.1060477,135.9800848,https://maps.google.com/?cid=0x0:0x6de7561b85a7e092
restaurant,Restoran,RM. Suramadu,"RPJV+FWR, Jl. Lagari, Legari Jaya, Makimi, Kabupaten Nabire, Papua 98861","Jl. Lagari, Legari Jaya, Makimi, Kabupaten Nabire",PAPUA,98861.0,Indonesia,,-3.16876,135.744774,https://maps.google.com/?cid=0x0:0x7dcad415325ccd86
restaurant,Restoran,Warung Makan Bagoes,"RQJ2+F7F, Legari Jaya, Makimi, Kabupaten Nabire, Papua 98861","Legari Jaya, Makimi, Kabupaten Nabire",PAPUA,98861.0,Indonesia,,-3.1687384,135.7508663,https://maps.google.com/?cid=0x0:0x2db95e0a9e29245a
restaurant,Kantor Perusahaan,Wapoga,"529C+33W, Totoberi, Kec. Wapoga, Kabupaten Nabire, Papua","Kabupaten Nabire, Papua",PAPUA,,Indonesia,,-2.8322729,136.0201915,https://maps.google.com/?cid=0x0:0x2ad71223b36edc0b
restaurant,Ikan Bakar,L Price Restaurant Nabire,"Jl. Yos Sudarso No.9, Oyehe, Distrik Nabire, Kabupaten Nabire, Papua 98811","Oyehe, Distrik Nabire, Kabupaten Nabire",PAPUA,98811.0,Indonesia,81248481031.0,-3.3560942,135.5058108,https://maps.google.com/?cid=0x0:0x4462a1470d25b7ab
restaurant,Restoran,Warung Makan Sry Rezeki.sp1.,"RPGJ+C4, Biha, Makimi, Kabupaten Nabire, Papua 98861","Biha, Makimi, Kabupaten Nabire",PAPUA,98861.0,Indonesia,82197665517.0,-3.1737608,135.7303045,https://maps.google.com/?cid=0x0:0xfed659088ffcfc0f
restaurant,Rumah Makan,Papuma resto,"PH9J+CC7, Kimi, Distrik Tlk. Kimi, Kabupaten Nabire, Papua 98817","Kimi, Distrik Tlk. Kimi, Kabupaten Nabire",PAPUA,98817.0,Indonesia,85242585804.0,-3.2815131,135.5810466,https://maps.google.com/?cid=0x0:0x711dcf63f1a282e4
restaurant,restaurant,Warung nasi,"Jalan poros Jl. Lagari, Legari Jaya, jaya, Kabupaten Nabire, Papua 98861","Legari Jaya, jaya, Kabupaten Nabire",PAPUA,98861.0,Indonesia,85243355286.0,-3.1688364,135.7510962,https://maps.google.com/?cid=0x0:0xd79f634b0290f313
restaurant,Restoran,Warung Sederhana km 100,"FRFR+2JP, Unnamed Road, Siriwo/ Unipo, Siriwo, Kabupaten Nabire, Papua 98853","Unnamed Road, Siriwo/ Unipo, Siriwo, Kabupaten Nabire",PAPUA,98853.0,Indonesia,81344332281.0,-3.5274051,135.8415863,https://maps.google.com/?cid=0x0:0x7ed63e15f0d0f533
restaurant,Restoran,KoeTeko (Koeliner Tepi Kota),"MGGX+6J6, Jl. Poros Samabusa, Sanoba, Distrik Nabire, Kabupaten Nabire, Papua 98816","Jl. Poros Samabusa, Sanoba, Distrik Nabire, Kabupaten Nabire",PAPUA,98816.0,Indonesia,81228362900.0,-3.3244734,135.5490131,https://maps.google.com/?cid=0x0:0xbbfdb081b5a57144
restaurant,Restoran,Warung Bosowa,"JGV4+JJF, Oyehe, Distrik Nabire, Kabupaten Nabire, Papua 98811","Oyehe, Distrik Nabire, Kabupaten Nabire",PAPUA,98811.0,Indonesia,82399514012.0,-3.3559435,135.5065359,https://maps.google.com/?cid=0x0:0xabd2199eebd3ade4
restaurant,Kedai Kopi,Cafe Reviza,"JFQX+G25, Oyehe, Distrik Nabire, Kabupaten Nabire, Papua 98811","Oyehe, Distrik Nabire, Kabupaten Nabire",PAPUA,98811.0,Indonesia,,-3.3612325,135.4976227,https://maps.google.com/?cid=0x0:0x955ac460f0431c7c
restaurant,Kafe,Morning Order Cafe,"Jl. Medan Dalam, Karang Mulia, Distrik Nabire, Kabupaten Nabire, Papua","Kabupaten Nabire, Papua",PAPUA,,Indonesia,82124994443.0,-3.3704742,135.508298,https://maps.google.com/?cid=0x0:0xb2c4f9f923368a8c
restaurant,restaurant,Elfan pu rumah,"Jl marilephi No.34, Legari Jaya, Makimi, Kabupaten Nabire, Papua 98861","Legari Jaya, Makimi, Kabupaten Nabire",PAPUA,98861.0,Indonesia,,-3.1689592,135.7710559,https://maps.google.com/?cid=0x0:0xc3d06f6eed58dcfa
restaurant,Ikan Bakar,D'Jimbaran Papua,"9PX8+3VF, Engros, Kec. Abepura, Kota Jayapura, Papua","Kota Jayapura, Papua",PAPUA,,Indonesia,,-2.6020736,140.7168784,https://maps.google.com/?cid=0x0:0xb6125c5e0138c416
restaurant,restaurant,,,,PAPUA,,Indonesia,,,,https://maps.google.com/?cid=0x0:0xb6125c5e0138c416u0026onu003dCumi+Saus+Padang+Dan+Kangkungu0026midu003d/g/11vm83vzyd
restaurant,Sesuai untuk keluarga,Jimbaran Ikan Bakar,"FP66+H5F, Jl. Pacific Permai, Bayangkara, Kec. Jayapura Utara, Kota Jayapura, Papua","Kota Jayapura, Papua",PAPUA,,Indonesia,,-2.5385726,140.7104342,https://maps.google.com/?cid=0x0:0xcc67bb0319b56bc8
restaurant,restaurant,,,,PAPUA,,Indonesia,,,,https://maps.google.com/?cid=0x0:0xb6125c5e0138c416u0026onu003dTahu+Cabe+Garamu0026midu003d/g/11vm83vzyd
restaurant,restaurant,,,,PAPUA,,Indonesia,,,,https://maps.google.com/?cid=0x0:0xb6125c5e0138c416u0026onu003dCapcay+Ayamu0026midu003d/g/11vm83vzyd
restaurant,restaurant,,,,PAPUA,,Indonesia,,,,https://maps.google.com/?cid=0x0:0xb6125c5e0138c416u0026onu003dNasi+Goreng+Ayamu0026midu003d/g/11vm83vzyd
restaurant,restaurant,,,,PAPUA,,Indonesia,,,,https://maps.google.com/?cid=0x0:0xb6125c5e0138c416u0026onu003dSeafood+Platteru0026midu003d/g/11vm83vzyd
restaurant,restaurant,,,,PAPUA,,Indonesia,,,,https://maps.google.com/?cid=0x0:0xb6125c5e0138c416u0026onu003dLobsteru0026midu003d/g/11vm83vzyd
restaurant,restaurant,,,,PAPUA,,Indonesia,,,,https://maps.google.com/?cid=0x0:0xb6125c5e0138c416u0026onu003dPapedau0026midu003d/g/11vm83vzyd
restaurant,restaurant,,,,PAPUA,,Indonesia,,,,https://maps.google.com/?cid=0x0:0xb6125c5e0138c416u0026onu0026midu003d/g/11vm83vzyd
restaurant,restaurant,Papua 98263,"Kabupaten Waropen, Papua","Kabupaten Waropen, Papua",PAPUA,,Indonesia,,-2.8580182,136.9805103,https://maps.google.com/?cid=0x0:0xcb1ac3e3a0828ae1
