Category,Real Category,Business Name,Address,City,State,Postal Code,Country,Phone,Latitude,Longitude,Map Link
perumahan,perumahan,Kec. Waropen Bawah,"Kabupaten Waropen, Papua","Kabupaten Waropen, Papua",PAPUA,,Indonesia,,-2.2420315,136.3794418,https://maps.google.com/?cid=0x0:0x9b57b47411779662
perumahan,perumahan,Waropen,"Q9FQ+HV, Nonomi, Kec. Waropen Bawah, Kabupaten Waropen, Papua 98261","Nonomi, Kec. Waropen Bawah, Kabupaten Waropen",PAPUA,98261.0,Indonesia,,-2.2255671,136.3902037,https://maps.google.com/?cid=0x0:0xb8000994bc6c23a7
perumahan,Komplek perumahan,My home,"Q97G+3GW, Waren Satu, Kec. Waropen Bawah, Kabupaten Waropen, Papua 98261","Waren Satu, Kec. Waropen Bawah, Kabupaten Waropen",PAPUA,98261.0,Indonesia,,-2.2372616,136.3749661,https://maps.google.com/?cid=0x0:0x228edb6a011aab30
perumahan,Pembangunan Perumahan,Kompleks perumahan Pemda,"QC8F+H52, Batu Zaman, Kec. Waropen Bawah, Kabupaten Waropen, Papua 98261","Batu Zaman, Kec. Waropen Bawah, Kabupaten Waropen",PAPUA,98261.0,Indonesia,85246847959.0,-2.2336246,136.422883,https://maps.google.com/?cid=0x0:0xaa45b52ffac3d33c
perumahan,Komplek perumahan,SP VI Jalur 7,"QC55+FCG, Unnamed Road, Nonomi, Kec. Waropen Bawah, Kabupaten Waropen, Papua 98261","Unnamed Road, Nonomi, Kec. Waropen Bawah, Kabupaten Waropen",PAPUA,98261.0,Indonesia,,-2.241318,136.4085688,https://maps.google.com/?cid=0x0:0xd2bd66c504a1eb75
perumahan,Komplek perumahan,Aspol Rumahku,"Q94G+8R7, Waren Dua, Kec. Waropen Bawah, Kabupaten Waropen, Papua 98261","Waren Dua, Kec. Waropen Bawah, Kabupaten Waropen",PAPUA,98261.0,Indonesia,,-2.2442246,136.3770474,https://maps.google.com/?cid=0x0:0x986b4d9abbe05749
perumahan,Komplek perumahan,E1,"Q96P+M87, RW.1, Sarafambai, Kec. Waropen Bawah, Kabupaten Waropen, Papua 98261","RW.1, Sarafambai, Kec. Waropen Bawah, Kabupaten Waropen",PAPUA,98261.0,Indonesia,,-2.2383471,136.3858092,https://maps.google.com/?cid=0x0:0x8b76514a1dcf54d4
perumahan,Komplek perumahan,Rumah Kawill,"P9XF+2QG, Waren Dua, Kec. Waropen Bawah, Kabupaten Waropen, Papua 98261","Waren Dua, Kec. Waropen Bawah, Kabupaten Waropen",PAPUA,98261.0,Indonesia,,-2.2524411,136.3744664,https://maps.google.com/?cid=0x0:0x814273e29bef8a50
perumahan,Komplek perumahan,Zafran,"QC88+89, Nonomi, Kec. Waropen Bawah, Kabupaten Waropen, Papua 98261","Nonomi, Kec. Waropen Bawah, Kabupaten Waropen",PAPUA,98261.0,Indonesia,,-2.2341571,136.4158503,https://maps.google.com/?cid=0x0:0x2ae3afc223ea638c
perumahan,Komplek perumahan,Gaigar Home,"QCMJ+F82, Batu Zaman, Kec. Waropen Bawah, Kabupaten Waropen, Papua 98261","Batu Zaman, Kec. Waropen Bawah, Kabupaten Waropen",PAPUA,98261.0,Indonesia,81327986583.0,-2.2165669,136.4318376,https://maps.google.com/?cid=0x0:0xa57be6db6f0b6820
perumahan,perumahan,Kabupaten waropen Papua,"QC88+85J, Urfas, Kec. Waropen Bawah, Kabupaten Waropen, Papua","Kabupaten Waropen, Papua",PAPUA,,Indonesia,,-2.2341581,136.4154022,https://maps.google.com/?cid=0x0:0xf55b18a8e1d8429
perumahan,Komplek perumahan,Alika Home,"QC76+8MF, Khemon Jaya, Distrik Urei Faisei, Nonomi, Kec. Waropen Bawah, Kabupaten Waropen, Papua 98261","Khemon Jaya, Distrik Urei Faisei, Nonomi, Kec. Waropen Bawah, Kabupaten Waropen",PAPUA,98261.0,Indonesia,,-2.2366834,136.4116681,https://maps.google.com/?cid=0x0:0x3a4c602fb2edd3d
perumahan,Komplek perumahan,Jecky punya rumah,"QCQV+3QF, Urei Faisei Dua, Kec. Urei Faisei, Kabupaten Waropen, Papua 98261","Urei Faisei Dua, Kec. Urei Faisei, Kabupaten Waropen",PAPUA,98261.0,Indonesia,,-2.2116229,136.4458029,https://maps.google.com/?cid=0x0:0x38fdf9863c3630e6
perumahan,Komplek perumahan,Rumah woisiri,"QCRV+96C, Urei Faisei Dua, Kec. Urei Faisei, Kabupaten Waropen, Papua 98261","Urei Faisei Dua, Kec. Urei Faisei, Kabupaten Waropen",PAPUA,98261.0,Indonesia,,-2.208333,136.4419843,https://maps.google.com/?cid=0x0:0xbe5cb8f1e2d1d87f
perumahan,perumahan,Masirei,"Kabupaten Waropen, Papua","Kabupaten Waropen, Papua",PAPUA,,Indonesia,,-2.5326635,137.0193913,https://maps.google.com/?cid=0x0:0xef8885c7f7c8ae85
perumahan,perumahan,Andin,"73PW+9W2, Koweda, Masirei, Kabupaten Waropen, Papua 98263","Koweda, Masirei, Kabupaten Waropen",PAPUA,98263.0,Indonesia,,-2.7141195,137.0972766,https://maps.google.com/?cid=0x0:0x426f20c536a13c55
perumahan,Komplek perumahan,OPM(official pondok mebel),"PQ45+XPP, Sinonde, Masirei, Kabupaten Waropen, Papua 98263","Sinonde, Masirei, Kabupaten Waropen",PAPUA,98263.0,Indonesia,,-2.292546,136.7593269,https://maps.google.com/?cid=0x0:0xc096f19df1fcd9d0
perumahan,Komplek perumahan,paca idola,"PQ59+6GG, Sinonde, Masirei, Kabupaten Waropen, Papua","Kabupaten Waropen, Papua",PAPUA,,Indonesia,,-2.2919262,136.7688203,https://maps.google.com/?cid=0x0:0x43e60b1ac805edbd
perumahan,Pembangunan Perumahan,Perumahan Keluarga Nusi di Mayaghaido,"PP2C+2V5, Mayaghaido, Distrik Demba, Kabupaten Waropen, Papua 98263","Mayaghaido, Distrik Demba, Kabupaten Waropen",PAPUA,98263.0,Indonesia,,-2.2999985,136.7222193,https://maps.google.com/?cid=0x0:0x2999a886d3de3f66
perumahan,Komplek perumahan,Kampung fimore,"MMQC+XP, Fafado, Risei Sayati, Kabupaten Waropen, Papua","Kabupaten Waropen, Papua",PAPUA,,Indonesia,,-2.3100383,136.6718527,https://maps.google.com/?cid=0x0:0xce48c79ccf4b9932
perumahan,Perhimpunan Pengembang Perumahan,Pekuburan Umum Kampung Fafai,"MPX6+G24, Fafai, Distrik Demba, Kabupaten Waropen, Papua 98263","Fafai, Distrik Demba, Kabupaten Waropen",PAPUA,98263.0,Indonesia,,-2.3012474,136.7100688,https://maps.google.com/?cid=0x0:0xf0a2201cb859c1a
perumahan,Komplek perumahan,Aimasi,"MJMV+4P, Wobari, Risei Sayati, Kabupaten Waropen, Papua","Kabupaten Waropen, Papua",PAPUA,,Indonesia,,-2.3172482,136.6442568,https://maps.google.com/?cid=0x0:0x86ed490cfa628a84
perumahan,perumahan,Wairo karmel,"PQ5C+4HG, Koweda, Masirei, Kabupaten Waropen, Papua 98263","Koweda, Masirei, Kabupaten Waropen",PAPUA,98263.0,Indonesia,,-2.2921761,136.7714408,https://maps.google.com/?cid=0x0:0x299db4e658e2b13a
perumahan,Komplek perumahan,Kampung kay/ bpa rhut,"PM2P+VH, Odase, Distrik Demba, Kabupaten Waropen, Papua","Kabupaten Waropen, Papua",PAPUA,,Indonesia,,-2.2978106,136.6864379,https://maps.google.com/?cid=0x0:0xb5caa1978c7ad993
perumahan,Tempat acara,Daimboa cty,"JJ5R+3JW, Mambai, Risei Sayati, Kabupaten Waropen, Papua","Kabupaten Waropen, Papua",PAPUA,,Indonesia,,-2.3922506,136.6415716,https://maps.google.com/?cid=0x0:0x888ef8554bfe93c6
perumahan,Perusahaan Konstruksi,Kampung Wobari,"Wobari, Risei Sayati, Kabupaten Waropen, Papua","Kabupaten Waropen, Papua",PAPUA,,Indonesia,82248469331.0,-2.3168132,136.6313145,https://maps.google.com/?cid=0x0:0x6042b0b2d9d6e774
perumahan,Komplek perumahan,Kel. F REWOMI,"PP2H+CR, Mayaghaido, Distrik Demba, Kabupaten Waropen, Papua","Kabupaten Waropen, Papua",PAPUA,,Indonesia,,-2.2989245,136.7295283,https://maps.google.com/?cid=0x0:0x67d8bc0b147095cb
perumahan,Gereja,Kampung Mambai,"JHRV+3P, Wobari, Risei Sayati, Kabupaten Waropen, Papua 98261","Wobari, Risei Sayati, Kabupaten Waropen",PAPUA,98261.0,Indonesia,,-2.3598337,136.5942869,https://maps.google.com/?cid=0x0:0x5969f5760fd72404
perumahan,perumahan,Risei Sayati,"Kabupaten Waropen, Papua","Kabupaten Waropen, Papua",PAPUA,,Indonesia,,-2.5853714,136.8640458,https://maps.google.com/?cid=0x0:0x79e0df267d2a13e
perumahan,Perusahaan Konstruksi,Kampung Wobari,"Wobari, Risei Sayati, Kabupaten Waropen, Papua","Kabupaten Waropen, Papua",PAPUA,,Indonesia,82248469331.0,-2.3168132,136.6313145,https://maps.google.com/?cid=0x0:0x6042b0b2d9d6e774
perumahan,Pembangunan Perumahan,Kompleks Rumah Dinas Fafado,"9V4C+88F, Fafado, Risei Sayati, Kabupaten Waropen, Papua 98263","Fafado, Risei Sayati, Kabupaten Waropen",PAPUA,98263.0,Indonesia,,-2.644186,136.8707821,https://maps.google.com/?cid=0x0:0x675af437399c7fa1
perumahan,Komplek perumahan,Kampung Mui,"CV77+VJ3 Kampung Mui, Fafado, Risei Sayati, Kabupaten Waropen, Papua","Kabupaten Waropen, Papua",PAPUA,,Indonesia,,-2.5853714,136.8640458,https://maps.google.com/?cid=0x0:0xbc1d70f498bcecac
perumahan,Komplek perumahan,Kampung fimore,"MMQC+XP, Fafado, Risei Sayati, Kabupaten Waropen, Papua","Kabupaten Waropen, Papua",PAPUA,,Indonesia,,-2.3100383,136.6718527,https://maps.google.com/?cid=0x0:0xce48c79ccf4b9932
perumahan,Pembangunan Perumahan,Rumah Aurel,"JJ5R+3JW, Mambai, Risei Sayati, Kabupaten Waropen, Papua","Kabupaten Waropen, Papua",PAPUA,,Indonesia,,-2.3922506,136.6415716,https://maps.google.com/?cid=0x0:0x2824aa6341c89d5a
perumahan,Komplek perumahan,Aimasi,"MJMV+4P, Wobari, Risei Sayati, Kabupaten Waropen, Papua","Kabupaten Waropen, Papua",PAPUA,,Indonesia,,-2.3172482,136.6442568,https://maps.google.com/?cid=0x0:0x86ed490cfa628a84
perumahan,Komplek perumahan,Batas kampung SIFUISERA/aimas,"MJQW+5H, Wobari, Risei Sayati, Kabupaten Waropen, Papua","Kabupaten Waropen, Papua",PAPUA,,Indonesia,,-2.3120209,136.6464636,https://maps.google.com/?cid=0x0:0x7c373f76e9a463b3
perumahan,Komplek perumahan,Kampung Fafai,"PJPG+GR9, Fafai, Distrik Demba, Kabupaten Waropen, Papua","Kabupaten Waropen, Papua",PAPUA,,Indonesia,,-2.2637003,136.6270967,https://maps.google.com/?cid=0x0:0xf85614149fbdb4dd
perumahan,Gereja,Kampung Mambai,"JHRV+3P, Wobari, Risei Sayati, Kabupaten Waropen, Papua 98261","Wobari, Risei Sayati, Kabupaten Waropen",PAPUA,98261.0,Indonesia,,-2.3598337,136.5942869,https://maps.google.com/?cid=0x0:0x5969f5760fd72404
perumahan,Pembangunan Perumahan,KAMPUNG BOTAWA,"QCVM+P4H, Mambui, Kec. Urei Faisei, Kabupaten Waropen, Papua 98261","Mambui, Kec. Urei Faisei, Kabupaten Waropen",PAPUA,98261.0,Indonesia,,-2.3899652,136.5069026,https://maps.google.com/?cid=0x0:0x36355f3325021a2a
perumahan,perumahan,Rumah kos R. Silalahi Sidabutar,"QC8F+HHP, Sp B jalur, 5 barat, Kec. Urei Faisei, Kabupaten Waropen, Papua","Kabupaten Waropen, Papua",PAPUA,,Indonesia,,-2.2335304,136.423967,https://maps.google.com/?cid=0x0:0xcd42244a8b897e0f
perumahan,Komplek perumahan,Kampung kay/ bpa rhut,"PM2P+VH, Odase, Distrik Demba, Kabupaten Waropen, Papua","Kabupaten Waropen, Papua",PAPUA,,Indonesia,,-2.2978106,136.6864379,https://maps.google.com/?cid=0x0:0xb5caa1978c7ad993
perumahan,Perhimpunan Pengembang Perumahan,Pekuburan Umum Kampung Fafai,"MPX6+G24, Fafai, Distrik Demba, Kabupaten Waropen, Papua 98263","Fafai, Distrik Demba, Kabupaten Waropen",PAPUA,98263.0,Indonesia,,-2.3012474,136.7100688,https://maps.google.com/?cid=0x0:0xf0a2201cb859c1a
perumahan,perumahan,Kec. Urei Faisei,"Kabupaten Waropen, Papua","Kabupaten Waropen, Papua",PAPUA,,Indonesia,,-2.209971,136.4499194,https://maps.google.com/?cid=0x0:0xd94366d88a18b612
perumahan,Komplek perumahan,Rumah woisiri,"QCRV+96C, Urei Faisei Dua, Kec. Urei Faisei, Kabupaten Waropen, Papua 98261","Urei Faisei Dua, Kec. Urei Faisei, Kabupaten Waropen",PAPUA,98261.0,Indonesia,,-2.208333,136.4419843,https://maps.google.com/?cid=0x0:0xbe5cb8f1e2d1d87f
perumahan,perumahan,Rumah kompleks,"QFP4+HQ9, Dua, Nubuai, Kec. Urei Faisei, Kabupaten Waropen, Papua 98261","Dua, Nubuai, Kec. Urei Faisei, Kabupaten Waropen",PAPUA,98261.0,Indonesia,,-2.2135882,136.456987,https://maps.google.com/?cid=0x0:0x5a72f38b573262b4
perumahan,Komplek perumahan,Kompleks Masesi,"QCRW+WWP, Urei Faisei Dua, Kec. Urei Faisei, Kabupaten Waropen, Papua","Kabupaten Waropen, Papua",PAPUA,,Indonesia,,-2.2076681,136.4473381,https://maps.google.com/?cid=0x0:0xedb59efc81d18576
perumahan,Komplek perumahan,Jecky punya rumah,"QCQV+3QF, Urei Faisei Dua, Kec. Urei Faisei, Kabupaten Waropen, Papua 98261","Urei Faisei Dua, Kec. Urei Faisei, Kabupaten Waropen",PAPUA,98261.0,Indonesia,,-2.2116229,136.4458029,https://maps.google.com/?cid=0x0:0x38fdf9863c3630e6
perumahan,Komplek perumahan,Rumah Jerolin_Auri,"QCQX+XWP, jln poros, Ureifasei Tiga/Paradoi, Kec. Urei Faisei, Kabupaten Waropen, Papua","Kabupaten Waropen, Papua",PAPUA,,Indonesia,,-2.2100805,136.449747,https://maps.google.com/?cid=0x0:0x1118b6c90acf3a4e
perumahan,Perumahan,Perumahan Pemda,"QCQC+QX5, Kemon Jaya Sp V, Kec. Urei Faisei, Kabupaten Waropen, Papua 98261","Kemon Jaya Sp V, Kec. Urei Faisei, Kabupaten Waropen",PAPUA,98261.0,Indonesia,,-2.21062,136.4224871,https://maps.google.com/?cid=0x0:0x705b420c534577d1
perumahan,Komplek perumahan,Rorisi,"QCQR+2WG, Kampung Rorisi, Urei Faisei Dua, Kec. Urei Faisei, Kabupaten Waropen, Papua 98261","Kampung Rorisi, Urei Faisei Dua, Kec. Urei Faisei, Kabupaten Waropen",PAPUA,98261.0,Indonesia,,-2.2124303,136.442317,https://maps.google.com/?cid=0x0:0x6df629956af71c5b
perumahan,perumahan,Rumah kos R. Silalahi Sidabutar,"QC8F+HHP, Sp B jalur, 5 barat, Kec. Urei Faisei, Kabupaten Waropen, Papua","Kabupaten Waropen, Papua",PAPUA,,Indonesia,,-2.2335304,136.423967,https://maps.google.com/?cid=0x0:0xcd42244a8b897e0f
perumahan,Komplek perumahan,R.K.P,"QCVR+4JX, Ureifaisei Satu/Sanggei, Kec. Urei Faisei, Kabupaten Waropen, Papua 98261","Ureifaisei Satu/Sanggei, Kec. Urei Faisei, Kabupaten Waropen",PAPUA,98261.0,Indonesia,,-2.2067778,136.442428,https://maps.google.com/?cid=0x0:0xecd2aa85bc850b34
perumahan,Komplek perumahan,Mesak home,"QFQ3+3FR, Nubuai, Kec. Urei Faisei, Kabupaten Waropen, Papua 98261","Nubuai, Kec. Urei Faisei, Kabupaten Waropen",PAPUA,98261.0,Indonesia,,-2.2129614,136.4533697,https://maps.google.com/?cid=0x0:0xa9c7d78f111f1d96
perumahan,Komplek perumahan,Rumah kel.warami/sawaki,"QCRX+RC9, Ureifasei Tiga/Paradoi, Kec. Urei Faisei, Kabupaten Waropen, Papua","Kabupaten Waropen, Papua",PAPUA,,Indonesia,,-2.2079727,136.4486065,https://maps.google.com/?cid=0x0:0xca87e9fdeb08971
perumahan,Komplek perumahan,Eli Sadrak kurei,"QCQV+3QF, Urei Faisei Dua, Kec. Urei Faisei, Kabupaten Waropen, Papua 98261","Urei Faisei Dua, Kec. Urei Faisei, Kabupaten Waropen",PAPUA,98261.0,Indonesia,,-2.2115197,136.446049,https://maps.google.com/?cid=0x0:0x944cd30bfbb03632
perumahan,perumahan,RUMSA (Rumah Sawaki),"QCQQ+V6Q, Ureifaisei Satu/Sanggei, Kec. Urei Faisei, Kabupaten Waropen, Papua","Kabupaten Waropen, Papua",PAPUA,,Indonesia,,-2.2102844,136.4381039,https://maps.google.com/?cid=0x0:0xcff4e60cd1126466
perumahan,perumahan,Inggerus,"Kabupaten Waropen, Papua","Kabupaten Waropen, Papua",PAPUA,,Indonesia,,-2.7458074,136.4777687,https://maps.google.com/?cid=0x0:0x450866f7860e3381
perumahan,Komplek perumahan,Wapoga,"7HF2+VG8, Otodemo, Inggerus, Kabupaten Waropen, Papua 98261","Otodemo, Inggerus, Kabupaten Waropen",PAPUA,98261.0,Indonesia,,-2.7253326,136.5513183,https://maps.google.com/?cid=0x0:0x6bd1a0f020cbc87f
perumahan,Komplek perumahan,"Firo inggerus, kabupaten waropen papua","4MR2+XFX, Firo, Inggerus, Kabupaten Waropen, Papua","Kabupaten Waropen, Papua",PAPUA,,Indonesia,,-2.8575227,136.6512239,https://maps.google.com/?cid=0x0:0x8090b05a9ea0a8d5
perumahan,Komplek perumahan,P. Guru supri,"86FR+5PQ, Demisa Sp III, Inggerus, Kabupaten Waropen, Papua 98261","Demisa Sp III, Inggerus, Kabupaten Waropen",PAPUA,98261.0,Indonesia,,-2.6766426,136.2431321,https://maps.google.com/?cid=0x0:0x3ccfc6552ce03330
perumahan,Komplek perumahan,kampung Otodemo distrik Inggerus,"5C9G+JF, Syewa/Mirare, Wapoga, Kabupaten Waropen, Papua","Kabupaten Waropen, Papua",PAPUA,,Indonesia,,-2.8309691,136.4262139,https://maps.google.com/?cid=0x0:0xe09f4df316288642
perumahan,Komplek perumahan,Rumah Pak indra,"8655+PV, harapan jaya sp2, Inggerus, Kabupaten Waropen, Papua","Kabupaten Waropen, Papua",PAPUA,,Indonesia,,-2.6912969,136.2102164,https://maps.google.com/?cid=0x0:0xf4305adbd6326df7
perumahan,Pembangunan Perumahan,Lemba urei,"5M4C+H6F, Firo, Inggerus, Kabupaten Waropen, Papua","Kabupaten Waropen, Papua",PAPUA,,Indonesia,,-2.8435717,136.670534,https://maps.google.com/?cid=0x0:0xc8a696475d7b563c
perumahan,Komplek perumahan,Rumah Pak Sutikno,"86GR+CRX, Demisa Sp III, Inggerus, Kabupaten Waropen, Papua 98261","Demisa Sp III, Inggerus, Kabupaten Waropen",PAPUA,98261.0,Indonesia,,-2.6738816,136.2421102,https://maps.google.com/?cid=0x0:0x85eb75bb8c8c7225
perumahan,Pembangunan Perumahan,Gubuk jingga,"73QR+7W3, Jln. Trans Wapoga inggerus, Pirare, Wapoga, Kabupaten Waropen, Papua","Kabupaten Waropen, Papua",PAPUA,,Indonesia,,-2.7118653,136.0922988,https://maps.google.com/?cid=0x0:0xb7ff766de7b2d78b
perumahan,Pembangunan Perumahan,Blakan kantor distrik UREIFASEI,"5M4C+H6F, Firo, Inggerus, Kabupaten Waropen, Papua","Kabupaten Waropen, Papua",PAPUA,,Indonesia,85260920916.0,-2.8435717,136.670534,https://maps.google.com/?cid=0x0:0xccbfc8e85ea4ef09
perumahan,Pembangunan Perumahan,BALINDA HOME,"5M4C+H6F, Firo, Inggerus, Kabupaten Waropen, Papua","Kabupaten Waropen, Papua",PAPUA,,Indonesia,,-2.8435717,136.670534,https://maps.google.com/?cid=0x0:0x7d5f84ec63c6d7b
perumahan,Komplek perumahan,Rumah Pak Pur,"8656+WFG, Harapan Jaya Sp II, Inggerus, Kabupaten Waropen, Papua","Kabupaten Waropen, Papua",PAPUA,,Indonesia,,-2.690186,136.2111999,https://maps.google.com/?cid=0x0:0x2767f15f467d24fc
perumahan,Komplek perumahan,Kampung harapan jaya,"8646+RHC, Harapan jaya Sp II, Inggerus, Kabupaten Waropen, Papua","Kabupaten Waropen, Papua",PAPUA,,Indonesia,,-2.6929375,136.2113906,https://maps.google.com/?cid=0x0:0xe0a9fa75855d74f5
perumahan,Komplek perumahan,Rumah pak abdul,"8655+PV, harapan jaya sp2, Inggerus, Kabupaten Waropen, Papua","Kabupaten Waropen, Papua",PAPUA,,Indonesia,,-2.6906875,136.2096875,https://maps.google.com/?cid=0x0:0x781c169f407c55a2
perumahan,perumahan,Papua 98263,"Kabupaten Waropen, Papua","Kabupaten Waropen, Papua",PAPUA,,Indonesia,,-2.8580182,136.9805103,https://maps.google.com/?cid=0x0:0xcb1ac3e3a0828ae1
perumahan,Perusahaan Konstruksi,Kampung Wobari,"Wobari, Risei Sayati, Kabupaten Waropen, Papua","Kabupaten Waropen, Papua",PAPUA,,Indonesia,82248469331.0,-2.3168132,136.6313145,https://maps.google.com/?cid=0x0:0x6042b0b2d9d6e774
perumahan,Pembangunan Perumahan,Perumahan Keluarga Nusi di Mayaghaido,"PP2C+2V5, Mayaghaido, Distrik Demba, Kabupaten Waropen, Papua 98263","Mayaghaido, Distrik Demba, Kabupaten Waropen",PAPUA,98263.0,Indonesia,,-2.2999985,136.7222193,https://maps.google.com/?cid=0x0:0x2999a886d3de3f66
perumahan,Pembangunan Perumahan,Blakan kantor distrik UREIFASEI,"5M4C+H6F, Firo, Inggerus, Kabupaten Waropen, Papua","Kabupaten Waropen, Papua",PAPUA,,Indonesia,85260920916.0,-2.8435717,136.670534,https://maps.google.com/?cid=0x0:0xccbfc8e85ea4ef09
perumahan,Komplek perumahan,Kampung Mui,"CV77+VJ3 Kampung Mui, Fafado, Risei Sayati, Kabupaten Waropen, Papua","Kabupaten Waropen, Papua",PAPUA,,Indonesia,,-2.5853714,136.8640458,https://maps.google.com/?cid=0x0:0xbc1d70f498bcecac
perumahan,Komplek perumahan,Kampung Fafai,"PJPG+GR9, Fafai, Distrik Demba, Kabupaten Waropen, Papua","Kabupaten Waropen, Papua",PAPUA,,Indonesia,,-2.2637003,136.6270967,https://maps.google.com/?cid=0x0:0xf85614149fbdb4dd
perumahan,Komplek perumahan,Kel. F REWOMI,"PP2H+CR, Mayaghaido, Distrik Demba, Kabupaten Waropen, Papua","Kabupaten Waropen, Papua",PAPUA,,Indonesia,,-2.2989245,136.7295283,https://maps.google.com/?cid=0x0:0x67d8bc0b147095cb
perumahan,Pembangunan Perumahan,Distrik dervos,"26JF+V64, Oyetadi, Walani, Kabupaten Waropen, Papua 98263","Oyetadi, Walani, Kabupaten Waropen",PAPUA,98263.0,Indonesia,,-2.9678743,137.2230722,https://maps.google.com/?cid=0x0:0x1499d3ad978de84a
perumahan,Komplek perumahan,Kampung fimore,"MMQC+XP, Fafado, Risei Sayati, Kabupaten Waropen, Papua","Kabupaten Waropen, Papua",PAPUA,,Indonesia,,-2.3100383,136.6718527,https://maps.google.com/?cid=0x0:0xce48c79ccf4b9932
perumahan,Perhimpunan Pengembang Perumahan,Pekuburan Umum Kampung Fafai,"MPX6+G24, Fafai, Distrik Demba, Kabupaten Waropen, Papua 98263","Fafai, Distrik Demba, Kabupaten Waropen",PAPUA,98263.0,Indonesia,,-2.3012474,136.7100688,https://maps.google.com/?cid=0x0:0xf0a2201cb859c1a
perumahan,Gereja,Kampung Mambai,"JHRV+3P, Wobari, Risei Sayati, Kabupaten Waropen, Papua 98261","Wobari, Risei Sayati, Kabupaten Waropen",PAPUA,98261.0,Indonesia,,-2.3598337,136.5942869,https://maps.google.com/?cid=0x0:0x5969f5760fd72404
perumahan,Pembangunan Perumahan,Lemba urei,"5M4C+H6F, Firo, Inggerus, Kabupaten Waropen, Papua","Kabupaten Waropen, Papua",PAPUA,,Indonesia,,-2.8435717,136.670534,https://maps.google.com/?cid=0x0:0xc8a696475d7b563c
perumahan,Komplek perumahan,Kampung kay/ bpa rhut,"PM2P+VH, Odase, Distrik Demba, Kabupaten Waropen, Papua","Kabupaten Waropen, Papua",PAPUA,,Indonesia,,-2.2978106,136.6864379,https://maps.google.com/?cid=0x0:0xb5caa1978c7ad993
perumahan,Komplek perumahan,Distrik siriwo,"W2VQ+QGP, Matadi, Walani, Kabupaten Waropen, Papua","Kabupaten Waropen, Papua",PAPUA,,Indonesia,,-3.0555361,137.0388429,https://maps.google.com/?cid=0x0:0x969b302b083df57b
perumahan,perumahan,Papua 98262,"Kabupaten Mamberamo Raya, Papua","Kabupaten Mamberamo Raya, Papua",PAPUA,,Indonesia,,-2.4075711,137.6061625,https://maps.google.com/?cid=0x0:0xcf10b52983f1589a
perumahan,Komplek perumahan,Aspol Rumahku,"Q94G+8R7, Waren Dua, Kec. Waropen Bawah, Kabupaten Waropen, Papua 98261","Waren Dua, Kec. Waropen Bawah, Kabupaten Waropen",PAPUA,98261.0,Indonesia,,-2.2442246,136.3770474,https://maps.google.com/?cid=0x0:0x986b4d9abbe05749
perumahan,perumahan,Rumah kompleks,"QFP4+HQ9, Dua, Nubuai, Kec. Urei Faisei, Kabupaten Waropen, Papua 98261","Dua, Nubuai, Kec. Urei Faisei, Kabupaten Waropen",PAPUA,98261.0,Indonesia,,-2.2135882,136.456987,https://maps.google.com/?cid=0x0:0x5a72f38b573262b4
perumahan,Komplek perumahan,Rumah woisiri,"QCRV+96C, Urei Faisei Dua, Kec. Urei Faisei, Kabupaten Waropen, Papua 98261","Urei Faisei Dua, Kec. Urei Faisei, Kabupaten Waropen",PAPUA,98261.0,Indonesia,,-2.208333,136.4419843,https://maps.google.com/?cid=0x0:0xbe5cb8f1e2d1d87f
perumahan,Pembangunan Perumahan,Kompleks perumahan Pemda,"QC8F+H52, Batu Zaman, Kec. Waropen Bawah, Kabupaten Waropen, Papua 98261","Batu Zaman, Kec. Waropen Bawah, Kabupaten Waropen",PAPUA,98261.0,Indonesia,85246847959.0,-2.2336246,136.422883,https://maps.google.com/?cid=0x0:0xaa45b52ffac3d33c
perumahan,Komplek perumahan,Jecky punya rumah,"QCQV+3QF, Urei Faisei Dua, Kec. Urei Faisei, Kabupaten Waropen, Papua 98261","Urei Faisei Dua, Kec. Urei Faisei, Kabupaten Waropen",PAPUA,98261.0,Indonesia,,-2.2116229,136.4458029,https://maps.google.com/?cid=0x0:0x38fdf9863c3630e6
perumahan,Pembangunan Perumahan,Republik_of_SAJADA (Sanggei Jalan Darat),"QFQ2+5CM, Nubuai, Kec. Waropen Bawah, Kabupaten Waropen, Papua","Kabupaten Waropen, Papua",PAPUA,,Indonesia,,-2.2132116,136.4514818,https://maps.google.com/?cid=0x0:0x7a20be416dc07599
perumahan,Perhimpunan Pengembang Perumahan,Burado tong PU kompleks,"Q9HV+J38, Unnamed Road, Nonomi, Kec. Waropen Bawah, Kabupaten Waropen, Papua 98261","Unnamed Road, Nonomi, Kec. Waropen Bawah, Kabupaten Waropen",PAPUA,98261.0,Indonesia,,-2.2209705,136.3926968,https://maps.google.com/?cid=0x0:0x9464aed07e84c76b
perumahan,perumahan,Kabupaten waropen Papua,"QC88+85J, Urfas, Kec. Waropen Bawah, Kabupaten Waropen, Papua","Kabupaten Waropen, Papua",PAPUA,,Indonesia,,-2.2341581,136.4154022,https://maps.google.com/?cid=0x0:0xf55b18a8e1d8429
perumahan,Komplek perumahan,Rumah rumboy sanggei jalan darat,"QFR4+P5, Nubuai, Kabupaten Waropen, Papua","Kabupaten Waropen, Papua",PAPUA,,Indonesia,,-2.208202,136.4554491,https://maps.google.com/?cid=0x0:0x561f7b9b50123987
perumahan,Komplek perumahan,My home,"Q97G+3GW, Waren Satu, Kec. Waropen Bawah, Kabupaten Waropen, Papua 98261","Waren Satu, Kec. Waropen Bawah, Kabupaten Waropen",PAPUA,98261.0,Indonesia,,-2.2372616,136.3749661,https://maps.google.com/?cid=0x0:0x228edb6a011aab30
perumahan,Perumahan,Perumahan Pemda,"QCQC+QX5, Kemon Jaya Sp V, Kec. Urei Faisei, Kabupaten Waropen, Papua 98261","Kemon Jaya Sp V, Kec. Urei Faisei, Kabupaten Waropen",PAPUA,98261.0,Indonesia,,-2.21062,136.4224871,https://maps.google.com/?cid=0x0:0x705b420c534577d1
perumahan,Gedung Apartemen,Kabupaten waropen,"QC66+PF3 SP 5 JALUR 3 BARAT, Jln tras, Nonomi, Kec. Waropen Bawah, Kabupaten Waropen, Papua","Kabupaten Waropen, Papua",PAPUA,,Indonesia,,-2.2382352,136.4111631,https://maps.google.com/?cid=0x0:0xd30333cd4de7e711
perumahan,Komplek perumahan,Kasonaweja Kab M Raya,"FQ87+PGR, Watiaro, Alang alang atas, Kabupaten Mamberamo Raya, Papua","Kabupaten Mamberamo Raya, Papua",PAPUA,,Indonesia,,-2.5331255,137.7637565,https://maps.google.com/?cid=0x0:0x96faac89bb399e01
perumahan,perumahan,Papua 98861,"Kabupaten Nabire, Papua","Kabupaten Nabire, Papua",PAPUA,,Indonesia,,-3.1060477,135.9800848,https://maps.google.com/?cid=0x0:0x6de7561b85a7e092
perumahan,Balai masyarakat,Kampung Totoberi,"5299+385, Totoberi, Kec. Wapoga, Kabupaten Nabire, Papua","Kabupaten Nabire, Papua",PAPUA,,Indonesia,,-2.8323581,136.0183714,https://maps.google.com/?cid=0x0:0xce8e65d5747f7853
perumahan,Perhimpunan Pengembang Perumahan,Wapoga tempat tercinta.,"73X9+J6X, Wapoga, Kabupaten Waropen, Papua 98261","Wapoga, Kabupaten Waropen",PAPUA,98261.0,Indonesia,,-2.7000054,136.0682756,https://maps.google.com/?cid=0x0:0x27e6ddf39c2a54af
perumahan,Pembangunan Perumahan,Tapal kampung wapoga,"73X9+J6X, Wapoga, Kabupaten Waropen, Papua 98261","Wapoga, Kabupaten Waropen",PAPUA,98261.0,Indonesia,,-2.6995113,136.0680272,https://maps.google.com/?cid=0x0:0x63d5cf24304182f1
perumahan,Komplek perumahan,Rumah mas joko,"RQP3+72, Legari Jaya, Makimi, Kabupaten Nabire, Papua","Kabupaten Nabire, Papua",PAPUA,,Indonesia,81336510514.0,-3.1642301,135.7525407,https://maps.google.com/?cid=0x0:0x8eef157f5745838a
perumahan,Pembangunan Perumahan,Kopel guru,"533V+JQH, Totoberi, Kec. Wapoga, Kabupaten Nabire, Papua","Kabupaten Nabire, Papua",PAPUA,,Indonesia,,-2.8459446,136.0944845,https://maps.google.com/?cid=0x0:0xe208320799cbd39d
perumahan,Pembangunan Perumahan,KAMPUNG ARUI,"2PQ6+93M, Arui, Napan, Kabupaten Nabire, Papua 98861","Arui, Napan, Kabupaten Nabire",PAPUA,98861.0,Indonesia,,-2.9615269,135.7101829,https://maps.google.com/?cid=0x0:0x8f8d5a3de5070e10
perumahan,Komplek perumahan,Rumah Galang,"RPMX+QH, Legari Jaya, Makimi, Kabupaten Nabire, Papua","Kabupaten Nabire, Papua",PAPUA,,Indonesia,,-3.1655786,135.7488848,https://maps.google.com/?cid=0x0:0xd10d309cf7e52e6d
perumahan,perumahan,Rumah Pithein Rumatrai,"WQW8+M27, Napan, Kabupaten Nabire, Papua 98861","Napan, Kabupaten Nabire",PAPUA,98861.0,Indonesia,,-3.0533468,135.7650327,https://maps.google.com/?cid=0x0:0x672ca8839d873d4b
perumahan,Pembangunan Perumahan,KAMPUNG MOOR AYOMBAI,"3PC8+6Q, Moor, Distrik Moora, Kabupaten Nabire, Papua","Kabupaten Nabire, Papua",PAPUA,,Indonesia,,-2.9294141,135.7168931,https://maps.google.com/?cid=0x0:0x371172f34a102b14
perumahan,Pembangunan Perumahan,Aiko home,"73QR+X4, Pirare, Wapoga, Kabupaten Waropen, Papua","Kabupaten Waropen, Papua",PAPUA,,Indonesia,,-2.710296,136.0905466,https://maps.google.com/?cid=0x0:0x6af4012833247efc
perumahan,Komplek perumahan,Ruang Ternyaman,"RPCH+FG6, Jln.Galunggung, RT.004/RW.001, Biha, Makimi, Kabupaten Nabire, Papua","Kabupaten Nabire, Papua",PAPUA,,Indonesia,,-3.178723,135.7286414,https://maps.google.com/?cid=0x0:0x4fa457e8fb8fa085
perumahan,Rumah Kayu,Rumah bpk Andarias Sayori,"WQW7+QH, Weinami, Napan, Kabupaten Nabire, Papua","Kabupaten Nabire, Papua",PAPUA,,Indonesia,,-3.0530719,135.763935,https://maps.google.com/?cid=0x0:0x3cc39d25f06cc035
perumahan,Komplek perumahan,Samanui nabire Papua Indonesia,"5XWG+88Q, Samanui, Kec. Wapoga, Kabupaten Nabire, Papua","Kabupaten Nabire, Papua",PAPUA,,Indonesia,,-2.8049762,135.9758661,https://maps.google.com/?cid=0x0:0x9c9a32ec01c0bffd
perumahan,Pembangunan Perumahan,Perumahan Keluarga Nusi di Mayaghaido,"PP2C+2V5, Mayaghaido, Distrik Demba, Kabupaten Waropen, Papua 98263","Mayaghaido, Distrik Demba, Kabupaten Waropen",PAPUA,98263.0,Indonesia,,-2.2999985,136.7222193,https://maps.google.com/?cid=0x0:0x2999a886d3de3f66
perumahan,perumahan,Distrik Demba,"Kabupaten Waropen, Papua","Kabupaten Waropen, Papua",PAPUA,,Indonesia,,-2.2877165,136.7685496,https://maps.google.com/?cid=0x0:0x34d517d31bf612b7
perumahan,Perhimpunan Pengembang Perumahan,Demba Fafai,"PJPG+GR9, Fafai, Distrik Demba, Kabupaten Waropen, Papua 98263","Fafai, Distrik Demba, Kabupaten Waropen",PAPUA,98263.0,Indonesia,,-2.2637003,136.6270967,https://maps.google.com/?cid=0x0:0xfb67eb422e18a534
perumahan,Perhimpunan Pengembang Perumahan,Pekuburan Umum Kampung Fafai,"MPX6+G24, Fafai, Distrik Demba, Kabupaten Waropen, Papua 98263","Fafai, Distrik Demba, Kabupaten Waropen",PAPUA,98263.0,Indonesia,,-2.3012474,136.7100688,https://maps.google.com/?cid=0x0:0xf0a2201cb859c1a
perumahan,Komplek perumahan,Kampung kay/ bpa rhut,"PM2P+VH, Odase, Distrik Demba, Kabupaten Waropen, Papua","Kabupaten Waropen, Papua",PAPUA,,Indonesia,,-2.2978106,136.6864379,https://maps.google.com/?cid=0x0:0xb5caa1978c7ad993
perumahan,Komplek perumahan,Kel. F REWOMI,"PP2H+CR, Mayaghaido, Distrik Demba, Kabupaten Waropen, Papua","Kabupaten Waropen, Papua",PAPUA,,Indonesia,,-2.2989245,136.7295283,https://maps.google.com/?cid=0x0:0x67d8bc0b147095cb
perumahan,Komplek perumahan,OPM(official pondok mebel),"PQ45+XPP, Sinonde, Masirei, Kabupaten Waropen, Papua 98263","Sinonde, Masirei, Kabupaten Waropen",PAPUA,98263.0,Indonesia,,-2.292546,136.7593269,https://maps.google.com/?cid=0x0:0xc096f19df1fcd9d0
perumahan,Komplek perumahan,paca idola,"PQ59+6GG, Sinonde, Masirei, Kabupaten Waropen, Papua","Kabupaten Waropen, Papua",PAPUA,,Indonesia,,-2.2919262,136.7688203,https://maps.google.com/?cid=0x0:0x43e60b1ac805edbd
perumahan,Pembangunan Perumahan,Napani village,"MHX9+V79, Wobari, Risei Sayati, Kabupaten Waropen, Papua","Kabupaten Waropen, Papua",PAPUA,,Indonesia,,-2.2991259,136.5682715,https://maps.google.com/?cid=0x0:0x184f6ef6bd65e55a
perumahan,Komplek perumahan,Kampung fimore,"MMQC+XP, Fafado, Risei Sayati, Kabupaten Waropen, Papua","Kabupaten Waropen, Papua",PAPUA,,Indonesia,,-2.3100383,136.6718527,https://maps.google.com/?cid=0x0:0xce48c79ccf4b9932
perumahan,Gereja,Kampung Mambai,"JHRV+3P, Wobari, Risei Sayati, Kabupaten Waropen, Papua 98261","Wobari, Risei Sayati, Kabupaten Waropen",PAPUA,98261.0,Indonesia,,-2.3598337,136.5942869,https://maps.google.com/?cid=0x0:0x5969f5760fd72404
perumahan,Komplek perumahan,Batas kampung SIFUISERA/aimas,"MJQW+5H, Wobari, Risei Sayati, Kabupaten Waropen, Papua","Kabupaten Waropen, Papua",PAPUA,,Indonesia,,-2.3120209,136.6464636,https://maps.google.com/?cid=0x0:0x7c373f76e9a463b3
perumahan,perumahan,Masirei,"Kabupaten Waropen, Papua","Kabupaten Waropen, Papua",PAPUA,,Indonesia,,-2.5326635,137.0193913,https://maps.google.com/?cid=0x0:0xef8885c7f7c8ae85
perumahan,Kantor Pemerintah Negara Bagian,Barapasi,"MX63+Q4Q, Barapasi, Waropen Atas, Kabupaten Mamberamo Raya, Papua","Kabupaten Mamberamo Raya, Papua",PAPUA,,Indonesia,,-2.3380307,136.9528735,https://maps.google.com/?cid=0x0:0xe18850de299fb0ea
housing complex,housing complex,Kec. Waropen Bawah,"Kabupaten Waropen, Papua","Kabupaten Waropen, Papua",PAPUA,,Indonesia,,-2.2420315,136.3794418,https://maps.google.com/?cid=0x0:0x9b57b47411779662
housing complex,Komplek perumahan,Aspol Rumahku,"Q94G+8R7, Waren Dua, Kec. Waropen Bawah, Kabupaten Waropen, Papua 98261","Waren Dua, Kec. Waropen Bawah, Kabupaten Waropen",PAPUA,98261.0,Indonesia,,-2.2442246,136.3770474,https://maps.google.com/?cid=0x0:0x986b4d9abbe05749
housing complex,Komplek perumahan,My home,"Q97G+3GW, Waren Satu, Kec. Waropen Bawah, Kabupaten Waropen, Papua 98261","Waren Satu, Kec. Waropen Bawah, Kabupaten Waropen",PAPUA,98261.0,Indonesia,,-2.2372616,136.3749661,https://maps.google.com/?cid=0x0:0x228edb6a011aab30
housing complex,Pembangunan Perumahan,SEBAT (SEPUTARAN BATUZAMAN),"Q9JW+MQX, Nonomi, Kec. Waropen Bawah, Kabupaten Waropen, Papua 98261","Nonomi, Kec. Waropen Bawah, Kabupaten Waropen",PAPUA,98261.0,Indonesia,,-2.2182625,136.3969844,https://maps.google.com/?cid=0x0:0xc29c5aefcc4baa4b
housing complex,Layanan Perujuk Teman Kos,Kompleks SAWAI,"Q93G+RH2, Jln Sawai, Waren Satu, Kec. Waropen Bawah, Kabupaten Waropen, Papua 98261","Jln Sawai, Waren Satu, Kec. Waropen Bawah, Kabupaten Waropen",PAPUA,98261.0,Indonesia,,-2.2454867,136.3763974,https://maps.google.com/?cid=0x0:0xe9fe53e0eaba94c9
housing complex,Komplek perumahan,Gaigar Home,"QCMJ+F82, Batu Zaman, Kec. Waropen Bawah, Kabupaten Waropen, Papua 98261","Batu Zaman, Kec. Waropen Bawah, Kabupaten Waropen",PAPUA,98261.0,Indonesia,81327986583.0,-2.2165669,136.4318376,https://maps.google.com/?cid=0x0:0xa57be6db6f0b6820
housing complex,Komplek perumahan,KPR SMA waren,"Q96M+H4V, Sarafambai, Kec. Waropen Bawah, Kabupaten Waropen, Papua 98261","Sarafambai, Kec. Waropen Bawah, Kabupaten Waropen",PAPUA,98261.0,Indonesia,,-2.2385202,136.382792,https://maps.google.com/?cid=0x0:0x9cc7282181d27765
housing complex,Komplek perumahan,Alika Home,"QC76+8MF, Khemon Jaya, Distrik Urei Faisei, Nonomi, Kec. Waropen Bawah, Kabupaten Waropen, Papua 98261","Khemon Jaya, Distrik Urei Faisei, Nonomi, Kec. Waropen Bawah, Kabupaten Waropen",PAPUA,98261.0,Indonesia,,-2.2366834,136.4116681,https://maps.google.com/?cid=0x0:0x3a4c602fb2edd3d
housing complex,Komplek perumahan,Zafran,"QC88+89, Nonomi, Kec. Waropen Bawah, Kabupaten Waropen, Papua 98261","Nonomi, Kec. Waropen Bawah, Kabupaten Waropen",PAPUA,98261.0,Indonesia,,-2.2341571,136.4158503,https://maps.google.com/?cid=0x0:0x2ae3afc223ea638c
housing complex,Komplek perumahan,Asrama polres waropen,"Q94H+G3F Asrama polres, Waren Satu, Kec. Waropen Bawah, Kabupaten Waropen, Papua","Kabupaten Waropen, Papua",PAPUA,,Indonesia,,-2.2436822,136.3776674,https://maps.google.com/?cid=0x0:0x12d475e1d0963692
housing complex,Komplek perumahan,Jecky punya rumah,"QCQV+3QF, Urei Faisei Dua, Kec. Urei Faisei, Kabupaten Waropen, Papua 98261","Urei Faisei Dua, Kec. Urei Faisei, Kabupaten Waropen",PAPUA,98261.0,Indonesia,,-2.2116229,136.4458029,https://maps.google.com/?cid=0x0:0x38fdf9863c3630e6
housing complex,Perhimpunan Pengembang Perumahan,Burado tong PU kompleks,"Q9HV+J38, Unnamed Road, Nonomi, Kec. Waropen Bawah, Kabupaten Waropen, Papua 98261","Unnamed Road, Nonomi, Kec. Waropen Bawah, Kabupaten Waropen",PAPUA,98261.0,Indonesia,,-2.2209705,136.3926968,https://maps.google.com/?cid=0x0:0x9464aed07e84c76b
housing complex,Komplek perumahan,Ruruwano Camp,"Q9FQ+CP7 Ruruwano Camp, Nonomi, Kec. Waropen Bawah, Kabupaten Waropen, Papua 98261","Nonomi, Kec. Waropen Bawah, Kabupaten Waropen",PAPUA,98261.0,Indonesia,,-2.2264632,136.3892857,https://maps.google.com/?cid=0x0:0xb670d94cc8411322
housing complex,housing complex,Amii Boseren,"QC8C+VV8, Batu Zaman, Kec. Waropen Bawah, Kabupaten Waropen, Papua 98261","Batu Zaman, Kec. Waropen Bawah, Kabupaten Waropen",PAPUA,98261.0,Indonesia,,-2.232967,136.4219708,https://maps.google.com/?cid=0x0:0x70e38874bf5a840e
housing complex,housing complex,Masirei,"Kabupaten Waropen, Papua","Kabupaten Waropen, Papua",PAPUA,,Indonesia,,-2.5326635,137.0193913,https://maps.google.com/?cid=0x0:0xef8885c7f7c8ae85
housing complex,housing complex,Andin,"73PW+9W2, Koweda, Masirei, Kabupaten Waropen, Papua 98263","Koweda, Masirei, Kabupaten Waropen",PAPUA,98263.0,Indonesia,,-2.7141195,137.0972766,https://maps.google.com/?cid=0x0:0x426f20c536a13c55
housing complex,Komplek perumahan,OPM(official pondok mebel),"PQ45+XPP, Sinonde, Masirei, Kabupaten Waropen, Papua 98263","Sinonde, Masirei, Kabupaten Waropen",PAPUA,98263.0,Indonesia,,-2.292546,136.7593269,https://maps.google.com/?cid=0x0:0xc096f19df1fcd9d0
housing complex,Pembangunan Perumahan,Perumahan Keluarga Nusi di Mayaghaido,"PP2C+2V5, Mayaghaido, Distrik Demba, Kabupaten Waropen, Papua 98263","Mayaghaido, Distrik Demba, Kabupaten Waropen",PAPUA,98263.0,Indonesia,,-2.2999985,136.7222193,https://maps.google.com/?cid=0x0:0x2999a886d3de3f66
housing complex,Kantor Pemerintah Negara Bagian,Barapasi,"MX63+Q4Q, Barapasi, Waropen Atas, Kabupaten Mamberamo Raya, Papua","Kabupaten Mamberamo Raya, Papua",PAPUA,,Indonesia,,-2.3380307,136.9528735,https://maps.google.com/?cid=0x0:0xe18850de299fb0ea
housing complex,Komplek perumahan,Kampung fimore,"MMQC+XP, Fafado, Risei Sayati, Kabupaten Waropen, Papua","Kabupaten Waropen, Papua",PAPUA,,Indonesia,,-2.3100383,136.6718527,https://maps.google.com/?cid=0x0:0xce48c79ccf4b9932
housing complex,Komplek perumahan,Aimasi,"MJMV+4P, Wobari, Risei Sayati, Kabupaten Waropen, Papua","Kabupaten Waropen, Papua",PAPUA,,Indonesia,,-2.3172482,136.6442568,https://maps.google.com/?cid=0x0:0x86ed490cfa628a84
housing complex,Komplek perumahan,Kel. F REWOMI,"PP2H+CR, Mayaghaido, Distrik Demba, Kabupaten Waropen, Papua","Kabupaten Waropen, Papua",PAPUA,,Indonesia,,-2.2989245,136.7295283,https://maps.google.com/?cid=0x0:0x67d8bc0b147095cb
housing complex,housing complex,Risei Sayati,"Kabupaten Waropen, Papua","Kabupaten Waropen, Papua",PAPUA,,Indonesia,,-2.5853714,136.8640458,https://maps.google.com/?cid=0x0:0x79e0df267d2a13e
housing complex,Pembangunan Perumahan,Napani village,"MHX9+V79, Wobari, Risei Sayati, Kabupaten Waropen, Papua","Kabupaten Waropen, Papua",PAPUA,,Indonesia,,-2.2991259,136.5682715,https://maps.google.com/?cid=0x0:0x184f6ef6bd65e55a
housing complex,Perusahaan Konstruksi,Kampung Wobari,"Wobari, Risei Sayati, Kabupaten Waropen, Papua","Kabupaten Waropen, Papua",PAPUA,,Indonesia,82248469331.0,-2.3168132,136.6313145,https://maps.google.com/?cid=0x0:0x6042b0b2d9d6e774
housing complex,Komplek perumahan,Kampung fimore,"MMQC+XP, Fafado, Risei Sayati, Kabupaten Waropen, Papua","Kabupaten Waropen, Papua",PAPUA,,Indonesia,,-2.3100383,136.6718527,https://maps.google.com/?cid=0x0:0xce48c79ccf4b9932
housing complex,Komplek perumahan,Aimasi,"MJMV+4P, Wobari, Risei Sayati, Kabupaten Waropen, Papua","Kabupaten Waropen, Papua",PAPUA,,Indonesia,,-2.3172482,136.6442568,https://maps.google.com/?cid=0x0:0x86ed490cfa628a84
housing complex,Pembangunan Perumahan,Rumah Aurel,"JJ5R+3JW, Mambai, Risei Sayati, Kabupaten Waropen, Papua","Kabupaten Waropen, Papua",PAPUA,,Indonesia,,-2.3922506,136.6415716,https://maps.google.com/?cid=0x0:0x2824aa6341c89d5a
housing complex,Komplek perumahan,Batas kampung SIFUISERA/aimas,"MJQW+5H, Wobari, Risei Sayati, Kabupaten Waropen, Papua","Kabupaten Waropen, Papua",PAPUA,,Indonesia,,-2.3120209,136.6464636,https://maps.google.com/?cid=0x0:0x7c373f76e9a463b3
housing complex,Pembangunan Perumahan,KAMPUNG BOTAWA,"QCVM+P4H, Mambui, Kec. Urei Faisei, Kabupaten Waropen, Papua 98261","Mambui, Kec. Urei Faisei, Kabupaten Waropen",PAPUA,98261.0,Indonesia,,-2.3899652,136.5069026,https://maps.google.com/?cid=0x0:0x36355f3325021a2a
housing complex,Komplek perumahan,Kampung Mui,"CV77+VJ3 Kampung Mui, Fafado, Risei Sayati, Kabupaten Waropen, Papua","Kabupaten Waropen, Papua",PAPUA,,Indonesia,,-2.5853714,136.8640458,https://maps.google.com/?cid=0x0:0xbc1d70f498bcecac
housing complex,Komplek perumahan,Kampung kay/ bpa rhut,"PM2P+VH, Odase, Distrik Demba, Kabupaten Waropen, Papua","Kabupaten Waropen, Papua",PAPUA,,Indonesia,,-2.2978106,136.6864379,https://maps.google.com/?cid=0x0:0xb5caa1978c7ad993
housing complex,Gereja,Kampung Mambai,"JHRV+3P, Wobari, Risei Sayati, Kabupaten Waropen, Papua 98261","Wobari, Risei Sayati, Kabupaten Waropen",PAPUA,98261.0,Indonesia,,-2.3598337,136.5942869,https://maps.google.com/?cid=0x0:0x5969f5760fd72404
housing complex,Komplek perumahan,Kompleks Masesi,"QCRW+WWP, Urei Faisei Dua, Kec. Urei Faisei, Kabupaten Waropen, Papua","Kabupaten Waropen, Papua",PAPUA,,Indonesia,,-2.2076681,136.4473381,https://maps.google.com/?cid=0x0:0xedb59efc81d18576
housing complex,housing complex,Rumah kompleks,"QFP4+HQ9, Dua, Nubuai, Kec. Urei Faisei, Kabupaten Waropen, Papua 98261","Dua, Nubuai, Kec. Urei Faisei, Kabupaten Waropen",PAPUA,98261.0,Indonesia,,-2.2135882,136.456987,https://maps.google.com/?cid=0x0:0x5a72f38b573262b4
housing complex,Komplek perumahan,Alika Home,"QC76+8MF, Khemon Jaya, Distrik Urei Faisei, Nonomi, Kec. Waropen Bawah, Kabupaten Waropen, Papua 98261","Khemon Jaya, Distrik Urei Faisei, Nonomi, Kec. Waropen Bawah, Kabupaten Waropen",PAPUA,98261.0,Indonesia,,-2.2366834,136.4116681,https://maps.google.com/?cid=0x0:0x3a4c602fb2edd3d
housing complex,housing complex,Kec. Urei Faisei,"Kabupaten Waropen, Papua","Kabupaten Waropen, Papua",PAPUA,,Indonesia,,-2.209971,136.4499194,https://maps.google.com/?cid=0x0:0xd94366d88a18b612
housing complex,Komplek perumahan,Kompleks Masesi,"QCRW+WWP, Urei Faisei Dua, Kec. Urei Faisei, Kabupaten Waropen, Papua","Kabupaten Waropen, Papua",PAPUA,,Indonesia,,-2.2076681,136.4473381,https://maps.google.com/?cid=0x0:0xedb59efc81d18576
housing complex,housing complex,Rumah kompleks,"QFP4+HQ9, Dua, Nubuai, Kec. Urei Faisei, Kabupaten Waropen, Papua 98261","Dua, Nubuai, Kec. Urei Faisei, Kabupaten Waropen",PAPUA,98261.0,Indonesia,,-2.2135882,136.456987,https://maps.google.com/?cid=0x0:0x5a72f38b573262b4
housing complex,Komplek perumahan,Rumah Koyari,"QFP2+XVR, Unnamed Road, Nubuai, Kec. Urei Faisei, Kabupaten Waropen, Papua 98261","Unnamed Road, Nubuai, Kec. Urei Faisei, Kabupaten Waropen",PAPUA,98261.0,Indonesia,82297489880.0,-2.2125013,136.4521301,https://maps.google.com/?cid=0x0:0x25df8e8da7f69245
housing complex,Komplek perumahan,Rumah woisiri,"QCRV+96C, Urei Faisei Dua, Kec. Urei Faisei, Kabupaten Waropen, Papua 98261","Urei Faisei Dua, Kec. Urei Faisei, Kabupaten Waropen",PAPUA,98261.0,Indonesia,,-2.208333,136.4419843,https://maps.google.com/?cid=0x0:0xbe5cb8f1e2d1d87f
housing complex,Komplek perumahan,Alika Home,"QC76+8MF, Khemon Jaya, Distrik Urei Faisei, Nonomi, Kec. Waropen Bawah, Kabupaten Waropen, Papua 98261","Khemon Jaya, Distrik Urei Faisei, Nonomi, Kec. Waropen Bawah, Kabupaten Waropen",PAPUA,98261.0,Indonesia,,-2.2366834,136.4116681,https://maps.google.com/?cid=0x0:0x3a4c602fb2edd3d
housing complex,Komplek perumahan,Rumah Jerolin_Auri,"QCQX+XWP, jln poros, Ureifasei Tiga/Paradoi, Kec. Urei Faisei, Kabupaten Waropen, Papua","Kabupaten Waropen, Papua",PAPUA,,Indonesia,,-2.2100805,136.449747,https://maps.google.com/?cid=0x0:0x1118b6c90acf3a4e
housing complex,housing complex,Base home,"QCVR+4JX, Ureifaisei Satu/Sanggei, Kec. Urei Faisei, Kabupaten Waropen, Papua 98261","Ureifaisei Satu/Sanggei, Kec. Urei Faisei, Kabupaten Waropen",PAPUA,98261.0,Indonesia,,-2.2076381,136.4423193,https://maps.google.com/?cid=0x0:0xe880d321e910eb07
housing complex,housing complex,Kel Rumi Home,"QCQ8+HPX, Kemon Jaya Sp V, Kec. Urei Faisei, Kabupaten Waropen, Papua 98261","Kemon Jaya Sp V, Kec. Urei Faisei, Kabupaten Waropen",PAPUA,98261.0,Indonesia,,-2.2112789,136.4168101,https://maps.google.com/?cid=0x0:0x2c639e6b1799d6b0
housing complex,Komplek perumahan,Rorisi,"QCQR+2WG, Kampung Rorisi, Urei Faisei Dua, Kec. Urei Faisei, Kabupaten Waropen, Papua 98261","Kampung Rorisi, Urei Faisei Dua, Kec. Urei Faisei, Kabupaten Waropen",PAPUA,98261.0,Indonesia,,-2.2124303,136.442317,https://maps.google.com/?cid=0x0:0x6df629956af71c5b
housing complex,Komplek perumahan,Depan kompleks sanggei,"QF77+M8W, Nubuai, Kec. Urei Faisei, Kabupaten Waropen, Papua 98261","Nubuai, Kec. Urei Faisei, Kabupaten Waropen",PAPUA,98261.0,Indonesia,,-2.2357531,136.4633415,https://maps.google.com/?cid=0x0:0xa34765aae8c5f183
housing complex,Komplek perumahan,Mesak home,"QFQ3+3FR, Nubuai, Kec. Urei Faisei, Kabupaten Waropen, Papua 98261","Nubuai, Kec. Urei Faisei, Kabupaten Waropen",PAPUA,98261.0,Indonesia,,-2.2129614,136.4533697,https://maps.google.com/?cid=0x0:0xa9c7d78f111f1d96
housing complex,Perumahan,Perumahan Pemda,"QCQC+QX5, Kemon Jaya Sp V, Kec. Urei Faisei, Kabupaten Waropen, Papua 98261","Kemon Jaya Sp V, Kec. Urei Faisei, Kabupaten Waropen",PAPUA,98261.0,Indonesia,,-2.21062,136.4224871,https://maps.google.com/?cid=0x0:0x705b420c534577d1
housing complex,Pembangunan Perumahan,PERAS PEDAI RASTA,"QFR2+69F, Ureifasei Tiga/Paradoi, Kec. Urei Faisei, Kabupaten Waropen, Papua","Kabupaten Waropen, Papua",PAPUA,,Indonesia,85244259834.0,-2.2094476,136.4509111,https://maps.google.com/?cid=0x0:0x32817efcb486e460
housing complex,housing complex,Inggerus,"Kabupaten Waropen, Papua","Kabupaten Waropen, Papua",PAPUA,,Indonesia,,-2.7458074,136.4777687,https://maps.google.com/?cid=0x0:0x450866f7860e3381
housing complex,Komplek perumahan,Wapoga,"7HF2+VG8, Otodemo, Inggerus, Kabupaten Waropen, Papua 98261","Otodemo, Inggerus, Kabupaten Waropen",PAPUA,98261.0,Indonesia,,-2.7253326,136.5513183,https://maps.google.com/?cid=0x0:0x6bd1a0f020cbc87f
housing complex,Komplek perumahan,"Firo inggerus, kabupaten waropen papua","4MR2+XFX, Firo, Inggerus, Kabupaten Waropen, Papua","Kabupaten Waropen, Papua",PAPUA,,Indonesia,,-2.8575227,136.6512239,https://maps.google.com/?cid=0x0:0x8090b05a9ea0a8d5
housing complex,Pembangunan Perumahan,Mambai Komplex,"5M4C+H6F, Firo, Inggerus, Kabupaten Waropen, Papua","Kabupaten Waropen, Papua",PAPUA,,Indonesia,,-2.8435717,136.670534,https://maps.google.com/?cid=0x0:0x57ac55568eecf7e1
housing complex,Komplek perumahan,Kampung harapan jaya,"8646+RHC, Harapan jaya Sp II, Inggerus, Kabupaten Waropen, Papua","Kabupaten Waropen, Papua",PAPUA,,Indonesia,,-2.6929375,136.2113906,https://maps.google.com/?cid=0x0:0xe0a9fa75855d74f5
housing complex,housing complex,Rmh bpa.M.sawaki,"85JM+8F, Toire Sp I, Inggerus, Kabupaten Waropen, Papua","Kabupaten Waropen, Papua",PAPUA,,Indonesia,,-2.6692083,136.1836558,https://maps.google.com/?cid=0x0:0xf65029e39c7a274
housing complex,Komplek perumahan,P. Guru supri,"86FR+5PQ, Demisa Sp III, Inggerus, Kabupaten Waropen, Papua 98261","Demisa Sp III, Inggerus, Kabupaten Waropen",PAPUA,98261.0,Indonesia,,-2.6766426,136.2431321,https://maps.google.com/?cid=0x0:0x3ccfc6552ce03330
housing complex,Komplek perumahan,kampung Otodemo distrik Inggerus,"5C9G+JF, Syewa/Mirare, Wapoga, Kabupaten Waropen, Papua","Kabupaten Waropen, Papua",PAPUA,,Indonesia,,-2.8309691,136.4262139,https://maps.google.com/?cid=0x0:0xe09f4df316288642
housing complex,Komplek perumahan,Harapan jaya Sp II,"8656+WVJ, Harapan Jaya Sp II, Inggerus, Kabupaten Waropen, Papua","Kabupaten Waropen, Papua",PAPUA,,Indonesia,,-2.6901652,136.2121557,https://maps.google.com/?cid=0x0:0x78bc92c384b4d2b2
housing complex,Komplek perumahan,Rumah Pak indra,"8655+PV, harapan jaya sp2, Inggerus, Kabupaten Waropen, Papua","Kabupaten Waropen, Papua",PAPUA,,Indonesia,,-2.6912969,136.2102164,https://maps.google.com/?cid=0x0:0xf4305adbd6326df7
housing complex,Pembangunan Perumahan,Lemba urei,"5M4C+H6F, Firo, Inggerus, Kabupaten Waropen, Papua","Kabupaten Waropen, Papua",PAPUA,,Indonesia,,-2.8435717,136.670534,https://maps.google.com/?cid=0x0:0xc8a696475d7b563c
housing complex,Pembangunan Perumahan,Gubuk jingga,"73QR+7W3, Jln. Trans Wapoga inggerus, Pirare, Wapoga, Kabupaten Waropen, Papua","Kabupaten Waropen, Papua",PAPUA,,Indonesia,,-2.7118653,136.0922988,https://maps.google.com/?cid=0x0:0xb7ff766de7b2d78b
housing complex,Balai masyarakat,Balai Kampung Firo,"86J5+C9, Toire Sp I, Demisa Sp III, Inggerus, Kabupaten Waropen, Papua","Kabupaten Waropen, Papua",PAPUA,,Indonesia,,-2.6685625,136.2376876,https://maps.google.com/?cid=0x0:0xff156508503f4ad0
housing complex,Pembangunan Perumahan,Aiko home,"73QR+X4, Pirare, Wapoga, Kabupaten Waropen, Papua","Kabupaten Waropen, Papua",PAPUA,,Indonesia,,-2.710296,136.0905466,https://maps.google.com/?cid=0x0:0x6af4012833247efc
housing complex,housing complex,Papua 98263,"Kabupaten Waropen, Papua","Kabupaten Waropen, Papua",PAPUA,,Indonesia,,-2.8580182,136.9805103,https://maps.google.com/?cid=0x0:0xcb1ac3e3a0828ae1
housing complex,Pembangunan Perumahan,Napani village,"MHX9+V79, Wobari, Risei Sayati, Kabupaten Waropen, Papua","Kabupaten Waropen, Papua",PAPUA,,Indonesia,,-2.2991259,136.5682715,https://maps.google.com/?cid=0x0:0x184f6ef6bd65e55a
housing complex,Pembangunan Perumahan,Perumahan Keluarga Nusi di Mayaghaido,"PP2C+2V5, Mayaghaido, Distrik Demba, Kabupaten Waropen, Papua 98263","Mayaghaido, Distrik Demba, Kabupaten Waropen",PAPUA,98263.0,Indonesia,,-2.2999985,136.7222193,https://maps.google.com/?cid=0x0:0x2999a886d3de3f66
housing complex,Komplek perumahan,Kampung kay/ bpa rhut,"PM2P+VH, Odase, Distrik Demba, Kabupaten Waropen, Papua","Kabupaten Waropen, Papua",PAPUA,,Indonesia,,-2.2978106,136.6864379,https://maps.google.com/?cid=0x0:0xb5caa1978c7ad993
housing complex,Pembangunan Perumahan,Distrik dervos,"26JF+V64, Oyetadi, Walani, Kabupaten Waropen, Papua 98263","Oyetadi, Walani, Kabupaten Waropen",PAPUA,98263.0,Indonesia,,-2.9678743,137.2230722,https://maps.google.com/?cid=0x0:0x1499d3ad978de84a
housing complex,Pembangunan Perumahan,Blakan kantor distrik UREIFASEI,"5M4C+H6F, Firo, Inggerus, Kabupaten Waropen, Papua","Kabupaten Waropen, Papua",PAPUA,,Indonesia,85260920916.0,-2.8435717,136.670534,https://maps.google.com/?cid=0x0:0xccbfc8e85ea4ef09
housing complex,Komplek perumahan,Kel. F REWOMI,"PP2H+CR, Mayaghaido, Distrik Demba, Kabupaten Waropen, Papua","Kabupaten Waropen, Papua",PAPUA,,Indonesia,,-2.2989245,136.7295283,https://maps.google.com/?cid=0x0:0x67d8bc0b147095cb
housing complex,Pembangunan Perumahan,Mambai Komplex,"5M4C+H6F, Firo, Inggerus, Kabupaten Waropen, Papua","Kabupaten Waropen, Papua",PAPUA,,Indonesia,,-2.8435717,136.670534,https://maps.google.com/?cid=0x0:0x57ac55568eecf7e1
housing complex,housing complex,Andin,"73PW+9W2, Koweda, Masirei, Kabupaten Waropen, Papua 98263","Koweda, Masirei, Kabupaten Waropen",PAPUA,98263.0,Indonesia,,-2.7141195,137.0972766,https://maps.google.com/?cid=0x0:0x426f20c536a13c55
housing complex,Komplek perumahan,Distrik siriwo,"W2VQ+QGP, Matadi, Walani, Kabupaten Waropen, Papua","Kabupaten Waropen, Papua",PAPUA,,Indonesia,,-3.0555361,137.0388429,https://maps.google.com/?cid=0x0:0x969b302b083df57b
housing complex,Komplek perumahan,Kampung Fafai,"PJPG+GR9, Fafai, Distrik Demba, Kabupaten Waropen, Papua","Kabupaten Waropen, Papua",PAPUA,,Indonesia,,-2.2637003,136.6270967,https://maps.google.com/?cid=0x0:0xf85614149fbdb4dd
housing complex,Pembangunan Perumahan,BALINDA HOME,"5M4C+H6F, Firo, Inggerus, Kabupaten Waropen, Papua","Kabupaten Waropen, Papua",PAPUA,,Indonesia,,-2.8435717,136.670534,https://maps.google.com/?cid=0x0:0x7d5f84ec63c6d7b
housing complex,Pembangunan Perumahan,Kompleks Rumah Dinas Fafado,"9V4C+88F, Fafado, Risei Sayati, Kabupaten Waropen, Papua 98263","Fafado, Risei Sayati, Kabupaten Waropen",PAPUA,98263.0,Indonesia,,-2.644186,136.8707821,https://maps.google.com/?cid=0x0:0x675af437399c7fa1
housing complex,Komplek perumahan,Kampung fimore,"MMQC+XP, Fafado, Risei Sayati, Kabupaten Waropen, Papua","Kabupaten Waropen, Papua",PAPUA,,Indonesia,,-2.3100383,136.6718527,https://maps.google.com/?cid=0x0:0xce48c79ccf4b9932
housing complex,Kantor Pemerintah,Kampung Pamai,"43JQ+X3R Pulau Dombo, Poiwai, Sawai, Kabupaten Mamberamo Raya, Papua","Kabupaten Mamberamo Raya, Papua",PAPUA,,Indonesia,,-1.8675032,137.0876521,https://maps.google.com/?cid=0x0:0xdc99ad0286c1515d
housing complex,Pembangunan Perumahan,Kampung bonoi,"47QR+8WP, Bonoi, Sawai, Kabupaten Mamberamo Raya, Papua 98262","Bonoi, Sawai, Kabupaten Mamberamo Raya",PAPUA,98262.0,Indonesia,,-1.8613232,137.2914885,https://maps.google.com/?cid=0x0:0xb8f91919104d95fe
housing complex,housing complex,Pelabuhan Kampung Bonoi,"47QV+663, Bonoi, Sawai, Kabupaten Mamberamo Raya, Papua 98262","Bonoi, Sawai, Kabupaten Mamberamo Raya",PAPUA,98262.0,Indonesia,,-1.8619834,137.2930458,https://maps.google.com/?cid=0x0:0x5cd928a7bf976fe9
housing complex,housing complex,Papua waropen,"QCQJ+X9R, Mambui, Kec. Urei Faisei, Kabupaten Waropen, Papua 98261","Mambui, Kec. Urei Faisei, Kabupaten Waropen",PAPUA,98261.0,Indonesia,,-2.2100201,136.4308955,https://maps.google.com/?cid=0x0:0xc6470293d430a51a
housing complex,Sekolah Dasar,Moroa oudate waropen,"Q95H+5QP, Kampung Moroa, Kec. Waropen Bawah, Kabupaten Waropen, Papua","Kabupaten Waropen, Papua",PAPUA,,Indonesia,,-2.2420315,136.3794418,https://maps.google.com/?cid=0x0:0x4a9c8e0e638dc9a9
housing complex,Komplek perumahan,Wapoga,"7HF2+VG8, Otodemo, Inggerus, Kabupaten Waropen, Papua 98261","Otodemo, Inggerus, Kabupaten Waropen",PAPUA,98261.0,Indonesia,,-2.7253326,136.5513183,https://maps.google.com/?cid=0x0:0x6bd1a0f020cbc87f
housing complex,Pembangunan Perumahan,Kopel guru,"533V+JQH, Totoberi, Kec. Wapoga, Kabupaten Nabire, Papua","Kabupaten Nabire, Papua",PAPUA,,Indonesia,,-2.8459446,136.0944845,https://maps.google.com/?cid=0x0:0xe208320799cbd39d
housing complex,housing complex,Papua 98861,"Kabupaten Nabire, Papua","Kabupaten Nabire, Papua",PAPUA,,Indonesia,,-3.1060477,135.9800848,https://maps.google.com/?cid=0x0:0x6de7561b85a7e092
housing complex,Bendungan,Lagari 1,"Jl. Merpati No.Lagari 1, Biha, Makimi, Kabupaten Nabire, Papua 98861","Biha, Makimi, Kabupaten Nabire",PAPUA,98861.0,Indonesia,,-3.1636562,135.7467262,https://maps.google.com/?cid=0x0:0x9317230ded6708b9
housing complex,Komplek perumahan,Rumah mas joko,"RQP3+72, Legari Jaya, Makimi, Kabupaten Nabire, Papua","Kabupaten Nabire, Papua",PAPUA,,Indonesia,81336510514.0,-3.1642301,135.7525407,https://maps.google.com/?cid=0x0:0x8eef157f5745838a
housing complex,Pembangunan Perumahan,Aiko home,"73QR+X4, Pirare, Wapoga, Kabupaten Waropen, Papua","Kabupaten Waropen, Papua",PAPUA,,Indonesia,,-2.710296,136.0905466,https://maps.google.com/?cid=0x0:0x6af4012833247efc
housing complex,housing complex,Legari,"RQJC+CC7, Legari Jaya, Makimi, Kabupaten Nabire, Papua","Kabupaten Nabire, Papua",PAPUA,,Indonesia,,-3.1689592,135.7710559,https://maps.google.com/?cid=0x0:0x53bda53b20c53a2a
housing complex,Komplek perumahan,Womas,"VQP3+7JX, Makimi, Kabupaten Nabire, Papua 98861","Makimi, Kabupaten Nabire",PAPUA,98861.0,Indonesia,,-3.1142539,135.754097,https://maps.google.com/?cid=0x0:0xcf37914253a0636f
housing complex,Komplek perumahan,Samanui,"6W8W+7Q, Samanui, Kec. Wapoga, Kabupaten Nabire, Papua","Kabupaten Nabire, Papua",PAPUA,,Indonesia,,-2.7842625,135.9469727,https://maps.google.com/?cid=0x0:0x7ca569018f71b9c3
housing complex,housing complex,Rumah Pithein Rumatrai,"WQW8+M27, Napan, Kabupaten Nabire, Papua 98861","Napan, Kabupaten Nabire",PAPUA,98861.0,Indonesia,,-3.0533468,135.7650327,https://maps.google.com/?cid=0x0:0x672ca8839d873d4b
housing complex,Komplek perumahan,Samanui nabire Papua Indonesia,"5XWG+88Q, Samanui, Kec. Wapoga, Kabupaten Nabire, Papua","Kabupaten Nabire, Papua",PAPUA,,Indonesia,,-2.8049762,135.9758661,https://maps.google.com/?cid=0x0:0x9c9a32ec01c0bffd
housing complex,Pembangunan Perumahan,ED'R_Rumah putih wapoga,"73X9+J6X, Wapoga, Kabupaten Waropen, Papua 98261","Wapoga, Kabupaten Waropen",PAPUA,98261.0,Indonesia,,-2.699553,136.0680234,https://maps.google.com/?cid=0x0:0xdb61a268e75d4651
housing complex,Komplek perumahan,Arum mawar legari,"RPCJ+749, Biha, Makimi, Kabupaten Nabire, Papua","Kabupaten Nabire, Papua",PAPUA,,Indonesia,,-3.179341,135.7303736,https://maps.google.com/?cid=0x0:0x93d5e579e2d1bb45
housing complex,Komplek perumahan,"RPMX,QH, Legari jaya, makimi, kabupaten nabire, papua","RPPX+653, Legari Jaya, Makimi, Kabupaten Nabire, Papua","Kabupaten Nabire, Papua",PAPUA,,Indonesia,,-3.1644103,135.7484051,https://maps.google.com/?cid=0x0:0x7748260c37345868
housing complex,housing complex,Papua 98263,"Kabupaten Waropen, Papua","Kabupaten Waropen, Papua",PAPUA,,Indonesia,,-2.8580182,136.9805103,https://maps.google.com/?cid=0x0:0xcb1ac3e3a0828ae1
housing complex,Perhimpunan Pengembang Perumahan,Demba Fafai,"PJPG+GR9, Fafai, Distrik Demba, Kabupaten Waropen, Papua 98263","Fafai, Distrik Demba, Kabupaten Waropen",PAPUA,98263.0,Indonesia,,-2.2637003,136.6270967,https://maps.google.com/?cid=0x0:0xfb67eb422e18a534
housing complex,Pembangunan Perumahan,Perumahan Keluarga Nusi di Mayaghaido,"PP2C+2V5, Mayaghaido, Distrik Demba, Kabupaten Waropen, Papua 98263","Mayaghaido, Distrik Demba, Kabupaten Waropen",PAPUA,98263.0,Indonesia,,-2.2999985,136.7222193,https://maps.google.com/?cid=0x0:0x2999a886d3de3f66
