Category,Real Category,Business Name,Address,City,State,Postal Code,Country,Phone,Latitude,Longitude,Map Link
cafe,Kios,Rumah kepala pasar urfas,"QCRW+FX8, Ureifasei Tiga/Paradoi, Kec. Waropen Bawah, Kabupaten Waropen, Papua","Kabupaten Waropen, Papua",PAPUA BARAT,,Indonesia,82214539464.0,-2.2088375,136.4474383,https://maps.google.com/?cid=0x0:0xe2906770b5bd21b6
cafe,Rumah Kaca,Cafe Pasaden@ Urfas 3,"QCVM+R8G, Unnamed Road, Mambui, Kec. Urei Faisei, Kabupaten Waropen, Papua 98261","Unnamed Road, Mambui, Kec. Urei Faisei, Kabupaten Waropen",PAPUA BARAT,98261.0,Indonesia,81342088282.0,-2.205447,136.433335,https://maps.google.com/?cid=0x0:0x5799ac3ce9026d57
cafe,cafe,,,,PAPUA BARAT,,Indonesia,,,,https://maps.google.com/?cid=0x0:0x5799ac3ce9026d57u0026onu0026midu003d/g/11fmy36534
cafe,Kafe Buah Khas Jepang,Abun's Cafe,"CR7H+H96, RT.03/RW.05, Cimahpar, Kec. Bogor Utara, Kota Bogor, Jawa Barat 16155","RT.03/RW.05, Cimahpar, Kec. Bogor Utara, Kota Bogor",PAPUA BARAT,16155.0,Indonesia,,-6.5860901,106.8283982,https://maps.google.com/?cid=0x0:0x76338ff4455dbcb8
cafe,Kafe,Cafe Abu Thoam,"Unnamed Road, Sukadami, Cikarang Sel., Kabupaten Bekasi, Jawa Barat 17530","Sukadami, Cikarang Sel., Kabupaten Bekasi",PAPUA BARAT,17530.0,Indonesia,,-6.3555849,107.1092376,https://maps.google.com/?cid=0x0:0x4d8e211ff1875e90
cafe,Kafe,Warung Abahayam,"JW4M+4PC, Cikeas Udik, Kec. Gn. Putri, Kabupaten Bogor, Jawa Barat 16966","Cikeas Udik, Kec. Gn. Putri, Kabupaten Bogor",PAPUA BARAT,16966.0,Indonesia,8881328442.0,-6.394683,106.9342535,https://maps.google.com/?cid=0x0:0x540837aeb76331e7
cafe,Kedai Kopi,Abu sopyan,"P2MW+C65, Jatimulya, Kec. Tambun Sel., Kabupaten Bekasi, Jawa Barat 17510","Jatimulya, Kec. Tambun Sel., Kabupaten Bekasi",PAPUA BARAT,17510.0,Indonesia,,-6.2664937,107.0456075,https://maps.google.com/?cid=0x0:0x6a96b7964a2b0d2
cafe,cafe,Papua Bar. 98371,Papua Bar.,Papua Bar.,PAPUA BARAT,,Indonesia,,-0.6071799,132.941698,https://maps.google.com/?cid=0x0:0xccfddd95cd14e2b2
cafe,Kedai Kopi,DOME EATERY,"Malawili, Kec. Aimas, Kabupaten Sorong, Papua Bar.","Kabupaten Sorong, Papua Bar.",PAPUA BARAT,,Indonesia,,-0.9575952,131.3348549,https://maps.google.com/?cid=0x0:0xf9d0953e7b0042c9
cafe,cafe,WM. Mbak YANTI,"Jalan peter anjai, samping bandara, Kebar, Kabupaten Manokwari, Papua Bar.","Kabupaten Manokwari, Papua Bar.",PAPUA BARAT,,Indonesia,85341995699.0,-0.8076591,133.0547729,https://maps.google.com/?cid=0x0:0xfdd34a1a840e5fff
cafe,cafe,Papua Bar. 98372,"Kabupaten Manokwari, Papua Bar.","Kabupaten Manokwari, Papua Bar.",PAPUA BARAT,,Indonesia,,-0.9989582,133.0194897,https://maps.google.com/?cid=0x0:0xd3aecb81246ce306
cafe,cafe,WM. Mbak YANTI,"Jalan peter anjai, samping bandara, Kebar, Kabupaten Manokwari, Papua Bar.","Kabupaten Manokwari, Papua Bar.",PAPUA BARAT,,Indonesia,85341995699.0,-0.8076591,133.0547729,https://maps.google.com/?cid=0x0:0xfdd34a1a840e5fff
cafe,Kedai Kopi,Z COFFEE,"42HX+V6C, Jl. Trikora Rendani, Wosi, Kec. Manokwari Bar., Kabupaten Manokwari, Papua Bar. 98312","Jl. Trikora Rendani, Wosi, Kec. Manokwari Bar., Kabupaten Manokwari",PAPUA BARAT,98312.0,Indonesia,81247192526.0,-0.8703133,134.0480103,https://maps.google.com/?cid=0x0:0x52fc52684fc7839c
cafe,Kafe,KOBAR (Kopi Bareng) Cafe,"Jl. Sumatra No.51, RT.004/RW.007, Jombang, Kec. Ciputat, Kota Tangerang Selatan, Banten 15414","RT.004/RW.007, Jombang, Kec. Ciputat, Kota Tangerang Selatan",PAPUA BARAT,15414.0,Indonesia,88212014333.0,-6.2943374,106.6985308,https://maps.google.com/?cid=0x0:0xd93e34f7427cd497
cafe,cafe,Pasar Pagi Mama-mama Kebar,"53V3+4GM, Kebar Tengah, Kebar, Kabupaten Tambrauw, Papua Bar.","Kabupaten Tambrauw, Papua Bar.",PAPUA BARAT,,Indonesia,,-0.8076608,133.0536715,https://maps.google.com/?cid=0x0:0x91324a1d03946204
cafe,cafe,Distrik Fef,"Kabupaten Tambrauw, Papua Bar.","Kabupaten Tambrauw, Papua Bar.",PAPUA BARAT,,Indonesia,,-0.7798216,132.3665985,https://maps.google.com/?cid=0x0:0x99889d8cffaa571e
cafe,cafe,Kafe Internet MAROS INDAH,"Emaos, Distrik Sausapor, Kabupaten Tambrauw, Papua Bar. 98473","Distrik Sausapor, Kabupaten Tambrauw",PAPUA BARAT,98473.0,Indonesia,82271191527.0,-0.504784,132.0801417,https://maps.google.com/?cid=0x0:0x16b708103e4522bb
cafe,cafe,Distrik Kwoor,"Kabupaten Tambrauw, Papua Bar.","Kabupaten Tambrauw, Papua Bar.",PAPUA BARAT,,Indonesia,,-0.4621685,132.2908119,https://maps.google.com/?cid=0x0:0xc9babc4648539c74
cafe,Restoran,Mond - Tree CafÃ©,"75 1, Phu Khang, Phra Phutthabat District, Saraburi 18120, Thailand","Phu Khang, Phra Phutthabat District, Saraburi",PAPUA BARAT,18120.0,Indonesia,66899274105.0,14.6738215,100.7840686,https://maps.google.com/?cid=0x0:0xdf95a10e931eedd6
cafe,Hotel sehat,Penginapan Arauna,"G34Q+7GH, Emaos, Distrik Sausapor, Kabupaten Tambrauw, Papua Bar. 98473","Emaos, Distrik Sausapor, Kabupaten Tambrauw",PAPUA BARAT,98473.0,Indonesia,,-0.4943086,132.088845,https://maps.google.com/?cid=0x0:0x81daa071cd9e14d8
cafe,Rumah Kaca,Cafe Pasaden@ Urfas 3,"QCVM+R8G, Unnamed Road, Mambui, Kec. Urei Faisei, Kabupaten Waropen, Papua 98261","Unnamed Road, Mambui, Kec. Urei Faisei, Kabupaten Waropen",PAPUA BARAT,98261.0,Indonesia,81342088282.0,-2.205447,136.433335,https://maps.google.com/?cid=0x0:0x5799ac3ce9026d57
cafe,Glass industry,A+ Coffee TÃ´ Hiá»u,"25 ÄÆ°á»ng VÅ©, TÃ´ Hiá»u, ThÆ°á»ng TÃ­n, HÃ  Ná»i, Vietnam","Hanoi, Vietnam",PAPUA BARAT,,Indonesia,,20.8055911,105.8803796,https://maps.google.com/?cid=0x0:0xffe8150febeac418
cafe,Kedai Kopi,Kamtumi Coffee,"Jl. Ujung Gurun No.152, Ujung Gurun, Kec. Padang Bar., Kota Padang, Sumatera Barat","Kota Padang, Sumatera Barat",PAPUA BARAT,,Indonesia,,-0.9344922,100.3571677,https://maps.google.com/?cid=0x0:0x844c95c4f57ce1c1
cafe,Tempat Biliar,Bilyard Iriani Sspor,"G33R+RW8, Emaos, Distrik Sausapor, Kabupaten Tambrauw, Papua Bar. 98473","Emaos, Distrik Sausapor, Kabupaten Tambrauw",PAPUA BARAT,98473.0,Indonesia,,-0.4954732,132.0923337,https://maps.google.com/?cid=0x0:0x549c0fbef257b4a5
cafe,Kedai Kopi,à¸à¸¹à¸à¸²à¸à¸²à¹à¸à¹,"18 Tambon Wang Pong, Wang Pong District, Phetchabun 67240, Thailand","Wang Pong District, Phetchabun",PAPUA BARAT,67240.0,Indonesia,66943599285.0,16.3098838,100.8065347,https://maps.google.com/?cid=0x0:0x35d66eefe8096a03
cafe,cafe,Miyah,"Kabupaten Tambrauw, Papua Bar.","Kabupaten Tambrauw, Papua Bar.",PAPUA BARAT,,Indonesia,,-0.7502666,132.6684924,https://maps.google.com/?cid=0x0:0x714bb316eb3dbe5c
cafe,Kafe,Jamer Time RTB,"43W9+4VF, Jl. Merdeka, Manokwari Tim., Kec. Manokwari Bar., Kabupaten Manokwari, Papua Bar. 98312","Jl. Merdeka, Manokwari Tim., Kec. Manokwari Bar., Kabupaten Manokwari",PAPUA BARAT,98312.0,Indonesia,,-0.8546855,134.0696782,https://maps.google.com/?cid=0x0:0x46c05e97494c1b8e
cafe,Kafe,TanyaKopi_Mkw,"53PG+3HF, Pantai, Amban, Kec. Manokwari Bar., Kabupaten Manokwari, Papua Bar. 98314","Pantai, Amban, Kec. Manokwari Bar., Kabupaten Manokwari",PAPUA BARAT,98314.0,Indonesia,,-0.8146325,134.0758623,https://maps.google.com/?cid=0x0:0xff2bf54c921a1311
cafe,Kafe,7ty.coffeehouse,"Perumahan Bumi Marina Asri blok i 19, Amban, Kec. Manokwari Bar., Kabupaten Manokwari, Papua Bar. 98312","Amban, Kec. Manokwari Bar., Kabupaten Manokwari",PAPUA BARAT,98312.0,Indonesia,,-0.8393916,134.0550663,https://maps.google.com/?cid=0x0:0xe5ed0ced56f5375d
cafe,Bar,Mayosi Cafe  Eatery,"Vanya Lakeside G1/1, Jl. BSD Raya Pusat No.1, Cicalengka, Kec. Pagedangan, Kabupaten Tangerang, Banten 15336","Jl. BSD Raya Pusat No.1, Cicalengka, Kec. Pagedangan, Kabupaten Tangerang",PAPUA BARAT,15336.0,Indonesia,81977458917.0,-6.2947621,106.6200699,https://maps.google.com/?cid=0x0:0x469d5c3c4c854bc5
cafe,Brunch,Warung Makan Safira,"5CVM+PC2, Jl. Raya Mega-Fef, Ases, Distrik Fef, Kabupaten Tambrauw, Papua Bar. 98473","Jl. Raya Mega-Fef, Ases, Distrik Fef, Kabupaten Tambrauw",PAPUA BARAT,98473.0,Indonesia,,-0.8057493,132.4335025,https://maps.google.com/?cid=0x0:0xdbb6822d7fe5cd3
cafe,Makanan Kecil,Warung Makan Andre,"6C76+MF, Banso, Distrik Syujak, Kabupaten Tambrauw, Papua Bar.","Kabupaten Tambrauw, Papua Bar.",PAPUA BARAT,,Indonesia,,-0.7857415,132.4111989,https://maps.google.com/?cid=0x0:0x443c5a3dac5e6f70
cafe,cafe,Warung Chelsea,"6C4F+R6P, Jl. Raya Mega-Fef, Fef, Distrik Syujak, Kabupaten Tambrauw, Papua Bar.","Kabupaten Tambrauw, Papua Bar.",PAPUA BARAT,,Indonesia,,-0.7929218,132.423064,https://maps.google.com/?cid=0x0:0xba21b5f3e8078046
cafe,cafe,Warung kopi Debora,"6C5C+G9F, Banso, Distrik Syujak, Kabupaten Tambrauw, Papua Bar.","Kabupaten Tambrauw, Papua Bar.",PAPUA BARAT,,Indonesia,,-0.7911779,132.4209273,https://maps.google.com/?cid=0x0:0x50f96247e56fe0
cafe,Kafe,Maoke Coffee House,"Jl. Delima sp2, Timika Jaya, Mimika Baru, Mimika Regency, Papua 99963","Timika Jaya, Mimika Baru, Mimika Regency",PAPUA BARAT,99963.0,Indonesia,8114914480.0,-4.5169242,136.8468622,https://maps.google.com/?cid=0x0:0x7261e73da0cb2350
cafe,cafe,Kafe Internet MAROS INDAH,"Emaos, Distrik Sausapor, Kabupaten Tambrauw, Papua Bar. 98473","Distrik Sausapor, Kabupaten Tambrauw",PAPUA BARAT,98473.0,Indonesia,82271191527.0,-0.504784,132.0801417,https://maps.google.com/?cid=0x0:0x16b708103e4522bb
cafe,Kafe,Coffee Brothers,"Maniwak, Manggurai PEMDA, Iriati, Distrik Wasior, Kabupaten Teluk Wondama, Papua Bar. 98362","Manggurai PEMDA, Iriati, Distrik Wasior, Kabupaten Teluk Wondama",PAPUA BARAT,98362.0,Indonesia,85244343890.0,-2.761305,134.5119245,https://maps.google.com/?cid=0x0:0x40dcc2c8a660e005
cafe,Kafe seni,ALDRI WARKOP,"Iriati, Distrik Wasior, Kabupaten Teluk Wondama, Papua Bar. 98346","Distrik Wasior, Kabupaten Teluk Wondama",PAPUA BARAT,98346.0,Indonesia,82248183514.0,-2.8551699,134.3236557,https://maps.google.com/?cid=0x0:0x6f4274922c3bfa18
cafe,Kedai Teh,Mou'TA Coffee,"tower dallas k.gf 23, Jl. Pahlawan Revolusi No.1, RT.1/RW.2, Pd. Bambu, Kec. Duren Sawit, Kota Jakarta Timur, Daerah Khusus Ibukota Jakarta 13440","Jl. Pahlawan Revolusi No.1, RT.1/RW.2, Pd. Bambu, Kec. Duren Sawit, Kota Jakarta Timur",PAPUA BARAT,13440.0,Indonesia,82312333633.0,-6.2243589,106.8981993,https://maps.google.com/?cid=0x0:0xf605026c1279d904
cafe,cafe,,,,PAPUA BARAT,,Indonesia,,,,https://maps.google.com/?cid=0x0:0xf605026c1279d904u0026onu0026midu003d/g/11y4491wcr
cafe,cafe,Distrik Sausapor,"Kabupaten Tambrauw, Papua Bar.","Kabupaten Tambrauw, Papua Bar.",PAPUA BARAT,,Indonesia,,-0.496052,132.0874738,https://maps.google.com/?cid=0x0:0x22b76922b3bd09b1
cafe,cafe,Kafe Internet MAROS INDAH,"Emaos, Distrik Sausapor, Kabupaten Tambrauw, Papua Bar. 98473","Distrik Sausapor, Kabupaten Tambrauw",PAPUA BARAT,98473.0,Indonesia,82271191527.0,-0.504784,132.0801417,https://maps.google.com/?cid=0x0:0x16b708103e4522bb
cafe,Tempat Biliar,Bilyard Iriani Sspor,"G33R+RW8, Emaos, Distrik Sausapor, Kabupaten Tambrauw, Papua Bar. 98473","Emaos, Distrik Sausapor, Kabupaten Tambrauw",PAPUA BARAT,98473.0,Indonesia,,-0.4954732,132.0923337,https://maps.google.com/?cid=0x0:0x549c0fbef257b4a5
cafe,Layanan Transportasi,Pasar Emaus Sausapor,"G33P+MW8, Jl warfaknik, Emaus, Kab, Emaos, Distrik Sausapor, Kabupaten Tambrauw, Papua Bar. 98473","Jl warfaknik, Emaus, Kab, Emaos, Distrik Sausapor, Kabupaten Tambrauw",PAPUA BARAT,98473.0,Indonesia,,-0.4958421,132.0873269,https://maps.google.com/?cid=0x0:0xf1e5194c83eca1fd
cafe,cafe,Papua Bar. 98372,"Kabupaten Manokwari, Papua Bar.","Kabupaten Manokwari, Papua Bar.",PAPUA BARAT,,Indonesia,,-0.9989582,133.0194897,https://maps.google.com/?cid=0x0:0xd3aecb81246ce306
cafe,Kedai Kopi,Enauto Coffee Papua,"Jl. Sudirman, Bukit Meriam, Samping Jl. PDAM No.70F, Karang Mulia, Nabire Regency, Papua 98815","Bukit Meriam, Samping Jl. PDAM No.70F, Karang Mulia, Nabire Regency",PAPUA BARAT,98815.0,Indonesia,82187015600.0,-3.3732958,135.5020802,https://maps.google.com/?cid=0x0:0x9e65249c3b29dc0e
cafe,cafe,WM. Mbak YANTI,"Jalan peter anjai, samping bandara, Kebar, Kabupaten Manokwari, Papua Bar.","Kabupaten Manokwari, Papua Bar.",PAPUA BARAT,,Indonesia,85341995699.0,-0.8076591,133.0547729,https://maps.google.com/?cid=0x0:0xfdd34a1a840e5fff
cafe,Kafe,Coffee Brothers,"Maniwak, Manggurai PEMDA, Iriati, Distrik Wasior, Kabupaten Teluk Wondama, Papua Bar. 98362","Manggurai PEMDA, Iriati, Distrik Wasior, Kabupaten Teluk Wondama",PAPUA BARAT,98362.0,Indonesia,85244343890.0,-2.761305,134.5119245,https://maps.google.com/?cid=0x0:0x40dcc2c8a660e005
cafe,Restoran,Kabupaten wasior,"M57F+HV4, Morombuy, Merdey, Kabupaten Teluk Bintuni, Papua Bar.","Kabupaten Teluk Bintuni, Papua Bar.",PAPUA BARAT,,Indonesia,,-1.3361154,133.1747162,https://maps.google.com/?cid=0x0:0x5c8a1dc8576d6163
cafe,Kafe,Saanjh Cafe,"CJ2G+C7W, Jl. Gelanggang Remaja, Waena, Kec. Heram, Kota Jayapura, Papua 99351","Jl. Gelanggang Remaja, Waena, Kec. Heram, Kota Jayapura",PAPUA BARAT,99351.0,Indonesia,,-2.5988941,140.6256974,https://maps.google.com/?cid=0x0:0xf472b389c2309050
cafe,Kedai Kopi,Cafe Isasai,"Danau Sentani, Kp. Waena, Kec. Heram, Kota Jayapura, Papua 99351","Kp. Waena, Kec. Heram, Kota Jayapura",PAPUA BARAT,99351.0,Indonesia,,-2.598538,140.6244014,https://maps.google.com/?cid=0x0:0xc37a24107e869a96
cafe,Kedai Kopi,Tuantana Coffee,"Jl. Malibela No.39, Klawalu, Distrik Sorong Timur, Kota Sorong, Papua Bar. 98416","Klawalu, Distrik Sorong Timur, Kota Sorong",PAPUA BARAT,98416.0,Indonesia,82260971344.0,-0.8996174,131.3178955,https://maps.google.com/?cid=0x0:0x226cd345f67dd7e3
cafe,Kafe,Tana Papua Coffee and Roastery,"Jl. Raya Abepura, Vim, Kec. Abepura, Kota Jayapura, Papua 99220","Vim, Kec. Abepura, Kota Jayapura",PAPUA BARAT,99220.0,Indonesia,82175416609.0,-2.6047712,140.6727079,https://maps.google.com/?cid=0x0:0x747c727d4b94ebf6
cafe,Kedai Kopi,Sorong Cafe,"Sawagumu, Kec. Sorong Utara, Kota Sorong, Papua Bar.","Kota Sorong, Papua Bar.",PAPUA BARAT,,Indonesia,81248201730.0,-0.8893784,131.3128926,https://maps.google.com/?cid=0x0:0x7962c1d0ce1b0528
cafe,Toko bahan makanan,Ibiza Coffee Shop,"Holtekamp Bridge, Tobati, Distrik Jayapura Selatan, Kota Jayapura, Papua","Kota Jayapura, Papua",PAPUA BARAT,,Indonesia,,-2.5912293,140.7138469,https://maps.google.com/?cid=0x0:0xff0cb137c224cdf4
cafe,Kafe,Xanorah Coffee,"Jl. Stadion Bola Bas Yauwe, depan Lapangan Karate Shorinji, Sentani Kota, Kec. Sentani, Kabupaten Jayapura, Papua 99352","depan Lapangan Karate Shorinji, Sentani Kota, Kec. Sentani, Kabupaten Jayapura",PAPUA BARAT,99352.0,Indonesia,82197790001.0,-2.5702948,140.5231233,https://maps.google.com/?cid=0x0:0x68608ffa73092001
cafe,Kafe,Carffein Of House,"CGM9+CQ8, Jl. Raya Abepura - Sentani, Hinekombe, Kec. Sentani, Kabupaten Jayapura, Papua","Kabupaten Jayapura, Papua",PAPUA BARAT,,Indonesia,82248155536.0,-2.5664649,140.5194407,https://maps.google.com/?cid=0x0:0x13454181ab9468f2
cafe,cafe,Distrik Syujak,"Kabupaten Tambrauw, Papua Bar.","Kabupaten Tambrauw, Papua Bar.",PAPUA BARAT,,Indonesia,,-0.7852432,132.4121441,https://maps.google.com/?cid=0x0:0x7dd0acee1cc8bcaa
cafe,Makanan Kecil,Warung Makan Andre,"6C76+MF, Banso, Distrik Syujak, Kabupaten Tambrauw, Papua Bar.","Kabupaten Tambrauw, Papua Bar.",PAPUA BARAT,,Indonesia,,-0.7857415,132.4111989,https://maps.google.com/?cid=0x0:0x443c5a3dac5e6f70
cafe,cafe,Warung Chelsea,"6C4F+R6P, Jl. Raya Mega-Fef, Fef, Distrik Syujak, Kabupaten Tambrauw, Papua Bar.","Kabupaten Tambrauw, Papua Bar.",PAPUA BARAT,,Indonesia,,-0.7929218,132.423064,https://maps.google.com/?cid=0x0:0xba21b5f3e8078046
cafe,cafe,Mie ayam  Bakso,"6C86+GW, Banso, Distrik Syujak, Kabupaten Tambrauw, Papua Bar.","Kabupaten Tambrauw, Papua Bar.",PAPUA BARAT,,Indonesia,81240779825.0,-0.7836091,132.4123432,https://maps.google.com/?cid=0x0:0x9fba945218f30b69
cafe,cafe,Warung makan Gloria,"5CVJ+VQ6, Ases, Distrik Fef, Kabupaten Tambrauw, Papua Bar.","Kabupaten Tambrauw, Papua Bar.",PAPUA BARAT,,Indonesia,82348184296.0,-0.8053457,132.4318978,https://maps.google.com/?cid=0x0:0xbce4336ba8225375
cafe,cafe,Warung kopi Debora,"6C5C+G9F, Banso, Distrik Syujak, Kabupaten Tambrauw, Papua Bar.","Kabupaten Tambrauw, Papua Bar.",PAPUA BARAT,,Indonesia,,-0.7911779,132.4209273,https://maps.google.com/?cid=0x0:0x50f96247e56fe0
cafe,Kedai Kopi,Syuja Coffee,"Jl. Cluster Lobak Indah No.C8, Delima, Kec. Tampan, Kota Pekanbaru, Riau 28290","Delima, Kec. Tampan, Kota Pekanbaru",PAPUA BARAT,28290.0,Indonesia,89670123039.0,0.4807417,101.4099489,https://maps.google.com/?cid=0x0:0x9d8623b1503c4547
cafe,Kedai Kopi,Stuja Coffee Cipete,"19, Jl. Cipete Raya No.18 6, RT.8/RW.3, Cipete Raya, Kec. Cilandak, Kota Jakarta Selatan, Daerah Khusus Ibukota Jakarta 12410","Jl. Cipete Raya No.18 6, RT.8/RW.3, Cipete Raya, Kec. Cilandak, Kota Jakarta Selatan",PAPUA BARAT,12410.0,Indonesia,82111586831.0,-6.2779455,106.8029863,https://maps.google.com/?cid=0x0:0x5ff852ec7c85877c
cafe,cafe,Kec. Yembun,"Kabupaten Tambrauw, Papua Bar.","Kabupaten Tambrauw, Papua Bar.",PAPUA BARAT,,Indonesia,,-0.7808355,132.1189376,https://maps.google.com/?cid=0x0:0xc5562a9e3b0d5fb4
cafe,cafe,Kafe Internet MAROS INDAH,"Emaos, Distrik Sausapor, Kabupaten Tambrauw, Papua Bar. 98473","Distrik Sausapor, Kabupaten Tambrauw",PAPUA BARAT,98473.0,Indonesia,82271191527.0,-0.504784,132.0801417,https://maps.google.com/?cid=0x0:0x16b708103e4522bb
cafe,Makanan Kecil,Warung Makan Andre,"6C76+MF, Banso, Distrik Syujak, Kabupaten Tambrauw, Papua Bar.","Kabupaten Tambrauw, Papua Bar.",PAPUA BARAT,,Indonesia,,-0.7857415,132.4111989,https://maps.google.com/?cid=0x0:0x443c5a3dac5e6f70
cafe,cafe,Warung makan Gloria,"5CVJ+VQ6, Ases, Distrik Fef, Kabupaten Tambrauw, Papua Bar.","Kabupaten Tambrauw, Papua Bar.",PAPUA BARAT,,Indonesia,82348184296.0,-0.8053457,132.4318978,https://maps.google.com/?cid=0x0:0xbce4336ba8225375
cafe,Kedai Kopi,UMA NEN craft,"Depan DPRD, Jl. Yos Sudarso No.14, Wamena Kota, Distrik Wamena, Kabupaten Jayawijaya, Papua 99511","Jl. Yos Sudarso No.14, Wamena Kota, Distrik Wamena, Kabupaten Jayawijaya",PAPUA BARAT,99511.0,Indonesia,81355104303.0,-4.0968745,138.9459828,https://maps.google.com/?cid=0x0:0x93d2dd670f93946a
cafe,cafe,Warung Chelsea,"6C4F+R6P, Jl. Raya Mega-Fef, Fef, Distrik Syujak, Kabupaten Tambrauw, Papua Bar.","Kabupaten Tambrauw, Papua Bar.",PAPUA BARAT,,Indonesia,,-0.7929218,132.423064,https://maps.google.com/?cid=0x0:0xba21b5f3e8078046
cafe,Kedai Kopi,Westwew Coffee,"Jl. Lapangan Bola No.34 E 4, RT.4/RW.10, Kb. Jeruk, Kec. Kb. Jeruk, Kota Jakarta Barat, Daerah Khusus Ibukota Jakarta 11530","RT.4/RW.10, Kb. Jeruk, Kec. Kb. Jeruk, Kota Jakarta Barat",PAPUA BARAT,11530.0,Indonesia,81294946394.0,-6.196955,106.767825,https://maps.google.com/?cid=0x0:0xda9a6f2ffa16997b
cafe,cafe,Mie ayam  Bakso,"6C86+GW, Banso, Distrik Syujak, Kabupaten Tambrauw, Papua Bar.","Kabupaten Tambrauw, Papua Bar.",PAPUA BARAT,,Indonesia,81240779825.0,-0.7836091,132.4123432,https://maps.google.com/?cid=0x0:0x9fba945218f30b69
cafe,cafe,Warung kopi Debora,"6C5C+G9F, Banso, Distrik Syujak, Kabupaten Tambrauw, Papua Bar.","Kabupaten Tambrauw, Papua Bar.",PAPUA BARAT,,Indonesia,,-0.7911779,132.4209273,https://maps.google.com/?cid=0x0:0x50f96247e56fe0
cafe,Kafe,Coffee Brothers,"Maniwak, Manggurai PEMDA, Iriati, Distrik Wasior, Kabupaten Teluk Wondama, Papua Bar. 98362","Manggurai PEMDA, Iriati, Distrik Wasior, Kabupaten Teluk Wondama",PAPUA BARAT,98362.0,Indonesia,85244343890.0,-2.761305,134.5119245,https://maps.google.com/?cid=0x0:0x40dcc2c8a660e005
cafe,Kedai Kopi,Z COFFEE,"42HX+V6C, Jl. Trikora Rendani, Wosi, Kec. Manokwari Bar., Kabupaten Manokwari, Papua Bar. 98312","Jl. Trikora Rendani, Wosi, Kec. Manokwari Bar., Kabupaten Manokwari",PAPUA BARAT,98312.0,Indonesia,81247192526.0,-0.8703133,134.0480103,https://maps.google.com/?cid=0x0:0x52fc52684fc7839c
cafe,Kedai Kopi,Kopi Lantur,"Rusun Petamburan, RW.9 No.1 Blok 1, RW.9, Petamburan, Kecamatan Tanah Abang, Kota Jakarta Pusat, Daerah Khusus Ibukota Jakarta 10260","RW.9 No.1 Blok 1, RW.9, Petamburan, Kecamatan Tanah Abang, Kota Jakarta Pusat",PAPUA BARAT,10260.0,Indonesia,81388658091.0,-6.1996441,106.8071449,https://maps.google.com/?cid=0x0:0xc4f77a9abe993b37
cafe,Kedai Kopi,ulul house,"Jl. Petamburan No.14, RT.9/RW.3, Petamburan, Kecamatan Tanah Abang, Kota Jakarta Pusat, Daerah Khusus Ibukota Jakarta 10260","RT.9/RW.3, Petamburan, Kecamatan Tanah Abang, Kota Jakarta Pusat",PAPUA BARAT,10260.0,Indonesia,,-6.1922107,106.8088233,https://maps.google.com/?cid=0x0:0x33a0de9eda55720
hotel,hotel,Abun,"Kabupaten Tambrauw, Papua Bar.","Kabupaten Tambrauw, Papua Bar.",PAPUA BARAT,,Indonesia,,-0.4695379,132.7466993,https://maps.google.com/?cid=0x0:0x6bbce6bcca6e4a28
hotel,hotel,Aimas Hotel And Convention Center,"Klamasen, Distrik Mariat, Kabupaten Sorong, Papua Bar. 98416","Distrik Mariat, Kabupaten Sorong",PAPUA BARAT,98416.0,Indonesia,8114887778.0,-0.9780957,131.3535192,https://maps.google.com/?cid=0x0:0x622ceae2f7c756cf
hotel,hotel,Mahanaim Hotel dan Homestay Manokwari,"jln trikora kalidingin no 109, Wosi, Kec. Manokwari Bar., Kabupaten Manokwari, Papua Bar. 98312","Wosi, Kec. Manokwari Bar., Kabupaten Manokwari",PAPUA BARAT,98312.0,Indonesia,8124830147.0,-0.8699305,134.0471193,https://maps.google.com/?cid=0x0:0xeec6727952b4f3e6
hotel,hotel,Royal Mamberamo Hotel,"Jl. Dr. Sam Ratulangi No.35, Kp. Baru, Distrik Sorong, Kota Sorong, Papua Bar. 98413","Kp. Baru, Distrik Sorong, Kota Sorong",PAPUA BARAT,98413.0,Indonesia,951325666.0,-0.871573,131.250864,https://maps.google.com/?cid=0x0:0xb5e32e36111d42eb
hotel,hotel,Hotel Raja Ampat,"Jl. Fundar Sakela No.1, Waisai, City, Kabupaten Raja Ampat, Papua Bar. 98482","Waisai, City, Kabupaten Raja Ampat",PAPUA BARAT,98482.0,Indonesia,81298260747.0,-0.4224417,130.8199523,https://maps.google.com/?cid=0x0:0x3bda491b055b084
hotel,hotel,Penginapan Kofiyau,"46MX+QV7, Unnamed Road, Klasuur, Distrik Sorong, Kota Sorong, Papua Bar. 98411","Unnamed Road, Klasuur, Distrik Sorong, Kota Sorong",PAPUA BARAT,98411.0,Indonesia,82398017326.0,-0.86559,131.2496721,https://maps.google.com/?cid=0x0:0xfc32a1234a9c5c47
hotel,hotel,Penginapan Baruga Indah,"Bandonggwan, Distrik Sausapor, Kabupaten Tambrauw, Papua Bar. 98473","Distrik Sausapor, Kabupaten Tambrauw",PAPUA BARAT,98473.0,Indonesia,,-0.4963589,132.0922358,https://maps.google.com/?cid=0x0:0x825c134d6eff6acf
hotel,hotel,Hotel Rumberpon,"Jl. Selat Rumberpon No.10a, Remu Sel., Kecamatan Sorong Manoi, Kota Sorong, Papua Bar. 98412","Remu Sel., Kecamatan Sorong Manoi, Kota Sorong",PAPUA BARAT,98412.0,Indonesia,82238504121.0,-0.885408,131.2865376,https://maps.google.com/?cid=0x0:0xceee6e69b9e3daac
hotel,hotel,Hotel Aquarius,"28VJ+767, Bar., Malawili, Kec. Aimas, Kabupaten Sorong, Papua Bar. 98414","Bar., Malawili, Kec. Aimas, Kabupaten Sorong",PAPUA BARAT,98414.0,Indonesia,951325217.0,-0.9568269,131.330562,https://maps.google.com/?cid=0x0:0xc756b11a37760342
hotel,hotel,Fajar Roon Hotel,"Jl. Trikora Wosi, Wosi, Kec. Manokwari Bar., Kabupaten Manokwari, Papua Bar. 98312","Wosi, Kec. Manokwari Bar., Kabupaten Manokwari",PAPUA BARAT,98312.0,Indonesia,85333112338.0,-0.8680273,134.0564644,https://maps.google.com/?cid=0x0:0xec6cf3d20bba5444
hotel,hotel,Hotel Batanta,"46GW+RMC, Kp. Baru, Distrik Sorong, Kota Sorong, Papua Bar. 98411","Kp. Baru, Distrik Sorong, Kota Sorong",PAPUA BARAT,98411.0,Indonesia,,-0.8729338,131.246629,https://maps.google.com/?cid=0x0:0xd18e7775760a134a
hotel,hotel,Penginapan Andi Riona,"sebelum jembatan, Jl. Lukas Dailon, Waisai, Distrik Kota Waisai, Kabupaten Raja Ampat, Papua Bar. 98482","Jl. Lukas Dailon, Waisai, Distrik Kota Waisai, Kabupaten Raja Ampat",PAPUA BARAT,98482.0,Indonesia,82343625890.0,-0.4166334,130.8223743,https://maps.google.com/?cid=0x0:0x22162f9d5c4740b1
hotel,hotel,O,"Jl. Jend. A. Yani No.27, Malabutor, Kecamatan Sorong Manoi, Kota Sorong, Papua Bar. 98412","Malabutor, Kecamatan Sorong Manoi, Kota Sorong",PAPUA BARAT,98412.0,Indonesia,,-0.8827427,131.2828186,https://maps.google.com/?cid=0x0:0x9aebba5ddda67893
hotel,Hotel,Nawi Abua Hotel,"3FG2+2GM, Unnamed Road, Bokon, Distrik Tiom, Kabupaten Lanny Jaya, Papua 99567","Unnamed Road, Bokon, Distrik Tiom, Kabupaten Lanny Jaya",PAPUA BARAT,99567.0,Indonesia,82141176656.0,-3.9249165,138.4513033,https://maps.google.com/?cid=0x0:0xcdfe8d49715d638e
hotel,hotel,Papua Bar. 98371,Papua Bar.,Papua Bar.,PAPUA BARAT,,Indonesia,,-0.6071799,132.941698,https://maps.google.com/?cid=0x0:0xccfddd95cd14e2b2
hotel,hotel,Aston Niu Manokwari,"Sogun Hill, Jl. Drs Esau Sesa No.3 Blok B, Sowi, Distrik Manokwari, Kabupaten Manokwari, Papua Bar. 98315","Jl. Drs Esau Sesa No.3 Blok B, Sowi, Distrik Manokwari, Kabupaten Manokwari",PAPUA BARAT,98315.0,Indonesia,81369878787.0,-0.8978109,134.0416499,https://maps.google.com/?cid=0x0:0xe96b706fef94b3a2
hotel,hotel,,,,PAPUA BARAT,,Indonesia,,,,https://maps.google.com/?cid=0x0:0xe96b706fef94b3a2%7C/g/120jr49w%7Cid-ID
hotel,hotel,Hotel Grand Papua Kaimana,"Lingkar tanjung simora, Kroy, Kec. Kaimana, Kabupaten Kaimana, Papua Bar. 98654","Kroy, Kec. Kaimana, Kabupaten Kaimana",PAPUA BARAT,98654.0,Indonesia,82248850669.0,-3.6691103,133.7028408,https://maps.google.com/?cid=0x0:0x964de24b7e359ec2
hotel,hotel,Aston Sorong Hotel  Conference Center,"476V+J9X, Jl. Basuki Rahmat, Malaingkedi, Kec. Sorong Utara, Kota Sorong, Papua Bar. 98412","Jl. Basuki Rahmat, Malaingkedi, Kec. Sorong Utara, Kota Sorong",PAPUA BARAT,98412.0,Indonesia,81148500888.0,-0.8887467,131.2931592,https://maps.google.com/?cid=0x0:0x110a6a5f0a67a7f7
hotel,hotel,Royal Mamberamo Hotel,"Jl. Dr. Sam Ratulangi No.35, Kp. Baru, Distrik Sorong, Kota Sorong, Papua Bar. 98413","Kp. Baru, Distrik Sorong, Kota Sorong",PAPUA BARAT,98413.0,Indonesia,951325666.0,-0.871573,131.250864,https://maps.google.com/?cid=0x0:0xb5e32e36111d42eb
hotel,hotel,Fajar Roon Hotel,"Jl. Trikora Wosi, Wosi, Kec. Manokwari Bar., Kabupaten Manokwari, Papua Bar. 98312","Wosi, Kec. Manokwari Bar., Kabupaten Manokwari",PAPUA BARAT,98312.0,Indonesia,85333112338.0,-0.8680273,134.0564644,https://maps.google.com/?cid=0x0:0xec6cf3d20bba5444
hotel,hotel,Distrik Amberbaken,"Kabupaten Tambrauw, Papua Bar.","Kabupaten Tambrauw, Papua Bar.",PAPUA BARAT,,Indonesia,,-0.5186292,133.0490734,https://maps.google.com/?cid=0x0:0xaa295df9b62c01b6
hotel,hotel,Mess Distrik kebar Kab. Tambrauw,"53V4+6CJ, Kebar Tengah, Kebar, Kabupaten Manokwari, Papua Bar. 98372","Kebar Tengah, Kebar, Kabupaten Manokwari",PAPUA BARAT,98372.0,Indonesia,,-0.8069094,133.0560008,https://maps.google.com/?cid=0x0:0xe55d5bdaf3a5045
hotel,hotel,Mess Distrik kebar Kab. Tambrauw,"53V4+6CJ, Kebar Tengah, Kebar, Kabupaten Manokwari, Papua Bar. 98372","Kebar Tengah, Kebar, Kabupaten Manokwari",PAPUA BARAT,98372.0,Indonesia,,-0.8069094,133.0560008,https://maps.google.com/?cid=0x0:0xe55d5bdaf3a5045
hotel,hotel,Distrik Fef,"Kabupaten Tambrauw, Papua Bar.","Kabupaten Tambrauw, Papua Bar.",PAPUA BARAT,,Indonesia,,-0.7798216,132.3665985,https://maps.google.com/?cid=0x0:0x99889d8cffaa571e
hotel,hotel,Sansapore Pacific Park Beach Resort,"beach, Distrik Sausapor, Kabupaten Tambrauw, Papua Bar. 98473","Distrik Sausapor, Kabupaten Tambrauw",PAPUA BARAT,98473.0,Indonesia,81244364246.0,-0.4905207,132.0868177,https://maps.google.com/?cid=0x0:0xdc183e9fad46ec97
hotel,hotel,favehotel Sorong,"Klabulu, Jl. Basuki Rahmat Malaimsimsa, RT.001/RW.005, Kecamatan Malaimsimsa, Kota Sorong, Papua Bar. 98419","Jl. Basuki Rahmat Malaimsimsa, RT.001/RW.005, Kecamatan Malaimsimsa, Kota Sorong",PAPUA BARAT,98419.0,Indonesia,9513173888.0,-0.8892152,131.2985379,https://maps.google.com/?cid=0x0:0x56f2eb1c250a17fa
hotel,hotel,Penginapan Baruga Indah,"Bandonggwan, Distrik Sausapor, Kabupaten Tambrauw, Papua Bar. 98473","Distrik Sausapor, Kabupaten Tambrauw",PAPUA BARAT,98473.0,Indonesia,,-0.4963589,132.0922358,https://maps.google.com/?cid=0x0:0x825c134d6eff6acf
hotel,hotel,HOTEL F-TWO,"4797+HR6 Bar, Klaligi, Kecamatan Sorong Manoi, Kota Sorong, Papua Bar. 98412","Klaligi, Kecamatan Sorong Manoi, Kota Sorong",PAPUA BARAT,98412.0,Indonesia,,-0.8810964,131.2645222,https://maps.google.com/?cid=0x0:0xdc612394de83f39d
hotel,hotel,Distrik Kwoor,"Kabupaten Tambrauw, Papua Bar.","Kabupaten Tambrauw, Papua Bar.",PAPUA BARAT,,Indonesia,,-0.4621685,132.2908119,https://maps.google.com/?cid=0x0:0xc9babc4648539c74
hotel,hotel,Sansapore Pacific Park Beach Resort,"beach, Distrik Sausapor, Kabupaten Tambrauw, Papua Bar. 98473","Distrik Sausapor, Kabupaten Tambrauw",PAPUA BARAT,98473.0,Indonesia,81244364246.0,-0.4905207,132.0868177,https://maps.google.com/?cid=0x0:0xdc183e9fad46ec97
hotel,hotel,M Hotel Sorong,"Jl. Sungai Maruni, Klawuyuk, Kec. Sorong Utara, Kota Sorong, Papua Bar. 98416","Klawuyuk, Kec. Sorong Utara, Kota Sorong",PAPUA BARAT,98416.0,Indonesia,8114863111.0,-0.8858638,131.3227746,https://maps.google.com/?cid=0x0:0x9b9160ef43d35fd5
hotel,hotel,Penginapan Baruga Indah,"Bandonggwan, Distrik Sausapor, Kabupaten Tambrauw, Papua Bar. 98473","Distrik Sausapor, Kabupaten Tambrauw",PAPUA BARAT,98473.0,Indonesia,,-0.4963589,132.0922358,https://maps.google.com/?cid=0x0:0x825c134d6eff6acf
hotel,hotel,Homestay Rum-Asai,"Meossu Pulau Dua, Kampung Werur, Distrik Bikar, Kabupaten Tambrauw, Papua Bar.","Kabupaten Tambrauw, Papua Bar.",PAPUA BARAT,,Indonesia,82198080500.0,-0.3500717,132.1749644,https://maps.google.com/?cid=0x0:0x63b91b766e2a8319
hotel,hotel,Fajar Roon Hotel,"Jl. Trikora Wosi, Wosi, Kec. Manokwari Bar., Kabupaten Manokwari, Papua Bar. 98312","Wosi, Kec. Manokwari Bar., Kabupaten Manokwari",PAPUA BARAT,98312.0,Indonesia,85333112338.0,-0.8680273,134.0564644,https://maps.google.com/?cid=0x0:0xec6cf3d20bba5444
hotel,hotel,O,"Jl. Jend. A. Yani No.27, Malabutor, Kecamatan Sorong Manoi, Kota Sorong, Papua Bar. 98412","Malabutor, Kecamatan Sorong Manoi, Kota Sorong",PAPUA BARAT,98412.0,Indonesia,,-0.8827427,131.2828186,https://maps.google.com/?cid=0x0:0x9aebba5ddda67893
hotel,hotel,Miyah,"Kabupaten Tambrauw, Papua Bar.","Kabupaten Tambrauw, Papua Bar.",PAPUA BARAT,,Indonesia,,-0.7502666,132.6684924,https://maps.google.com/?cid=0x0:0x714bb316eb3dbe5c
hotel,Hotel,Hotel Melia Grand,"43J4+JPV, Bar., Wosi, Kec. Manokwari Bar., Kabupaten Manokwari, Papua Bar. 98312","Bar., Wosi, Kec. Manokwari Bar., Kabupaten Manokwari",PAPUA BARAT,98312.0,Indonesia,83141604590.0,-0.8683961,134.056811,https://maps.google.com/?cid=0x0:0x78b1102679396334
hotel,hotel,Mess Distrik kebar Kab. Tambrauw,"53V4+6CJ, Kebar Tengah, Kebar, Kabupaten Manokwari, Papua Bar. 98372","Kebar Tengah, Kebar, Kabupaten Manokwari",PAPUA BARAT,98372.0,Indonesia,,-0.8069094,133.0560008,https://maps.google.com/?cid=0x0:0xe55d5bdaf3a5045
hotel,Hotel,"Hotel Solideo Glorya SMKN 3 Manokwari, Pusat Keunggulan","43V7+74W, Jl. Palapa, Manokwari Bar., Kec. Manokwari Bar., Kabupaten Manokwari, Papua Bar. 98312","Jl. Palapa, Manokwari Bar., Kec. Manokwari Bar., Kabupaten Manokwari",PAPUA BARAT,98312.0,Indonesia,,-0.8567528,134.0628177,https://maps.google.com/?cid=0x0:0xc4d1a1daa1b23fff
hotel,hotel,Moraid,"Kabupaten Sorong, Papua Bar.","Kabupaten Sorong, Papua Bar.",PAPUA BARAT,,Indonesia,,-0.6590992,131.9791516,https://maps.google.com/?cid=0x0:0x754b158cc336f2d9
hotel,hotel,Aimas Hotel And Convention Center,"Klamasen, Distrik Mariat, Kabupaten Sorong, Papua Bar. 98416","Distrik Mariat, Kabupaten Sorong",PAPUA BARAT,98416.0,Indonesia,8114887778.0,-0.9780957,131.3535192,https://maps.google.com/?cid=0x0:0x622ceae2f7c756cf
hotel,hotel,Sansapore Pacific Park Beach Resort,"beach, Distrik Sausapor, Kabupaten Tambrauw, Papua Bar. 98473","Distrik Sausapor, Kabupaten Tambrauw",PAPUA BARAT,98473.0,Indonesia,81244364246.0,-0.4905207,132.0868177,https://maps.google.com/?cid=0x0:0xdc183e9fad46ec97
hotel,hotel,,,,PAPUA BARAT,,Indonesia,,,,https://maps.google.com/?cid=0x0:0xbf6ecabef3414744%7C/g/12hnlthc5%7Cid-ID
hotel,hotel,Mahanaim Hotel dan Homestay Manokwari,"jln trikora kalidingin no 109, Wosi, Kec. Manokwari Bar., Kabupaten Manokwari, Papua Bar. 98312","Wosi, Kec. Manokwari Bar., Kabupaten Manokwari",PAPUA BARAT,98312.0,Indonesia,8124830147.0,-0.8699305,134.0471193,https://maps.google.com/?cid=0x0:0xeec6727952b4f3e6
hotel,hotel,Belagri Hotel and Restaurant,"Jl. Raja Ampat No.1, Kp. Baru, Distrik Sorong, Kota Sorong, Papua Bar. 98413","Kp. Baru, Distrik Sorong, Kota Sorong",PAPUA BARAT,98413.0,Indonesia,,-0.8704329,131.2517604,https://maps.google.com/?cid=0x0:0xb0064be8b2a3c2c8
hotel,hotel,Kasuari Valley Beach Resort Sorong,"Tj. Kasuari, Distrik Sorong Barat, Kota Sorong, Papua Bar. 98411","Distrik Sorong Barat, Kota Sorong",PAPUA BARAT,98411.0,Indonesia,81247423939.0,-0.8229453,131.2259207,https://maps.google.com/?cid=0x0:0x7ae87156c62b6490
hotel,hotel,The ignislo sorong hotel,"Basuki Rahmat Street KM 7 Sorong, Malaingkedi, Sorong Utara, Sorong City, West Papua 98412","Malaingkedi, Sorong Utara, Sorong City",PAPUA BARAT,98412.0,Indonesia,,-0.8885403,131.2925628,https://maps.google.com/?cid=0x0:0x9992b24f2542a546
hotel,hotel,M Hotel Sorong,"Jl. Sungai Maruni, Klawuyuk, Kec. Sorong Utara, Kota Sorong, Papua Bar. 98416","Klawuyuk, Kec. Sorong Utara, Kota Sorong",PAPUA BARAT,98416.0,Indonesia,8114863111.0,-0.8858638,131.3227746,https://maps.google.com/?cid=0x0:0x9b9160ef43d35fd5
hotel,hotel,,,,PAPUA BARAT,,Indonesia,,,,https://maps.google.com/?cid=0x0:0x9b9160ef43d35fd5%7C/g/11clwlw14h%7Cid-ID
hotel,hotel,Hotel Belagri Sorong,"Jl. Merapi No.8, Klabala, Distrik Sorong Barat, Kota Sorong, Papua Bar. 98411","Klabala, Distrik Sorong Barat, Kota Sorong",PAPUA BARAT,98411.0,Indonesia,951323888.0,-0.8730356,131.2547729,https://maps.google.com/?cid=0x0:0x84dae6f8c4b2e8ad
hotel,hotel,,,,PAPUA BARAT,,Indonesia,,,,https://maps.google.com/?cid=0x0:0x56f2eb1c250a17fa%7C/g/11g8bwyjxb%7Cid-ID
hotel,hotel,Penginapan Kofiyau,"46MX+QV7, Unnamed Road, Klasuur, Distrik Sorong, Kota Sorong, Papua Bar. 98411","Unnamed Road, Klasuur, Distrik Sorong, Kota Sorong",PAPUA BARAT,98411.0,Indonesia,82398017326.0,-0.86559,131.2496721,https://maps.google.com/?cid=0x0:0xfc32a1234a9c5c47
hotel,hotel,favehotel Sorong,"Klabulu, Jl. Basuki Rahmat Malaimsimsa, RT.001/RW.005, Kecamatan Malaimsimsa, Kota Sorong, Papua Bar. 98419","Jl. Basuki Rahmat Malaimsimsa, RT.001/RW.005, Kecamatan Malaimsimsa, Kota Sorong",PAPUA BARAT,98419.0,Indonesia,9513173888.0,-0.8892152,131.2985379,https://maps.google.com/?cid=0x0:0x56f2eb1c250a17fa
hotel,hotel,Mubrani,"Warsnembri, Mubarni / Arfu, Kabupaten Manokwari, Papua Bar.","Kabupaten Manokwari, Papua Bar.",PAPUA BARAT,,Indonesia,,-0.743739,133.489594,https://maps.google.com/?cid=0x0:0xd4bd1e9b5b037656
hotel,hotel,Mahanaim Hotel dan Homestay Manokwari,"jln trikora kalidingin no 109, Wosi, Kec. Manokwari Bar., Kabupaten Manokwari, Papua Bar. 98312","Wosi, Kec. Manokwari Bar., Kabupaten Manokwari",PAPUA BARAT,98312.0,Indonesia,8124830147.0,-0.8699305,134.0471193,https://maps.google.com/?cid=0x0:0xeec6727952b4f3e6
hotel,hotel,Mansinam Beach Hotel,"43CR+H6X, Jl. Pasir Putih No.7, Pasir Putih, Kec. Manokwari Tim., Kabupaten Manokwari, Papua Bar. 98313","Jl. Pasir Putih No.7, Pasir Putih, Kec. Manokwari Tim., Kabupaten Manokwari",PAPUA BARAT,98313.0,Indonesia,986213585.0,-0.878422,134.0901197,https://maps.google.com/?cid=0x0:0x7d51b487bac82f8f
hotel,hotel,Aston Niu Manokwari,"Sogun Hill, Jl. Drs Esau Sesa No.3 Blok B, Sowi, Distrik Manokwari, Kabupaten Manokwari, Papua Bar. 98315","Jl. Drs Esau Sesa No.3 Blok B, Sowi, Distrik Manokwari, Kabupaten Manokwari",PAPUA BARAT,98315.0,Indonesia,81369878787.0,-0.8978109,134.0416499,https://maps.google.com/?cid=0x0:0xe96b706fef94b3a2
hotel,hotel,,,,PAPUA BARAT,,Indonesia,,,,https://maps.google.com/?cid=0x0:0xe96b706fef94b3a2%7C/g/120jr49w%7Cid-ID
hotel,hotel,The ignislo sorong hotel,"Basuki Rahmat Street KM 7 Sorong, Malaingkedi, Sorong Utara, Sorong City, West Papua 98412","Malaingkedi, Sorong Utara, Sorong City",PAPUA BARAT,98412.0,Indonesia,,-0.8885403,131.2925628,https://maps.google.com/?cid=0x0:0x9992b24f2542a546
hotel,hotel,RAMA TRANSITO HOTEL,"42RV+276, Unnamed Road, Wosi, Kec. Manokwari Bar., Kabupaten Manokwari, Papua Bar. 98312","Unnamed Road, Wosi, Kec. Manokwari Bar., Kabupaten Manokwari",PAPUA BARAT,98312.0,Indonesia,82198250318.0,-0.8599684,134.0431297,https://maps.google.com/?cid=0x0:0x61e002737b3747f1
hotel,hotel,Hotel Marannu,"HRG9+842, Waisai, Kec. Waigeo Sel., Kabupaten Raja Ampat, Papua Bar. 98482","Waisai, Kec. Waigeo Sel., Kabupaten Raja Ampat",PAPUA BARAT,98482.0,Indonesia,81258290891.0,-0.4242312,130.8177684,https://maps.google.com/?cid=0x0:0x4bfcf0ab6dd8ceba
hotel,hotel,hotel oriestom,"43PG+J4M, Jl. Merdeka, Manokwari Tim., Kec. Manokwari Bar., Kabupaten Manokwari, Papua Bar. 98312","Jl. Merdeka, Manokwari Tim., Kec. Manokwari Bar., Kabupaten Manokwari",PAPUA BARAT,98312.0,Indonesia,62986211519.0,-0.8634113,134.0752839,https://maps.google.com/?cid=0x0:0x215631a03bde85f8
hotel,hotel,Lin Hotel,"Jl. Merdeka, Padarni, Kec. Manokwari Bar., Kabupaten Manokwari, Papua Bar. 98312","Padarni, Kec. Manokwari Bar., Kabupaten Manokwari",PAPUA BARAT,98312.0,Indonesia,9862210524.0,-0.8548281,134.0697853,https://maps.google.com/?cid=0x0:0xed579408172519e3
hotel,hotel,Fajar Roon Hotel,"Jl. Trikora Wosi, Wosi, Kec. Manokwari Bar., Kabupaten Manokwari, Papua Bar. 98312","Wosi, Kec. Manokwari Bar., Kabupaten Manokwari",PAPUA BARAT,98312.0,Indonesia,85333112338.0,-0.8680273,134.0564644,https://maps.google.com/?cid=0x0:0xec6cf3d20bba5444
hotel,hotel,Hotel Fujita Papua,"Jl. Drs Esau Sesa, Wosi, Kec. Manokwari Bar., Kabupaten Manokwari, Papua Bar. 98312","Wosi, Kec. Manokwari Bar., Kabupaten Manokwari",PAPUA BARAT,98312.0,Indonesia,9862210707.0,-0.8727087,134.0465433,https://maps.google.com/?cid=0x0:0x12ad8f54a87fdc03
hotel,hotel,Hotel Batanta,"46GW+RMC, Kp. Baru, Distrik Sorong, Kota Sorong, Papua Bar. 98411","Kp. Baru, Distrik Sorong, Kota Sorong",PAPUA BARAT,98411.0,Indonesia,,-0.8729338,131.246629,https://maps.google.com/?cid=0x0:0xd18e7775760a134a
hotel,hotel,Mangga Hotel,"Jl. Bhayangkara No.1, Manokwari Tim., Kec. Manokwari Bar., Kabupaten Manokwari, Papua Bar. 98312","Manokwari Tim., Kec. Manokwari Bar., Kabupaten Manokwari",PAPUA BARAT,98312.0,Indonesia,62986211693.0,-0.870176,134.0778405,https://maps.google.com/?cid=0x0:0x3d2ada72a869c631
hotel,hotel,Distrik Sausapor,"Kabupaten Tambrauw, Papua Bar.","Kabupaten Tambrauw, Papua Bar.",PAPUA BARAT,,Indonesia,,-0.496052,132.0874738,https://maps.google.com/?cid=0x0:0x22b76922b3bd09b1
hotel,hotel,Sansapore Pacific Park Beach Resort,"beach, Distrik Sausapor, Kabupaten Tambrauw, Papua Bar. 98473","Distrik Sausapor, Kabupaten Tambrauw",PAPUA BARAT,98473.0,Indonesia,81244364246.0,-0.4905207,132.0868177,https://maps.google.com/?cid=0x0:0xdc183e9fad46ec97
hotel,hotel,Penginapan Baruga Indah,"Bandonggwan, Distrik Sausapor, Kabupaten Tambrauw, Papua Bar. 98473","Distrik Sausapor, Kabupaten Tambrauw",PAPUA BARAT,98473.0,Indonesia,,-0.4963589,132.0922358,https://maps.google.com/?cid=0x0:0x825c134d6eff6acf
hotel,hotel,Aston Sorong Hotel  Conference Center,"476V+J9X, Jl. Basuki Rahmat, Malaingkedi, Kec. Sorong Utara, Kota Sorong, Papua Bar. 98412","Jl. Basuki Rahmat, Malaingkedi, Kec. Sorong Utara, Kota Sorong",PAPUA BARAT,98412.0,Indonesia,81148500888.0,-0.8887467,131.2931592,https://maps.google.com/?cid=0x0:0x110a6a5f0a67a7f7
hotel,hotel,Belagri Hotel and Restaurant,"Jl. Raja Ampat No.1, Kp. Baru, Distrik Sorong, Kota Sorong, Papua Bar. 98413","Kp. Baru, Distrik Sorong, Kota Sorong",PAPUA BARAT,98413.0,Indonesia,,-0.8704329,131.2517604,https://maps.google.com/?cid=0x0:0xb0064be8b2a3c2c8
hotel,hotel,The ignislo sorong hotel,"Basuki Rahmat Street KM 7 Sorong, Malaingkedi, Sorong Utara, Sorong City, West Papua 98412","Malaingkedi, Sorong Utara, Sorong City",PAPUA BARAT,98412.0,Indonesia,,-0.8885403,131.2925628,https://maps.google.com/?cid=0x0:0x9992b24f2542a546
hotel,hotel,,,,PAPUA BARAT,,Indonesia,,,,https://maps.google.com/?cid=0x0:0x9b9160ef43d35fd5%7C/g/11clwlw14h%7Cid-ID
hotel,hotel,M Hotel Sorong,"Jl. Sungai Maruni, Klawuyuk, Kec. Sorong Utara, Kota Sorong, Papua Bar. 98416","Klawuyuk, Kec. Sorong Utara, Kota Sorong",PAPUA BARAT,98416.0,Indonesia,8114863111.0,-0.8858638,131.3227746,https://maps.google.com/?cid=0x0:0x9b9160ef43d35fd5
hotel,hotel,Penginapan Kofiyau,"46MX+QV7, Unnamed Road, Klasuur, Distrik Sorong, Kota Sorong, Papua Bar. 98411","Unnamed Road, Klasuur, Distrik Sorong, Kota Sorong",PAPUA BARAT,98411.0,Indonesia,82398017326.0,-0.86559,131.2496721,https://maps.google.com/?cid=0x0:0xfc32a1234a9c5c47
hotel,hotel,Hotel Mratuwa Sesna,"G39P+JXC, Keyen, Kec. Teminabuan, Kabupaten Sorong Selatan, Papua Bar. 98454","Keyen, Kec. Teminabuan, Kabupaten Sorong Selatan",PAPUA BARAT,98454.0,Indonesia,81344070037.0,-1.4809318,132.0873892,https://maps.google.com/?cid=0x0:0xa5b0539434328bee
hotel,hotel,Hotel Rumberpon,"Jl. Selat Rumberpon No.10a, Remu Sel., Kecamatan Sorong Manoi, Kota Sorong, Papua Bar. 98412","Remu Sel., Kecamatan Sorong Manoi, Kota Sorong",PAPUA BARAT,98412.0,Indonesia,82238504121.0,-0.885408,131.2865376,https://maps.google.com/?cid=0x0:0xceee6e69b9e3daac
hotel,hotel,Hotel Aquarius,"28VJ+767, Bar., Malawili, Kec. Aimas, Kabupaten Sorong, Papua Bar. 98414","Bar., Malawili, Kec. Aimas, Kabupaten Sorong",PAPUA BARAT,98414.0,Indonesia,951325217.0,-0.9568269,131.330562,https://maps.google.com/?cid=0x0:0xc756b11a37760342
hotel,hotel,Homestay Rum-Asai,"Meossu Pulau Dua, Kampung Werur, Distrik Bikar, Kabupaten Tambrauw, Papua Bar.","Kabupaten Tambrauw, Papua Bar.",PAPUA BARAT,,Indonesia,82198080500.0,-0.3500717,132.1749644,https://maps.google.com/?cid=0x0:0x63b91b766e2a8319
hotel,hotel,HOTEL F-TWO,"4797+HR6 Bar, Klaligi, Kecamatan Sorong Manoi, Kota Sorong, Papua Bar. 98412","Klaligi, Kecamatan Sorong Manoi, Kota Sorong",PAPUA BARAT,98412.0,Indonesia,,-0.8810964,131.2645222,https://maps.google.com/?cid=0x0:0xdc612394de83f39d
hotel,hotel,Papua Bar. 98372,"Kabupaten Manokwari, Papua Bar.","Kabupaten Manokwari, Papua Bar.",PAPUA BARAT,,Indonesia,,-0.9989582,133.0194897,https://maps.google.com/?cid=0x0:0xd3aecb81246ce306
hotel,hotel,Mahanaim Hotel dan Homestay Manokwari,"jln trikora kalidingin no 109, Wosi, Kec. Manokwari Bar., Kabupaten Manokwari, Papua Bar. 98312","Wosi, Kec. Manokwari Bar., Kabupaten Manokwari",PAPUA BARAT,98312.0,Indonesia,8124830147.0,-0.8699305,134.0471193,https://maps.google.com/?cid=0x0:0xeec6727952b4f3e6
hotel,hotel,Hotel Triton,"Jl. Gn. Salju No.6, Manokwari Bar., Kec. Manokwari Bar., Kabupaten Manokwari, Papua Bar. 98311","Manokwari Bar., Kec. Manokwari Bar., Kabupaten Manokwari",PAPUA BARAT,98311.0,Indonesia,986212666.0,-0.8532727,134.068781,https://maps.google.com/?cid=0x0:0x6021b02b4fb20af
hotel,hotel,Oriestom Bay Hotel,"43F2+G29, Jl. Trikora Rendani, Wosi, Kec. Manokwari Bar., Kabupaten Manokwari, Papua Bar. 98312","Jl. Trikora Rendani, Wosi, Kec. Manokwari Bar., Kabupaten Manokwari",PAPUA BARAT,98312.0,Indonesia,81240197780.0,-0.8762108,134.0501061,https://maps.google.com/?cid=0x0:0x8bd50034329ebf97
hotel,hotel,The ignislo sorong hotel,"Basuki Rahmat Street KM 7 Sorong, Malaingkedi, Sorong Utara, Sorong City, West Papua 98412","Malaingkedi, Sorong Utara, Sorong City",PAPUA BARAT,98412.0,Indonesia,,-0.8885403,131.2925628,https://maps.google.com/?cid=0x0:0x9992b24f2542a546
hotel,hotel,Soribo Hotel,"42HX+88F, Jl. Trikora Taman Ria, Wosi, Kec. Manokwari Bar., Kabupaten Manokwari, Papua Bar. 98312","Jl. Trikora Taman Ria, Wosi, Kec. Manokwari Bar., Kabupaten Manokwari",PAPUA BARAT,98312.0,Indonesia,82399358933.0,-0.8716912,134.0482957,https://maps.google.com/?cid=0x0:0x2fa30b65d0c34345
hotel,hotel,Fajar Roon Hotel,"Jl. Trikora Wosi, Wosi, Kec. Manokwari Bar., Kabupaten Manokwari, Papua Bar. 98312","Wosi, Kec. Manokwari Bar., Kabupaten Manokwari",PAPUA BARAT,98312.0,Indonesia,85333112338.0,-0.8680273,134.0564644,https://maps.google.com/?cid=0x0:0xec6cf3d20bba5444
hotel,hotel,Hotel Batanta,"46GW+RMC, Kp. Baru, Distrik Sorong, Kota Sorong, Papua Bar. 98411","Kp. Baru, Distrik Sorong, Kota Sorong",PAPUA BARAT,98411.0,Indonesia,,-0.8729338,131.246629,https://maps.google.com/?cid=0x0:0xd18e7775760a134a
hotel,hotel,O,"Jl. Jend. A. Yani No.27, Malabutor, Kecamatan Sorong Manoi, Kota Sorong, Papua Bar. 98412","Malabutor, Kecamatan Sorong Manoi, Kota Sorong",PAPUA BARAT,98412.0,Indonesia,,-0.8827427,131.2828186,https://maps.google.com/?cid=0x0:0x9aebba5ddda67893
hotel,hotel,Mess Distrik kebar Kab. Tambrauw,"53V4+6CJ, Kebar Tengah, Kebar, Kabupaten Manokwari, Papua Bar. 98372","Kebar Tengah, Kebar, Kabupaten Manokwari",PAPUA BARAT,98372.0,Indonesia,,-0.8069094,133.0560008,https://maps.google.com/?cid=0x0:0xe55d5bdaf3a5045
hotel,hotel,Distrik Syujak,"Kabupaten Tambrauw, Papua Bar.","Kabupaten Tambrauw, Papua Bar.",PAPUA BARAT,,Indonesia,,-0.7852432,132.4121441,https://maps.google.com/?cid=0x0:0x7dd0acee1cc8bcaa
hotel,hotel,Swiss-Belhotel Sorong,"Hunting, Telepon, Jl. Jend. Sudirman Kecamatan, Malawei, Kecamatan Sorong Manoi, Kota Sorong, Papua Bar. 98412","Telepon, Jl. Jend. Sudirman Kecamatan, Malawei, Kecamatan Sorong Manoi, Kota Sorong",PAPUA BARAT,98412.0,Indonesia,8114853888.0,-0.889363,131.2749649,https://maps.google.com/?cid=0x0:0x4d32c5e468c00628
hotel,hotel,City View Hotel,"479J+38V, Jl. Srigunting, Remu Utara, Distrik Sorong, Kota Sorong, Papua Bar. 98412","Jl. Srigunting, Remu Utara, Distrik Sorong, Kota Sorong",PAPUA BARAT,98412.0,Indonesia,951324102.0,-0.8822749,131.2808058,https://maps.google.com/?cid=0x0:0xac64df2bc7cde404
hotel,hotel,Belagri Hotel and Restaurant,"Jl. Raja Ampat No.1, Kp. Baru, Distrik Sorong, Kota Sorong, Papua Bar. 98413","Kp. Baru, Distrik Sorong, Kota Sorong",PAPUA BARAT,98413.0,Indonesia,,-0.8704329,131.2517604,https://maps.google.com/?cid=0x0:0xb0064be8b2a3c2c8
hotel,hotel,The ignislo sorong hotel,"Basuki Rahmat Street KM 7 Sorong, Malaingkedi, Sorong Utara, Sorong City, West Papua 98412","Malaingkedi, Sorong Utara, Sorong City",PAPUA BARAT,98412.0,Indonesia,,-0.8885403,131.2925628,https://maps.google.com/?cid=0x0:0x9992b24f2542a546
hotel,hotel,,,,PAPUA BARAT,,Indonesia,,,,https://maps.google.com/?cid=0x0:0x9b9160ef43d35fd5%7C/g/11clwlw14h%7Cid-ID
hotel,hotel,M Hotel Sorong,"Jl. Sungai Maruni, Klawuyuk, Kec. Sorong Utara, Kota Sorong, Papua Bar. 98416","Klawuyuk, Kec. Sorong Utara, Kota Sorong",PAPUA BARAT,98416.0,Indonesia,8114863111.0,-0.8858638,131.3227746,https://maps.google.com/?cid=0x0:0x9b9160ef43d35fd5
hotel,hotel,Hotel Raja Ampat,"Jl. Fundar Sakela No.1, Waisai, City, Kabupaten Raja Ampat, Papua Bar. 98482","Waisai, City, Kabupaten Raja Ampat",PAPUA BARAT,98482.0,Indonesia,81298260747.0,-0.4224417,130.8199523,https://maps.google.com/?cid=0x0:0x3bda491b055b084
hotel,hotel,Penginapan Kofiyau,"46MX+QV7, Unnamed Road, Klasuur, Distrik Sorong, Kota Sorong, Papua Bar. 98411","Unnamed Road, Klasuur, Distrik Sorong, Kota Sorong",PAPUA BARAT,98411.0,Indonesia,82398017326.0,-0.86559,131.2496721,https://maps.google.com/?cid=0x0:0xfc32a1234a9c5c47
hotel,hotel,tempat penginapan,"46GX+7Q4, Kp. Baru, Distrik Sorong, Kota Sorong, Papua Bar.","Kota Sorong, Papua Bar.",PAPUA BARAT,,Indonesia,,-0.8743674,131.249452,https://maps.google.com/?cid=0x0:0x5a527f95bc78be48
hotel,hotel,Penginapan Baruga Indah,"Bandonggwan, Distrik Sausapor, Kabupaten Tambrauw, Papua Bar. 98473","Distrik Sausapor, Kabupaten Tambrauw",PAPUA BARAT,98473.0,Indonesia,,-0.4963589,132.0922358,https://maps.google.com/?cid=0x0:0x825c134d6eff6acf
hotel,hotel,JESONE Hotel  Resto,"Jl. Basuki Rahmat No.KM 7, South Remu, Sorong Manoi, Sorong City, West Papua 98412","South Remu, Sorong Manoi, Sorong City",PAPUA BARAT,98412.0,Indonesia,82198134499.0,-0.8859307,131.2879742,https://maps.google.com/?cid=0x0:0xf06b0978fb75d6f1
hotel,hotel,Hotel Batanta,"46GW+RMC, Kp. Baru, Distrik Sorong, Kota Sorong, Papua Bar. 98411","Kp. Baru, Distrik Sorong, Kota Sorong",PAPUA BARAT,98411.0,Indonesia,,-0.8729338,131.246629,https://maps.google.com/?cid=0x0:0xd18e7775760a134a
hotel,hotel,O,"Jl. Jend. A. Yani No.27, Malabutor, Kecamatan Sorong Manoi, Kota Sorong, Papua Bar. 98412","Malabutor, Kecamatan Sorong Manoi, Kota Sorong",PAPUA BARAT,98412.0,Indonesia,,-0.8827427,131.2828186,https://maps.google.com/?cid=0x0:0x9aebba5ddda67893
hotel,hotel,Kec. Yembun,"Kabupaten Tambrauw, Papua Bar.","Kabupaten Tambrauw, Papua Bar.",PAPUA BARAT,,Indonesia,,-0.7808355,132.1189376,https://maps.google.com/?cid=0x0:0xc5562a9e3b0d5fb4
hotel,hotel,Aimas Hotel And Convention Center,"Klamasen, Distrik Mariat, Kabupaten Sorong, Papua Bar. 98416","Distrik Mariat, Kabupaten Sorong",PAPUA BARAT,98416.0,Indonesia,8114887778.0,-0.9780957,131.3535192,https://maps.google.com/?cid=0x0:0x622ceae2f7c756cf
hotel,hotel,Sansapore Pacific Park Beach Resort,"beach, Distrik Sausapor, Kabupaten Tambrauw, Papua Bar. 98473","Distrik Sausapor, Kabupaten Tambrauw",PAPUA BARAT,98473.0,Indonesia,81244364246.0,-0.4905207,132.0868177,https://maps.google.com/?cid=0x0:0xdc183e9fad46ec97
hotel,hotel,Mahanaim Hotel dan Homestay Manokwari,"jln trikora kalidingin no 109, Wosi, Kec. Manokwari Bar., Kabupaten Manokwari, Papua Bar. 98312","Wosi, Kec. Manokwari Bar., Kabupaten Manokwari",PAPUA BARAT,98312.0,Indonesia,8124830147.0,-0.8699305,134.0471193,https://maps.google.com/?cid=0x0:0xeec6727952b4f3e6
hotel,hotel,InnBox Hostel,"Jl. Sam Ratulangi No.91, Klasuur, Distrik Sorong, Kota Sorong, Papua Bar. 98413","Klasuur, Distrik Sorong, Kota Sorong",PAPUA BARAT,98413.0,Indonesia,81268888355.0,-0.8669219,131.2528048,https://maps.google.com/?cid=0x0:0x3be781e9731e888a
hotel,hotel,The ignislo sorong hotel,"Basuki Rahmat Street KM 7 Sorong, Malaingkedi, Sorong Utara, Sorong City, West Papua 98412","Malaingkedi, Sorong Utara, Sorong City",PAPUA BARAT,98412.0,Indonesia,,-0.8885403,131.2925628,https://maps.google.com/?cid=0x0:0x9992b24f2542a546
hotel,hotel,M Hotel Sorong,"Jl. Sungai Maruni, Klawuyuk, Kec. Sorong Utara, Kota Sorong, Papua Bar. 98416","Klawuyuk, Kec. Sorong Utara, Kota Sorong",PAPUA BARAT,98416.0,Indonesia,8114863111.0,-0.8858638,131.3227746,https://maps.google.com/?cid=0x0:0x9b9160ef43d35fd5
hotel,hotel,,,,PAPUA BARAT,,Indonesia,,,,https://maps.google.com/?cid=0x0:0x9b9160ef43d35fd5%7C/g/11clwlw14h%7Cid-ID
hotel,hotel,Royal Mamberamo Hotel,"Jl. Dr. Sam Ratulangi No.35, Kp. Baru, Distrik Sorong, Kota Sorong, Papua Bar. 98413","Kp. Baru, Distrik Sorong, Kota Sorong",PAPUA BARAT,98413.0,Indonesia,951325666.0,-0.871573,131.250864,https://maps.google.com/?cid=0x0:0xb5e32e36111d42eb
hotel,hotel,favehotel Sorong,"Klabulu, Jl. Basuki Rahmat Malaimsimsa, RT.001/RW.005, Kecamatan Malaimsimsa, Kota Sorong, Papua Bar. 98419","Jl. Basuki Rahmat Malaimsimsa, RT.001/RW.005, Kecamatan Malaimsimsa, Kota Sorong",PAPUA BARAT,98419.0,Indonesia,9513173888.0,-0.8892152,131.2985379,https://maps.google.com/?cid=0x0:0x56f2eb1c250a17fa
hotel,hotel,,,,PAPUA BARAT,,Indonesia,,,,https://maps.google.com/?cid=0x0:0x56f2eb1c250a17fa%7C/g/11g8bwyjxb%7Cid-ID
hotel,hotel,Penginapan Kofiyau,"46MX+QV7, Unnamed Road, Klasuur, Distrik Sorong, Kota Sorong, Papua Bar. 98411","Unnamed Road, Klasuur, Distrik Sorong, Kota Sorong",PAPUA BARAT,98411.0,Indonesia,82398017326.0,-0.86559,131.2496721,https://maps.google.com/?cid=0x0:0xfc32a1234a9c5c47
hotel,hotel,tempat penginapan,"46GX+7Q4, Kp. Baru, Distrik Sorong, Kota Sorong, Papua Bar.","Kota Sorong, Papua Bar.",PAPUA BARAT,,Indonesia,,-0.8743674,131.249452,https://maps.google.com/?cid=0x0:0x5a527f95bc78be48
hotel,hotel,Penginapan Baruga Indah,"Bandonggwan, Distrik Sausapor, Kabupaten Tambrauw, Papua Bar. 98473","Distrik Sausapor, Kabupaten Tambrauw",PAPUA BARAT,98473.0,Indonesia,,-0.4963589,132.0922358,https://maps.google.com/?cid=0x0:0x825c134d6eff6acf
restaurant,Makanan Kecil,Warung Makan Andre,"6C76+MF, Banso, Distrik Syujak, Kabupaten Tambrauw, Papua Bar.","Kabupaten Tambrauw, Papua Bar.",PAPUA BARAT,,Indonesia,,-0.7857415,132.4111989,https://maps.google.com/?cid=0x0:0x443c5a3dac5e6f70
restaurant,restaurant,Mie ayam  Bakso,"6C86+GW, Banso, Distrik Syujak, Kabupaten Tambrauw, Papua Bar.","Kabupaten Tambrauw, Papua Bar.",PAPUA BARAT,,Indonesia,81240779825.0,-0.7836091,132.4123432,https://maps.google.com/?cid=0x0:0x9fba945218f30b69
restaurant,Timur Tengah,Abunawas Restaurant - Matraman,"Jl. Matraman Raya No.15, Kb. Manggis, Kec. Matraman, Kota Jakarta Timur, Daerah Khusus Ibukota Jakarta 13150","Kb. Manggis, Kec. Matraman, Kota Jakarta Timur",PAPUA BARAT,13150.0,Indonesia,218583914.0,-6.2006254,106.8528619,https://maps.google.com/?cid=0x0:0xac881465abb426f7
restaurant,restaurant,WM. Mbak YANTI,"Jalan peter anjai, samping bandara, Kebar, Kabupaten Manokwari, Papua Bar.","Kabupaten Manokwari, Papua Bar.",PAPUA BARAT,,Indonesia,85341995699.0,-0.8076591,133.0547729,https://maps.google.com/?cid=0x0:0xfdd34a1a840e5fff
restaurant,Jepang,WAKI Japanese BBQ Dining,"One Belpark Mall, Lantai GF No 09  10, Jl. RS. Fatmawati Raya No.1, RT.1/RW.1, Pd. Labu, Kec. Cilandak, Kota Jakarta Selatan, Daerah Khusus Ibukota Jakarta 12450","Lantai GF No 09  10, Jl. RS. Fatmawati Raya No.1, RT.1/RW.1, Pd. Labu, Kec. Cilandak, Kota Jakarta Selatan",PAPUA BARAT,12450.0,Indonesia,81294526299.0,-6.304592,106.7950165,https://maps.google.com/?cid=0x0:0xe9981cd402da6200
restaurant,Restoran,Waki Signature SCBD,"Equity Tower, Jl. Jend. Sudirman Kav 52-53, G Floor, RT.5/RW.3, Senayan Kebayoran Baru, South Jakarta City, Jakarta, South Jakarta City, Jawa Barat 12190","Jl. Jend. Sudirman Kav 52-53, G Floor, RT.5/RW.3, Senayan Kebayoran Baru, South Jakarta City, Jakarta, South Jakarta City",PAPUA BARAT,12190.0,Indonesia,82299777985.0,-6.226834,106.8086037,https://maps.google.com/?cid=0x0:0x800090246b18e008
restaurant,restaurant,WAKI Japanese BBQ Dining,"Lantai 1, Jl. Tanjung Karang No.5, RT.11/RW.20, Kebon Melati, Tanah Abang, Central Jakarta City, Jakarta 10230","Jl. Tanjung Karang No.5, RT.11/RW.20, Kebon Melati, Tanah Abang, Central Jakarta City",PAPUA BARAT,10230.0,Indonesia,81290109624.0,-6.2011101,106.8223228,https://maps.google.com/?cid=0x0:0xe82353da2b2ab440
restaurant,restaurant,WM. Mbak YANTI,"Jalan peter anjai, samping bandara, Kebar, Kabupaten Manokwari, Papua Bar.","Kabupaten Manokwari, Papua Bar.",PAPUA BARAT,,Indonesia,85341995699.0,-0.8076591,133.0547729,https://maps.google.com/?cid=0x0:0xfdd34a1a840e5fff
restaurant,Jepang,My Lil' Cube,"402 N Meridian, Puyallup, WA 98371, Amerika Serikat","Puyallup, WA",PAPUA BARAT,98371.0,Indonesia,12538402158.0,47.1939452,-122.2940699,https://maps.google.com/?cid=0x0:0x31e7ab854d762601
restaurant,Restoran,OKI Japan,"3500 S Meridian Unit 494, Puyallup, WA 98373, Amerika Serikat","Puyallup, WA",PAPUA BARAT,98373.0,Indonesia,12533536000.0,47.1592252,-122.296945,https://maps.google.com/?cid=0x0:0x452eed08c82817cb
restaurant,restaurant,,,,PAPUA BARAT,,Indonesia,,,,https://maps.google.com/?cid=0x0:0x31e7ab854d762601u0026onu003dXiao+Long+Bao+Soup+Dumplingsu0026midu003d/g/11b6_k8v5z
restaurant,restaurant,,,,PAPUA BARAT,,Indonesia,,,,https://maps.google.com/?cid=0x0:0x31e7ab854d762601u0026onu003dTonkatsuu0026midu003d/g/11b6_k8v5z
restaurant,restaurant,,,,PAPUA BARAT,,Indonesia,,,,https://maps.google.com/?cid=0x0:0x31e7ab854d762601u0026onu003dChili+Oilu0026midu003d/g/11b6_k8v5z
restaurant,restaurant,,,,PAPUA BARAT,,Indonesia,,,,https://maps.google.com/?cid=0x0:0x31e7ab854d762601u0026onu003dShrimp+Tempurau0026midu003d/g/11b6_k8v5z
restaurant,restaurant,,,,PAPUA BARAT,,Indonesia,,,,https://maps.google.com/?cid=0x0:0x31e7ab854d762601u0026onu003dKatsudonu0026midu003d/g/11b6_k8v5z
restaurant,restaurant,,,,PAPUA BARAT,,Indonesia,,,,https://maps.google.com/?cid=0x0:0x31e7ab854d762601u0026onu003dBlack+Garlic+Tonkotsu+Ramenu0026midu003d/g/11b6_k8v5z
restaurant,restaurant,,,,PAPUA BARAT,,Indonesia,,,,https://maps.google.com/?cid=0x0:0x31e7ab854d762601u0026onu003dTempura+Udonu0026midu003d/g/11b6_k8v5z
restaurant,restaurant,,,,PAPUA BARAT,,Indonesia,,,,https://maps.google.com/?cid=0x0:0x31e7ab854d762601u0026onu003dAgedashi+Tofuu0026midu003d/g/11b6_k8v5z
restaurant,restaurant,,,,PAPUA BARAT,,Indonesia,,,,https://maps.google.com/?cid=0x0:0x31e7ab854d762601u0026onu003dIced+Milk+Teau0026midu003d/g/11b6_k8v5z
restaurant,restaurant,,,,PAPUA BARAT,,Indonesia,,,,https://maps.google.com/?cid=0x0:0x31e7ab854d762601u0026onu003dChicken+Katsu+Donu0026midu003d/g/11b6_k8v5z
restaurant,restaurant,,,,PAPUA BARAT,,Indonesia,,,,https://maps.google.com/?cid=0x0:0x31e7ab854d762601u0026onu003dSakeu0026midu003d/g/11b6_k8v5z
restaurant,restaurant,Warung makan Gloria,"5CVJ+VQ6, Ases, Distrik Fef, Kabupaten Tambrauw, Papua Bar.","Kabupaten Tambrauw, Papua Bar.",PAPUA BARAT,,Indonesia,82348184296.0,-0.8053457,132.4318978,https://maps.google.com/?cid=0x0:0xbce4336ba8225375
restaurant,restaurant,Papua Bar. 98473,"Kabupaten Tambrauw, Papua Bar.","Kabupaten Tambrauw, Papua Bar.",PAPUA BARAT,,Indonesia,,-0.5563335,132.3938375,https://maps.google.com/?cid=0x0:0x105d75abdd98e1ee
restaurant,Brunch,Warung Makan Safira,"5CVM+PC2, Jl. Raya Mega-Fef, Ases, Distrik Fef, Kabupaten Tambrauw, Papua Bar. 98473","Jl. Raya Mega-Fef, Ases, Distrik Fef, Kabupaten Tambrauw",PAPUA BARAT,98473.0,Indonesia,,-0.8057493,132.4335025,https://maps.google.com/?cid=0x0:0xdbb6822d7fe5cd3
restaurant,restaurant,Warung Seggy,"5CVQ+52, Wayo, Distrik Fef, Kabupaten Tambrauw, Papua Bar.","Kabupaten Tambrauw, Papua Bar.",PAPUA BARAT,,Indonesia,,-0.807042,132.4375615,https://maps.google.com/?cid=0x0:0xff13f323063327d5
restaurant,restaurant,Distrik Fef,"Kabupaten Tambrauw, Papua Bar.","Kabupaten Tambrauw, Papua Bar.",PAPUA BARAT,,Indonesia,,-0.7798216,132.3665985,https://maps.google.com/?cid=0x0:0x99889d8cffaa571e
restaurant,restaurant,Distrik Kwoor,"Kabupaten Tambrauw, Papua Bar.","Kabupaten Tambrauw, Papua Bar.",PAPUA BARAT,,Indonesia,,-0.4621685,132.2908119,https://maps.google.com/?cid=0x0:0xc9babc4648539c74
restaurant,restaurant,Kafe Internet MAROS INDAH,"Emaos, Distrik Sausapor, Kabupaten Tambrauw, Papua Bar. 98473","Distrik Sausapor, Kabupaten Tambrauw",PAPUA BARAT,98473.0,Indonesia,82271191527.0,-0.504784,132.0801417,https://maps.google.com/?cid=0x0:0x16b708103e4522bb
restaurant,restaurant,Warung makan maros,"C4MW+QXC, Emaos, Distrik Sausapor, Kabupaten Tambrauw, Papua Bar.","Kabupaten Tambrauw, Papua Bar.",PAPUA BARAT,,Indonesia,,-0.5655622,132.1473903,https://maps.google.com/?cid=0x0:0x1f519dd7f6c44b3a
restaurant,restaurant,Miyah,"Kabupaten Tambrauw, Papua Bar.","Kabupaten Tambrauw, Papua Bar.",PAPUA BARAT,,Indonesia,,-0.7502666,132.6684924,https://maps.google.com/?cid=0x0:0x714bb316eb3dbe5c
restaurant,Indonesia,MYCHI Resto  Bakery,"Atas, Jl. Irian","Kabupaten Jayawijaya, Papua",PAPUA BARAT,,Indonesia,,-4.0963416,138.9386726,https://maps.google.com/?cid=0x0:0xa47820c4844bdd6
restaurant,restaurant,WM. Mbak YANTI,"Jalan peter anjai, samping bandara, Kebar, Kabupaten Manokwari, Papua Bar.","Kabupaten Manokwari, Papua Bar.",PAPUA BARAT,,Indonesia,85341995699.0,-0.8076591,133.0547729,https://maps.google.com/?cid=0x0:0xfdd34a1a840e5fff
restaurant,Restoran,Rumah Makan Suka-Suka,"42JW+2RH, Jl. Trikora Rendani, Wosi, Kec. Manokwari Bar., Kabupaten Manokwari, Papua Bar. 98312","Jl. Trikora Rendani, Wosi, Kec. Manokwari Bar., Kabupaten Manokwari",PAPUA BARAT,98312.0,Indonesia,,-0.8699304,134.0471193,https://maps.google.com/?cid=0x0:0xabc7135884bb31f0
restaurant,Makanan Kecil,Warung Makan Andre,"6C76+MF, Banso, Distrik Syujak, Kabupaten Tambrauw, Papua Bar.","Kabupaten Tambrauw, Papua Bar.",PAPUA BARAT,,Indonesia,,-0.7857415,132.4111989,https://maps.google.com/?cid=0x0:0x443c5a3dac5e6f70
restaurant,restaurant,Warung Chelsea,"6C4F+R6P, Jl. Raya Mega-Fef, Fef, Distrik Syujak, Kabupaten Tambrauw, Papua Bar.","Kabupaten Tambrauw, Papua Bar.",PAPUA BARAT,,Indonesia,,-0.7929218,132.423064,https://maps.google.com/?cid=0x0:0xba21b5f3e8078046
restaurant,restaurant,Mie ayam  Bakso,"6C86+GW, Banso, Distrik Syujak, Kabupaten Tambrauw, Papua Bar.","Kabupaten Tambrauw, Papua Bar.",PAPUA BARAT,,Indonesia,81240779825.0,-0.7836091,132.4123432,https://maps.google.com/?cid=0x0:0x9fba945218f30b69
restaurant,restaurant,Warung makan Gloria,"5CVJ+VQ6, Ases, Distrik Fef, Kabupaten Tambrauw, Papua Bar.","Kabupaten Tambrauw, Papua Bar.",PAPUA BARAT,,Indonesia,82348184296.0,-0.8053457,132.4318978,https://maps.google.com/?cid=0x0:0xbce4336ba8225375
restaurant,Rumah Makan,Warung Makan P. Raimuti,"Jln. Trikora Arfai I, Anday, Distrik Manokwari, Kabupaten Manokwari, Papua Bar. 98315","Anday, Distrik Manokwari, Kabupaten Manokwari",PAPUA BARAT,98315.0,Indonesia,81248852213.0,-0.9293074,134.039726,https://maps.google.com/?cid=0x0:0xe0ffe260a5aef178
restaurant,Restoran,Mansae Korean Grill Manokwari,"Jl. Trikora Wosi No.132, Wosi, Kec. Manokwari Bar., Kabupaten Manokwari, Papua Bar. 98312","Wosi, Kec. Manokwari Bar., Kabupaten Manokwari",PAPUA BARAT,98312.0,Indonesia,87708779039.0,-0.8626504,134.0509165,https://maps.google.com/?cid=0x0:0x5cbafa30d42a86c1
restaurant,Nasi,Pyah Food,"toko sirbeeh, Jalan smp pinggir jalan depan, Koya Bar., Kec. Muara Tami, Kota Jayapura, Papua 99351","Jalan smp pinggir jalan depan, Koya Bar., Kec. Muara Tami, Kota Jayapura",PAPUA BARAT,99351.0,Indonesia,81225400183.0,-2.6442909,140.8060685,https://maps.google.com/?cid=0x0:0x315e9b4584b56232
restaurant,Rumah Makan,Mayosyah,"FM3R+FG4, Ciampea Udik, Kec. Ciampea, Kabupaten Bogor, Jawa Barat 16620","Ciampea Udik, Kec. Ciampea, Kabupaten Bogor",PAPUA BARAT,16620.0,Indonesia,85776628835.0,-6.5463533,106.6913295,https://maps.google.com/?cid=0x0:0xe8026df2921808d
restaurant,Makanan Kecil,Cafe  Resto Miyahê§ê¦ê¦¥ê¦³ê¦ºê¦£ê¦¤ê§ê¦ê¦±ê§ê¦ ê¦ºê¦´ê¦©ê¦¶ê¦ªê¦,"59CR+6C3, Jl. Karawitan, Giwangan, Kec. Umbulharjo, Kota Yogyakarta, Daerah Istimewa Yogyakarta 55163","Jl. Karawitan, Giwangan, Kec. Umbulharjo, Kota Yogyakarta",PAPUA BARAT,55163.0,Indonesia,,-7.8294808,110.3910341,https://maps.google.com/?cid=0x0:0x71f50547804c7b02
restaurant,Prasmanan,Temu Rasa,"Jl. IR H Juanda No.26, Situgintung, Cireundeu, Kec. Ciputat Tim., Kota Tangerang Selatan, Banten 15419","Situgintung, Cireundeu, Kec. Ciputat Tim., Kota Tangerang Selatan",PAPUA BARAT,15419.0,Indonesia,81805021119.0,-6.3014409,106.7619589,https://maps.google.com/?cid=0x0:0x1b6b495f5b11dcd2
restaurant,restaurant,Moraid,"Kabupaten Sorong, Papua Bar.","Kabupaten Sorong, Papua Bar.",PAPUA BARAT,,Indonesia,,-0.6590992,131.9791516,https://maps.google.com/?cid=0x0:0x754b158cc336f2d9
restaurant,restaurant,Kafe Internet MAROS INDAH,"Emaos, Distrik Sausapor, Kabupaten Tambrauw, Papua Bar. 98473","Distrik Sausapor, Kabupaten Tambrauw",PAPUA BARAT,98473.0,Indonesia,82271191527.0,-0.504784,132.0801417,https://maps.google.com/?cid=0x0:0x16b708103e4522bb
restaurant,restaurant,Warung makan maros,"C4MW+QXC, Emaos, Distrik Sausapor, Kabupaten Tambrauw, Papua Bar.","Kabupaten Tambrauw, Papua Bar.",PAPUA BARAT,,Indonesia,,-0.5655622,132.1473903,https://maps.google.com/?cid=0x0:0x1f519dd7f6c44b3a
restaurant,restaurant,,,,PAPUA BARAT,,Indonesia,,,,https://maps.google.com/?cid=0x0:0x2e69016c3fc71cf3u0026onu003d%D8%A7%D8%B4%D9%BE%D9%84+%DA%AF%D8%B1%D8%AF%D9%88+%D8%A8%D8%A7%D9%82%D8%A7%D9%84%DB%8Cu0026midu003d/g/11c5xkrl3h
restaurant,Hidangan Laut,Ù¾ÙÙ Ú©Ø¨Ø§Ø¨Û ÙØ±Ø§Ø¯Û Ù¾Ø¯Ø±,"Dastak, Iran, 94MQ+G6 Ø¯Ø³ØªÚ©Ø Ø§Ø³ØªØ§Ù Ú¯ÛÙØ§ÙØØ, Iran","Dastak, Iran",PAPUA BARAT,,Indonesia,989112413531.0,37.38378,50.1378384,https://maps.google.com/?cid=0x0:0x8c85a966f20b2532
restaurant,restaurant,,,,PAPUA BARAT,,Indonesia,,,,https://maps.google.com/?cid=0x0:0x2e69016c3fc71cf3u0026onu0026midu003d/g/11c5xkrl3h
restaurant,Hidangan Laut,Marina Star Restaurant Seafood,"Kompleks, Jl. Bubara Jl. Pelabuhan Perikanan, Distrik Sorong, Kota Sorong, Papua Bar. 98414","Jl. Bubara Jl. Pelabuhan Perikanan, Distrik Sorong, Kota Sorong",PAPUA BARAT,98414.0,Indonesia,81240250548.0,-0.8790069,131.2552456,https://maps.google.com/?cid=0x0:0x6d780e763a272c1a
restaurant,restaurant,,,,PAPUA BARAT,,Indonesia,,,,https://maps.google.com/?cid=0x0:0x6d780e763a272c1au0026onu003dChicken+Cordon+Bleuu0026midu003d/g/11h057j22x
restaurant,Hidangan Laut,WR. Marinda Seafood,"46FV+R9P, Kp. Baru, Distrik Sorong, Kota Sorong, Papua Bar. 98411","Kp. Baru, Distrik Sorong, Kota Sorong",PAPUA BARAT,98411.0,Indonesia,85244547308.0,-0.8754085,131.2434382,https://maps.google.com/?cid=0x0:0x3954b465e868b0a3
restaurant,restaurant,,,,PAPUA BARAT,,Indonesia,,,,https://maps.google.com/?cid=0x0:0x6d780e763a272c1au0026onu003dAneka+Hidanganu0026midu003d/g/11h057j22x
restaurant,restaurant,,,,PAPUA BARAT,,Indonesia,,,,https://maps.google.com/?cid=0x0:0x6d780e763a272c1au0026onu003dTiger+Saus+Singaporeu0026midu003d/g/11h057j22x
restaurant,restaurant,,,,PAPUA BARAT,,Indonesia,,,,https://maps.google.com/?cid=0x0:0x6d780e763a272c1au0026onu003dNasi+Goreng+Seafoodu0026midu003d/g/11h057j22x
restaurant,restaurant,,,,PAPUA BARAT,,Indonesia,,,,https://maps.google.com/?cid=0x0:0x6d780e763a272c1au0026onu003dAneka+Menuu0026midu003d/g/11h057j22x
restaurant,restaurant,,,,PAPUA BARAT,,Indonesia,,,,https://maps.google.com/?cid=0x0:0x6d780e763a272c1au0026onu003dDada+Tuna+Bakaru0026midu003d/g/11h057j22x
restaurant,restaurant,,,,PAPUA BARAT,,Indonesia,,,,https://maps.google.com/?cid=0x0:0x6d780e763a272c1au0026onu003dUdang+Banana+Goreng+Tepungu0026midu003d/g/11h057j22x
restaurant,restaurant,,,,PAPUA BARAT,,Indonesia,,,,https://maps.google.com/?cid=0x0:0x6d780e763a272c1au0026onu003dEs+Tehu0026midu003d/g/11h057j22x
restaurant,restaurant,,,,PAPUA BARAT,,Indonesia,,,,https://maps.google.com/?cid=0x0:0x6d780e763a272c1au0026onu003dHot+Cappucinou0026midu003d/g/11h057j22x
restaurant,restaurant,,,,PAPUA BARAT,,Indonesia,,,,https://maps.google.com/?cid=0x0:0x6d780e763a272c1au0026onu003dSingkong+Goreng+Lumpiau0026midu003d/g/11h057j22x
restaurant,restaurant,Distrik Sausapor,"Kabupaten Tambrauw, Papua Bar.","Kabupaten Tambrauw, Papua Bar.",PAPUA BARAT,,Indonesia,,-0.496052,132.0874738,https://maps.google.com/?cid=0x0:0x22b76922b3bd09b1
restaurant,restaurant,Kafe Internet MAROS INDAH,"Emaos, Distrik Sausapor, Kabupaten Tambrauw, Papua Bar. 98473","Distrik Sausapor, Kabupaten Tambrauw",PAPUA BARAT,98473.0,Indonesia,82271191527.0,-0.504784,132.0801417,https://maps.google.com/?cid=0x0:0x16b708103e4522bb
restaurant,Tempat Biliar,Bilyard Iriani Sspor,"G33R+RW8, Emaos, Distrik Sausapor, Kabupaten Tambrauw, Papua Bar. 98473","Emaos, Distrik Sausapor, Kabupaten Tambrauw",PAPUA BARAT,98473.0,Indonesia,,-0.4954732,132.0923337,https://maps.google.com/?cid=0x0:0x549c0fbef257b4a5
restaurant,restaurant,Warung makan maros,"C4MW+QXC, Emaos, Distrik Sausapor, Kabupaten Tambrauw, Papua Bar.","Kabupaten Tambrauw, Papua Bar.",PAPUA BARAT,,Indonesia,,-0.5655622,132.1473903,https://maps.google.com/?cid=0x0:0x1f519dd7f6c44b3a
restaurant,,Pantai Werur,"H5MR+Q4X, Werur, Distrik Sausapor, Kabupaten Tambrauw, Papua Bar. 98473","Werur, Distrik Sausapor, Kabupaten Tambrauw",PAPUA BARAT,98473.0,Indonesia,,-0.4155024,132.1903445,https://maps.google.com/?cid=0x0:0x1532d5edeb6a0d99
restaurant,restaurant,Papua Bar. 98372,"Kabupaten Manokwari, Papua Bar.","Kabupaten Manokwari, Papua Bar.",PAPUA BARAT,,Indonesia,,-0.9989582,133.0194897,https://maps.google.com/?cid=0x0:0xd3aecb81246ce306
restaurant,restaurant,WM. Mbak YANTI,"Jalan peter anjai, samping bandara, Kebar, Kabupaten Manokwari, Papua Bar.","Kabupaten Manokwari, Papua Bar.",PAPUA BARAT,,Indonesia,85341995699.0,-0.8076591,133.0547729,https://maps.google.com/?cid=0x0:0xfdd34a1a840e5fff
restaurant,Indonesia,Yougwa Danau Sentani,"Senayan Park Mall Lantai LG #20-25, Jl. Gerbang Pemuda No.3, RT.1/RW.3, Gelora, Kecamatan Tanah Abang, Kota Jakarta Pusat, Daerah Khusus Ibukota Jakarta 10270","Jl. Gerbang Pemuda No.3, RT.1/RW.3, Gelora, Kecamatan Tanah Abang, Kota Jakarta Pusat",PAPUA BARAT,10270.0,Indonesia,2129633388.0,-6.2122871,106.8053997,https://maps.google.com/?cid=0x0:0x25579f89f3dead39
restaurant,restaurant,Candra Eka Risti,"M57F+HV4, jln nunsatra, Jl. Nusantara Katapop II, Majaran, Salawati, Sorong, Papua Bar. 98451","jln nunsatra, Jl. Nusantara Katapop II, Majaran, Salawati, Sorong",PAPUA BARAT,98451.0,Indonesia,82238320365.0,-1.3361154,133.1747162,https://maps.google.com/?cid=0x0:0xbf1062e385641c3f
restaurant,Restoran,Mrs. Turner's Restaurant,"701 E Main Ave, Puyallup, WA 98372, Amerika Serikat","Puyallup, WA",PAPUA BARAT,98372.0,Indonesia,12538487761.0,47.1921567,-122.2855498,https://maps.google.com/?cid=0x0:0x107cec23feffdc7
restaurant,Restoran Amerika,Meridian Cafe,"213 N Meridian, Puyallup, WA 98371, Amerika Serikat","Puyallup, WA",PAPUA BARAT,98371.0,Indonesia,12536047612.0,47.1927201,-122.2935562,https://maps.google.com/?cid=0x0:0xc725639e98f0da61
restaurant,restaurant,,,,PAPUA BARAT,,Indonesia,,,,https://maps.google.com/?cid=0x0:0x107cec23feffdc7u0026onu003dDineru0026midu003d/g/1tr8l8hg
restaurant,restaurant,,,,PAPUA BARAT,,Indonesia,,,,https://maps.google.com/?cid=0x0:0x107cec23feffdc7u0026onu003dCoffeeu0026midu003d/g/1tr8l8hg
restaurant,restaurant,,,,PAPUA BARAT,,Indonesia,,,,https://maps.google.com/?cid=0x0:0x107cec23feffdc7u0026onu003dOmelette+with+Cheddar+Cheeseu0026midu003d/g/1tr8l8hg
restaurant,restaurant,,,,PAPUA BARAT,,Indonesia,,,,https://maps.google.com/?cid=0x0:0x107cec23feffdc7u0026onu003dBiscuits+and+Gravyu0026midu003d/g/1tr8l8hg
restaurant,restaurant,,,,PAPUA BARAT,,Indonesia,,,,https://maps.google.com/?cid=0x0:0x107cec23feffdc7u0026onu003dChicken+Fried+Steaku0026midu003d/g/1tr8l8hg
restaurant,restaurant,,,,PAPUA BARAT,,Indonesia,,,,https://maps.google.com/?cid=0x0:0x107cec23feffdc7u0026onu003dFrench+Toastu0026midu003d/g/1tr8l8hg
restaurant,restaurant,,,,PAPUA BARAT,,Indonesia,,,,https://maps.google.com/?cid=0x0:0x107cec23feffdc7u0026onu003dCinnamon+Rollu0026midu003d/g/1tr8l8hg
restaurant,restaurant,,,,PAPUA BARAT,,Indonesia,,,,https://maps.google.com/?cid=0x0:0x107cec23feffdc7u0026onu003dMonte+Cristou0026midu003d/g/1tr8l8hg
restaurant,Makanan Kecil,Warung Makan Andre,"6C76+MF, Banso, Distrik Syujak, Kabupaten Tambrauw, Papua Bar.","Kabupaten Tambrauw, Papua Bar.",PAPUA BARAT,,Indonesia,,-0.7857415,132.4111989,https://maps.google.com/?cid=0x0:0x443c5a3dac5e6f70
restaurant,restaurant,Distrik Syujak,"Kabupaten Tambrauw, Papua Bar.","Kabupaten Tambrauw, Papua Bar.",PAPUA BARAT,,Indonesia,,-0.7852432,132.4121441,https://maps.google.com/?cid=0x0:0x7dd0acee1cc8bcaa
restaurant,restaurant,Warung Chelsea,"6C4F+R6P, Jl. Raya Mega-Fef, Fef, Distrik Syujak, Kabupaten Tambrauw, Papua Bar.","Kabupaten Tambrauw, Papua Bar.",PAPUA BARAT,,Indonesia,,-0.7929218,132.423064,https://maps.google.com/?cid=0x0:0xba21b5f3e8078046
restaurant,restaurant,Warung makan Gloria,"5CVJ+VQ6, Ases, Distrik Fef, Kabupaten Tambrauw, Papua Bar.","Kabupaten Tambrauw, Papua Bar.",PAPUA BARAT,,Indonesia,82348184296.0,-0.8053457,132.4318978,https://maps.google.com/?cid=0x0:0xbce4336ba8225375
restaurant,Restoran,Rumah Makan Suka-Suka,"42JW+2RH, Jl. Trikora Rendani, Wosi, Kec. Manokwari Bar., Kabupaten Manokwari, Papua Bar. 98312","Jl. Trikora Rendani, Wosi, Kec. Manokwari Bar., Kabupaten Manokwari",PAPUA BARAT,98312.0,Indonesia,,-0.8699304,134.0471193,https://maps.google.com/?cid=0x0:0xabc7135884bb31f0
restaurant,Brunch,Warung Makan Safira,"5CVM+PC2, Jl. Raya Mega-Fef, Ases, Distrik Fef, Kabupaten Tambrauw, Papua Bar. 98473","Jl. Raya Mega-Fef, Ases, Distrik Fef, Kabupaten Tambrauw",PAPUA BARAT,98473.0,Indonesia,,-0.8057493,132.4335025,https://maps.google.com/?cid=0x0:0xdbb6822d7fe5cd3
restaurant,Korea,ShukaGrill Cireundeu,"Jl. Raya Cirendeu No.3, Cireundeu, Kec. Ciputat Tim., Kota Tangerang Selatan, Banten 15419","Cireundeu, Kec. Ciputat Tim., Kota Tangerang Selatan",PAPUA BARAT,15419.0,Indonesia,81717173834.0,-6.3121251,106.770185,https://maps.google.com/?cid=0x0:0x39eef96006c1080a
restaurant,Komplek perumahan,Sunshine Garden SouthCity,"Jl. Wahyudi No.12, Pd. Cabe Udik, Kec. Pamulang, Tangerang, Banten 15418","Pd. Cabe Udik, Kec. Pamulang, Tangerang",PAPUA BARAT,15418.0,Indonesia,811139985.0,-6.3437759,106.7678132,https://maps.google.com/?cid=0x0:0xb7f63de5b63c56d7
restaurant,Jepang,"Shukaku Shabu, BBQ  Agemono","Jl. Cempaka Putih Raya No.20, Cemp. Putih Tim., Kec. Cemp. Putih, Kota Jakarta Pusat, Daerah Khusus Ibukota Jakarta 10510","Cemp. Putih Tim., Kec. Cemp. Putih, Kota Jakarta Pusat",PAPUA BARAT,10510.0,Indonesia,87876216000.0,-6.1759624,106.8670464,https://maps.google.com/?cid=0x0:0x136844673fdbc6ea
restaurant,restaurant,Kec. Yembun,"Kabupaten Tambrauw, Papua Bar.","Kabupaten Tambrauw, Papua Bar.",PAPUA BARAT,,Indonesia,,-0.7808355,132.1189376,https://maps.google.com/?cid=0x0:0xc5562a9e3b0d5fb4
restaurant,Makanan Kecil,Warung Makan Andre,"6C76+MF, Banso, Distrik Syujak, Kabupaten Tambrauw, Papua Bar.","Kabupaten Tambrauw, Papua Bar.",PAPUA BARAT,,Indonesia,,-0.7857415,132.4111989,https://maps.google.com/?cid=0x0:0x443c5a3dac5e6f70
restaurant,restaurant,Warung makan Gloria,"5CVJ+VQ6, Ases, Distrik Fef, Kabupaten Tambrauw, Papua Bar.","Kabupaten Tambrauw, Papua Bar.",PAPUA BARAT,,Indonesia,82348184296.0,-0.8053457,132.4318978,https://maps.google.com/?cid=0x0:0xbce4336ba8225375
restaurant,restaurant,Mie ayam  Bakso,"6C86+GW, Banso, Distrik Syujak, Kabupaten Tambrauw, Papua Bar.","Kabupaten Tambrauw, Papua Bar.",PAPUA BARAT,,Indonesia,81240779825.0,-0.7836091,132.4123432,https://maps.google.com/?cid=0x0:0x9fba945218f30b69
restaurant,restaurant,Kafe Internet MAROS INDAH,"Emaos, Distrik Sausapor, Kabupaten Tambrauw, Papua Bar. 98473","Distrik Sausapor, Kabupaten Tambrauw",PAPUA BARAT,98473.0,Indonesia,82271191527.0,-0.504784,132.0801417,https://maps.google.com/?cid=0x0:0x16b708103e4522bb
restaurant,Brunch,Warung Makan Safira,"5CVM+PC2, Jl. Raya Mega-Fef, Ases, Distrik Fef, Kabupaten Tambrauw, Papua Bar. 98473","Jl. Raya Mega-Fef, Ases, Distrik Fef, Kabupaten Tambrauw",PAPUA BARAT,98473.0,Indonesia,,-0.8057493,132.4335025,https://maps.google.com/?cid=0x0:0xdbb6822d7fe5cd3
restaurant,Restoran,So Yummy Resto,"FV3Q+QR9, Kwamki, Kec. Mimika Baru, Kabupaten Mimika, Papua 99971","Kwamki, Kec. Mimika Baru, Kabupaten Mimika",PAPUA BARAT,99971.0,Indonesia,81240005760.0,-4.5455973,136.8896159,https://maps.google.com/?cid=0x0:0xad18f6a2fb6ee6f8
restaurant,Pujasera,TAMBUAH MALIMPAH,"Jl. Benda Raya No.54, RT.8/RW.4, Cilandak Tim., Ps. Minggu, Kota Jakarta Selatan, Daerah Khusus Ibukota Jakarta 12560","RT.8/RW.4, Cilandak Tim., Ps. Minggu, Kota Jakarta Selatan",PAPUA BARAT,12560.0,Indonesia,82189811192.0,-6.2778388,106.8158871,https://maps.google.com/?cid=0x0:0x861557366ececd84
