Category,Real Category,Business Name,Address,City,State,Postal Code,Country,Phone,Latitude,Longitude,Map Link
toko bangunan,Toko,TOKO BANGUNAN SUMBER ANUGERAH,"Persatuan, Kec. Mandobo, Kabupaten Boven Digoel, Papua 99663","Kec. Mandobo, Kabupaten Boven Digoel",PAPUA BARAT,99663.0,Indonesia,,-6.0903965,140.3331897,https://maps.google.com/?cid=0x0:0x9b0d3e5a6263752a
toko bangunan,Toko Bahan Bangunan,UD. Anugerah Abadi,"V8W8+526, Persatuan, Kec. Mandobo, Kabupaten Boven Digoel, Papua","Kabupaten Boven Digoel, Papua",PAPUA BARAT,,Indonesia,,-6.1045815,140.3150258,https://maps.google.com/?cid=0x0:0xeeca0aee368caf42
toko bangunan,Toko Bahan Bangunan,ANEKA BANGUNAN,"Wosi, Kec. Manokwari Bar., Kabupaten Manokwari, Papua Bar. 98312","Kec. Manokwari Bar., Kabupaten Manokwari",PAPUA BARAT,98312.0,Indonesia,81344843001.0,-0.8631883,134.0498559,https://maps.google.com/?cid=0x0:0x3598159af16f30ea
toko bangunan,Toko Bahan Bangunan,Toko Material Wan Abud 104,"jalan haji saiyan rt 05 rw 06 no 25,tanjung barat jagakarsa kode pos, RT.5/RW.6, Tj. Bar., Kec. Jagakarsa, Kota Jakarta Selatan, Daerah Khusus Ibukota Jakarta 12530","RT.5/RW.6, Tj. Bar., Kec. Jagakarsa, Kota Jakarta Selatan",PAPUA BARAT,12530.0,Indonesia,81380077923.0,-6.3109194,106.8489014,https://maps.google.com/?cid=0x0:0x8519d945a14d9db6
toko bangunan,Toko Bahan Bangunan,Toko Abu Sofyan,"Jl. Tulodong Atas No.9a 6, RT.6/RW.3, Senayan, Kec. Kby. Baru, Kota Jakarta Selatan, Daerah Khusus Ibukota Jakarta 12110","RT.6/RW.3, Senayan, Kec. Kby. Baru, Kota Jakarta Selatan",PAPUA BARAT,12110.0,Indonesia,,-6.2302552,106.8086506,https://maps.google.com/?cid=0x0:0xccf6ad4ed60e494
toko bangunan,Toko Kue,CV ABUNMART INDO PRIMA (Abun Aneka Plastik OLSHOP),"GERBANG ABUN, Jl. Kubur Islam No.12A, RT.9/RW.10, Grogol Sel., Kec. Kby. Lama, Kota Jakarta Selatan, Daerah Khusus Ibukota Jakarta 12220","Jl. Kubur Islam No.12A, RT.9/RW.10, Grogol Sel., Kec. Kby. Lama, Kota Jakarta Selatan",PAPUA BARAT,12220.0,Indonesia,8119412179.0,-6.2306881,106.7826985,https://maps.google.com/?cid=0x0:0x28facb10163a1603
toko bangunan,Toko Bahan Bangunan,TB. ACC,"Jl. Otista Raya No.435, Bidara Cina, Kecamatan Jatinegara, Kota Jakarta Timur, Daerah Khusus Ibukota Jakarta 13330","Bidara Cina, Kecamatan Jatinegara, Kota Jakarta Timur",PAPUA BARAT,13330.0,Indonesia,218194623.0,-6.2425242,106.869277,https://maps.google.com/?cid=0x0:0x6f8ed1f97d6092a6
toko bangunan,Toko Bahan Bangunan,Super Bangunan Supermarket Bahan Bangun No #1,"Jl. Raya Cikaret No.8, Harapan Jaya, Kec. Cibinong, Kabupaten Bogor, Jawa Barat 16914","Harapan Jaya, Kec. Cibinong, Kabupaten Bogor",PAPUA BARAT,16914.0,Indonesia,85710923235.0,-6.4669858,106.8393338,https://maps.google.com/?cid=0x0:0x53373791abd65da6
toko bangunan,Toko Bahan Bangunan,Toko Subuh,"Jl. Cipinang Baru No.27, RT.9/RW.3, Cipinang, Kec. Pulo Gadung, Kota Jakarta Timur, Daerah Khusus Ibukota Jakarta 13240","RT.9/RW.3, Cipinang, Kec. Pulo Gadung, Kota Jakarta Timur",PAPUA BARAT,13240.0,Indonesia,214896871.0,-6.203284,106.8930856,https://maps.google.com/?cid=0x0:0xb4aff6f0c2a07a32
toko bangunan,Toko Bahan Bangunan,Toko Material Maju Makmur,"Jl. Raya Ciracas No.4, RT.11/RW.7, Ciracas, Kec. Ciracas, Kota Jakarta Timur, Daerah Khusus Ibukota Jakarta 13740","RT.11/RW.7, Ciracas, Kec. Ciracas, Kota Jakarta Timur",PAPUA BARAT,13740.0,Indonesia,85691487952.0,-6.3298773,106.8722199,https://maps.google.com/?cid=0x0:0x58e95f56f4aeb45a
toko bangunan,Toko Bahan Bangunan,Toko Bangunan Abun,"V8J9+MXF, Jl. Terong Kampus No.28, Yosorejo, Kec. Metro Tim., Kota Metro, Lampung 34124","Jl. Terong Kampus No.28, Yosorejo, Kec. Metro Tim., Kota Metro",PAPUA BARAT,34124.0,Indonesia,82377433361.0,-5.1183304,105.3199826,https://maps.google.com/?cid=0x0:0xd408958c670a3c7c
toko bangunan,Toko Bahan Bangunan,"Papua Bangunan, CV PAPUA ABADI","Jl. Basuki Rahmat No.780, Klawuyuk, Distrik Sorong Timur, Kota Sorong, Papua Bar. 98416","Klawuyuk, Distrik Sorong Timur, Kota Sorong",PAPUA BARAT,98416.0,Indonesia,81332017550.0,-0.8954087,131.3186922,https://maps.google.com/?cid=0x0:0x851804bc3aa7f033
toko bangunan,Toko Bahan Bangunan,Toko Bangunan Abadi,"4862+H2G, Malaingkedi, Kec. Sorong Utara, Kota Sorong, Papua Bar. 98412","Malaingkedi, Kec. Sorong Utara, Kota Sorong",PAPUA BARAT,98412.0,Indonesia,81248762864.0,-0.8885625,131.3000781,https://maps.google.com/?cid=0x0:0xa4c5e3d6e0f0bf2b
toko bangunan,Toko Cat,Toko Bangunan Abid Sejahtera - Waisai,"Jl. Jend. Sudirman No.30, Waisai, Distrik Kota Waisai, Kabupaten Raja Ampat, Papua Bar. 98482","Waisai, Distrik Kota Waisai, Kabupaten Raja Ampat",PAPUA BARAT,98482.0,Indonesia,82248014806.0,-0.4206038,130.8216501,https://maps.google.com/?cid=0x0:0x635cf5cb88ebe389
toko bangunan,toko bangunan,Papua Bar. 98372,"Kabupaten Manokwari, Papua Bar.","Kabupaten Manokwari, Papua Bar.",PAPUA BARAT,,Indonesia,,-0.9989582,133.0194897,https://maps.google.com/?cid=0x0:0xd3aecb81246ce306
toko bangunan,Toko Bahan Bangunan,ANEKA BANGUNAN,"Wosi, Kec. Manokwari Bar., Kabupaten Manokwari, Papua Bar. 98312","Kec. Manokwari Bar., Kabupaten Manokwari",PAPUA BARAT,98312.0,Indonesia,81344843001.0,-0.8631883,134.0498559,https://maps.google.com/?cid=0x0:0x3598159af16f30ea
toko bangunan,Pemasok Bahan Bangunan,Toko bangunan Sumber Makmur,"32CM+75G, Jl. Manokwari - Maruni, Anday, Distrik Manokwari, Kabupaten Manokwari, Papua Bar. 98315","Jl. Manokwari - Maruni, Anday, Distrik Manokwari, Kabupaten Manokwari",PAPUA BARAT,98315.0,Indonesia,8114846060.0,-0.9293075,134.0329487,https://maps.google.com/?cid=0x0:0xa0a85c7270dde255
toko bangunan,Toko Bahan Bangunan,Fajar Bangunan,"Sowi, Distrik Manokwari, Kabupaten Manokwari, Papua Bar. 98315","Distrik Manokwari, Kabupaten Manokwari",PAPUA BARAT,98315.0,Indonesia,,-0.9062643,134.0359839,https://maps.google.com/?cid=0x0:0x9d0563299ba4e3f6
toko bangunan,Toko Bahan Bangunan,PAPUA BANGUNAN,"42GX+945, Wosi, Kec. Manokwari Bar., Kabupaten Manokwari, Papua Bar. 98312","Wosi, Kec. Manokwari Bar., Kabupaten Manokwari",PAPUA BARAT,98312.0,Indonesia,82198055550.0,-0.874101,134.0478473,https://maps.google.com/?cid=0x0:0x2c3683b193d9430f
toko bangunan,Pemasok Bahan Bangunan,Depo Makmur Manokwari,"43P2+QWR, Jl. Trikora Wosi, Wosi, Kec. Manokwari Bar., Kabupaten Manokwari, Papua Bar. 98312","Jl. Trikora Wosi, Wosi, Kec. Manokwari Bar., Kabupaten Manokwari",PAPUA BARAT,98312.0,Indonesia,81248426402.0,-0.8630402,134.0521741,https://maps.google.com/?cid=0x0:0x387befda163fc63b
toko bangunan,Toko Perlengkapan Rumah,Toko Jarwal Bangunan,"Kamoro Jaya, Kec. Mimika Baru, Kabupaten Mimika, Papua 99971","Kec. Mimika Baru, Kabupaten Mimika",PAPUA BARAT,99971.0,Indonesia,,-4.5656564,136.8718615,https://maps.google.com/?cid=0x0:0x6cdc385accf4a8b
toko bangunan,Toko Bahan Bangunan,Toko Bangunan Mutiara timur,"CJ3R+33F, Unnamed Road, Kp. Waena, Kec. Heram, Kota Jayapura, Papua 99225","Unnamed Road, Kp. Waena, Kec. Heram, Kota Jayapura",PAPUA BARAT,99225.0,Indonesia,,-2.5973134,140.6401625,https://maps.google.com/?cid=0x0:0x392e56b1342d758c
toko bangunan,Toko Bahan Bangunan,"TOKO BANGUNAN , TOKO HARA II","Jl. Kakatua No.1, Klamasen, Distrik Mariat, Kabupaten Sorong, Papua Bar. 98416","Klamasen, Distrik Mariat, Kabupaten Sorong",PAPUA BARAT,98416.0,Indonesia,81259105399.0,-0.9953545,131.3468536,https://maps.google.com/?cid=0x0:0x51bb1160638e98ed
toko bangunan,Toko Bahan Bangunan,Toko Bangunan Alva Center,"3299+WR4, Anday, Distrik Manokwari, Kabupaten Manokwari, Papua Bar. 98315","Anday, Distrik Manokwari, Kabupaten Manokwari",PAPUA BARAT,98315.0,Indonesia,82248894866.0,-0.9302448,134.0195768,https://maps.google.com/?cid=0x0:0xb10f5dd5b0339319
toko bangunan,Toko Bahan Bangunan,Supermarket Multi Bangunan,"Jl Baru No.98, Wai Mhorock, Abepura, Jayapura City, Papua 99225","Wai Mhorock, Abepura, Jayapura City",PAPUA BARAT,99225.0,Indonesia,967588677.0,-2.6077336,140.6742812,https://maps.google.com/?cid=0x0:0x3b19f301c68f1d6f
toko bangunan,Toko Bahan Bangunan,Toko AKBAR bangunan,"2W63+2XM, Dawaikunu, Distrik Mapia, Kabupaten Dogiyai, Papua","Kabupaten Dogiyai, Papua",PAPUA BARAT,,Indonesia,8161999912.0,-3.989908,135.904907,https://maps.google.com/?cid=0x0:0x54762d941a6ba240
toko bangunan,Toko Bahan Bangunan,Toko Bangunan,"Jl. Gn. Salju No.70, Amban, Kec. Manokwari Bar., Kabupaten Manokwari, Papua Bar. 98314","Amban, Kec. Manokwari Bar., Kabupaten Manokwari",PAPUA BARAT,98314.0,Indonesia,,-0.8378489,134.0648609,https://maps.google.com/?cid=0x0:0x39e90745f521cce
toko bangunan,toko bangunan,Toko Mitra Bangunan,"8F8G+WJ5, Karubaga, Kec. Karubaga, Kabupaten Tolikara, Papua 99567","Karubaga, Kec. Karubaga, Kabupaten Tolikara",PAPUA BARAT,99567.0,Indonesia,81317225643.0,-3.682733,138.4766089,https://maps.google.com/?cid=0x0:0x94f019f9132886e9
toko bangunan,Toko,Toko Fratafen Jaya Bangunan,"Jl. Fratafen, Fiane, Kec. Ayamaru, Kabupaten Maybrat, Papua Bar.","Kabupaten Maybrat, Papua Bar.",PAPUA BARAT,,Indonesia,81344891455.0,-1.2930171,132.2477662,https://maps.google.com/?cid=0x0:0x637ec3d664ebdaa3
toko bangunan,Toko,Toko FITAFEN JAYA,"P668+JWJ, Jl. Fratafen, Kampung Isme, Fiane, Distrik Ayamaru Tengah, Kabupaten Maybrat, Papua Bar.","Kabupaten Maybrat, Papua Bar.",PAPUA BARAT,,Indonesia,82129111112.0,-1.2884148,132.2172648,https://maps.google.com/?cid=0x0:0x9803b7caed3f9da8
toko bangunan,toko bangunan,Distrik Fef,"Kabupaten Tambrauw, Papua Bar.","Kabupaten Tambrauw, Papua Bar.",PAPUA BARAT,,Indonesia,,-0.7798216,132.3665985,https://maps.google.com/?cid=0x0:0x99889d8cffaa571e
toko bangunan,toko bangunan,Distrik Kwoor,"Kabupaten Tambrauw, Papua Bar.","Kabupaten Tambrauw, Papua Bar.",PAPUA BARAT,,Indonesia,,-0.4621685,132.2908119,https://maps.google.com/?cid=0x0:0xc9babc4648539c74
toko bangunan,Toko Bahan Bangunan,"Papua Bangunan, CV PAPUA ABADI","Jl. Basuki Rahmat No.780, Klawuyuk, Distrik Sorong Timur, Kota Sorong, Papua Bar. 98416","Klawuyuk, Distrik Sorong Timur, Kota Sorong",PAPUA BARAT,98416.0,Indonesia,81332017550.0,-0.8954087,131.3186922,https://maps.google.com/?cid=0x0:0x851804bc3aa7f033
toko bangunan,toko bangunan,Kios Akbar,"F3XM+7XM, Emaos, Distrik Sausapor, Kabupaten Tambrauw, Papua Bar. 98473","Emaos, Distrik Sausapor, Kabupaten Tambrauw",PAPUA BARAT,98473.0,Indonesia,,-0.5019154,132.0840385,https://maps.google.com/?cid=0x0:0x26d282873f715385
toko bangunan,Toko Cat,Toko Bangunan Abid Sejahtera - Waisai,"Jl. Jend. Sudirman No.30, Waisai, Distrik Kota Waisai, Kabupaten Raja Ampat, Papua Bar. 98482","Waisai, Distrik Kota Waisai, Kabupaten Raja Ampat",PAPUA BARAT,98482.0,Indonesia,82248014806.0,-0.4206038,130.8216501,https://maps.google.com/?cid=0x0:0x635cf5cb88ebe389
toko bangunan,Toko Bahan Bangunan,ANEKA BANGUNAN,"Wosi, Kec. Manokwari Bar., Kabupaten Manokwari, Papua Bar. 98312","Kec. Manokwari Bar., Kabupaten Manokwari",PAPUA BARAT,98312.0,Indonesia,81344843001.0,-0.8631883,134.0498559,https://maps.google.com/?cid=0x0:0x3598159af16f30ea
toko bangunan,Toko Bahan Bangunan,PAPUA BANGUNAN,"42GX+945, Wosi, Kec. Manokwari Bar., Kabupaten Manokwari, Papua Bar. 98312","Wosi, Kec. Manokwari Bar., Kabupaten Manokwari",PAPUA BARAT,98312.0,Indonesia,82198055550.0,-0.874101,134.0478473,https://maps.google.com/?cid=0x0:0x2c3683b193d9430f
toko bangunan,Toko Bahan Bangunan,Depo Bangunan Mbanyu Mili,"3VQM+2GP depan balai kampung sp 2, Prafi Mulia, Distrik Prafi, Kabupaten Manokwari, Papua Bar. 98356","Prafi Mulia, Distrik Prafi, Kabupaten Manokwari",PAPUA BARAT,98356.0,Indonesia,85254126242.0,-0.9124191,133.8838245,https://maps.google.com/?cid=0x0:0x72bb281db456c91a
toko bangunan,Toko Bahan Bangunan,Toko Bangunan MAISYAH BERKAH,"Sukamaju, Kec. Mangunjaya, Kabupaten Ciamis, Jawa Barat 46371","Kec. Mangunjaya, Kabupaten Ciamis",PAPUA BARAT,46371.0,Indonesia,81221654345.0,-7.5087808,108.6954249,https://maps.google.com/?cid=0x0:0xb61562f4bf33b80
toko bangunan,Toko Bahan Bangunan,AdiBhakti Matrial,"Sukamaju, Kec. Mangunjaya, Kabupaten Ciamis, Jawa Barat 46371","Kec. Mangunjaya, Kabupaten Ciamis",PAPUA BARAT,46371.0,Indonesia,,-7.4919483,108.6976616,https://maps.google.com/?cid=0x0:0xa2a92703bcf0d048
toko bangunan,toko bangunan,Moraid,"Kabupaten Sorong, Papua Bar.","Kabupaten Sorong, Papua Bar.",PAPUA BARAT,,Indonesia,,-0.6590992,131.9791516,https://maps.google.com/?cid=0x0:0x754b158cc336f2d9
toko bangunan,Toko Bahan Bangunan,"Papua Bangunan, CV PAPUA ABADI","Jl. Basuki Rahmat No.780, Klawuyuk, Distrik Sorong Timur, Kota Sorong, Papua Bar. 98416","Klawuyuk, Distrik Sorong Timur, Kota Sorong",PAPUA BARAT,98416.0,Indonesia,81332017550.0,-0.8954087,131.3186922,https://maps.google.com/?cid=0x0:0x851804bc3aa7f033
toko bangunan,Toko Bahan Bangunan,Toko Bangunan Abadi,"4862+H2G, Malaingkedi, Kec. Sorong Utara, Kota Sorong, Papua Bar. 98412","Malaingkedi, Kec. Sorong Utara, Kota Sorong",PAPUA BARAT,98412.0,Indonesia,81248762864.0,-0.8885625,131.3000781,https://maps.google.com/?cid=0x0:0xa4c5e3d6e0f0bf2b
toko bangunan,Toko Bahan Bangunan,"TOKO BANGUNAN , TOKO HARA II","Jl. Kakatua No.1, Klamasen, Distrik Mariat, Kabupaten Sorong, Papua Bar. 98416","Klamasen, Distrik Mariat, Kabupaten Sorong",PAPUA BARAT,98416.0,Indonesia,81259105399.0,-0.9953545,131.3468536,https://maps.google.com/?cid=0x0:0x51bb1160638e98ed
toko bangunan,Toko Bahan Bangunan,Toko Bangunan AURORA ABADI Distributor Lampu LED VDR,"Jl. Tuturuga, Klamalu, Distrik Mariat, Kabupaten Sorong, Papua Bar. 98416","Klamalu, Distrik Mariat, Kabupaten Sorong",PAPUA BARAT,98416.0,Indonesia,82239496309.0,-1.0002603,131.3432543,https://maps.google.com/?cid=0x0:0x8d8d01a10734bfdc
toko bangunan,Toko Bahan Bangunan,Toko Bangunan Depo Makmur,"38XF+C65, Jl. Basuki Rahmat, Klawuyuk, Distrik Sorong Timur, Kota Sorong, Papua Bar. 98416","Jl. Basuki Rahmat, Klawuyuk, Distrik Sorong Timur, Kota Sorong",PAPUA BARAT,98416.0,Indonesia,,-0.9013289,131.3229895,https://maps.google.com/?cid=0x0:0x371e6c734b67edcc
toko bangunan,Toko Cat,Toko Bangunan Abid Sejahtera - Waisai,"Jl. Jend. Sudirman No.30, Waisai, Distrik Kota Waisai, Kabupaten Raja Ampat, Papua Bar. 98482","Waisai, Distrik Kota Waisai, Kabupaten Raja Ampat",PAPUA BARAT,98482.0,Indonesia,82248014806.0,-0.4206038,130.8216501,https://maps.google.com/?cid=0x0:0x635cf5cb88ebe389
toko bangunan,Toko Bahan Bangunan,Toko Bangunan Mutiara timur,"CJ3R+33F, Unnamed Road, Kp. Waena, Kec. Heram, Kota Jayapura, Papua 99225","Unnamed Road, Kp. Waena, Kec. Heram, Kota Jayapura",PAPUA BARAT,99225.0,Indonesia,,-2.5973134,140.6401625,https://maps.google.com/?cid=0x0:0x392e56b1342d758c
toko bangunan,Toko Bahan Bangunan,Toko Central Bangunan / AMK,"Jl. Perikanan No.08, Hamadi, Distrik Jayapura Selatan, Kota Jayapura, Papua 99222","Hamadi, Distrik Jayapura Selatan, Kota Jayapura",PAPUA BARAT,99222.0,Indonesia,82261057928.0,-2.5584767,140.7173289,https://maps.google.com/?cid=0x0:0xcfdf592c00fbd20d
toko bangunan,toko bangunan,Mubrani,"Warsnembri, Mubarni / Arfu, Kabupaten Manokwari, Papua Bar.","Kabupaten Manokwari, Papua Bar.",PAPUA BARAT,,Indonesia,,-0.743739,133.489594,https://maps.google.com/?cid=0x0:0xd4bd1e9b5b037656
toko bangunan,Toko Bahan Bangunan,ANEKA BANGUNAN,"Wosi, Kec. Manokwari Bar., Kabupaten Manokwari, Papua Bar. 98312","Kec. Manokwari Bar., Kabupaten Manokwari",PAPUA BARAT,98312.0,Indonesia,81344843001.0,-0.8631883,134.0498559,https://maps.google.com/?cid=0x0:0x3598159af16f30ea
toko bangunan,Toko Bahan Bangunan,Fajar Bangunan,"Sowi, Distrik Manokwari, Kabupaten Manokwari, Papua Bar. 98315","Distrik Manokwari, Kabupaten Manokwari",PAPUA BARAT,98315.0,Indonesia,,-0.9062643,134.0359839,https://maps.google.com/?cid=0x0:0x9d0563299ba4e3f6
toko bangunan,Toko Bahan Bangunan,PAPUA BANGUNAN,"42GX+945, Wosi, Kec. Manokwari Bar., Kabupaten Manokwari, Papua Bar. 98312","Wosi, Kec. Manokwari Bar., Kabupaten Manokwari",PAPUA BARAT,98312.0,Indonesia,82198055550.0,-0.874101,134.0478473,https://maps.google.com/?cid=0x0:0x2c3683b193d9430f
toko bangunan,Toko Bahan Bangunan,Toko Bangunan,"Jl. Trikora Taman Ria No.4, Sowi, Distrik Manokwari, Kabupaten Manokwari, Papua Bar. 98315","Sowi, Distrik Manokwari, Kabupaten Manokwari",PAPUA BARAT,98315.0,Indonesia,,-0.906996,134.035784,https://maps.google.com/?cid=0x0:0xe97020a60705142f
toko bangunan,Toko Bahan Bangunan,TB. Mulia Jaya,"Jl. Aria Putra ( Jombang Raya ) No.3, Pd. Pucung, Kec. Pd. Aren, Kota Tangerang Selatan, Banten 15227","Pd. Pucung, Kec. Pd. Aren, Kota Tangerang Selatan",PAPUA BARAT,15227.0,Indonesia,81310435062.0,-6.2869936,106.7030049,https://maps.google.com/?cid=0x0:0x59679d416de2b1a0
toko bangunan,Toko Bahan Bangunan,Toko Tunas Makmur,"Jl. Sholeh Iskandar, RT.05/RW.13, Kedungbadak, Kec. Tanah Sereal, Kota Bogor, Jawa Barat 16164","RT.05/RW.13, Kedungbadak, Kec. Tanah Sereal, Kota Bogor",PAPUA BARAT,16164.0,Indonesia,87770212804.0,-6.5608038,106.8043715,https://maps.google.com/?cid=0x0:0xd981f78ffc8a108e
toko bangunan,toko bangunan,Distrik Sausapor,"Kabupaten Tambrauw, Papua Bar.","Kabupaten Tambrauw, Papua Bar.",PAPUA BARAT,,Indonesia,,-0.496052,132.0874738,https://maps.google.com/?cid=0x0:0x22b76922b3bd09b1
toko bangunan,Toko,toko TRIA sausapor,"Jln .poros warfaknik, werur, Distrik Sausapor, Kabupaten Tambrauw, Papua Bar.","Kabupaten Tambrauw, Papua Bar.",PAPUA BARAT,,Indonesia,81343383345.0,-0.4971154,132.0865368,https://maps.google.com/?cid=0x0:0xb1ffdb2bf1c868d8
toko bangunan,Toko,Toko TRIA 2 SAUSAPOR,"Jln.warfaknik ,kampung emaus, Emaos, Distrik Sausapor, Kabupaten Tambrauw, Papua Bar. 98473","Emaos, Distrik Sausapor, Kabupaten Tambrauw",PAPUA BARAT,98473.0,Indonesia,81343383345.0,-0.4935991,132.0891444,https://maps.google.com/?cid=0x0:0x457417ac228bb544
toko bangunan,toko bangunan,Papua Bar. 98372,"Kabupaten Manokwari, Papua Bar.","Kabupaten Manokwari, Papua Bar.",PAPUA BARAT,,Indonesia,,-0.9989582,133.0194897,https://maps.google.com/?cid=0x0:0xd3aecb81246ce306
toko bangunan,Toko Bahan Bangunan,"Papua Bangunan, CV PAPUA ABADI","Jl. Basuki Rahmat No.780, Klawuyuk, Distrik Sorong Timur, Kota Sorong, Papua Bar. 98416","Klawuyuk, Distrik Sorong Timur, Kota Sorong",PAPUA BARAT,98416.0,Indonesia,81332017550.0,-0.8954087,131.3186922,https://maps.google.com/?cid=0x0:0x851804bc3aa7f033
toko bangunan,Toko Bahan Bangunan,toko bangunan Yep'Mum,"4Q38+6C4, Jl. Garuda, Arso Kota, Kec. Arso, Kabupaten Keerom, Papua 99468","Jl. Garuda, Arso Kota, Kec. Arso, Kabupaten Keerom",PAPUA BARAT,99468.0,Indonesia,85244664394.0,-2.8970308,140.7661616,https://maps.google.com/?cid=0x0:0x9649c22840d7e67e
toko bangunan,Toko Cat,Toko Bangunan Abid Sejahtera - Waisai,"Jl. Jend. Sudirman No.30, Waisai, Distrik Kota Waisai, Kabupaten Raja Ampat, Papua Bar. 98482","Waisai, Distrik Kota Waisai, Kabupaten Raja Ampat",PAPUA BARAT,98482.0,Indonesia,82248014806.0,-0.4206038,130.8216501,https://maps.google.com/?cid=0x0:0x635cf5cb88ebe389
toko bangunan,Toko Bahan Bangunan,Toko Bangunan Mutiara timur,"CJ3R+33F, Unnamed Road, Kp. Waena, Kec. Heram, Kota Jayapura, Papua 99225","Unnamed Road, Kp. Waena, Kec. Heram, Kota Jayapura",PAPUA BARAT,99225.0,Indonesia,,-2.5973134,140.6401625,https://maps.google.com/?cid=0x0:0x392e56b1342d758c
toko bangunan,Toko Bahan Bangunan,Supermarket Multi Bangunan,"Jl Baru No.98, Wai Mhorock, Abepura, Jayapura City, Papua 99225","Wai Mhorock, Abepura, Jayapura City",PAPUA BARAT,99225.0,Indonesia,967588677.0,-2.6077336,140.6742812,https://maps.google.com/?cid=0x0:0x3b19f301c68f1d6f
toko bangunan,Toko Perlengkapan Rumah,Toko Jarwal Bangunan,"Kamoro Jaya, Kec. Mimika Baru, Kabupaten Mimika, Papua 99971","Kec. Mimika Baru, Kabupaten Mimika",PAPUA BARAT,99971.0,Indonesia,,-4.5656564,136.8718615,https://maps.google.com/?cid=0x0:0x6cdc385accf4a8b
toko bangunan,Toko Bahan Bangunan,Toko Arso Bangunan,"Jl. Garuda No.17, D, Yuwanain, Kec. Arso, Kabupaten Keerom, Papua 99468","D, Yuwanain, Kec. Arso, Kabupaten Keerom",PAPUA BARAT,99468.0,Indonesia,82199906967.0,-2.9009028,140.7566149,https://maps.google.com/?cid=0x0:0xd6c7fd0a6c50c3ab
toko bangunan,Toko Bahan Bangunan,Toko bangunan abadi 2,"HRGF+HG5, Waisai, Kec. Waigeo Sel., Kabupaten Raja Ampat, Papua Bar. 98482","Waisai, Kec. Waigeo Sel., Kabupaten Raja Ampat",PAPUA BARAT,98482.0,Indonesia,82175242539.0,-0.4236212,130.8238502,https://maps.google.com/?cid=0x0:0xb39b3321d3629975
toko bangunan,Toko,TOKOH SUMBER TANI,"7GP4+34J, Moru, Distrik Wasior, Kabupaten Teluk Wondama, Papua Bar.","Kabupaten Teluk Wondama, Papua Bar.",PAPUA BARAT,,Indonesia,81344779976.0,-2.7147763,134.5052515,https://maps.google.com/?cid=0x0:0x24c2be28a4b72714
toko bangunan,toko bangunan,Toko Mitra Bangunan,"8F8G+WJ5, Karubaga, Kec. Karubaga, Kabupaten Tolikara, Papua 99567","Karubaga, Kec. Karubaga, Kabupaten Tolikara",PAPUA BARAT,99567.0,Indonesia,81317225643.0,-3.682733,138.4766089,https://maps.google.com/?cid=0x0:0x94f019f9132886e9
toko bangunan,Toko Bahan Bangunan,TOKO BAHAN BANGUNAN âTRINITY HOMEâ,"Jalan Baru Pasar Lama, Wahno, Kec. Abepura, Kota Jayapura, Papua 99224","Wahno, Kec. Abepura, Kota Jayapura",PAPUA BARAT,99224.0,Indonesia,81232337934.0,-2.5958248,140.6809957,https://maps.google.com/?cid=0x0:0x41c321d86b054228
toko bangunan,Toko Bahan Bangunan,Toko Idaman,"387C+43P, Dana Weria, Distrik Fakfak Tengah, Kabupaten Fakfak, Papua Bar. 98611","Dana Weria, Distrik Fakfak Tengah, Kabupaten Fakfak",PAPUA BARAT,98611.0,Indonesia,81233333193.0,-2.9371717,132.3201884,https://maps.google.com/?cid=0x0:0xb250f5bbd07b5204
toko bangunan,Toko Swalayan,Toko Depo Bangunan,"379V+Q4W, Fak Fak Selatan, Distrik Fakfak, Kabupaten Fakfak, Papua Bar. 98611","Fak Fak Selatan, Distrik Fakfak, Kabupaten Fakfak",PAPUA BARAT,98611.0,Indonesia,81332930235.0,-2.9305033,132.292834,https://maps.google.com/?cid=0x0:0x8845a3bfe8af225c
toko bangunan,Toko Bahan Bangunan,PAPUA BANGUNAN,"42GX+945, Wosi, Kec. Manokwari Bar., Kabupaten Manokwari, Papua Bar. 98312","Wosi, Kec. Manokwari Bar., Kabupaten Manokwari",PAPUA BARAT,98312.0,Indonesia,82198055550.0,-0.874101,134.0478473,https://maps.google.com/?cid=0x0:0x2c3683b193d9430f
toko bangunan,Toko Bahan Bangunan,ANEKA BANGUNAN,"Wosi, Kec. Manokwari Bar., Kabupaten Manokwari, Papua Bar. 98312","Kec. Manokwari Bar., Kabupaten Manokwari",PAPUA BARAT,98312.0,Indonesia,81344843001.0,-0.8631883,134.0498559,https://maps.google.com/?cid=0x0:0x3598159af16f30ea
toko bangunan,Toko Bahan Bangunan,Toko Bangunan Sumbang Surung,"Jl. Ploso Baru No.52, Pacar Kembang, Kec. Tambaksari, Surabaya, Jawa Timur 60132","Pacar Kembang, Kec. Tambaksari, Surabaya",PAPUA BARAT,60132.0,Indonesia,,-7.2582653,112.7727533,https://maps.google.com/?cid=0x0:0x549e098efefa91f5
toko bangunan,Toko Cat,Toko Bangunan Abid Sejahtera - Waisai,"Jl. Jend. Sudirman No.30, Waisai, Distrik Kota Waisai, Kabupaten Raja Ampat, Papua Bar. 98482","Waisai, Distrik Kota Waisai, Kabupaten Raja Ampat",PAPUA BARAT,98482.0,Indonesia,82248014806.0,-0.4206038,130.8216501,https://maps.google.com/?cid=0x0:0x635cf5cb88ebe389
toko bangunan,Toko Bahan Bangunan,Toko bangunan abadi 2,"HRGF+HG5, Waisai, Kec. Waigeo Sel., Kabupaten Raja Ampat, Papua Bar. 98482","Waisai, Kec. Waigeo Sel., Kabupaten Raja Ampat",PAPUA BARAT,98482.0,Indonesia,82175242539.0,-0.4236212,130.8238502,https://maps.google.com/?cid=0x0:0xb39b3321d3629975
toko bangunan,Pemasok Bahan Bangunan,Toko bangunan Sumber Makmur,"32CM+75G, Jl. Manokwari - Maruni, Anday, Distrik Manokwari, Kabupaten Manokwari, Papua Bar. 98315","Jl. Manokwari - Maruni, Anday, Distrik Manokwari, Kabupaten Manokwari",PAPUA BARAT,98315.0,Indonesia,8114846060.0,-0.9293075,134.0329487,https://maps.google.com/?cid=0x0:0xa0a85c7270dde255
toko bangunan,toko bangunan,Kec. Yembun,"Kabupaten Tambrauw, Papua Bar.","Kabupaten Tambrauw, Papua Bar.",PAPUA BARAT,,Indonesia,,-0.7808355,132.1189376,https://maps.google.com/?cid=0x0:0xc5562a9e3b0d5fb4
building materials,building materials,Abun,"Kabupaten Tambrauw, Papua Bar.","Kabupaten Tambrauw, Papua Bar.",PAPUA BARAT,,Indonesia,,-0.4695379,132.7466993,https://maps.google.com/?cid=0x0:0x6bbce6bcca6e4a28
building materials,Toko Bahan Bangunan,"Papua Bangunan, CV PAPUA ABADI","Jl. Basuki Rahmat No.780, Klawuyuk, Distrik Sorong Timur, Kota Sorong, Papua Bar. 98416","Klawuyuk, Distrik Sorong Timur, Kota Sorong",PAPUA BARAT,98416.0,Indonesia,81332017550.0,-0.8954087,131.3186922,https://maps.google.com/?cid=0x0:0x851804bc3aa7f033
building materials,Kontraktor Penebangan Kayu,TOKO CAHAYA BONE AGATS,"Jl. Dermaga Baru, Bis Agats, Distrik Agats, Kabupaten Asmat, Papua 99777","Bis Agats, Distrik Agats, Kabupaten Asmat",PAPUA BARAT,99777.0,Indonesia,,-5.5261749,138.139991,https://maps.google.com/?cid=0x0:0xdcf195d2090d9d79
building materials,Kantor Perusahaan,PT. BUMI PAPUA SEVENINDO,"Jl. Mesjid Raya, Remu Utara, HBM, Kota Sorong, Papua Bar. 98416","Remu Utara, HBM, Kota Sorong",PAPUA BARAT,98416.0,Indonesia,82198126653.0,-0.8807928,131.2828486,https://maps.google.com/?cid=0x0:0xbe773b0ac3ca8612
building materials,Toko Bahan Bangunan,Toko Bangunan Abadi,"4862+H2G, Malaingkedi, Kec. Sorong Utara, Kota Sorong, Papua Bar. 98412","Malaingkedi, Kec. Sorong Utara, Kota Sorong",PAPUA BARAT,98412.0,Indonesia,81248762864.0,-0.8885625,131.3000781,https://maps.google.com/?cid=0x0:0xa4c5e3d6e0f0bf2b
building materials,Gudang Peralatan,FAJAR GUNA MARMER,"Gg. H.Sabar No.18, RT.001/RW.002, Kenanga, Kec. Cipondoh, Kota Tangerang, Banten 15146","RT.001/RW.002, Kenanga, Kec. Cipondoh, Kota Tangerang",PAPUA BARAT,15146.0,Indonesia,82260215854.0,-6.1967537,106.6805838,https://maps.google.com/?cid=0x0:0x6f202368a6079d5a
building materials,building materials,Toko Bangunan H. Abun,"M22V+65F, Jl. Cikoromoy, Batubantar, Kec. Cimanuk, Kabupaten Pandeglang, Banten 42271","Jl. Cikoromoy, Batubantar, Kec. Cimanuk, Kabupaten Pandeglang",PAPUA BARAT,42271.0,Indonesia,,-6.3494354,106.042919,https://maps.google.com/?cid=0x0:0x41fe6c9e094d7b0b
building materials,building materials,Papua Bar. 98371,Papua Bar.,Papua Bar.,PAPUA BARAT,,Indonesia,,-0.6071799,132.941698,https://maps.google.com/?cid=0x0:0xccfddd95cd14e2b2
building materials,Toko Bahan Bangunan,"Papua Bangunan, CV PAPUA ABADI","Jl. Basuki Rahmat No.780, Klawuyuk, Distrik Sorong Timur, Kota Sorong, Papua Bar. 98416","Klawuyuk, Distrik Sorong Timur, Kota Sorong",PAPUA BARAT,98416.0,Indonesia,81332017550.0,-0.8954087,131.3186922,https://maps.google.com/?cid=0x0:0x851804bc3aa7f033
building materials,Kantor Perusahaan,PT. BUMI PAPUA SEVENINDO,"Jl. Mesjid Raya, Remu Utara, HBM, Kota Sorong, Papua Bar. 98416","Remu Utara, HBM, Kota Sorong",PAPUA BARAT,98416.0,Indonesia,82198126653.0,-0.8807928,131.2828486,https://maps.google.com/?cid=0x0:0xbe773b0ac3ca8612
building materials,building materials,Papua Bar. 98372,"Kabupaten Manokwari, Papua Bar.","Kabupaten Manokwari, Papua Bar.",PAPUA BARAT,,Indonesia,,-0.9989582,133.0194897,https://maps.google.com/?cid=0x0:0xd3aecb81246ce306
building materials,building materials,PT.BINTUNI AGRO PRIMA PERKASA,"46W2+9HQ, Kebari Timur, Kebar, Kabupaten Manokwari, Papua Bar. 98372","Kebari Timur, Kebar, Kabupaten Manokwari",PAPUA BARAT,98372.0,Indonesia,,-0.8540301,133.2014749,https://maps.google.com/?cid=0x0:0x1a49554db35f652
building materials,Toko Bahan Bangunan,"AMP Banyuwangi. Jual Bata Ringan, Semen Mortar dan Panel Lantai",,,PAPUA BARAT,,Indonesia,81358663710.0,-4.9633314,121.065155,https://maps.google.com/?cid=0x0:0x5f9beea48028d51c
building materials,Toko Bahan Bangunan,Depo Bangunan Mbanyu Mili,"3VQM+2GP depan balai kampung sp 2, Prafi Mulia, Distrik Prafi, Kabupaten Manokwari, Papua Bar. 98356","Prafi Mulia, Distrik Prafi, Kabupaten Manokwari",PAPUA BARAT,98356.0,Indonesia,85254126242.0,-0.9124191,133.8838245,https://maps.google.com/?cid=0x0:0x72bb281db456c91a
building materials,building materials,Distrik Fef,"Kabupaten Tambrauw, Papua Bar.","Kabupaten Tambrauw, Papua Bar.",PAPUA BARAT,,Indonesia,,-0.7798216,132.3665985,https://maps.google.com/?cid=0x0:0x99889d8cffaa571e
building materials,Toko Kayu,"TPK , FERDINAND ALAM PAPUA","282V+3F4, Jl. Rajawali, Klamalu, Aimas, Sorong Regency, West Papua 98416","Jl. Rajawali, Klamalu, Aimas, Sorong Regency",PAPUA BARAT,98416.0,Indonesia,,-0.999856,131.3436981,https://maps.google.com/?cid=0x0:0xedf6d8b0e1c9f9f2
building materials,Toko Bahan Bangunan,Depo Bangunan Mbanyu Mili,"3VQM+2GP depan balai kampung sp 2, Prafi Mulia, Distrik Prafi, Kabupaten Manokwari, Papua Bar. 98356","Prafi Mulia, Distrik Prafi, Kabupaten Manokwari",PAPUA BARAT,98356.0,Indonesia,85254126242.0,-0.9124191,133.8838245,https://maps.google.com/?cid=0x0:0x72bb281db456c91a
building materials,building materials,Distrik Kwoor,"Kabupaten Tambrauw, Papua Bar.","Kabupaten Tambrauw, Papua Bar.",PAPUA BARAT,,Indonesia,,-0.4621685,132.2908119,https://maps.google.com/?cid=0x0:0xc9babc4648539c74
building materials,building materials,Miyah,"Kabupaten Tambrauw, Papua Bar.","Kabupaten Tambrauw, Papua Bar.",PAPUA BARAT,,Indonesia,,-0.7502666,132.6684924,https://maps.google.com/?cid=0x0:0x714bb316eb3dbe5c
building materials,Toko Bahan Bangunan,Depo Bangunan Mbanyu Mili,"3VQM+2GP depan balai kampung sp 2, Prafi Mulia, Distrik Prafi, Kabupaten Manokwari, Papua Bar. 98356","Prafi Mulia, Distrik Prafi, Kabupaten Manokwari",PAPUA BARAT,98356.0,Indonesia,85254126242.0,-0.9124191,133.8838245,https://maps.google.com/?cid=0x0:0x72bb281db456c91a
building materials,Toko Bahan Bangunan,PAPUA BANGUNAN,"42GX+945, Wosi, Kec. Manokwari Bar., Kabupaten Manokwari, Papua Bar. 98312","Wosi, Kec. Manokwari Bar., Kabupaten Manokwari",PAPUA BARAT,98312.0,Indonesia,82198055550.0,-0.874101,134.0478473,https://maps.google.com/?cid=0x0:0x2c3683b193d9430f
building materials,Toko Bahan Bangunan,Royal Bangunan (PT. Papua Jaya Bangunan),"43P8+87R, Jl. Percetakan Negara, Sanggeng, Kec. Manokwari Bar., Kabupaten Manokwari, Papua Bar. 98312","Jl. Percetakan Negara, Sanggeng, Kec. Manokwari Bar., Kabupaten Manokwari",PAPUA BARAT,98312.0,Indonesia,87784554955.0,-0.8641385,134.0656252,https://maps.google.com/?cid=0x0:0x99b3b4ac0bad58a
building materials,Toko Bahan Bangunan,NASYA BANGUNAN,"X8M9+469, Jl. Nusa Indah, Mariyai, Distrik Mariat, Kabupaten Sorong, Papua Bar. 98415","Jl. Nusa Indah, Mariyai, Distrik Mariat, Kabupaten Sorong",PAPUA BARAT,98415.0,Indonesia,,-1.0172176,131.3181156,https://maps.google.com/?cid=0x0:0x19e47aadec85996d
building materials,Toko Bahan Bangunan,PT. Bintuni Utama Murni Wood Industries,"Jl. Jend. Sudirman No.40, Padarni, Kec. Manokwari Bar., Kabupaten Manokwari, Papua Bar. 98312","Padarni, Kec. Manokwari Bar., Kabupaten Manokwari",PAPUA BARAT,98312.0,Indonesia,986211170.0,-0.8600523,134.0722125,https://maps.google.com/?cid=0x0:0xf2f8ff6d20bb8f63
building materials,building materials,Moraid,"Kabupaten Sorong, Papua Bar.","Kabupaten Sorong, Papua Bar.",PAPUA BARAT,,Indonesia,,-0.6590992,131.9791516,https://maps.google.com/?cid=0x0:0x754b158cc336f2d9
building materials,Toko Bahan Bangunan,Tiptore Building Material,"Jl. Poros Kuda Mati, Klp. Lima, Kec. Merauke, Kabupaten Merauke, Papua 99616","Klp. Lima, Kec. Merauke, Kabupaten Merauke",PAPUA BARAT,99616.0,Indonesia,82293657714.0,-8.5061763,140.4257632,https://maps.google.com/?cid=0x0:0xbf132c61e5517b30
building materials,Kantor Perusahaan,PT. BUMI PAPUA SEVENINDO,"Jl. Mesjid Raya, Remu Utara, HBM, Kota Sorong, Papua Bar. 98416","Remu Utara, HBM, Kota Sorong",PAPUA BARAT,98416.0,Indonesia,82198126653.0,-0.8807928,131.2828486,https://maps.google.com/?cid=0x0:0xbe773b0ac3ca8612
building materials,Toko Bahan Bangunan,Citiking Construction Supply,"4107 Arnaldo Hwy, General Trias, Cavite, Filipina","General Trias, Cavite, Filipina",PAPUA BARAT,,Indonesia,,14.3210181,120.9132083,https://maps.google.com/?cid=0x0:0xe9b585a3065a175b
building materials,building materials,Mubrani,"Warsnembri, Mubarni / Arfu, Kabupaten Manokwari, Papua Bar.","Kabupaten Manokwari, Papua Bar.",PAPUA BARAT,,Indonesia,,-0.743739,133.489594,https://maps.google.com/?cid=0x0:0xd4bd1e9b5b037656
building materials,Toko Bahan Bangunan,"Papua Bangunan, CV PAPUA ABADI","Jl. Basuki Rahmat No.780, Klawuyuk, Distrik Sorong Timur, Kota Sorong, Papua Bar. 98416","Klawuyuk, Distrik Sorong Timur, Kota Sorong",PAPUA BARAT,98416.0,Indonesia,81332017550.0,-0.8954087,131.3186922,https://maps.google.com/?cid=0x0:0x851804bc3aa7f033
building materials,Kantor Perusahaan,PT. BUMI PAPUA SEVENINDO,"Jl. Mesjid Raya, Remu Utara, HBM, Kota Sorong, Papua Bar. 98416","Remu Utara, HBM, Kota Sorong",PAPUA BARAT,98416.0,Indonesia,82198126653.0,-0.8807928,131.2828486,https://maps.google.com/?cid=0x0:0xbe773b0ac3ca8612
building materials,building materials,Kios Akbar,"F3XM+7XM, Emaos, Distrik Sausapor, Kabupaten Tambrauw, Papua Bar. 98473","Emaos, Distrik Sausapor, Kabupaten Tambrauw",PAPUA BARAT,98473.0,Indonesia,,-0.5019154,132.0840385,https://maps.google.com/?cid=0x0:0x26d282873f715385
building materials,building materials,Papua Bar. 98372,"Kabupaten Manokwari, Papua Bar.","Kabupaten Manokwari, Papua Bar.",PAPUA BARAT,,Indonesia,,-0.9989582,133.0194897,https://maps.google.com/?cid=0x0:0xd3aecb81246ce306
building materials,Toko Bahan Bangunan,"Papua Bangunan, CV PAPUA ABADI","Jl. Basuki Rahmat No.780, Klawuyuk, Distrik Sorong Timur, Kota Sorong, Papua Bar. 98416","Klawuyuk, Distrik Sorong Timur, Kota Sorong",PAPUA BARAT,98416.0,Indonesia,81332017550.0,-0.8954087,131.3186922,https://maps.google.com/?cid=0x0:0x851804bc3aa7f033
building materials,Toko Bahan Bangunan,toko bangunan Yep'Mum,"4Q38+6C4, Jl. Garuda, Arso Kota, Kec. Arso, Kabupaten Keerom, Papua 99468","Jl. Garuda, Arso Kota, Kec. Arso, Kabupaten Keerom",PAPUA BARAT,99468.0,Indonesia,85244664394.0,-2.8970308,140.7661616,https://maps.google.com/?cid=0x0:0x9649c22840d7e67e
building materials,Toko Bahan Bangunan,"AMP Banyuwangi. Jual Bata Ringan, Semen Mortar dan Panel Lantai",,,PAPUA BARAT,,Indonesia,81358663710.0,-4.9633314,121.065155,https://maps.google.com/?cid=0x0:0x5f9beea48028d51c
building materials,Kantor Perusahaan,PT. BUMI PAPUA SEVENINDO,"Jl. Mesjid Raya, Remu Utara, HBM, Kota Sorong, Papua Bar. 98416","Remu Utara, HBM, Kota Sorong",PAPUA BARAT,98416.0,Indonesia,82198126653.0,-0.8807928,131.2828486,https://maps.google.com/?cid=0x0:0xbe773b0ac3ca8612
building materials,building materials,Senopi,"Kabupaten Manokwari, Papua Bar.","Kabupaten Manokwari, Papua Bar.",PAPUA BARAT,,Indonesia,,-1.0594635,132.7857583,https://maps.google.com/?cid=0x0:0xdd84e513b3ec461f
building materials,Toko Bahan Bangunan,Depo Bangunan Mbanyu Mili,"3VQM+2GP depan balai kampung sp 2, Prafi Mulia, Distrik Prafi, Kabupaten Manokwari, Papua Bar. 98356","Prafi Mulia, Distrik Prafi, Kabupaten Manokwari",PAPUA BARAT,98356.0,Indonesia,85254126242.0,-0.9124191,133.8838245,https://maps.google.com/?cid=0x0:0x72bb281db456c91a
building materials,Pemasok Bahan Bangunan,Valley Supply Company,"516 Valley Ave NE, Puyallup, WA 98372, Amerika Serikat","Puyallup, WA",PAPUA BARAT,98372.0,Indonesia,12538811671.0,47.2045479,-122.2879947,https://maps.google.com/?cid=0x0:0xf88fbe9997c0e6fe
building materials,Toko Bahan Bangunan,Prime Source Building Products,"1701 140th Ave E #400, Sumner, WA 98390, Amerika Serikat","Sumner, WA",PAPUA BARAT,98390.0,Indonesia,12538631077.0,47.2422929,-122.2363303,https://maps.google.com/?cid=0x0:0x4876641acc369263
building materials,building materials,Distrik Syujak,"Kabupaten Tambrauw, Papua Bar.","Kabupaten Tambrauw, Papua Bar.",PAPUA BARAT,,Indonesia,,-0.7852432,132.4121441,https://maps.google.com/?cid=0x0:0x7dd0acee1cc8bcaa
building materials,Toko Bahan Bangunan,PAPUA BANGUNAN,"42GX+945, Wosi, Kec. Manokwari Bar., Kabupaten Manokwari, Papua Bar. 98312","Wosi, Kec. Manokwari Bar., Kabupaten Manokwari",PAPUA BARAT,98312.0,Indonesia,82198055550.0,-0.874101,134.0478473,https://maps.google.com/?cid=0x0:0x2c3683b193d9430f
building materials,Toko Bahan Bangunan,"Papua Bangunan, CV PAPUA ABADI","Jl. Basuki Rahmat No.780, Klawuyuk, Distrik Sorong Timur, Kota Sorong, Papua Bar. 98416","Klawuyuk, Distrik Sorong Timur, Kota Sorong",PAPUA BARAT,98416.0,Indonesia,81332017550.0,-0.8954087,131.3186922,https://maps.google.com/?cid=0x0:0x851804bc3aa7f033
building materials,Toko Bahan Bangunan,toko bangunan Yep'Mum,"4Q38+6C4, Jl. Garuda, Arso Kota, Kec. Arso, Kabupaten Keerom, Papua 99468","Jl. Garuda, Arso Kota, Kec. Arso, Kabupaten Keerom",PAPUA BARAT,99468.0,Indonesia,85244664394.0,-2.8970308,140.7661616,https://maps.google.com/?cid=0x0:0x9649c22840d7e67e
building materials,Kantor Perusahaan,PT. BUMI PAPUA SEVENINDO,"Jl. Mesjid Raya, Remu Utara, HBM, Kota Sorong, Papua Bar. 98416","Remu Utara, HBM, Kota Sorong",PAPUA BARAT,98416.0,Indonesia,82198126653.0,-0.8807928,131.2828486,https://maps.google.com/?cid=0x0:0xbe773b0ac3ca8612
building materials,Grosir bahan konstruksi,UD. UNGGUL JAYA SEJAHTERA (HANDOKO),"Massi, Kec. Dekai, Kabupaten Yahukimo, Papua 99571","Kec. Dekai, Kabupaten Yahukimo",PAPUA BARAT,99571.0,Indonesia,82198805354.0,-4.8651736,139.4852562,https://maps.google.com/?cid=0x0:0x5dec7d0c36ca1db3
building materials,building materials,Kec. Yembun,"Kabupaten Tambrauw, Papua Bar.","Kabupaten Tambrauw, Papua Bar.",PAPUA BARAT,,Indonesia,,-0.7808355,132.1189376,https://maps.google.com/?cid=0x0:0xc5562a9e3b0d5fb4
hardware store,Toko,Toko ajb,"Jln inpres urfas, Kemon Jaya Sp V, Kec. Urei Faisei, Kabupaten Waropen, Papua 98663","Kemon Jaya Sp V, Kec. Urei Faisei, Kabupaten Waropen",PAPUA BARAT,98663.0,Indonesia,82399530919.0,-2.209432,136.415572,https://maps.google.com/?cid=0x0:0x9d727fa236c3e1d6
hardware store,Toko,TOKO AB,"QCVQ+FXM, Ureifasei Tiga/Paradoi, Kec. Urei Faisei, Kabupaten Waropen, Papua 98261","Ureifasei Tiga/Paradoi, Kec. Urei Faisei, Kabupaten Waropen",PAPUA BARAT,98261.0,Indonesia,,-2.2063483,136.4399667,https://maps.google.com/?cid=0x0:0x7fdce44636edda7c
hardware store,Toko Bahan Bangunan,ABU HARDWARE SDN BHD,"3930, Jln Besar, Taman Bandar Baru, 78300 Masjid Tanah, Melaka, Malaysia",Masjid Tanah,PAPUA BARAT,78300.0,Indonesia,60126010551.0,2.3529143,102.1066346,https://maps.google.com/?cid=0x0:0xfd718a9e20cf965a
hardware store,hardware store,Papua Bar. 98371,Papua Bar.,Papua Bar.,PAPUA BARAT,,Indonesia,,-0.6071799,132.941698,https://maps.google.com/?cid=0x0:0xccfddd95cd14e2b2
hardware store,Toko Bahan Bangunan,Ad Mega Hardware,"Lot 234, Kuala Terengganu, Kampung Padang, 21200 Paloh, Malaysia",Paloh,PAPUA BARAT,21200.0,Indonesia,6096263979.0,5.3088669,103.0975297,https://maps.google.com/?cid=0x0:0xd418f5f75c163b8c
hardware store,,AD Multi Decor  Hardware (M) Sdn Bhd,"LOT 12790, Jalan Gong Badak, Kampung Wakaf Tembesu, 21300 Kuala Terengganu, Terengganu, Malaysia",Kuala Terengganu,PAPUA BARAT,21300.0,Indonesia,6096667979.0,5.3593834,103.0930266,https://maps.google.com/?cid=0x0:0x6654c07f09f95521
hardware store,hardware store,Papua Bar. 98372,"Kabupaten Manokwari, Papua Bar.","Kabupaten Manokwari, Papua Bar.",PAPUA BARAT,,Indonesia,,-0.9989582,133.0194897,https://maps.google.com/?cid=0x0:0xd3aecb81246ce306
hardware store,hardware store,Kebar,"Kabupaten Manokwari, Papua Bar.","Kabupaten Manokwari, Papua Bar.",PAPUA BARAT,,Indonesia,,-1.0514482,133.2521507,https://maps.google.com/?cid=0x0:0xc6bfbc985bfcc1b4
hardware store,Toko,Toko Fratafen Jaya Bangunan,"Jl. Fratafen, Fiane, Kec. Ayamaru, Kabupaten Maybrat, Papua Bar.","Kabupaten Maybrat, Papua Bar.",PAPUA BARAT,,Indonesia,81344891455.0,-1.2930171,132.2477662,https://maps.google.com/?cid=0x0:0x637ec3d664ebdaa3
hardware store,Toko,Toko FITAFEN JAYA,"P668+JWJ, Jl. Fratafen, Kampung Isme, Fiane, Distrik Ayamaru Tengah, Kabupaten Maybrat, Papua Bar.","Kabupaten Maybrat, Papua Bar.",PAPUA BARAT,,Indonesia,82129111112.0,-1.2884148,132.2172648,https://maps.google.com/?cid=0x0:0x9803b7caed3f9da8
hardware store,hardware store,Distrik Kwoor,"Kabupaten Tambrauw, Papua Bar.","Kabupaten Tambrauw, Papua Bar.",PAPUA BARAT,,Indonesia,,-0.4621685,132.2908119,https://maps.google.com/?cid=0x0:0xc9babc4648539c74
hardware store,Toko,MR.DIY,"City Mall, Jl. Yos Sudarso Manokwari Lantai 1, Manokwari Bar., Barat, Kabupaten Manokwari, Papua Bar. 98312","Jl. Yos Sudarso Manokwari Lantai 1, Manokwari Bar., Barat, Kabupaten Manokwari",PAPUA BARAT,98312.0,Indonesia,,-0.8567039,134.0671421,https://maps.google.com/?cid=0x0:0x3156c2d36d93b94a
hardware store,Toko Perlengkapan Rumah,Mr. DIY Wosi,"42GX+74Q, Wosi, Kec. Manokwari Bar., Kabupaten Manokwari, Papua Bar. 98312","Wosi, Kec. Manokwari Bar., Kabupaten Manokwari",PAPUA BARAT,98312.0,Indonesia,,-0.8742799,134.0478833,https://maps.google.com/?cid=0x0:0x901fc121889010dd
hardware store,hardware store,Miyah,"Kabupaten Tambrauw, Papua Bar.","Kabupaten Tambrauw, Papua Bar.",PAPUA BARAT,,Indonesia,,-0.7502666,132.6684924,https://maps.google.com/?cid=0x0:0x714bb316eb3dbe5c
hardware store,hardware store,Moraid,"Kabupaten Sorong, Papua Bar.","Kabupaten Sorong, Papua Bar.",PAPUA BARAT,,Indonesia,,-0.6590992,131.9791516,https://maps.google.com/?cid=0x0:0x754b158cc336f2d9
hardware store,hardware store,Mubrani,"Warsnembri, Mubarni / Arfu, Kabupaten Manokwari, Papua Bar.","Kabupaten Manokwari, Papua Bar.",PAPUA BARAT,,Indonesia,,-0.743739,133.489594,https://maps.google.com/?cid=0x0:0xd4bd1e9b5b037656
hardware store,hardware store,Kec. Tebet,"Kota Jakarta Selatan, Daerah Khusus Ibukota Jakarta","Kota Jakarta Selatan, Daerah Khusus Ibukota Jakarta",PAPUA BARAT,,Indonesia,,-6.2251223,106.8549881,https://maps.google.com/?cid=0x0:0xd575e31c807295f9
hardware store,Toko,toko TRIA sausapor,"Jln .poros warfaknik, werur, Distrik Sausapor, Kabupaten Tambrauw, Papua Bar.","Kabupaten Tambrauw, Papua Bar.",PAPUA BARAT,,Indonesia,81343383345.0,-0.4971154,132.0865368,https://maps.google.com/?cid=0x0:0xb1ffdb2bf1c868d8
hardware store,Toko,Toko Wowei Tambrauw,"H59F+XWW, Werur, Distrik Sausapor, Kabupaten Tambrauw, Papua Bar. 98473","Werur, Distrik Sausapor, Kabupaten Tambrauw",PAPUA BARAT,98473.0,Indonesia,,-0.4300225,132.1748386,https://maps.google.com/?cid=0x0:0xc44cdf90d8e4311
hardware store,hardware store,Distrik Sausapor,"Kabupaten Tambrauw, Papua Bar.","Kabupaten Tambrauw, Papua Bar.",PAPUA BARAT,,Indonesia,,-0.496052,132.0874738,https://maps.google.com/?cid=0x0:0x22b76922b3bd09b1
hardware store,hardware store,Papua Bar. 98372,"Kabupaten Manokwari, Papua Bar.","Kabupaten Manokwari, Papua Bar.",PAPUA BARAT,,Indonesia,,-0.9989582,133.0194897,https://maps.google.com/?cid=0x0:0xd3aecb81246ce306
hardware store,hardware store,Senopi,"Kabupaten Manokwari, Papua Bar.","Kabupaten Manokwari, Papua Bar.",PAPUA BARAT,,Indonesia,,-1.0594635,132.7857583,https://maps.google.com/?cid=0x0:0xdd84e513b3ec461f
hardware store,hardware store,Distrik Syujak,"Kabupaten Tambrauw, Papua Bar.","Kabupaten Tambrauw, Papua Bar.",PAPUA BARAT,,Indonesia,,-0.7852432,132.4121441,https://maps.google.com/?cid=0x0:0x7dd0acee1cc8bcaa
hardware store,Toko Bahan Bangunan,Mudahjaya Hardware,"Taman Nabalu, 89250 Tamparuli, Sabah, Malaysia",Tamparuli,PAPUA BARAT,89250.0,Indonesia,6088782558.0,6.1430727,116.2555527,https://maps.google.com/?cid=0x0:0x49eca9e13291dc16
hardware store,Toko Bahan Bangunan,Jadi Hong Hardware,"Jalan Lama Tamparuli, Tamparuli, 89250 Tamparuli, Sabah, Malaysia",Tamparuli,PAPUA BARAT,89250.0,Indonesia,60143299191.0,6.1388737,116.2631898,https://maps.google.com/?cid=0x0:0x334f6a35d912140d
hardware store,hardware store,Kec. Yembun,"Kabupaten Tambrauw, Papua Bar.","Kabupaten Tambrauw, Papua Bar.",PAPUA BARAT,,Indonesia,,-0.7808355,132.1189376,https://maps.google.com/?cid=0x0:0xc5562a9e3b0d5fb4
supermarket bangunan,supermarket bangunan,Abun,"Kabupaten Tambrauw, Papua Bar.","Kabupaten Tambrauw, Papua Bar.",PAPUA BARAT,,Indonesia,,-0.4695379,132.7466993,https://maps.google.com/?cid=0x0:0x6bbce6bcca6e4a28
supermarket bangunan,Toko Cat,Toko Bangunan Abid Sejahtera - Waisai,"Jl. Jend. Sudirman No.30, Waisai, Distrik Kota Waisai, Kabupaten Raja Ampat, Papua Bar. 98482","Waisai, Distrik Kota Waisai, Kabupaten Raja Ampat",PAPUA BARAT,98482.0,Indonesia,82248014806.0,-0.4206038,130.8216501,https://maps.google.com/?cid=0x0:0x635cf5cb88ebe389
supermarket bangunan,Toko Bahan Bangunan,Supermarket Multi Bangunan,"Jl Baru No.98, Wai Mhorock, Abepura, Jayapura City, Papua 99225","Wai Mhorock, Abepura, Jayapura City",PAPUA BARAT,99225.0,Indonesia,967588677.0,-2.6077336,140.6742812,https://maps.google.com/?cid=0x0:0x3b19f301c68f1d6f
supermarket bangunan,Toko Bahan Bangunan,ANEKA BANGUNAN,"Wosi, Kec. Manokwari Bar., Kabupaten Manokwari, Papua Bar. 98312","Kec. Manokwari Bar., Kabupaten Manokwari",PAPUA BARAT,98312.0,Indonesia,81344843001.0,-0.8631883,134.0498559,https://maps.google.com/?cid=0x0:0x3598159af16f30ea
supermarket bangunan,Toko Swalayan,Toko Depo Bangunan,"379V+Q4W, Fak Fak Selatan, Distrik Fakfak, Kabupaten Fakfak, Papua Bar. 98611","Fak Fak Selatan, Distrik Fakfak, Kabupaten Fakfak",PAPUA BARAT,98611.0,Indonesia,81332930235.0,-2.9305033,132.292834,https://maps.google.com/?cid=0x0:0x8845a3bfe8af225c
supermarket bangunan,Toko Bahan Bangunan,Toko Bangunan,"Jl. Gn. Salju No.70, Amban, Kec. Manokwari Bar., Kabupaten Manokwari, Papua Bar. 98314","Amban, Kec. Manokwari Bar., Kabupaten Manokwari",PAPUA BARAT,98314.0,Indonesia,,-0.8378489,134.0648609,https://maps.google.com/?cid=0x0:0x39e90745f521cce
supermarket bangunan,Toko Bahan Bangunan,TOKO BINTANG BANGUNAN,"Wai Mhorock, Kec. Abepura, Kota Jayapura, Papua 99225","Kec. Abepura, Kota Jayapura",PAPUA BARAT,99225.0,Indonesia,81211357969.0,-2.6065155,140.6747591,https://maps.google.com/?cid=0x0:0xedd7cb0b345a46c4
supermarket bangunan,Pemasok Bahan Bangunan,Depo Makmur Manokwari,"43P2+QWR, Jl. Trikora Wosi, Wosi, Kec. Manokwari Bar., Kabupaten Manokwari, Papua Bar. 98312","Jl. Trikora Wosi, Wosi, Kec. Manokwari Bar., Kabupaten Manokwari",PAPUA BARAT,98312.0,Indonesia,81248426402.0,-0.8630402,134.0521741,https://maps.google.com/?cid=0x0:0x387befda163fc63b
supermarket bangunan,Pemasok Bahan Bangunan,Supermarket Bangunan Abadi ( Bangunan Abadi ) Meruya,"Jl. Meruya Ilir Raya No.13 3, RT.3/RW.2, Meruya Utara, Kec. Kembangan, Kota Jakarta Barat, Daerah Khusus Ibukota Jakarta 11610","RT.3/RW.2, Meruya Utara, Kec. Kembangan, Kota Jakarta Barat",PAPUA BARAT,11610.0,Indonesia,215856801.0,-6.1976477,106.7425118,https://maps.google.com/?cid=0x0:0x13872e6ebcfc2cac
supermarket bangunan,Toko bahan makanan,SBA (Supermarket Bangunan Abadi),"Jl. Pd. Kacang No.88B, Pd. Kacang Bar., Kec. Pd. Aren, Kota Tangerang Selatan, Banten 15226","Pd. Kacang Bar., Kec. Pd. Aren, Kota Tangerang Selatan",PAPUA BARAT,15226.0,Indonesia,2173460185.0,-6.254577,106.688324,https://maps.google.com/?cid=0x0:0x370ec3ee4dda53b
supermarket bangunan,Pasar bahan bangunan,Mitra Bangunan Supermarket Cibubur,"Samping RM, Pd. Kemangi Cibubur, Jl. Alternatif Cibubur, Nagrak, Kec. Gn. Putri, Kabupaten Bogor, Jawa Barat 16967","Pd. Kemangi Cibubur, Jl. Alternatif Cibubur, Nagrak, Kec. Gn. Putri, Kabupaten Bogor",PAPUA BARAT,16967.0,Indonesia,,-6.387333,106.9405084,https://maps.google.com/?cid=0x0:0xf8f355fe4e840158
supermarket bangunan,Toko Bahan Bangunan,Super Bangunan Supermarket Bahan Bangun No #1,"Jl. Raya Cikaret No.8, Harapan Jaya, Kec. Cibinong, Kabupaten Bogor, Jawa Barat 16914","Harapan Jaya, Kec. Cibinong, Kabupaten Bogor",PAPUA BARAT,16914.0,Indonesia,85710923235.0,-6.4669858,106.8393338,https://maps.google.com/?cid=0x0:0x53373791abd65da6
supermarket bangunan,Pemasok Bahan Bangunan,DUNIA BANGUNAN (SUPERMARKET BAHAN BANGUNAN),"Jl. Canadian Broadway, Limus Nunggal, Kec. Cileungsi, Kabupaten Bogor, Jawa Barat 16820","Limus Nunggal, Kec. Cileungsi, Kabupaten Bogor",PAPUA BARAT,16820.0,Indonesia,81388321160.0,-6.3679437,106.971234,https://maps.google.com/?cid=0x0:0xcb7767d95296f809
supermarket bangunan,Toko Bahan Bangunan,Super Bangunan Muara Karang,"Jl. Muara Karang Raya No.105, RT.11/RW.17, Pluit, Kec. Penjaringan, Jkt Utara, Daerah Khusus Ibukota Jakarta 14450","RT.11/RW.17, Pluit, Kec. Penjaringan, Jkt Utara",PAPUA BARAT,14450.0,Indonesia,8128218188.0,-6.1170604,106.7807172,https://maps.google.com/?cid=0x0:0xceae8e907c7218e2
supermarket bangunan,Toko Bahan Bangunan,Supermarket Multi Bangunan,"Jl Baru No.98, Wai Mhorock, Abepura, Jayapura City, Papua 99225","Wai Mhorock, Abepura, Jayapura City",PAPUA BARAT,99225.0,Indonesia,967588677.0,-2.6077336,140.6742812,https://maps.google.com/?cid=0x0:0x3b19f301c68f1d6f
supermarket bangunan,Toko Bahan Bangunan,Padma Bangunan,"Wai Mhorock, Kec. Abepura, Kota Jayapura, Papua 99225","Kec. Abepura, Kota Jayapura",PAPUA BARAT,99225.0,Indonesia,9675180108.0,-2.6096427,140.6725314,https://maps.google.com/?cid=0x0:0x908e38e219cfc28
supermarket bangunan,supermarket bangunan,Papua Bar. 98372,"Kabupaten Manokwari, Papua Bar.","Kabupaten Manokwari, Papua Bar.",PAPUA BARAT,,Indonesia,,-0.9989582,133.0194897,https://maps.google.com/?cid=0x0:0xd3aecb81246ce306
supermarket bangunan,Toko Bahan Bangunan,Supermarket Multi Bangunan,"Jl Baru No.98, Wai Mhorock, Abepura, Jayapura City, Papua 99225","Wai Mhorock, Abepura, Jayapura City",PAPUA BARAT,99225.0,Indonesia,967588677.0,-2.6077336,140.6742812,https://maps.google.com/?cid=0x0:0x3b19f301c68f1d6f
supermarket bangunan,Toko Bahan Bangunan,ANEKA BANGUNAN,"Wosi, Kec. Manokwari Bar., Kabupaten Manokwari, Papua Bar. 98312","Kec. Manokwari Bar., Kabupaten Manokwari",PAPUA BARAT,98312.0,Indonesia,81344843001.0,-0.8631883,134.0498559,https://maps.google.com/?cid=0x0:0x3598159af16f30ea
supermarket bangunan,Toko Bahan Bangunan,PAPUA BANGUNAN,"42GX+945, Wosi, Kec. Manokwari Bar., Kabupaten Manokwari, Papua Bar. 98312","Wosi, Kec. Manokwari Bar., Kabupaten Manokwari",PAPUA BARAT,98312.0,Indonesia,82198055550.0,-0.874101,134.0478473,https://maps.google.com/?cid=0x0:0x2c3683b193d9430f
supermarket bangunan,Toko Bahan Bangunan,Fajar Bangunan,"Sowi, Distrik Manokwari, Kabupaten Manokwari, Papua Bar. 98315","Distrik Manokwari, Kabupaten Manokwari",PAPUA BARAT,98315.0,Indonesia,,-0.9062643,134.0359839,https://maps.google.com/?cid=0x0:0x9d0563299ba4e3f6
supermarket bangunan,Toko Cat,Toko Bangunan Abid Sejahtera - Waisai,"Jl. Jend. Sudirman No.30, Waisai, Distrik Kota Waisai, Kabupaten Raja Ampat, Papua Bar. 98482","Waisai, Distrik Kota Waisai, Kabupaten Raja Ampat",PAPUA BARAT,98482.0,Indonesia,82248014806.0,-0.4206038,130.8216501,https://maps.google.com/?cid=0x0:0x635cf5cb88ebe389
supermarket bangunan,Toko Bahan Bangunan,toko bangunan Yep'Mum,"4Q38+6C4, Jl. Garuda, Arso Kota, Kec. Arso, Kabupaten Keerom, Papua 99468","Jl. Garuda, Arso Kota, Kec. Arso, Kabupaten Keerom",PAPUA BARAT,99468.0,Indonesia,85244664394.0,-2.8970308,140.7661616,https://maps.google.com/?cid=0x0:0x9649c22840d7e67e
supermarket bangunan,Toko Bahan Bangunan,Toko Multi Bangunan,"Q97H+9V2, Sarafambai, Kec. Waropen Bawah, Kabupaten Waropen, Papua 98261","Sarafambai, Kec. Waropen Bawah, Kabupaten Waropen",PAPUA BARAT,98261.0,Indonesia,,-2.2366153,136.3796343,https://maps.google.com/?cid=0x0:0x8fe10ca526096f47
supermarket bangunan,Pemasok Bahan Bangunan,Depo Makmur Manokwari,"43P2+QWR, Jl. Trikora Wosi, Wosi, Kec. Manokwari Bar., Kabupaten Manokwari, Papua Bar. 98312","Jl. Trikora Wosi, Wosi, Kec. Manokwari Bar., Kabupaten Manokwari",PAPUA BARAT,98312.0,Indonesia,81248426402.0,-0.8630402,134.0521741,https://maps.google.com/?cid=0x0:0x387befda163fc63b
supermarket bangunan,Toko Bahan Bangunan,TOKO SUMBER NIAGA BANGUNAN,"Timika Jaya, Kec. Mimika Baru, Kabupaten Mimika, Papua 99971","Kec. Mimika Baru, Kabupaten Mimika",PAPUA BARAT,99971.0,Indonesia,856095797670.0,-4.569129,136.878701,https://maps.google.com/?cid=0x0:0xcd18f7af7f50af74
supermarket bangunan,supermarket bangunan,Toko Mitra Bangunan,"8F8G+WJ5, Karubaga, Kec. Karubaga, Kabupaten Tolikara, Papua 99567","Karubaga, Kec. Karubaga, Kabupaten Tolikara",PAPUA BARAT,99567.0,Indonesia,81317225643.0,-3.682733,138.4766089,https://maps.google.com/?cid=0x0:0x94f019f9132886e9
supermarket bangunan,Toko Bahan Bangunan,Toko Bangunan Karunia Jaya Abadi,"4PCV+PQW, Asiaman, Kec. Arso, Kabupaten Keerom, Papua 99468","Asiaman, Kec. Arso, Kabupaten Keerom",PAPUA BARAT,99468.0,Indonesia,82238365051.0,-2.8781414,140.7444425,https://maps.google.com/?cid=0x0:0xe5cd3a535bf4a26b
supermarket bangunan,Toko Bahan Bangunan,"TOKO BANGUNAN , TOKO HARA II","Jl. Kakatua No.1, Klamasen, Distrik Mariat, Kabupaten Sorong, Papua Bar. 98416","Klamasen, Distrik Mariat, Kabupaten Sorong",PAPUA BARAT,98416.0,Indonesia,81259105399.0,-0.9953545,131.3468536,https://maps.google.com/?cid=0x0:0x51bb1160638e98ed
supermarket bangunan,Toko Bahan Bangunan,Toko Bangunan,"Jl. Trikora Taman Ria No.4, Sowi, Distrik Manokwari, Kabupaten Manokwari, Papua Bar. 98315","Sowi, Distrik Manokwari, Kabupaten Manokwari",PAPUA BARAT,98315.0,Indonesia,,-0.906996,134.035784,https://maps.google.com/?cid=0x0:0xe97020a60705142f
supermarket bangunan,supermarket bangunan,Distrik Fef,"Kabupaten Tambrauw, Papua Bar.","Kabupaten Tambrauw, Papua Bar.",PAPUA BARAT,,Indonesia,,-0.7798216,132.3665985,https://maps.google.com/?cid=0x0:0x99889d8cffaa571e
supermarket bangunan,Toko Bahan Bangunan,Supermarket Multi Bangunan,"Jl Baru No.98, Wai Mhorock, Abepura, Jayapura City, Papua 99225","Wai Mhorock, Abepura, Jayapura City",PAPUA BARAT,99225.0,Indonesia,967588677.0,-2.6077336,140.6742812,https://maps.google.com/?cid=0x0:0x3b19f301c68f1d6f
supermarket bangunan,Toko Swalayan,Toko Depo Bangunan,"379V+Q4W, Fak Fak Selatan, Distrik Fakfak, Kabupaten Fakfak, Papua Bar. 98611","Fak Fak Selatan, Distrik Fakfak, Kabupaten Fakfak",PAPUA BARAT,98611.0,Indonesia,81332930235.0,-2.9305033,132.292834,https://maps.google.com/?cid=0x0:0x8845a3bfe8af225c
supermarket bangunan,Toko,Toko Fratafen Jaya Bangunan,"Jl. Fratafen, Fiane, Kec. Ayamaru, Kabupaten Maybrat, Papua Bar.","Kabupaten Maybrat, Papua Bar.",PAPUA BARAT,,Indonesia,81344891455.0,-1.2930171,132.2477662,https://maps.google.com/?cid=0x0:0x637ec3d664ebdaa3
supermarket bangunan,Toko Bahan Bangunan,"Papua Bangunan, CV PAPUA ABADI","Jl. Basuki Rahmat No.780, Klawuyuk, Distrik Sorong Timur, Kota Sorong, Papua Bar. 98416","Klawuyuk, Distrik Sorong Timur, Kota Sorong",PAPUA BARAT,98416.0,Indonesia,81332017550.0,-0.8954087,131.3186922,https://maps.google.com/?cid=0x0:0x851804bc3aa7f033
supermarket bangunan,Toko Bahan Bangunan,Toko Bangunan Depo Dewata,"38G2+FXC, Jl. Gajah Mada, Fak Fak Utara, Distrik Fakfak, Kabupaten Fakfak, Papua Bar. 98651","Jl. Gajah Mada, Fak Fak Utara, Distrik Fakfak, Kabupaten Fakfak",PAPUA BARAT,98651.0,Indonesia,81346731165.0,-2.9239262,132.3023407,https://maps.google.com/?cid=0x0:0x6877b3b6dab70059
supermarket bangunan,Toko Bahan Bangunan,Gudang Toko Depo Bangunan,"37FJ+7G5, Jl. Fakfak - Torea, Tanama, Distrik Fakfak, Kabupaten Fakfak, Papua Bar. 98614","Jl. Fakfak - Torea, Tanama, Distrik Fakfak, Kabupaten Fakfak",PAPUA BARAT,98614.0,Indonesia,,-2.9268666,132.2813702,https://maps.google.com/?cid=0x0:0x605ba6cbab94e804
supermarket bangunan,Toko Bahan Bangunan,TOKO BANGUNAN,"38G3+5PF, Fak Fak Utara, Distrik Fakfak, Kabupaten Fakfak, Papua Bar. 98651","Fak Fak Utara, Distrik Fakfak, Kabupaten Fakfak",PAPUA BARAT,98651.0,Indonesia,83121529512.0,-2.9245593,132.3042975,https://maps.google.com/?cid=0x0:0x3e3de1be5a573a7
supermarket bangunan,Toko,Toko FITAFEN JAYA,"P668+JWJ, Jl. Fratafen, Kampung Isme, Fiane, Distrik Ayamaru Tengah, Kabupaten Maybrat, Papua Bar.","Kabupaten Maybrat, Papua Bar.",PAPUA BARAT,,Indonesia,82129111112.0,-1.2884148,132.2172648,https://maps.google.com/?cid=0x0:0x9803b7caed3f9da8
supermarket bangunan,supermarket bangunan,Distrik Kwoor,"Kabupaten Tambrauw, Papua Bar.","Kabupaten Tambrauw, Papua Bar.",PAPUA BARAT,,Indonesia,,-0.4621685,132.2908119,https://maps.google.com/?cid=0x0:0xc9babc4648539c74
supermarket bangunan,Toko Bahan Bangunan,Supermarket Multi Bangunan,"Jl Baru No.98, Wai Mhorock, Abepura, Jayapura City, Papua 99225","Wai Mhorock, Abepura, Jayapura City",PAPUA BARAT,99225.0,Indonesia,967588677.0,-2.6077336,140.6742812,https://maps.google.com/?cid=0x0:0x3b19f301c68f1d6f
supermarket bangunan,Toko Bahan Bangunan,ANEKA BANGUNAN,"Wosi, Kec. Manokwari Bar., Kabupaten Manokwari, Papua Bar. 98312","Kec. Manokwari Bar., Kabupaten Manokwari",PAPUA BARAT,98312.0,Indonesia,81344843001.0,-0.8631883,134.0498559,https://maps.google.com/?cid=0x0:0x3598159af16f30ea
supermarket bangunan,Pemasok Bahan Bangunan,Depo Makmur Manokwari,"43P2+QWR, Jl. Trikora Wosi, Wosi, Kec. Manokwari Bar., Kabupaten Manokwari, Papua Bar. 98312","Jl. Trikora Wosi, Wosi, Kec. Manokwari Bar., Kabupaten Manokwari",PAPUA BARAT,98312.0,Indonesia,81248426402.0,-0.8630402,134.0521741,https://maps.google.com/?cid=0x0:0x387befda163fc63b
supermarket bangunan,supermarket bangunan,Kios Akbar,"F3XM+7XM, Emaos, Distrik Sausapor, Kabupaten Tambrauw, Papua Bar. 98473","Emaos, Distrik Sausapor, Kabupaten Tambrauw",PAPUA BARAT,98473.0,Indonesia,,-0.5019154,132.0840385,https://maps.google.com/?cid=0x0:0x26d282873f715385
supermarket bangunan,supermarket bangunan,Miyah,"Kabupaten Tambrauw, Papua Bar.","Kabupaten Tambrauw, Papua Bar.",PAPUA BARAT,,Indonesia,,-0.7502666,132.6684924,https://maps.google.com/?cid=0x0:0x714bb316eb3dbe5c
supermarket bangunan,Toko Bahan Bangunan,Supermarket Multi Bangunan,"Jl Baru No.98, Wai Mhorock, Abepura, Jayapura City, Papua 99225","Wai Mhorock, Abepura, Jayapura City",PAPUA BARAT,99225.0,Indonesia,967588677.0,-2.6077336,140.6742812,https://maps.google.com/?cid=0x0:0x3b19f301c68f1d6f
supermarket bangunan,Toko Bahan Bangunan,ANEKA BANGUNAN,"Wosi, Kec. Manokwari Bar., Kabupaten Manokwari, Papua Bar. 98312","Kec. Manokwari Bar., Kabupaten Manokwari",PAPUA BARAT,98312.0,Indonesia,81344843001.0,-0.8631883,134.0498559,https://maps.google.com/?cid=0x0:0x3598159af16f30ea
supermarket bangunan,Toko Elektronik,Toko Bangunan Sumber Baru,"SP3, Aimasi, Jl. Poros, Distrik Prafi, Kabupaten Manokwari, Papua Bar. 98356","Aimasi, Jl. Poros, Distrik Prafi, Kabupaten Manokwari",PAPUA BARAT,98356.0,Indonesia,81234807007.0,-0.883667,133.820223,https://maps.google.com/?cid=0x0:0x7475be84d164c6b6
supermarket bangunan,Toko Bahan Bangunan,Fajar Bangunan,"Sowi, Distrik Manokwari, Kabupaten Manokwari, Papua Bar. 98315","Distrik Manokwari, Kabupaten Manokwari",PAPUA BARAT,98315.0,Indonesia,,-0.9062643,134.0359839,https://maps.google.com/?cid=0x0:0x9d0563299ba4e3f6
supermarket bangunan,Pemasok Bahan Bangunan,Toko bangunan Sumber Makmur,"32CM+75G, Jl. Manokwari - Maruni, Anday, Distrik Manokwari, Kabupaten Manokwari, Papua Bar. 98315","Jl. Manokwari - Maruni, Anday, Distrik Manokwari, Kabupaten Manokwari",PAPUA BARAT,98315.0,Indonesia,8114846060.0,-0.9293075,134.0329487,https://maps.google.com/?cid=0x0:0xa0a85c7270dde255
supermarket bangunan,Toko Bahan Bangunan,PAPUA BANGUNAN,"42GX+945, Wosi, Kec. Manokwari Bar., Kabupaten Manokwari, Papua Bar. 98312","Wosi, Kec. Manokwari Bar., Kabupaten Manokwari",PAPUA BARAT,98312.0,Indonesia,82198055550.0,-0.874101,134.0478473,https://maps.google.com/?cid=0x0:0x2c3683b193d9430f
supermarket bangunan,Pemasok Bahan Bangunan,Depo Makmur Manokwari,"43P2+QWR, Jl. Trikora Wosi, Wosi, Kec. Manokwari Bar., Kabupaten Manokwari, Papua Bar. 98312","Jl. Trikora Wosi, Wosi, Kec. Manokwari Bar., Kabupaten Manokwari",PAPUA BARAT,98312.0,Indonesia,81248426402.0,-0.8630402,134.0521741,https://maps.google.com/?cid=0x0:0x387befda163fc63b
supermarket bangunan,Toko Bahan Bangunan,MEKAR UTAMA,"42PX+G48, Wosi, Kec. Manokwari Bar., Kabupaten Manokwari, Papua Bar. 98312","Wosi, Kec. Manokwari Bar., Kabupaten Manokwari",PAPUA BARAT,98312.0,Indonesia,,-0.8637053,134.0478389,https://maps.google.com/?cid=0x0:0x77a6f53c3f6b970c
supermarket bangunan,Toko Cat,Toko Bangunan Abid Sejahtera - Waisai,"Jl. Jend. Sudirman No.30, Waisai, Distrik Kota Waisai, Kabupaten Raja Ampat, Papua Bar. 98482","Waisai, Distrik Kota Waisai, Kabupaten Raja Ampat",PAPUA BARAT,98482.0,Indonesia,82248014806.0,-0.4206038,130.8216501,https://maps.google.com/?cid=0x0:0x635cf5cb88ebe389
supermarket bangunan,Toko Bahan Bangunan,Royal Bangunan (PT. Papua Jaya Bangunan),"43P8+87R, Jl. Percetakan Negara, Sanggeng, Kec. Manokwari Bar., Kabupaten Manokwari, Papua Bar. 98312","Jl. Percetakan Negara, Sanggeng, Kec. Manokwari Bar., Kabupaten Manokwari",PAPUA BARAT,98312.0,Indonesia,87784554955.0,-0.8641385,134.0656252,https://maps.google.com/?cid=0x0:0x99b3b4ac0bad58a
supermarket bangunan,Toko Bahan Bangunan,Toko Multi Bangunan,"Q97H+9V2, Sarafambai, Kec. Waropen Bawah, Kabupaten Waropen, Papua 98261","Sarafambai, Kec. Waropen Bawah, Kabupaten Waropen",PAPUA BARAT,98261.0,Indonesia,,-2.2366153,136.3796343,https://maps.google.com/?cid=0x0:0x8fe10ca526096f47
supermarket bangunan,Toko Bahan Bangunan,Toko Bangunan,"Jl. Gn. Salju No.70, Amban, Kec. Manokwari Bar., Kabupaten Manokwari, Papua Bar. 98314","Amban, Kec. Manokwari Bar., Kabupaten Manokwari",PAPUA BARAT,98314.0,Indonesia,,-0.8378489,134.0648609,https://maps.google.com/?cid=0x0:0x39e90745f521cce
supermarket bangunan,Toko Bahan Bangunan,Toko mentari,"4R74+WP, Waseki Indah, Distrik Prafi, Kabupaten Manokwari, Papua Bar.","Kabupaten Manokwari, Papua Bar.",PAPUA BARAT,,Indonesia,,-0.8853016,133.8068212,https://maps.google.com/?cid=0x0:0xdc35c757e123f91e
supermarket bangunan,supermarket bangunan,Moraid,"Kabupaten Sorong, Papua Bar.","Kabupaten Sorong, Papua Bar.",PAPUA BARAT,,Indonesia,,-0.6590992,131.9791516,https://maps.google.com/?cid=0x0:0x754b158cc336f2d9
supermarket bangunan,Toko Bahan Bangunan,Supermarket Multi Bangunan,"Jl Baru No.98, Wai Mhorock, Abepura, Jayapura City, Papua 99225","Wai Mhorock, Abepura, Jayapura City",PAPUA BARAT,99225.0,Indonesia,967588677.0,-2.6077336,140.6742812,https://maps.google.com/?cid=0x0:0x3b19f301c68f1d6f
supermarket bangunan,Toko Bahan Bangunan,Toko Bangunan Abadi,"4862+H2G, Malaingkedi, Kec. Sorong Utara, Kota Sorong, Papua Bar. 98412","Malaingkedi, Kec. Sorong Utara, Kota Sorong",PAPUA BARAT,98412.0,Indonesia,81248762864.0,-0.8885625,131.3000781,https://maps.google.com/?cid=0x0:0xa4c5e3d6e0f0bf2b
supermarket bangunan,Toko Bahan Bangunan,ANEKA BANGUNAN,"Wosi, Kec. Manokwari Bar., Kabupaten Manokwari, Papua Bar. 98312","Kec. Manokwari Bar., Kabupaten Manokwari",PAPUA BARAT,98312.0,Indonesia,81344843001.0,-0.8631883,134.0498559,https://maps.google.com/?cid=0x0:0x3598159af16f30ea
supermarket bangunan,Toko Bahan Bangunan,"Papua Bangunan, CV PAPUA ABADI","Jl. Basuki Rahmat No.780, Klawuyuk, Distrik Sorong Timur, Kota Sorong, Papua Bar. 98416","Klawuyuk, Distrik Sorong Timur, Kota Sorong",PAPUA BARAT,98416.0,Indonesia,81332017550.0,-0.8954087,131.3186922,https://maps.google.com/?cid=0x0:0x851804bc3aa7f033
supermarket bangunan,Toko Bahan Bangunan,Toko Bangunan Mutiara timur,"CJ3R+33F, Unnamed Road, Kp. Waena, Kec. Heram, Kota Jayapura, Papua 99225","Unnamed Road, Kp. Waena, Kec. Heram, Kota Jayapura",PAPUA BARAT,99225.0,Indonesia,,-2.5973134,140.6401625,https://maps.google.com/?cid=0x0:0x392e56b1342d758c
supermarket bangunan,supermarket bangunan,Toko Mitra Bangunan,"8F8G+WJ5, Karubaga, Kec. Karubaga, Kabupaten Tolikara, Papua 99567","Karubaga, Kec. Karubaga, Kabupaten Tolikara",PAPUA BARAT,99567.0,Indonesia,81317225643.0,-3.682733,138.4766089,https://maps.google.com/?cid=0x0:0x94f019f9132886e9
supermarket bangunan,Toko Bahan Bangunan,DEPO BANGUNAN SINAR MATAHARI,"379X+243, Jl. Fakfak - Torea, Wagom Sel., Distrik Fakfak, Kabupaten Fakfak, Papua Bar. 98651","Jl. Fakfak - Torea, Wagom Sel., Distrik Fakfak, Kabupaten Fakfak",PAPUA BARAT,98651.0,Indonesia,81232387999.0,-2.9324935,132.2978043,https://maps.google.com/?cid=0x0:0x35e53a9d40e95e48
supermarket bangunan,Toko Perlengkapan Rumah,Toko Jarwal Bangunan,"Kamoro Jaya, Kec. Mimika Baru, Kabupaten Mimika, Papua 99971","Kec. Mimika Baru, Kabupaten Mimika",PAPUA BARAT,99971.0,Indonesia,,-4.5656564,136.8718615,https://maps.google.com/?cid=0x0:0x6cdc385accf4a8b
supermarket bangunan,Toko Bahan Bangunan,TOKO BANGUNAN NABIRE SANTOSO MITRA SEJAHTERA,"Jl. Dr. Sam Ratulangi No.2, Oyehe, Distrik Nabire, Kabupaten Nabire, Papua 98817","Oyehe, Distrik Nabire, Kabupaten Nabire",PAPUA BARAT,98817.0,Indonesia,85787541264.0,-3.3600958,135.5020964,https://maps.google.com/?cid=0x0:0xb6a38fe67511aebd
supermarket bangunan,Toko Bahan Bangunan,Fajar Bangunan,"Sowi, Distrik Manokwari, Kabupaten Manokwari, Papua Bar. 98315","Distrik Manokwari, Kabupaten Manokwari",PAPUA BARAT,98315.0,Indonesia,,-0.9062643,134.0359839,https://maps.google.com/?cid=0x0:0x9d0563299ba4e3f6
supermarket bangunan,Pemasok Bahan Bangunan,Toko bangunan Sumber Makmur,"32CM+75G, Jl. Manokwari - Maruni, Anday, Distrik Manokwari, Kabupaten Manokwari, Papua Bar. 98315","Jl. Manokwari - Maruni, Anday, Distrik Manokwari, Kabupaten Manokwari",PAPUA BARAT,98315.0,Indonesia,8114846060.0,-0.9293075,134.0329487,https://maps.google.com/?cid=0x0:0xa0a85c7270dde255
supermarket bangunan,Pemasok Bahan Bangunan,Toko Bangunan Duta Tunggal Anugerah (DTA),"JGQ2+XR7, Jl. Dr. Sam Ratulangi, Oyehe, Distrik Nabire, Kabupaten Nabire, Papua 98811","Jl. Dr. Sam Ratulangi, Oyehe, Distrik Nabire, Kabupaten Nabire",PAPUA BARAT,98811.0,Indonesia,98425750.0,-3.3600946,135.5020576,https://maps.google.com/?cid=0x0:0x7c6c633951692b44
supermarket bangunan,Toko Bahan Bangunan,Toko Bangunan Difian,"Bumi Wonorejo, Distrik Nabire, Kabupaten Nabire, Papua 98813","Distrik Nabire, Kabupaten Nabire",PAPUA BARAT,98813.0,Indonesia,812400013420.0,-3.4008216,135.4801451,https://maps.google.com/?cid=0x0:0x9973da42063f154
supermarket bangunan,supermarket bangunan,Mubrani,"Warsnembri, Mubarni / Arfu, Kabupaten Manokwari, Papua Bar.","Kabupaten Manokwari, Papua Bar.",PAPUA BARAT,,Indonesia,,-0.743739,133.489594,https://maps.google.com/?cid=0x0:0xd4bd1e9b5b037656
supermarket bangunan,Toko Bahan Bangunan,Supermarket Multi Bangunan,"Jl Baru No.98, Wai Mhorock, Abepura, Jayapura City, Papua 99225","Wai Mhorock, Abepura, Jayapura City",PAPUA BARAT,99225.0,Indonesia,967588677.0,-2.6077336,140.6742812,https://maps.google.com/?cid=0x0:0x3b19f301c68f1d6f
supermarket bangunan,Toko Cat,Toko Bangunan Abid Sejahtera - Waisai,"Jl. Jend. Sudirman No.30, Waisai, Distrik Kota Waisai, Kabupaten Raja Ampat, Papua Bar. 98482","Waisai, Distrik Kota Waisai, Kabupaten Raja Ampat",PAPUA BARAT,98482.0,Indonesia,82248014806.0,-0.4206038,130.8216501,https://maps.google.com/?cid=0x0:0x635cf5cb88ebe389
supermarket bangunan,Toko Bahan Bangunan,Toko Resky,"jalan poros, Kemon Jaya Sp V, Kec. Waropen Bawah, Kabupaten Waropen, Papua 98261","Kemon Jaya Sp V, Kec. Waropen Bawah, Kabupaten Waropen",PAPUA BARAT,98261.0,Indonesia,85394955553.0,-2.2185432,136.4200064,https://maps.google.com/?cid=0x0:0x356450f535852163
supermarket bangunan,Toko Bahan Bangunan,Toko Rahayu Babo,"FF52+F2R, Unnamed Road, Nusei, Babo, Kabupaten Teluk Bintuni, Papua Bar. 98363","Unnamed Road, Nusei, Babo, Kabupaten Teluk Bintuni",PAPUA BARAT,98363.0,Indonesia,85244200777.0,-2.5412733,133.45003,https://maps.google.com/?cid=0x0:0x2d6ca9cad594f391
supermarket bangunan,Toko Bahan Bangunan,Gudang Toko Depo Bangunan,"37FJ+7G5, Jl. Fakfak - Torea, Tanama, Distrik Fakfak, Kabupaten Fakfak, Papua Bar. 98614","Jl. Fakfak - Torea, Tanama, Distrik Fakfak, Kabupaten Fakfak",PAPUA BARAT,98614.0,Indonesia,,-2.9268666,132.2813702,https://maps.google.com/?cid=0x0:0x605ba6cbab94e804
supermarket bangunan,Toko Perlengkapan Rumah,Toko Bangunan URI,"Q93M+R2X, Uri, Kec. Waropen Bawah, Kabupaten Waropen, Papua 98261","Uri, Kec. Waropen Bawah, Kabupaten Waropen",PAPUA BARAT,98261.0,Indonesia,,-2.24502,136.382778,https://maps.google.com/?cid=0x0:0xedc722ce6d2e6662
supermarket bangunan,Toko Bahan Bangunan,TOKO YUDHA BANGUNAN 1,"VWXP+H7P, Jl. Bayangkara, Hurekama, Distrik Wamena, Kabupaten Jayawijaya, Papua 99511","Jl. Bayangkara, Hurekama, Distrik Wamena, Kabupaten Jayawijaya",PAPUA BARAT,99511.0,Indonesia,81344454364.0,-4.1010288,138.9356942,https://maps.google.com/?cid=0x0:0xa571c584f4c25eaa
supermarket bangunan,Toko Swalayan,Toko Depo Bangunan,"379V+Q4W, Fak Fak Selatan, Distrik Fakfak, Kabupaten Fakfak, Papua Bar. 98611","Fak Fak Selatan, Distrik Fakfak, Kabupaten Fakfak",PAPUA BARAT,98611.0,Indonesia,81332930235.0,-2.9305033,132.292834,https://maps.google.com/?cid=0x0:0x8845a3bfe8af225c
supermarket bangunan,Toko Bahan Bangunan,Toko Idaman,"387C+43P, Dana Weria, Distrik Fakfak Tengah, Kabupaten Fakfak, Papua Bar. 98611","Dana Weria, Distrik Fakfak Tengah, Kabupaten Fakfak",PAPUA BARAT,98611.0,Indonesia,81233333193.0,-2.9371717,132.3201884,https://maps.google.com/?cid=0x0:0xb250f5bbd07b5204
supermarket bangunan,Toko Bahan Bangunan,TOKO BANGUNAN DIKA JAYA,"Jl. Dermaga Aikai. Enarotali Distrik Paniai Timur Kabupaten Paniai. Papua, Aikai, Paniai Tim., Enarotali, Papua 98711","Aikai, Paniai Tim., Enarotali",PAPUA BARAT,98711.0,Indonesia,81935935177.0,-3.9309089,136.3727901,https://maps.google.com/?cid=0x0:0x814ba48a8059765f
supermarket bangunan,Toko Bahan Bangunan,Toko Bangunan SUMBER JAYA,"Jl. Hasanuddin, Kamoro Jaya, Kec. Mimika Baru, Kabupaten Mimika, Papua 99971","Kamoro Jaya, Kec. Mimika Baru, Kabupaten Mimika",PAPUA BARAT,99971.0,Indonesia,8114988263.0,-4.5643753,136.8653513,https://maps.google.com/?cid=0x0:0xf69f14940b9de223
supermarket bangunan,Pasar bahan bangunan,Toko Colours Bangunan Hamadi,"Jl. Amphibi, Hamadi, Distrik Jayapura Selatan, Kota Jayapura, Papua","Kota Jayapura, Papua",PAPUA BARAT,,Indonesia,85827622766.0,-2.5646794,140.7103928,https://maps.google.com/?cid=0x0:0xd4e4236a70db6e25
supermarket bangunan,supermarket bangunan,Distrik Sausapor,"Kabupaten Tambrauw, Papua Bar.","Kabupaten Tambrauw, Papua Bar.",PAPUA BARAT,,Indonesia,,-0.496052,132.0874738,https://maps.google.com/?cid=0x0:0x22b76922b3bd09b1
supermarket bangunan,Toko Bahan Bangunan,Supermarket Multi Bangunan,"Jl Baru No.98, Wai Mhorock, Abepura, Jayapura City, Papua 99225","Wai Mhorock, Abepura, Jayapura City",PAPUA BARAT,99225.0,Indonesia,967588677.0,-2.6077336,140.6742812,https://maps.google.com/?cid=0x0:0x3b19f301c68f1d6f
supermarket bangunan,supermarket bangunan,Kios Akbar,"F3XM+7XM, Emaos, Distrik Sausapor, Kabupaten Tambrauw, Papua Bar. 98473","Emaos, Distrik Sausapor, Kabupaten Tambrauw",PAPUA BARAT,98473.0,Indonesia,,-0.5019154,132.0840385,https://maps.google.com/?cid=0x0:0x26d282873f715385
supermarket bangunan,supermarket bangunan,Papua Bar. 98372,"Kabupaten Manokwari, Papua Bar.","Kabupaten Manokwari, Papua Bar.",PAPUA BARAT,,Indonesia,,-0.9989582,133.0194897,https://maps.google.com/?cid=0x0:0xd3aecb81246ce306
supermarket bangunan,Toko Bahan Bangunan,Supermarket Multi Bangunan,"Jl Baru No.98, Wai Mhorock, Abepura, Jayapura City, Papua 99225","Wai Mhorock, Abepura, Jayapura City",PAPUA BARAT,99225.0,Indonesia,967588677.0,-2.6077336,140.6742812,https://maps.google.com/?cid=0x0:0x3b19f301c68f1d6f
supermarket bangunan,Toko Elektronik,Toko Bangunan Sumber Baru,"SP3, Aimasi, Jl. Poros, Distrik Prafi, Kabupaten Manokwari, Papua Bar. 98356","Aimasi, Jl. Poros, Distrik Prafi, Kabupaten Manokwari",PAPUA BARAT,98356.0,Indonesia,81234807007.0,-0.883667,133.820223,https://maps.google.com/?cid=0x0:0x7475be84d164c6b6
supermarket bangunan,Toko Bahan Bangunan,"Papua Bangunan, CV PAPUA ABADI","Jl. Basuki Rahmat No.780, Klawuyuk, Distrik Sorong Timur, Kota Sorong, Papua Bar. 98416","Klawuyuk, Distrik Sorong Timur, Kota Sorong",PAPUA BARAT,98416.0,Indonesia,81332017550.0,-0.8954087,131.3186922,https://maps.google.com/?cid=0x0:0x851804bc3aa7f033
supermarket bangunan,Toko Bahan Bangunan,Toko Jaya Bangunan,"Jalan Irian, Mariaderi, Kec. Yapen Sel., Kabupaten Kepulauan Yapen, Papua 98213","Mariaderi, Kec. Yapen Sel., Kabupaten Kepulauan Yapen",PAPUA BARAT,98213.0,Indonesia,,-1.8785266,136.2266312,https://maps.google.com/?cid=0x0:0x2b54bf2ee8c62869
supermarket bangunan,Toko Swalayan,Toko Depo Bangunan,"379V+Q4W, Fak Fak Selatan, Distrik Fakfak, Kabupaten Fakfak, Papua Bar. 98611","Fak Fak Selatan, Distrik Fakfak, Kabupaten Fakfak",PAPUA BARAT,98611.0,Indonesia,81332930235.0,-2.9305033,132.292834,https://maps.google.com/?cid=0x0:0x8845a3bfe8af225c
supermarket bangunan,Toko Bahan Bangunan,SM BANGUNAN (SUPERMARKET BANGUNAN),"Sukatani, Kec. Cisoka, Kabupaten Tangerang, Banten 15730","Kec. Cisoka, Kabupaten Tangerang",PAPUA BARAT,15730.0,Indonesia,81319503545.0,-6.269409,106.4222065,https://maps.google.com/?cid=0x0:0xf1979a6eb99dc96
supermarket bangunan,supermarket bangunan,Toko Mitra Bangunan,"8F8G+WJ5, Karubaga, Kec. Karubaga, Kabupaten Tolikara, Papua 99567","Karubaga, Kec. Karubaga, Kabupaten Tolikara",PAPUA BARAT,99567.0,Indonesia,81317225643.0,-3.682733,138.4766089,https://maps.google.com/?cid=0x0:0x94f019f9132886e9
supermarket bangunan,Toko Bahan Bangunan,DEPO BANGUNAN SINAR MATAHARI,"379X+243, Jl. Fakfak - Torea, Wagom Sel., Distrik Fakfak, Kabupaten Fakfak, Papua Bar. 98651","Jl. Fakfak - Torea, Wagom Sel., Distrik Fakfak, Kabupaten Fakfak",PAPUA BARAT,98651.0,Indonesia,81232387999.0,-2.9324935,132.2978043,https://maps.google.com/?cid=0x0:0x35e53a9d40e95e48
supermarket bangunan,Toko Perlengkapan Rumah,Toko Bangunan URI,"Q93M+R2X, Uri, Kec. Waropen Bawah, Kabupaten Waropen, Papua 98261","Uri, Kec. Waropen Bawah, Kabupaten Waropen",PAPUA BARAT,98261.0,Indonesia,,-2.24502,136.382778,https://maps.google.com/?cid=0x0:0xedc722ce6d2e6662
supermarket bangunan,Toko Bahan Bangunan,PAPUA BANGUNAN,"42GX+945, Wosi, Kec. Manokwari Bar., Kabupaten Manokwari, Papua Bar. 98312","Wosi, Kec. Manokwari Bar., Kabupaten Manokwari",PAPUA BARAT,98312.0,Indonesia,82198055550.0,-0.874101,134.0478473,https://maps.google.com/?cid=0x0:0x2c3683b193d9430f
supermarket bangunan,Toko Bahan Bangunan,Toko bangunan abadi 2,"HRGF+HG5, Waisai, Kec. Waigeo Sel., Kabupaten Raja Ampat, Papua Bar. 98482","Waisai, Kec. Waigeo Sel., Kabupaten Raja Ampat",PAPUA BARAT,98482.0,Indonesia,82175242539.0,-0.4236212,130.8238502,https://maps.google.com/?cid=0x0:0xb39b3321d3629975
supermarket bangunan,Toko Bahan Bangunan,Toko Bangunan,"Jl. Gn. Salju No.70, Amban, Kec. Manokwari Bar., Kabupaten Manokwari, Papua Bar. 98314","Amban, Kec. Manokwari Bar., Kabupaten Manokwari",PAPUA BARAT,98314.0,Indonesia,,-0.8378489,134.0648609,https://maps.google.com/?cid=0x0:0x39e90745f521cce
supermarket bangunan,Toko Bahan Bangunan,Gudang Toko Depo Bangunan,"37FJ+7G5, Jl. Fakfak - Torea, Tanama, Distrik Fakfak, Kabupaten Fakfak, Papua Bar. 98614","Jl. Fakfak - Torea, Tanama, Distrik Fakfak, Kabupaten Fakfak",PAPUA BARAT,98614.0,Indonesia,,-2.9268666,132.2813702,https://maps.google.com/?cid=0x0:0x605ba6cbab94e804
supermarket bangunan,supermarket bangunan,Distrik Syujak,"Kabupaten Tambrauw, Papua Bar.","Kabupaten Tambrauw, Papua Bar.",PAPUA BARAT,,Indonesia,,-0.7852432,132.4121441,https://maps.google.com/?cid=0x0:0x7dd0acee1cc8bcaa
supermarket bangunan,Toko Bahan Bangunan,Supermarket Multi Bangunan,"Jl Baru No.98, Wai Mhorock, Abepura, Jayapura City, Papua 99225","Wai Mhorock, Abepura, Jayapura City",PAPUA BARAT,99225.0,Indonesia,967588677.0,-2.6077336,140.6742812,https://maps.google.com/?cid=0x0:0x3b19f301c68f1d6f
supermarket bangunan,Toko Bahan Bangunan,"Papua Bangunan, CV PAPUA ABADI","Jl. Basuki Rahmat No.780, Klawuyuk, Distrik Sorong Timur, Kota Sorong, Papua Bar. 98416","Klawuyuk, Distrik Sorong Timur, Kota Sorong",PAPUA BARAT,98416.0,Indonesia,81332017550.0,-0.8954087,131.3186922,https://maps.google.com/?cid=0x0:0x851804bc3aa7f033
supermarket bangunan,Toko Bahan Bangunan,Toko Jaya Bangunan,"Jalan Irian, Mariaderi, Kec. Yapen Sel., Kabupaten Kepulauan Yapen, Papua 98213","Mariaderi, Kec. Yapen Sel., Kabupaten Kepulauan Yapen",PAPUA BARAT,98213.0,Indonesia,,-1.8785266,136.2266312,https://maps.google.com/?cid=0x0:0x2b54bf2ee8c62869
supermarket bangunan,Toko bahan makanan,SBA (Supermarket Bangunan Abadi),"Jl. Pd. Kacang No.88B, Pd. Kacang Bar., Kec. Pd. Aren, Kota Tangerang Selatan, Banten 15226","Pd. Kacang Bar., Kec. Pd. Aren, Kota Tangerang Selatan",PAPUA BARAT,15226.0,Indonesia,2173460185.0,-6.254577,106.688324,https://maps.google.com/?cid=0x0:0x370ec3ee4dda53b
supermarket bangunan,Toko Bahan Bangunan,Toko Rahayu Babo,"FF52+F2R, Unnamed Road, Nusei, Babo, Kabupaten Teluk Bintuni, Papua Bar. 98363","Unnamed Road, Nusei, Babo, Kabupaten Teluk Bintuni",PAPUA BARAT,98363.0,Indonesia,85244200777.0,-2.5412733,133.45003,https://maps.google.com/?cid=0x0:0x2d6ca9cad594f391
supermarket bangunan,Toko Bahan Bangunan,Supermarket Multi Bangunan,"Jl Baru No.98, Wai Mhorock, Abepura, Jayapura City, Papua 99225","Wai Mhorock, Abepura, Jayapura City",PAPUA BARAT,99225.0,Indonesia,967588677.0,-2.6077336,140.6742812,https://maps.google.com/?cid=0x0:0x3b19f301c68f1d6f
supermarket bangunan,Toko Bahan Bangunan,Padma Bangunan,"Wai Mhorock, Kec. Abepura, Kota Jayapura, Papua 99225","Kec. Abepura, Kota Jayapura",PAPUA BARAT,99225.0,Indonesia,9675180108.0,-2.6096427,140.6725314,https://maps.google.com/?cid=0x0:0x908e38e219cfc28
supermarket bangunan,Grosir bahan konstruksi,Supermarket Sumber Bangunan,"J5GG+HC7, Sukamahi, Kec. Cikarang Pusat, Kabupaten Bekasi, Jawa Barat 17530","Sukamahi, Kec. Cikarang Pusat, Kabupaten Bekasi",PAPUA BARAT,17530.0,Indonesia,,-6.3735753,107.1760423,https://maps.google.com/?cid=0x0:0x6a22acadf7672133
supermarket bangunan,supermarket bangunan,Supermarket Bahan Bangunan Bekasi,"Gg. Nurul Imam 3 No.1, Jl. Jatimulya Raya Blok Gg, Nurul Imam 3 No.9, Jatimulya, Tambun Selatan, Bekasi Regency, West Java 17510","Jl. Jatimulya Raya Blok Gg, Nurul Imam 3 No.9, Jatimulya, Tambun Selatan, Bekasi Regency",PAPUA BARAT,17510.0,Indonesia,2182438644.0,-6.2668906,107.0182388,https://maps.google.com/?cid=0x0:0xe93a8cfd2cacc437
