Category,Real Category,Business Name,Address,City,State,Postal Code,Country,Phone,Latitude,Longitude,Map Link
mall,Pusat Perbelanjaan,Puri Indah Mall,"Jl. Puri Agung No.1, Kembangan Sel., Kec. Kembangan, Kota Jakarta Barat, Daerah Khusus Ibukota Jakarta 11610","Kembangan Sel., Kec. Kembangan, Kota Jakarta Barat",PAPUA BARAT,11610.0,Indonesia,215822582.0,-6.1887759,106.7347896,https://maps.google.com/?cid=0x0:0x6653aecc17740a12
mall,Pusat Perbelanjaan,Lippo Mall Puri,"Jl. Puri Indah Raya Blok U 1, RT.3/RW.2, Kembangan Sel., Kec. Kembangan, Kota Jakarta Barat, Daerah Khusus Ibukota Jakarta 11610","RT.3/RW.2, Kembangan Sel., Kec. Kembangan, Kota Jakarta Barat",PAPUA BARAT,11610.0,Indonesia,2129111111.0,-6.1884554,106.7389094,https://maps.google.com/?cid=0x0:0x41cca4768f8bf65b
mall,Toko,Miniso,"Jl. Puri Agung 132, RT.1/RW.2, South Kembangan, Kembangan, West Jakarta City, Jakarta 11610","RT.1/RW.2, South Kembangan, Kembangan, West Jakarta City",PAPUA BARAT,11610.0,Indonesia,,-6.1882425,106.7334451,https://maps.google.com/?cid=0x0:0x19c73531024ba1e7
mall,Restoran,HokBen - Puri Indah Mall,"Jl. Puri Agung F2241, RT.1/RW.2, South Kembangan, Kembangan, West Jakarta City, Jakarta 11610","RT.1/RW.2, South Kembangan, Kembangan, West Jakarta City",PAPUA BARAT,11610.0,Indonesia,211500505.0,-6.1885537,106.7342977,https://maps.google.com/?cid=0x0:0x2ba200ac07b52a3c
mall,Toko Ponsel,Samsung PIM (Puri Indah Mall),"Puri Indah Mall, lantai 1 145 - 146, Kota Jakarta Barat, Daerah Khusus Ibukota Jakarta 11610","lantai 1 145 - 146, Kota Jakarta Barat",PAPUA BARAT,11610.0,Indonesia,8175721971.0,-6.1890286,106.7334879,https://maps.google.com/?cid=0x0:0x18788b3bce781cdb
mall,Layanan produk berbulu,XL Center Puri Indah Mal (XL-Axis Center),"Puri Indah Mall, Jl. Puri Agung No.1 Lt. 1, RT.1/RW.2, Kembangan Sel., Kec. Kembangan, Kota Jakarta Barat, Daerah Khusus Ibukota Jakarta 11610","Jl. Puri Agung No.1 Lt. 1, RT.1/RW.2, Kembangan Sel., Kec. Kembangan, Kota Jakarta Barat",PAPUA BARAT,11610.0,Indonesia,,-6.188487,106.7335586,https://maps.google.com/?cid=0x0:0xa19eb022553e9703
mall,Pujasera,Food Court Puri Indah Mall,"Blok, Jl. Puri Lkr. Luar Blok T4 No.1, RT.1/RW.2, South Kembangan, Kembangan, West Jakarta City, Jakarta 11610","Jl. Puri Lkr. Luar Blok T4 No.1, RT.1/RW.2, South Kembangan, Kembangan, West Jakarta City",PAPUA BARAT,11610.0,Indonesia,,-6.188876,106.7337073,https://maps.google.com/?cid=0x0:0x8528e93aee99e14f
mall,mall,Papua Bar. 98473,"Kabupaten Tambrauw, Papua Bar.","Kabupaten Tambrauw, Papua Bar.",PAPUA BARAT,,Indonesia,,-0.5563335,132.3938375,https://maps.google.com/?cid=0x0:0x105d75abdd98e1ee
mall,Toko Kue,CV ABUNMART INDO PRIMA (Abun Aneka Plastik OLSHOP),"GERBANG ABUN, Jl. Kubur Islam No.12A, RT.9/RW.10, Grogol Sel., Kec. Kby. Lama, Kota Jakarta Selatan, Daerah Khusus Ibukota Jakarta 12220","Jl. Kubur Islam No.12A, RT.9/RW.10, Grogol Sel., Kec. Kby. Lama, Kota Jakarta Selatan",PAPUA BARAT,12220.0,Indonesia,8119412179.0,-6.2306881,106.7826985,https://maps.google.com/?cid=0x0:0x28facb10163a1603
mall,Pemasok Produk Plastik,TOKO PLASTIK ANPLAS,"Jl. Sawo II No.1, RT.2/RW.3, Cipete Utara, Kec. Kby. Baru, Kota Jakarta Selatan, Daerah Khusus Ibukota Jakarta 12150","RT.2/RW.3, Cipete Utara, Kec. Kby. Baru, Kota Jakarta Selatan",PAPUA BARAT,12150.0,Indonesia,81227898221.0,-6.2620402,106.8003551,https://maps.google.com/?cid=0x0:0x599a6e3c24d2e134
mall,Pusat Perbelanjaan,Mall Taman Anggrek,"Jl. Letjen S. Parman, RT.12/RW.1, Tj. Duren Sel., Kec. Grogol petamburan, Kota Jakarta Barat, Daerah Khusus Ibukota Jakarta 11470","RT.12/RW.1, Tj. Duren Sel., Kec. Grogol petamburan, Kota Jakarta Barat",PAPUA BARAT,11470.0,Indonesia,215643777.0,-6.1782936,106.7924023,https://maps.google.com/?cid=0x0:0xb287bf108f4ef441
mall,Pusat Perbelanjaan,Central Park,"Jl. Letjen S. Parman No.Kav. 28, Tj. Duren Sel., Kec. Grogol petamburan, Kota Jakarta Barat, Daerah Khusus Ibukota Jakarta 11470","Tj. Duren Sel., Kec. Grogol petamburan, Kota Jakarta Barat",PAPUA BARAT,11470.0,Indonesia,2156989999.0,-6.1771373,106.7909788,https://maps.google.com/?cid=0x0:0xe816d65037c3207a
mall,Toko Pakaian,Kingkoil - Central Park,"Sogo Central park, Jl. S. Parman kav No.28 lantai 2, Tj. Duren Sel., Kec. Grogol petamburan, Kota Jakarta Barat, Daerah Khusus Ibukota Jakarta 11470","Jl. S. Parman kav No.28 lantai 2, Tj. Duren Sel., Kec. Grogol petamburan, Kota Jakarta Barat",PAPUA BARAT,11470.0,Indonesia,85890768806.0,-6.1783433,106.7901535,https://maps.google.com/?cid=0x0:0x38928129d6be9cc3
mall,Taman Kota,Tribeca Park,"Letjen S. Parman No.28, RT.12/RW.6, Tj. Duren Sel., Kec. Grogol petamburan, Kota Jakarta Barat, Daerah Khusus Ibukota Jakarta 11470","RT.12/RW.6, Tj. Duren Sel., Kec. Grogol petamburan, Kota Jakarta Barat",PAPUA BARAT,11470.0,Indonesia,,-6.1772515,106.7904697,https://maps.google.com/?cid=0x0:0xf771f6dc512bd1a1
mall,Perusahaan elektronik,PT. Indotara Persada - Marketing Office,"DKI, Central Park, APL Tower 6th Floor No. 6, RT.12/RW.7, Daerah Khusus Ibukota Jakarta 11440","Central Park, APL Tower 6th Floor No. 6, RT.12/RW.7",PAPUA BARAT,11440.0,Indonesia,2150203030.0,-6.1762896,106.7919234,https://maps.google.com/?cid=0x0:0x400fc3464381299e
mall,Pusat Perbelanjaan,Mega Mall Sorong,"Jalan Basuki Rahmat Klabulu, Malaimsimsa, Malaingkedi, Kec. Sorong Utara, Kota Sorong, Papua Bar. 98412","Malaimsimsa, Malaingkedi, Kec. Sorong Utara, Kota Sorong",PAPUA BARAT,98412.0,Indonesia,,-0.8873097,131.3012842,https://maps.google.com/?cid=0x0:0x364e52ce8985aa7
mall,Pusat Perbelanjaan,Mal Sorong,"479G+369, Klademak, Distrik Sorong, Kota Sorong, Papua Bar. 98412","Klademak, Distrik Sorong, Kota Sorong",PAPUA BARAT,98412.0,Indonesia,,-0.8823414,131.2755957,https://maps.google.com/?cid=0x0:0x4efad982776d0ca5
mall,Makanan Siap Saji,KFC MEGA,"Jalan BASUKI RAHMAT NO. 1 KM. 8.5, Malaingkedi, Kec. Sorong Utara, Kota Sorong, Papua Bar. 98412","Malaingkedi, Kec. Sorong Utara, Kota Sorong",PAPUA BARAT,98412.0,Indonesia,2114022.0,-0.88741,131.3014311,https://maps.google.com/?cid=0x0:0x3b28231f1cfe08ef
mall,Pusat Perbelanjaan,Thamrin City,"Jl. Thamrin Boulevard, Kb. Melati, Kecamatan Tanah Abang, Kota Jakarta Pusat, Daerah Khusus Ibukota Jakarta 10230","Kb. Melati, Kecamatan Tanah Abang, Kota Jakarta Pusat",PAPUA BARAT,10230.0,Indonesia,2131990988.0,-6.1939374,106.8161005,https://maps.google.com/?cid=0x0:0x1b60abd2e0b3d6d1
mall,Pusat Perbelanjaan,Mall thamrin city,"Jl. Tlk. Betung Blvd, Kb. Melati, Kecamatan Tanah Abang, Kota Jakarta Pusat, Daerah Khusus Ibukota Jakarta 10230","Kb. Melati, Kecamatan Tanah Abang, Kota Jakarta Pusat",PAPUA BARAT,10230.0,Indonesia,,-6.1943235,106.8165473,https://maps.google.com/?cid=0x0:0x6d88d2cf987c6d20
mall,Pusat Perbelanjaan,Belakang Manokwari city mall,"43W7+F3H, Manokwari Bar., Kec. Manokwari Bar., Kabupaten Manokwari, Papua Bar. 98312","Manokwari Bar., Kec. Manokwari Bar., Kabupaten Manokwari",PAPUA BARAT,98312.0,Indonesia,,-0.8538079,134.0627452,https://maps.google.com/?cid=0x0:0x59f633fd28048da4
mall,Pusat Perbelanjaan,Manokwari City Mall (MCM),"Jl. Yos Sudarso Manokwari, Manokwari Bar., Kec. Manokwari Bar., Kabupaten Manokwari, Papua Bar. 98312","Manokwari Bar., Kec. Manokwari Bar., Kabupaten Manokwari",PAPUA BARAT,98312.0,Indonesia,8114918899.0,-0.85693,134.0678051,https://maps.google.com/?cid=0x0:0x7e7b90df1d787501
mall,Komplek perumahan,Fanindi Pantai,"43R9+J9P Bar, Padarni, Kec. Manokwari Bar., Kabupaten Manokwari, Papua Bar. 98312","Padarni, Kec. Manokwari Bar., Kabupaten Manokwari",PAPUA BARAT,98312.0,Indonesia,81344477231.0,-0.8584193,134.0684588,https://maps.google.com/?cid=0x0:0xfea55ca67440bcde
mall,mall,Papua Bar. 98372,"Kabupaten Manokwari, Papua Bar.","Kabupaten Manokwari, Papua Bar.",PAPUA BARAT,,Indonesia,,-0.9989582,133.0194897,https://maps.google.com/?cid=0x0:0xd3aecb81246ce306
mall,Pusat Perbelanjaan,Kalibata city square,"Jl. Raya Kalibata No.1, Rawajati, Kec. Pancoran, Kota Jakarta Selatan, Daerah Khusus Ibukota Jakarta 12750","Rawajati, Kec. Pancoran, Kota Jakarta Selatan",PAPUA BARAT,12750.0,Indonesia,,-6.2562715,106.8521776,https://maps.google.com/?cid=0x0:0x59db28d93506d0e6
mall,Pusat Perbelanjaan,Kebayoran Park Mall,"Jl. Ciledug Raya No.1, RT.9/RW.5, Ulujami, Kec. Pesanggrahan, Selatan, Kota Jakarta Selatan, Daerah Khusus Ibukota Jakarta 12250","RT.9/RW.5, Ulujami, Kec. Pesanggrahan, Selatan, Kota Jakarta Selatan",PAPUA BARAT,12250.0,Indonesia,85771653659.0,-6.237967,106.7643587,https://maps.google.com/?cid=0x0:0xe9f9f79be7b4408e
mall,Pusat Perbelanjaan,Mall Metro Cipulir,"Jl. Ciledug Raya No.1, Ulujami, Kec. Pesanggrahan, Kota Jakarta Selatan, Daerah Khusus Ibukota Jakarta 12250","Ulujami, Kec. Pesanggrahan, Kota Jakarta Selatan",PAPUA BARAT,12250.0,Indonesia,85771653659.0,-6.237967,106.7643587,https://maps.google.com/?cid=0x0:0xd4d9909f1fb9456f
mall,Kedai Kopi,One Belpark Mall,"Jl. RS. Fatmawati Raya No.1, RT.1/RW.1, Pd. Labu, Kec. Cilandak, Kota Jakarta Selatan, Daerah Khusus Ibukota Jakarta 12450","RT.1/RW.1, Pd. Labu, Kec. Cilandak, Kota Jakarta Selatan",PAPUA BARAT,12450.0,Indonesia,2122706888.0,-6.3040848,106.7948774,https://maps.google.com/?cid=0x0:0x50cd4b3afac2371
mall,Pusat Perbelanjaan,Kebayoran Park Mall  Hotel,"Jl. Ciledug Raya No.1, Ulujami, Kec. Pesanggrahan, Kota Jakarta Selatan, Daerah Khusus Ibukota Jakarta 12250","Ulujami, Kec. Pesanggrahan, Kota Jakarta Selatan",PAPUA BARAT,12250.0,Indonesia,217222000.0,-6.2379778,106.7642129,https://maps.google.com/?cid=0x0:0x7cd455dd304ff13a
mall,mall,Distrik Fef,"Kabupaten Tambrauw, Papua Bar.","Kabupaten Tambrauw, Papua Bar.",PAPUA BARAT,,Indonesia,,-0.7798216,132.3665985,https://maps.google.com/?cid=0x0:0x99889d8cffaa571e
mall,Pusat Perbelanjaan,Belakang Manokwari city mall,"43W7+F3H, Manokwari Bar., Kec. Manokwari Bar., Kabupaten Manokwari, Papua Bar. 98312","Manokwari Bar., Kec. Manokwari Bar., Kabupaten Manokwari",PAPUA BARAT,98312.0,Indonesia,,-0.8538079,134.0627452,https://maps.google.com/?cid=0x0:0x59f633fd28048da4
mall,Pusat Perbelanjaan,Manokwari City Mall (MCM),"Jl. Yos Sudarso Manokwari, Manokwari Bar., Kec. Manokwari Bar., Kabupaten Manokwari, Papua Bar. 98312","Manokwari Bar., Kec. Manokwari Bar., Kabupaten Manokwari",PAPUA BARAT,98312.0,Indonesia,8114918899.0,-0.85693,134.0678051,https://maps.google.com/?cid=0x0:0x7e7b90df1d787501
mall,Komplek perumahan,Fanindi Pantai,"43R9+J9P Bar, Padarni, Kec. Manokwari Bar., Kabupaten Manokwari, Papua Bar. 98312","Padarni, Kec. Manokwari Bar., Kabupaten Manokwari",PAPUA BARAT,98312.0,Indonesia,81344477231.0,-0.8584193,134.0684588,https://maps.google.com/?cid=0x0:0xfea55ca67440bcde
mall,mall,Distrik Kwoor,"Kabupaten Tambrauw, Papua Bar.","Kabupaten Tambrauw, Papua Bar.",PAPUA BARAT,,Indonesia,,-0.4621685,132.2908119,https://maps.google.com/?cid=0x0:0xc9babc4648539c74
mall,Pusat Perbelanjaan,Manokwari City Mall (MCM),"Jl. Yos Sudarso Manokwari, Manokwari Bar., Kec. Manokwari Bar., Kabupaten Manokwari, Papua Bar. 98312","Manokwari Bar., Kec. Manokwari Bar., Kabupaten Manokwari",PAPUA BARAT,98312.0,Indonesia,8114918899.0,-0.85693,134.0678051,https://maps.google.com/?cid=0x0:0x7e7b90df1d787501
mall,Pusat Perbelanjaan,Belakang Manokwari city mall,"43W7+F3H, Manokwari Bar., Kec. Manokwari Bar., Kabupaten Manokwari, Papua Bar. 98312","Manokwari Bar., Kec. Manokwari Bar., Kabupaten Manokwari",PAPUA BARAT,98312.0,Indonesia,,-0.8538079,134.0627452,https://maps.google.com/?cid=0x0:0x59f633fd28048da4
mall,Komplek perumahan,Fanindi Pantai,"43R9+J9P Bar, Padarni, Kec. Manokwari Bar., Kabupaten Manokwari, Papua Bar. 98312","Padarni, Kec. Manokwari Bar., Kabupaten Manokwari",PAPUA BARAT,98312.0,Indonesia,81344477231.0,-0.8584193,134.0684588,https://maps.google.com/?cid=0x0:0xfea55ca67440bcde
mall,mall,Miyah,"Kabupaten Tambrauw, Papua Bar.","Kabupaten Tambrauw, Papua Bar.",PAPUA BARAT,,Indonesia,,-0.7502666,132.6684924,https://maps.google.com/?cid=0x0:0x714bb316eb3dbe5c
mall,Toko,Lapak ''Mbak Mi'',"4RF6+4X3, Waseki Indah, Distrik Prafi, Kabupaten Manokwari, Papua Bar. 98356","Waseki Indah, Distrik Prafi, Kabupaten Manokwari",PAPUA BARAT,98356.0,Indonesia,,-0.8772362,133.8124245,https://maps.google.com/?cid=0x0:0xe6a67d1ebd34d292
mall,Pusat Perbelanjaan,Fita,"6Q7V+X3G, Unnamed Road, Kali Merah, Distrik Masni, Kabupaten Manokwari, Papua Bar. 98357","Unnamed Road, Kali Merah, Distrik Masni, Kabupaten Manokwari",PAPUA BARAT,98357.0,Indonesia,,-0.7850552,133.7926999,https://maps.google.com/?cid=0x0:0xe6bb3d6961a3981c
mall,Toko Aksesori Pakaian,maisyah shop,"Jl Komjen pol m jasin Jl Lebak gg.belimbing 2 rt04/09 no.115, Tugu, Kec. Cimanggis, Kota Depok, Jawa Barat 16451","Tugu, Kec. Cimanggis, Kota Depok",PAPUA BARAT,16451.0,Indonesia,85886796970.0,-6.3574524,106.8391352,https://maps.google.com/?cid=0x0:0xa7b14709a6feab2b
mall,Pusat Perbelanjaan,Warung M.yahya Mugni,"GR62+MPP, Jl. Swadaya, Bojonggede, Kecamatan Bojonggede, Kabupaten Bogor, Jawa Barat 16922","Jl. Swadaya, Bojonggede, Kecamatan Bojonggede, Kabupaten Bogor",PAPUA BARAT,16922.0,Indonesia,87874321399.0,-6.4882859,106.8018312,https://maps.google.com/?cid=0x0:0x37bb17aef881f25e
mall,Pusat Perbelanjaan,Blok M Square,"Jl. Melawai 5, RT.3/RW.1, Melawai, Kec. Kby. Baru, Kota Jakarta Selatan, Daerah Khusus Ibukota Jakarta 12160","RT.3/RW.1, Melawai, Kec. Kby. Baru, Kota Jakarta Selatan",PAPUA BARAT,12160.0,Indonesia,2172802000.0,-6.244593,106.800649,https://maps.google.com/?cid=0x0:0x8f10b22d03d7c9db
mall,Toko Kosmetik,My Way,"Sumberjaya, Kec. Tambun Sel., Kabupaten Bekasi, Jawa Barat 17510","Kec. Tambun Sel., Kabupaten Bekasi",PAPUA BARAT,17510.0,Indonesia,85211305586.0,-6.2277872,107.08852,https://maps.google.com/?cid=0x0:0xf87c04b202d2df14
mall,Toko bahan makanan,MyJE Store,"Perumahan Graha Asri 1 Residence, Bengle, Kec. Majalaya, Karawang, Jawa Barat 41371","Bengle, Kec. Majalaya, Karawang",PAPUA BARAT,41371.0,Indonesia,85724112602.0,-6.3187733,107.3532491,https://maps.google.com/?cid=0x0:0xfbbb14ffe29c34fe
mall,Pusat Perbelanjaan,Manokwari City Mall (MCM),"Jl. Yos Sudarso Manokwari, Manokwari Bar., Kec. Manokwari Bar., Kabupaten Manokwari, Papua Bar. 98312","Manokwari Bar., Kec. Manokwari Bar., Kabupaten Manokwari",PAPUA BARAT,98312.0,Indonesia,8114918899.0,-0.85693,134.0678051,https://maps.google.com/?cid=0x0:0x7e7b90df1d787501
mall,Pusat Perbelanjaan,Belakang Manokwari city mall,"43W7+F3H, Manokwari Bar., Kec. Manokwari Bar., Kabupaten Manokwari, Papua Bar. 98312","Manokwari Bar., Kec. Manokwari Bar., Kabupaten Manokwari",PAPUA BARAT,98312.0,Indonesia,,-0.8538079,134.0627452,https://maps.google.com/?cid=0x0:0x59f633fd28048da4
mall,Komplek perumahan,Fanindi Pantai,"43R9+J9P Bar, Padarni, Kec. Manokwari Bar., Kabupaten Manokwari, Papua Bar. 98312","Padarni, Kec. Manokwari Bar., Kabupaten Manokwari",PAPUA BARAT,98312.0,Indonesia,81344477231.0,-0.8584193,134.0684588,https://maps.google.com/?cid=0x0:0xfea55ca67440bcde
mall,Pusat Perbelanjaan,Mall Of Indonesia,"Jl. Boulevard Bar. Raya No.12, RT.18/RW.19, Klp. Gading Bar., Kec. Klp. Gading, Jkt Utara, Daerah Khusus Ibukota Jakarta 14240","RT.18/RW.19, Klp. Gading Bar., Kec. Klp. Gading, Jkt Utara",PAPUA BARAT,14240.0,Indonesia,2145867888.0,-6.1514549,106.8918949,https://maps.google.com/?cid=0x0:0x3431c7aaadd1f1b6
mall,Pusat Perbelanjaan,Moi,"Klp. Gading Trade Centre, Jl. Pulau Putri No.2 2, RT.2/RW.9, Klp. Gading Bar., Kec. Klp. Gading, Jkt Utara, Daerah Khusus Ibukota Jakarta 14240","Jl. Pulau Putri No.2 2, RT.2/RW.9, Klp. Gading Bar., Kec. Klp. Gading, Jkt Utara",PAPUA BARAT,14240.0,Indonesia,,-6.1508529,106.8921366,https://maps.google.com/?cid=0x0:0xbfa0759132a66681
mall,Mi,BAKMI AYAM HONEY,"RVXR+WFH, Jl. Boulevard Bar. Raya, RT.18/RW.8, Klp. Gading Bar., Kec. Klp. Gading, Jkt Utara, Daerah Khusus Ibukota Jakarta 14240","Jl. Boulevard Bar. Raya, RT.18/RW.8, Klp. Gading Bar., Kec. Klp. Gading, Jkt Utara",PAPUA BARAT,14240.0,Indonesia,2124521987.0,-6.1501981,106.8912349,https://maps.google.com/?cid=0x0:0x408854199cbd835b
mall,Toko Ponsel,Samsung Service Center MOI,"Mall Of Indonesia, HATI HATI PENIPUAN MENGATASNAMAKAN SAMSUNG SERVICE CENTER, TIDAK MENERIMA PEMBAYARAN DP MELALUI TRANSFER, Jl. Boulevard Bar. Raya Lt. 2 No. A1, RT.18/RW.8, Jkt Utara, Daerah Khusus Ibukota Jakarta 14240","HATI HATI PENIPUAN MENGATASNAMAKAN SAMSUNG SERVICE CENTER, TIDAK MENERIMA PEMBAYARAN DP MELALUI TRANSFER, Jl. Boulevard Bar. Raya Lt. 2 No. A1, RT.18/RW.8, Jkt Utara",PAPUA BARAT,14240.0,Indonesia,8001128888.0,-6.1506741,106.8908571,https://maps.google.com/?cid=0x0:0xf9ffd563ffc48382
mall,China,Din Tai Fung,"Mall Of Indonesia, Jl. Boulevard Bar. Raya ground floor, West Kelapa Gading, Square, North Jakarta City, Jakarta 14240","Jl. Boulevard Bar. Raya ground floor, West Kelapa Gading, Square, North Jakarta City",PAPUA BARAT,14240.0,Indonesia,2145868001.0,-6.1506741,106.8908571,https://maps.google.com/?cid=0x0:0x3fe132ac0363f566
mall,Pusat Perbelanjaan,MOI Kelapa Gading,"Mall Of Indonesia, Jl. Boulevard Bar. Raya Lt. 2, RT.18/RW.8, Klp. Gading Bar., Kec. Klp. Gading, Jkt Utara, Daerah Khusus Ibukota Jakarta 14240","Jl. Boulevard Bar. Raya Lt. 2, RT.18/RW.8, Klp. Gading Bar., Kec. Klp. Gading, Jkt Utara",PAPUA BARAT,14240.0,Indonesia,81217393609.0,-6.1506741,106.8908571,https://maps.google.com/?cid=0x0:0x11e13e124ce7f530
mall,Pusat Perbelanjaan,Manokwari City Mall (MCM),"Jl. Yos Sudarso Manokwari, Manokwari Bar., Kec. Manokwari Bar., Kabupaten Manokwari, Papua Bar. 98312","Manokwari Bar., Kec. Manokwari Bar., Kabupaten Manokwari",PAPUA BARAT,98312.0,Indonesia,8114918899.0,-0.85693,134.0678051,https://maps.google.com/?cid=0x0:0x7e7b90df1d787501
mall,Pusat Perbelanjaan,Belakang Manokwari city mall,"43W7+F3H, Manokwari Bar., Kec. Manokwari Bar., Kabupaten Manokwari, Papua Bar. 98312","Manokwari Bar., Kec. Manokwari Bar., Kabupaten Manokwari",PAPUA BARAT,98312.0,Indonesia,,-0.8538079,134.0627452,https://maps.google.com/?cid=0x0:0x59f633fd28048da4
mall,Komplek perumahan,Fanindi Pantai,"43R9+J9P Bar, Padarni, Kec. Manokwari Bar., Kabupaten Manokwari, Papua Bar. 98312","Padarni, Kec. Manokwari Bar., Kabupaten Manokwari",PAPUA BARAT,98312.0,Indonesia,81344477231.0,-0.8584193,134.0684588,https://maps.google.com/?cid=0x0:0xfea55ca67440bcde
mall,Pusat Perbelanjaan,Tamini Square,"Jl. Taman Mini I No.1, RT.3/RW.2, Pinang Ranti, Kec. Makasar, Kota Jakarta Timur, Daerah Khusus Ibukota Jakarta 13560","RT.3/RW.2, Pinang Ranti, Kec. Makasar, Kota Jakarta Timur",PAPUA BARAT,13560.0,Indonesia,218416789.0,-6.2911849,106.8821037,https://maps.google.com/?cid=0x0:0x284d719ef134130b
mall,Pusat Perbelanjaan,Mall Tamini Square Pintu AW,"Jl. Raya Pd. Gede Jl. Pinang Ranti No.3, RT.3/RW.2, Pinang Ranti, Kec. Makasar, Kota Jakarta Timur, Daerah Khusus Ibukota Jakarta 13560","RT.3/RW.2, Pinang Ranti, Kec. Makasar, Kota Jakarta Timur",PAPUA BARAT,13560.0,Indonesia,,-6.2906592,106.882201,https://maps.google.com/?cid=0x0:0x138601441a72233a
mall,Kantor SIM,Gerai SAMSAT dan SIM Tamini Square,"Tamini Square Lt. 1, Jl. Taman Mini I No.Raya, Pinang Ranti, Kec. Makasar, Kota Jakarta Timur, Daerah Khusus Ibukota Jakarta 13560","Jl. Taman Mini I No.Raya, Pinang Ranti, Kec. Makasar, Kota Jakarta Timur",PAPUA BARAT,13560.0,Indonesia,,-6.2914446,106.8816703,https://maps.google.com/?cid=0x0:0xe9349be789bece72
mall,Pusat Perbelanjaan,Ramayana,"Jl. Taman Mini Raya, RT.3/RW.2, Pinang Ranti, Kec. Makasar, Kota Jakarta Timur, Daerah Khusus Ibukota Jakarta 13560","RT.3/RW.2, Pinang Ranti, Kec. Makasar, Kota Jakarta Timur",PAPUA BARAT,13560.0,Indonesia,2187786071.0,-6.2913862,106.8811896,https://maps.google.com/?cid=0x0:0xed1ee7ac2a80804
mall,Jepang,Hanamasa,"Pinang Ranti, Kec. Makasar, Kota Jakarta Timur, Daerah Khusus Ibukota Jakarta 13560","Kec. Makasar, Kota Jakarta Timur",PAPUA BARAT,13560.0,Indonesia,2187782781.0,-6.2905963,106.8811879,https://maps.google.com/?cid=0x0:0x25ad4c7ef8183bfb
mall,Toko Kamera,Index Kamera,"L2, SS , Tamini Square , JL. Raya Taman Mini 1, Pinang Ranti , 15 , Makasar , 13560 Jakarta Timur , DKI Jakarta, RT.3/RW.2, Pinang Ranti, Makasar, East Jakarta City, Jakarta 13560",Jakarta Timur ,PAPUA BARAT,13560.0,Indonesia,2187785888.0,-6.291142,106.881147,https://maps.google.com/?cid=0x0:0x4a393d62f0f538c8
mall,mall,Distrik Sausapor,"Kabupaten Tambrauw, Papua Bar.","Kabupaten Tambrauw, Papua Bar.",PAPUA BARAT,,Indonesia,,-0.496052,132.0874738,https://maps.google.com/?cid=0x0:0x22b76922b3bd09b1
mall,Toko,toko TRIA sausapor,"Jln .poros warfaknik, werur, Distrik Sausapor, Kabupaten Tambrauw, Papua Bar.","Kabupaten Tambrauw, Papua Bar.",PAPUA BARAT,,Indonesia,81343383345.0,-0.4971154,132.0865368,https://maps.google.com/?cid=0x0:0xb1ffdb2bf1c868d8
mall,Tujuan Wisata,Pantai Sausapor,"Emaos, Distrik Sausapor, Kabupaten Tambrauw, Papua Bar. 98473","Distrik Sausapor, Kabupaten Tambrauw",PAPUA BARAT,98473.0,Indonesia,,-0.4998706,132.0787229,https://maps.google.com/?cid=0x0:0xb3c55e618eb1bda4
mall,Pusat Perbelanjaan,RAMAYANA Mall Sorong,"Jl. Wahid Hasyim 220 A-B, Jakarta, Papua Bar. 10250",Jakarta,PAPUA BARAT,10250.0,Indonesia,951332505.0,-0.8820615,131.2755023,https://maps.google.com/?cid=0x0:0x595b97e0cac05b45
mall,Pusat Perbelanjaan,Mal Sorong,"479G+369, Klademak, Distrik Sorong, Kota Sorong, Papua Bar. 98412","Klademak, Distrik Sorong, Kota Sorong",PAPUA BARAT,98412.0,Indonesia,,-0.8823414,131.2755957,https://maps.google.com/?cid=0x0:0x4efad982776d0ca5
mall,mall,Sansapore Pacific Park Beach Resort,"beach, Distrik Sausapor, Kabupaten Tambrauw, Papua Bar. 98473","Distrik Sausapor, Kabupaten Tambrauw",PAPUA BARAT,98473.0,Indonesia,81244364246.0,-0.4905207,132.0868177,https://maps.google.com/?cid=0x0:0xdc183e9fad46ec97
mall,,Pantai Werur,"H5MR+Q4X, Werur, Distrik Sausapor, Kabupaten Tambrauw, Papua Bar. 98473","Werur, Distrik Sausapor, Kabupaten Tambrauw",PAPUA BARAT,98473.0,Indonesia,,-0.4155024,132.1903445,https://maps.google.com/?cid=0x0:0x1532d5edeb6a0d99
mall,Pusat Perbelanjaan,Manokwari City Mall (MCM),"Jl. Yos Sudarso Manokwari, Manokwari Bar., Kec. Manokwari Bar., Kabupaten Manokwari, Papua Bar. 98312","Manokwari Bar., Kec. Manokwari Bar., Kabupaten Manokwari",PAPUA BARAT,98312.0,Indonesia,8114918899.0,-0.85693,134.0678051,https://maps.google.com/?cid=0x0:0x7e7b90df1d787501
mall,Pusat Perbelanjaan,Belakang Manokwari city mall,"43W7+F3H, Manokwari Bar., Kec. Manokwari Bar., Kabupaten Manokwari, Papua Bar. 98312","Manokwari Bar., Kec. Manokwari Bar., Kabupaten Manokwari",PAPUA BARAT,98312.0,Indonesia,,-0.8538079,134.0627452,https://maps.google.com/?cid=0x0:0x59f633fd28048da4
mall,Komplek perumahan,Fanindi Pantai,"43R9+J9P Bar, Padarni, Kec. Manokwari Bar., Kabupaten Manokwari, Papua Bar. 98312","Padarni, Kec. Manokwari Bar., Kabupaten Manokwari",PAPUA BARAT,98312.0,Indonesia,81344477231.0,-0.8584193,134.0684588,https://maps.google.com/?cid=0x0:0xfea55ca67440bcde
mall,Pusat Perbelanjaan,Mega Mall Sorong,"Jalan Basuki Rahmat Klabulu, Malaimsimsa, Malaingkedi, Kec. Sorong Utara, Kota Sorong, Papua Bar. 98412","Malaimsimsa, Malaingkedi, Kec. Sorong Utara, Kota Sorong",PAPUA BARAT,98412.0,Indonesia,,-0.8873097,131.3012842,https://maps.google.com/?cid=0x0:0x364e52ce8985aa7
mall,Pusat Perbelanjaan,Mal Sorong,"479G+369, Klademak, Distrik Sorong, Kota Sorong, Papua Bar. 98412","Klademak, Distrik Sorong, Kota Sorong",PAPUA BARAT,98412.0,Indonesia,,-0.8823414,131.2755957,https://maps.google.com/?cid=0x0:0x4efad982776d0ca5
mall,Makanan Siap Saji,KFC MEGA,"Jalan BASUKI RAHMAT NO. 1 KM. 8.5, Malaingkedi, Kec. Sorong Utara, Kota Sorong, Papua Bar. 98412","Malaingkedi, Kec. Sorong Utara, Kota Sorong",PAPUA BARAT,98412.0,Indonesia,2114022.0,-0.88741,131.3014311,https://maps.google.com/?cid=0x0:0x3b28231f1cfe08ef
mall,Pusat Perbelanjaan,Lotte Shopping Avenue Mall,"Jl. Prof. DR. Satrio No.Kav.3, RW.5, Kuningan, Karet Kuningan, Kecamatan Setiabudi, Kota Jakarta Selatan, Daerah Khusus Ibukota Jakarta 12940","RW.5, Kuningan, Karet Kuningan, Kecamatan Setiabudi, Kota Jakarta Selatan",PAPUA BARAT,12940.0,Indonesia,2129889292.0,-6.2233644,106.8232981,https://maps.google.com/?cid=0x0:0xe8323175da8b9770
mall,Pusat Perbelanjaan,Pondok Indah Mall 1,"Jl. Metro Pondok Indah No.Kav. 4, RT.1/RW.16, Pd. Pinang, Kec. Kby. Lama, Kota Jakarta Selatan, Daerah Khusus Ibukota Jakarta 12310","RT.1/RW.16, Pd. Pinang, Kec. Kby. Lama, Kota Jakarta Selatan",PAPUA BARAT,12310.0,Indonesia,217506750.0,-6.2652166,106.7843165,https://maps.google.com/?cid=0x0:0x682837113c4ea854
mall,Pusat Perbelanjaan,Pacific Place Mall,"Jl. Jend. Sudirman kav 52-53, Senayan, Kec. Kby. Baru, Kota Jakarta Selatan, Daerah Khusus Ibukota Jakarta 12190","Senayan, Kec. Kby. Baru, Kota Jakarta Selatan",PAPUA BARAT,12190.0,Indonesia,2151402828.0,-6.2240197,106.8101858,https://maps.google.com/?cid=0x0:0xc4a608b34b5f03cc
mall,Pusat Perbelanjaan,Pondok Indah Mall 2,"Jl. Metro Pondok Indah, Pd. Pinang, Kec. Kby. Lama, Kota Jakarta Selatan, Daerah Khusus Ibukota Jakarta 12310","Pd. Pinang, Kec. Kby. Lama, Kota Jakarta Selatan",PAPUA BARAT,12310.0,Indonesia,217506750.0,-6.2655241,106.7827928,https://maps.google.com/?cid=0x0:0x203a5d09556daf5f
mall,Pusat Perbelanjaan,Mall Plaza Senayan,"Jl. Asia Afrika No.8, RT.1/RW.3, Gelora, Kecamatan Tanah Abang, Kota Jakarta Pusat, Daerah Khusus Ibukota Jakarta 10270","RT.1/RW.3, Gelora, Kecamatan Tanah Abang, Kota Jakarta Pusat",PAPUA BARAT,10270.0,Indonesia,215725555.0,-6.2254775,106.7992649,https://maps.google.com/?cid=0x0:0x788e3a1eef75ac94
mall,Pusat Perbelanjaan,Puri Indah Mall,"Jl. Puri Agung No.1, Kembangan Sel., Kec. Kembangan, Kota Jakarta Barat, Daerah Khusus Ibukota Jakarta 11610","Kembangan Sel., Kec. Kembangan, Kota Jakarta Barat",PAPUA BARAT,11610.0,Indonesia,215822582.0,-6.1887759,106.7347896,https://maps.google.com/?cid=0x0:0x6653aecc17740a12
mall,Pusat Perbelanjaan,South Hill Mall,"3500 S Meridian, Puyallup, WA 98373, Amerika Serikat","Puyallup, WA",PAPUA BARAT,98373.0,Indonesia,12538402828.0,47.158102,-122.297266,https://maps.google.com/?cid=0x0:0xf39bf2e2a360334
mall,Pusat Perbelanjaan,ASHTA District 8,"Jl. Senopati No.83, Senayan, Kec. Kby. Baru, Kota Jakarta Selatan, Daerah Khusus Ibukota Jakarta 12190","Senayan, Kec. Kby. Baru, Kota Jakarta Selatan",PAPUA BARAT,12190.0,Indonesia,2150262888.0,-6.229976,106.8070846,https://maps.google.com/?cid=0x0:0x1042cab307c13c5f
mall,Pusat Perbelanjaan,Belakang Manokwari city mall,"43W7+F3H, Manokwari Bar., Kec. Manokwari Bar., Kabupaten Manokwari, Papua Bar. 98312","Manokwari Bar., Kec. Manokwari Bar., Kabupaten Manokwari",PAPUA BARAT,98312.0,Indonesia,,-0.8538079,134.0627452,https://maps.google.com/?cid=0x0:0x59f633fd28048da4
mall,Pusat Perbelanjaan,Manokwari City Mall (MCM),"Jl. Yos Sudarso Manokwari, Manokwari Bar., Kec. Manokwari Bar., Kabupaten Manokwari, Papua Bar. 98312","Manokwari Bar., Kec. Manokwari Bar., Kabupaten Manokwari",PAPUA BARAT,98312.0,Indonesia,8114918899.0,-0.85693,134.0678051,https://maps.google.com/?cid=0x0:0x7e7b90df1d787501
mall,Komplek perumahan,Fanindi Pantai,"43R9+J9P Bar, Padarni, Kec. Manokwari Bar., Kabupaten Manokwari, Papua Bar. 98312","Padarni, Kec. Manokwari Bar., Kabupaten Manokwari",PAPUA BARAT,98312.0,Indonesia,81344477231.0,-0.8584193,134.0684588,https://maps.google.com/?cid=0x0:0xfea55ca67440bcde
mall,Pusat Perbelanjaan,Mal Sorong,"479G+369, Klademak, Distrik Sorong, Kota Sorong, Papua Bar. 98412","Klademak, Distrik Sorong, Kota Sorong",PAPUA BARAT,98412.0,Indonesia,,-0.8823414,131.2755957,https://maps.google.com/?cid=0x0:0x4efad982776d0ca5
mall,Pusat Perbelanjaan,Mega Mall Sorong,"Jalan Basuki Rahmat Klabulu, Malaimsimsa, Malaingkedi, Kec. Sorong Utara, Kota Sorong, Papua Bar. 98412","Malaimsimsa, Malaingkedi, Kec. Sorong Utara, Kota Sorong",PAPUA BARAT,98412.0,Indonesia,,-0.8873097,131.3012842,https://maps.google.com/?cid=0x0:0x364e52ce8985aa7
mall,Makanan Siap Saji,KFC MEGA,"Jalan BASUKI RAHMAT NO. 1 KM. 8.5, Malaingkedi, Kec. Sorong Utara, Kota Sorong, Papua Bar. 98412","Malaingkedi, Kec. Sorong Utara, Kota Sorong",PAPUA BARAT,98412.0,Indonesia,2114022.0,-0.88741,131.3014311,https://maps.google.com/?cid=0x0:0x3b28231f1cfe08ef
mall,Pusat Perbelanjaan,Mall Plaza Senayan,"Jl. Asia Afrika No.8, RT.1/RW.3, Gelora, Kecamatan Tanah Abang, Kota Jakarta Pusat, Daerah Khusus Ibukota Jakarta 10270","RT.1/RW.3, Gelora, Kecamatan Tanah Abang, Kota Jakarta Pusat",PAPUA BARAT,10270.0,Indonesia,215725555.0,-6.2254775,106.7992649,https://maps.google.com/?cid=0x0:0x788e3a1eef75ac94
mall,Pusat Perbelanjaan,Mall Senayan City,"Jl. Asia Afrika No.Lot 19, Gelora, Kecamatan Tanah Abang, Kota Jakarta Pusat, Daerah Khusus Ibukota Jakarta 10270","Gelora, Kecamatan Tanah Abang, Kota Jakarta Pusat",PAPUA BARAT,10270.0,Indonesia,2172781000.0,-6.2271953,106.7970117,https://maps.google.com/?cid=0x0:0x300c043104acc004
mall,Pizza,Pizza Marzano,"Senayan City Lower Ground, Jl. Asia Afrika Lot 19, Daerah Khusus Ibukota Jakarta 12210",Jl. Asia Afrika Lot 19,PAPUA BARAT,12210.0,Indonesia,2172781065.0,-6.2268064,106.7970378,https://maps.google.com/?cid=0x0:0xb570f44544859923
mall,Masakan Jepang Autentik,Sushi Hiro Senayan City,"Senayan City, Mall, Jl. Asia Afrika LT 5, RT.1/RW.3, Gelora, Kecamatan Tanah Abang, Kota Jakarta Pusat, Daerah Khusus Ibukota Jakarta 10270","Mall, Jl. Asia Afrika LT 5, RT.1/RW.3, Gelora, Kecamatan Tanah Abang, Kota Jakarta Pusat",PAPUA BARAT,10270.0,Indonesia,2172782250.0,-6.2269324,106.7969276,https://maps.google.com/?cid=0x0:0x4b8f42e9ec1e6d3c
mall,Bioskop,Cinema XXI,"Jl. Asia Afrika No.3, RT.1/RW.3, Gelora, Kecamatan Tanah Abang, Kota Jakarta Pusat, Daerah Khusus Ibukota Jakarta 10270","RT.1/RW.3, Gelora, Kecamatan Tanah Abang, Kota Jakarta Pusat",PAPUA BARAT,10270.0,Indonesia,2172781221.0,-6.2268822,106.7976424,https://maps.google.com/?cid=0x0:0x9cb47d55493750ee
mall,Pujasera,Social Garden,"Senayan City, Ground Floor - South Lobby, Jl. Asia Afrika, RT.1/RW.3, Senayan, Jakarta, Daerah Khusus Ibukota Jakarta 10270","Ground Floor - South Lobby, Jl. Asia Afrika, RT.1/RW.3, Senayan, Jakarta",PAPUA BARAT,10270.0,Indonesia,2172781516.0,-6.2278497,106.7970357,https://maps.google.com/?cid=0x0:0x35d9c3bd7550e941
mall,Indonesia,Remboelan - Senayan City,"Jl. Asia Afrika Store 5 - 23, 25, 26, Gelora, Kecamatan Tanah Abang, Kota Jakarta Pusat, Daerah Khusus Ibukota Jakarta 10270","25, 26, Gelora, Kecamatan Tanah Abang, Kota Jakarta Pusat",PAPUA BARAT,10270.0,Indonesia,2172781586.0,-6.2273225,106.7967597,https://maps.google.com/?cid=0x0:0x4d7c5240f54edd51
mall,Pusat Perbelanjaan,Manokwari City Mall (MCM),"Jl. Yos Sudarso Manokwari, Manokwari Bar., Kec. Manokwari Bar., Kabupaten Manokwari, Papua Bar. 98312","Manokwari Bar., Kec. Manokwari Bar., Kabupaten Manokwari",PAPUA BARAT,98312.0,Indonesia,8114918899.0,-0.85693,134.0678051,https://maps.google.com/?cid=0x0:0x7e7b90df1d787501
mall,Komplek perumahan,Fanindi Pantai,"43R9+J9P Bar, Padarni, Kec. Manokwari Bar., Kabupaten Manokwari, Papua Bar. 98312","Padarni, Kec. Manokwari Bar., Kabupaten Manokwari",PAPUA BARAT,98312.0,Indonesia,81344477231.0,-0.8584193,134.0684588,https://maps.google.com/?cid=0x0:0xfea55ca67440bcde
mall,Pusat Perbelanjaan,Belakang Manokwari city mall,"43W7+F3H, Manokwari Bar., Kec. Manokwari Bar., Kabupaten Manokwari, Papua Bar. 98312","Manokwari Bar., Kec. Manokwari Bar., Kabupaten Manokwari",PAPUA BARAT,98312.0,Indonesia,,-0.8538079,134.0627452,https://maps.google.com/?cid=0x0:0x59f633fd28048da4
mall,mall,Kec. Yembun,"Kabupaten Tambrauw, Papua Bar.","Kabupaten Tambrauw, Papua Bar.",PAPUA BARAT,,Indonesia,,-0.7808355,132.1189376,https://maps.google.com/?cid=0x0:0xc5562a9e3b0d5fb4
supermarket,Pusat Perbelanjaan,Papua Supermarket  Dept. Store,"4869+F77 Bar, Sawagumu, Kec. Sorong Utara, Kota Sorong, Papua Bar. 98416","Sawagumu, Kec. Sorong Utara, Kota Sorong",PAPUA BARAT,98416.0,Indonesia,9513160123.0,-0.888831,131.3181847,https://maps.google.com/?cid=0x0:0x7b5f0926a74ad213
supermarket,Minimarket,SAGA Supermarket  Dept. Store,"Jalan A. Yani, Ruko Kuda Laut, Klademak, Kecamatan Sorong Manoi, Kota Sorong, Papua Bar. 98414","Ruko Kuda Laut, Klademak, Kecamatan Sorong Manoi, Kota Sorong",PAPUA BARAT,98414.0,Indonesia,951322784.0,-0.8765248,131.2576755,https://maps.google.com/?cid=0x0:0x963043ed646a7e1e
supermarket,Komplek perumahan,Rumah Bpk Gustaf. L,"4859+784, Klawuyuk, Distrik Sorong Timur, Kota Sorong, Papua Bar. 98416","Klawuyuk, Distrik Sorong Timur, Kota Sorong",PAPUA BARAT,98416.0,Indonesia,,-0.8918739,131.3183248,https://maps.google.com/?cid=0x0:0x30559e7e5eb96ee4
supermarket,Toko Swalayan,TOKO ABU FIAN,"6XV5+PRC, Pasirtuhur, Cikeusik, Kec. Wanasalam, Kabupaten Lebak, Banten 42396","Pasirtuhur, Cikeusik, Kec. Wanasalam, Kabupaten Lebak",PAPUA BARAT,42396.0,Indonesia,87774443947.0,-6.7556948,105.9595067,https://maps.google.com/?cid=0x0:0x44b794bfb92e3519
supermarket,Toko Swalayan,Toko Mujur,"36RC+8JF, Mur, Kec. Mambioman Bapai, Kabupaten Mappi, Papua 99872","Mur, Kec. Mambioman Bapai, Kabupaten Mappi",PAPUA BARAT,99872.0,Indonesia,81311663253.0,-6.9091883,139.2215408,https://maps.google.com/?cid=0x0:0x3ac32eba1af23e22
supermarket,Toko bahan makanan,Warung Alif,"7X63+85, Cikeusik, Kec. Wanasalam, Kabupaten Lebak, Banten 42396","Cikeusik, Kec. Wanasalam, Kabupaten Lebak",PAPUA BARAT,42396.0,Indonesia,,-6.7391605,105.9529692,https://maps.google.com/?cid=0x0:0x8f9e48e16f91efb9
supermarket,Klinik Medis,Praktek Mandiri Bidan (PMB) Bidan Eva,"6XV6+M4Q, Jl. Raya Jemb. Kayu, Bejod, Kec. Wanasalam, Kabupaten Lebak, Banten 42396","Jl. Raya Jemb. Kayu, Bejod, Kec. Wanasalam, Kabupaten Lebak",PAPUA BARAT,42396.0,Indonesia,83804682294.0,-6.7557827,105.9603744,https://maps.google.com/?cid=0x0:0x485974ae605c9a42
supermarket,supermarket,Papua Bar. 98371,Papua Bar.,Papua Bar.,PAPUA BARAT,,Indonesia,,-0.6071799,132.941698,https://maps.google.com/?cid=0x0:0xccfddd95cd14e2b2
supermarket,Pusat Perbelanjaan,Papua Supermarket  Dept. Store,"4869+F77 Bar, Sawagumu, Kec. Sorong Utara, Kota Sorong, Papua Bar. 98416","Sawagumu, Kec. Sorong Utara, Kota Sorong",PAPUA BARAT,98416.0,Indonesia,9513160123.0,-0.888831,131.3181847,https://maps.google.com/?cid=0x0:0x7b5f0926a74ad213
supermarket,supermarket,Toko Retail Sembako,"53V2+7R, Kebar Tengah, Kebar, Kabupaten Manokwari, Papua Bar.","Kabupaten Manokwari, Papua Bar.",PAPUA BARAT,,Indonesia,81240495283.0,-0.8068052,133.0519468,https://maps.google.com/?cid=0x0:0xdac3b35663cfd75b
supermarket,supermarket,Toko Retail Sembako,"53V2+7R, Kebar Tengah, Kebar, Kabupaten Manokwari, Papua Bar.","Kabupaten Manokwari, Papua Bar.",PAPUA BARAT,,Indonesia,81240495283.0,-0.8068052,133.0519468,https://maps.google.com/?cid=0x0:0xdac3b35663cfd75b
supermarket,Toko Kelontong India,SK Indian grocery  more,"12623 S Meridian, Puyallup, WA 98373, Amerika Serikat",S Meridian,PAPUA BARAT,12623.0,Indonesia,12533441866.0,47.1415557,-122.2918707,https://maps.google.com/?cid=0x0:0x5002a432abe34230
supermarket,Toko Kelontong India,Spice World,"10417 Canyon Rd E, Puyallup, WA 98373, Amerika Serikat",Canyon Rd E,PAPUA BARAT,10417.0,Indonesia,12532123408.0,47.160518,-122.3562663,https://maps.google.com/?cid=0x0:0x87e55938237556cc
supermarket,Toko umum,Mega Fef,"482J+Q6V, Klasaman, Distrik Sorong Timur, Kota Sorong, Papua Bar. 98416","Klasaman, Distrik Sorong Timur, Kota Sorong",PAPUA BARAT,98416.0,Indonesia,,-0.8980231,131.3305399,https://maps.google.com/?cid=0x0:0x19c9f5b64fbd14b4
supermarket,supermarket,Distrik Fef,"Kabupaten Tambrauw, Papua Bar.","Kabupaten Tambrauw, Papua Bar.",PAPUA BARAT,,Indonesia,,-0.7798216,132.3665985,https://maps.google.com/?cid=0x0:0x99889d8cffaa571e
supermarket,Toko sembako pemerintah,Kios Andefa,"38XH+79W, Jl. Madukoro, Klasaman, Distrik Sorong Timur, Kota Sorong, Papua Bar. 98416","Jl. Madukoro, Klasaman, Distrik Sorong Timur, Kota Sorong",PAPUA BARAT,98416.0,Indonesia,,-0.9018008,131.3284254,https://maps.google.com/?cid=0x0:0x7b2e3235c1ee427b
supermarket,supermarket,Jaul Telur Ayam,"5CWQ+MWF, Ases, Distrik Fef, Kabupaten Tambrauw, Papua Bar. 98473","Ases, Distrik Fef, Kabupaten Tambrauw",PAPUA BARAT,98473.0,Indonesia,,-0.8033098,132.4397838,https://maps.google.com/?cid=0x0:0xd10443e9e446eb24
supermarket,supermarket,Distrik Kwoor,"Kabupaten Tambrauw, Papua Bar.","Kabupaten Tambrauw, Papua Bar.",PAPUA BARAT,,Indonesia,,-0.4621685,132.2908119,https://maps.google.com/?cid=0x0:0xc9babc4648539c74
supermarket,Pusat Perbelanjaan,Papua Supermarket  Dept. Store,"4869+F77 Bar, Sawagumu, Kec. Sorong Utara, Kota Sorong, Papua Bar. 98416","Sawagumu, Kec. Sorong Utara, Kota Sorong",PAPUA BARAT,98416.0,Indonesia,9513160123.0,-0.888831,131.3181847,https://maps.google.com/?cid=0x0:0x7b5f0926a74ad213
supermarket,Kantor Perusahaan,Supermarket GOTA,"4868+2X3, Jl. Sungai Maruni, Sawagumu, Distrik Sorong Timur, Kota Sorong, Papua Bar. 98416","Jl. Sungai Maruni, Sawagumu, Distrik Sorong Timur, Kota Sorong",PAPUA BARAT,98416.0,Indonesia,,-0.8900646,131.3173945,https://maps.google.com/?cid=0x0:0xe80a2989cd86300
supermarket,Toko,Samudra Supermarket,"8PP2+F75, Kroy, Kec. Kaimana, Kabupaten Kaimana, Papua Bar. 98654","Kroy, Kec. Kaimana, Kabupaten Kaimana",PAPUA BARAT,98654.0,Indonesia,8113189579.0,-3.6631656,133.7002039,https://maps.google.com/?cid=0x0:0x97575d1c37a98621
supermarket,supermarket,Miyah,"Kabupaten Tambrauw, Papua Bar.","Kabupaten Tambrauw, Papua Bar.",PAPUA BARAT,,Indonesia,,-0.7502666,132.6684924,https://maps.google.com/?cid=0x0:0x714bb316eb3dbe5c
supermarket,Minimarket,Kios Merah Anday,"Anday, Distrik Manokwari, Kabupaten Manokwari, Papua Bar. 98315","Distrik Manokwari, Kabupaten Manokwari",PAPUA BARAT,98315.0,Indonesia,85218713512.0,-0.9324459,134.0114189,https://maps.google.com/?cid=0x0:0xce53730c2173a74c
supermarket,Toko bahan makanan,Toko Alya MJ,"Jl. Drs Esau Sesa, Sowi, Distrik Manokwari, Kabupaten Manokwari, Papua Bar. 98312","Sowi, Distrik Manokwari, Kabupaten Manokwari",PAPUA BARAT,98312.0,Indonesia,81346720708.0,-0.8887063,134.0464646,https://maps.google.com/?cid=0x0:0xe1de702180bd3a4c
supermarket,Grosir,Toko Pelita Raya,"424W+XCQ, Jl. Drs Esau Sesa, Sowi, Distrik Manokwari, Kabupaten Manokwari, Papua Bar. 98315","Jl. Drs Esau Sesa, Sowi, Distrik Manokwari, Kabupaten Manokwari",PAPUA BARAT,98315.0,Indonesia,,-0.8925437,134.0460941,https://maps.google.com/?cid=0x0:0xe5ac786014a253c6
supermarket,Toko bahan makanan,Kios yunhie,"Unnamed Road, Sowi, Distrik Manokwari, Kabupaten Manokwari, Papua Bar. 98315","Sowi, Distrik Manokwari, Kabupaten Manokwari",PAPUA BARAT,98315.0,Indonesia,82238560682.0,-0.8877825,134.0324049,https://maps.google.com/?cid=0x0:0x4b02b8d32949f3d4
supermarket,Toko Swalayan,Marymart,"Brigjen Marinir (Purn) Abraham O Atururi, Kabupaten Manokwari, Papua Bar. 98313",Kabupaten Manokwari,PAPUA BARAT,98313.0,Indonesia,85399967344.0,-0.9162916,134.0277939,https://maps.google.com/?cid=0x0:0x40e57b02f08f1232
supermarket,Pusat Perbelanjaan,Papua Supermarket  Dept. Store,"4869+F77 Bar, Sawagumu, Kec. Sorong Utara, Kota Sorong, Papua Bar. 98416","Sawagumu, Kec. Sorong Utara, Kota Sorong",PAPUA BARAT,98416.0,Indonesia,9513160123.0,-0.888831,131.3181847,https://maps.google.com/?cid=0x0:0x7b5f0926a74ad213
supermarket,supermarket,Toko Retail Sembako,"53V2+7R, Kebar Tengah, Kebar, Kabupaten Manokwari, Papua Bar.","Kabupaten Manokwari, Papua Bar.",PAPUA BARAT,,Indonesia,81240495283.0,-0.8068052,133.0519468,https://maps.google.com/?cid=0x0:0xdac3b35663cfd75b
supermarket,Toko umum,Meydiawanti,"94F4+4F, Waren, Distrik Momi Waren, Kab. Manokwari Selatan, Papua Bar.","Kab. Manokwari Selatan, Papua Bar.",PAPUA BARAT,,Indonesia,,-1.6271994,134.1061382,https://maps.google.com/?cid=0x0:0x700f129619e4002c
supermarket,Toko Swalayan,Hadi Supermarket  Dept. Store,"Jl. Imam Bonjol No.56, Fandoi, Kec. Biak Kota, Kabupaten Biak Numfor, Papua 98111","Fandoi, Kec. Biak Kota, Kabupaten Biak Numfor",PAPUA BARAT,98111.0,Indonesia,,-1.1800003,136.0824788,https://maps.google.com/?cid=0x0:0xdcad74b4384219ee
supermarket,Toko,HADI Supermarket  Dept Store,"JFQX+RQC, Jl. Yos Sudarso, Oyehe, Distrik Nabire, Kabupaten Nabire, Papua 98811","Jl. Yos Sudarso, Oyehe, Distrik Nabire, Kabupaten Nabire",PAPUA BARAT,98811.0,Indonesia,98421367.0,-3.360447,135.4994055,https://maps.google.com/?cid=0x0:0x60bc70181b8864df
supermarket,Toko Swalayan,HADI MART TIMIKA,"Jl. Yos Sudarso No.35, Kwamki, Kec. Mimika Baru, Kabupaten Mimika, Papua 99971","Kwamki, Kec. Mimika Baru, Kabupaten Mimika",PAPUA BARAT,99971.0,Indonesia,,-4.5446365,136.8895979,https://maps.google.com/?cid=0x0:0x3d96563d2fe0245a
supermarket,Toko bahan makanan,Papua Mart,"7XVG+F83, Pruleme, Distrik Mulia, Kabupaten Puncak Jaya, Papua","Kabupaten Puncak Jaya, Papua",PAPUA BARAT,,Indonesia,,-3.7063653,137.9757822,https://maps.google.com/?cid=0x0:0xf49ab6ab8e5d1b97
supermarket,supermarket,Jaul Telur Ayam,"5CWQ+MWF, Ases, Distrik Fef, Kabupaten Tambrauw, Papua Bar. 98473","Ases, Distrik Fef, Kabupaten Tambrauw",PAPUA BARAT,98473.0,Indonesia,,-0.8033098,132.4397838,https://maps.google.com/?cid=0x0:0xd10443e9e446eb24
supermarket,Toko Swalayan,Hadi Supermarket  Dept. Store,"Jl. Imam Bonjol No.56, Fandoi, Kec. Biak Kota, Kabupaten Biak Numfor, Papua 98111","Fandoi, Kec. Biak Kota, Kabupaten Biak Numfor",PAPUA BARAT,98111.0,Indonesia,,-1.1800003,136.0824788,https://maps.google.com/?cid=0x0:0xdcad74b4384219ee
supermarket,Toko,Hadi Express Airlangga,"R39G+W65, Jl. Erlangga, Waupnor, Kec. Biak Kota, Kabupaten Biak Numfor, Papua 98111","Jl. Erlangga, Waupnor, Kec. Biak Kota, Kabupaten Biak Numfor",PAPUA BARAT,98111.0,Indonesia,,-1.1802404,136.0756212,https://maps.google.com/?cid=0x0:0xd262eee2223025ae
supermarket,Kedai Kopi,KOFFIE KITONG,"Jl. Imam Bonjol No.56, Fandoi, Kec. Biak Kota, Kabupaten Biak Numfor, Papua 98111","Fandoi, Kec. Biak Kota, Kabupaten Biak Numfor",PAPUA BARAT,98111.0,Indonesia,,-1.1802223,136.0824899,https://maps.google.com/?cid=0x0:0xc57a1d51c6bd7d53
supermarket,Pusat Perbelanjaan,Hadi supermarket,"32XQ+W6X, Sowi, Distrik Manokwari, Kabupaten Manokwari, Papua Bar.","Kabupaten Manokwari, Papua Bar.",PAPUA BARAT,,Indonesia,,-0.9001308,134.0381223,https://maps.google.com/?cid=0x0:0xe361d5fae3f38b24
supermarket,Pusat Perbelanjaan,Manokwari City Mall (MCM),"Jl. Yos Sudarso Manokwari, Manokwari Bar., Kec. Manokwari Bar., Kabupaten Manokwari, Papua Bar. 98312","Manokwari Bar., Kec. Manokwari Bar., Kabupaten Manokwari",PAPUA BARAT,98312.0,Indonesia,8114918899.0,-0.85693,134.0678051,https://maps.google.com/?cid=0x0:0x7e7b90df1d787501
supermarket,supermarket,Moraid,"Kabupaten Sorong, Papua Bar.","Kabupaten Sorong, Papua Bar.",PAPUA BARAT,,Indonesia,,-0.6590992,131.9791516,https://maps.google.com/?cid=0x0:0x754b158cc336f2d9
supermarket,Pusat Perbelanjaan,Papua Supermarket  Dept. Store,"4869+F77 Bar, Sawagumu, Kec. Sorong Utara, Kota Sorong, Papua Bar. 98416","Sawagumu, Kec. Sorong Utara, Kota Sorong",PAPUA BARAT,98416.0,Indonesia,9513160123.0,-0.888831,131.3181847,https://maps.google.com/?cid=0x0:0x7b5f0926a74ad213
supermarket,Minimarket,SAGA Supermarket  Dept. Store,"Jalan A. Yani, Ruko Kuda Laut, Klademak, Kecamatan Sorong Manoi, Kota Sorong, Papua Bar. 98414","Ruko Kuda Laut, Klademak, Kecamatan Sorong Manoi, Kota Sorong",PAPUA BARAT,98414.0,Indonesia,951322784.0,-0.8765248,131.2576755,https://maps.google.com/?cid=0x0:0x963043ed646a7e1e
supermarket,Komplek perumahan,Rumah Bpk Gustaf. L,"4859+784, Klawuyuk, Distrik Sorong Timur, Kota Sorong, Papua Bar. 98416","Klawuyuk, Distrik Sorong Timur, Kota Sorong",PAPUA BARAT,98416.0,Indonesia,,-0.8918739,131.3183248,https://maps.google.com/?cid=0x0:0x30559e7e5eb96ee4
supermarket,supermarket,Distrik Sausapor,"Kabupaten Tambrauw, Papua Bar.","Kabupaten Tambrauw, Papua Bar.",PAPUA BARAT,,Indonesia,,-0.496052,132.0874738,https://maps.google.com/?cid=0x0:0x22b76922b3bd09b1
supermarket,Toko,toko TRIA sausapor,"Jln .poros warfaknik, werur, Distrik Sausapor, Kabupaten Tambrauw, Papua Bar.","Kabupaten Tambrauw, Papua Bar.",PAPUA BARAT,,Indonesia,81343383345.0,-0.4971154,132.0865368,https://maps.google.com/?cid=0x0:0xb1ffdb2bf1c868d8
supermarket,Layanan Transportasi,Pasar Emaus Sausapor,"G33P+MW8, Jl warfaknik, Emaus, Kab, Emaos, Distrik Sausapor, Kabupaten Tambrauw, Papua Bar. 98473","Jl warfaknik, Emaus, Kab, Emaos, Distrik Sausapor, Kabupaten Tambrauw",PAPUA BARAT,98473.0,Indonesia,,-0.4958421,132.0873269,https://maps.google.com/?cid=0x0:0xf1e5194c83eca1fd
supermarket,Toko,Toko TRIA 2 SAUSAPOR,"Jln.warfaknik ,kampung emaus, Emaos, Distrik Sausapor, Kabupaten Tambrauw, Papua Bar. 98473","Emaos, Distrik Sausapor, Kabupaten Tambrauw",PAPUA BARAT,98473.0,Indonesia,81343383345.0,-0.4935991,132.0891444,https://maps.google.com/?cid=0x0:0x457417ac228bb544
supermarket,Pusat Perbelanjaan,Papua Supermarket  Dept. Store,"4869+F77 Bar, Sawagumu, Kec. Sorong Utara, Kota Sorong, Papua Bar. 98416","Sawagumu, Kec. Sorong Utara, Kota Sorong",PAPUA BARAT,98416.0,Indonesia,9513160123.0,-0.888831,131.3181847,https://maps.google.com/?cid=0x0:0x7b5f0926a74ad213
supermarket,Toko Kosmetik,TOKO ADIKA SAUSAPOR,"G33P+CR2, Uigwem, Distrik Sausapor, Kabupaten Tambrauw, Papua Bar.","Kabupaten Tambrauw, Papua Bar.",PAPUA BARAT,,Indonesia,,-0.4964884,132.0870013,https://maps.google.com/?cid=0x0:0xc47c616096d4de14
supermarket,supermarket,Toko Retail Sembako,"53V2+7R, Kebar Tengah, Kebar, Kabupaten Manokwari, Papua Bar.","Kabupaten Manokwari, Papua Bar.",PAPUA BARAT,,Indonesia,81240495283.0,-0.8068052,133.0519468,https://maps.google.com/?cid=0x0:0xdac3b35663cfd75b
supermarket,Toko bahan makanan,Safeway Pharmacy,"708 Shaw Rd E, Puyallup, WA 98372, Amerika Serikat","Puyallup, WA",PAPUA BARAT,98372.0,Indonesia,12532515115.0,47.184884,-122.2592021,https://maps.google.com/?cid=0x0:0xed65e13eeb00f71b
supermarket,Apotek,Safeway,"708 Shaw Rd E, Puyallup, WA 98372, Amerika Serikat","Puyallup, WA",PAPUA BARAT,98372.0,Indonesia,12532515113.0,47.1849908,-122.2592242,https://maps.google.com/?cid=0x0:0x7a2e5325d8cc948a
supermarket,supermarket,KeyMe Locksmiths,"708 Shaw Rd E, Puyallup, WA 98372, Amerika Serikat","Puyallup, WA",PAPUA BARAT,98372.0,Indonesia,12533523665.0,47.1848212,-122.2591154,https://maps.google.com/?cid=0x0:0x2e0960503aa5846e
supermarket,supermarket,Redbox,"708 Shaw Rd E, Puyallup, WA 98372, Amerika Serikat","Puyallup, WA",PAPUA BARAT,98372.0,Indonesia,18667332693.0,47.1849388,-122.2589628,https://maps.google.com/?cid=0x0:0xa30278b7a8b7b00f
supermarket,Kantor Pos,Post office box,"708 Shaw Rd E, Puyallup, WA 98372, Amerika Serikat","Puyallup, WA",PAPUA BARAT,98372.0,Indonesia,,47.184838,-122.259013,https://maps.google.com/?cid=0x0:0x5e39f4dd15c3851a
supermarket,supermarket,Coinstar Kiosk - Bitcoin ATM,"708 Shaw Rd E, Puyallup, WA 98372, Amerika Serikat","Puyallup, WA",PAPUA BARAT,98372.0,Indonesia,18009282274.0,47.1848767,-122.2567848,https://maps.google.com/?cid=0x0:0x453d759db4450519
supermarket,supermarket,Distrik Syujak,"Kabupaten Tambrauw, Papua Bar.","Kabupaten Tambrauw, Papua Bar.",PAPUA BARAT,,Indonesia,,-0.7852432,132.4121441,https://maps.google.com/?cid=0x0:0x7dd0acee1cc8bcaa
supermarket,Pusat Perbelanjaan,Papua Supermarket  Dept. Store,"4869+F77 Bar, Sawagumu, Kec. Sorong Utara, Kota Sorong, Papua Bar. 98416","Sawagumu, Kec. Sorong Utara, Kota Sorong",PAPUA BARAT,98416.0,Indonesia,9513160123.0,-0.888831,131.3181847,https://maps.google.com/?cid=0x0:0x7b5f0926a74ad213
supermarket,Minimarket,SAGA Supermarket  Dept. Store,"Jalan A. Yani, Ruko Kuda Laut, Klademak, Kecamatan Sorong Manoi, Kota Sorong, Papua Bar. 98414","Ruko Kuda Laut, Klademak, Kecamatan Sorong Manoi, Kota Sorong",PAPUA BARAT,98414.0,Indonesia,951322784.0,-0.8765248,131.2576755,https://maps.google.com/?cid=0x0:0x963043ed646a7e1e
supermarket,Kantor Perusahaan,Supermarket GOTA,"4868+2X3, Jl. Sungai Maruni, Sawagumu, Distrik Sorong Timur, Kota Sorong, Papua Bar. 98416","Jl. Sungai Maruni, Sawagumu, Distrik Sorong Timur, Kota Sorong",PAPUA BARAT,98416.0,Indonesia,,-0.8900646,131.3173945,https://maps.google.com/?cid=0x0:0xe80a2989cd86300
supermarket,Minimarket,Waroeng Syauqi,"Jl. Pinggir Setu No.57, RT.4/RW.7, Pabuaran, Kecamatan Bojonggede, Kabupaten Bogor, Jawa Barat 16921","RT.4/RW.7, Pabuaran, Kecamatan Bojonggede, Kabupaten Bogor",PAPUA BARAT,16921.0,Indonesia,82111075387.0,-6.4521886,106.8006592,https://maps.google.com/?cid=0x0:0x7da5b6b5f8242509
supermarket,Toko Swalayan,@Suryakasihmart,"X7HR+3X6, Unnamed Road, Srikamulyan, Kec. Tirtajaya, Karawang, Jawa Barat 41356","Unnamed Road, Srikamulyan, Kec. Tirtajaya, Karawang",PAPUA BARAT,41356.0,Indonesia,85814181110.0,-6.0223291,107.2924014,https://maps.google.com/?cid=0x0:0x33b3ecd6d65a5c01
supermarket,Toko Swalayan,Toko yulia,"JV4G+MF7, Sukatani, Kec. Tapos, Kota Depok, Jawa Barat 16454","Sukatani, Kec. Tapos, Kota Depok",PAPUA BARAT,16454.0,Indonesia,,-6.3933288,106.8761664,https://maps.google.com/?cid=0x0:0x33f1bef299397869
supermarket,Toko Perlengkapan Rumah,Toko Agus/jurek,"No.2 rt. 03/04, Jl. Kp. Jeletreng, Pengasinan, Kec. Gn. Sindur, Kabupaten Bogor, Jawa Barat 16340","Jl. Kp. Jeletreng, Pengasinan, Kec. Gn. Sindur, Kabupaten Bogor",PAPUA BARAT,16340.0,Indonesia,87770888021.0,-6.3657924,106.6804755,https://maps.google.com/?cid=0x0:0x12f717d84cc04b1c
supermarket,supermarket,Kec. Yembun,"Kabupaten Tambrauw, Papua Bar.","Kabupaten Tambrauw, Papua Bar.",PAPUA BARAT,,Indonesia,,-0.7808355,132.1189376,https://maps.google.com/?cid=0x0:0xc5562a9e3b0d5fb4
supermarket,supermarket,Jaul Telur Ayam,"5CWQ+MWF, Ases, Distrik Fef, Kabupaten Tambrauw, Papua Bar. 98473","Ases, Distrik Fef, Kabupaten Tambrauw",PAPUA BARAT,98473.0,Indonesia,,-0.8033098,132.4397838,https://maps.google.com/?cid=0x0:0xd10443e9e446eb24
supermarket,Toko,HADI Supermarket  Dept Store,"JFQX+RQC, Jl. Yos Sudarso, Oyehe, Distrik Nabire, Kabupaten Nabire, Papua 98811","Jl. Yos Sudarso, Oyehe, Distrik Nabire, Kabupaten Nabire",PAPUA BARAT,98811.0,Indonesia,98421367.0,-3.360447,135.4994055,https://maps.google.com/?cid=0x0:0x60bc70181b8864df
