Category,Real Category,Business Name,Address,City,State,Postal Code,Country,Phone,Latitude,Longitude,Map Link
perumahan,perumahan,Abun,"Kabupaten Tambrauw, Papua Bar.","Kabupaten Tambrauw, Papua Bar.",PAPUA BARAT,,Indonesia,,-0.4695379,132.7466993,https://maps.google.com/?cid=0x0:0x6bbce6bcca6e4a28
perumahan,Balai masyarakat,Resye Abun Kab_Tambrauw,"JCV5+WW6, Saubeba, Abun, Kabupaten Tambrauw, Papua Bar. 98473","Saubeba, Abun, Kabupaten Tambrauw",PAPUA BARAT,98473.0,Indonesia,,-0.3552157,132.4097777,https://maps.google.com/?cid=0x0:0xbe2eb106604dbd43
perumahan,Komplek perumahan,Kampung Syukwo,"JJJW+9J7, Warmandi, Abun, Kabupaten Tambrauw, Papua Bar.","Kabupaten Tambrauw, Papua Bar.",PAPUA BARAT,,Indonesia,,-0.3690842,132.6465455,https://maps.google.com/?cid=0x0:0xd82a3c93e058416c
perumahan,Perhimpunan Pengembang Perumahan,Kampung Weyaf,"HV2P+5M8, Weyaf, Abun, Kabupaten Tambrauw, Papua Bar. 98371","Weyaf, Abun, Kabupaten Tambrauw",PAPUA BARAT,98371.0,Indonesia,,-0.4495953,132.8866985,https://maps.google.com/?cid=0x0:0xed9e22c52c911586
perumahan,perumahan,Pastori GKI Imanuel Wau,"FV9V+H6R, Weyaf, Abun, Kabupaten Tambrauw, Papua Bar. 98371","Weyaf, Abun, Kabupaten Tambrauw",PAPUA BARAT,98371.0,Indonesia,,-0.5310006,132.8930179,https://maps.google.com/?cid=0x0:0xba1c2d6d96eb19f0
perumahan,Komplek perumahan,Teras Abi,"JJJW+GFW, Warmandi, Abun, Kabupaten Tambrauw, Papua Bar.","Kabupaten Tambrauw, Papua Bar.",PAPUA BARAT,,Indonesia,,-0.3686473,132.6461933,https://maps.google.com/?cid=0x0:0x7b32bfd47af0fef3
perumahan,Komplek perumahan,Kantor Kampung Resye,"JCV5+WVF, Saubeba, Abun, Kabupaten Tambrauw, Papua Bar. 98473","Saubeba, Abun, Kabupaten Tambrauw",PAPUA BARAT,98473.0,Indonesia,,-0.3551812,132.40966,https://maps.google.com/?cid=0x0:0x5fd162fe58496385
perumahan,perumahan,Papua Bar. 98371,Papua Bar.,Papua Bar.,PAPUA BARAT,,Indonesia,,-0.6071799,132.941698,https://maps.google.com/?cid=0x0:0xccfddd95cd14e2b2
perumahan,Komplek perumahan,Kampung Sabon,"F3JH+3HV, Saukorem, Distrik Amberbaken, Kabupaten Tambrauw, Papua Bar. 98371","Saukorem, Distrik Amberbaken, Kabupaten Tambrauw",PAPUA BARAT,98371.0,Indonesia,,-0.5197698,133.0789375,https://maps.google.com/?cid=0x0:0x4870fb4b5ca641f5
perumahan,Komplek perumahan,Kampung Wefiani,"F43Q+C2, Serayo, Distrik Amberbaken, Kabupaten Manokwari, Papua Bar.","Kabupaten Manokwari, Papua Bar.",PAPUA BARAT,,Indonesia,,-0.5464871,133.1375693,https://maps.google.com/?cid=0x0:0xf8c7ae4d45f615a4
perumahan,Komplek perumahan,Kampung Barona,"557M+9RX, Kebar Tengah, Kebar, Kabupaten Tambrauw, Papua Bar.","Kabupaten Tambrauw, Papua Bar.",PAPUA BARAT,,Indonesia,,-0.8365006,133.1846072,https://maps.google.com/?cid=0x0:0x1e61487534e976db
perumahan,Perhimpunan Pengembang Perumahan,Kampung Weyaf,"HV2P+5M8, Weyaf, Abun, Kabupaten Tambrauw, Papua Bar. 98371","Weyaf, Abun, Kabupaten Tambrauw",PAPUA BARAT,98371.0,Indonesia,,-0.4495953,132.8866985,https://maps.google.com/?cid=0x0:0xed9e22c52c911586
perumahan,Komplek perumahan,Wau Papua barat,"HV2P+R94, Weyaf, Wau, Kabupaten Tambrauw, Papua Bar.","Kabupaten Tambrauw, Papua Bar.",PAPUA BARAT,,Indonesia,,-0.4479797,132.8859493,https://maps.google.com/?cid=0x0:0x105d419539fd02f7
perumahan,perumahan,Pastori GKI Imanuel Wau,"FV9V+H6R, Weyaf, Abun, Kabupaten Tambrauw, Papua Bar. 98371","Weyaf, Abun, Kabupaten Tambrauw",PAPUA BARAT,98371.0,Indonesia,,-0.5310006,132.8930179,https://maps.google.com/?cid=0x0:0xba1c2d6d96eb19f0
perumahan,Komplek perumahan,Kampung Beriambeker,"8874+4VX, Jl. Poros, Udapi Hilir, Mubarni / Arfu, Kabupaten Manokwari, Papua Bar.","Kabupaten Manokwari, Papua Bar.",PAPUA BARAT,,Indonesia,,-0.687142,133.3072294,https://maps.google.com/?cid=0x0:0x5cd20a671d205ec6
perumahan,Perhimpunan Pengembang Perumahan,RumahSita mahu,"96MP+7X, Mangganek / Arupi, Distrik Amberbaken, Kabupaten Manokwari, Papua Bar.","Kabupaten Manokwari, Papua Bar.",PAPUA BARAT,,Indonesia,,-0.6162709,133.237491,https://maps.google.com/?cid=0x0:0xaf97c1392dae593d
perumahan,Pembangunan Perumahan,Kampung Serayo,"96X8+P88, Kampung Wekari, Distrik Mpur, Kab.Tambrauw, Papua Bar.","Kab.Tambrauw, Papua Bar.",PAPUA BARAT,,Indonesia,,-0.6007223,133.215818,https://maps.google.com/?cid=0x0:0xa0bb6f2aa419a1d9
perumahan,Komplek perumahan,Chya Kuning,"882C+JX, Bereambeker / Meriambeker, Kabupaten Manokwari, Papua Bar.","Kabupaten Manokwari, Papua Bar.",PAPUA BARAT,,Indonesia,,-0.6984795,133.322411,https://maps.google.com/?cid=0x0:0xd90ada53c836289c
perumahan,Komplek perumahan,Mangganek,"96MR+3C, Mangganek / Arupi, DistrikMpur, Kabupaten Manokwari, Papua Bar.","Kabupaten Manokwari, Papua Bar.",PAPUA BARAT,,Indonesia,,-0.6173125,133.2410625,https://maps.google.com/?cid=0x0:0xbcbff5068bf6446d
perumahan,perumahan,Papua Bar. 98372,"Kabupaten Manokwari, Papua Bar.","Kabupaten Manokwari, Papua Bar.",PAPUA BARAT,,Indonesia,,-0.9989582,133.0194897,https://maps.google.com/?cid=0x0:0xd3aecb81246ce306
perumahan,Balai masyarakat,Site Inambuari,"542W+24, Kebar Tengah, Kebar, Kabupaten Manokwari, Papua Bar. 98372","Kebar Tengah, Kebar, Kabupaten Manokwari",PAPUA BARAT,98372.0,Indonesia,,-0.84998,133.14526,https://maps.google.com/?cid=0x0:0xf93e0a553355c4bb
perumahan,Komplek perumahan,Kampung Barona,"557M+9RX, Kebar Tengah, Kebar, Kabupaten Tambrauw, Papua Bar.","Kabupaten Tambrauw, Papua Bar.",PAPUA BARAT,,Indonesia,,-0.8365006,133.1846072,https://maps.google.com/?cid=0x0:0x1e61487534e976db
perumahan,perumahan,sanger home,"5W7H+3V6, Wausin, Senopi, Kabupaten Manokwari, Papua Bar. 98372","Wausin, Senopi, Kabupaten Manokwari",PAPUA BARAT,98372.0,Indonesia,,-0.8371279,132.9296454,https://maps.google.com/?cid=0x0:0xa00ca14d77fb1809
perumahan,Pembangunan Perumahan,Kampung naranati,"X35H+V46, Atay, Kebar, Kabupaten Manokwari, Papua Bar. 98372","Atay, Kebar, Kabupaten Manokwari",PAPUA BARAT,98372.0,Indonesia,,-1.0403328,133.0777555,https://maps.google.com/?cid=0x0:0x7de1bba357dcdcc2
perumahan,Komplek perumahan,Kampung Ruf,"2MCG+J8, Kebar Bar. / Senopi, Senopi, Kabupaten Manokwari, Papua Bar.","Kabupaten Manokwari, Papua Bar.",PAPUA BARAT,,Indonesia,,-0.9784997,132.6756673,https://maps.google.com/?cid=0x0:0xc668bcc0411f930c
perumahan,Pembangunan Perumahan,Kampung Aritowi,"342V+47, Atay, Kebar, Kabupaten Manokwari, Papua Bar.","Kabupaten Manokwari, Papua Bar.",PAPUA BARAT,,Indonesia,,-0.9496962,133.1432036,https://maps.google.com/?cid=0x0:0x25eb742434118822
perumahan,perumahan,Wufmana Ireres,"4WR6+JJ, Wausin, Senopi, Kabupaten Manokwari, Papua Bar.","Kabupaten Manokwari, Papua Bar.",PAPUA BARAT,,Indonesia,,-0.8584163,132.9115905,https://maps.google.com/?cid=0x0:0xcaf4229f9a6eaa76
perumahan,Komplek perumahan,Kampung Amnan,"3527+FRQ Kampung Amnan, Selatan, Atay, Kebar, Kab Tambrauw, Papua Bar.","Kab Tambrauw, Papua Bar.",PAPUA BARAT,,Indonesia,,-0.9487961,133.164609,https://maps.google.com/?cid=0x0:0x76e87caf225d4a6
perumahan,Pembangunan Perumahan,Esyak Sicor,"5H45+QG, Yabouw, Miyah, Kabupaten Tambrauw, Papua Bar.","Kabupaten Tambrauw, Papua Bar.",PAPUA BARAT,,Indonesia,,-0.8430625,132.5588125,https://maps.google.com/?cid=0x0:0x4402219fce4033f0
perumahan,Pembangunan Perumahan,Kampung Arapi,"5W6Q+92, Afrawi, Senopi, Kabupaten Manokwari, Papua Bar.","Kabupaten Manokwari, Papua Bar.",PAPUA BARAT,,Indonesia,,-0.8391125,132.9375207,https://maps.google.com/?cid=0x0:0xa9aa1d6fb8f5e3a4
perumahan,perumahan,Kampung Esyum II,"5H4G+X9, Yabouw, Miyah, Kabupaten Tambrauw, Papua Bar. 98473","Yabouw, Miyah, Kabupaten Tambrauw",PAPUA BARAT,98473.0,Indonesia,,-0.8428289,132.575921,https://maps.google.com/?cid=0x0:0xbe2a715c2324499c
perumahan,Pembangunan Perumahan,Kampung Atafrumek,"3MQW+3QJ, Ayapokiar, Miyah, Kabupaten Tambrauw, Papua Bar.","Kabupaten Tambrauw, Papua Bar.",PAPUA BARAT,,Indonesia,,-0.9122764,132.6968918,https://maps.google.com/?cid=0x0:0x7cf98e83adb2378d
perumahan,Komplek perumahan,Kampung Beriambeker,"8874+4VX, Jl. Poros, Udapi Hilir, Mubarni / Arfu, Kabupaten Manokwari, Papua Bar.","Kabupaten Manokwari, Papua Bar.",PAPUA BARAT,,Indonesia,,-0.687142,133.3072294,https://maps.google.com/?cid=0x0:0x5cd20a671d205ec6
perumahan,perumahan,Distrik Fef,"Kabupaten Tambrauw, Papua Bar.","Kabupaten Tambrauw, Papua Bar.",PAPUA BARAT,,Indonesia,,-0.7798216,132.3665985,https://maps.google.com/?cid=0x0:0x99889d8cffaa571e
perumahan,perumahan,Distrik Kwoor,"Kabupaten Tambrauw, Papua Bar.","Kabupaten Tambrauw, Papua Bar.",PAPUA BARAT,,Indonesia,,-0.4621685,132.2908119,https://maps.google.com/?cid=0x0:0xc9babc4648539c74
perumahan,Dapur Umum,Kampung Werur,"G7V5+2C, Werur Besar, Distrik Sausapor, Kabupaten Tambrauw, Papua Bar.","Kabupaten Tambrauw, Papua Bar.",PAPUA BARAT,,Indonesia,,-0.4575174,132.2586661,https://maps.google.com/?cid=0x0:0x7bb9fab9ed86b4cf
perumahan,Komplek perumahan,Domron,"CCXC+R8R, Syumbab, Distrik Kwoor, Kabupaten Tambrauw, Papua Bar. 98473","Syumbab, Distrik Kwoor, Kabupaten Tambrauw",PAPUA BARAT,98473.0,Indonesia,,-0.5503843,132.4207533,https://maps.google.com/?cid=0x0:0xcd2ef415a14ef7a1
perumahan,perumahan,Bakri Karim Family,"Unnamed Road, Emaos, Distrik Sausapor, Kabupaten Tambrauw, Papua Bar. 98473","Emaos, Distrik Sausapor, Kabupaten Tambrauw",PAPUA BARAT,98473.0,Indonesia,82271191527.0,-0.4962027,132.0920937,https://maps.google.com/?cid=0x0:0x4103682f3e0df40a
perumahan,Kantor Pemerintah,Kabupaten tambrauw,"G33P+HXH, Emaos, Distrik Sausapor, Kabupaten Tambrauw, Papua Bar. 98473","Emaos, Distrik Sausapor, Kabupaten Tambrauw",PAPUA BARAT,98473.0,Indonesia,,-0.496052,132.0874738,https://maps.google.com/?cid=0x0:0xc040451b52722ceb
perumahan,Balai masyarakat,Resye Abun Kab_Tambrauw,"JCV5+WW6, Saubeba, Abun, Kabupaten Tambrauw, Papua Bar. 98473","Saubeba, Abun, Kabupaten Tambrauw",PAPUA BARAT,98473.0,Indonesia,,-0.3552157,132.4097777,https://maps.google.com/?cid=0x0:0xbe2eb106604dbd43
perumahan,perumahan,Miyah,"Kabupaten Tambrauw, Papua Bar.","Kabupaten Tambrauw, Papua Bar.",PAPUA BARAT,,Indonesia,,-0.7502666,132.6684924,https://maps.google.com/?cid=0x0:0x714bb316eb3dbe5c
perumahan,Komplek perumahan,Asyuom,"5H4G+X9, Yabouw, Miyah, Kabupaten Tambrauw, Papua Bar. 98473","Yabouw, Miyah, Kabupaten Tambrauw",PAPUA BARAT,98473.0,Indonesia,,-0.842581,132.575939,https://maps.google.com/?cid=0x0:0x883ffce232075f4f
perumahan,Pembangunan Perumahan,Miyah,"Miyah olshop, Ayiamane, Miyah, Kabupaten Tambrauw, Papua Bar.","Kabupaten Tambrauw, Papua Bar.",PAPUA BARAT,,Indonesia,,-0.7502666,132.6684924,https://maps.google.com/?cid=0x0:0x7760411a1567e02f
perumahan,perumahan,Kampung Esyum II,"5H4G+X9, Yabouw, Miyah, Kabupaten Tambrauw, Papua Bar. 98473","Yabouw, Miyah, Kabupaten Tambrauw",PAPUA BARAT,98473.0,Indonesia,,-0.8428289,132.575921,https://maps.google.com/?cid=0x0:0xbe2a715c2324499c
perumahan,Pembangunan Perumahan,Kampung Atafrumek,"3MQW+3QJ, Ayapokiar, Miyah, Kabupaten Tambrauw, Papua Bar.","Kabupaten Tambrauw, Papua Bar.",PAPUA BARAT,,Indonesia,,-0.9122764,132.6968918,https://maps.google.com/?cid=0x0:0x7cf98e83adb2378d
perumahan,Komplek perumahan,Ruf Miyah Selatan Tambrauw,"2MCG+J8, i, Kampung Ruf, Miyah selatan, Kabupaten Tambrauw, Papua Bar.","Kabupaten Tambrauw, Papua Bar.",PAPUA BARAT,,Indonesia,,-0.9784375,132.6758125,https://maps.google.com/?cid=0x0:0xf48269c66159918e
perumahan,Pembangunan Perumahan,Ayamane,"3JR4+7J, Yabouw, Miyah, Kabupaten Tambrauw, Papua Bar.","Kabupaten Tambrauw, Papua Bar.",PAPUA BARAT,,Indonesia,,-0.9093056,132.6066039,https://maps.google.com/?cid=0x0:0x7885fe7e2466e5d4
perumahan,perumahan,Hewi,"3JQ5+P3X, Akwey - Sisu, Ruvewes, Miyah, Kabupaten Tambrauw, Papua Bar. 98473","Akwey - Sisu, Ruvewes, Miyah, Kabupaten Tambrauw",PAPUA BARAT,98473.0,Indonesia,,-0.9106389,132.6077222,https://maps.google.com/?cid=0x0:0x6d326688cf2174d6
perumahan,Pembangunan Perumahan,Ruvewes,"4JFX+2H7, Ruvewes, Miyah, Kabupaten Tambrauw, Papua Bar. 98473","Ruvewes, Miyah, Kabupaten Tambrauw",PAPUA BARAT,98473.0,Indonesia,,-0.877467,132.6489222,https://maps.google.com/?cid=0x0:0x770749004a9d2972
perumahan,Perhimpunan Pengembang Perumahan,Kali Sisu,"4J6M+QPV, Ruvewes, Miyah, Kabupaten Tambrauw, Papua Bar. 98473","Ruvewes, Miyah, Kabupaten Tambrauw",PAPUA BARAT,98473.0,Indonesia,,-0.888013,132.6343018,https://maps.google.com/?cid=0x0:0xf2defec9f33027c7
perumahan,Komplek perumahan,Kampung Yefun,"6MX9+V9X, Ayiamane, Miyah, Kabupaten Tambrauw, Papua Bar.","Kabupaten Tambrauw, Papua Bar.",PAPUA BARAT,,Indonesia,,-0.7502666,132.6684924,https://maps.google.com/?cid=0x0:0xa521fd863a438eb4
perumahan,Komplek perumahan,Distrik Tinggouw,"6HXV+VJ, Yabouw, Miyah, Kabupaten Tambrauw, Papua Bar. 98473","Yabouw, Miyah, Kabupaten Tambrauw",PAPUA BARAT,98473.0,Indonesia,,-0.7503416,132.5940356,https://maps.google.com/?cid=0x0:0x36f68036d266756a
perumahan,Komplek perumahan,Kampung Ruf,"2MCG+J8, Kebar Bar. / Senopi, Senopi, Kabupaten Manokwari, Papua Bar.","Kabupaten Manokwari, Papua Bar.",PAPUA BARAT,,Indonesia,,-0.9784997,132.6756673,https://maps.google.com/?cid=0x0:0xc668bcc0411f930c
perumahan,Pondok pedesaan,Kampung Iwin,"5F7H+PVP, Wayo, Distrik Fef, Kabupaten Tambrauw, Papua Bar. 98473","Wayo, Distrik Fef, Kabupaten Tambrauw",PAPUA BARAT,98473.0,Indonesia,,-0.8356641,132.4796944,https://maps.google.com/?cid=0x0:0xf4e04bbd5ffc3506
perumahan,perumahan,Moraid,"Kabupaten Sorong, Papua Bar.","Kabupaten Sorong, Papua Bar.",PAPUA BARAT,,Indonesia,,-0.6590992,131.9791516,https://maps.google.com/?cid=0x0:0x754b158cc336f2d9
perumahan,perumahan,Kompleks BUTON,"8WX5+FM, Kwade, Moraid, Kabupaten Sorong, Papua Bar.","Kabupaten Sorong, Papua Bar.",PAPUA BARAT,,Indonesia,,-0.6512961,131.9091668,https://maps.google.com/?cid=0x0:0x731e70a9f08ed17b
perumahan,perumahan,Kampung malayauw,"6RRF+M6, Dela, Moraid, Kabupaten Sorong, Papua Bar.","Kabupaten Sorong, Papua Bar.",PAPUA BARAT,,Indonesia,,-0.7587351,131.8218391,https://maps.google.com/?cid=0x0:0x2c3caad13213d293
perumahan,perumahan,Akom,"8WG6+53 AKOM SONA MERA, Mega, Moraid, Kabupaten Sorong, Papua Bar.","Kabupaten Sorong, Papua Bar.",PAPUA BARAT,,Indonesia,,-0.6767173,131.9135714,https://maps.google.com/?cid=0x0:0xafa0399bc4564064
perumahan,Komplek perumahan,Kampung malaworsai,"8WGJ+GX, Mega, Moraid, Kabupaten Sorong, Papua Bar.","Kabupaten Sorong, Papua Bar.",PAPUA BARAT,,Indonesia,,-0.6737182,131.9324964,https://maps.google.com/?cid=0x0:0x2b79d51d30d660d5
perumahan,Komplek perumahan,Kampung Selemalawili,"7RM8+G7F, Dela, Moraid, Kabupaten Sorong, Papua Bar. 98472","Dela, Moraid, Kabupaten Sorong",PAPUA BARAT,98472.0,Indonesia,,-0.7166448,131.8145914,https://maps.google.com/?cid=0x0:0x64c628c350a532f0
perumahan,Perhimpunan Pengembang Perumahan,Jlr SAMPEL,"8WP3+QPX, Mega, Moraid, Kabupaten Sorong, Papua Bar. 98472","Mega, Moraid, Kabupaten Sorong",PAPUA BARAT,98472.0,Indonesia,,-0.6635526,131.9043509,https://maps.google.com/?cid=0x0:0x8b12c1373d5f1020
perumahan,perumahan,Ripon home,"8XRH+9M6, Malaworsai, Moraid, Kabupaten Sorong, Papua Bar.","Kabupaten Sorong, Papua Bar.",PAPUA BARAT,,Indonesia,,-0.6590992,131.9791516,https://maps.google.com/?cid=0x0:0x108ecd9729254872
perumahan,Pembangunan Perumahan,Klabasi,"6V6H+9R, Siwis, Miskum, Kabupaten Sorong, Papua Bar. 98472","Siwis, Miskum, Kabupaten Sorong",PAPUA BARAT,98472.0,Indonesia,,-0.7890569,131.8795996,https://maps.google.com/?cid=0x0:0x1ddacd5b0032cc54
perumahan,Pembangunan Perumahan,"Kampung Miskum, Distrik Klaso (Klabasi) Kab. Sorong","8W82+RW2, Miskum, Distrik Klaso, Kabupaten Sorong, Papua Bar.","Kabupaten Sorong, Papua Bar.",PAPUA BARAT,,Indonesia,,-0.6829753,131.9022792,https://maps.google.com/?cid=0x0:0xf688d9d0f5d4827b
perumahan,Pembangunan Perumahan,Rumah Nakes,"6R2J+86, Siwis, Distrik Klaso, Kabupaten Sorong, Papua Bar.","Kabupaten Sorong, Papua Bar.",PAPUA BARAT,,Indonesia,,-0.7991956,131.830609,https://maps.google.com/?cid=0x0:0xf1919f67d416c599
perumahan,Komplek perumahan,Kampung Ramah Mamalia Klalik,"5RM5+665, Siwis, Distrik Klaso, Kabupaten Sorong, Papua Bar.","Kabupaten Sorong, Papua Bar.",PAPUA BARAT,,Indonesia,,-0.8169966,131.8080999,https://maps.google.com/?cid=0x0:0x2f73c78fca53e2fb
perumahan,perumahan,MASJID NUR HIDYAH,"8WW4+G7, Kwade, Moraid, Kabupaten Sorong, Papua Bar.","Kabupaten Sorong, Papua Bar.",PAPUA BARAT,,Indonesia,,-0.6536452,131.9057447,https://maps.google.com/?cid=0x0:0xfc112a1a7c217079
perumahan,Pembangunan Perumahan,"Kampung Miskum, Distrik Klaso (Klabasi) Kabupaten Sorong","6V6J+32, Selekobo, Sorong, Kabupaten Sorong, Papua Bar.","Kabupaten Sorong, Papua Bar.",PAPUA BARAT,,Indonesia,,-0.7878928,131.8796977,https://maps.google.com/?cid=0x0:0x15565434ec8ed3c3
perumahan,perumahan,Mubrani,"Warsnembri, Mubarni / Arfu, Kabupaten Manokwari, Papua Bar.","Kabupaten Manokwari, Papua Bar.",PAPUA BARAT,,Indonesia,,-0.743739,133.489594,https://maps.google.com/?cid=0x0:0xd4bd1e9b5b037656
perumahan,perumahan,Kec. Tebet,"Kota Jakarta Selatan, Daerah Khusus Ibukota Jakarta","Kota Jakarta Selatan, Daerah Khusus Ibukota Jakarta",PAPUA BARAT,,Indonesia,,-6.2251223,106.8549881,https://maps.google.com/?cid=0x0:0xd575e31c807295f9
perumahan,Komplek perumahan,Kampung Barona,"557M+9RX, Kebar Tengah, Kebar, Kabupaten Tambrauw, Papua Bar.","Kabupaten Tambrauw, Papua Bar.",PAPUA BARAT,,Indonesia,,-0.8365006,133.1846072,https://maps.google.com/?cid=0x0:0x1e61487534e976db
perumahan,Komplek perumahan,Wau Papua barat,"HV2P+R94, Weyaf, Wau, Kabupaten Tambrauw, Papua Bar.","Kabupaten Tambrauw, Papua Bar.",PAPUA BARAT,,Indonesia,,-0.4479797,132.8859493,https://maps.google.com/?cid=0x0:0x105d419539fd02f7
perumahan,perumahan,Wufmana Ireres,"4WR6+JJ, Wausin, Senopi, Kabupaten Manokwari, Papua Bar.","Kabupaten Manokwari, Papua Bar.",PAPUA BARAT,,Indonesia,,-0.8584163,132.9115905,https://maps.google.com/?cid=0x0:0xcaf4229f9a6eaa76
perumahan,Perhimpunan Pengembang Perumahan,Kampung Weyaf,"HV2P+5M8, Weyaf, Abun, Kabupaten Tambrauw, Papua Bar. 98371","Weyaf, Abun, Kabupaten Tambrauw",PAPUA BARAT,98371.0,Indonesia,,-0.4495953,132.8866985,https://maps.google.com/?cid=0x0:0xed9e22c52c911586
perumahan,Komplek perumahan,Kampung Wefiani,"F43Q+C2, Serayo, Distrik Amberbaken, Kabupaten Manokwari, Papua Bar.","Kabupaten Manokwari, Papua Bar.",PAPUA BARAT,,Indonesia,,-0.5464871,133.1375693,https://maps.google.com/?cid=0x0:0xf8c7ae4d45f615a4
perumahan,perumahan,Pastori GKI Imanuel Wau,"FV9V+H6R, Weyaf, Abun, Kabupaten Tambrauw, Papua Bar. 98371","Weyaf, Abun, Kabupaten Tambrauw",PAPUA BARAT,98371.0,Indonesia,,-0.5310006,132.8930179,https://maps.google.com/?cid=0x0:0xba1c2d6d96eb19f0
perumahan,perumahan,Distrik Sausapor,"Kabupaten Tambrauw, Papua Bar.","Kabupaten Tambrauw, Papua Bar.",PAPUA BARAT,,Indonesia,,-0.496052,132.0874738,https://maps.google.com/?cid=0x0:0x22b76922b3bd09b1
perumahan,Kantor Pemerintah,Kabupaten tambrauw,"G33P+HXH, Emaos, Distrik Sausapor, Kabupaten Tambrauw, Papua Bar. 98473","Emaos, Distrik Sausapor, Kabupaten Tambrauw",PAPUA BARAT,98473.0,Indonesia,,-0.496052,132.0874738,https://maps.google.com/?cid=0x0:0xc040451b52722ceb
perumahan,perumahan,Bakri Karim Family,"Unnamed Road, Emaos, Distrik Sausapor, Kabupaten Tambrauw, Papua Bar. 98473","Emaos, Distrik Sausapor, Kabupaten Tambrauw",PAPUA BARAT,98473.0,Indonesia,82271191527.0,-0.4962027,132.0920937,https://maps.google.com/?cid=0x0:0x4103682f3e0df40a
perumahan,Pembangunan Perumahan,Kampung Nombrak,"Bar., H6Q5+R99, Nombrak, Distrik Bikar, Kabupaten Tambrauw, Papua Barat Daya, 98473","H6Q5+R99, Nombrak, Distrik Bikar, Kabupaten Tambrauw",PAPUA BARAT,98473.0,Indonesia,,-0.410315,132.2094783,https://maps.google.com/?cid=0x0:0x5b3afe85215a47f5
perumahan,perumahan,HANS PLATIN ð¤´,"G33Q+3M4, Emaos, Distrik Sausapor, Kabupaten Tambrauw, Papua Bar. 98473","Emaos, Distrik Sausapor, Kabupaten Tambrauw",PAPUA BARAT,98473.0,Indonesia,,-0.4976212,132.0890143,https://maps.google.com/?cid=0x0:0x96e9fe8371013d49
perumahan,Komplek perumahan,WILSON MOFU,"F3RM+H6W, Emaos, Distrik Sausapor, Kabupaten Tambrauw, Papua Bar. 98473","Emaos, Distrik Sausapor, Kabupaten Tambrauw",PAPUA BARAT,98473.0,Indonesia,,-0.5085713,132.0841967,https://maps.google.com/?cid=0x0:0x70be5406d57a2526
perumahan,Komplek perumahan,Kampung Bikar,"F6XH+M2, Bikar, Distrik Sausapor, Kabupaten Tambrauw, Papua Bar.","Kabupaten Tambrauw, Papua Bar.",PAPUA BARAT,,Indonesia,,-0.5008328,132.2275082,https://maps.google.com/?cid=0x0:0xcb3c104f4a270e39
perumahan,Toko,Toko TRIA 2 SAUSAPOR,"Jln.warfaknik ,kampung emaus, Emaos, Distrik Sausapor, Kabupaten Tambrauw, Papua Bar. 98473","Emaos, Distrik Sausapor, Kabupaten Tambrauw",PAPUA BARAT,98473.0,Indonesia,81343383345.0,-0.4935991,132.0891444,https://maps.google.com/?cid=0x0:0x457417ac228bb544
perumahan,perumahan,L'day Home,"H5MR+7W, Werur, Distrik Sausapor, Kabupaten Tambrauw, Papua Bar. 98473","Werur, Distrik Sausapor, Kabupaten Tambrauw",PAPUA BARAT,98473.0,Indonesia,,-0.4167409,132.1929586,https://maps.google.com/?cid=0x0:0x756c4aa28290e1f2
perumahan,perumahan,Papua Bar. 98372,"Kabupaten Manokwari, Papua Bar.","Kabupaten Manokwari, Papua Bar.",PAPUA BARAT,,Indonesia,,-0.9989582,133.0194897,https://maps.google.com/?cid=0x0:0xd3aecb81246ce306
perumahan,perumahan,sanger home,"5W7H+3V6, Wausin, Senopi, Kabupaten Manokwari, Papua Bar. 98372","Wausin, Senopi, Kabupaten Manokwari",PAPUA BARAT,98372.0,Indonesia,,-0.8371279,132.9296454,https://maps.google.com/?cid=0x0:0xa00ca14d77fb1809
perumahan,perumahan,Wufmana Ireres,"4WR6+JJ, Wausin, Senopi, Kabupaten Manokwari, Papua Bar.","Kabupaten Manokwari, Papua Bar.",PAPUA BARAT,,Indonesia,,-0.8584163,132.9115905,https://maps.google.com/?cid=0x0:0xcaf4229f9a6eaa76
perumahan,Balai masyarakat,Site Inambuari,"542W+24, Kebar Tengah, Kebar, Kabupaten Manokwari, Papua Bar. 98372","Kebar Tengah, Kebar, Kabupaten Manokwari",PAPUA BARAT,98372.0,Indonesia,,-0.84998,133.14526,https://maps.google.com/?cid=0x0:0xf93e0a553355c4bb
perumahan,Pembangunan Perumahan,Kampung Arapi,"5W6Q+92, Afrawi, Senopi, Kabupaten Manokwari, Papua Bar.","Kabupaten Manokwari, Papua Bar.",PAPUA BARAT,,Indonesia,,-0.8391125,132.9375207,https://maps.google.com/?cid=0x0:0xa9aa1d6fb8f5e3a4
perumahan,Komplek perumahan,Kampung Barona,"557M+9RX, Kebar Tengah, Kebar, Kabupaten Tambrauw, Papua Bar.","Kabupaten Tambrauw, Papua Bar.",PAPUA BARAT,,Indonesia,,-0.8365006,133.1846072,https://maps.google.com/?cid=0x0:0x1e61487534e976db
perumahan,Komplek perumahan,Kampung Amnan,"3527+FRQ Kampung Amnan, Selatan, Atay, Kebar, Kab Tambrauw, Papua Bar.","Kab Tambrauw, Papua Bar.",PAPUA BARAT,,Indonesia,,-0.9487961,133.164609,https://maps.google.com/?cid=0x0:0x76e87caf225d4a6
perumahan,perumahan,Kampung Esyum II,"5H4G+X9, Yabouw, Miyah, Kabupaten Tambrauw, Papua Bar. 98473","Yabouw, Miyah, Kabupaten Tambrauw",PAPUA BARAT,98473.0,Indonesia,,-0.8428289,132.575921,https://maps.google.com/?cid=0x0:0xbe2a715c2324499c
perumahan,Pembangunan Perumahan,Kampung naranati,"X35H+V46, Atay, Kebar, Kabupaten Manokwari, Papua Bar. 98372","Atay, Kebar, Kabupaten Manokwari",PAPUA BARAT,98372.0,Indonesia,,-1.0403328,133.0777555,https://maps.google.com/?cid=0x0:0x7de1bba357dcdcc2
perumahan,Pembangunan Perumahan,Kampung Aritowi,"342V+47, Atay, Kebar, Kabupaten Manokwari, Papua Bar.","Kabupaten Manokwari, Papua Bar.",PAPUA BARAT,,Indonesia,,-0.9496962,133.1432036,https://maps.google.com/?cid=0x0:0x25eb742434118822
perumahan,Komplek perumahan,Ruf Miyah Selatan Tambrauw,"2MCG+J8, i, Kampung Ruf, Miyah selatan, Kabupaten Tambrauw, Papua Bar.","Kabupaten Tambrauw, Papua Bar.",PAPUA BARAT,,Indonesia,,-0.9784375,132.6758125,https://maps.google.com/?cid=0x0:0xf48269c66159918e
perumahan,Pembangunan Perumahan,Kampung Matatun,"53G3+VJ2, Kebar Tengah, Kebar, Kabupaten Manokwari, Papua Bar.","Kabupaten Manokwari, Papua Bar.",PAPUA BARAT,,Indonesia,,-0.8228654,133.0540034,https://maps.google.com/?cid=0x0:0x6cad1760c362256c
perumahan,perumahan,RUMAH KELUARGA BESAR 'AJEMBUANI',"5X4F+C2P, Afrawi, Senopi, Kabupaten Manokwari, Papua Bar.","Kabupaten Manokwari, Papua Bar.",PAPUA BARAT,,Indonesia,,-0.8439244,132.9725692,https://maps.google.com/?cid=0x0:0xd04ee9f389f13dfb
perumahan,Pembangunan Perumahan,Esyak Sicor,"5H45+QG, Yabouw, Miyah, Kabupaten Tambrauw, Papua Bar.","Kabupaten Tambrauw, Papua Bar.",PAPUA BARAT,,Indonesia,,-0.8430625,132.5588125,https://maps.google.com/?cid=0x0:0x4402219fce4033f0
perumahan,perumahan,Distrik Syujak,"Kabupaten Tambrauw, Papua Bar.","Kabupaten Tambrauw, Papua Bar.",PAPUA BARAT,,Indonesia,,-0.7852432,132.4121441,https://maps.google.com/?cid=0x0:0x7dd0acee1cc8bcaa
perumahan,Perhimpunan Pengembang Perumahan,"Distrik Syujak, Tambrauw","7F26+2Q, Ases, Distrik Fef, Kabupaten Tambrauw, Papua Bar.","Kabupaten Tambrauw, Papua Bar.",PAPUA BARAT,,Indonesia,,-0.7499712,132.4618937,https://maps.google.com/?cid=0x0:0xb6e8433c8b1a5e0c
perumahan,Komplek perumahan,Wooden House,"6C76+68F, Banso, Distrik Syujak, Kabupaten Tambrauw, Papua Bar. 98473","Banso, Distrik Syujak, Kabupaten Tambrauw",PAPUA BARAT,98473.0,Indonesia,82188149959.0,-0.7869369,132.4107896,https://maps.google.com/?cid=0x0:0x173c0bc1e9a89f64
perumahan,Komplek perumahan,Kampung taposie,"4C4F+QV5, Soon, Distrik Ases, Kabupaten Tambrauw, Papua Bar.","Kabupaten Tambrauw, Papua Bar.",PAPUA BARAT,,Indonesia,,-0.8931103,132.4247233,https://maps.google.com/?cid=0x0:0xfdfa990f0439caa
perumahan,Komplek perumahan,Echo House,"6C76+G4P, Banso, Distrik Fef, Kabupaten Tambrauw, Papua Bar. 98473","Banso, Distrik Fef, Kabupaten Tambrauw",PAPUA BARAT,98473.0,Indonesia,,-0.786163,132.4103262,https://maps.google.com/?cid=0x0:0x83faf9167ec56bbc
perumahan,Komplek perumahan,Asyuom,"5H4G+X9, Yabouw, Miyah, Kabupaten Tambrauw, Papua Bar. 98473","Yabouw, Miyah, Kabupaten Tambrauw",PAPUA BARAT,98473.0,Indonesia,,-0.842581,132.575939,https://maps.google.com/?cid=0x0:0x883ffce232075f4f
perumahan,Komplek perumahan,Kampung Frasayoh,"4C4H+76, Sikor, Distrik Fef, Kabupaten Tambrauw, Papua Bar.","Kabupaten Tambrauw, Papua Bar.",PAPUA BARAT,,Indonesia,,-0.8942728,132.4280157,https://maps.google.com/?cid=0x0:0xb45477bf2198cdbc
perumahan,Pembangunan Perumahan,Esyak Sicor,"5H45+QG, Yabouw, Miyah, Kabupaten Tambrauw, Papua Bar.","Kabupaten Tambrauw, Papua Bar.",PAPUA BARAT,,Indonesia,,-0.8430625,132.5588125,https://maps.google.com/?cid=0x0:0x4402219fce4033f0
perumahan,Komplek perumahan,Distrik manekar,"699V+7G4, Maneka, Distrik Syujak, Kabupaten Tambrauw, Papua Bar.","Kabupaten Tambrauw, Papua Bar.",PAPUA BARAT,,Indonesia,,-0.781856,132.3938375,https://maps.google.com/?cid=0x0:0x8718e92b7e392228
perumahan,Komplek perumahan,Kampung Ases,"4C3G+MM, Sikor, Distrik Fef, Kabupaten Tambrauw, Papua Bar.","Kabupaten Tambrauw, Papua Bar.",PAPUA BARAT,,Indonesia,,-0.8958741,132.4266678,https://maps.google.com/?cid=0x0:0x3d5a500f5325a7d1
perumahan,Komplek perumahan,Kampung Ibe kan tambrauw,"Jl irawiam No.02, Ases, Distrik Fef, Kabupaten Tambrauw, Papua Bar. 98473","Ases, Distrik Fef, Kabupaten Tambrauw",PAPUA BARAT,98473.0,Indonesia,,-0.8045954,132.4307928,https://maps.google.com/?cid=0x0:0xe1512ec1a5848a42
perumahan,perumahan,Puskesmas syuja,"7F35+7J6, Ases, Distrik Fef, Kabupaten Tambrauw, Papua Bar. 98473","Ases, Distrik Fef, Kabupaten Tambrauw",PAPUA BARAT,98473.0,Indonesia,,-0.7468339,132.4590167,https://maps.google.com/?cid=0x0:0xcadd886f15530187
perumahan,perumahan,Kampung Esyum II,"5H4G+X9, Yabouw, Miyah, Kabupaten Tambrauw, Papua Bar. 98473","Yabouw, Miyah, Kabupaten Tambrauw",PAPUA BARAT,98473.0,Indonesia,,-0.8428289,132.575921,https://maps.google.com/?cid=0x0:0xbe2a715c2324499c
perumahan,Komplek perumahan,Batas Tabam B,"5CVJ+VQ6, Ases, Distrik Fef, Kabupaten Tambrauw, Papua Bar.","Kabupaten Tambrauw, Papua Bar.",PAPUA BARAT,,Indonesia,,-0.8043121,132.4327039,https://maps.google.com/?cid=0x0:0xb716e4ecfed9475a
perumahan,perumahan,Kec. Yembun,"Kabupaten Tambrauw, Papua Bar.","Kabupaten Tambrauw, Papua Bar.",PAPUA BARAT,,Indonesia,,-0.7808355,132.1189376,https://maps.google.com/?cid=0x0:0xc5562a9e3b0d5fb4
perumahan,Kantor Pemerintah,Kampung Baun Distrik Yembun Kabupaten Tambrauw,"74QP+MR, Baun, Kec. Yembun, Kabupaten Tambrauw, Papua Bar.","Kabupaten Tambrauw, Papua Bar.",PAPUA BARAT,,Indonesia,,-0.7108291,132.1371008,https://maps.google.com/?cid=0x0:0x18a3eb10de6d858f
perumahan,Pembangunan Perumahan,SYARWOM,"68F4+J3X, Syarwom, Kec. Yembun, Kabupaten Tambrauw, Papua Bar.","Kabupaten Tambrauw, Papua Bar.",PAPUA BARAT,,Indonesia,,-0.7758753,132.3052488,https://maps.google.com/?cid=0x0:0x2f742dd1011dcbb0
perumahan,Pembangunan Perumahan,Kampung Babak,"878W+95C, Bamusbama, Kec. Yembun, Kabupaten Tambrauw, Papua Bar. 98473","Bamusbama, Kec. Yembun, Kabupaten Tambrauw",PAPUA BARAT,98473.0,Indonesia,,-0.6840508,132.2953964,https://maps.google.com/?cid=0x0:0x85d676b14180aa5a
perumahan,Komplek perumahan,Echo House,"6C76+G4P, Banso, Distrik Fef, Kabupaten Tambrauw, Papua Bar. 98473","Banso, Distrik Fef, Kabupaten Tambrauw",PAPUA BARAT,98473.0,Indonesia,,-0.786163,132.4103262,https://maps.google.com/?cid=0x0:0x83faf9167ec56bbc
perumahan,Komplek perumahan,Hombes kali kopi,"6C66+6C7, Banso, Distrik Syujak, Kabupaten Tambrauw, Papua Bar. 98473","Banso, Distrik Syujak, Kabupaten Tambrauw",PAPUA BARAT,98473.0,Indonesia,,-0.7894645,132.4110323,https://maps.google.com/?cid=0x0:0xff0a154ceabcbdf0
perumahan,Komplek perumahan,Kampung Ibe kan tambrauw,"Jl irawiam No.02, Ases, Distrik Fef, Kabupaten Tambrauw, Papua Bar. 98473","Ases, Distrik Fef, Kabupaten Tambrauw",PAPUA BARAT,98473.0,Indonesia,,-0.8045954,132.4307928,https://maps.google.com/?cid=0x0:0xe1512ec1a5848a42
perumahan,Komplek perumahan,Wooden House,"6C76+68F, Banso, Distrik Syujak, Kabupaten Tambrauw, Papua Bar. 98473","Banso, Distrik Syujak, Kabupaten Tambrauw",PAPUA BARAT,98473.0,Indonesia,82188149959.0,-0.7869369,132.4107896,https://maps.google.com/?cid=0x0:0x173c0bc1e9a89f64
perumahan,Lembaga Swadaya Masyarakat (LSM),Kantor DPD Partai NasDem Kabupaten Tambrauw,"68FV+RVR, Jl. Irawiam, Fef, Distrik Fef, Kabupaten Tambrauw, Papua Bar.","Kabupaten Tambrauw, Papua Bar.",PAPUA BARAT,,Indonesia,,-0.7753897,132.3446399,https://maps.google.com/?cid=0x0:0x703f65a7004134a9
perumahan,Komplek perumahan,Rumah,"5GG5+Q3 Kasi, Wayo, Distrik Fef, Kabupaten Tambrauw, Papua Bar.","Kabupaten Tambrauw, Papua Bar.",PAPUA BARAT,,Indonesia,,-0.8230625,132.5076875,https://maps.google.com/?cid=0x0:0x26afd06e16bdf46d
perumahan,Komplek perumahan,Kampung Saengkeduk,"62M5+VHJ, Sengkeduk, Kabupaten Sorong, Papua Bar.","Kabupaten Sorong, Papua Bar.",PAPUA BARAT,,Indonesia,,-0.7652889,132.0088792,https://maps.google.com/?cid=0x0:0x19221ebd9f1d38f8
perumahan,Komplek perumahan,Distrik manekar,"699V+7G4, Maneka, Distrik Syujak, Kabupaten Tambrauw, Papua Bar.","Kabupaten Tambrauw, Papua Bar.",PAPUA BARAT,,Indonesia,,-0.781856,132.3938375,https://maps.google.com/?cid=0x0:0x8718e92b7e392228
perumahan,Pondok pedesaan,Kampung Womom,"699V+7G4, Kampung Womom, Distrik Tobouw, Kabupaten Tambrauw, Papua Bar.","Kabupaten Tambrauw, Papua Bar.",PAPUA BARAT,,Indonesia,,-0.781856,132.3938375,https://maps.google.com/?cid=0x0:0x428f621f704b484a
perumahan,Komplek perumahan,Kampung Klaos,"342H+C25, Jl. Kampung, Klaos, Maudus, Kabupaten Sorong, Papua Bar.","Kabupaten Sorong, Papua Bar.",PAPUA BARAT,,Indonesia,,-0.9489964,132.127625,https://maps.google.com/?cid=0x0:0xca0c8d07da8012d4
housing complex,Balai masyarakat,Resye Abun Kab_Tambrauw,"JCV5+WW6, Saubeba, Abun, Kabupaten Tambrauw, Papua Bar. 98473","Saubeba, Abun, Kabupaten Tambrauw",PAPUA BARAT,98473.0,Indonesia,,-0.3552157,132.4097777,https://maps.google.com/?cid=0x0:0xbe2eb106604dbd43
housing complex,Komplek perumahan,Kantor Kampung Resye,"JCV5+WVF, Saubeba, Abun, Kabupaten Tambrauw, Papua Bar. 98473","Saubeba, Abun, Kabupaten Tambrauw",PAPUA BARAT,98473.0,Indonesia,,-0.3551812,132.40966,https://maps.google.com/?cid=0x0:0x5fd162fe58496385
housing complex,housing complex,Papua Bar. 98371,Papua Bar.,Papua Bar.,PAPUA BARAT,,Indonesia,,-0.6071799,132.941698,https://maps.google.com/?cid=0x0:0xccfddd95cd14e2b2
housing complex,Komplek perumahan,Kampung Sabon,"F3JH+3HV, Saukorem, Distrik Amberbaken, Kabupaten Tambrauw, Papua Bar. 98371","Saukorem, Distrik Amberbaken, Kabupaten Tambrauw",PAPUA BARAT,98371.0,Indonesia,,-0.5197698,133.0789375,https://maps.google.com/?cid=0x0:0x4870fb4b5ca641f5
housing complex,Komplek perumahan,Kampung Wefiani,"F43Q+C2, Serayo, Distrik Amberbaken, Kabupaten Manokwari, Papua Bar.","Kabupaten Manokwari, Papua Bar.",PAPUA BARAT,,Indonesia,,-0.5464871,133.1375693,https://maps.google.com/?cid=0x0:0xf8c7ae4d45f615a4
housing complex,Perhimpunan Pengembang Perumahan,Kampung Weyaf,"HV2P+5M8, Weyaf, Abun, Kabupaten Tambrauw, Papua Bar. 98371","Weyaf, Abun, Kabupaten Tambrauw",PAPUA BARAT,98371.0,Indonesia,,-0.4495953,132.8866985,https://maps.google.com/?cid=0x0:0xed9e22c52c911586
housing complex,Perhimpunan Pengembang Perumahan,RumahSita mahu,"96MP+7X, Mangganek / Arupi, Distrik Amberbaken, Kabupaten Manokwari, Papua Bar.","Kabupaten Manokwari, Papua Bar.",PAPUA BARAT,,Indonesia,,-0.6162709,133.237491,https://maps.google.com/?cid=0x0:0xaf97c1392dae593d
housing complex,housing complex,Pastori GKI Imanuel Wau,"FV9V+H6R, Weyaf, Abun, Kabupaten Tambrauw, Papua Bar. 98371","Weyaf, Abun, Kabupaten Tambrauw",PAPUA BARAT,98371.0,Indonesia,,-0.5310006,132.8930179,https://maps.google.com/?cid=0x0:0xba1c2d6d96eb19f0
housing complex,Komplek perumahan,Kampung Beriambeker,"8874+4VX, Jl. Poros, Udapi Hilir, Mubarni / Arfu, Kabupaten Manokwari, Papua Bar.","Kabupaten Manokwari, Papua Bar.",PAPUA BARAT,,Indonesia,,-0.687142,133.3072294,https://maps.google.com/?cid=0x0:0x5cd20a671d205ec6
housing complex,Komplek perumahan,Kampung Barona,"557M+9RX, Kebar Tengah, Kebar, Kabupaten Tambrauw, Papua Bar.","Kabupaten Tambrauw, Papua Bar.",PAPUA BARAT,,Indonesia,,-0.8365006,133.1846072,https://maps.google.com/?cid=0x0:0x1e61487534e976db
housing complex,Komplek perumahan,Wau Papua barat,"HV2P+R94, Weyaf, Wau, Kabupaten Tambrauw, Papua Bar.","Kabupaten Tambrauw, Papua Bar.",PAPUA BARAT,,Indonesia,,-0.4479797,132.8859493,https://maps.google.com/?cid=0x0:0x105d419539fd02f7
housing complex,Kantor Pemerintah,"Warokon City, Mubrani","6CQH+65X, Unnamed Road, Arfu, Mubarni / Arfu, Warokon Tambrauw, Papua Bar. 98357","Unnamed Road, Arfu, Mubarni / Arfu, Warokon Tambrauw",PAPUA BARAT,98357.0,Indonesia,,-0.7618881,133.4279791,https://maps.google.com/?cid=0x0:0x9f2344a4ce4bb097
housing complex,Pembangunan Perumahan,Kampung Serayo,"96X8+P88, Kampung Wekari, Distrik Mpur, Kab.Tambrauw, Papua Bar.","Kab.Tambrauw, Papua Bar.",PAPUA BARAT,,Indonesia,,-0.6007223,133.215818,https://maps.google.com/?cid=0x0:0xa0bb6f2aa419a1d9
housing complex,Komplek perumahan,Chya Kuning,"882C+JX, Bereambeker / Meriambeker, Kabupaten Manokwari, Papua Bar.","Kabupaten Manokwari, Papua Bar.",PAPUA BARAT,,Indonesia,,-0.6984795,133.322411,https://maps.google.com/?cid=0x0:0xd90ada53c836289c
housing complex,Balai masyarakat,kampung jandurauw,"Kebari Timur, Kebar, Kabupaten Manokwari, Papua Bar.","Kabupaten Manokwari, Papua Bar.",PAPUA BARAT,,Indonesia,,-0.862424,133.2156477,https://maps.google.com/?cid=0x0:0xa8c0a9957f30ce88
housing complex,housing complex,sanger home,"5W7H+3V6, Wausin, Senopi, Kabupaten Manokwari, Papua Bar. 98372","Wausin, Senopi, Kabupaten Manokwari",PAPUA BARAT,98372.0,Indonesia,,-0.8371279,132.9296454,https://maps.google.com/?cid=0x0:0xa00ca14d77fb1809
housing complex,housing complex,Papua Bar. 98372,"Kabupaten Manokwari, Papua Bar.","Kabupaten Manokwari, Papua Bar.",PAPUA BARAT,,Indonesia,,-0.9989582,133.0194897,https://maps.google.com/?cid=0x0:0xd3aecb81246ce306
housing complex,Balai masyarakat,kampung jandurauw,"Kebari Timur, Kebar, Kabupaten Manokwari, Papua Bar.","Kabupaten Manokwari, Papua Bar.",PAPUA BARAT,,Indonesia,,-0.862424,133.2156477,https://maps.google.com/?cid=0x0:0xa8c0a9957f30ce88
housing complex,housing complex,sanger home,"5W7H+3V6, Wausin, Senopi, Kabupaten Manokwari, Papua Bar. 98372","Wausin, Senopi, Kabupaten Manokwari",PAPUA BARAT,98372.0,Indonesia,,-0.8371279,132.9296454,https://maps.google.com/?cid=0x0:0xa00ca14d77fb1809
housing complex,Balai masyarakat,Site Inambuari,"542W+24, Kebar Tengah, Kebar, Kabupaten Manokwari, Papua Bar. 98372","Kebar Tengah, Kebar, Kabupaten Manokwari",PAPUA BARAT,98372.0,Indonesia,,-0.84998,133.14526,https://maps.google.com/?cid=0x0:0xf93e0a553355c4bb
housing complex,Komplek perumahan,Kampung Ruf,"2MCG+J8, Kebar Bar. / Senopi, Senopi, Kabupaten Manokwari, Papua Bar.","Kabupaten Manokwari, Papua Bar.",PAPUA BARAT,,Indonesia,,-0.9784997,132.6756673,https://maps.google.com/?cid=0x0:0xc668bcc0411f930c
housing complex,Pembangunan Perumahan,Kampung Matatun,"53G3+VJ2, Kebar Tengah, Kebar, Kabupaten Manokwari, Papua Bar.","Kabupaten Manokwari, Papua Bar.",PAPUA BARAT,,Indonesia,,-0.8228654,133.0540034,https://maps.google.com/?cid=0x0:0x6cad1760c362256c
housing complex,housing complex,Wufmana Ireres,"4WR6+JJ, Wausin, Senopi, Kabupaten Manokwari, Papua Bar.","Kabupaten Manokwari, Papua Bar.",PAPUA BARAT,,Indonesia,,-0.8584163,132.9115905,https://maps.google.com/?cid=0x0:0xcaf4229f9a6eaa76
housing complex,Komplek perumahan,Kampung Amnan,"3527+FRQ Kampung Amnan, Selatan, Atay, Kebar, Kab Tambrauw, Papua Bar.","Kab Tambrauw, Papua Bar.",PAPUA BARAT,,Indonesia,,-0.9487961,133.164609,https://maps.google.com/?cid=0x0:0x76e87caf225d4a6
housing complex,Pembangunan Perumahan,Kampung naranati,"X35H+V46, Atay, Kebar, Kabupaten Manokwari, Papua Bar. 98372","Atay, Kebar, Kabupaten Manokwari",PAPUA BARAT,98372.0,Indonesia,,-1.0403328,133.0777555,https://maps.google.com/?cid=0x0:0x7de1bba357dcdcc2
housing complex,Pembangunan Perumahan,Kampung Arapi,"5W6Q+92, Afrawi, Senopi, Kabupaten Manokwari, Papua Bar.","Kabupaten Manokwari, Papua Bar.",PAPUA BARAT,,Indonesia,,-0.8391125,132.9375207,https://maps.google.com/?cid=0x0:0xa9aa1d6fb8f5e3a4
housing complex,Pembangunan Perumahan,Kampung Aritowi,"342V+47, Atay, Kebar, Kabupaten Manokwari, Papua Bar.","Kabupaten Manokwari, Papua Bar.",PAPUA BARAT,,Indonesia,,-0.9496962,133.1432036,https://maps.google.com/?cid=0x0:0x25eb742434118822
housing complex,Pembangunan Perumahan,Esyak Sicor,"5H45+QG, Yabouw, Miyah, Kabupaten Tambrauw, Papua Bar.","Kabupaten Tambrauw, Papua Bar.",PAPUA BARAT,,Indonesia,,-0.8430625,132.5588125,https://maps.google.com/?cid=0x0:0x4402219fce4033f0
housing complex,housing complex,Kampung Esyum II,"5H4G+X9, Yabouw, Miyah, Kabupaten Tambrauw, Papua Bar. 98473","Yabouw, Miyah, Kabupaten Tambrauw",PAPUA BARAT,98473.0,Indonesia,,-0.8428289,132.575921,https://maps.google.com/?cid=0x0:0xbe2a715c2324499c
housing complex,Pembangunan Perumahan,Kampung Atafrumek,"3MQW+3QJ, Ayapokiar, Miyah, Kabupaten Tambrauw, Papua Bar.","Kabupaten Tambrauw, Papua Bar.",PAPUA BARAT,,Indonesia,,-0.9122764,132.6968918,https://maps.google.com/?cid=0x0:0x7cf98e83adb2378d
housing complex,housing complex,Distrik Fef,"Kabupaten Tambrauw, Papua Bar.","Kabupaten Tambrauw, Papua Bar.",PAPUA BARAT,,Indonesia,,-0.7798216,132.3665985,https://maps.google.com/?cid=0x0:0x99889d8cffaa571e
housing complex,housing complex,Distrik Kwoor,"Kabupaten Tambrauw, Papua Bar.","Kabupaten Tambrauw, Papua Bar.",PAPUA BARAT,,Indonesia,,-0.4621685,132.2908119,https://maps.google.com/?cid=0x0:0xc9babc4648539c74
housing complex,Dapur Umum,Kampung Werur,"G7V5+2C, Werur Besar, Distrik Sausapor, Kabupaten Tambrauw, Papua Bar.","Kabupaten Tambrauw, Papua Bar.",PAPUA BARAT,,Indonesia,,-0.4575174,132.2586661,https://maps.google.com/?cid=0x0:0x7bb9fab9ed86b4cf
housing complex,Komplek perumahan,Domron,"CCXC+R8R, Syumbab, Distrik Kwoor, Kabupaten Tambrauw, Papua Bar. 98473","Syumbab, Distrik Kwoor, Kabupaten Tambrauw",PAPUA BARAT,98473.0,Indonesia,,-0.5503843,132.4207533,https://maps.google.com/?cid=0x0:0xcd2ef415a14ef7a1
housing complex,Balai masyarakat,Resye Abun Kab_Tambrauw,"JCV5+WW6, Saubeba, Abun, Kabupaten Tambrauw, Papua Bar. 98473","Saubeba, Abun, Kabupaten Tambrauw",PAPUA BARAT,98473.0,Indonesia,,-0.3552157,132.4097777,https://maps.google.com/?cid=0x0:0xbe2eb106604dbd43
housing complex,Pembangunan Perumahan,Kampung Nombrak,"Bar., H6Q5+R99, Nombrak, Distrik Bikar, Kabupaten Tambrauw, Papua Barat Daya, 98473","H6Q5+R99, Nombrak, Distrik Bikar, Kabupaten Tambrauw",PAPUA BARAT,98473.0,Indonesia,,-0.410315,132.2094783,https://maps.google.com/?cid=0x0:0x5b3afe85215a47f5
housing complex,Kantor Pemerintah,Kabupaten tambrauw,"G33P+HXH, Emaos, Distrik Sausapor, Kabupaten Tambrauw, Papua Bar. 98473","Emaos, Distrik Sausapor, Kabupaten Tambrauw",PAPUA BARAT,98473.0,Indonesia,,-0.496052,132.0874738,https://maps.google.com/?cid=0x0:0xc040451b52722ceb
housing complex,housing complex,Miyah,"Kabupaten Tambrauw, Papua Bar.","Kabupaten Tambrauw, Papua Bar.",PAPUA BARAT,,Indonesia,,-0.7502666,132.6684924,https://maps.google.com/?cid=0x0:0x714bb316eb3dbe5c
housing complex,Pembangunan Perumahan,Miyah,"Miyah olshop, Ayiamane, Miyah, Kabupaten Tambrauw, Papua Bar.","Kabupaten Tambrauw, Papua Bar.",PAPUA BARAT,,Indonesia,,-0.7502666,132.6684924,https://maps.google.com/?cid=0x0:0x7760411a1567e02f
housing complex,Komplek perumahan,Asyuom,"5H4G+X9, Yabouw, Miyah, Kabupaten Tambrauw, Papua Bar. 98473","Yabouw, Miyah, Kabupaten Tambrauw",PAPUA BARAT,98473.0,Indonesia,,-0.842581,132.575939,https://maps.google.com/?cid=0x0:0x883ffce232075f4f
housing complex,housing complex,Kampung Esyum II,"5H4G+X9, Yabouw, Miyah, Kabupaten Tambrauw, Papua Bar. 98473","Yabouw, Miyah, Kabupaten Tambrauw",PAPUA BARAT,98473.0,Indonesia,,-0.8428289,132.575921,https://maps.google.com/?cid=0x0:0xbe2a715c2324499c
housing complex,Pembangunan Perumahan,Esyak Sicor,"5H45+QG, Yabouw, Miyah, Kabupaten Tambrauw, Papua Bar.","Kabupaten Tambrauw, Papua Bar.",PAPUA BARAT,,Indonesia,,-0.8430625,132.5588125,https://maps.google.com/?cid=0x0:0x4402219fce4033f0
housing complex,Pembangunan Perumahan,Ayamane,"3JR4+7J, Yabouw, Miyah, Kabupaten Tambrauw, Papua Bar.","Kabupaten Tambrauw, Papua Bar.",PAPUA BARAT,,Indonesia,,-0.9093056,132.6066039,https://maps.google.com/?cid=0x0:0x7885fe7e2466e5d4
housing complex,Pembangunan Perumahan,Ruvewes,"4JFX+2H7, Ruvewes, Miyah, Kabupaten Tambrauw, Papua Bar. 98473","Ruvewes, Miyah, Kabupaten Tambrauw",PAPUA BARAT,98473.0,Indonesia,,-0.877467,132.6489222,https://maps.google.com/?cid=0x0:0x770749004a9d2972
housing complex,housing complex,Rumah Amhere Hamjahiya,"P39G+F59, Jl. Masjid Jami Nurul Iman, Cibuntu, Kec. Cibitung, Kabupaten Bekasi, Jawa Barat 17520","Jl. Masjid Jami Nurul Iman, Cibuntu, Kec. Cibitung, Kabupaten Bekasi",PAPUA BARAT,17520.0,Indonesia,,-6.2811975,107.0757975,https://maps.google.com/?cid=0x0:0xefaff68d85f96b75
housing complex,Komplek perumahan,MAZAYA RESIDENCE,"Jl. Raya Babelan, Kebalen, Kec. Babelan, Kabupaten Bekasi, Jawa Barat 17610","Kebalen, Kec. Babelan, Kabupaten Bekasi",PAPUA BARAT,17610.0,Indonesia,8561308003.0,-6.1858547,107.0393612,https://maps.google.com/?cid=0x0:0x374a0adf01fc4127
housing complex,Komplek perumahan,Rumah meysha,"Jl. Babakan No.Raya, Parakanlima, Kec. Cikembar, Kabupaten Sukabumi, Jawa Barat 43157","Parakanlima, Kec. Cikembar, Kabupaten Sukabumi",PAPUA BARAT,43157.0,Indonesia,,-6.993727,106.836081,https://maps.google.com/?cid=0x0:0xd333d857309b496
housing complex,Komplek perumahan,Rumah ma iyah,"M3G5+8CJ, Jl. Telajung, Telajung, Kec. Cikarang Bar., Kabupaten Bekasi, Jawa Barat 17530","Jl. Telajung, Telajung, Kec. Cikarang Bar., Kabupaten Bekasi",PAPUA BARAT,17530.0,Indonesia,,-6.3241519,107.0585015,https://maps.google.com/?cid=0x0:0x87dc652fff78180a
housing complex,housing complex,Moraid,"Kabupaten Sorong, Papua Bar.","Kabupaten Sorong, Papua Bar.",PAPUA BARAT,,Indonesia,,-0.6590992,131.9791516,https://maps.google.com/?cid=0x0:0x754b158cc336f2d9
housing complex,housing complex,Kompleks BUTON,"8WX5+FM, Kwade, Moraid, Kabupaten Sorong, Papua Bar.","Kabupaten Sorong, Papua Bar.",PAPUA BARAT,,Indonesia,,-0.6512961,131.9091668,https://maps.google.com/?cid=0x0:0x731e70a9f08ed17b
housing complex,Komplek perumahan,Distrik moraid,"8V7G+CWM, Kabupaten Sorong, Papua Bar.","Kabupaten Sorong, Papua Bar.",PAPUA BARAT,,Indonesia,,-0.68641,131.877304,https://maps.google.com/?cid=0x0:0xff77deb4c132656
housing complex,Komplek perumahan,Kampung Selemalawili,"7RM8+G7F, Dela, Moraid, Kabupaten Sorong, Papua Bar. 98472","Dela, Moraid, Kabupaten Sorong",PAPUA BARAT,98472.0,Indonesia,,-0.7166448,131.8145914,https://maps.google.com/?cid=0x0:0x64c628c350a532f0
housing complex,housing complex,Ripon home,"8XRH+9M6, Malaworsai, Moraid, Kabupaten Sorong, Papua Bar.","Kabupaten Sorong, Papua Bar.",PAPUA BARAT,,Indonesia,,-0.6590992,131.9791516,https://maps.google.com/?cid=0x0:0x108ecd9729254872
housing complex,Perhimpunan Pengembang Perumahan,Jlr SAMPEL,"8WP3+QPX, Mega, Moraid, Kabupaten Sorong, Papua Bar. 98472","Mega, Moraid, Kabupaten Sorong",PAPUA BARAT,98472.0,Indonesia,,-0.6635526,131.9043509,https://maps.google.com/?cid=0x0:0x8b12c1373d5f1020
housing complex,housing complex,Komp.SMP.Kamp.Mega,"8WW4+R27, Kampung Kwade, Mega, Moraid, Kabupaten Sorong, Papua Bar. 98472","Kampung Kwade, Mega, Moraid, Kabupaten Sorong",PAPUA BARAT,98472.0,Indonesia,,-0.6529747,131.9050507,https://maps.google.com/?cid=0x0:0x6fa24720c4bbf041
housing complex,housing complex,Papua Bar. 98472,"Kabupaten Sorong, Papua Bar.","Kabupaten Sorong, Papua Bar.",PAPUA BARAT,,Indonesia,,-0.8437569,131.9989718,https://maps.google.com/?cid=0x0:0x94d7894d7b2d29e5
housing complex,housing complex,Mubrani,"Warsnembri, Mubarni / Arfu, Kabupaten Manokwari, Papua Bar.","Kabupaten Manokwari, Papua Bar.",PAPUA BARAT,,Indonesia,,-0.743739,133.489594,https://maps.google.com/?cid=0x0:0xd4bd1e9b5b037656
housing complex,housing complex,Kec. Tebet,"Kota Jakarta Selatan, Daerah Khusus Ibukota Jakarta","Kota Jakarta Selatan, Daerah Khusus Ibukota Jakarta",PAPUA BARAT,,Indonesia,,-6.2251223,106.8549881,https://maps.google.com/?cid=0x0:0xd575e31c807295f9
housing complex,housing complex,Distrik Sausapor,"Kabupaten Tambrauw, Papua Bar.","Kabupaten Tambrauw, Papua Bar.",PAPUA BARAT,,Indonesia,,-0.496052,132.0874738,https://maps.google.com/?cid=0x0:0x22b76922b3bd09b1
housing complex,housing complex,Bakri Karim Family,"Unnamed Road, Emaos, Distrik Sausapor, Kabupaten Tambrauw, Papua Bar. 98473","Emaos, Distrik Sausapor, Kabupaten Tambrauw",PAPUA BARAT,98473.0,Indonesia,82271191527.0,-0.4962027,132.0920937,https://maps.google.com/?cid=0x0:0x4103682f3e0df40a
housing complex,Kantor Pemerintah,Kabupaten tambrauw,"G33P+HXH, Emaos, Distrik Sausapor, Kabupaten Tambrauw, Papua Bar. 98473","Emaos, Distrik Sausapor, Kabupaten Tambrauw",PAPUA BARAT,98473.0,Indonesia,,-0.496052,132.0874738,https://maps.google.com/?cid=0x0:0xc040451b52722ceb
housing complex,housing complex,HANS PLATIN ð¤´,"G33Q+3M4, Emaos, Distrik Sausapor, Kabupaten Tambrauw, Papua Bar. 98473","Emaos, Distrik Sausapor, Kabupaten Tambrauw",PAPUA BARAT,98473.0,Indonesia,,-0.4976212,132.0890143,https://maps.google.com/?cid=0x0:0x96e9fe8371013d49
housing complex,Pembangunan Perumahan,Kampung Nombrak,"Bar., H6Q5+R99, Nombrak, Distrik Bikar, Kabupaten Tambrauw, Papua Barat Daya, 98473","H6Q5+R99, Nombrak, Distrik Bikar, Kabupaten Tambrauw",PAPUA BARAT,98473.0,Indonesia,,-0.410315,132.2094783,https://maps.google.com/?cid=0x0:0x5b3afe85215a47f5
housing complex,Komplek perumahan,WILSON MOFU,"F3RM+H6W, Emaos, Distrik Sausapor, Kabupaten Tambrauw, Papua Bar. 98473","Emaos, Distrik Sausapor, Kabupaten Tambrauw",PAPUA BARAT,98473.0,Indonesia,,-0.5085713,132.0841967,https://maps.google.com/?cid=0x0:0x70be5406d57a2526
housing complex,housing complex,Papua Bar. 98372,"Kabupaten Manokwari, Papua Bar.","Kabupaten Manokwari, Papua Bar.",PAPUA BARAT,,Indonesia,,-0.9989582,133.0194897,https://maps.google.com/?cid=0x0:0xd3aecb81246ce306
housing complex,housing complex,sanger home,"5W7H+3V6, Wausin, Senopi, Kabupaten Manokwari, Papua Bar. 98372","Wausin, Senopi, Kabupaten Manokwari",PAPUA BARAT,98372.0,Indonesia,,-0.8371279,132.9296454,https://maps.google.com/?cid=0x0:0xa00ca14d77fb1809
housing complex,Balai masyarakat,kampung jandurauw,"Kebari Timur, Kebar, Kabupaten Manokwari, Papua Bar.","Kabupaten Manokwari, Papua Bar.",PAPUA BARAT,,Indonesia,,-0.862424,133.2156477,https://maps.google.com/?cid=0x0:0xa8c0a9957f30ce88
housing complex,Komplek perumahan,Kampung Ruf,"2MCG+J8, Kebar Bar. / Senopi, Senopi, Kabupaten Manokwari, Papua Bar.","Kabupaten Manokwari, Papua Bar.",PAPUA BARAT,,Indonesia,,-0.9784997,132.6756673,https://maps.google.com/?cid=0x0:0xc668bcc0411f930c
housing complex,Balai masyarakat,Site Inambuari,"542W+24, Kebar Tengah, Kebar, Kabupaten Manokwari, Papua Bar. 98372","Kebar Tengah, Kebar, Kabupaten Manokwari",PAPUA BARAT,98372.0,Indonesia,,-0.84998,133.14526,https://maps.google.com/?cid=0x0:0xf93e0a553355c4bb
housing complex,Pembangunan Perumahan,Kampung Arapi,"5W6Q+92, Afrawi, Senopi, Kabupaten Manokwari, Papua Bar.","Kabupaten Manokwari, Papua Bar.",PAPUA BARAT,,Indonesia,,-0.8391125,132.9375207,https://maps.google.com/?cid=0x0:0xa9aa1d6fb8f5e3a4
housing complex,housing complex,Yusup punya rumah,"5X3F+QFW, Afrawi, Senopi, Kabupaten Manokwari, Papua Bar.","Kabupaten Manokwari, Papua Bar.",PAPUA BARAT,,Indonesia,,-0.845511,132.9736934,https://maps.google.com/?cid=0x0:0xf3ccd43c5baace0
housing complex,housing complex,Kampung Jandurauw,"Kampung Jandurauw, Senopi, Kabupaten Manokwari, Papua Bar. 98372","Senopi, Kabupaten Manokwari",PAPUA BARAT,98372.0,Indonesia,,-0.9989582,133.0194897,https://maps.google.com/?cid=0x0:0xc403b41c2fb0eaea
housing complex,housing complex,Senopi,"Kabupaten Manokwari, Papua Bar.","Kabupaten Manokwari, Papua Bar.",PAPUA BARAT,,Indonesia,,-1.0594635,132.7857583,https://maps.google.com/?cid=0x0:0xdd84e513b3ec461f
housing complex,Gedung Apartemen,Senopati Suites Tower 1,"Senopati Suites, Jl. Senopati No.41, RT.8/RW.2, Senayan, Kebayoran Baru, South Jakarta City, Jakarta 12190","Jl. Senopati No.41, RT.8/RW.2, Senayan, Kebayoran Baru, South Jakarta City",PAPUA BARAT,12190.0,Indonesia,,-6.2291145,106.8028352,https://maps.google.com/?cid=0x0:0x5399027bdbc706bc
housing complex,Gedung Apartemen,Senopati Suites Tower 2  3,"2, Jl. Senopati No.41, RT.8/RW.2, Senayan, Kec. Kby. Baru, Kota Jakarta Selatan, Daerah Khusus Ibukota Jakarta 12190","Jl. Senopati No.41, RT.8/RW.2, Senayan, Kec. Kby. Baru, Kota Jakarta Selatan",PAPUA BARAT,12190.0,Indonesia,81314113041.0,-6.2291508,106.8025067,https://maps.google.com/?cid=0x0:0x89aa96b83780f0c5
housing complex,Pujasera,Seblak Cikur Prasmanan,"Senopati Suites, Jl. Senopati, RT.8/RW.2, Senayan, Kec. Kby. Baru, Kota Jakarta Selatan, Daerah Khusus Ibukota Jakarta 12190","Jl. Senopati, RT.8/RW.2, Senayan, Kec. Kby. Baru, Kota Jakarta Selatan",PAPUA BARAT,12190.0,Indonesia,,-6.2291603,106.8025047,https://maps.google.com/?cid=0x0:0x3ec677525a6e0860
housing complex,housing complex,Distrik Syujak,"Kabupaten Tambrauw, Papua Bar.","Kabupaten Tambrauw, Papua Bar.",PAPUA BARAT,,Indonesia,,-0.7852432,132.4121441,https://maps.google.com/?cid=0x0:0x7dd0acee1cc8bcaa
housing complex,Komplek perumahan,Wooden House,"6C76+68F, Banso, Distrik Syujak, Kabupaten Tambrauw, Papua Bar. 98473","Banso, Distrik Syujak, Kabupaten Tambrauw",PAPUA BARAT,98473.0,Indonesia,82188149959.0,-0.7869369,132.4107896,https://maps.google.com/?cid=0x0:0x173c0bc1e9a89f64
housing complex,Komplek perumahan,Echo House,"6C76+G4P, Banso, Distrik Fef, Kabupaten Tambrauw, Papua Bar. 98473","Banso, Distrik Fef, Kabupaten Tambrauw",PAPUA BARAT,98473.0,Indonesia,,-0.786163,132.4103262,https://maps.google.com/?cid=0x0:0x83faf9167ec56bbc
housing complex,Komplek perumahan,Hombes kali kopi,"6C66+6C7, Banso, Distrik Syujak, Kabupaten Tambrauw, Papua Bar. 98473","Banso, Distrik Syujak, Kabupaten Tambrauw",PAPUA BARAT,98473.0,Indonesia,,-0.7894645,132.4110323,https://maps.google.com/?cid=0x0:0xff0a154ceabcbdf0
housing complex,Komplek perumahan,Kampung taposie,"4C4F+QV5, Soon, Distrik Ases, Kabupaten Tambrauw, Papua Bar.","Kabupaten Tambrauw, Papua Bar.",PAPUA BARAT,,Indonesia,,-0.8931103,132.4247233,https://maps.google.com/?cid=0x0:0xfdfa990f0439caa
housing complex,Komplek perumahan,Kampung Ases,"4C3G+MM, Sikor, Distrik Fef, Kabupaten Tambrauw, Papua Bar.","Kabupaten Tambrauw, Papua Bar.",PAPUA BARAT,,Indonesia,,-0.8958741,132.4266678,https://maps.google.com/?cid=0x0:0x3d5a500f5325a7d1
housing complex,Komplek perumahan,Kampung Frasayoh,"4C4H+76, Sikor, Distrik Fef, Kabupaten Tambrauw, Papua Bar.","Kabupaten Tambrauw, Papua Bar.",PAPUA BARAT,,Indonesia,,-0.8942728,132.4280157,https://maps.google.com/?cid=0x0:0xb45477bf2198cdbc
housing complex,housing complex,Kec. Yembun,"Kabupaten Tambrauw, Papua Bar.","Kabupaten Tambrauw, Papua Bar.",PAPUA BARAT,,Indonesia,,-0.7808355,132.1189376,https://maps.google.com/?cid=0x0:0xc5562a9e3b0d5fb4
