Category;Real Category;Business Name;Address;City;State;Postal Code;Country;Phone;Email;Website;Latitude;Longitude;Map Link;Details Link
komplek housing;Pembangunan Perumahan;kurima;"R224+59H, Sogokmo, Distrik Asotipo, Kabupaten Jayawijaya, Papua 99511";"Sogokmo, Distrik Asotipo, Kabupaten Jayawijaya";PAPUA;99511;Indonesia;;;;-41.995.684;1.390.059.852;https://maps.google.com/?cid=0x0:0xf3e6dde3f015a08a;
komplek housing;Pembangunan Perumahan;Wusilimo;"Q29V+QVQ, Unnamed Road, Parela, Kec. Kurima, Kabupaten Yahukimo, Papua 99571";"Unnamed Road, Parela, Kec. Kurima, Kabupaten Yahukimo";PAPUA;99571;Indonesia;;;;-42.305.393;1.390.447.353;https://maps.google.com/?cid=0x0:0x310af1d3e19b0cf1;
komplek housing;komplek housing;Kec. Kurima;"Kabupaten Yahukimo, Papua";"Kabupaten Yahukimo, Papua";PAPUA;;Indonesia;;;;-42.110.641;13.902.832;https://maps.google.com/?cid=0x0:0x77fb5d60dba817bb;
komplek housing;Pembangunan Perumahan;Werima yahukimo;"Q36Q+854, Werima, Distrik Werima, Kabupaten Yahukimo, Papua";"Kabupaten Yahukimo, Papua";PAPUA;;Indonesia;;;;-42.392.397;1.390.879.622;https://maps.google.com/?cid=0x0:0xc3446ed4f01e9750;
komplek housing;komplek housing;Distrik Anggruk;"Kabupaten Yahukimo, Papua";"Kabupaten Yahukimo, Papua";PAPUA;;Indonesia;;;;-42.006.235;1.394.318.012;https://maps.google.com/?cid=0x0:0x8e0e9e49a5778268;
komplek housing;Pembangunan Perumahan;Lelambo;"QCPM+XH6, Lelambo, Distrik Anggruk, Kabupaten Yahukimo, Papua";"Kabupaten Yahukimo, Papua";PAPUA;;Indonesia;;;;-42.125.998;1.394.338.921;https://maps.google.com/?cid=0x0:0x1cdfebea160d0d72;
komplek housing;Perhimpunan Pengembang Perumahan;Kampung Pantele;"QCVJ+559, Tulpa, Distrik Anggruk, Kabupaten Yahukimo, Papua";"Kabupaten Yahukimo, Papua";PAPUA;;Indonesia;;;;-42.070.804;1.394.304.809;https://maps.google.com/?cid=0x0:0xf338736b091b6435;
komplek housing;Perhimpunan Pengembang Perumahan;Bukit Sion;"QF8C+Q7, Suhuntek, Ubahak, Kabupaten Yahukimo, Papua";"Kabupaten Yahukimo, Papua";PAPUA;;Indonesia;;;;-4.233.049;1.394.706.845;https://maps.google.com/?cid=0x0:0x130dcfdfe4ad9774;
komplek housing;Pembangunan Perumahan;RUMA PAK NAS TOGODLI;"P9XW+483, RT.04/RW.02, Werene, Distrik Walma, Kabupaten Yahukimo, Papua";"Kabupaten Yahukimo, Papua";PAPUA;;Indonesia;;;;-42.522.348;1.393.957.836;https://maps.google.com/?cid=0x0:0x56bc59ffaa4e0576;
komplek housing;Pembangunan Perumahan;Polmak;"PFMP+HWF, Welile, Ubahak, Kabupaten Yahukimo, Papua";"Kabupaten Yahukimo, Papua";PAPUA;;Indonesia;;;;-426.605;1.394.872.858;https://maps.google.com/?cid=0x0:0x225ada2e0634177d;
komplek housing;komplek housing;Papua 99578;"Kabupaten Yahukimo, Papua";"Kabupaten Yahukimo, Papua";PAPUA;;Indonesia;;;;-45.640.833;139.609.512;https://maps.google.com/?cid=0x0:0xf0d063f5d5617851;
komplek housing;komplek housing;Distrik Ninia;"Kabupaten Yahukimo, Papua";"Kabupaten Yahukimo, Papua";PAPUA;;Indonesia;;;;-43.157.712;1.393.301.478;https://maps.google.com/?cid=0x0:0xde1eb8298490e2ec;
komplek housing;komplek housing;Ninia;"Distrik Ninia, Kabupaten Yahukimo, Papua";"Kabupaten Yahukimo, Papua";PAPUA;;Indonesia;;;;-43.647.457;1.393.069.611;https://maps.google.com/?cid=0x0:0x684bc771e40a83a1;
komplek housing;Perumahan;FUNNISA RESIDENCE CIKARANG;"J36R+55F, Jayasampurna, Kec. Serang Baru, Kabupaten Bekasi, Jawa Barat 17330";"Jayasampurna, Kec. Serang Baru, Kabupaten Bekasi";PAPUA;17330;Indonesia;081298513469;;;-6.389.556;1.070.904.178;https://maps.google.com/?cid=0x0:0xef1fed28021d4c8b;
komplek housing;Komplek perumahan;Nia;"Jl. Kutilang 17 No.104, Pengasinan, Kec. Sawangan, Kota Depok, Jawa Barat 16518";"Pengasinan, Kec. Sawangan, Kota Depok";PAPUA;16518;Indonesia;;;;-6.410.879;106.758.289;https://maps.google.com/?cid=0x0:0xe7a8470dea4ac9d8;
komplek housing;komplek housing;Distrik Silimo;"Kabupaten Yahukimo, Papua";"Kabupaten Yahukimo, Papua";PAPUA;;Indonesia;;;;-44.648.706;1.389.453.684;https://maps.google.com/?cid=0x0:0x829137a390946d89;
komplek housing;Komplek perumahan;Shalila Residence;"Patokan SMK TI Dwi Guna, Gg. Elga Jl. H. Dul, RT.004/RW.005, Kota Depok, Jawa Barat 16432";"Gg. Elga Jl. H. Dul, RT.004/RW.005, Kota Depok";PAPUA;16432;Indonesia;085776469887;;;-64.361.101;1.068.071.969;https://maps.google.com/?cid=0x0:0x7c699cc0409a0b1a;
komplek housing;Komplek perumahan;SRIMAYA Residence;"Jl. Pangkalan 6, RT.003/RW.006, Ciketing Udik, Kec. Bantar Gebang, Kota Bks, Jawa Barat 17153";"RT.003/RW.006, Ciketing Udik, Kec. Bantar Gebang, Kota Bks";PAPUA;17153;Indonesia;082210008038;;;-63.573.826;1.069.852.331;https://maps.google.com/?cid=0x0:0x5ed84096e0e0c2c7;
komplek housing;Pembangunan Perumahan;Srimaya Summarecon;"Jl. Raya Narogong No.KM 15, RT.001/RW.001, Ciketing Udik, Kec. Bantar Gebang, Kota Bks, Jawa Barat 17153";"RT.001/RW.001, Ciketing Udik, Kec. Bantar Gebang, Kota Bks";PAPUA;17153;Indonesia;;;;-63.574.718;1.069.851.576;https://maps.google.com/?cid=0x0:0xf65a27b03229166a;
komplek housing;Perhimpunan Pengembang Perumahan;Srimaya Residence Cluster Candani ZCG 11;"Srimaya Sumarecon cluster candani, Jl. Pangkalan 6 No.11 Blok ZCG, Ciketing Udik, Bantar Gebang, Bekasi, West Java 17153";"Jl. Pangkalan 6 No.11 Blok ZCG, Ciketing Udik, Bantar Gebang, Bekasi";PAPUA;17153;Indonesia;;;;-63.555.558;1.069.876.387;https://maps.google.com/?cid=0x0:0xe47ec961df600074;
komplek housing;Komplek perumahan;Perumahan Citra Townhouse;"MWCF+5J6, Jl. Raya Hankam, RT.005/RW.006, Jatimurni, Kec. Pd. Melati, Kota Bks, Jawa Barat 17431";"Jl. Raya Hankam, RT.005/RW.006, Jatimurni, Kec. Pd. Melati, Kota Bks";PAPUA;17431;Indonesia;;;;-63.295.866;1.069.240.196;https://maps.google.com/?cid=0x0:0x3a8b26daf7e305f7;
komplek housing;Komplek perumahan;Rumah ciseeng;"HMP3+5XV, Jl. Puri Ciseeng Lestari, Jampang, Kec. Gn. Sindur, Kabupaten Bogor, Jawa Barat 16340";"Jl. Puri Ciseeng Lestari, Jampang, Kec. Gn. Sindur, Kabupaten Bogor";PAPUA;16340;Indonesia;;;;-64.145.112;1.066.549.335;https://maps.google.com/?cid=0x0:0xf8079127279999b4;
komplek housing;komplek housing;Samenage;"Kabupaten Yahukimo, Papua";"Kabupaten Yahukimo, Papua";PAPUA;;Indonesia;;;;-4.403.915;1.389.001.364;https://maps.google.com/?cid=0x0:0x66267384b8a22303;
komplek housing;komplek housing;Kec. Nalca;"Kabupaten Yahukimo, Papua";"Kabupaten Yahukimo, Papua";PAPUA;;Indonesia;;;;-44.158.336;1.398.137.871;https://maps.google.com/?cid=0x0:0x31fb4e15fe1e2763;
komplek housing;Sekolah Dasar;SLH NALCA;"JRPM+JR, Nalca, Kec. Nalca, Kabupaten Yahukimo, Papua";"Kabupaten Yahukimo, Papua";PAPUA;;Indonesia;;;;-43.634.393;1.398.345.533;https://maps.google.com/?cid=0x0:0x8c660c3408aa1f4f;
komplek housing;Kompleks Kondominium;K. SOHILAIT;"PV2P+75W, Baru, Distrik Puldama, kabupaten bias, Papua";"kabupaten bias, Papua";PAPUA;;Indonesia;;;;-42.992.533;1.398.854.497;https://maps.google.com/?cid=0x0:0xb3c51869caecd779;
komplek housing;Perumahan;The Green BSD;"Jalan Buaran - Rawa Buntu No.51, Cilenggang, Kec. Serpong, Kota Tangerang Selatan, Banten 15310";"Cilenggang, Kec. Serpong, Kota Tangerang Selatan";PAPUA;15310;Indonesia;02153159000;;;-63.130.268;1.066.712.041;https://maps.google.com/?cid=0x0:0x29f6d140247f8ff6;
komplek housing;komplek housing;Komplek Housing;"Blok Bojong Nangka I, Jl. Ring Rudal Blok Bojong Nangka I No.68, RT.001/RW.007, Jatirahayu, Kec. Pd. Melati, Kota Bks, Jawa Barat 17414";"Jl. Ring Rudal Blok Bojong Nangka I No.68, RT.001/RW.007, Jatirahayu, Kec. Pd. Melati, Kota Bks";PAPUA;17414;Indonesia;;;;-6.293.724;1.069.165.114;https://maps.google.com/?cid=0x0:0x9c50464976dee674;
komplek housing;komplek housing;Kec. Dekai;"Kabupaten Yahukimo, Papua";"Kabupaten Yahukimo, Papua";PAPUA;;Indonesia;;;;-48.638.158;1.394.837.298;https://maps.google.com/?cid=0x0:0x3f831a54259051e;
komplek housing;Perhimpunan Pengembang Perumahan;Dekai;"3FPW+GVF, Dekai, Kec. Dekai, Kabupaten Yahukimo, Papua";"Kabupaten Yahukimo, Papua";PAPUA;;Indonesia;;;;-49.136.993;139.497.172;https://maps.google.com/?cid=0x0:0xc618a905a6f8e791;
komplek housing;Kantor Pemerintah;Rumah Jabatan Wakil Bupati Yahukimo;"4G58+CRX, Dekai, Kec. Dekai, Kabupaten Yahukimo, Papua 99571";"Dekai, Kec. Dekai, Kabupaten Yahukimo";PAPUA;99571;Indonesia;;;;-48.913.905;1.395.171.024;https://maps.google.com/?cid=0x0:0x682c553396edcdc3;
komplek housing;komplek housing;YAFDAS DEKAI;"4FVW+9G, Kuaserama, Kec. Dekai, Kabupaten Yahukimo, Papua";"Kabupaten Yahukimo, Papua";PAPUA;;Indonesia;;;;-48.565.208;1.394.962.598;https://maps.google.com/?cid=0x0:0x950c4f5db8c41233;
komplek housing;Pembangunan Perumahan;Kompleks Perumahan Eselon II;"4G53+GFR, Dekai, Kec. Dekai, Kabupaten Yahukimo, Papua 99571";"Dekai, Kec. Dekai, Kabupaten Yahukimo";PAPUA;99571;Indonesia;08114780101;;;-48.911.484;1.395.036.399;https://maps.google.com/?cid=0x0:0xe76fb3d14cef1b0f;
komplek housing;Komplek perumahan;kompleks biru sekla;"5F3X+9M7, Kuaserama, Kec. Dekai, Kabupaten Yahukimo, Papua 99571";"Kuaserama, Kec. Dekai, Kabupaten Yahukimo";PAPUA;99571;Indonesia;;;;-48.465.779;1.394.991.668;https://maps.google.com/?cid=0x0:0x3799c8c2bfae97e1;
komplek housing;Perhimpunan Pengembang Perumahan;Sudi Kobak House;"3FMC+793, Keikey, Kec. Dekai, Kabupaten Yahukimo, Papua";"Kabupaten Yahukimo, Papua";PAPUA;;Indonesia;;;;-4.916.854;1.394.709.243;https://maps.google.com/?cid=0x0:0x2ed02449e664bddd;
komplek housing;Komplek perumahan;kali merah;"4GR3+X2, Kuaserama, Kec. Dekai, Kabupaten Yahukimo, Papua";"Kabupaten Yahukimo, Papua";PAPUA;;Indonesia;;;;-48.575.555;139.502.574;https://maps.google.com/?cid=0x0:0xfff86dd4eb2d12f1;
komplek housing;Komplek perumahan;JalurNehe;"4F3H+WRJ, Moruku, Kec. Dekai, Kabupaten Yahukimo, Papua";"Kabupaten Yahukimo, Papua";PAPUA;;Indonesia;;;;-48.951.526;1.394.795.177;https://maps.google.com/?cid=0x0:0x2cddb3b3139349de;
komplek housing;Perhimpunan Pengembang Perumahan;Perumahan;"Pertigaan Pemukiman Paradiso, Massi, Kec. Dekai, Kabupaten Yahukimo, Papua 99702";"Massi, Kec. Dekai, Kabupaten Yahukimo";PAPUA;99702;Indonesia;081227391110;;;-48.638.158;1.394.837.298;https://maps.google.com/?cid=0x0:0x2c86be27f8a25576;
komplek housing;Komplek perumahan;Barak seredala;"4GH4+48V Barak seredala, Kuaserama, Dekai, Yahukimo regency, Papua";"Kabupaten Yahukimo, Papua";PAPUA;;Indonesia;;;;-48.721.262;1.395.057.953;https://maps.google.com/?cid=0x0:0x545f742f57318b0a;
komplek housing;Komplek perumahan;Maulana al hafidz salim;"4FMJ+24M, Massi, Kec. Dekai, Kabupaten Yahukimo, Papua 99571";"Massi, Kec. Dekai, Kabupaten Yahukimo";PAPUA;99571;Indonesia;;;;-48.674.208;1.394.803.103;https://maps.google.com/?cid=0x0:0x970ace015b0d22e9;
komplek housing;komplek housing;Distrik Obio;"Kabupaten Yahukimo, Papua";"Kabupaten Yahukimo, Papua";PAPUA;;Indonesia;;;;-46.303.541;1.391.625.989;https://maps.google.com/?cid=0x0:0xfed7365e77775dec;
komplek housing;Komplek perumahan;Pondok Gede Housing 1;"Jl. Cipta Raya No.45-3, RT.001/RW.003, Jatirahayu, Kec. Pd. Melati, Kota Bks, Jawa Barat 17414";"RT.001/RW.003, Jatirahayu, Kec. Pd. Melati, Kota Bks";PAPUA;17414;Indonesia;;;;-62.852.504;1.069.163.397;https://maps.google.com/?cid=0x0:0x3132afedbf38cd61;
komplek housing;Komplek perumahan;Komplek Raya Housing Blok O;"PWC5+FRJ, RT.005/RW.011, Jatiwaringin, Kec. Pd. Gede, Kota Bks, Jawa Barat 17411";"RT.005/RW.011, Jatiwaringin, Kec. Pd. Gede, Kota Bks";PAPUA;17411;Indonesia;;;;-6.278.778;1.069.095.098;https://maps.google.com/?cid=0x0:0xb8ccec3d47633fb4;
komplek housing;komplek housing;Suru-Suru;"Distrik Suru-Suru, Kabupaten Yahukimo, Papua";"Kabupaten Yahukimo, Papua";PAPUA;;Indonesia;;;;-47.233.106;1.390.236.458;https://maps.google.com/?cid=0x0:0xd29b17d46db20734;
komplek housing;komplek housing;Suru-Suru;"Kabupaten Asmat, Papua";"Kabupaten Asmat, Papua";PAPUA;;Indonesia;;;;-48.532.804;1.386.790.007;https://maps.google.com/?cid=0x0:0x5f6a1a0f0be715bf;
komplek housing;komplek housing;Komplek Housing;"Blok Bojong Nangka I, Jl. Ring Rudal Blok Bojong Nangka I No.68, RT.001/RW.007, Jatirahayu, Kec. Pd. Melati, Kota Bks, Jawa Barat 17414";"Jl. Ring Rudal Blok Bojong Nangka I No.68, RT.001/RW.007, Jatirahayu, Kec. Pd. Melati, Kota Bks";PAPUA;17414;Indonesia;;;;-6.293.724;1.069.165.114;https://maps.google.com/?cid=0x0:0x9c50464976dee674;
komplek housing;komplek housing;Distrik Wusama;"Kabupaten Yahukimo, Papua";"Kabupaten Yahukimo, Papua";PAPUA;;Indonesia;;;;-44.818.415;1.389.178.396;https://maps.google.com/?cid=0x0:0xb3d568174df096b5;
komplek housing;Pembangunan Perumahan;Villa Indah Pulo Timaha;"Perumahan Villa Indah Pulo Timaha blok B2b/5a, Babelan Kota, Kec. Babelan, Kabupaten Bekasi, Jawa Barat 17610";"Babelan Kota, Kec. Babelan, Kabupaten Bekasi";PAPUA;17610;Indonesia;;;;-61.532.868;1.070.273.506;https://maps.google.com/?cid=0x0:0x6fdbf6d141bc3d32;
komplek housing;Perumahan;Wisma Asri 1;"Jl. Anggur Raya II No.b21 no 43, RT.001/RW.011, Tlk. Pucung, Kec. Bekasi Utara, Kota Bks, Jawa Barat 17121";"RT.001/RW.011, Tlk. Pucung, Kec. Bekasi Utara, Kota Bks";PAPUA;17121;Indonesia;081212823188;;;-62.143.477;1.070.246.536;https://maps.google.com/?cid=0x0:0x36aaf31f8d7df3ca;
komplek housing;Komplek perumahan;Bhumi Swargaloka;"Jl. Khairul Bariyyah No.126, RT.001/RW.004, Cimuning, Kec. Mustika Jaya, Kota Bks, Jawa Barat 17155";"RT.001/RW.004, Cimuning, Kec. Mustika Jaya, Kota Bks";PAPUA;17155;Indonesia;08128758803;;;-6.318.737;1.070.331.649;https://maps.google.com/?cid=0x0:0x97d8e4586cea9e3d;
komplek housing;Komplek perumahan;Perumahan Graha Cipta 5 Jejalen;"Jejalenjaya, Kec. Tambun Utara, Kabupaten Bekasi, Jawa Barat 17510";"Kec. Tambun Utara, Kabupaten Bekasi";PAPUA;17510;Indonesia;081315755470;;;-62.098.759;1.070.744.829;https://maps.google.com/?cid=0x0:0x4e428bb84a21f83f;
komplek housing;komplek housing;Rumah-1;"Jl. Mundu Blok A7/13, RT.011/RW.010, Jatimekar, Kec. Jatiasih, Kota Bks, Jawa Barat 17422";"RT.011/RW.010, Jatimekar, Kec. Jatiasih, Kota Bks";PAPUA;17422;Indonesia;;;;-6.292.297;106.952.161;https://maps.google.com/?cid=0x0:0x745412873ff9c6cd;
komplek housing;komplek housing;Amuma;"Kabupaten Yahukimo, Papua";"Kabupaten Yahukimo, Papua";PAPUA;;Indonesia;;;;-45.568.267;1.389.763.256;https://maps.google.com/?cid=0x0:0x3c835fbbc6f56fd5;
komplek housing;Komplek perumahan;Pondok Gede Housing 1;"Jl. Cipta Raya No.45-3, RT.001/RW.003, Jatirahayu, Kec. Pd. Melati, Kota Bks, Jawa Barat 17414";"RT.001/RW.003, Jatirahayu, Kec. Pd. Melati, Kota Bks";PAPUA;17414;Indonesia;;;;-62.852.504;1.069.163.397;https://maps.google.com/?cid=0x0:0x3132afedbf38cd61;
komplek housing;Komplek perumahan;Pondok Gede Housing II;"Housing II, Jl. Raya Hankam, RT.001/RW.004, Jatirahayu, Pondok Gede, Bekasi, West Java";"Kota Bks, Jawa Barat";PAPUA;;Indonesia;;;;-62.876.701;1.069.147.674;https://maps.google.com/?cid=0x0:0x2a52e601c20d18f2;
komplek housing;komplek housing;Musaik;"Kabupaten Yahukimo, Papua";"Kabupaten Yahukimo, Papua";PAPUA;;Indonesia;;;;-46.777.295;1.389.202.828;https://maps.google.com/?cid=0x0:0xdc0c81c6b3de89dd;
komplek housing;komplek housing;Papua;;Papua;PAPUA;;Indonesia;;;;-4.269.928;1.380.803.529;https://maps.google.com/?cid=0x0:0xeba94e9c5eefe673;
komplek housing;Studio Rekaman;Music Home Production;"CVMG+V6G, Jl. Hasanuddin, Nawaripi, Kec. Mimika Baru, Kabupaten Mimika, Papua 99971";"Jl. Hasanuddin, Nawaripi, Kec. Mimika Baru, Kabupaten Mimika";PAPUA;99971;Indonesia;;;;-45.653.105;1.368.755.826;https://maps.google.com/?cid=0x0:0x8c80f6d2cf35010e;
komplek housing;Rumah Kayu;Sector 3 Home;"GVG3+5W9, Karang Senang, Kec. Kuala Kencana, Kabupaten Mimika, Papua";"Kabupaten Mimika, Papua";PAPUA;;Indonesia;;;;-44.745.908;1.368.548.702;https://maps.google.com/?cid=0x0:0x5de6642ad2731e25;
komplek housing;Kantor Perusahaan;Irfan;"Jl.hasanudin irigasi gang flora, Nawaripi, Kec. Mimika Baru, Kabupaten Mimika, Papua 99910";"Nawaripi, Kec. Mimika Baru, Kabupaten Mimika";PAPUA;99910;Indonesia;082137539141;;;-45.454.223;1.368.657.409;https://maps.google.com/?cid=0x0:0x2c96ea77b91f081b;
komplek housing;Studio Rekaman;Mabes rumah papan;"4R8Q+GF9, Jl. Pertanian, Udapi Hilir, Distrik Prafi, Kabupaten Manokwari, Papua Bar. 98356";"Jl. Pertanian, Udapi Hilir, Distrik Prafi, Kabupaten Manokwari";PAPUA;98356;Indonesia;082197603702;;;-0.8837029;1.338.387.292;https://maps.google.com/?cid=0x0:0xf2fbb777879a6fb9;
komplek housing;Komplek perumahan;Pondok Gede Housing 1;"Jl. Cipta Raya No.45-3, RT.001/RW.003, Jatirahayu, Kec. Pd. Melati, Kota Bks, Jawa Barat 17414";"RT.001/RW.003, Jatirahayu, Kec. Pd. Melati, Kota Bks";PAPUA;17414;Indonesia;;;;-62.852.504;1.069.163.397;https://maps.google.com/?cid=0x0:0x3132afedbf38cd61;
komplek housing;komplek housing;Cluster Mozaik 10;"MXG4+C2Q, Gg. Kinit Jl. Musholla An Nur, RT.004/RW.06, Jatiluhur, Kec. Jatiasih, Kota Bks, Jawa Barat 17425";"Gg. Kinit Jl. Musholla An Nur, RT.004/RW.06, Jatiluhur, Kec. Jatiasih, Kota Bks";PAPUA;17425;Indonesia;;;;-63.239.189;1.069.551.138;https://maps.google.com/?cid=0x0:0x512fef463eb05de0;
komplek housing;Komplek perumahan;Komplek Raya Housing/Molek Blok B No. 4;"PW95+CQ7, Jl. Raya Housing, RT.006/RW.011, Jatiwaringin, Kec. Pd. Gede, Kota Bks, Jawa Barat 17411";"Jl. Raya Housing, RT.006/RW.011, Jatiwaringin, Kec. Pd. Gede, Kota Bks";PAPUA;17411;Indonesia;;;;-62.814.591;106.909.408;https://maps.google.com/?cid=0x0:0x47a4e28e626334ff;
komplek housing;Pembangunan Perumahan;Mozaik 7A;"MXH2+J57, RT.002/RW.002, Jatiluhur, Kec. Jatiasih, Kota Bks, Jawa Barat 17425";"RT.002/RW.002, Jatiluhur, Kec. Jatiasih, Kota Bks";PAPUA;17425;Indonesia;;;;-63.211.346;1.069.503.956;https://maps.google.com/?cid=0x0:0xd143bba6983ae37d;
komplek housing;Perumahan;Cluster D'mahaka Mansion;"Cluster Mahaka Mansion, Jatisari, Kec. Jatiasih, Kota Bks, Jawa Barat 17426";"Jatisari, Kec. Jatiasih, Kota Bks";PAPUA;17426;Indonesia;08176020535;;;-63.321.389;1.069.562.797;https://maps.google.com/?cid=0x0:0x7f0477723030299;
komplek housing;komplek housing;Distrik Pasema;"Kabupaten Yahukimo, Papua";"Kabupaten Yahukimo, Papua";PAPUA;;Indonesia;;;;-43.853.385;1.391.019.233;https://maps.google.com/?cid=0x0:0x405f3a5923d299bd;
komplek housing;Komplek perumahan;Pondok Gede Housing 1;"Jl. Cipta Raya No.45-3, RT.001/RW.003, Jatirahayu, Kec. Pd. Melati, Kota Bks, Jawa Barat 17414";"RT.001/RW.003, Jatirahayu, Kec. Pd. Melati, Kota Bks";PAPUA;17414;Indonesia;;;;-62.852.504;1.069.163.397;https://maps.google.com/?cid=0x0:0x3132afedbf38cd61;
komplek housing;Establishment;Ahzavi Residence Pondok Gede;"PW4J+JHQ, Jl. Celepuk I Ujung, RT.012/RW.014, Jatirahayu, Kec. Pd. Melati, Kota Bks, Jawa Barat 17414";"Jl. Celepuk I Ujung, RT.012/RW.014, Jatirahayu, Kec. Pd. Melati, Kota Bks";PAPUA;17414;Indonesia;;;;-62.934.194;1.069.314.803;https://maps.google.com/?cid=0x0:0x7b24a580738077da;
komplek housing;komplek housing;Distrik Hogio;"Kabupaten Yahukimo, Papua";"Kabupaten Yahukimo, Papua";PAPUA;;Indonesia;;;;-43.836.418;1.390.239.301;https://maps.google.com/?cid=0x0:0x41399fcafb51fa92;
komplek housing;Komplek perumahan;My House;"Jl. Bongas Raya No.15 Blok E3, RT.006/RW.013, Jatimakmur, Pondok Gede, Bekasi, West Java 17413";"RT.006/RW.013, Jatimakmur, Pondok Gede, Bekasi";PAPUA;17413;Indonesia;;;;-62.733.962;1.069.255.916;https://maps.google.com/?cid=0x0:0xbaf3fe8f4a3d5671;
komplek housing;Komplek perumahan;Rumah hugo;"Jl. Bongas IV No.E4, RT.005/RW.017, Jatimakmur, Kec. Pd. Gede, Kota Bks, Jawa Barat 17413";"RT.005/RW.017, Jatimakmur, Kec. Pd. Gede, Kota Bks";PAPUA;17413;Indonesia;;;;-62.729.815;1.069.260.347;https://maps.google.com/?cid=0x0:0x1ef5d621871c6453;
komplek housing;komplek housing;Mugi;"Distrik Mugi, Kabupaten Nduga, Papua";"Kabupaten Nduga, Papua";PAPUA;;Indonesia;;;;-42.798.832;1.383.489.356;https://maps.google.com/?cid=0x0:0xefdd2d670bec7206;
komplek housing;komplek housing;Distrik Mugi;"Mugi, Kabupaten Nduga, Papua";"Kabupaten Nduga, Papua";PAPUA;;Indonesia;;;;-42.798.832;1.383.489.356;https://maps.google.com/?cid=0x0:0x9a4568001d69065b;
komplek housing;Komplek perumahan;Perumahan griya mukti residence;"Perumahan, Jl. Griya Mukti Residence Jl. Muktiwari No.36A blok A2, Muktiwari, Kec. Cibitung, Kabupaten Bekasi, Jawa Barat 17520";"Jl. Griya Mukti Residence Jl. Muktiwari No.36A blok A2, Muktiwari, Kec. Cibitung, Kabupaten Bekasi";PAPUA;17520;Indonesia;;;;-62.072.081;1.070.958.306;https://maps.google.com/?cid=0x0:0x30a6073f423e9669;
komplek housing;komplek housing;Komplek Housing;"Blok Bojong Nangka I, Jl. Ring Rudal Blok Bojong Nangka I No.68, RT.001/RW.007, Jatirahayu, Kec. Pd. Melati, Kota Bks, Jawa Barat 17414";"Jl. Ring Rudal Blok Bojong Nangka I No.68, RT.001/RW.007, Jatirahayu, Kec. Pd. Melati, Kota Bks";PAPUA;17414;Indonesia;;;;-6.293.724;1.069.165.114;https://maps.google.com/?cid=0x0:0x9c50464976dee674;
komplek housing;komplek housing;Mugi;"Distrik Mugi, Kabupaten Nduga, Papua";"Kabupaten Nduga, Papua";PAPUA;;Indonesia;;;;-42.798.832;1.383.489.356;https://maps.google.com/?cid=0x0:0xefdd2d670bec7206;
komplek housing;Komplek perumahan;Pondok Gede Housing 1;"Jl. Cipta Raya No.45-3, RT.001/RW.003, Jatirahayu, Kec. Pd. Melati, Kota Bks, Jawa Barat 17414";"RT.001/RW.003, Jatirahayu, Kec. Pd. Melati, Kota Bks";PAPUA;17414;Indonesia;;;;-62.852.504;1.069.163.397;https://maps.google.com/?cid=0x0:0x3132afedbf38cd61;
komplek housing;komplek housing;Distrik Mugi;"Mugi, Kabupaten Nduga, Papua";"Kabupaten Nduga, Papua";PAPUA;;Indonesia;;;;-42.798.832;1.383.489.356;https://maps.google.com/?cid=0x0:0x9a4568001d69065b;
komplek housing;Rumah Makan;Warung nasi MPO endah;"Jl. Teratai No.22, RT.005/RW.003, Jatirahayu, Kec. Pd. Melati, Kota Bks, Jawa Barat 17414";"RT.005/RW.003, Jatirahayu, Kec. Pd. Melati, Kota Bks";PAPUA;17414;Indonesia;08978659011;;;-62.871.852;1.069.177.055;https://maps.google.com/?cid=0x0:0x24a530c8f839acea;
komplek housing;komplek housing;Papua 99571;"Kabupaten Yahukimo, Papua";"Kabupaten Yahukimo, Papua";PAPUA;;Indonesia;;;;-46.597.588;1.391.221.414;https://maps.google.com/?cid=0x0:0x8dc722ebb3251072;
komplek housing;Gedung Apartemen;HIDDEN VALLEY COMPLEX;"R3WX+8Q7, Tembagapura, Kec. Tembagapura, Kabupaten Mimika, Papua 99967";"Tembagapura, Kec. Tembagapura, Kabupaten Mimika";PAPUA;99967;Indonesia;;;;-41.542.159;1.370.994.215;https://maps.google.com/?cid=0x0:0x8f548cbaf64490ca;
komplek housing;Sekolah Dasar;"Owitlep, distrik sobaham";"Hwealoma, Distrik Ninia, Kabupaten Yahukimo, Papua 99571";"Distrik Ninia, Kabupaten Yahukimo";PAPUA;99571;Indonesia;;;;-43.154.313;1.393.309.354;https://maps.google.com/?cid=0x0:0xd80cdcc3e9b85b7b;
komplek housing;Komplek perumahan;Discovery Alton;"Jl. Gg. Sumber Bening No.89, RT.2/RW.2, Parigi, Pondok Aren, South Tangerang City, Banten 15227";"RT.2/RW.2, Parigi, Pondok Aren, South Tangerang City";PAPUA;15227;Indonesia;0817745455;;;-62.698.901;1.066.965.768;https://maps.google.com/?cid=0x0:0x242ec6c947043cd9;
komplek housing;Komplek perumahan;Perumahan Puri Bintaro Sektor 9;"Jl. Komp. Puri Bintaro No.24 PB 7, Sawah Baru, Kec. Ciputat, Kota Tangerang Selatan, Banten 15413";"Sawah Baru, Kec. Ciputat, Kota Tangerang Selatan";PAPUA;15413;Indonesia;;;;-62.854.112;1.067.230.311;https://maps.google.com/?cid=0x0:0x8085c4ad1525681b;
komplek housing;komplek housing;Komplek Housing;"Blok Bojong Nangka I, Jl. Ring Rudal Blok Bojong Nangka I No.68, RT.001/RW.007, Jatirahayu, Kec. Pd. Melati, Kota Bks, Jawa Barat 17414";"Jl. Ring Rudal Blok Bojong Nangka I No.68, RT.001/RW.007, Jatirahayu, Kec. Pd. Melati, Kota Bks";PAPUA;17414;Indonesia;;;;-6.293.724;1.069.165.114;https://maps.google.com/?cid=0x0:0x9c50464976dee674;
komplek housing;komplek housing;Hunian;"Jl. Raya Curug No.98, RT.4/RW.9, Curug, Kec. Bojongsari, Kota Depok, Jawa Barat 16517";"RT.4/RW.9, Curug, Kec. Bojongsari, Kota Depok";PAPUA;16517;Indonesia;085715476897;;;-63.797.548;1.067.254.262;https://maps.google.com/?cid=0x0:0x1e25f9b0cefb150;
komplek housing;komplek housing;Distrik Werima;"Kabupaten Yahukimo, Papua";"Kabupaten Yahukimo, Papua";PAPUA;;Indonesia;;;;-42.391.824;1.390.879.724;https://maps.google.com/?cid=0x0:0x625e82d61abc01d4;
komplek housing;Pembangunan Perumahan;Wusilimo;"Q29V+QVQ, Unnamed Road, Parela, Kec. Kurima, Kabupaten Yahukimo, Papua 99571";"Unnamed Road, Parela, Kec. Kurima, Kabupaten Yahukimo";PAPUA;99571;Indonesia;;;;-42.305.393;1.390.447.353;https://maps.google.com/?cid=0x0:0x310af1d3e19b0cf1;
komplek housing;Pembangunan Perumahan;kurima;"R224+59H, Sogokmo, Distrik Asotipo, Kabupaten Jayawijaya, Papua 99511";"Sogokmo, Distrik Asotipo, Kabupaten Jayawijaya";PAPUA;99511;Indonesia;;;;-41.995.684;1.390.059.852;https://maps.google.com/?cid=0x0:0xf3e6dde3f015a08a;
komplek housing;Komplek perumahan;Kampung wenowa;"R273+37W, Sogokmo, Distrik Asotipo, Kabupaten Jayawijaya, Papua";"Kabupaten Jayawijaya, Papua";PAPUA;;Indonesia;;;;-41.872.631;1.390.032.132;https://maps.google.com/?cid=0x0:0xc04a4fc34ff80e1d;
komplek housing;Pembangunan Perumahan;Werima yahukimo;"Q36Q+854, Werima, Distrik Werima, Kabupaten Yahukimo, Papua";"Kabupaten Yahukimo, Papua";PAPUA;;Indonesia;;;;-42.392.397;1.390.879.622;https://maps.google.com/?cid=0x0:0xc3446ed4f01e9750;
komplek housing;Pembangunan Perumahan;Kampung Lotia;"Q2CF+M8, Luhulema, Kec. Kurima, Kabupaten Yahukimo, Papua 99511";"Luhulema, Kec. Kurima, Kabupaten Yahukimo";PAPUA;99511;Indonesia;;;;-42.283.016;1.390.232.686;https://maps.google.com/?cid=0x0:0x91c172a699ac08dd;
komplek housing;komplek housing;Distrik Tangma;"Kabupaten Yahukimo, Papua";"Kabupaten Yahukimo, Papua";PAPUA;;Indonesia;;;;-42.347.279;1.390.094.652;https://maps.google.com/?cid=0x0:0xb583716ba76aa118;
komplek housing;Pembangunan Perumahan;Wusilimo;"Q29V+QVQ, Unnamed Road, Parela, Kec. Kurima, Kabupaten Yahukimo, Papua 99571";"Unnamed Road, Parela, Kec. Kurima, Kabupaten Yahukimo";PAPUA;99571;Indonesia;;;;-42.305.393;1.390.447.353;https://maps.google.com/?cid=0x0:0x310af1d3e19b0cf1;
komplek housing;Pembangunan Perumahan;Martadinata Residence;"Jl. RE Martadinata No.13, Pd. Cabe Udik, Kec. Pamulang, Kota Tangerang Selatan, Banten 15418";"Pd. Cabe Udik, Kec. Pamulang, Kota Tangerang Selatan";PAPUA;15418;Indonesia;;;;-63.558.891;1.067.519.483;https://maps.google.com/?cid=0x0:0x2b9bf379ab2d543f;
komplek housing;Komplek perumahan;Perumnas 1;"Jl. Mujair Raya, RT.005/RW.010, Karawaci Baru, Kec. Karawaci, Kota Tangerang, Banten 15116";"RT.005/RW.010, Karawaci Baru, Kec. Karawaci, Kota Tangerang";PAPUA;15116;Indonesia;;;;-61.977.982;1.066.134.075;https://maps.google.com/?cid=0x0:0x4ccb9df46c94d11f;
komplek housing;Komplek perumahan;Perumahan Permata Depok;"Pd. Jaya, Kec. Cipayung, Kota Depok, Jawa Barat 16438";"Kec. Cipayung, Kota Depok";PAPUA;16438;Indonesia;;;;-64.426.687;1.068.050.423;https://maps.google.com/?cid=0x0:0x78ad9db57d7f142b;
komplek housing;Komplek perumahan;Rumah TY;"Pasai Timur 3 No.86, Modernland Cilejit, Suka Manah, Kec. Jambe, Kabupaten Tangerang, Banten 15720";"Modernland Cilejit, Suka Manah, Kec. Jambe, Kabupaten Tangerang";PAPUA;15720;Indonesia;;;;-63.518.555;1.065.119.355;https://maps.google.com/?cid=0x0:0xffc9061078ab1d97;
komplek housing;Komplek perumahan;Cluster Pesona Tanamera;"Rw. Boni, Kecamatan Pakuhaji, Kabupaten Tangerang, Banten";"Kabupaten Tangerang, Banten";PAPUA;;Indonesia;;;;-60.798.065;1.066.021.486;https://maps.google.com/?cid=0x0:0x5fab181d37f741ab;
komplek housing;Pembangunan Perumahan;Graha Tanjakan Mekar indah;"Indah, Perum Graha Blk. A4 No.14, RT.028/RW.010, Tanjakan Mekar, Kec. Rajeg, Kabupaten Tangerang, Banten 15540";"Perum Graha Blk. A4 No.14, RT.028/RW.010, Tanjakan Mekar, Kec. Rajeg, Kabupaten Tangerang";PAPUA;15540;Indonesia;;;;-61.077.782;1.065.372.701;https://maps.google.com/?cid=0x0:0xe18a05c86ccf0bf0;
komplek housing;Hotel;Cluster Tanjakan Mekar City;"VGVQ+X79, Jl. Tanjakan Mekar City, Rajeg Mulya, Kec. Rajeg, Kabupaten Tangerang, Banten 15540";"Jl. Tanjakan Mekar City, Rajeg Mulya, Kec. Rajeg, Kabupaten Tangerang";PAPUA;15540;Indonesia;;;;-61.050.831;1.065.382.292;https://maps.google.com/?cid=0x0:0x91f43e6507a14706;
komplek housing;Komplek perumahan;Perumahan Daru Estate;"Jl. Daru Estate B2 No.B14B, Daru, Kec. Jambe, Kabupaten Tangerang, Banten 15720";"Daru, Kec. Jambe, Kabupaten Tangerang";PAPUA;15720;Indonesia;0811800678;;;-63.388.662;1.064.980.836;https://maps.google.com/?cid=0x0:0x81935107113b4518;
komplek housing;Pembangunan Perumahan;Cluster Granada Rajeg City;"VGVM+75G, Rajeg Mulya, Kec. Rajeg, Kabupaten Tangerang, Banten 15540";"Rajeg Mulya, Kec. Rajeg, Kabupaten Tangerang";PAPUA;15540;Indonesia;02155780069;;;-61.068.165;1.065.329.396;https://maps.google.com/?cid=0x0:0x7db83b6a611947bc;
komplek housing;Otoritas Perumahan;Rajeg Mulya Residence Tahap 7;"Perumahan Jl. Rajeg Mulya Residence Tahap 7, Rajeg Mulya, Kec. Rajeg, Kabupaten Tangerang, Banten 15540";"Rajeg Mulya, Kec. Rajeg, Kabupaten Tangerang";PAPUA;15540;Indonesia;;;;-61.157.715;1.065.286.396;https://maps.google.com/?cid=0x0:0xe998596e0fed2704;
komplek housing;Pembangunan Perumahan;Garden City Sitanala;"Jl. Pisangan Kepu, Garden City Sitanala.J18, Garden City Sitanala, Sarakan, Kec. Sepatan, Kabupaten Tangerang, Banten 15520";"Garden City Sitanala.J18, Garden City Sitanala, Sarakan, Kec. Sepatan, Kabupaten Tangerang";PAPUA;15520;Indonesia;;;;-61.048.649;1.065.814.792;https://maps.google.com/?cid=0x0:0x61612b141da672a4;
komplek housing;Otoritas Perumahan;Perum Cluster Rajeg City Mansion (RCM);"Rajeg Mulya, Kec. Rajeg, Kabupaten Tangerang, Banten";"Kabupaten Tangerang, Banten";PAPUA;;Indonesia;;;;-61.114.733;106.539.408;https://maps.google.com/?cid=0x0:0x6f1d4ed9b22ba5d8;
komplek housing;Hotel bintang 3;Ecohome Apartment;"PGWH+M2P, Mekar Bakti, Kec. Panongan, Kabupaten Tangerang, Banten 15710";"Mekar Bakti, Kec. Panongan, Kabupaten Tangerang";PAPUA;15710;Indonesia;0215960888;;;-6.253.082;106.526.385;https://maps.google.com/?cid=0x0:0x63ac8a7eb503c239;
komplek housing;Kompleks Apartemen;Marketing Office Sky House BSD+;"CBD 55 - Lot III 1 - 5 ( Beside AEON Mall BSD City, Jl. BSD CBD II, Sampora, Cisauk, Tangerang Regency, Banten 15345";"Jl. BSD CBD II, Sampora, Cisauk, Tangerang Regency";PAPUA;15345;Indonesia;08113830000;;;-63.034.177;1.066.453.652;https://maps.google.com/?cid=0x0:0x844ea4f92c9eb4aa;
komplek housing;Perumahan;Perumahan Taman Adiyasa;"Toko Anggi Taman Adiyasa Blok D10 No 01 ,Rt 03 Rw 07 Kel, Cikasungka, Kec. Solear, Kabupaten Tangerang, Banten 15731";"Cikasungka, Kec. Solear, Kabupaten Tangerang";PAPUA;15731;Indonesia;083873593291;;;-63.265.383;1.064.239.111;https://maps.google.com/?cid=0x0:0xc29d544219c2c16f;
komplek housing;komplek housing;Papua 99571;"Kabupaten Yahukimo, Papua";"Kabupaten Yahukimo, Papua";PAPUA;;Indonesia;;;;-46.597.588;1.391.221.414;https://maps.google.com/?cid=0x0:0x8dc722ebb3251072;
komplek housing;Komplek perumahan;Arumaya Residence - Indana Land;"J2G5+X7R, Taman Rahayu, Kec. Setu, Kabupaten Bekasi, Jawa Barat 17320";"Taman Rahayu, Kec. Setu, Kabupaten Bekasi";PAPUA;17320;Indonesia;;;;-63.724.666;1.070.083.866;https://maps.google.com/?cid=0x0:0x7fc9db5ec255e863;
komplek housing;komplek housing;Papua;;Papua;PAPUA;;Indonesia;;;;-4.269.928;1.380.803.529;https://maps.google.com/?cid=0x0:0xeba94e9c5eefe673;
komplek housing;Komplek perumahan;Kantor Pemasaran Wahana Pondok Ungu;"Jl. Pulo Timaha, Babelan Kota, Kec. Babelan, Kabupaten Bekasi, Jawa Barat 17610";"Babelan Kota, Kec. Babelan, Kabupaten Bekasi";PAPUA;17610;Indonesia;081285511195;;;-61.604.121;1.070.165.734;https://maps.google.com/?cid=0x0:0xa604dbf48251fa41;
komplek housing;Agen Sewa Ruangan Eksekutif;Rumah123;"Level 37 EightyEight @ Kasablanka, Jl. Raya Casablanca No.Kav.88, RT.16/RW.5, Menteng Dalam, Kec. Tebet, Kota Jakarta Selatan, Daerah Khusus Ibukota Jakarta 12870";"Jl. Raya Casablanca No.Kav.88, RT.16/RW.5, Menteng Dalam, Kec. Tebet, Kota Jakarta Selatan";PAPUA;12870;Indonesia;02130496123;;;-62.243.351;1.068.418.884;https://maps.google.com/?cid=0x0:0xf630aa910b38c808;
komplek housing;Komplek perumahan;PURI BEGAWAN SERPONG;"JJMW+56H, Jl. Kp. Medang, Sukamulya, Kec. Rumpin, Kabupaten Bogor, Jawa Barat 16350";"Jl. Kp. Medang, Sukamulya, Kec. Rumpin, Kabupaten Bogor";PAPUA;16350;Indonesia;082177115565;;;-63.670.607;1.066.456.246;https://maps.google.com/?cid=0x0:0x9d16228091f2553c;
komplek housing;Asosiasi perumahan;Panorama Bali Residence Ciseeng Bogor;"Jl. Raya H. Usa, Putat Nutug, Kec. Ciseeng, Kabupaten Bogor, Jawa Barat 16120";"Putat Nutug, Kec. Ciseeng, Kabupaten Bogor";PAPUA;16120;Indonesia;02518542284;;;-64.608.359;1.066.669.633;https://maps.google.com/?cid=0x0:0xb5cd54e095f41352;
komplek housing;Perumahan;Grand Viona Kuripan (GVK);"PERUMAHAN GRAND VIONA, Kuripan, Kec. Ciseeng, Kabupaten Bogor, Jawa Barat 16120";"Kuripan, Kec. Ciseeng, Kabupaten Bogor";PAPUA;16120;Indonesia;;;;-64.262.313;1.066.567.514;https://maps.google.com/?cid=0x0:0xed7e731fc4a452ec;
komplek housing;Kantor Perusahaan;Grand Sukamulya Cisauk;"Jalan kampung Leuwiranji, Sukamulya, Kec. Rumpin, Kabupaten Bogor, Jawa Barat 16350";"Sukamulya, Kec. Rumpin, Kabupaten Bogor";PAPUA;16350;Indonesia;085780881004;;;-63.721.068;1.066.459.588;https://maps.google.com/?cid=0x0:0x13e210069e886101;
komplek housing;Komplek perumahan;Rumah ciseeng;"HMP3+5XV, Jl. Puri Ciseeng Lestari, Jampang, Kec. Gn. Sindur, Kabupaten Bogor, Jawa Barat 16340";"Jl. Puri Ciseeng Lestari, Jampang, Kec. Gn. Sindur, Kabupaten Bogor";PAPUA;16340;Indonesia;;;;-64.145.112;1.066.549.335;https://maps.google.com/?cid=0x0:0xf8079127279999b4;
komplek housing;Kompleks Kondominium;Puri Nilam Kencana;"Puri Nilam Kencana Gg. Buntu Blok AU, No. 6, Jatirahayu, Kec. Pd. Melati, Kota Bks, Jawa Barat 17413";"No. 6, Jatirahayu, Kec. Pd. Melati, Kota Bks";PAPUA;17413;Indonesia;088212554680;;;-62.903.689;1.069.226.453;https://maps.google.com/?cid=0x0:0xcb28b86c64260d16;
komplek housing;Komplek perumahan;Zukha Town House;"Jl. H. Dogon No.15, RT.11/RW.1, Pd. Klp., Kec. Duren Sawit, Kota Jakarta Timur, Daerah Khusus Ibukota Jakarta 13450";"RT.11/RW.1, Pd. Klp., Kec. Duren Sawit, Kota Jakarta Timur";PAPUA;13450;Indonesia;085692655292;;;-62.382.297;1.069.361.084;https://maps.google.com/?cid=0x0:0x5b7c06fdcb918421;
komplek housing;komplek housing;Komplek Housing;"Blok Bojong Nangka I, Jl. Ring Rudal Blok Bojong Nangka I No.68, RT.001/RW.007, Jatirahayu, Kec. Pd. Melati, Kota Bks, Jawa Barat 17414";"Jl. Ring Rudal Blok Bojong Nangka I No.68, RT.001/RW.007, Jatirahayu, Kec. Pd. Melati, Kota Bks";PAPUA;17414;Indonesia;;;;-6.293.724;1.069.165.114;https://maps.google.com/?cid=0x0:0x9c50464976dee674;
komplek housing;Perhimpunan Pengembang Perumahan;Kampung Pantele;"QCVJ+559, Tulpa, Distrik Anggruk, Kabupaten Yahukimo, Papua";"Kabupaten Yahukimo, Papua";PAPUA;;Indonesia;;;;-42.070.804;1.394.304.809;https://maps.google.com/?cid=0x0:0xf338736b091b6435;
komplek housing;komplek housing;Distrik Panggema;"Kabupaten Yahukimo, Papua";"Kabupaten Yahukimo, Papua";PAPUA;;Indonesia;;;;-41.476.205;1.393.856.256;https://maps.google.com/?cid=0x0:0xdd9b250460452b66;
komplek housing;Pembangunan Perumahan;Lelambo;"QCPM+XH6, Lelambo, Distrik Anggruk, Kabupaten Yahukimo, Papua";"Kabupaten Yahukimo, Papua";PAPUA;;Indonesia;;;;-42.125.998;1.394.338.921;https://maps.google.com/?cid=0x0:0x1cdfebea160d0d72;
komplek housing;Pembangunan Perumahan;Polmak;"PFMP+HWF, Welile, Ubahak, Kabupaten Yahukimo, Papua";"Kabupaten Yahukimo, Papua";PAPUA;;Indonesia;;;;-426.605;1.394.872.858;https://maps.google.com/?cid=0x0:0x225ada2e0634177d;
komplek housing;Pembangunan Perumahan;Betel;"PFMP+HWF, Welile, Ubahak, Kabupaten Yahukimo, Papua";"Kabupaten Yahukimo, Papua";PAPUA;;Indonesia;;;;-426.605;1.394.872.858;https://maps.google.com/?cid=0x0:0x5b55debf16fc966b;
komplek housing;komplek housing;Kec. Kosarek;"Kabupaten Yahukimo, Papua";"Kabupaten Yahukimo, Papua";PAPUA;;Indonesia;;;;-42.243.256;1.395.891.233;https://maps.google.com/?cid=0x0:0x242228e8fa8aeb61;
komplek housing;komplek housing;Komplek Housing;"Blok Bojong Nangka I, Jl. Ring Rudal Blok Bojong Nangka I No.68, RT.001/RW.007, Jatirahayu, Kec. Pd. Melati, Kota Bks, Jawa Barat 17414";"Jl. Ring Rudal Blok Bojong Nangka I No.68, RT.001/RW.007, Jatirahayu, Kec. Pd. Melati, Kota Bks";PAPUA;17414;Indonesia;;;;-6.293.724;1.069.165.114;https://maps.google.com/?cid=0x0:0x9c50464976dee674;
komplek housing;komplek housing;Distrik Nipsan;"Kabupaten Yahukimo, Papua";"Kabupaten Yahukimo, Papua";PAPUA;;Indonesia;;;;-41.331.326;1.396.707.205;https://maps.google.com/?cid=0x0:0x4c7430fda37ee1cf;
komplek housing;komplek housing;Ubahak;"Kabupaten Yahukimo, Papua";"Kabupaten Yahukimo, Papua";PAPUA;;Indonesia;;;;-426.605;1.394.872.858;https://maps.google.com/?cid=0x0:0x85ad4ffcf7ca6899;
komplek housing;Pembangunan Perumahan;Polmak;"PFMP+HWF, Welile, Ubahak, Kabupaten Yahukimo, Papua";"Kabupaten Yahukimo, Papua";PAPUA;;Indonesia;;;;-426.605;1.394.872.858;https://maps.google.com/?cid=0x0:0x225ada2e0634177d;
komplek housing;Perhimpunan Pengembang Perumahan;Bukit Sion;"QF8C+Q7, Suhuntek, Ubahak, Kabupaten Yahukimo, Papua";"Kabupaten Yahukimo, Papua";PAPUA;;Indonesia;;;;-4.233.049;1.394.706.845;https://maps.google.com/?cid=0x0:0x130dcfdfe4ad9774;
komplek housing;Pembangunan Perumahan;Lelambo;"QCPM+XH6, Lelambo, Distrik Anggruk, Kabupaten Yahukimo, Papua";"Kabupaten Yahukimo, Papua";PAPUA;;Indonesia;;;;-42.125.998;1.394.338.921;https://maps.google.com/?cid=0x0:0x1cdfebea160d0d72;
komplek housing;komplek housing;Distrik Pronggoli;"Kabupaten Yahukimo, Papua";"Kabupaten Yahukimo, Papua";PAPUA;;Indonesia;;;;-42.039.144;1.392.638.678;https://maps.google.com/?cid=0x0:0x9fce1b4b1a63188f;
komplek housing;Perhimpunan Pengembang Perumahan;Kampung Pantele;"QCVJ+559, Tulpa, Distrik Anggruk, Kabupaten Yahukimo, Papua";"Kabupaten Yahukimo, Papua";PAPUA;;Indonesia;;;;-42.070.804;1.394.304.809;https://maps.google.com/?cid=0x0:0xf338736b091b6435;
komplek housing;Pembangunan Perumahan;Distrik wipon;"M7G3+PF9, Hubik, Distrik Sobaham, Kabupaten Yahukimo, Papua 99571";"Hubik, Distrik Sobaham, Kabupaten Yahukimo";PAPUA;99571;Indonesia;;;;-43.232.167;1.392.537.329;https://maps.google.com/?cid=0x0:0x26f29065aaab2e0a;
komplek housing;Komplek perumahan;Sumohai;"GG4H+C59, Niniwi, Duram, Kabupaten Yahukimo, Papua";"Kabupaten Yahukimo, Papua";PAPUA;;Indonesia;;;;-44.939.717;1.395.279.996;https://maps.google.com/?cid=0x0:0x5899d16b189445c8;
komplek housing;Pembangunan Perumahan;RUMA PAK NAS TOGODLI;"P9XW+483, RT.04/RW.02, Werene, Distrik Walma, Kabupaten Yahukimo, Papua";"Kabupaten Yahukimo, Papua";PAPUA;;Indonesia;;;;-42.522.348;1.393.957.836;https://maps.google.com/?cid=0x0:0x56bc59ffaa4e0576;
komplek housing;komplek housing;Distrik Walma;"Kabupaten Yahukimo, Papua";"Kabupaten Yahukimo, Papua";PAPUA;;Indonesia;;;;-42.522.348;1.393.957.836;https://maps.google.com/?cid=0x0:0x717c03f77f28154d;
komplek housing;Pembangunan Perumahan;RUMA PAK NAS TOGODLI;"P9XW+483, RT.04/RW.02, Werene, Distrik Walma, Kabupaten Yahukimo, Papua";"Kabupaten Yahukimo, Papua";PAPUA;;Indonesia;;;;-42.522.348;1.393.957.836;https://maps.google.com/?cid=0x0:0x56bc59ffaa4e0576;
komplek housing;Perhimpunan Pengembang Perumahan;Kampung Pantele;"QCVJ+559, Tulpa, Distrik Anggruk, Kabupaten Yahukimo, Papua";"Kabupaten Yahukimo, Papua";PAPUA;;Indonesia;;;;-42.070.804;1.394.304.809;https://maps.google.com/?cid=0x0:0xf338736b091b6435;
komplek housing;Pembangunan Perumahan;Polmak;"PFMP+HWF, Welile, Ubahak, Kabupaten Yahukimo, Papua";"Kabupaten Yahukimo, Papua";PAPUA;;Indonesia;;;;-426.605;1.394.872.858;https://maps.google.com/?cid=0x0:0x225ada2e0634177d;
komplek housing;komplek housing;Distrik Yahuliambut;"Kabupaten Yahukimo, Papua";"Kabupaten Yahukimo, Papua";PAPUA;;Indonesia;;;;-40.739.933;139.619.709;https://maps.google.com/?cid=0x0:0xc5681b238e537eb;
komplek housing;Rumah Kayu;KEHIRAN 2;"Yoboy / Kehusa / Kehiran, Kec. Sentani, Kabupaten Jayapura, Papua 99358";"Kec. Sentani, Kabupaten Jayapura";PAPUA;99358;Indonesia;;;;-2.585.125;1.404.799.907;https://maps.google.com/?cid=0x0:0x84a1276f3e4af29f;
komplek housing;Komplek perumahan;Kehiran II;"CF6J+M68, Unnamed Road, Yoboy / Kehusa / Kehiran, Kec. Sentani, Kabupaten Jayapura, Papua 99358";"Unnamed Road, Yoboy / Kehusa / Kehiran, Kec. Sentani, Kabupaten Jayapura";PAPUA;99358;Indonesia;;;;-25.883.477;1.404.805.898;https://maps.google.com/?cid=0x0:0xea2633eb0f09cc;
komplek housing;komplek housing;Distrik Hereapini;"Kabupaten Yahukimo, Papua";"Kabupaten Yahukimo, Papua";PAPUA;;Indonesia;;;;-39.459.772;1.397.524.306;https://maps.google.com/?cid=0x0:0x863fbf92ba8ca163;
komplek housing;komplek housing;Distrik Ubalihi;"Kabupaten Yahukimo, Papua";"Kabupaten Yahukimo, Papua";PAPUA;;Indonesia;;;;-4.044.366;1.397.933.279;https://maps.google.com/?cid=0x0:0x22243890f7546207;
komplek housing;komplek housing;Papua 99582;"Kabupaten Yahukimo, Papua";"Kabupaten Yahukimo, Papua";PAPUA;;Indonesia;;;;-4.059.169;1.397.728.757;https://maps.google.com/?cid=0x0:0x86511d2b7e14d4b8;
komplek housing;Pembangunan Perumahan;Lelambo;"QCPM+XH6, Lelambo, Distrik Anggruk, Kabupaten Yahukimo, Papua";"Kabupaten Yahukimo, Papua";PAPUA;;Indonesia;;;;-42.125.998;1.394.338.921;https://maps.google.com/?cid=0x0:0x1cdfebea160d0d72;
komplek housing;Perhimpunan Pengembang Perumahan;Kampung Pantele;"QCVJ+559, Tulpa, Distrik Anggruk, Kabupaten Yahukimo, Papua";"Kabupaten Yahukimo, Papua";PAPUA;;Indonesia;;;;-42.070.804;1.394.304.809;https://maps.google.com/?cid=0x0:0xf338736b091b6435;
komplek housing;Kompleks Kondominium;K. SOHILAIT;"PV2P+75W, Baru, Distrik Puldama, kabupaten bias, Papua";"kabupaten bias, Papua";PAPUA;;Indonesia;;;;-42.992.533;1.398.854.497;https://maps.google.com/?cid=0x0:0xb3c51869caecd779;
komplek housing;Pembangunan Perumahan;Polmak;"PFMP+HWF, Welile, Ubahak, Kabupaten Yahukimo, Papua";"Kabupaten Yahukimo, Papua";PAPUA;;Indonesia;;;;-426.605;1.394.872.858;https://maps.google.com/?cid=0x0:0x225ada2e0634177d;
komplek housing;komplek housing;Talambo;"Kabupaten Yahukimo, Papua";"Kabupaten Yahukimo, Papua";PAPUA;;Indonesia;;;;-38.127.706;1.399.366.899;https://maps.google.com/?cid=0x0:0xbd580bba1b5724c5;
komplek housing;Perhimpunan Pengembang Perumahan;Bukit Sion;"QF8C+Q7, Suhuntek, Ubahak, Kabupaten Yahukimo, Papua";"Kabupaten Yahukimo, Papua";PAPUA;;Indonesia;;;;-4.233.049;1.394.706.845;https://maps.google.com/?cid=0x0:0x130dcfdfe4ad9774;
komplek housing;komplek housing;Komplek Housing;"Blok Bojong Nangka I, Jl. Ring Rudal Blok Bojong Nangka I No.68, RT.001/RW.007, Jatirahayu, Kec. Pd. Melati, Kota Bks, Jawa Barat 17414";"Jl. Ring Rudal Blok Bojong Nangka I No.68, RT.001/RW.007, Jatirahayu, Kec. Pd. Melati, Kota Bks";PAPUA;17414;Indonesia;;;;-6.293.724;1.069.165.114;https://maps.google.com/?cid=0x0:0x9c50464976dee674;
komplek housing;Perumahan;Bamboo Prime Residence;"Bambu Apus, Kec. Pamulang, Kota Tangerang Selatan, Banten 15415";"Kec. Pamulang, Kota Tangerang Selatan";PAPUA;15415;Indonesia;081319620006;;;-63.303.692;1.067.249.788;https://maps.google.com/?cid=0x0:0xfa37e412cf1ab783;
komplek housing;komplek housing;Distrik Puldama;"Kabupaten Yahukimo, Papua";"Kabupaten Yahukimo, Papua";PAPUA;;Indonesia;;;;-43.415.756;1.399.161.886;https://maps.google.com/?cid=0x0:0xd23082b53c254e8;
komplek housing;Kompleks Kondominium;K. SOHILAIT;"PV2P+75W, Baru, Distrik Puldama, kabupaten bias, Papua";"kabupaten bias, Papua";PAPUA;;Indonesia;;;;-42.992.533;1.398.854.497;https://maps.google.com/?cid=0x0:0xb3c51869caecd779;
komplek housing;Komplek perumahan;Kampung Imde;"JXCX+87Q, Imde, Distrik Pamek, Kabupaten Pegunungan Bintang, Papua";"Kabupaten Pegunungan Bintang, Papua";PAPUA;;Indonesia;;;;-43.791.595;139.998.236;https://maps.google.com/?cid=0x0:0x8c1c589db27098a1;
komplek housing;komplek housing;Endomen;"Kabupaten Yahukimo, Papua";"Kabupaten Yahukimo, Papua";PAPUA;;Indonesia;;;;-42.124.749;1.399.161.886;https://maps.google.com/?cid=0x0:0xf45ec18e2a972587;
komplek housing;komplek housing;Endomen;"Endomen, Kabupaten Yahukimo, Papua";"Kabupaten Yahukimo, Papua";PAPUA;;Indonesia;;;;-4.245.876;1.398.700.862;https://maps.google.com/?cid=0x0:0x72df21619ddeec92;
komplek housing;komplek housing;Papua 99571;"Kabupaten Yahukimo, Papua";"Kabupaten Yahukimo, Papua";PAPUA;;Indonesia;;;;-46.597.588;1.391.221.414;https://maps.google.com/?cid=0x0:0x8dc722ebb3251072;
komplek housing;komplek housing;Papua;;Papua;PAPUA;;Indonesia;;;;-4.269.928;1.380.803.529;https://maps.google.com/?cid=0x0:0xeba94e9c5eefe673;
komplek housing;komplek housing;New house;"Jl. Kemang Selatan ID No.21 D, RT.2/RW.2, Bangka, Kec. Mampang Prpt., Kota Jakarta Selatan, Daerah Khusus Ibukota Jakarta 12730";"RT.2/RW.2, Bangka, Kec. Mampang Prpt., Kota Jakarta Selatan";PAPUA;12730;Indonesia;;;;-62.692.858;1.068.165.282;https://maps.google.com/?cid=0x0:0x3bab612c657eea7c;
komplek housing;komplek housing;Komplek Housing;"Blok Bojong Nangka I, Jl. Ring Rudal Blok Bojong Nangka I No.68, RT.001/RW.007, Jatirahayu, Kec. Pd. Melati, Kota Bks, Jawa Barat 17414";"Jl. Ring Rudal Blok Bojong Nangka I No.68, RT.001/RW.007, Jatirahayu, Kec. Pd. Melati, Kota Bks";PAPUA;17414;Indonesia;;;;-6.293.724;1.069.165.114;https://maps.google.com/?cid=0x0:0x9c50464976dee674;
komplek housing;Perumahan;Park Serpong Residence;"Legok, Kec. Legok, Kabupaten Tangerang, Banten 15820";"Kec. Legok, Kabupaten Tangerang";PAPUA;15820;Indonesia;081210020088;;;-62.752.468;1.065.969.572;https://maps.google.com/?cid=0x0:0x951c306876069a0c;
komplek housing;komplek housing;Papua;;Papua;PAPUA;;Indonesia;;;;-4.269.928;1.380.803.529;https://maps.google.com/?cid=0x0:0xeba94e9c5eefe673;
komplek housing;komplek housing;Papua 99582;"Kabupaten Yahukimo, Papua";"Kabupaten Yahukimo, Papua";PAPUA;;Indonesia;;;;-4.059.169;1.397.728.757;https://maps.google.com/?cid=0x0:0x86511d2b7e14d4b8;
komplek housing;Komplek perumahan;White House;"Jl. Komp. Pd. Gede Housing.II Blok FF. 1A, Jatirahayu, Pondok Melati, Bekasi, West Java 17414";"Jatirahayu, Pondok Melati, Bekasi";PAPUA;17414;Indonesia;;;;-62.883.969;1.069.160.196;https://maps.google.com/?cid=0x0:0x2bf8b8029130581f;
komplek housing;Komplek perumahan;Pondok Gede Housing II;"Housing II, Jl. Raya Hankam, RT.001/RW.004, Jatirahayu, Pondok Gede, Bekasi, West Java";"Kota Bks, Jawa Barat";PAPUA;;Indonesia;;;;-62.876.701;1.069.147.674;https://maps.google.com/?cid=0x0:0x2a52e601c20d18f2;
komplek housing;komplek housing;Distrik Dirwemna;"Kabupaten Yahukimo, Papua";"Kabupaten Yahukimo, Papua";PAPUA;;Indonesia;;;;-42.171.694;1.397.319.925;https://maps.google.com/?cid=0x0:0x2cc9ef96eb215caf;
komplek housing;komplek housing;Holuwon;"Kabupaten Yahukimo, Papua";"Kabupaten Yahukimo, Papua";PAPUA;;Indonesia;;;;-44.281.185;1.392.638.678;https://maps.google.com/?cid=0x0:0x9a16551255ae68d7;
komplek housing;komplek housing;Lolat;"Kabupaten Yahukimo, Papua";"Kabupaten Yahukimo, Papua";PAPUA;;Indonesia;;;;-4.473.778;1.394.669.396;https://maps.google.com/?cid=0x0:0x4999a2009f489076;
komplek housing;Komplek perumahan;Tolomping;"GG4H+C59, Niniwi, Duram, Kabupaten Yahukimo, Papua";"Kabupaten Yahukimo, Papua";PAPUA;;Indonesia;;;;-44.939.717;1.395.279.996;https://maps.google.com/?cid=0x0:0x3f5058c004d9aef6;
komplek housing;Komplek perumahan;Sumohai;"GG4H+C59, Niniwi, Duram, Kabupaten Yahukimo, Papua";"Kabupaten Yahukimo, Papua";PAPUA;;Indonesia;;;;-44.939.717;1.395.279.996;https://maps.google.com/?cid=0x0:0x5899d16b189445c8;
komplek housing;Komplek perumahan;IBILEMA LAYMAT;"Q2HW+6J, Hihundes, Kec. Kurima, Kabupaten Yahukimo, Papua";"Kabupaten Yahukimo, Papua";PAPUA;;Indonesia;;;;-42.219.685;1.390.466.439;https://maps.google.com/?cid=0x0:0x152a3e314fa3f67d;
komplek housing;Perhimpunan Pengembang Perumahan;Jack bolim;"FCR7+JC4, Oakbisik, Distrik Kwikma, Kabupaten Yahukimo, Papua 99578";"Oakbisik, Distrik Kwikma, Kabupaten Yahukimo";PAPUA;99578;Indonesia;;;;-45.084.955;1.394.135.645;https://maps.google.com/?cid=0x0:0x2bed5a3a8476b57f;
komplek housing;Komplek perumahan;Rumah 2;"HRP2+V3X, Jl. Gg. Pos, Pancoran MAS, Kec. Pancoran Mas, Kota Depok, Jawa Barat";"Kota Depok, Jawa Barat";PAPUA;;Indonesia;;;;-64.127.518;1.068.002.364;https://maps.google.com/?cid=0x0:0xf47217c95f7b7e41;
komplek housing;komplek housing;Komplek Housing;"Blok Bojong Nangka I, Jl. Ring Rudal Blok Bojong Nangka I No.68, RT.001/RW.007, Jatirahayu, Kec. Pd. Melati, Kota Bks, Jawa Barat 17414";"Jl. Ring Rudal Blok Bojong Nangka I No.68, RT.001/RW.007, Jatirahayu, Kec. Pd. Melati, Kota Bks";PAPUA;17414;Indonesia;;;;-6.293.724;1.069.165.114;https://maps.google.com/?cid=0x0:0x9c50464976dee674;
komplek housing;komplek housing;Villa Athaland;"Jl. Karedok, Sukaragam, Kec. Serang Baru, Kabupaten Bekasi, Jawa Barat 17330";"Sukaragam, Kec. Serang Baru, Kabupaten Bekasi";PAPUA;17330;Indonesia;081380626858;;;-64.053.695;1.070.841.181;https://maps.google.com/?cid=0x0:0x67afd8d4470aa264;
komplek housing;komplek housing;Rumah-1;"Jl. Mundu Blok A7/13, RT.011/RW.010, Jatimekar, Kec. Jatiasih, Kota Bks, Jawa Barat 17422";"RT.011/RW.010, Jatimekar, Kec. Jatiasih, Kota Bks";PAPUA;17422;Indonesia;;;;-6.292.297;106.952.161;https://maps.google.com/?cid=0x0:0x745412873ff9c6cd;
komplek housing;komplek housing;Kec. Soloikma;"Kabupaten Yahukimo, Papua";"Kabupaten Yahukimo, Papua";PAPUA;;Indonesia;;;;-43.745.305;1.394.262.684;https://maps.google.com/?cid=0x0:0x7406ade42ba8c072;
komplek housing;Pembangunan Perumahan;Kompleks Perumahan Eselon II;"4G53+GFR, Dekai, Kec. Dekai, Kabupaten Yahukimo, Papua 99571";"Dekai, Kec. Dekai, Kabupaten Yahukimo";PAPUA;99571;Indonesia;08114780101;;;-48.911.484;1.395.036.399;https://maps.google.com/?cid=0x0:0xe76fb3d14cef1b0f;
komplek housing;komplek housing;PERUMAHAN ESELON III;"4F9R+6CM, Moruku, Kec. Dekai, Kabupaten Yahukimo, Papua";"Kabupaten Yahukimo, Papua";PAPUA;;Indonesia;;;;-48.819.229;1.394.910.499;https://maps.google.com/?cid=0x0:0xd3a2397c9f8c01f0;
komplek housing;komplek housing;Papua;;Papua;PAPUA;;Indonesia;;;;-4.269.928;1.380.803.529;https://maps.google.com/?cid=0x0:0xeba94e9c5eefe673;
komplek housing;komplek housing;Papua 99578;"Kabupaten Yahukimo, Papua";"Kabupaten Yahukimo, Papua";PAPUA;;Indonesia;;;;-45.640.833;139.609.512;https://maps.google.com/?cid=0x0:0xf0d063f5d5617851;
komplek housing;Kantor Perusahaan;Komplek raya housing blok E;"Komplek raya hosing blok E.6 RT.003/001, Jatiwaringin, Kec. Pd. Gede";"Kota Bks, Jawa Barat";PAPUA;;Indonesia;;;;-62.811.216;1.069.102.168;https://maps.google.com/?cid=0x0:0x8256ca23a46e5e57;
komplek housing;Komplek perumahan;Komplek Raya Housing Blok D no.6;"Jl. Raya Housing No.6 Blok D, RT.006/RW.011, Jatiwaringin, Pondok Gede, Bekasi, West Java 17411";"RT.006/RW.011, Jatiwaringin, Pondok Gede, Bekasi";PAPUA;17411;Indonesia;0218469215;;;-62.812.011;1.069.100.437;https://maps.google.com/?cid=0x0:0x1c9f453cf5cbab3a;
komplek housing;Komplek perumahan;Komplek Raya Housing (Molek) Blok L3 - ZAIA;"Komplek Raya Housing (Molek No.3 Blok-L, RT.005/RW.011, Jatiwaringin, Kec. Pd. Gede, Kota Bks, Jawa Barat 17411";"RT.005/RW.011, Jatiwaringin, Kec. Pd. Gede, Kota Bks";PAPUA;17411;Indonesia;;;;-62.791.346;1.069.098.178;https://maps.google.com/?cid=0x0:0x70e05a91fbc23a92;
komplek housing;Komplek perumahan;Housing 1;"Blok D No.2a, Jl. Cipta Yasa, Jatirahayu, Kec. Pd. Melati, Kota Bks, Jawa Barat 17414";"Jl. Cipta Yasa, Jatirahayu, Kec. Pd. Melati, Kota Bks";PAPUA;17414;Indonesia;;;;-62.868.008;1.069.156.516;https://maps.google.com/?cid=0x0:0x8caf99f97a1f37b;
komplek housing;komplek housing;Distrik Korupun;"Kabupaten Yahukimo, Papua";"Kabupaten Yahukimo, Papua";PAPUA;;Indonesia;;;;-4.477.961;1.396.502.748;https://maps.google.com/?cid=0x0:0x2edcc1c48be65f16;
komplek housing;komplek housing;Korupun;"Distrik Korupun, Kabupaten Yahukimo, Papua";"Kabupaten Yahukimo, Papua";PAPUA;;Indonesia;;;;-44.713.035;1.396.426.587;https://maps.google.com/?cid=0x0:0x31ec35f0211c0ea6;
komplek housing;komplek housing;Distrik Langda;"Kabupaten Yahukimo, Papua";"Kabupaten Yahukimo, Papua";PAPUA;;Indonesia;;;;-44.536.835;1.394.159.571;https://maps.google.com/?cid=0x0:0xa522fd4ca56b0b0d;
komplek housing;Komplek perumahan;E-Lagoon Townhouse;"Jl. Bukit Indah, Serua Indah, Kec. Ciputat, Kota Tangerang Selatan, Banten 15414";"Serua Indah, Kec. Ciputat, Kota Tangerang Selatan";PAPUA;15414;Indonesia;;;;-63.172.689;106.722.123;https://maps.google.com/?cid=0x0:0x5feff6b111a39797;
komplek housing;Komplek perumahan;The Kana House;"Jl. Cilobak II, Pangkalan Jati, Kec. Cinere, Kota Depok, Jawa Barat 16513";"Pangkalan Jati, Kec. Cinere, Kota Depok";PAPUA;16513;Indonesia;0818772221;;;-63.176.054;1.067.982.412;https://maps.google.com/?cid=0x0:0xae88d1827559d767;
komplek housing;Komplek perumahan;Blok Edelweiss Grand Depok Residence;"Jl. Edelweiss GDR No.RT 09/12, Tanah Baru, Beji, Depok City, West Java 16426";"Tanah Baru, Beji, Depok City";PAPUA;16426;Indonesia;;;;-63.786.877;1.067.982.194;https://maps.google.com/?cid=0x0:0x112a1560f5b780d5;
komplek housing;;Perumahan Villa Athaland SindangMulya;"Jl. Raya Serang Cibarusah, Sindangmulya, Kec. Cibarusah, Kabupaten Bekasi, Jawa Barat 17340";"Sindangmulya, Kec. Cibarusah, Kabupaten Bekasi";PAPUA;17340;Indonesia;;;;-64.068.195;1.070.833.057;https://maps.google.com/?cid=0x0:0xa0730c8600fd8d2e;
komplek housing;Rumah singgah;De Green Balaraja;"VC2V+FRV, Benda, Kec. Sukamulya, Kabupaten Tangerang, Banten 15610";"Benda, Kec. Sukamulya, Kabupaten Tangerang";PAPUA;15610;Indonesia;;;;-61.486.302;1.064.446.718;https://maps.google.com/?cid=0x0:0xf632cf7347d365f6;
komplek housing;komplek housing;Komplek Housing;"Blok Bojong Nangka I, Jl. Ring Rudal Blok Bojong Nangka I No.68, RT.001/RW.007, Jatirahayu, Kec. Pd. Melati, Kota Bks, Jawa Barat 17414";"Jl. Ring Rudal Blok Bojong Nangka I No.68, RT.001/RW.007, Jatirahayu, Kec. Pd. Melati, Kota Bks";PAPUA;17414;Indonesia;;;;-6.293.724;1.069.165.114;https://maps.google.com/?cid=0x0:0x9c50464976dee674;
komplek housing;Komplek perumahan;BHUMI Modern Living;"Jl. Gn. Indah VIII, Cireundeu, Kec. Ciputat Tim., Kota Tangerang Selatan, Banten 15419";"Cireundeu, Kec. Ciputat Tim., Kota Tangerang Selatan";PAPUA;15419;Indonesia;08111224121;;;-63.096.675;1.067.681.049;https://maps.google.com/?cid=0x0:0x1a9fefa9a16d3926;
komplek housing;komplek housing;Presiden 89;"FP2J+H5, Megom, Distrik Sela, Kabupaten Yahukimo, Papua";"Kabupaten Yahukimo, Papua";PAPUA;;Indonesia;;;;-45.485.625;1.397.304.375;https://maps.google.com/?cid=0x0:0xc906f6a4bcb561ff;
komplek housing;komplek housing;Papua 99578;"Kabupaten Yahukimo, Papua";"Kabupaten Yahukimo, Papua";PAPUA;;Indonesia;;;;-45.640.833;139.609.512;https://maps.google.com/?cid=0x0:0xf0d063f5d5617851;
komplek housing;Perhimpunan Pengembang Perumahan;ULDAM;"7RWF+87M, Kitikni, Bomela, Kabupaten Yahukimo, Papua";"Kabupaten Yahukimo, Papua";PAPUA;;Indonesia;;;;-47.041.711;1.398.231.576;https://maps.google.com/?cid=0x0:0x7e03c6dae1c61297;
komplek housing;Komplek perumahan;Kampung Imde;"JXCX+87Q, Imde, Distrik Pamek, Kabupaten Pegunungan Bintang, Papua";"Kabupaten Pegunungan Bintang, Papua";PAPUA;;Indonesia;;;;-43.791.595;139.998.236;https://maps.google.com/?cid=0x0:0x8c1c589db27098a1;
komplek housing;Kompleks Kondominium;K. SOHILAIT;"PV2P+75W, Baru, Distrik Puldama, kabupaten bias, Papua";"kabupaten bias, Papua";PAPUA;;Indonesia;;;;-42.992.533;1.398.854.497;https://maps.google.com/?cid=0x0:0xb3c51869caecd779;
komplek housing;Perhimpunan Pengembang Perumahan;Domidena;"JXCX+87Q, Imde, Distrik Pamek, Kabupaten Pegunungan Bintang, Papua";"Kabupaten Pegunungan Bintang, Papua";PAPUA;;Indonesia;;;;-43.791.595;139.998.236;https://maps.google.com/?cid=0x0:0x240533b90d8bc588;
komplek housing;Pembangunan Perumahan;Polmak;"PFMP+HWF, Welile, Ubahak, Kabupaten Yahukimo, Papua";"Kabupaten Yahukimo, Papua";PAPUA;;Indonesia;;;;-426.605;1.394.872.858;https://maps.google.com/?cid=0x0:0x225ada2e0634177d;
komplek housing;Perhimpunan Pengembang Perumahan;Jack bolim;"FCR7+JC4, Oakbisik, Distrik Kwikma, Kabupaten Yahukimo, Papua 99578";"Oakbisik, Distrik Kwikma, Kabupaten Yahukimo";PAPUA;99578;Indonesia;;;;-45.084.955;1.394.135.645;https://maps.google.com/?cid=0x0:0x2bed5a3a8476b57f;
komplek housing;Perhimpunan Pengembang Perumahan;Ahkam muhammad;"GFG8+FQP, Lolat Batujai, Serahak";"Kabupaten Yahukimo, Papua";PAPUA;;Indonesia;;;;-4.473.778;1.394.669.396;https://maps.google.com/?cid=0x0:0xebdf25d2a30cc6be;
komplek housing;Komplek perumahan;Tolomping;"GG4H+C59, Niniwi, Duram, Kabupaten Yahukimo, Papua";"Kabupaten Yahukimo, Papua";PAPUA;;Indonesia;;;;-44.939.717;1.395.279.996;https://maps.google.com/?cid=0x0:0x3f5058c004d9aef6;
komplek housing;Perhimpunan Pengembang Perumahan;Bukit Sion;"QF8C+Q7, Suhuntek, Ubahak, Kabupaten Yahukimo, Papua";"Kabupaten Yahukimo, Papua";PAPUA;;Indonesia;;;;-4.233.049;1.394.706.845;https://maps.google.com/?cid=0x0:0x130dcfdfe4ad9774;
komplek housing;Perhimpunan Pengembang Perumahan;Kampung Pantele;"QCVJ+559, Tulpa, Distrik Anggruk, Kabupaten Yahukimo, Papua";"Kabupaten Yahukimo, Papua";PAPUA;;Indonesia;;;;-42.070.804;1.394.304.809;https://maps.google.com/?cid=0x0:0xf338736b091b6435;
komplek housing;Pembangunan Perumahan;Lelambo;"QCPM+XH6, Lelambo, Distrik Anggruk, Kabupaten Yahukimo, Papua";"Kabupaten Yahukimo, Papua";PAPUA;;Indonesia;;;;-42.125.998;1.394.338.921;https://maps.google.com/?cid=0x0:0x1cdfebea160d0d72;
komplek housing;Komplek perumahan;kompleks biru sekla;"5F3X+9M7, Kuaserama, Kec. Dekai, Kabupaten Yahukimo, Papua 99571";"Kuaserama, Kec. Dekai, Kabupaten Yahukimo";PAPUA;99571;Indonesia;;;;-48.465.779;1.394.991.668;https://maps.google.com/?cid=0x0:0x3799c8c2bfae97e1;
komplek housing;komplek housing;Bomela;"Kabupaten Yahukimo, Papua";"Kabupaten Yahukimo, Papua";PAPUA;;Indonesia;;;;-471.637;1.399.366.899;https://maps.google.com/?cid=0x0:0x434d9f4e267d54aa;
komplek housing;komplek housing;Komplek Housing;"Blok Bojong Nangka I, Jl. Ring Rudal Blok Bojong Nangka I No.68, RT.001/RW.007, Jatirahayu, Kec. Pd. Melati, Kota Bks, Jawa Barat 17414";"Jl. Ring Rudal Blok Bojong Nangka I No.68, RT.001/RW.007, Jatirahayu, Kec. Pd. Melati, Kota Bks";PAPUA;17414;Indonesia;;;;-6.293.724;1.069.165.114;https://maps.google.com/?cid=0x0:0x9c50464976dee674;
komplek housing;Penginapan religi;Malokmala Sumtamob;"54CR+FRW, Yup, Distrik Suntamon, Kabupaten Yahukimo, Papua";"Kabupaten Yahukimo, Papua";PAPUA;;Indonesia;;;;-48.287.552;1.401.420.882;https://maps.google.com/?cid=0x0:0x888c997a4ec75e34;
komplek housing;Komplek perumahan;Malokmala sumtamon;"657H+CW4, Suntamon, Distrik Suntamon, Kabupaten Yahukimo, Papua 99573";"Suntamon, Distrik Suntamon, Kabupaten Yahukimo";PAPUA;99573;Indonesia;081344115385;;;-47.864.997;1.401.798.365;https://maps.google.com/?cid=0x0:0xa63fbf0f58d3a94d;
komplek housing;komplek housing;Distrik Suntamon;"Kabupaten Yahukimo, Papua";"Kabupaten Yahukimo, Papua";PAPUA;;Indonesia;;;;-48.287.552;1.401.420.882;https://maps.google.com/?cid=0x0:0xf6fc10edcf03a1f0;
komplek housing;Gedung Apartemen;Haussimo L'Appartement;"Jl. Mampang Prapatan II No.5, RT.008/RW.007, Mampang Prpt., Kec. Mampang Prpt., Kota Jakarta Selatan, Daerah Khusus Ibukota Jakarta 12790";"RT.008/RW.007, Mampang Prpt., Kec. Mampang Prpt., Kota Jakarta Selatan";PAPUA;12790;Indonesia;08111101070;;;-6.242.916;1.068.317.438;https://maps.google.com/?cid=0x0:0xeecdeb8ea46c2a86;
komplek housing;Gedung Apartemen;Us Residence  Apartment;"QR2G+5CF, Jl. Mampang Prpt. Raya, RT.7/RW.6, Mampang Prpt., Kec. Mampang Prpt., Kota Jakarta Selatan, Daerah Khusus Ibukota Jakarta 12790";"Jl. Mampang Prpt. Raya, RT.7/RW.6, Mampang Prpt., Kec. Mampang Prpt., Kota Jakarta Selatan";PAPUA;12790;Indonesia;081298701371;;;-62.495.702;1.068.260.335;https://maps.google.com/?cid=0x0:0x50d35260bfc8a898;
komplek housing;komplek housing;Distrik Seradala;"Kabupaten Yahukimo, Papua";"Kabupaten Yahukimo, Papua";PAPUA;;Indonesia;;;;-50.222.492;1.399.274.723;https://maps.google.com/?cid=0x0:0x509ed53dd2c94ad4;
komplek housing;Pembangunan Perumahan;Woman;"VXJC+XX5, Samboga, Distrik Seradala, Kabupaten Yahukimo, Papua";"Kabupaten Yahukimo, Papua";PAPUA;;Indonesia;;;;-51.176.023;1.399.724.868;https://maps.google.com/?cid=0x0:0x18acb4203edcd99b;
komplek housing;Perhimpunan Pengembang Perumahan;Minning 1;"X49H+H6, Yelobib, Distrik Awinbon, Kabupaten Pegunungan Bintang, Papua";"Kabupaten Pegunungan Bintang, Papua";PAPUA;;Indonesia;;;;-50.310.642;1.401.280.584;https://maps.google.com/?cid=0x0:0x30f6c9f4a55327d6;
komplek housing;Perhimpunan Pengembang Perumahan;Chelsea Modern Home;"Jl. Raya Tengah No.15, RT.2/RW.12, Gedong, Kec. Ps. Rebo, Kota Jakarta Timur, Daerah Khusus Ibukota Jakarta 13760";"RT.2/RW.12, Gedong, Kec. Ps. Rebo, Kota Jakarta Timur";PAPUA;13760;Indonesia;0215269232;;;-62.962.351;1.068.614.595;https://maps.google.com/?cid=0x0:0xa12afc8784a851f2;
komplek housing;Komplek perumahan;Serenia Hills by PT. Intiland Development Tbk;"Jl. Karang Tengah Raya No.9, Lb. Bulus, Kec. Cilandak, Kota Jakarta Selatan, Daerah Khusus Ibukota Jakarta 12440";"Lb. Bulus, Kec. Cilandak, Kota Jakarta Selatan";PAPUA;12440;Indonesia;0217666143;;;-63.105.209;1.067.760.222;https://maps.google.com/?cid=0x0:0x130372b941c5f610;
komplek housing;Komplek perumahan;Perumahan seruni hills;"Seruni hills 3, Jatiranggon, Kec. Jatisampurna, Kota Bks, Jawa Barat 17432";"Jatiranggon, Kec. Jatisampurna, Kota Bks";PAPUA;17432;Indonesia;02184310764;;;-63.404.943;1.069.220.168;https://maps.google.com/?cid=0x0:0xab268aa8942fc95;
komplek housing;Komplek perumahan;Serenia Estate Marketing Gallery;"Serenia Estate, Jl. Deplu Raya No.16A, RT.6/RW.3, Bintaro, Pesanggrahan, South Jakarta City, Jakarta 12330";"Jl. Deplu Raya No.16A, RT.6/RW.3, Bintaro, Pesanggrahan, South Jakarta City";PAPUA;12330;Indonesia;;;;-62.730.913;1.067.709.681;https://maps.google.com/?cid=0x0:0xda09686150c77c3e;
komplek housing;Komplek perumahan;Residence Casa Jardin;"Jl. Daan Mogot No.Km. 11, RT.1/RW.4, Kedaung Kali Angke, Kecamatan Cengkareng, Kota Jakarta Barat, Daerah Khusus Ibukota Jakarta 11710";"RT.1/RW.4, Kedaung Kali Angke, Kecamatan Cengkareng, Kota Jakarta Barat";PAPUA;11710;Indonesia;081212162348;;;-61.539.524;1.067.524.764;https://maps.google.com/?cid=0x0:0xfac206204b9840f4;
komplek housing;Komplek perumahan;Cluster Sierra Metland Transyogi;"Sierra, Metland Transyogi, Cluster No.7 blok rm.30, RT.2/RW.27, Cipenjo, Cileungsi, Bogor Regency, West Java 16820";"Metland Transyogi, Cluster No.7 blok rm.30, RT.2/RW.27, Cipenjo, Cileungsi, Bogor Regency";PAPUA;16820;Indonesia;085333761369;;;-63.948.721;1.069.820.929;https://maps.google.com/?cid=0x0:0xb421f8d79832b1c7;
komplek housing;Kompleks Townhouse;Serenia Hills blok Quantum;"MQMF+2QM, Jl. Pertanian Raya, Lebak Bulus, Cilandak, South Jakarta City, Jakarta 15419";"Jl. Pertanian Raya, Lebak Bulus, Cilandak, South Jakarta City";PAPUA;15419;Indonesia;;;;-63.174.193;1.067.744.174;https://maps.google.com/?cid=0x0:0xd7e1b6941b569633;
komplek housing;Kantor Perusahaan;Kertamulya Residence;"J2Q9+7M8, Taman Sari, Kec. Setu, Kabupaten Bekasi, Jawa Barat";"Kabupaten Bekasi, Jawa Barat";PAPUA;;Indonesia;083861980838;;;-63.618.364;1.070.191.912;https://maps.google.com/?cid=0x0:0x6a66696aba1ab3fb;
komplek housing;Pengembang Realestat;South Grove;"1 No.1, RT.1/RW.1, Lb. Bulus, Kec. Cilandak, Kota Jakarta Selatan, Daerah Khusus Ibukota Jakarta 12440";"RT.1/RW.1, Lb. Bulus, Kec. Cilandak, Kota Jakarta Selatan";PAPUA;12440;Indonesia;085781134555;;;-62.971.596;1.067.842.535;https://maps.google.com/?cid=0x0:0x25d14d367fb5ed62;
komplek housing;Klub Olahraga;Lapangan Seven Soccer;"Kelurahaan, Jl. Karang Tengah Raya No.9, RT.1/RW.3, Lb. Bulus, Kec. Cilandak, Kota Jakarta Selatan, Daerah Khusus Ibukota Jakarta 12440";"Jl. Karang Tengah Raya No.9, RT.1/RW.3, Lb. Bulus, Kec. Cilandak, Kota Jakarta Selatan";PAPUA;12440;Indonesia;0217666144;;;-63.113.456;1.067.750.653;https://maps.google.com/?cid=0x0:0xd494fbca905e54a1;
komplek housing;Komplek perumahan;Cluster Quantum at Serenia Hills;"Jl. Serenia Hills, RT.14/RW.3, Lb. Bulus, Kec. Ciputat Tim., Kota Jakarta Selatan, Daerah Khusus Ibukota Jakarta";"Kota Jakarta Selatan, Daerah Khusus Ibukota Jakarta";PAPUA;;Indonesia;02175920077;;;-63.166.605;1.067.748.314;https://maps.google.com/?cid=0x0:0x313f240fa469a79d;
komplek housing;Perumahan;Grand Residence City;"Jl. Raya Cimuning, Cijengkol, Kec. Setu, Kabupaten Bekasi, Jawa Barat 17320";"Cijengkol, Kec. Setu, Kabupaten Bekasi";PAPUA;17320;Indonesia;081292700900;;;-63.311.959;1.070.321.825;https://maps.google.com/?cid=0x0:0xd53ba5d9dfd69444;
komplek housing;Pembangunan Perumahan;Distrik wipon;"M7G3+PF9, Hubik, Distrik Sobaham, Kabupaten Yahukimo, Papua 99571";"Hubik, Distrik Sobaham, Kabupaten Yahukimo";PAPUA;99571;Indonesia;;;;-43.232.167;1.392.537.329;https://maps.google.com/?cid=0x0:0x26f29065aaab2e0a;
komplek housing;Pembangunan Perumahan;Werima yahukimo;"Q36Q+854, Werima, Distrik Werima, Kabupaten Yahukimo, Papua";"Kabupaten Yahukimo, Papua";PAPUA;;Indonesia;;;;-42.392.397;1.390.879.622;https://maps.google.com/?cid=0x0:0xc3446ed4f01e9750;
komplek housing;komplek housing;Distrik Sobaham;"Kabupaten Yahukimo, Papua";"Kabupaten Yahukimo, Papua";PAPUA;;Indonesia;;;;-43.232.167;1.392.537.329;https://maps.google.com/?cid=0x0:0x333c694b4e6f2826;
komplek housing;Pembangunan Perumahan;Distrik wipon;"M7G3+PF9, Hubik, Distrik Sobaham, Kabupaten Yahukimo, Papua 99571";"Hubik, Distrik Sobaham, Kabupaten Yahukimo";PAPUA;99571;Indonesia;;;;-43.232.167;1.392.537.329;https://maps.google.com/?cid=0x0:0x26f29065aaab2e0a;
komplek housing;komplek housing;Kabianggama;"Kabupaten Yahukimo, Papua";"Kabupaten Yahukimo, Papua";PAPUA;;Indonesia;;;;-44.073.801;1.393.145.691;https://maps.google.com/?cid=0x0:0xc172b9d615ed9a5d;
komplek housing;komplek housing;Distrik kabianggama;"HCG8+H2, Yalar, Distrik Langda, Kabupaten Yahukimo, Papua";"Kabupaten Yahukimo, Papua";PAPUA;;Indonesia;;;;-4.423.619;1.394.150.535;https://maps.google.com/?cid=0x0:0x55ac2f150af29523;
komplek housing;komplek housing;Kwelamdua;"Kabupaten Yahukimo, Papua";"Kabupaten Yahukimo, Papua";PAPUA;;Indonesia;;;;-47.142.399;1.396.707.205;https://maps.google.com/?cid=0x0:0xa583fdfb8af2e23c;
komplek housing;Komplek perumahan;Distrik kwelamdua;"7MPC+385, Kubuk Dua, Kwelamdua, Kabupaten Yahukimo, Papua 99578";"Kubuk Dua, Kwelamdua, Kabupaten Yahukimo";PAPUA;99578;Indonesia;;;;-47.148.698;1.396.708.628;https://maps.google.com/?cid=0x0:0x134eb7877acce790;
komplek housing;Perhimpunan Pengembang Perumahan;ULDAM;"7RWF+87M, Kitikni, Bomela, Kabupaten Yahukimo, Papua";"Kabupaten Yahukimo, Papua";PAPUA;;Indonesia;;;;-47.041.711;1.398.231.576;https://maps.google.com/?cid=0x0:0x7e03c6dae1c61297;
komplek housing;Komplek perumahan;IBILEMA LAYMAT;"Q2HW+6J, Hihundes, Kec. Kurima, Kabupaten Yahukimo, Papua";"Kabupaten Yahukimo, Papua";PAPUA;;Indonesia;;;;-42.219.685;1.390.466.439;https://maps.google.com/?cid=0x0:0x152a3e314fa3f67d;
komplek housing;Perhimpunan Pengembang Perumahan;Jack bolim;"FCR7+JC4, Oakbisik, Distrik Kwikma, Kabupaten Yahukimo, Papua 99578";"Oakbisik, Distrik Kwikma, Kabupaten Yahukimo";PAPUA;99578;Indonesia;;;;-45.084.955;1.394.135.645;https://maps.google.com/?cid=0x0:0x2bed5a3a8476b57f;
komplek housing;Komplek perumahan;IBILEMA LAYMAT;"Q2HW+6J, Hihundes, Kec. Kurima, Kabupaten Yahukimo, Papua";"Kabupaten Yahukimo, Papua";PAPUA;;Indonesia;;;;-42.219.685;1.390.466.439;https://maps.google.com/?cid=0x0:0x152a3e314fa3f67d;
komplek housing;Perhimpunan Pengembang Perumahan;Jack bolim;"FCR7+JC4, Oakbisik, Distrik Kwikma, Kabupaten Yahukimo, Papua 99578";"Oakbisik, Distrik Kwikma, Kabupaten Yahukimo";PAPUA;99578;Indonesia;;;;-45.084.955;1.394.135.645;https://maps.google.com/?cid=0x0:0x2bed5a3a8476b57f;
komplek housing;komplek housing;Papua 99582;"Kabupaten Yahukimo, Papua";"Kabupaten Yahukimo, Papua";PAPUA;;Indonesia;;;;-4.059.169;1.397.728.757;https://maps.google.com/?cid=0x0:0x86511d2b7e14d4b8;
komplek housing;komplek housing;Papua;;Papua;PAPUA;;Indonesia;;;;-4.269.928;1.380.803.529;https://maps.google.com/?cid=0x0:0xeba94e9c5eefe673;
komplek housing;Komplek perumahan;Pondok Gede Housing II;"Housing II, Jl. Raya Hankam, RT.001/RW.004, Jatirahayu, Pondok Gede, Bekasi, West Java";"Kota Bks, Jawa Barat";PAPUA;;Indonesia;;;;-62.876.701;1.069.147.674;https://maps.google.com/?cid=0x0:0x2a52e601c20d18f2;
komplek housing;komplek housing;Kec. Yogosem;"Kabupaten Yahukimo, Papua";"Kabupaten Yahukimo, Papua";PAPUA;;Indonesia;;;;-42.220.265;1.391.294.918;https://maps.google.com/?cid=0x0:0xf4c5246dfdf2d6c1;
komplek housing;komplek housing;Yogosem;"Kec. Yogosem, Kabupaten Yahukimo, Papua";"Kabupaten Yahukimo, Papua";PAPUA;;Indonesia;;;;-4.271.304;1.391.929.609;https://maps.google.com/?cid=0x0:0x1b9b8ffbc4e0f1c1;
komplek housing;Pembangunan Perumahan;Wusilimo;"Q29V+QVQ, Unnamed Road, Parela, Kec. Kurima, Kabupaten Yahukimo, Papua 99571";"Unnamed Road, Parela, Kec. Kurima, Kabupaten Yahukimo";PAPUA;99571;Indonesia;;;;-42.305.393;1.390.447.353;https://maps.google.com/?cid=0x0:0x310af1d3e19b0cf1;
komplek housing;komplek housing;Papua;;Papua;PAPUA;;Indonesia;;;;-4.269.928;1.380.803.529;https://maps.google.com/?cid=0x0:0xeba94e9c5eefe673;
komplek housing;komplek housing;Papua 99571;"Kabupaten Yahukimo, Papua";"Kabupaten Yahukimo, Papua";PAPUA;;Indonesia;;;;-46.597.588;1.391.221.414;https://maps.google.com/?cid=0x0:0x8dc722ebb3251072;
komplek housing;Pembangunan Perumahan;Perumahan Holtekamp Sejahtera;"9Q4F+6MQ, Holtekam, Kec. Muara Tami, Kota Jayapura, Papua";"Kota Jayapura, Papua";PAPUA;;Indonesia;;;;-26.444.088;1.407.742.391;https://maps.google.com/?cid=0x0:0xd1d0e6040a7e159f;
komplek housing;Pembangunan Perumahan;Komplek Depnaker;"PXGH+MGV, Jl. Persatuan, RT.003/RW.001, Jaka Setia, Kec. Bekasi Sel., Kota Bks, Jawa Barat 17147";"Jl. Persatuan, RT.003/RW.001, Jaka Setia, Kec. Bekasi Sel., Kota Bks";PAPUA;17147;Indonesia;;;;-62.732.596;1.069.788.005;https://maps.google.com/?cid=0x0:0x6c05cd9ef837649b;
komplek housing;Komplek perumahan;Rumah Bekasi;"Jl. Kemuning Indah Blok IG No.7, RT.004/RW.019, Pejuang, Kecamatan Medan Satria, Kota Bks, Jawa Barat 17131";"RT.004/RW.019, Pejuang, Kecamatan Medan Satria, Kota Bks";PAPUA;17131;Indonesia;;;;-61.766.155;1.069.809.249;https://maps.google.com/?cid=0x0:0x963711da2190ba04;
komplek housing;Komplek perumahan;Rumah Baru;"Jl. Raya Poncol Blok Masjid No.4, RT.9/RW.7, Susukan, Kec. Ciracas, Kota Jakarta Timur, Daerah Khusus Ibukota Jakarta 13750";"RT.9/RW.7, Susukan, Kec. Ciracas, Kota Jakarta Timur";PAPUA;13750;Indonesia;;;;-63.203.468;1.068.687.478;https://maps.google.com/?cid=0x0:0x2bfbfe7d11baf556;
komplek housing;Perhentian bus;Permata Depok Regency;"Unnamed Road, Ratu Jaya, Kec. Cipayung, Kota Depok, Jawa Barat 16439";"Ratu Jaya, Kec. Cipayung, Kota Depok";PAPUA;16439;Indonesia;;;;-64.256.103;1.068.138.281;https://maps.google.com/?cid=0x0:0xfe27675638edbe1f;
komplek housing;Hotel;Green New Residence;"Jl. Green New Residence, Kedung Pengawas, Kec. Babelan, Kabupaten Bekasi, Jawa Barat 17610";"Kedung Pengawas, Kec. Babelan, Kabupaten Bekasi";PAPUA;17610;Indonesia;;;;-61.420.364;107.044.089;https://maps.google.com/?cid=0x0:0x60e56150de277511;
komplek housing;komplek housing;Komplek Housing;"Blok Bojong Nangka I, Jl. Ring Rudal Blok Bojong Nangka I No.68, RT.001/RW.007, Jatirahayu, Kec. Pd. Melati, Kota Bks, Jawa Barat 17414";"Jl. Ring Rudal Blok Bojong Nangka I No.68, RT.001/RW.007, Jatirahayu, Kec. Pd. Melati, Kota Bks";PAPUA;17414;Indonesia;;;;-6.293.724;1.069.165.114;https://maps.google.com/?cid=0x0:0x9c50464976dee674;
komplek housing;komplek housing;Papua 99571;"Kabupaten Yahukimo, Papua";"Kabupaten Yahukimo, Papua";PAPUA;;Indonesia;;;;-46.597.588;1.391.221.414;https://maps.google.com/?cid=0x0:0x8dc722ebb3251072;
komplek housing;komplek housing;Papua;;Papua;PAPUA;;Indonesia;;;;-4.269.928;1.380.803.529;https://maps.google.com/?cid=0x0:0xeba94e9c5eefe673;
komplek housing;Komplek perumahan;Pondok Gede Housing 1;"Jl. Cipta Raya No.45-3, RT.001/RW.003, Jatirahayu, Kec. Pd. Melati, Kota Bks, Jawa Barat 17414";"RT.001/RW.003, Jatirahayu, Kec. Pd. Melati, Kota Bks";PAPUA;17414;Indonesia;;;;-62.852.504;1.069.163.397;https://maps.google.com/?cid=0x0:0x3132afedbf38cd61;
perumahan;perumahan;Kec. Kurima;"Kabupaten Yahukimo, Papua";"Kabupaten Yahukimo, Papua";PAPUA;;Indonesia;;;;-42.110.641;13.902.832;https://maps.google.com/?cid=0x0:0x77fb5d60dba817bb;
perumahan;Pembangunan Perumahan;TUKUAREK;"Q2F7+H4G, Tukuarek, Kec. Kurima, Kabupaten Yahukimo, Papua 99511";"Tukuarek, Kec. Kurima, Kabupaten Yahukimo";PAPUA;99511;Indonesia;;;;-42.260.649;1.390.128.291;https://maps.google.com/?cid=0x0:0xd1cf26f411087902;
perumahan;Pembangunan Perumahan;kurima;"R224+59H, Sogokmo, Distrik Asotipo, Kabupaten Jayawijaya, Papua 99511";"Sogokmo, Distrik Asotipo, Kabupaten Jayawijaya";PAPUA;99511;Indonesia;;;;-41.995.684;1.390.059.852;https://maps.google.com/?cid=0x0:0xf3e6dde3f015a08a;
perumahan;Pembangunan Perumahan;Kampung Lotia;"Q2CF+M8, Luhulema, Kec. Kurima, Kabupaten Yahukimo, Papua 99511";"Luhulema, Kec. Kurima, Kabupaten Yahukimo";PAPUA;99511;Indonesia;;;;-42.283.016;1.390.232.686;https://maps.google.com/?cid=0x0:0x91c172a699ac08dd;
perumahan;Komplek perumahan;Kampung Huguma;"Q2C8+PPW, Lotia, Huglot, Kurima, Yahukimo regency, Papua 99511";"Lotia, Huglot, Kurima, Yahukimo regency";PAPUA;99511;Indonesia;;;;-42.281.489;1.390.168.337;https://maps.google.com/?cid=0x0:0x7bbc8e17e71e90d1;
perumahan;Pembangunan Perumahan;WANEM;"Q27M+VJJ, Wanem, Kec. Kurima, Kabupaten Yahukimo, Papua 99511";"Wanem, Kec. Kurima, Kabupaten Yahukimo";PAPUA;99511;Indonesia;;;;-42.352.942;139.034.009;https://maps.google.com/?cid=0x0:0x38862425406ccc28;
perumahan;Pembangunan Perumahan;P3W POLIMO;"Q2JP+H5, Luhulema, Kec. Kurima, Kabupaten Yahukimo, Papua 99511";"Luhulema, Kec. Kurima, Kabupaten Yahukimo";PAPUA;99511;Indonesia;;;;-42.185.175;1.390.354.488;https://maps.google.com/?cid=0x0:0x2466eda28903b25d;
perumahan;Komplek perumahan;Kampung Pakalu;"Q2HH+JF, Kilise, Kec. Kurima, Kabupaten Yahukimo, Papua 99511";"Kilise, Kec. Kurima, Kabupaten Yahukimo";PAPUA;99511;Indonesia;;;;-4.220.942;1.390.286.377;https://maps.google.com/?cid=0x0:0x8697e1505b4399df;
perumahan;Komplek perumahan;IBILEMA LAYMAT;"Q2HW+6J, Hihundes, Kec. Kurima, Kabupaten Yahukimo, Papua";"Kabupaten Yahukimo, Papua";PAPUA;;Indonesia;;;;-42.219.685;1.390.466.439;https://maps.google.com/?cid=0x0:0x152a3e314fa3f67d;
perumahan;Pembangunan Perumahan;Werima yahukimo;"Q36Q+854, Werima, Distrik Werima, Kabupaten Yahukimo, Papua";"Kabupaten Yahukimo, Papua";PAPUA;;Indonesia;;;;-42.392.397;1.390.879.622;https://maps.google.com/?cid=0x0:0xc3446ed4f01e9750;
perumahan;perumahan;Distrik Anggruk;"Kabupaten Yahukimo, Papua";"Kabupaten Yahukimo, Papua";PAPUA;;Indonesia;;;;-42.006.235;1.394.318.012;https://maps.google.com/?cid=0x0:0x8e0e9e49a5778268;
perumahan;Taman;Kampung Lelambo Distrik Angguruk;"QCXJ+9WG, Lelambo, Distrik Anggruk, Kabupaten Yahukimo, Papua";"Kabupaten Yahukimo, Papua";PAPUA;;Indonesia;;;;-42.015.596;1.394.323.397;https://maps.google.com/?cid=0x0:0xe0022f72a1c45506;
perumahan;Perhimpunan Pengembang Perumahan;Kampung Pantele;"QCVJ+559, Tulpa, Distrik Anggruk, Kabupaten Yahukimo, Papua";"Kabupaten Yahukimo, Papua";PAPUA;;Indonesia;;;;-42.070.804;1.394.304.809;https://maps.google.com/?cid=0x0:0xf338736b091b6435;
perumahan;Komplek perumahan;Kampung Tohong;"QCWQ+8H4, Yaholikma, Distrik Anggruk, Kabupaten Yahukimo, Papua";"Kabupaten Yahukimo, Papua";PAPUA;;Indonesia;;;;-42.042.463;1.394.389.466;https://maps.google.com/?cid=0x0:0x3a11b03cf3288681;
perumahan;Pembangunan Perumahan;Lelambo;"QCPM+XH6, Lelambo, Distrik Anggruk, Kabupaten Yahukimo, Papua";"Kabupaten Yahukimo, Papua";PAPUA;;Indonesia;;;;-42.125.998;1.394.338.921;https://maps.google.com/?cid=0x0:0x1cdfebea160d0d72;
perumahan;Gereja;RS GKI EFATA Angguruk;"QCXJ+PPV, Lelambo, Distrik Anggruk, Kabupaten Yahukimo, Papua 99582";"Lelambo, Distrik Anggruk, Kabupaten Yahukimo";PAPUA;99582;Indonesia;;;;-42.006.263;1.394.318.052;https://maps.google.com/?cid=0x0:0xbf2afcbdf311869f;
perumahan;Komplek perumahan;Lapter Pasikni kilingnianggen;"QCMF+5Q, Tulpa, Distrik Anggruk, Kabupaten Yahukimo, Papua";"Kabupaten Yahukimo, Papua";PAPUA;;Indonesia;;;;-42.171.102;1.394.244.674;https://maps.google.com/?cid=0x0:0x647b06f713f0aa32;
perumahan;perumahan;LAPTER PALIPTEK;"QCW2+2X, Walma, Distrik Walma, Kabupaten Yahukimo, Papua";"Kabupaten Yahukimo, Papua";PAPUA;;Indonesia;;;;-42.048.802;1.394.023.921;https://maps.google.com/?cid=0x0:0x44d19570a4058a1b;
perumahan;Pembangunan Perumahan;Kecamatan yahuliambut;"RCR7+92, Kolu, Distrik Panggema, Kabupaten Yahukimo, Papua 99582";"Kolu, Distrik Panggema, Kabupaten Yahukimo";PAPUA;99582;Indonesia;;;;-41.590.028;1.394.125.185;https://maps.google.com/?cid=0x0:0x6b53b33b0f750685;
perumahan;Pembangunan Perumahan;Nisikni;"PFMP+HWF, Welile, Ubahak, Kabupaten Yahukimo, Papua";"Kabupaten Yahukimo, Papua";PAPUA;;Indonesia;;;;-426.605;1.394.872.858;https://maps.google.com/?cid=0x0:0xde4f54c1ec7b967d;
perumahan;Perhimpunan Pengembang Perumahan;Bukit Sion;"QF8C+Q7, Suhuntek, Ubahak, Kabupaten Yahukimo, Papua";"Kabupaten Yahukimo, Papua";PAPUA;;Indonesia;;;;-4.233.049;1.394.706.845;https://maps.google.com/?cid=0x0:0x130dcfdfe4ad9774;
perumahan;Pembangunan Perumahan;Polmak;"PFMP+HWF, Welile, Ubahak, Kabupaten Yahukimo, Papua";"Kabupaten Yahukimo, Papua";PAPUA;;Indonesia;;;;-426.605;1.394.872.858;https://maps.google.com/?cid=0x0:0x225ada2e0634177d;
perumahan;Pembangunan Perumahan;Inttri;"PFMP+HWF, Welile, Ubahak, Kabupaten Yahukimo, Papua";"Kabupaten Yahukimo, Papua";PAPUA;;Indonesia;;;;-426.605;1.394.872.858;https://maps.google.com/?cid=0x0:0x9da1a738c9985b67;
perumahan;Pembangunan Perumahan;RUMA PAK NAS TOGODLI;"P9XW+483, RT.04/RW.02, Werene, Distrik Walma, Kabupaten Yahukimo, Papua";"Kabupaten Yahukimo, Papua";PAPUA;;Indonesia;;;;-42.522.348;1.393.957.836;https://maps.google.com/?cid=0x0:0x56bc59ffaa4e0576;
perumahan;perumahan;Distrik Ninia;"Kabupaten Yahukimo, Papua";"Kabupaten Yahukimo, Papua";PAPUA;;Indonesia;;;;-43.157.712;1.393.301.478;https://maps.google.com/?cid=0x0:0xde1eb8298490e2ec;
perumahan;perumahan;Papua 99578;"Kabupaten Yahukimo, Papua";"Kabupaten Yahukimo, Papua";PAPUA;;Indonesia;;;;-45.640.833;139.609.512;https://maps.google.com/?cid=0x0:0xf0d063f5d5617851;
perumahan;perumahan;Distrik Silimo;"Kabupaten Yahukimo, Papua";"Kabupaten Yahukimo, Papua";PAPUA;;Indonesia;;;;-44.648.706;1.389.453.684;https://maps.google.com/?cid=0x0:0x829137a390946d89;
perumahan;Pusat Kesehatan Masyarakat;Puskesmas;"GWHP+HQG, Suet, Distrik Silimo, Kabupaten Yahukimo, Papua 99571";"Suet, Distrik Silimo, Kabupaten Yahukimo";PAPUA;99571;Indonesia;;;;-44.710.671;138.936.943;https://maps.google.com/?cid=0x0:0x65b54403b7c27f88;
perumahan;Kantor Pemerintah;Puskesmas Kurima;"Q2MP+F98, Anjelma, Kec. Kurima, Kabupaten Yahukimo, Papua 99511";"Anjelma, Kec. Kurima, Kabupaten Yahukimo";PAPUA;99511;Indonesia;;;;-42.163.388;139.035.957;https://maps.google.com/?cid=0x0:0xa01f252fb3ba7a74;
perumahan;perumahan;Samenage;"Kabupaten Yahukimo, Papua";"Kabupaten Yahukimo, Papua";PAPUA;;Indonesia;;;;-4.403.915;1.389.001.364;https://maps.google.com/?cid=0x0:0x66267384b8a22303;
perumahan;perumahan;Papua 99582;"Kabupaten Yahukimo, Papua";"Kabupaten Yahukimo, Papua";PAPUA;;Indonesia;;;;-4.059.169;1.397.728.757;https://maps.google.com/?cid=0x0:0x86511d2b7e14d4b8;
perumahan;Perumahan;Perumahan New Kraksaan Land;"6CXQ+VJ3, Karang Asem, Kebonagung, Kec. Kraksaan, Kabupaten Probolinggo, Jawa Timur 67282";"Karang Asem, Kebonagung, Kec. Kraksaan, Kabupaten Probolinggo";PAPUA;67282;Indonesia;;;;-77.503.683;1.134.390.551;https://maps.google.com/?cid=0x0:0xc2a9dbb8dec00ca6;
perumahan;Pembangunan Perumahan;Perumahan Raya Regency;"6CXW+J9V, Karang Asem, Kebonagung, Kec. Kraksaan, Kabupaten Probolinggo, Jawa Timur 67282";"Karang Asem, Kebonagung, Kec. Kraksaan, Kabupaten Probolinggo";PAPUA;67282;Indonesia;;;;-77.495.298;113.446.495;https://maps.google.com/?cid=0x0:0xabf6c9e2b54fc619;
perumahan;perumahan;Kec. Dekai;"Kabupaten Yahukimo, Papua";"Kabupaten Yahukimo, Papua";PAPUA;;Indonesia;;;;-48.638.158;1.394.837.298;https://maps.google.com/?cid=0x0:0x3f831a54259051e;
perumahan;Pembangunan Perumahan;Perumahan Bappeda;"4F3G+74, Moruku, Kec. Dekai, Kabupaten Yahukimo, Papua 99571";"Moruku, Kec. Dekai, Kabupaten Yahukimo";PAPUA;99571;Indonesia;;;;-48.968.328;1.394.752.584;https://maps.google.com/?cid=0x0:0x3584526e70706fc3;
perumahan;Kantor Pemerintah;Rumah Jabatan Wakil Bupati Yahukimo;"4G58+CRX, Dekai, Kec. Dekai, Kabupaten Yahukimo, Papua 99571";"Dekai, Kec. Dekai, Kabupaten Yahukimo";PAPUA;99571;Indonesia;;;;-48.913.905;1.395.171.024;https://maps.google.com/?cid=0x0:0x682c553396edcdc3;
perumahan;Perhimpunan Pengembang Perumahan;Dekai;"3FPW+GVF, Dekai, Kec. Dekai, Kabupaten Yahukimo, Papua";"Kabupaten Yahukimo, Papua";PAPUA;;Indonesia;;;;-49.136.993;139.497.172;https://maps.google.com/?cid=0x0:0xc618a905a6f8e791;
perumahan;Komplek perumahan;Dekai Keyke;"2GFG+R9M, Dekai, Kec. Dekai, Kabupaten Yahukimo, Papua 99571";"Dekai, Kec. Dekai, Kabupaten Yahukimo";PAPUA;99571;Indonesia;;;;-49.754.238;1.395.259.255;https://maps.google.com/?cid=0x0:0x56ccdef5c98581a6;
perumahan;perumahan;YAFDAS DEKAI;"4FVW+9G, Kuaserama, Kec. Dekai, Kabupaten Yahukimo, Papua";"Kabupaten Yahukimo, Papua";PAPUA;;Indonesia;;;;-48.565.208;1.394.962.598;https://maps.google.com/?cid=0x0:0x950c4f5db8c41233;
perumahan;Komplek perumahan;kompleks biru sekla;"5F3X+9M7, Kuaserama, Kec. Dekai, Kabupaten Yahukimo, Papua 99571";"Kuaserama, Kec. Dekai, Kabupaten Yahukimo";PAPUA;99571;Indonesia;;;;-48.465.779;1.394.991.668;https://maps.google.com/?cid=0x0:0x3799c8c2bfae97e1;
perumahan;Komplek perumahan;kali merah;"4GR3+X2, Kuaserama, Kec. Dekai, Kabupaten Yahukimo, Papua";"Kabupaten Yahukimo, Papua";PAPUA;;Indonesia;;;;-48.575.555;139.502.574;https://maps.google.com/?cid=0x0:0xfff86dd4eb2d12f1;
perumahan;Komplek perumahan;Lokasi Rencana Pembangunan Rusun;"4G6F+JJG, Dekai, Kec. Dekai, Kabupaten Yahukimo, Papua";"Kabupaten Yahukimo, Papua";PAPUA;;Indonesia;;;;-48.884.459;1.395.240.805;https://maps.google.com/?cid=0x0:0x1e231747b33f6efd;
perumahan;Perhimpunan Pengembang Perumahan;Perumahan;"Pertigaan Pemukiman Paradiso, Massi, Kec. Dekai, Kabupaten Yahukimo, Papua 99702";"Massi, Kec. Dekai, Kabupaten Yahukimo";PAPUA;99702;Indonesia;081227391110;;;-48.638.158;1.394.837.298;https://maps.google.com/?cid=0x0:0x2c86be27f8a25576;
perumahan;Komplek perumahan;Pertiagan Pemukiman Jln paradiso;"4FGC+2R6, Massi, Kec. Dekai, Kabupaten Yahukimo, Papua 99571";"Massi, Kec. Dekai, Kabupaten Yahukimo";PAPUA;99571;Indonesia;;;;-487.496;1.394.720.255;https://maps.google.com/?cid=0x0:0x787a848b09e3b110;
perumahan;Komplek perumahan;KOMPLEXS SUHUN YAHUN BRAZA;"5F6R+66H, Unnamed Road, Kuaserama, Kec. Dekai, Kabupaten Yahukimo, Papua 99571";"Unnamed Road, Kuaserama, Kec. Dekai, Kabupaten Yahukimo";PAPUA;99571;Indonesia;;;;-48.394.435;1.394.906.217;https://maps.google.com/?cid=0x0:0x8c2886abcd526b2e;
perumahan;Komplek perumahan;Barak seredala;"4GH4+48V Barak seredala, Kuaserama, Dekai, Yahukimo regency, Papua";"Kabupaten Yahukimo, Papua";PAPUA;;Indonesia;;;;-48.721.262;1.395.057.953;https://maps.google.com/?cid=0x0:0x545f742f57318b0a;
perumahan;Perhimpunan Pengembang Perumahan;Sudi Kobak House;"3FMC+793, Keikey, Kec. Dekai, Kabupaten Yahukimo, Papua";"Kabupaten Yahukimo, Papua";PAPUA;;Indonesia;;;;-4.916.854;1.394.709.243;https://maps.google.com/?cid=0x0:0x2ed02449e664bddd;
perumahan;Komplek perumahan;"Dinas Perumahan dan Kawasan Permukiman, Kabupaten Yahukimo";"4FPM+FFH, Jalan Sohosa, Kec. Dekai, Kabupaten Yahukimo, Papua 99571";"Jalan Sohosa, Kec. Dekai, Kabupaten Yahukimo";PAPUA;99571;Indonesia;;;;-48.638.158;1.394.837.298;https://maps.google.com/?cid=0x0:0x678e22be27f414d5;
perumahan;perumahan;Rumah Susun Sekolah Penggerak Anggen Fano Dekai Kab. Yahukimo;"4G5F+QQ, Dekai, Kec. Dekai, Kabupaten Yahukimo, Papua";"Kabupaten Yahukimo, Papua";PAPUA;;Indonesia;;;;-48.905.556;1.395.244.444;https://maps.google.com/?cid=0x0:0xacbb7492253a737e;
perumahan;Komplek perumahan;JalurNehe;"4F3H+WRJ, Moruku, Kec. Dekai, Kabupaten Yahukimo, Papua";"Kabupaten Yahukimo, Papua";PAPUA;;Indonesia;;;;-48.951.526;1.394.795.177;https://maps.google.com/?cid=0x0:0x2cddb3b3139349de;
perumahan;Komplek perumahan;Maulana al hafidz salim;"4FMJ+24M, Massi, Kec. Dekai, Kabupaten Yahukimo, Papua 99571";"Massi, Kec. Dekai, Kabupaten Yahukimo";PAPUA;99571;Indonesia;;;;-48.674.208;1.394.803.103;https://maps.google.com/?cid=0x0:0x970ace015b0d22e9;
perumahan;perumahan;PERUMAHAN ESELON III;"4F9R+6CM, Moruku, Kec. Dekai, Kabupaten Yahukimo, Papua";"Kabupaten Yahukimo, Papua";PAPUA;;Indonesia;;;;-48.819.229;1.394.910.499;https://maps.google.com/?cid=0x0:0xd3a2397c9f8c01f0;
perumahan;Warnet;DekaiNet;"Ruko Pemda blok C No. 34, Massi, Kec. Dekai, Kabupaten Yahukimo, Papua 99571";"Massi, Kec. Dekai, Kabupaten Yahukimo";PAPUA;99571;Indonesia;081343672220;;;-48.655.311;1.394.827.836;https://maps.google.com/?cid=0x0:0x17e31ff49445dfa8;
perumahan;perumahan;Distrik Obio;"Kabupaten Yahukimo, Papua";"Kabupaten Yahukimo, Papua";PAPUA;;Indonesia;;;;-46.303.541;1.391.625.989;https://maps.google.com/?cid=0x0:0xfed7365e77775dec;
perumahan;perumahan;???? ???;"G6H6+P73, Molama, Distrik Kayo, Kabupaten Yahukimo, Papua 99571";"Molama, Distrik Kayo, Kabupaten Yahukimo";PAPUA;99571;Indonesia;;;;-44.707.456;1.392.106.794;https://maps.google.com/?cid=0x0:0xccd97d910528d89a;
perumahan;perumahan;Suru-Suru;"Distrik Suru-Suru, Kabupaten Yahukimo, Papua";"Kabupaten Yahukimo, Papua";PAPUA;;Indonesia;;;;-47.233.106;1.390.236.458;https://maps.google.com/?cid=0x0:0xd29b17d46db20734;
perumahan;perumahan;Koramil Suru;"6XJP+WG, Suru-Suru, Kabupaten Asmat, Papua";"Kabupaten Asmat, Papua";PAPUA;;Indonesia;;;;-476.769;138.986.296;https://maps.google.com/?cid=0x0:0x50c6a9fbde2dbfbd;
perumahan;perumahan;Distrik Wusama;"Kabupaten Yahukimo, Papua";"Kabupaten Yahukimo, Papua";PAPUA;;Indonesia;;;;-44.818.415;1.389.178.396;https://maps.google.com/?cid=0x0:0xb3d568174df096b5;
perumahan;Pembangunan Perumahan;Wusilimo;"Q29V+QVQ, Unnamed Road, Parela, Kec. Kurima, Kabupaten Yahukimo, Papua 99571";"Unnamed Road, Parela, Kec. Kurima, Kabupaten Yahukimo";PAPUA;99571;Indonesia;;;;-42.305.393;1.390.447.353;https://maps.google.com/?cid=0x0:0x310af1d3e19b0cf1;
perumahan;Pembangunan Perumahan;Perumahan yuwanain;"3QQ4+GPV, Jalur 5, arso dua, Kec. Arso, Kabupaten Keerom, Papua 99468";"Jalur 5, arso dua, Kec. Arso, Kabupaten Keerom";PAPUA;99468;Indonesia;;;;-29.111.333;1.407.567.896;https://maps.google.com/?cid=0x0:0x3abf70bb83649a10;
perumahan;Pembangunan Perumahan;Werima yahukimo;"Q36Q+854, Werima, Distrik Werima, Kabupaten Yahukimo, Papua";"Kabupaten Yahukimo, Papua";PAPUA;;Indonesia;;;;-42.392.397;1.390.879.622;https://maps.google.com/?cid=0x0:0xc3446ed4f01e9750;
perumahan;perumahan;Amuma;"Kabupaten Yahukimo, Papua";"Kabupaten Yahukimo, Papua";PAPUA;;Indonesia;;;;-45.568.267;1.389.763.256;https://maps.google.com/?cid=0x0:0x3c835fbbc6f56fd5;
perumahan;perumahan;Musaik;"Kabupaten Yahukimo, Papua";"Kabupaten Yahukimo, Papua";PAPUA;;Indonesia;;;;-46.777.295;1.389.202.828;https://maps.google.com/?cid=0x0:0xdc0c81c6b3de89dd;
perumahan;Toko;Perum BWI 2;"Waringinjaya, Kec. Kedungwaringin, Kabupaten Bekasi, Jawa Barat 17540";"Kec. Kedungwaringin, Kabupaten Bekasi";PAPUA;17540;Indonesia;;;;-62.609.582;1.072.362.955;https://maps.google.com/?cid=0x0:0x506f6aafe056a15a;
perumahan;Komplek perumahan;"Perum Bumi Waringin Indah 2 Blok D2 No.27 kedungwaringin,Bekasi";"Perum Bumi waringin indah 2 blok A6.01, Waringinjaya, Kec. Kedungwaringin, Kabupaten Bekasi, Jawa Barat 17540";"Waringinjaya, Kec. Kedungwaringin, Kabupaten Bekasi";PAPUA;17540;Indonesia;089607269173;;;-6.256.702;1.072.369.839;https://maps.google.com/?cid=0x0:0x76c93e8caecac003;
perumahan;perumahan;Distrik Pasema;"Kabupaten Yahukimo, Papua";"Kabupaten Yahukimo, Papua";PAPUA;;Indonesia;;;;-43.853.385;1.391.019.233;https://maps.google.com/?cid=0x0:0x405f3a5923d299bd;
perumahan;perumahan;Distrik Hogio;"Kabupaten Yahukimo, Papua";"Kabupaten Yahukimo, Papua";PAPUA;;Indonesia;;;;-43.836.418;1.390.239.301;https://maps.google.com/?cid=0x0:0x41399fcafb51fa92;
perumahan;perumahan;Papua 99571;"Kabupaten Yahukimo, Papua";"Kabupaten Yahukimo, Papua";PAPUA;;Indonesia;;;;-46.597.588;1.391.221.414;https://maps.google.com/?cid=0x0:0x8dc722ebb3251072;
perumahan;perumahan;Distrik Mugi;"Mugi, Kabupaten Nduga, Papua";"Kabupaten Nduga, Papua";PAPUA;;Indonesia;;;;-42.798.832;1.383.489.356;https://maps.google.com/?cid=0x0:0x9a4568001d69065b;
perumahan;perumahan;Mugi;"Distrik Mugi, Kabupaten Nduga, Papua";"Kabupaten Nduga, Papua";PAPUA;;Indonesia;;;;-42.798.832;1.383.489.356;https://maps.google.com/?cid=0x0:0xefdd2d670bec7206;
perumahan;perumahan;Papua 99564;Papua;Papua;PAPUA;;Indonesia;;;;-42.226.519;1.383.190.276;https://maps.google.com/?cid=0x0:0x12113e40469ed72c;
perumahan;Pembangunan Perumahan;RUMAH MUGNI;"Jl. Kp. Pelaukan No.74, RT.2/RW.1, Sukaraya, Kec. Karangbahagia, Kabupaten Bekasi, Jawa Barat 17530";"RT.2/RW.1, Sukaraya, Kec. Karangbahagia, Kabupaten Bekasi";PAPUA;17530;Indonesia;;;;-62.266.131;1.071.706.032;https://maps.google.com/?cid=0x0:0xc6aeefb2dedab7bb;
perumahan;perumahan;Distrik Mugi;"Mugi, Kabupaten Nduga, Papua";"Kabupaten Nduga, Papua";PAPUA;;Indonesia;;;;-42.798.832;1.383.489.356;https://maps.google.com/?cid=0x0:0x9a4568001d69065b;
perumahan;Pusat Kesehatan Masyarakat;PUSKESMAS MUGI KABUPATEN YAHUKIMO;"M2FP+7V6, Panyoke, Distrik Mugi, Kabupaten Yahukimo, Papua 99571";"Panyoke, Distrik Mugi, Kabupaten Yahukimo";PAPUA;99571;Indonesia;;;;-43.268.254;1.390.371.514;https://maps.google.com/?cid=0x0:0x20527a8ffa70d3ce;
perumahan;perumahan;Mugi;"Distrik Mugi, Kabupaten Nduga, Papua";"Kabupaten Nduga, Papua";PAPUA;;Indonesia;;;;-42.798.832;1.383.489.356;https://maps.google.com/?cid=0x0:0xefdd2d670bec7206;
perumahan;perumahan;Papua;;Papua;PAPUA;;Indonesia;;;;-4.269.928;1.380.803.529;https://maps.google.com/?cid=0x0:0xeba94e9c5eefe673;
perumahan;perumahan;Distrik Soba;"Kabupaten Yahukimo, Papua";"Kabupaten Yahukimo, Papua";PAPUA;;Indonesia;;;;-43.806.668;1.391.524.819;https://maps.google.com/?cid=0x0:0x943427b95ba980a6;
perumahan;Gedung Apartemen;HIDDEN VALLEY COMPLEX;"R3WX+8Q7, Tembagapura, Kec. Tembagapura, Kabupaten Mimika, Papua 99967";"Tembagapura, Kec. Tembagapura, Kabupaten Mimika";PAPUA;99967;Indonesia;;;;-41.542.159;1.370.994.215;https://maps.google.com/?cid=0x0:0x8f548cbaf64490ca;
perumahan;Komplek perumahan;Perum. Soba Sektor 10;"9QWW+76M, Perum. Soba Sektor X, Dusun 1, Gedangan, Kec. Grogol, Kabupaten Sukoharjo, Jawa Tengah 57552";"Perum. Soba Sektor X, Dusun 1, Gedangan, Kec. Grogol, Kabupaten Sukoharjo";PAPUA;57552;Indonesia;082226846888;;;-76.042.963;1.107.955.409;https://maps.google.com/?cid=0x0:0x4f4251531f1309f6;
perumahan;Komplek perumahan;Segara City;"Jl. Tarumajaya Raya, Pantai Makmur, Kec. Tarumajaya, Kabupaten Bekasi, Jawa Barat 17216";"Pantai Makmur, Kec. Tarumajaya, Kabupaten Bekasi";PAPUA;17216;Indonesia;02129373060;;;-61.191.747;1.070.029.212;https://maps.google.com/?cid=0x0:0x94e0f076806de53a;
perumahan;Komplek perumahan;Sasa mantap;"Perumahan pondok mekarsari permai jl.kelapa No.10 blok n, RT.06/RW.012, Mekarsari, Kec. Cimanggis, Kota Depok, Jawa Barat 16439";"RT.06/RW.012, Mekarsari, Kec. Cimanggis, Kota Depok";PAPUA;16439;Indonesia;087785259858;;;-63.573.931;1.068.698.855;https://maps.google.com/?cid=0x0:0xdb9156997ba48ff8;
perumahan;Pembangunan Perumahan;Werima yahukimo;"Q36Q+854, Werima, Distrik Werima, Kabupaten Yahukimo, Papua";"Kabupaten Yahukimo, Papua";PAPUA;;Indonesia;;;;-42.392.397;1.390.879.622;https://maps.google.com/?cid=0x0:0xc3446ed4f01e9750;
perumahan;perumahan;Distrik Werima;"Kabupaten Yahukimo, Papua";"Kabupaten Yahukimo, Papua";PAPUA;;Indonesia;;;;-42.391.824;1.390.879.724;https://maps.google.com/?cid=0x0:0x625e82d61abc01d4;
perumahan;Pembangunan Perumahan;Wusilimo;"Q29V+QVQ, Unnamed Road, Parela, Kec. Kurima, Kabupaten Yahukimo, Papua 99571";"Unnamed Road, Parela, Kec. Kurima, Kabupaten Yahukimo";PAPUA;99571;Indonesia;;;;-42.305.393;1.390.447.353;https://maps.google.com/?cid=0x0:0x310af1d3e19b0cf1;
perumahan;Komplek perumahan;IBILEMA LAYMAT;"Q2HW+6J, Hihundes, Kec. Kurima, Kabupaten Yahukimo, Papua";"Kabupaten Yahukimo, Papua";PAPUA;;Indonesia;;;;-42.219.685;1.390.466.439;https://maps.google.com/?cid=0x0:0x152a3e314fa3f67d;
perumahan;Pembangunan Perumahan;P3W POLIMO;"Q2JP+H5, Luhulema, Kec. Kurima, Kabupaten Yahukimo, Papua 99511";"Luhulema, Kec. Kurima, Kabupaten Yahukimo";PAPUA;99511;Indonesia;;;;-42.185.175;1.390.354.488;https://maps.google.com/?cid=0x0:0x2466eda28903b25d;
perumahan;perumahan;Distrik Tangma;"Kabupaten Yahukimo, Papua";"Kabupaten Yahukimo, Papua";PAPUA;;Indonesia;;;;-42.347.279;1.390.094.652;https://maps.google.com/?cid=0x0:0xb583716ba76aa118;
perumahan;Pembangunan Perumahan;TUKUAREK;"Q2F7+H4G, Tukuarek, Kec. Kurima, Kabupaten Yahukimo, Papua 99511";"Tukuarek, Kec. Kurima, Kabupaten Yahukimo";PAPUA;99511;Indonesia;;;;-42.260.649;1.390.128.291;https://maps.google.com/?cid=0x0:0xd1cf26f411087902;
perumahan;Komplek perumahan;Kampung Huguma;"Q2C8+PPW, Lotia, Huglot, Kurima, Yahukimo regency, Papua 99511";"Lotia, Huglot, Kurima, Yahukimo regency";PAPUA;99511;Indonesia;;;;-42.281.489;1.390.168.337;https://maps.google.com/?cid=0x0:0x7bbc8e17e71e90d1;
perumahan;Pembangunan Perumahan;WANEM;"Q27M+VJJ, Wanem, Kec. Kurima, Kabupaten Yahukimo, Papua 99511";"Wanem, Kec. Kurima, Kabupaten Yahukimo";PAPUA;99511;Indonesia;;;;-42.352.942;139.034.009;https://maps.google.com/?cid=0x0:0x38862425406ccc28;
perumahan;Pembangunan Perumahan;Wusilimo;"Q29V+QVQ, Unnamed Road, Parela, Kec. Kurima, Kabupaten Yahukimo, Papua 99571";"Unnamed Road, Parela, Kec. Kurima, Kabupaten Yahukimo";PAPUA;99571;Indonesia;;;;-42.305.393;1.390.447.353;https://maps.google.com/?cid=0x0:0x310af1d3e19b0cf1;
perumahan;Pusat Kesehatan Masyarakat;PUSKESMAS MUGI KABUPATEN YAHUKIMO;"M2FP+7V6, Panyoke, Distrik Mugi, Kabupaten Yahukimo, Papua 99571";"Panyoke, Distrik Mugi, Kabupaten Yahukimo";PAPUA;99571;Indonesia;;;;-43.268.254;1.390.371.514;https://maps.google.com/?cid=0x0:0x20527a8ffa70d3ce;
perumahan;Komplek perumahan;IBILEMA LAYMAT;"Q2HW+6J, Hihundes, Kec. Kurima, Kabupaten Yahukimo, Papua";"Kabupaten Yahukimo, Papua";PAPUA;;Indonesia;;;;-42.219.685;1.390.466.439;https://maps.google.com/?cid=0x0:0x152a3e314fa3f67d;
perumahan;Pembangunan Perumahan;Werima yahukimo;"Q36Q+854, Werima, Distrik Werima, Kabupaten Yahukimo, Papua";"Kabupaten Yahukimo, Papua";PAPUA;;Indonesia;;;;-42.392.397;1.390.879.622;https://maps.google.com/?cid=0x0:0xc3446ed4f01e9750;
perumahan;Komplek perumahan;Kampung Pakalu;"Q2HH+JF, Kilise, Kec. Kurima, Kabupaten Yahukimo, Papua 99511";"Kilise, Kec. Kurima, Kabupaten Yahukimo";PAPUA;99511;Indonesia;;;;-4.220.942;1.390.286.377;https://maps.google.com/?cid=0x0:0x8697e1505b4399df;
perumahan;perumahan;Papua 99571;"Kabupaten Yahukimo, Papua";"Kabupaten Yahukimo, Papua";PAPUA;;Indonesia;;;;-46.597.588;1.391.221.414;https://maps.google.com/?cid=0x0:0x8dc722ebb3251072;
perumahan;perumahan;Papua;;Papua;PAPUA;;Indonesia;;;;-4.269.928;1.380.803.529;https://maps.google.com/?cid=0x0:0xeba94e9c5eefe673;
perumahan;Perhimpunan Pengembang Perumahan;UKHA;"G2GX+65Q, Unnamed Road, Manelek, Distrik Konda, Kabupaten Sorong Selatan, Papua Bar. 98454";"Unnamed Road, Manelek, Distrik Konda, Kabupaten Sorong Selatan";PAPUA;98454;Indonesia;;;;-1.474.407;132.047.973;https://maps.google.com/?cid=0x0:0xe93dd70536fb2471;
perumahan;Perhimpunan Pengembang Perumahan;Perumahan permata hijau komersil;"CFHR+6G2, Jalan niho, Dobonsolo, Kec. Sentani, Kabupaten Jayapura, Papua";"Kabupaten Jayapura, Papua";PAPUA;;Indonesia;;;;-25.719.958;1.404.912.641;https://maps.google.com/?cid=0x0:0xbc220dc83525e2b4;
perumahan;Otoritas Perumahan;Perumahan permata hijau;"Blk. G No.11, Dobonsolo, Kec. Sentani, Kabupaten Jayapura, Papua 99359";"Dobonsolo, Kec. Sentani, Kabupaten Jayapura";PAPUA;99359;Indonesia;08114868559;;;-25.711.183;1.404.987.618;https://maps.google.com/?cid=0x0:0x38660870cf1dfb17;
perumahan;Kantor Pemerintah;Balai Pelaksana Penyediaan Perumahan Wilayah Papua 1;"Jl. Abepantai Jl. Bosnik BTN Kamkey No.26, Awiyo, Kec. Abepura, Kota Jayapura, Papua 99351";"Awiyo, Kec. Abepura, Kota Jayapura";PAPUA;99351;Indonesia;081240348608;;;-26.170.323;1.406.754.493;https://maps.google.com/?cid=0x0:0x5e0e68981548077e;
perumahan;Komplek perumahan;Rumah ukasyah;"Jl. H. Nudin No.34 E, RT.5/RW.3, Lb. Bulus, Kec. Cilandak, Kota Jakarta Selatan, Daerah Khusus Ibukota Jakarta 12440";"RT.5/RW.3, Lb. Bulus, Kec. Cilandak, Kota Jakarta Selatan";PAPUA;12440;Indonesia;085219253076;;;-63.089.646;1.067.834.136;https://maps.google.com/?cid=0x0:0x95bf244bd62845bd;
perumahan;Komplek perumahan;Rumah Uka;"V7X3+4WQ, RT.01/RW.01, Pisangsambo, Kec. Tirtajaya, Karawang, Jawa Barat 41357";"RT.01/RW.01, Pisangsambo, Kec. Tirtajaya, Karawang";PAPUA;41357;Indonesia;;;;-61.018.385;1.072.551.475;https://maps.google.com/?cid=0x0:0x181289a1a96109e6;
perumahan;Pembangunan Perumahan;Kecamatan yahuliambut;"RCR7+92, Kolu, Distrik Panggema, Kabupaten Yahukimo, Papua 99582";"Kolu, Distrik Panggema, Kabupaten Yahukimo";PAPUA;99582;Indonesia;;;;-41.590.028;1.394.125.185;https://maps.google.com/?cid=0x0:0x6b53b33b0f750685;
perumahan;Taman;Kampung Lelambo Distrik Angguruk;"QCXJ+9WG, Lelambo, Distrik Anggruk, Kabupaten Yahukimo, Papua";"Kabupaten Yahukimo, Papua";PAPUA;;Indonesia;;;;-42.015.596;1.394.323.397;https://maps.google.com/?cid=0x0:0xe0022f72a1c45506;
perumahan;perumahan;Kec. Kosarek;"Kabupaten Yahukimo, Papua";"Kabupaten Yahukimo, Papua";PAPUA;;Indonesia;;;;-42.243.256;1.395.891.233;https://maps.google.com/?cid=0x0:0x242228e8fa8aeb61;
perumahan;Pembangunan Perumahan;Nisikni;"PFMP+HWF, Welile, Ubahak, Kabupaten Yahukimo, Papua";"Kabupaten Yahukimo, Papua";PAPUA;;Indonesia;;;;-426.605;1.394.872.858;https://maps.google.com/?cid=0x0:0xde4f54c1ec7b967d;
perumahan;Komplek perumahan;Dusun Walmak;"VJMW+845, Walmak, Distrik Nipsan, Kabupaten Yahukimo, Papua 99582";"Walmak, Distrik Nipsan, Kabupaten Yahukimo";PAPUA;99582;Indonesia;;;;-4.116.725;1.396.453.446;https://maps.google.com/?cid=0x0:0x9d646974af512393;
perumahan;Pembangunan Perumahan;Polmak;"PFMP+HWF, Welile, Ubahak, Kabupaten Yahukimo, Papua";"Kabupaten Yahukimo, Papua";PAPUA;;Indonesia;;;;-426.605;1.394.872.858;https://maps.google.com/?cid=0x0:0x225ada2e0634177d;
perumahan;Pembangunan Perumahan;Betel;"PFMP+HWF, Welile, Ubahak, Kabupaten Yahukimo, Papua";"Kabupaten Yahukimo, Papua";PAPUA;;Indonesia;;;;-426.605;1.394.872.858;https://maps.google.com/?cid=0x0:0x5b55debf16fc966b;
perumahan;Komplek perumahan;Gereja Sion nurap;"PF25+MP3, Nurap, Ubahak, Kabupaten Yahukimo, Papua";"Kabupaten Yahukimo, Papua";PAPUA;;Indonesia;;;;-42.983.673;1.394.593.116;https://maps.google.com/?cid=0x0:0xee5a4f03f41c6796;
perumahan;Perhimpunan Pengembang Perumahan;Bukit Sion;"QF8C+Q7, Suhuntek, Ubahak, Kabupaten Yahukimo, Papua";"Kabupaten Yahukimo, Papua";PAPUA;;Indonesia;;;;-4.233.049;1.394.706.845;https://maps.google.com/?cid=0x0:0x130dcfdfe4ad9774;
perumahan;perumahan;Distrik Nipsan;"Kabupaten Yahukimo, Papua";"Kabupaten Yahukimo, Papua";PAPUA;;Indonesia;;;;-41.331.326;1.396.707.205;https://maps.google.com/?cid=0x0:0x4c7430fda37ee1cf;
perumahan;Komplek perumahan;Dusun Walmak;"VJMW+845, Walmak, Distrik Nipsan, Kabupaten Yahukimo, Papua 99582";"Walmak, Distrik Nipsan, Kabupaten Yahukimo";PAPUA;99582;Indonesia;;;;-4.116.725;1.396.453.446;https://maps.google.com/?cid=0x0:0x9d646974af512393;
perumahan;Pembangunan Perumahan;Polmak;"PFMP+HWF, Welile, Ubahak, Kabupaten Yahukimo, Papua";"Kabupaten Yahukimo, Papua";PAPUA;;Indonesia;;;;-426.605;1.394.872.858;https://maps.google.com/?cid=0x0:0x225ada2e0634177d;
perumahan;perumahan;Ubahak;"Kabupaten Yahukimo, Papua";"Kabupaten Yahukimo, Papua";PAPUA;;Indonesia;;;;-426.605;1.394.872.858;https://maps.google.com/?cid=0x0:0x85ad4ffcf7ca6899;
perumahan;Pembangunan Perumahan;Nisikni;"PFMP+HWF, Welile, Ubahak, Kabupaten Yahukimo, Papua";"Kabupaten Yahukimo, Papua";PAPUA;;Indonesia;;;;-426.605;1.394.872.858;https://maps.google.com/?cid=0x0:0xde4f54c1ec7b967d;
perumahan;Komplek perumahan;Gereja Sion nurap;"PF25+MP3, Nurap, Ubahak, Kabupaten Yahukimo, Papua";"Kabupaten Yahukimo, Papua";PAPUA;;Indonesia;;;;-42.983.673;1.394.593.116;https://maps.google.com/?cid=0x0:0xee5a4f03f41c6796;
perumahan;Pembangunan Perumahan;Polmak;"PFMP+HWF, Welile, Ubahak, Kabupaten Yahukimo, Papua";"Kabupaten Yahukimo, Papua";PAPUA;;Indonesia;;;;-426.605;1.394.872.858;https://maps.google.com/?cid=0x0:0x225ada2e0634177d;
perumahan;Pembangunan Perumahan;Betel;"PFMP+HWF, Welile, Ubahak, Kabupaten Yahukimo, Papua";"Kabupaten Yahukimo, Papua";PAPUA;;Indonesia;;;;-426.605;1.394.872.858;https://maps.google.com/?cid=0x0:0x5b55debf16fc966b;
perumahan;Perhimpunan Pengembang Perumahan;Bukit Sion;"QF8C+Q7, Suhuntek, Ubahak, Kabupaten Yahukimo, Papua";"Kabupaten Yahukimo, Papua";PAPUA;;Indonesia;;;;-4.233.049;1.394.706.845;https://maps.google.com/?cid=0x0:0x130dcfdfe4ad9774;
perumahan;Pembangunan Perumahan;Lelambo;"QCPM+XH6, Lelambo, Distrik Anggruk, Kabupaten Yahukimo, Papua";"Kabupaten Yahukimo, Papua";PAPUA;;Indonesia;;;;-42.125.998;1.394.338.921;https://maps.google.com/?cid=0x0:0x1cdfebea160d0d72;
perumahan;Pembangunan Perumahan;Kecamatan yahuliambut;"RCR7+92, Kolu, Distrik Panggema, Kabupaten Yahukimo, Papua 99582";"Kolu, Distrik Panggema, Kabupaten Yahukimo";PAPUA;99582;Indonesia;;;;-41.590.028;1.394.125.185;https://maps.google.com/?cid=0x0:0x6b53b33b0f750685;
perumahan;perumahan;Distrik Pronggoli;"Kabupaten Yahukimo, Papua";"Kabupaten Yahukimo, Papua";PAPUA;;Indonesia;;;;-42.039.144;1.392.638.678;https://maps.google.com/?cid=0x0:0x9fce1b4b1a63188f;
perumahan;Perhimpunan Pengembang Perumahan;Kampung Pantele;"QCVJ+559, Tulpa, Distrik Anggruk, Kabupaten Yahukimo, Papua";"Kabupaten Yahukimo, Papua";PAPUA;;Indonesia;;;;-42.070.804;1.394.304.809;https://maps.google.com/?cid=0x0:0xf338736b091b6435;
perumahan;Komplek perumahan;Lapter Pasikni kilingnianggen;"QCMF+5Q, Tulpa, Distrik Anggruk, Kabupaten Yahukimo, Papua";"Kabupaten Yahukimo, Papua";PAPUA;;Indonesia;;;;-42.171.102;1.394.244.674;https://maps.google.com/?cid=0x0:0x647b06f713f0aa32;
perumahan;Komplek perumahan;Kampung Tohong;"QCWQ+8H4, Yaholikma, Distrik Anggruk, Kabupaten Yahukimo, Papua";"Kabupaten Yahukimo, Papua";PAPUA;;Indonesia;;;;-42.042.463;1.394.389.466;https://maps.google.com/?cid=0x0:0x3a11b03cf3288681;
perumahan;perumahan;LAPTER PALIPTEK;"QCW2+2X, Walma, Distrik Walma, Kabupaten Yahukimo, Papua";"Kabupaten Yahukimo, Papua";PAPUA;;Indonesia;;;;-42.048.802;1.394.023.921;https://maps.google.com/?cid=0x0:0x44d19570a4058a1b;
perumahan;Pembangunan Perumahan;Distrik wipon;"M7G3+PF9, Hubik, Distrik Sobaham, Kabupaten Yahukimo, Papua 99571";"Hubik, Distrik Sobaham, Kabupaten Yahukimo";PAPUA;99571;Indonesia;;;;-43.232.167;1.392.537.329;https://maps.google.com/?cid=0x0:0x26f29065aaab2e0a;
perumahan;Taman;Kampung Lelambo Distrik Angguruk;"QCXJ+9WG, Lelambo, Distrik Anggruk, Kabupaten Yahukimo, Papua";"Kabupaten Yahukimo, Papua";PAPUA;;Indonesia;;;;-42.015.596;1.394.323.397;https://maps.google.com/?cid=0x0:0xe0022f72a1c45506;
perumahan;perumahan;Distrik Walma;"Kabupaten Yahukimo, Papua";"Kabupaten Yahukimo, Papua";PAPUA;;Indonesia;;;;-42.522.348;1.393.957.836;https://maps.google.com/?cid=0x0:0x717c03f77f28154d;
perumahan;perumahan;LAPTER PALIPTEK;"QCW2+2X, Walma, Distrik Walma, Kabupaten Yahukimo, Papua";"Kabupaten Yahukimo, Papua";PAPUA;;Indonesia;;;;-42.048.802;1.394.023.921;https://maps.google.com/?cid=0x0:0x44d19570a4058a1b;
perumahan;Pembangunan Perumahan;RUMA PAK NAS TOGODLI;"P9XW+483, RT.04/RW.02, Werene, Distrik Walma, Kabupaten Yahukimo, Papua";"Kabupaten Yahukimo, Papua";PAPUA;;Indonesia;;;;-42.522.348;1.393.957.836;https://maps.google.com/?cid=0x0:0x56bc59ffaa4e0576;
perumahan;perumahan;Kampung Paliptek;"RC87+MC, Paliptek, Distrik Anggruk, Kabupaten Yahukimo, Papua";"Kabupaten Yahukimo, Papua";PAPUA;;Indonesia;;;;-41.833.238;1.394.135.645;https://maps.google.com/?cid=0x0:0xdc846844196b1762;
perumahan;Komplek perumahan;Lapter Pasikni kilingnianggen;"QCMF+5Q, Tulpa, Distrik Anggruk, Kabupaten Yahukimo, Papua";"Kabupaten Yahukimo, Papua";PAPUA;;Indonesia;;;;-42.171.102;1.394.244.674;https://maps.google.com/?cid=0x0:0x647b06f713f0aa32;
perumahan;Pembangunan Perumahan;Kecamatan yahuliambut;"RCR7+92, Kolu, Distrik Panggema, Kabupaten Yahukimo, Papua 99582";"Kolu, Distrik Panggema, Kabupaten Yahukimo";PAPUA;99582;Indonesia;;;;-41.590.028;1.394.125.185;https://maps.google.com/?cid=0x0:0x6b53b33b0f750685;
perumahan;Pembangunan Perumahan;Lelambo;"QCPM+XH6, Lelambo, Distrik Anggruk, Kabupaten Yahukimo, Papua";"Kabupaten Yahukimo, Papua";PAPUA;;Indonesia;;;;-42.125.998;1.394.338.921;https://maps.google.com/?cid=0x0:0x1cdfebea160d0d72;
perumahan;Pembangunan Perumahan;Polmak;"PFMP+HWF, Welile, Ubahak, Kabupaten Yahukimo, Papua";"Kabupaten Yahukimo, Papua";PAPUA;;Indonesia;;;;-426.605;1.394.872.858;https://maps.google.com/?cid=0x0:0x225ada2e0634177d;
perumahan;perumahan;Distrik Yahuliambut;"Kabupaten Yahukimo, Papua";"Kabupaten Yahukimo, Papua";PAPUA;;Indonesia;;;;-40.739.933;139.619.709;https://maps.google.com/?cid=0x0:0xc5681b238e537eb;
perumahan;Pembangunan Perumahan;Kecamatan yahuliambut;"RCR7+92, Kolu, Distrik Panggema, Kabupaten Yahukimo, Papua 99582";"Kolu, Distrik Panggema, Kabupaten Yahukimo";PAPUA;99582;Indonesia;;;;-41.590.028;1.394.125.185;https://maps.google.com/?cid=0x0:0x6b53b33b0f750685;
perumahan;Komplek perumahan;Dusun Walmak;"VJMW+845, Walmak, Distrik Nipsan, Kabupaten Yahukimo, Papua 99582";"Walmak, Distrik Nipsan, Kabupaten Yahukimo";PAPUA;99582;Indonesia;;;;-4.116.725;1.396.453.446;https://maps.google.com/?cid=0x0:0x9d646974af512393;
perumahan;Pembangunan Perumahan;Polmak;"PFMP+HWF, Welile, Ubahak, Kabupaten Yahukimo, Papua";"Kabupaten Yahukimo, Papua";PAPUA;;Indonesia;;;;-426.605;1.394.872.858;https://maps.google.com/?cid=0x0:0x225ada2e0634177d;
perumahan;perumahan;Distrik Hereapini;"Kabupaten Yahukimo, Papua";"Kabupaten Yahukimo, Papua";PAPUA;;Indonesia;;;;-39.459.772;1.397.524.306;https://maps.google.com/?cid=0x0:0x863fbf92ba8ca163;
perumahan;perumahan;Sentani kabupaten Jayapura;"VQ87+WM, Silion, Distrik Dirwemna, Kabupaten Yahukimo, Papua";"Kabupaten Yahukimo, Papua";PAPUA;;Indonesia;;;;-41.326.652;1.397.641.936;https://maps.google.com/?cid=0x0:0x459864c87a4afc21;
perumahan;perumahan;Papua 99582;"Kabupaten Yahukimo, Papua";"Kabupaten Yahukimo, Papua";PAPUA;;Indonesia;;;;-4.059.169;1.397.728.757;https://maps.google.com/?cid=0x0:0x86511d2b7e14d4b8;
perumahan;perumahan;Kampung Malili;"8233+M8, Lulum, Talambo, Kabupaten Yahukimo, Papua";"Kabupaten Yahukimo, Papua";PAPUA;;Indonesia;082196487412;;;-3.695.843;140.003.255;https://maps.google.com/?cid=0x0:0x9f74ac7a96058ec5;
perumahan;Pembangunan Perumahan;Kecamatan yahuliambut;"RCR7+92, Kolu, Distrik Panggema, Kabupaten Yahukimo, Papua 99582";"Kolu, Distrik Panggema, Kabupaten Yahukimo";PAPUA;99582;Indonesia;;;;-41.590.028;1.394.125.185;https://maps.google.com/?cid=0x0:0x6b53b33b0f750685;
perumahan;Taman;Kampung Lelambo Distrik Angguruk;"QCXJ+9WG, Lelambo, Distrik Anggruk, Kabupaten Yahukimo, Papua";"Kabupaten Yahukimo, Papua";PAPUA;;Indonesia;;;;-42.015.596;1.394.323.397;https://maps.google.com/?cid=0x0:0xe0022f72a1c45506;
perumahan;Pembangunan Perumahan;Lelambo;"QCPM+XH6, Lelambo, Distrik Anggruk, Kabupaten Yahukimo, Papua";"Kabupaten Yahukimo, Papua";PAPUA;;Indonesia;;;;-42.125.998;1.394.338.921;https://maps.google.com/?cid=0x0:0x1cdfebea160d0d72;
perumahan;Pembangunan Perumahan;Seklak;"3WMG+HHG, Seklak, Distrik Kona, Kabupaten Yahukimo, Papua 99582";"Seklak, Distrik Kona, Kabupaten Yahukimo";PAPUA;99582;Indonesia;;;;-39.160.552;1.399.264.384;https://maps.google.com/?cid=0x0:0x1f0655ffbd1249b8;
perumahan;perumahan;Kampung Paliptek;"RC87+MC, Paliptek, Distrik Anggruk, Kabupaten Yahukimo, Papua";"Kabupaten Yahukimo, Papua";PAPUA;;Indonesia;;;;-41.833.238;1.394.135.645;https://maps.google.com/?cid=0x0:0xdc846844196b1762;
perumahan;Komplek perumahan;Kampung Tohong;"QCWQ+8H4, Yaholikma, Distrik Anggruk, Kabupaten Yahukimo, Papua";"Kabupaten Yahukimo, Papua";PAPUA;;Indonesia;;;;-42.042.463;1.394.389.466;https://maps.google.com/?cid=0x0:0x3a11b03cf3288681;
perumahan;Komplek perumahan;Dusun Walmak;"VJMW+845, Walmak, Distrik Nipsan, Kabupaten Yahukimo, Papua 99582";"Walmak, Distrik Nipsan, Kabupaten Yahukimo";PAPUA;99582;Indonesia;;;;-4.116.725;1.396.453.446;https://maps.google.com/?cid=0x0:0x9d646974af512393;
perumahan;Kompleks Kondominium;K. SOHILAIT;"PV2P+75W, Baru, Distrik Puldama, kabupaten bias, Papua";"kabupaten bias, Papua";PAPUA;;Indonesia;;;;-42.992.533;1.398.854.497;https://maps.google.com/?cid=0x0:0xb3c51869caecd779;
perumahan;Pembangunan Perumahan;Distrik dirwemna;"QPMJ+4QQ, Salengkomo, Distrik Dirwemna, Kabupaten Yahukimo, Papua";"Kabupaten Yahukimo, Papua";PAPUA;;Indonesia;;;;-42.171.694;1.397.319.925;https://maps.google.com/?cid=0x0:0xcc489d037efd3baa;
perumahan;Perhimpunan Pengembang Perumahan;Delon;"QW24+V2 Delon, Sentul, Endomen, Kabupaten Yahukimo, Papua";"Kabupaten Yahukimo, Papua";PAPUA;;Indonesia;;;;-42.485.995;1.399.051.376;https://maps.google.com/?cid=0x0:0xafbb68f7c3094ce7;
perumahan;Pembangunan Perumahan;Polmak;"PFMP+HWF, Welile, Ubahak, Kabupaten Yahukimo, Papua";"Kabupaten Yahukimo, Papua";PAPUA;;Indonesia;;;;-426.605;1.394.872.858;https://maps.google.com/?cid=0x0:0x225ada2e0634177d;
perumahan;perumahan;LAPTER PALIPTEK;"QCW2+2X, Walma, Distrik Walma, Kabupaten Yahukimo, Papua";"Kabupaten Yahukimo, Papua";PAPUA;;Indonesia;;;;-42.048.802;1.394.023.921;https://maps.google.com/?cid=0x0:0x44d19570a4058a1b;
perumahan;Pembangunan Perumahan;Nisikni;"PFMP+HWF, Welile, Ubahak, Kabupaten Yahukimo, Papua";"Kabupaten Yahukimo, Papua";PAPUA;;Indonesia;;;;-426.605;1.394.872.858;https://maps.google.com/?cid=0x0:0xde4f54c1ec7b967d;
perumahan;Pembangunan Perumahan;Inttri;"PFMP+HWF, Welile, Ubahak, Kabupaten Yahukimo, Papua";"Kabupaten Yahukimo, Papua";PAPUA;;Indonesia;;;;-426.605;1.394.872.858;https://maps.google.com/?cid=0x0:0x9da1a738c9985b67;
perumahan;Komplek perumahan;Gereja Sion nurap;"PF25+MP3, Nurap, Ubahak, Kabupaten Yahukimo, Papua";"Kabupaten Yahukimo, Papua";PAPUA;;Indonesia;;;;-42.983.673;1.394.593.116;https://maps.google.com/?cid=0x0:0xee5a4f03f41c6796;
perumahan;Pembangunan Perumahan;Betel;"PFMP+HWF, Welile, Ubahak, Kabupaten Yahukimo, Papua";"Kabupaten Yahukimo, Papua";PAPUA;;Indonesia;;;;-426.605;1.394.872.858;https://maps.google.com/?cid=0x0:0x5b55debf16fc966b;
perumahan;perumahan;Sentani kabupaten Jayapura;"VQ87+WM, Silion, Distrik Dirwemna, Kabupaten Yahukimo, Papua";"Kabupaten Yahukimo, Papua";PAPUA;;Indonesia;;;;-41.326.652;1.397.641.936;https://maps.google.com/?cid=0x0:0x459864c87a4afc21;
perumahan;Komplek perumahan;Lapter Pasikni kilingnianggen;"QCMF+5Q, Tulpa, Distrik Anggruk, Kabupaten Yahukimo, Papua";"Kabupaten Yahukimo, Papua";PAPUA;;Indonesia;;;;-42.171.102;1.394.244.674;https://maps.google.com/?cid=0x0:0x647b06f713f0aa32;
perumahan;Perhimpunan Pengembang Perumahan;Bukit Sion;"QF8C+Q7, Suhuntek, Ubahak, Kabupaten Yahukimo, Papua";"Kabupaten Yahukimo, Papua";PAPUA;;Indonesia;;;;-4.233.049;1.394.706.845;https://maps.google.com/?cid=0x0:0x130dcfdfe4ad9774;
perumahan;perumahan;Distrik Puldama;"Kabupaten Yahukimo, Papua";"Kabupaten Yahukimo, Papua";PAPUA;;Indonesia;;;;-43.415.756;1.399.161.886;https://maps.google.com/?cid=0x0:0xd23082b53c254e8;
perumahan;Kompleks Kondominium;K. SOHILAIT;"PV2P+75W, Baru, Distrik Puldama, kabupaten bias, Papua";"kabupaten bias, Papua";PAPUA;;Indonesia;;;;-42.992.533;1.398.854.497;https://maps.google.com/?cid=0x0:0xb3c51869caecd779;
perumahan;Komplek perumahan;Kampung Imde;"JXCX+87Q, Imde, Distrik Pamek, Kabupaten Pegunungan Bintang, Papua";"Kabupaten Pegunungan Bintang, Papua";PAPUA;;Indonesia;;;;-43.791.595;139.998.236;https://maps.google.com/?cid=0x0:0x8c1c589db27098a1;
perumahan;Perhimpunan Pengembang Perumahan;Delon;"QW24+V2 Delon, Sentul, Endomen, Kabupaten Yahukimo, Papua";"Kabupaten Yahukimo, Papua";PAPUA;;Indonesia;;;;-42.485.995;1.399.051.376;https://maps.google.com/?cid=0x0:0xafbb68f7c3094ce7;
perumahan;perumahan;Endomen;"Kabupaten Yahukimo, Papua";"Kabupaten Yahukimo, Papua";PAPUA;;Indonesia;;;;-42.124.749;1.399.161.886;https://maps.google.com/?cid=0x0:0xf45ec18e2a972587;
perumahan;perumahan;Endomen;"Endomen, Kabupaten Yahukimo, Papua";"Kabupaten Yahukimo, Papua";PAPUA;;Indonesia;;;;-4.245.876;1.398.700.862;https://maps.google.com/?cid=0x0:0x72df21619ddeec92;
perumahan;Perhimpunan Pengembang Perumahan;Delon;"QW24+V2 Delon, Sentul, Endomen, Kabupaten Yahukimo, Papua";"Kabupaten Yahukimo, Papua";PAPUA;;Indonesia;;;;-42.485.995;1.399.051.376;https://maps.google.com/?cid=0x0:0xafbb68f7c3094ce7;
perumahan;Komplek perumahan;Kampung Imde;"JXCX+87Q, Imde, Distrik Pamek, Kabupaten Pegunungan Bintang, Papua";"Kabupaten Pegunungan Bintang, Papua";PAPUA;;Indonesia;;;;-43.791.595;139.998.236;https://maps.google.com/?cid=0x0:0x8c1c589db27098a1;
perumahan;Perhimpunan Pengembang Perumahan;Domidena;"JXCX+87Q, Imde, Distrik Pamek, Kabupaten Pegunungan Bintang, Papua";"Kabupaten Pegunungan Bintang, Papua";PAPUA;;Indonesia;;;;-43.791.595;139.998.236;https://maps.google.com/?cid=0x0:0x240533b90d8bc588;
perumahan;perumahan;Papua 99571;"Kabupaten Yahukimo, Papua";"Kabupaten Yahukimo, Papua";PAPUA;;Indonesia;;;;-46.597.588;1.391.221.414;https://maps.google.com/?cid=0x0:0x8dc722ebb3251072;
perumahan;perumahan;Papua;;Papua;PAPUA;;Indonesia;;;;-4.269.928;1.380.803.529;https://maps.google.com/?cid=0x0:0xeba94e9c5eefe673;
perumahan;Komplek perumahan;Jl kona;"JQM4+RHC, Jl. Kona, Cinangka, Kec. Sawangan, Kota Depok, Jawa Barat 16516";"Jl. Kona, Cinangka, Kec. Sawangan, Kota Depok";PAPUA;16516;Indonesia;;;;-6.365.426;1.067.564.048;https://maps.google.com/?cid=0x0:0x3870c16fa949a47a;
perumahan;perumahan;Papua 99582;"Kabupaten Yahukimo, Papua";"Kabupaten Yahukimo, Papua";PAPUA;;Indonesia;;;;-4.059.169;1.397.728.757;https://maps.google.com/?cid=0x0:0x86511d2b7e14d4b8;
perumahan;Pembangunan Perumahan;Seklak;"3WMG+HHG, Seklak, Distrik Kona, Kabupaten Yahukimo, Papua 99582";"Seklak, Distrik Kona, Kabupaten Yahukimo";PAPUA;99582;Indonesia;;;;-39.160.552;1.399.264.384;https://maps.google.com/?cid=0x0:0x1f0655ffbd1249b8;
perumahan;Komplek perumahan;Dusun Walmak;"VJMW+845, Walmak, Distrik Nipsan, Kabupaten Yahukimo, Papua 99582";"Walmak, Distrik Nipsan, Kabupaten Yahukimo";PAPUA;99582;Indonesia;;;;-4.116.725;1.396.453.446;https://maps.google.com/?cid=0x0:0x9d646974af512393;
perumahan;Komplek perumahan;Kona House;"Jl. Pakis II Blok I No.26, RT.5/RW.2, Lengkong Gudang Tim., Kec. Serpong, Kota Tangerang Selatan, Banten 15310";"RT.5/RW.2, Lengkong Gudang Tim., Kec. Serpong, Kota Tangerang Selatan";PAPUA;15310;Indonesia;;;;-6.296.864;1.066.784.293;https://maps.google.com/?cid=0x0:0x7352f666eb129f5c;
perumahan;Pembangunan Perumahan;Distrik dirwemna;"QPMJ+4QQ, Salengkomo, Distrik Dirwemna, Kabupaten Yahukimo, Papua";"Kabupaten Yahukimo, Papua";PAPUA;;Indonesia;;;;-42.171.694;1.397.319.925;https://maps.google.com/?cid=0x0:0xcc489d037efd3baa;
perumahan;Komplek perumahan;Distrik kwelamdua;"7MPC+385, Kubuk Dua, Kwelamdua, Kabupaten Yahukimo, Papua 99578";"Kubuk Dua, Kwelamdua, Kabupaten Yahukimo";PAPUA;99578;Indonesia;;;;-47.148.698;1.396.708.628;https://maps.google.com/?cid=0x0:0x134eb7877acce790;
perumahan;perumahan;Holuwon;"Kabupaten Yahukimo, Papua";"Kabupaten Yahukimo, Papua";PAPUA;;Indonesia;;;;-44.281.185;1.392.638.678;https://maps.google.com/?cid=0x0:0x9a16551255ae68d7;
perumahan;perumahan;???? ???;"G6H6+P73, Molama, Distrik Kayo, Kabupaten Yahukimo, Papua 99571";"Molama, Distrik Kayo, Kabupaten Yahukimo";PAPUA;99571;Indonesia;;;;-44.707.456;1.392.106.794;https://maps.google.com/?cid=0x0:0xccd97d910528d89a;
perumahan;Perhimpunan Pengembang Perumahan;Perumahan Polomo Graha;"Jl. Stakin Depan Batalyon No.751, Hinekombe, Kec. Sentani, Kabupaten Jayapura, Papua 99359";"Hinekombe, Kec. Sentani, Kabupaten Jayapura";PAPUA;99359;Indonesia;;;;-25.638.263;1.404.982.086;https://maps.google.com/?cid=0x0:0x78282975f637bb0e;
perumahan;Kantor pendaftaran kekayaan intelektual;Jual beli rumah cirebon;"Jl. Bukur II No.14, Larangan, Kec. Harjamukti, Kota Cirebon, Jawa Barat 45141";"Larangan, Kec. Harjamukti, Kota Cirebon";PAPUA;45141;Indonesia;082218774000;;;-6.748.864;1.085.658.587;https://maps.google.com/?cid=0x0:0x6dd5393a9f67baae;
perumahan;Agen real estat;Rumah dijual Cirebon kota;"Jl. Wiratama No.38, Kedungjaya, Kec. Kedawung, Kota Cirebon, Jawa Barat 45153";"Kedungjaya, Kec. Kedawung, Kota Cirebon";PAPUA;45153;Indonesia;089644758581;;;-67.063.385;1.085.411.916;https://maps.google.com/?cid=0x0:0xd2fdf2727284232c;
perumahan;perumahan;Lolat;"Kabupaten Yahukimo, Papua";"Kabupaten Yahukimo, Papua";PAPUA;;Indonesia;;;;-4.473.778;1.394.669.396;https://maps.google.com/?cid=0x0:0x4999a2009f489076;
perumahan;Komplek perumahan;Tolomping;"GG4H+C59, Niniwi, Duram, Kabupaten Yahukimo, Papua";"Kabupaten Yahukimo, Papua";PAPUA;;Indonesia;;;;-44.939.717;1.395.279.996;https://maps.google.com/?cid=0x0:0x3f5058c004d9aef6;
perumahan;Komplek perumahan;Sumohai;"GG4H+C59, Niniwi, Duram, Kabupaten Yahukimo, Papua";"Kabupaten Yahukimo, Papua";PAPUA;;Indonesia;;;;-44.939.717;1.395.279.996;https://maps.google.com/?cid=0x0:0x5899d16b189445c8;
perumahan;Perhimpunan Pengembang Perumahan;Ahkam muhammad;"GFG8+FQP, Lolat Batujai, Serahak";"Kabupaten Yahukimo, Papua";PAPUA;;Indonesia;;;;-4.473.778;1.394.669.396;https://maps.google.com/?cid=0x0:0xebdf25d2a30cc6be;
perumahan;Komplek perumahan;IBILEMA LAYMAT;"Q2HW+6J, Hihundes, Kec. Kurima, Kabupaten Yahukimo, Papua";"Kabupaten Yahukimo, Papua";PAPUA;;Indonesia;;;;-42.219.685;1.390.466.439;https://maps.google.com/?cid=0x0:0x152a3e314fa3f67d;
perumahan;perumahan;Papua 99578;"Kabupaten Yahukimo, Papua";"Kabupaten Yahukimo, Papua";PAPUA;;Indonesia;;;;-45.640.833;139.609.512;https://maps.google.com/?cid=0x0:0xf0d063f5d5617851;
perumahan;perumahan;Papua;;Papua;PAPUA;;Indonesia;;;;-4.269.928;1.380.803.529;https://maps.google.com/?cid=0x0:0xeba94e9c5eefe673;
perumahan;Gedung Apartemen;HIDDEN VALLEY COMPLEX;"R3WX+8Q7, Tembagapura, Kec. Tembagapura, Kabupaten Mimika, Papua 99967";"Tembagapura, Kec. Tembagapura, Kabupaten Mimika";PAPUA;99967;Indonesia;;;;-41.542.159;1.370.994.215;https://maps.google.com/?cid=0x0:0x8f548cbaf64490ca;
perumahan;Layanan Distribusi;PT. CAKRAWALA PROPERTINDO JAYA;"Maro, Kec. Merauke, Kabupaten Merauke, Papua 99613";"Kec. Merauke, Kabupaten Merauke";PAPUA;99613;Indonesia;082399214524;;;-85.063.226;1.404.005.475;https://maps.google.com/?cid=0x0:0xa52c26ee531e0b98;
perumahan;Perusahaan Konstruksi;Perumahan Bumi Animha;"Jl. Trans Cigombong, Rimba Jaya, Kec. Merauke, Kabupaten Merauke, Papua 99610";"Rimba Jaya, Kec. Merauke, Kabupaten Merauke";PAPUA;99610;Indonesia;082399214524;;;-85.295.339;1.404.397.427;https://maps.google.com/?cid=0x0:0xdf52eb172aca2ed8;
perumahan;Komplek perumahan;Perumahan Bumi Permata Timur;"FCXM+XRM, Kamundu, Kec. Merauke, Kabupaten Merauke, Papua 99615";"Kamundu, Kec. Merauke, Kabupaten Merauke";PAPUA;99615;Indonesia;;;;-85.000.412;1.404.345.474;https://maps.google.com/?cid=0x0:0xb6a89353f52fcf15;
perumahan;Otoritas Perumahan;Perumahan permata hijau;"Blk. G No.11, Dobonsolo, Kec. Sentani, Kabupaten Jayapura, Papua 99359";"Dobonsolo, Kec. Sentani, Kabupaten Jayapura";PAPUA;99359;Indonesia;08114868559;;;-25.711.183;1.404.987.618;https://maps.google.com/?cid=0x0:0x38660870cf1dfb17;
perumahan;perumahan;Distrik Sela;"Kabupaten Yahukimo, Papua";"Kabupaten Yahukimo, Papua";PAPUA;;Indonesia;;;;-45.453.889;1.398.137.871;https://maps.google.com/?cid=0x0:0xcc7e122baea8c2fe;
perumahan;Komplek perumahan;Grand vill's;"FF26+RWX, Doyo Baru, Distrik Waibu, Kabupaten Jayapura, Papua 99352";"Doyo Baru, Distrik Waibu, Kabupaten Jayapura";PAPUA;99352;Indonesia;;;;-25.476.539;1.404.623.034;https://maps.google.com/?cid=0x0:0xe4ea21812579e6cb;
perumahan;Komplek perumahan;Rumah murah 2 lantai;"Jl. Villa Pamulang, Kel. pondok Benda, Kec. Pamulang, Kota. Tanggerang Selatan, Pd. Benda, Kec. Pamulang, Kota Tangerang Selatan, Banten 13513";"Kel. pondok Benda, Kec. Pamulang, Kota. Tanggerang Selatan, Pd. Benda, Kec. Pamulang, Kota Tangerang Selatan";PAPUA;13513;Indonesia;082122062880;;;-63.470.354;1.067.115.918;https://maps.google.com/?cid=0x0:0xea8b4217f0e65f9b;
perumahan;Komplek perumahan;AHMAD YANI RESIDENCE;"FCQ4+RM7, Jl. Ahmad Yani, Mandala, Kec. Merauke, Kabupaten Merauke, Papua 99615";"Jl. Ahmad Yani, Mandala, Kec. Merauke, Kabupaten Merauke";PAPUA;99615;Indonesia;;;;-85.104.184;1.404.065.702;https://maps.google.com/?cid=0x0:0x7374cf63a33c82;
perumahan;Komplek perumahan;Sela;"VR39+W9P, Mangga Besar, Kec. Taman Sari, Kota Jakarta Barat, Daerah Khusus Ibukota Jakarta";"Kota Jakarta Barat, Daerah Khusus Ibukota Jakarta";PAPUA;;Indonesia;;;;-61.451.704;106.818.447;https://maps.google.com/?cid=0x0:0xfb6ad71935e6cb36;
perumahan;Komplek perumahan;Rumah sela;"GV59+FHH, Karang Asem Bar., Kec. Citeureup, Kabupaten Bogor, Jawa Barat 16810";"Karang Asem Bar., Kec. Citeureup, Kabupaten Bogor";PAPUA;16810;Indonesia;;;;-64.913.215;1.068.689.922;https://maps.google.com/?cid=0x0:0x3c29f90c3977eced;
perumahan;Komplek perumahan;Perumahan Selakopi Hijau;"CQ2C+PX4, Unnamed Road, RT.05/RW.06, Pasirmulya, Kec. Bogor Bar., Kota Bogor, Jawa Barat 16118";"Unnamed Road, RT.05/RW.06, Pasirmulya, Kec. Bogor Bar., Kota Bogor";PAPUA;16118;Indonesia;;;;-65.982.421;1.067.724.441;https://maps.google.com/?cid=0x0:0x9e6293e96b9b6d0c;
perumahan;Perhimpunan Pengembang Perumahan;rumah sela;"Jl. Kw. Industri No.29RT 6, RW.2, Gandamekar, Kec. Cikarang Bar., Kabupaten Bekasi, Jawa Barat 17530";"RW.2, Gandamekar, Kec. Cikarang Bar., Kabupaten Bekasi";PAPUA;17530;Indonesia;;;;-62.852.732;1.070.930.413;https://maps.google.com/?cid=0x0:0xe72381e5b7f8a8c1;
perumahan;Pembangunan Perumahan;Desa senayom;"8PQF+44M, Senayom, Kwelamdua, Kabupaten Yahukimo, Papua 99578";"Senayom, Kwelamdua, Kabupaten Yahukimo";PAPUA;99578;Indonesia;;;;-46.621.703;1.397.228.102;https://maps.google.com/?cid=0x0:0x3b8d122d9b44774e;
perumahan;Pembangunan Perumahan;sotna'ag manengmok;"GM92+W7V, Korupun, Distrik Korupun, Kabupaten Yahukimo, Papua";"Kabupaten Yahukimo, Papua";PAPUA;;Indonesia;;;;-44.801.424;1.396.506.601;https://maps.google.com/?cid=0x0:0x9199ef7bc81f9589;
perumahan;perumahan;Distrik Korupun;"Kabupaten Yahukimo, Papua";"Kabupaten Yahukimo, Papua";PAPUA;;Indonesia;;;;-4.477.961;1.396.502.748;https://maps.google.com/?cid=0x0:0x2edcc1c48be65f16;
perumahan;perumahan;Distrik kabianggama;"HCG8+H2, Yalar, Distrik Langda, Kabupaten Yahukimo, Papua";"Kabupaten Yahukimo, Papua";PAPUA;;Indonesia;;;;-4.423.619;1.394.150.535;https://maps.google.com/?cid=0x0:0x55ac2f150af29523;
perumahan;perumahan;Distrik Langda;"Kabupaten Yahukimo, Papua";"Kabupaten Yahukimo, Papua";PAPUA;;Indonesia;;;;-44.536.835;1.394.159.571;https://maps.google.com/?cid=0x0:0xa522fd4ca56b0b0d;
perumahan;Kompleks Townhouse;Perumahan Metland Menteng - Cakung;"13, Jl. Satria VII No.41, RT.1/RW.2, Ujung Menteng, Kec. Cakung, Daerah Khusus Ibukota Jakarta 13960";"Jl. Satria VII No.41, RT.1/RW.2, Ujung Menteng, Kec. Cakung";PAPUA;13960;Indonesia;;;;-61.811.672;1.069.672.491;https://maps.google.com/?cid=0x0:0xb796a14b47cdd341;
perumahan;Kantor Pemerintah;"Belalang, Desa Langda";"HW35+523, Langda, Kec. Buntu Batu, Kabupaten Enrekang, Sulawesi Selatan";"Kabupaten Enrekang, Sulawesi Selatan";PAPUA;;Indonesia;;;;-3.447.104;1.199.075.516;https://maps.google.com/?cid=0x0:0x28efaaeb2a0ba730;
perumahan;Komplek perumahan;ClusterJura;"1, Jl. Menteng Niaga No.17, RT.1/RW.8, Ujung Menteng, Kec. Cakung, Kota Jakarta Timur, Daerah Khusus Ibukota Jakarta 13960";"Jl. Menteng Niaga No.17, RT.1/RW.8, Ujung Menteng, Kec. Cakung, Kota Jakarta Timur";PAPUA;13960;Indonesia;;;;-61.800.019;1.069.667.403;https://maps.google.com/?cid=0x0:0x6fd2dd422caa969b;
perumahan;Komplek perumahan;"Metland Menteng, Cluster Jura Blok E No. 22";"Metland Menteng, Cluster Jura Blok E No 19, RT.1/RW.8, Ujung Menteng, Cakung, East Jakarta City, Jakarta 13960";"Cluster Jura Blok E No 19, RT.1/RW.8, Ujung Menteng, Cakung, East Jakarta City";PAPUA;13960;Indonesia;;;;-61.788.023;1.069.667.805;https://maps.google.com/?cid=0x0:0x14accc3d74cfd49f;
perumahan;Perumahan;Rumah Langit Dan Aso;"HW63+Q25, Langda, Kec. Buntu Batu, Kabupaten Enrekang, Sulawesi Selatan 91753";"Langda, Kec. Buntu Batu, Kabupaten Enrekang";PAPUA;91753;Indonesia;;;;-34.381.198;1.199.026.111;https://maps.google.com/?cid=0x0:0xc821c0dc97c1cd24;
perumahan;Komplek perumahan;Cluster wisteria anthia 1-21;"RXH8+FWF, Cakung Tim., Kec. Cakung, Kota Jakarta Timur, Daerah Khusus Ibukota Jakarta";"Kota Jakarta Timur, Daerah Khusus Ibukota Jakarta";PAPUA;;Indonesia;;;;-61.713.247;1.069.673.045;https://maps.google.com/?cid=0x0:0xae02d11d954420ba;
perumahan;Komplek perumahan;Dusun Pewa;"HW63+9FW, Langda, Kec. Buntu Batu, Kabupaten Enrekang, Sulawesi Selatan 91753";"Langda, Kec. Buntu Batu, Kabupaten Enrekang";PAPUA;91753;Indonesia;;;;-343.902;1.199.036.916;https://maps.google.com/?cid=0x0:0xe0ce51467db26162;
perumahan;Komplek perumahan;RUMAH PAK BASIR DAN DIANA (Papa Uccang dan Mama Uccang);"HW63+CH8, Desa Langda, Dusun Pewa, Kec. Buntu Batu, Kabupaten Enrekang, Sulawesi Selatan 91753";"Desa Langda, Dusun Pewa, Kec. Buntu Batu, Kabupaten Enrekang";PAPUA;91753;Indonesia;;;;-34.389.237;1.199.041.341;https://maps.google.com/?cid=0x0:0xc8dc5d29a851a54c;
perumahan;Gedung Apartemen;Rumah aisyah;"HWF5+48, Buntu Mondong, Kec. Buntu Batu, Kabupaten Enrekang, Sulawesi Selatan";"Kabupaten Enrekang, Sulawesi Selatan";PAPUA;;Indonesia;;;;-3.427.219;1.199.082.556;https://maps.google.com/?cid=0x0:0x87b8f4b576680c38;
perumahan;Komplek perumahan;Qira Family;"HW63+Q25, Langda, Kec. Buntu Batu, Kabupaten Enrekang, Sulawesi Selatan 91753";"Langda, Kec. Buntu Batu, Kabupaten Enrekang";PAPUA;91753;Indonesia;;;;-3.438.029;1.199.023.232;https://maps.google.com/?cid=0x0:0xfdb325f09308b9bb;
perumahan;Komplek perumahan;Maraintang;"HW56+MV3, Langda, Kec. Buntu Batu, Kabupaten Enrekang, Sulawesi Selatan 91753";"Langda, Kec. Buntu Batu, Kabupaten Enrekang";PAPUA;91753;Indonesia;;;;-34.409.236;1.199.120.744;https://maps.google.com/?cid=0x0:0xf0298e276e9cf92;
perumahan;perumahan;Papua 99578;"Kabupaten Yahukimo, Papua";"Kabupaten Yahukimo, Papua";PAPUA;;Indonesia;;;;-45.640.833;139.609.512;https://maps.google.com/?cid=0x0:0xf0d063f5d5617851;
perumahan;Perhimpunan Pengembang Perumahan;Yalmabi;"5V4P+C2, Palamdua, Bomela, Kabupaten Yahukimo, Papua 99578";"Palamdua, Bomela, Kabupaten Yahukimo";PAPUA;99578;Indonesia;;;;-48.438.908;1.398.850.795;https://maps.google.com/?cid=0x0:0xfca0580e80536a94;
perumahan;perumahan;Presiden 89;"FP2J+H5, Megom, Distrik Sela, Kabupaten Yahukimo, Papua";"Kabupaten Yahukimo, Papua";PAPUA;;Indonesia;;;;-45.485.625;1.397.304.375;https://maps.google.com/?cid=0x0:0xc906f6a4bcb561ff;
perumahan;Perhimpunan Pengembang Perumahan;ULDAM;"7RWF+87M, Kitikni, Bomela, Kabupaten Yahukimo, Papua";"Kabupaten Yahukimo, Papua";PAPUA;;Indonesia;;;;-47.041.711;1.398.231.576;https://maps.google.com/?cid=0x0:0x7e03c6dae1c61297;
perumahan;Komplek perumahan;Sumohai;"GG4H+C59, Niniwi, Duram, Kabupaten Yahukimo, Papua";"Kabupaten Yahukimo, Papua";PAPUA;;Indonesia;;;;-44.939.717;1.395.279.996;https://maps.google.com/?cid=0x0:0x5899d16b189445c8;
perumahan;Komplek perumahan;Kampung Imde;"JXCX+87Q, Imde, Distrik Pamek, Kabupaten Pegunungan Bintang, Papua";"Kabupaten Pegunungan Bintang, Papua";PAPUA;;Indonesia;;;;-43.791.595;139.998.236;https://maps.google.com/?cid=0x0:0x8c1c589db27098a1;
perumahan;Pembangunan Perumahan;Betel;"PFMP+HWF, Welile, Ubahak, Kabupaten Yahukimo, Papua";"Kabupaten Yahukimo, Papua";PAPUA;;Indonesia;;;;-426.605;1.394.872.858;https://maps.google.com/?cid=0x0:0x5b55debf16fc966b;
perumahan;Pembangunan Perumahan;Nisikni;"PFMP+HWF, Welile, Ubahak, Kabupaten Yahukimo, Papua";"Kabupaten Yahukimo, Papua";PAPUA;;Indonesia;;;;-426.605;1.394.872.858;https://maps.google.com/?cid=0x0:0xde4f54c1ec7b967d;
perumahan;Komplek perumahan;Distrik kwelamdua;"7MPC+385, Kubuk Dua, Kwelamdua, Kabupaten Yahukimo, Papua 99578";"Kubuk Dua, Kwelamdua, Kabupaten Yahukimo";PAPUA;99578;Indonesia;;;;-47.148.698;1.396.708.628;https://maps.google.com/?cid=0x0:0x134eb7877acce790;
perumahan;Pembangunan Perumahan;Desa senayom;"8PQF+44M, Senayom, Kwelamdua, Kabupaten Yahukimo, Papua 99578";"Senayom, Kwelamdua, Kabupaten Yahukimo";PAPUA;99578;Indonesia;;;;-46.621.703;1.397.228.102;https://maps.google.com/?cid=0x0:0x3b8d122d9b44774e;
perumahan;Pembangunan Perumahan;Polmak;"PFMP+HWF, Welile, Ubahak, Kabupaten Yahukimo, Papua";"Kabupaten Yahukimo, Papua";PAPUA;;Indonesia;;;;-426.605;1.394.872.858;https://maps.google.com/?cid=0x0:0x225ada2e0634177d;
perumahan;Perhimpunan Pengembang Perumahan;Kampung Pantele;"QCVJ+559, Tulpa, Distrik Anggruk, Kabupaten Yahukimo, Papua";"Kabupaten Yahukimo, Papua";PAPUA;;Indonesia;;;;-42.070.804;1.394.304.809;https://maps.google.com/?cid=0x0:0xf338736b091b6435;
perumahan;Komplek perumahan;Gereja Sion nurap;"PF25+MP3, Nurap, Ubahak, Kabupaten Yahukimo, Papua";"Kabupaten Yahukimo, Papua";PAPUA;;Indonesia;;;;-42.983.673;1.394.593.116;https://maps.google.com/?cid=0x0:0xee5a4f03f41c6796;
perumahan;Kompleks Kondominium;K. SOHILAIT;"PV2P+75W, Baru, Distrik Puldama, kabupaten bias, Papua";"kabupaten bias, Papua";PAPUA;;Indonesia;;;;-42.992.533;1.398.854.497;https://maps.google.com/?cid=0x0:0xb3c51869caecd779;
perumahan;Pembangunan Perumahan;Lokasi alpius nabial;"4V6M+5Q, Seradala, Distrik Seradala, Kabupaten Yahukimo, Papua";"Kabupaten Yahukimo, Papua";PAPUA;;Indonesia;;;;-48.895.715;1.398.844.273;https://maps.google.com/?cid=0x0:0x9b71a28af2751623;
perumahan;Pembangunan Perumahan;Inttri;"PFMP+HWF, Welile, Ubahak, Kabupaten Yahukimo, Papua";"Kabupaten Yahukimo, Papua";PAPUA;;Indonesia;;;;-426.605;1.394.872.858;https://maps.google.com/?cid=0x0:0x9da1a738c9985b67;
perumahan;Kompleks Kondominium;Jonatan kumun;"4V7V+V27, Seradala, Distrik Seradala, Kabupaten Yahukimo, Papua";"Kabupaten Yahukimo, Papua";PAPUA;;Indonesia;;;;-48.853.323;13.989.254;https://maps.google.com/?cid=0x0:0xaf5dff9b8d752b53;
perumahan;Komplek perumahan;Dusun Walmak;"VJMW+845, Walmak, Distrik Nipsan, Kabupaten Yahukimo, Papua 99582";"Walmak, Distrik Nipsan, Kabupaten Yahukimo";PAPUA;99582;Indonesia;;;;-4.116.725;1.396.453.446;https://maps.google.com/?cid=0x0:0x9d646974af512393;
perumahan;Perhimpunan Pengembang Perumahan;Domidena;"JXCX+87Q, Imde, Distrik Pamek, Kabupaten Pegunungan Bintang, Papua";"Kabupaten Pegunungan Bintang, Papua";PAPUA;;Indonesia;;;;-43.791.595;139.998.236;https://maps.google.com/?cid=0x0:0x240533b90d8bc588;
perumahan;Perhimpunan Pengembang Perumahan;Jack bolim;"FCR7+JC4, Oakbisik, Distrik Kwikma, Kabupaten Yahukimo, Papua 99578";"Oakbisik, Distrik Kwikma, Kabupaten Yahukimo";PAPUA;99578;Indonesia;;;;-45.084.955;1.394.135.645;https://maps.google.com/?cid=0x0:0x2bed5a3a8476b57f;
perumahan;Komplek perumahan;kompleks biru sekla;"5F3X+9M7, Kuaserama, Kec. Dekai, Kabupaten Yahukimo, Papua 99571";"Kuaserama, Kec. Dekai, Kabupaten Yahukimo";PAPUA;99571;Indonesia;;;;-48.465.779;1.394.991.668;https://maps.google.com/?cid=0x0:0x3799c8c2bfae97e1;
perumahan;perumahan;Distrik Suntamon;"Kabupaten Yahukimo, Papua";"Kabupaten Yahukimo, Papua";PAPUA;;Indonesia;;;;-48.287.552;1.401.420.882;https://maps.google.com/?cid=0x0:0xf6fc10edcf03a1f0;
perumahan;Penginapan religi;Malokmala Sumtamob;"54CR+FRW, Yup, Distrik Suntamon, Kabupaten Yahukimo, Papua";"Kabupaten Yahukimo, Papua";PAPUA;;Indonesia;;;;-48.287.552;1.401.420.882;https://maps.google.com/?cid=0x0:0x888c997a4ec75e34;
perumahan;Komplek perumahan;OPM HERE!!!;"35G2+G9, Bongkok, Distrik Suntamon, Kabupaten Yahukimo, Papua";"Kabupaten Yahukimo, Papua";PAPUA;;Indonesia;;;;-4.923.736;140.150.944;https://maps.google.com/?cid=0x0:0xc3f3d4945911cd99;
perumahan;perumahan;Suntamon;"Distrik Suntamon, Kabupaten Yahukimo, Papua";"Kabupaten Yahukimo, Papua";PAPUA;;Indonesia;;;;-48.091.859;1.402.141.425;https://maps.google.com/?cid=0x0:0xbed7ba2dd8bbb76;
perumahan;perumahan;Distrik Seradala;"Kabupaten Yahukimo, Papua";"Kabupaten Yahukimo, Papua";PAPUA;;Indonesia;;;;-50.222.492;1.399.274.723;https://maps.google.com/?cid=0x0:0x509ed53dd2c94ad4;
perumahan;Komplek perumahan;Distrik seradala kab yahukimo;"XXPH+C3G, Samboga, Distrik Seradala, Kabupaten Yahukimo, Papua 99575";"Samboga, Distrik Seradala, Kabupaten Yahukimo";PAPUA;99575;Indonesia;;;;-50.139.429;1.399.777.136;https://maps.google.com/?cid=0x0:0x3dd6ddbeadc94793;
perumahan;Pembangunan Perumahan;Woman;"VXJC+XX5, Samboga, Distrik Seradala, Kabupaten Yahukimo, Papua";"Kabupaten Yahukimo, Papua";PAPUA;;Indonesia;;;;-51.176.023;1.399.724.868;https://maps.google.com/?cid=0x0:0x18acb4203edcd99b;
perumahan;Perhimpunan Pengembang Perumahan;Yalmabi;"5V4P+C2, Palamdua, Bomela, Kabupaten Yahukimo, Papua 99578";"Palamdua, Bomela, Kabupaten Yahukimo";PAPUA;99578;Indonesia;;;;-48.438.908;1.398.850.795;https://maps.google.com/?cid=0x0:0xfca0580e80536a94;
perumahan;Kompleks Kondominium;Jonatan kumun;"4V7V+V27, Seradala, Distrik Seradala, Kabupaten Yahukimo, Papua";"Kabupaten Yahukimo, Papua";PAPUA;;Indonesia;;;;-48.853.323;13.989.254;https://maps.google.com/?cid=0x0:0xaf5dff9b8d752b53;
perumahan;Perhimpunan Pengembang Perumahan;Minning 1;"X49H+H6, Yelobib, Distrik Awinbon, Kabupaten Pegunungan Bintang, Papua";"Kabupaten Pegunungan Bintang, Papua";PAPUA;;Indonesia;;;;-50.310.642;1.401.280.584;https://maps.google.com/?cid=0x0:0x30f6c9f4a55327d6;
perumahan;Pembangunan Perumahan;Distrik wipon;"M7G3+PF9, Hubik, Distrik Sobaham, Kabupaten Yahukimo, Papua 99571";"Hubik, Distrik Sobaham, Kabupaten Yahukimo";PAPUA;99571;Indonesia;;;;-43.232.167;1.392.537.329;https://maps.google.com/?cid=0x0:0x26f29065aaab2e0a;
perumahan;Pembangunan Perumahan;Werima yahukimo;"Q36Q+854, Werima, Distrik Werima, Kabupaten Yahukimo, Papua";"Kabupaten Yahukimo, Papua";PAPUA;;Indonesia;;;;-42.392.397;1.390.879.622;https://maps.google.com/?cid=0x0:0xc3446ed4f01e9750;
perumahan;perumahan;Distrik Sobaham;"Kabupaten Yahukimo, Papua";"Kabupaten Yahukimo, Papua";PAPUA;;Indonesia;;;;-43.232.167;1.392.537.329;https://maps.google.com/?cid=0x0:0x333c694b4e6f2826;
perumahan;Komplek perumahan;Segara City;"Jl. Tarumajaya Raya, Pantai Makmur, Kec. Tarumajaya, Kabupaten Bekasi, Jawa Barat 17216";"Pantai Makmur, Kec. Tarumajaya, Kabupaten Bekasi";PAPUA;17216;Indonesia;02129373060;;;-61.191.747;1.070.029.212;https://maps.google.com/?cid=0x0:0x94e0f076806de53a;
perumahan;perumahan;Perumahan japos;"Jl. Merpati d8 no 3, Jurang Mangu Barat, Kec. Pd. Aren, Kota Tangerang Selatan, Banten 15224";"Jurang Mangu Barat, Kec. Pd. Aren, Kota Tangerang Selatan";PAPUA;15224;Indonesia;;;;-6.254.381;106.713.691;https://maps.google.com/?cid=0x0:0x1b2bd792f3f421f3;
perumahan;perumahan;Kabianggama;"Kabupaten Yahukimo, Papua";"Kabupaten Yahukimo, Papua";PAPUA;;Indonesia;;;;-44.073.801;1.393.145.691;https://maps.google.com/?cid=0x0:0xc172b9d615ed9a5d;
perumahan;Pembangunan Perumahan;Distrik wipon;"M7G3+PF9, Hubik, Distrik Sobaham, Kabupaten Yahukimo, Papua 99571";"Hubik, Distrik Sobaham, Kabupaten Yahukimo";PAPUA;99571;Indonesia;;;;-43.232.167;1.392.537.329;https://maps.google.com/?cid=0x0:0x26f29065aaab2e0a;
perumahan;Komplek perumahan;Distrik kwelamdua;"7MPC+385, Kubuk Dua, Kwelamdua, Kabupaten Yahukimo, Papua 99578";"Kubuk Dua, Kwelamdua, Kabupaten Yahukimo";PAPUA;99578;Indonesia;;;;-47.148.698;1.396.708.628;https://maps.google.com/?cid=0x0:0x134eb7877acce790;
perumahan;Perhimpunan Pengembang Perumahan;ULDAM;"7RWF+87M, Kitikni, Bomela, Kabupaten Yahukimo, Papua";"Kabupaten Yahukimo, Papua";PAPUA;;Indonesia;;;;-47.041.711;1.398.231.576;https://maps.google.com/?cid=0x0:0x7e03c6dae1c61297;
perumahan;Komplek perumahan;IBILEMA LAYMAT;"Q2HW+6J, Hihundes, Kec. Kurima, Kabupaten Yahukimo, Papua";"Kabupaten Yahukimo, Papua";PAPUA;;Indonesia;;;;-42.219.685;1.390.466.439;https://maps.google.com/?cid=0x0:0x152a3e314fa3f67d;
perumahan;Perhimpunan Pengembang Perumahan;Jack bolim;"FCR7+JC4, Oakbisik, Distrik Kwikma, Kabupaten Yahukimo, Papua 99578";"Oakbisik, Distrik Kwikma, Kabupaten Yahukimo";PAPUA;99578;Indonesia;;;;-45.084.955;1.394.135.645;https://maps.google.com/?cid=0x0:0x2bed5a3a8476b57f;
perumahan;perumahan;Kec. Hilipuk;"Kabupaten Yahukimo, Papua";"Kabupaten Yahukimo, Papua";PAPUA;;Indonesia;;;;-45.724.488;1.393.754.694;https://maps.google.com/?cid=0x0:0x99a742344666b7be;
perumahan;Komplek perumahan;IBILEMA LAYMAT;"Q2HW+6J, Hihundes, Kec. Kurima, Kabupaten Yahukimo, Papua";"Kabupaten Yahukimo, Papua";PAPUA;;Indonesia;;;;-42.219.685;1.390.466.439;https://maps.google.com/?cid=0x0:0x152a3e314fa3f67d;
perumahan;Perhimpunan Pengembang Perumahan;Jack bolim;"FCR7+JC4, Oakbisik, Distrik Kwikma, Kabupaten Yahukimo, Papua 99578";"Oakbisik, Distrik Kwikma, Kabupaten Yahukimo";PAPUA;99578;Indonesia;;;;-45.084.955;1.394.135.645;https://maps.google.com/?cid=0x0:0x2bed5a3a8476b57f;
perumahan;perumahan;Papua 99582;"Kabupaten Yahukimo, Papua";"Kabupaten Yahukimo, Papua";PAPUA;;Indonesia;;;;-4.059.169;1.397.728.757;https://maps.google.com/?cid=0x0:0x86511d2b7e14d4b8;
perumahan;Perumahan;Perumahan Puri Cijambe;"Perum Puri Cijambe blok c10 no 15 serang, Sukadami, Cikarang Sel., Kabupaten Bekasi, Jawa Barat 17530";"Sukadami, Cikarang Sel., Kabupaten Bekasi";PAPUA;17530;Indonesia;081282711364;;;-63.657.613;1.071.001.583;https://maps.google.com/?cid=0x0:0xb2119b071ee1cc8b;
perumahan;Komplek perumahan;ARCADIA RESIDENCE HUNIAN NYAMAN  ASRI BEKASI;"Jl. Desa Satria Jaya, Satriajaya, Kec. Tambun Utara, Kabupaten Bekasi, Jawa Barat 17510";"Satriajaya, Kec. Tambun Utara, Kabupaten Bekasi";PAPUA;17510;Indonesia;;;;-62.170.771;1.070.511.912;https://maps.google.com/?cid=0x0:0x43779ba9136c9439;
perumahan;perumahan;Perumahan japos;"Jl. Merpati d8 no 3, Jurang Mangu Barat, Kec. Pd. Aren, Kota Tangerang Selatan, Banten 15224";"Jurang Mangu Barat, Kec. Pd. Aren, Kota Tangerang Selatan";PAPUA;15224;Indonesia;;;;-6.254.381;106.713.691;https://maps.google.com/?cid=0x0:0x1b2bd792f3f421f3;
perumahan;perumahan;Kec. Yogosem;"Kabupaten Yahukimo, Papua";"Kabupaten Yahukimo, Papua";PAPUA;;Indonesia;;;;-42.220.265;1.391.294.918;https://maps.google.com/?cid=0x0:0xf4c5246dfdf2d6c1;
perumahan;Komplek perumahan;Rumah murah 2 lantai;"Jl. Villa Pamulang, Kel. pondok Benda, Kec. Pamulang, Kota. Tanggerang Selatan, Pd. Benda, Kec. Pamulang, Kota Tangerang Selatan, Banten 13513";"Kel. pondok Benda, Kec. Pamulang, Kota. Tanggerang Selatan, Pd. Benda, Kec. Pamulang, Kota Tangerang Selatan";PAPUA;13513;Indonesia;082122062880;;;-63.470.354;1.067.115.918;https://maps.google.com/?cid=0x0:0xea8b4217f0e65f9b;
perumahan;Pembangunan Perumahan;Wusilimo;"Q29V+QVQ, Unnamed Road, Parela, Kec. Kurima, Kabupaten Yahukimo, Papua 99571";"Unnamed Road, Parela, Kec. Kurima, Kabupaten Yahukimo";PAPUA;99571;Indonesia;;;;-42.305.393;1.390.447.353;https://maps.google.com/?cid=0x0:0x310af1d3e19b0cf1;
perumahan;perumahan;???? ???;"G6H6+P73, Molama, Distrik Kayo, Kabupaten Yahukimo, Papua 99571";"Molama, Distrik Kayo, Kabupaten Yahukimo";PAPUA;99571;Indonesia;;;;-44.707.456;1.392.106.794;https://maps.google.com/?cid=0x0:0xccd97d910528d89a;
perumahan;Komplek perumahan;Perumahan orang Kayo Hitam 1;"CRCG+XMR, Sipin Tlk. Duren, Kec. Kumpeh Ulu, Kabupaten Muaro Jambi, Jambi 36373";"Sipin Tlk. Duren, Kec. Kumpeh Ulu, Kabupaten Muaro Jambi";PAPUA;36373;Indonesia;082246382741;;;-15.766.133;1.038.274.899;https://maps.google.com/?cid=0x0:0x6f22352c39346d2a;
perumahan;perumahan;Papua 99571;"Kabupaten Yahukimo, Papua";"Kabupaten Yahukimo, Papua";PAPUA;;Indonesia;;;;-46.597.588;1.391.221.414;https://maps.google.com/?cid=0x0:0x8dc722ebb3251072;
perumahan;perumahan;Papua;;Papua;PAPUA;;Indonesia;;;;-4.269.928;1.380.803.529;https://maps.google.com/?cid=0x0:0xeba94e9c5eefe673;
perumahan;perumahan;Papua 99571;"Kabupaten Yahukimo, Papua";"Kabupaten Yahukimo, Papua";PAPUA;;Indonesia;;;;-46.597.588;1.391.221.414;https://maps.google.com/?cid=0x0:0x8dc722ebb3251072;
perumahan;Komplek perumahan;Segara City;"Jl. Tarumajaya Raya, Pantai Makmur, Kec. Tarumajaya, Kabupaten Bekasi, Jawa Barat 17216";"Pantai Makmur, Kec. Tarumajaya, Kabupaten Bekasi";PAPUA;17216;Indonesia;02129373060;;;-61.191.747;1.070.029.212;https://maps.google.com/?cid=0x0:0x94e0f076806de53a;
perumahan;Minimarket;SEGARA FROZEN FOOD;"V2M2+GW7, Segarajaya, Kec. Tarumajaya, Kabupaten Bekasi, Jawa Barat 17216";"Segarajaya, Kec. Tarumajaya, Kabupaten Bekasi";PAPUA;17216;Indonesia;;;;-61.162.585;1.070.023.245;https://maps.google.com/?cid=0x0:0xb882d0c22233155f;
