Category,Real Category,Business Name,Address,City,State,Postal Code,Country,Phone,Email,Website,Latitude,Longitude,Map Link,Details Link
mall,mall,Sulawesi Tengah 94361,"Kabupaten Sigi, Sulawesi Tengah","Kabupaten Sigi, Sulawesi Tengah",SULAWESI TENGAH,,Indonesia,,,,-1.23459,119.9046594,https://maps.google.com/?cid=0x0:0x4f531feacb3953e3,
mall,Pusat Perbelanjaan,THE PARK MALL PALU,"4RCP+6RC, Jl. Cumi-Cumi, Silae, Kec. Palu Bar., Kota Palu, Sulawesi Tengah 94227","Jl. Cumi-Cumi, Silae, Kec. Palu Bar., Kota Palu",SULAWESI TENGAH,94227.0,Indonesia,4317554446.0,,,-0.8793749,119.8370341,https://maps.google.com/?cid=0x0:0x32487cdfd5e5d75f,
mall,Pusat Perbelanjaan,XEIGHT Palu Grand Mall,"Grand Mall, Jl. Cumi-Cumi No.77 LT. GF UNIT G - 0150, BUMI BAHARI, Kec. Palu Bar., Kota Palu, Sulawesi Tengah 94221","Jl. Cumi-Cumi No.77 LT. GF UNIT G - 0150, BUMI BAHARI, Kec. Palu Bar., Kota Palu",SULAWESI TENGAH,94221.0,Indonesia,4514134547.0,,,-0.8828723,119.8427211,https://maps.google.com/?cid=0x0:0xd7e6e97d68971afd,
mall,mall,Kios ainun,"XVPH+PM3, Jl. Poros Palu- Kulawi, Tulo, Kec. Dolo, Kabupaten Sigi, Sulawesi Tengah 94362","Jl. Poros Palu- Kulawi, Tulo, Kec. Dolo, Kabupaten Sigi",SULAWESI TENGAH,94362.0,Indonesia,,,,-1.0132321,119.8791643,https://maps.google.com/?cid=0x0:0x8eee90dc0e383283,
mall,Toko Ponsel,Dolof Ponsel,"Jl. Baru Plenongan, Depok, Kec. Pancoran Mas, Kota Depok, Jawa Barat 16431","Depok, Kec. Pancoran Mas, Kota Depok",SULAWESI TENGAH,16431.0,Indonesia,,,,-6.3942619,106.8201623,https://maps.google.com/?cid=0x0:0xfa5d0aa63c10611c,
mall,mall,Dolo,"Kotarindau, Kec. Dolo, Kabupaten Sigi, Sulawesi Tengah","Kabupaten Sigi, Sulawesi Tengah",SULAWESI TENGAH,,Indonesia,,,,-0.990628,119.878098,https://maps.google.com/?cid=0x0:0x5c92b62bdcba4dae,
mall,Toko Elektronik,Fonel Mall Margo City,"Margo City Depok, Lantai 2 no. 54, Kota Depok, Jawa Barat 16423","Lantai 2 no. 54, Kota Depok",SULAWESI TENGAH,16423.0,Indonesia,8175721959.0,,,-6.3729612,106.8345922,https://maps.google.com/?cid=0x0:0xa0d5943326b06fee,
mall,mall,Kec. Dolo Bar.,"Kabupaten Sigi, Sulawesi Tengah","Kabupaten Sigi, Sulawesi Tengah",SULAWESI TENGAH,,Indonesia,,,,-1.0248547,119.8669421,https://maps.google.com/?cid=0x0:0x9cff6f7017d9df8d,
mall,Pusat Perbelanjaan,XEIGHT Palu Grand Mall,"Grand Mall, Jl. Cumi-Cumi No.77 LT. GF UNIT G - 0150, BUMI BAHARI, Kec. Palu Bar., Kota Palu, Sulawesi Tengah 94221","Jl. Cumi-Cumi No.77 LT. GF UNIT G - 0150, BUMI BAHARI, Kec. Palu Bar., Kota Palu",SULAWESI TENGAH,94221.0,Indonesia,4514134547.0,,,-0.8828723,119.8427211,https://maps.google.com/?cid=0x0:0xd7e6e97d68971afd,
mall,Dapur Umum,E-WARONG DUA PUTRI,"WVX7+47H, Unnamed Road, Balumpewa, Kec. Dolo Bar., Kabupaten Sigi, Sulawesi Tengah 94362","Unnamed Road, Balumpewa, Kec. Dolo Bar., Kabupaten Sigi",SULAWESI TENGAH,94362.0,Indonesia,,,,-1.0521997,119.8632463,https://maps.google.com/?cid=0x0:0x7cab696f8f38d2db,
mall,Pusat Perbelanjaan,THE PARK MALL PALU,"4RCP+6RC, Jl. Cumi-Cumi, Silae, Kec. Palu Bar., Kota Palu, Sulawesi Tengah 94227","Jl. Cumi-Cumi, Silae, Kec. Palu Bar., Kota Palu",SULAWESI TENGAH,94227.0,Indonesia,4317554446.0,,,-0.8793749,119.8370341,https://maps.google.com/?cid=0x0:0x32487cdfd5e5d75f,
mall,Pusat Perbelanjaan,WiShop SIGI PALU,"XV5X+749, Waturalele, Sigi Kota, Kabupaten Sigi, Sulawesi Tengah 94362","Waturalele, Sigi Kota, Kabupaten Sigi",SULAWESI TENGAH,94362.0,Indonesia,83132211436.0,,,-1.041843,119.8978557,https://maps.google.com/?cid=0x0:0x433f036383901c28,
mall,Pusat Perbelanjaan,Airin olshop,"Jln.AIR TERJUN WERA DESA BALUMPEWA Balumpewa, Kabupaten Sigi, Kota Palu, Sulawesi Tengah 94361","Kabupaten Sigi, Kota Palu",SULAWESI TENGAH,94361.0,Indonesia,82293751248.0,,,-1.0517084,119.8625126,https://maps.google.com/?cid=0x0:0x821da41964a4cdda,
mall,Toko,Kios Miji,"Jl. Raja Gunu, Soulowe, Kec. Dolo, Kabupaten Sigi, Sulawesi Tengah 94362","Soulowe, Kec. Dolo, Kabupaten Sigi",SULAWESI TENGAH,94362.0,Indonesia,882242527605.0,,,-1.0206736,119.9139978,https://maps.google.com/?cid=0x0:0x9805451acf6790ed,
mall,Toko umum,Kios Dan Konter Afiqa Aliqa Cell,"WV5C+P97, Jl. Poros Palu Bangga, Bobo, Kec. Dolo Bar., Kabupaten Sigi, Sulawesi Tengah 94362","Jl. Poros Palu Bangga, Bobo, Kec. Dolo Bar., Kabupaten Sigi",SULAWESI TENGAH,94362.0,Indonesia,82318275187.0,,,-1.0907054,119.8709179,https://maps.google.com/?cid=0x0:0x6bf819f2686b1557,
mall,Toko,Kios 5 putri,"XVWQ+6P9, Jl. Dolo Sidera, Potoya, Kec. Dolo, Kabupaten Sigi, Sulawesi Tengah 94362","Jl. Dolo Sidera, Potoya, Kec. Dolo, Kabupaten Sigi",SULAWESI TENGAH,94362.0,Indonesia,,,,-1.0044365,119.8897752,https://maps.google.com/?cid=0x0:0xa3169f94e2af928f,
mall,Komplek perumahan,Pasar Sidondo I,"WW55+6R8, Sidondo I, Kec. Sigi Biromaru, Kabupaten Sigi, Sulawesi Tengah 94361","Sidondo I, Kec. Sigi Biromaru, Kabupaten Sigi",SULAWESI TENGAH,94361.0,Indonesia,,,,-1.0919523,119.9095841,https://maps.google.com/?cid=0x0:0x51dd59b39c0680bf,
mall,Kios,Kios Aira,"XVX7+723, Beka, Kec. Marawola, Kabupaten Sigi, Sulawesi Tengah 94362","Beka, Kec. Marawola, Kabupaten Sigi",SULAWESI TENGAH,94362.0,Indonesia,,,,-1.0018515,119.8625332,https://maps.google.com/?cid=0x0:0x5a401c767de65caa,
mall,Peralatan Pengolahan Makanan,ANEKA KRIPIK SAMBO,"VVJH+3WH, Jl. Poros Palu Bangga, Sambo, Kec. Dolo Sel., Kabupaten Sigi, Sulawesi Tengah 94362","Jl. Poros Palu Bangga, Sambo, Kec. Dolo Sel., Kabupaten Sigi",SULAWESI TENGAH,94362.0,Indonesia,82346760909.0,,,-1.1198173,119.879852,https://maps.google.com/?cid=0x0:0x1154d255bf47721b,
mall,Kios,CLEOSHOP,"Desa Beka No. 75 (Depan Lapangan Bola, Kec. Marawola, Kabupaten Sigi, Sulawesi Tengah 94372","Kec. Marawola, Kabupaten Sigi",SULAWESI TENGAH,94372.0,Indonesia,82229300084.0,,,-0.9862635,119.8628325,https://maps.google.com/?cid=0x0:0xc03679a9a5bf2dde,
mall,Pusat Perbelanjaan,Hypermart Palu Grand Mall,"Jl. Diponegoro No.8A, Lere, Kec. Palu Bar., Kota Palu, Sulawesi Tengah 94221","Lere, Kec. Palu Bar., Kota Palu",SULAWESI TENGAH,94221.0,Indonesia,81312097422.0,,,-0.8837991,119.8423758,https://maps.google.com/?cid=0x0:0x9567cc1a06bb61e4,
mall,Toko Perlengkapan Rumah,Miniso Palu Grand Mall,"Jl. Cumi-Cumi No.77, Lere, Kec. Palu Bar., Kota Palu, Sulawesi Tengah 94111","Lere, Kec. Palu Bar., Kota Palu",SULAWESI TENGAH,94111.0,Indonesia,,,,-0.8836673,119.8427272,https://maps.google.com/?cid=0x0:0x9f94457e1b988134,
mall,Toko Alat Kecantikan,Sociolla Palu Grand Mall,"Jl. Diponegoro Unit G-0031, Lere, Kec. Palu Bar., Kota Palu, Sulawesi Tengah 94221","Lere, Kec. Palu Bar., Kota Palu",SULAWESI TENGAH,94221.0,Indonesia,,,,-0.8836507,119.8424799,https://maps.google.com/?cid=0x0:0x7f34350e6d74ce93,
mall,Toko,Kios Wulan,"VWP5+3HC, Jl. Poros Palu - Kulawi, Sibowi, Kec. Tanambulava, Kabupaten Sigi, Sulawesi Tengah 94361","Jl. Poros Palu - Kulawi, Sibowi, Kec. Tanambulava, Kabupaten Sigi",SULAWESI TENGAH,94361.0,Indonesia,,,,-1.1152405,119.9089138,https://maps.google.com/?cid=0x0:0x2bff7c1b415533ec,
mall,Pusat Perbelanjaan,Kios Bayu,"Beka, Kec. Marawola, Kabupaten Sigi, Sulawesi Tengah","Kabupaten Sigi, Sulawesi Tengah",SULAWESI TENGAH,,Indonesia,85732224391.0,,,-0.9942641,119.8626778,https://maps.google.com/?cid=0x0:0xf85085389f2930b9,
mall,mall,STOCK CENTER HNI HPAI,"XV8M+CVF, Jl. Kaleke - Dolo, Maku, Kec. Dolo, Kabupaten Sigi, Sulawesi Tengah 94362","Jl. Kaleke - Dolo, Maku, Kec. Dolo, Kabupaten Sigi",SULAWESI TENGAH,94362.0,Indonesia,82274701928.0,,,-1.0339365,119.8846858,https://maps.google.com/?cid=0x0:0xf06d437988e8b6cf,
mall,mall,Nikita all shop,"WVVG+V7X, Rarampadende, Kec. Dolo Bar., Kabupaten Sigi, Sulawesi Tengah 94362","Rarampadende, Kec. Dolo Bar., Kabupaten Sigi",SULAWESI TENGAH,94362.0,Indonesia,82271158508.0,,,-1.0552564,119.8757349,https://maps.google.com/?cid=0x0:0xc1c2fc2c35f70180,
mall,Toko bahan makanan,Kios Nur AGEN 46,"Jl. Poros Palu - Kulawi, Sidondo I, Kec. Sigi Biromaru, Kabupaten Sigi, Sulawesi Tengah 94362","Sidondo I, Kec. Sigi Biromaru, Kabupaten Sigi",SULAWESI TENGAH,94362.0,Indonesia,82333510050.0,,,-1.0941047,119.9071324,https://maps.google.com/?cid=0x0:0xa574b17252b5c225,
mall,mall,Kios Barokah,"WVVG+V7X, Rarampadende, Kec. Dolo Bar., Kabupaten Sigi, Sulawesi Tengah 94362","Rarampadende, Kec. Dolo Bar., Kabupaten Sigi",SULAWESI TENGAH,94362.0,Indonesia,,,,-1.0552564,119.8757349,https://maps.google.com/?cid=0x0:0x1870729937065618,
mall,Toko Pakaian Wanita,ERS SHOP,"2V5W+3R8, Langaleso, Kec. Dolo, Kabupaten Sigi, Sulawesi Tengah 94362","Langaleso, Kec. Dolo, Kabupaten Sigi",SULAWESI TENGAH,94362.0,Indonesia,82296375232.0,,,-0.9923355,119.8970855,https://maps.google.com/?cid=0x0:0x2b24768bb3e6b426,
mall,Pusat Perbelanjaan,Kios Fadhalna,"2V66+2R4, Jl. Poros Palu Bangga, Beka, Kec. Marawola, Kabupaten Sigi, Sulawesi Tengah 94362","Jl. Poros Palu Bangga, Beka, Kec. Marawola, Kabupaten Sigi",SULAWESI TENGAH,94362.0,Indonesia,,,,-0.9899896,119.8620854,https://maps.google.com/?cid=0x0:0x36421269eb868dae,
mall,mall,Sulawesi Tengah 94361,"Kabupaten Sigi, Sulawesi Tengah","Kabupaten Sigi, Sulawesi Tengah",SULAWESI TENGAH,,Indonesia,,,,-1.23459,119.9046594,https://maps.google.com/?cid=0x0:0x4f531feacb3953e3,
mall,Kios,Kios Egi,"PWWM+27G, Jl. Poros Palu Bangga, Bangga, Kec. Dolo Sel., Kabupaten Sigi, Sulawesi Tengah 94361","Jl. Poros Palu Bangga, Bangga, Kec. Dolo Sel., Kabupaten Sigi",SULAWESI TENGAH,94361.0,Indonesia,,,,-1.2549381,119.9331948,https://maps.google.com/?cid=0x0:0x11c3ae18fbc87ca6,
mall,Pusat Perbelanjaan,XEIGHT Palu Grand Mall,"Grand Mall, Jl. Cumi-Cumi No.77 LT. GF UNIT G - 0150, BUMI BAHARI, Kec. Palu Bar., Kota Palu, Sulawesi Tengah 94221","Jl. Cumi-Cumi No.77 LT. GF UNIT G - 0150, BUMI BAHARI, Kec. Palu Bar., Kota Palu",SULAWESI TENGAH,94221.0,Indonesia,4514134547.0,,,-0.8828723,119.8427211,https://maps.google.com/?cid=0x0:0xd7e6e97d68971afd,
mall,Pusat Perbelanjaan,THE PARK MALL PALU,"4RCP+6RC, Jl. Cumi-Cumi, Silae, Kec. Palu Bar., Kota Palu, Sulawesi Tengah 94227","Jl. Cumi-Cumi, Silae, Kec. Palu Bar., Kota Palu",SULAWESI TENGAH,94227.0,Indonesia,4317554446.0,,,-0.8793749,119.8370341,https://maps.google.com/?cid=0x0:0x32487cdfd5e5d75f,
mall,Toko,Kios Miji,"Jl. Raja Gunu, Soulowe, Kec. Dolo, Kabupaten Sigi, Sulawesi Tengah 94362","Soulowe, Kec. Dolo, Kabupaten Sigi",SULAWESI TENGAH,94362.0,Indonesia,882242527605.0,,,-1.0206736,119.9139978,https://maps.google.com/?cid=0x0:0x9805451acf6790ed,
mall,Komplek perumahan,Pasar Sidondo I,"WW55+6R8, Sidondo I, Kec. Sigi Biromaru, Kabupaten Sigi, Sulawesi Tengah 94361","Sidondo I, Kec. Sigi Biromaru, Kabupaten Sigi",SULAWESI TENGAH,94361.0,Indonesia,,,,-1.0919523,119.9095841,https://maps.google.com/?cid=0x0:0x51dd59b39c0680bf,
mall,Dapur Umum,AL BAROKAH,"Bora, Kec. Sigi Biromaru, Kabupaten Sigi, Sulawesi Tengah 94361","Kec. Sigi Biromaru, Kabupaten Sigi",SULAWESI TENGAH,94361.0,Indonesia,82273370321.0,,,-1.0494107,119.9439638,https://maps.google.com/?cid=0x0:0x24a1ce404c3a0891,
mall,Dapur Umum,E-WARONG DUA PUTRI,"WVX7+47H, Unnamed Road, Balumpewa, Kec. Dolo Bar., Kabupaten Sigi, Sulawesi Tengah 94362","Unnamed Road, Balumpewa, Kec. Dolo Bar., Kabupaten Sigi",SULAWESI TENGAH,94362.0,Indonesia,,,,-1.0521997,119.8632463,https://maps.google.com/?cid=0x0:0x7cab696f8f38d2db,
mall,Toko Pakaian Wanita,ERS SHOP,"2V5W+3R8, Langaleso, Kec. Dolo, Kabupaten Sigi, Sulawesi Tengah 94362","Langaleso, Kec. Dolo, Kabupaten Sigi",SULAWESI TENGAH,94362.0,Indonesia,82296375232.0,,,-0.9923355,119.8970855,https://maps.google.com/?cid=0x0:0x2b24768bb3e6b426,
mall,Toko Ponsel,Kartu Internet Telkomsel,"QWCW+F9M, Jl. Poros Palu - Kulawi, Pakuli, Kec. Gumbasa, Kabupaten Sigi, Sulawesi Tengah 94361","Jl. Poros Palu - Kulawi, Pakuli, Kec. Gumbasa, Kabupaten Sigi",SULAWESI TENGAH,94361.0,Indonesia,85255944443.0,,,-1.2287969,119.9459088,https://maps.google.com/?cid=0x0:0xd7c6f60b8551ef9b,
mall,Toko,Kios 5 putri,"XVWQ+6P9, Jl. Dolo Sidera, Potoya, Kec. Dolo, Kabupaten Sigi, Sulawesi Tengah 94362","Jl. Dolo Sidera, Potoya, Kec. Dolo, Kabupaten Sigi",SULAWESI TENGAH,94362.0,Indonesia,,,,-1.0044365,119.8897752,https://maps.google.com/?cid=0x0:0xa3169f94e2af928f,
mall,Pusat Perbelanjaan,WiShop SIGI PALU,"XV5X+749, Waturalele, Sigi Kota, Kabupaten Sigi, Sulawesi Tengah 94362","Waturalele, Sigi Kota, Kabupaten Sigi",SULAWESI TENGAH,94362.0,Indonesia,83132211436.0,,,-1.041843,119.8978557,https://maps.google.com/?cid=0x0:0x433f036383901c28,
mall,Toko,Foto Copy Alifia,"VW4C+8CP, Jl. Poros Palu - Kulawi, Sibalaya Sel., Kec. Tanambulava, Kabupaten Sigi, Sulawesi Tengah 94361","Jl. Poros Palu - Kulawi, Sibalaya Sel., Kec. Tanambulava, Kabupaten Sigi",SULAWESI TENGAH,94361.0,Indonesia,85399996978.0,,,-1.144156,119.921073,https://maps.google.com/?cid=0x0:0x9fef8d29a17f4525,
mall,Toko Swalayan,Kios Faril,"XW3X+886, Jl. Poros Palu-Palolo, Bora, Kec. Sigi Biromaru, Kabupaten Sigi, Sulawesi Tengah 94364","Jl. Poros Palu-Palolo, Bora, Kec. Sigi Biromaru, Kabupaten Sigi",SULAWESI TENGAH,94364.0,Indonesia,,,,-1.0467077,119.9482644,https://maps.google.com/?cid=0x0:0xccf2629e3ee9b08e,
mall,Pusat Perbelanjaan,Airin olshop,"Jln.AIR TERJUN WERA DESA BALUMPEWA Balumpewa, Kabupaten Sigi, Kota Palu, Sulawesi Tengah 94361","Kabupaten Sigi, Kota Palu",SULAWESI TENGAH,94361.0,Indonesia,82293751248.0,,,-1.0517084,119.8625126,https://maps.google.com/?cid=0x0:0x821da41964a4cdda,
mall,Toko Perlengkapan Rumah,Miniso Palu Grand Mall,"Jl. Cumi-Cumi No.77, Lere, Kec. Palu Bar., Kota Palu, Sulawesi Tengah 94111","Lere, Kec. Palu Bar., Kota Palu",SULAWESI TENGAH,94111.0,Indonesia,,,,-0.8836673,119.8427272,https://maps.google.com/?cid=0x0:0x9f94457e1b988134,
mall,Toko umum,Kios Dan Konter Afiqa Aliqa Cell,"WV5C+P97, Jl. Poros Palu Bangga, Bobo, Kec. Dolo Bar., Kabupaten Sigi, Sulawesi Tengah 94362","Jl. Poros Palu Bangga, Bobo, Kec. Dolo Bar., Kabupaten Sigi",SULAWESI TENGAH,94362.0,Indonesia,82318275187.0,,,-1.0907054,119.8709179,https://maps.google.com/?cid=0x0:0x6bf819f2686b1557,
mall,Pusat Perbelanjaan,Hypermart Palu Grand Mall,"Jl. Diponegoro No.8A, Lere, Kec. Palu Bar., Kota Palu, Sulawesi Tengah 94221","Lere, Kec. Palu Bar., Kota Palu",SULAWESI TENGAH,94221.0,Indonesia,81312097422.0,,,-0.8837991,119.8423758,https://maps.google.com/?cid=0x0:0x9567cc1a06bb61e4,
mall,Kios,CLEOSHOP,"Desa Beka No. 75 (Depan Lapangan Bola, Kec. Marawola, Kabupaten Sigi, Sulawesi Tengah 94372","Kec. Marawola, Kabupaten Sigi",SULAWESI TENGAH,94372.0,Indonesia,82229300084.0,,,-0.9862635,119.8628325,https://maps.google.com/?cid=0x0:0xc03679a9a5bf2dde,
mall,Pusat Perbelanjaan,E-Warong Shadiq,"WVPC+4QC, Jl. Poros Palu Bangga, Rarampadende, Kec. Dolo Bar., Kabupaten Sigi, Sulawesi Tengah 94362","Jl. Poros Palu Bangga, Rarampadende, Kec. Dolo Bar., Kabupaten Sigi",SULAWESI TENGAH,94362.0,Indonesia,,,,-1.0646951,119.8719057,https://maps.google.com/?cid=0x0:0x1ce880b27725adc3,
mall,Toko bahan makanan,Kios Nur AGEN 46,"Jl. Poros Palu - Kulawi, Sidondo I, Kec. Sigi Biromaru, Kabupaten Sigi, Sulawesi Tengah 94362","Sidondo I, Kec. Sigi Biromaru, Kabupaten Sigi",SULAWESI TENGAH,94362.0,Indonesia,82333510050.0,,,-1.0941047,119.9071324,https://maps.google.com/?cid=0x0:0xa574b17252b5c225,
mall,Peralatan Pengolahan Makanan,ANEKA KRIPIK SAMBO,"VVJH+3WH, Jl. Poros Palu Bangga, Sambo, Kec. Dolo Sel., Kabupaten Sigi, Sulawesi Tengah 94362","Jl. Poros Palu Bangga, Sambo, Kec. Dolo Sel., Kabupaten Sigi",SULAWESI TENGAH,94362.0,Indonesia,82346760909.0,,,-1.1198173,119.879852,https://maps.google.com/?cid=0x0:0x1154d255bf47721b,
mall,Toko,Kios Wulan,"VWP5+3HC, Jl. Poros Palu - Kulawi, Sibowi, Kec. Tanambulava, Kabupaten Sigi, Sulawesi Tengah 94361","Jl. Poros Palu - Kulawi, Sibowi, Kec. Tanambulava, Kabupaten Sigi",SULAWESI TENGAH,94361.0,Indonesia,,,,-1.1152405,119.9089138,https://maps.google.com/?cid=0x0:0x2bff7c1b415533ec,
mall,Toko Perlengkapan Rumah,Ecin Olshop Campuran,"JV7J+JJ2, Salua, Kec. Kulawi, Kabupaten Sigi, Sulawesi Tengah","Kabupaten Sigi, Sulawesi Tengah",SULAWESI TENGAH,,Indonesia,,,,-1.3859904,119.8815203,https://maps.google.com/?cid=0x0:0x69a544fe164be2f7,
mall,mall,Kec. Gumbasa,"Kabupaten Sigi, Sulawesi Tengah","Kabupaten Sigi, Sulawesi Tengah",SULAWESI TENGAH,,Indonesia,,,,-1.2047086,119.9426429,https://maps.google.com/?cid=0x0:0x12ba9694169370c2,
mall,Toko Ponsel,Kartu Internet Telkomsel,"QWCW+F9M, Jl. Poros Palu - Kulawi, Pakuli, Kec. Gumbasa, Kabupaten Sigi, Sulawesi Tengah 94361","Jl. Poros Palu - Kulawi, Pakuli, Kec. Gumbasa, Kabupaten Sigi",SULAWESI TENGAH,94361.0,Indonesia,85255944443.0,,,-1.2287969,119.9459088,https://maps.google.com/?cid=0x0:0xd7c6f60b8551ef9b,
mall,Pusat Perbelanjaan,XEIGHT Palu Grand Mall,"Grand Mall, Jl. Cumi-Cumi No.77 LT. GF UNIT G - 0150, BUMI BAHARI, Kec. Palu Bar., Kota Palu, Sulawesi Tengah 94221","Jl. Cumi-Cumi No.77 LT. GF UNIT G - 0150, BUMI BAHARI, Kec. Palu Bar., Kota Palu",SULAWESI TENGAH,94221.0,Indonesia,4514134547.0,,,-0.8828723,119.8427211,https://maps.google.com/?cid=0x0:0xd7e6e97d68971afd,
mall,Tujuan Wisata,Bendung Gumbasa,"QWPV+JJ9, Pandere, Kec. Gumbasa, Kabupaten Sigi, Sulawesi Tengah","Kabupaten Sigi, Sulawesi Tengah",SULAWESI TENGAH,,Indonesia,,,,-1.2134542,119.9441136,https://maps.google.com/?cid=0x0:0x80cd2e65f0006d2c,
mall,Pasar,PASAR BOBO,"V2H7+C7J, Bobo, Kec. Palolo, Kabupaten Sigi, Sulawesi Tengah 94364","Bobo, Kec. Palolo, Kabupaten Sigi",SULAWESI TENGAH,94364.0,Indonesia,,,,-1.121415,120.0131527,https://maps.google.com/?cid=0x0:0x3c5acf84eb28737b,
mall,Pusat Perbelanjaan,THE PARK MALL PALU,"4RCP+6RC, Jl. Cumi-Cumi, Silae, Kec. Palu Bar., Kota Palu, Sulawesi Tengah 94227","Jl. Cumi-Cumi, Silae, Kec. Palu Bar., Kota Palu",SULAWESI TENGAH,94227.0,Indonesia,4317554446.0,,,-0.8793749,119.8370341,https://maps.google.com/?cid=0x0:0x32487cdfd5e5d75f,
mall,Kios,Amoura Mart,"V348+485, Ranteleda, Kec. Palolo, Kabupaten Sigi, Sulawesi Tengah","Kabupaten Sigi, Sulawesi Tengah",SULAWESI TENGAH,,Indonesia,,,,-1.1447436,120.0658632,https://maps.google.com/?cid=0x0:0x65cb029784e98ce7,
mall,Pusat Perbelanjaan,Poso City Mall,"Jl. Pulau Sabang No.72, Kayamanya, Kec. Poso Kota, Kabupaten Poso, Sulawesi Tengah 94611","Kayamanya, Kec. Poso Kota, Kabupaten Poso",SULAWESI TENGAH,94611.0,Indonesia,,,,-1.3871945,120.7405742,https://maps.google.com/?cid=0x0:0x5566dc5bacc8cb0c,
mall,Pusat Perbelanjaan,Pertokoan Hasanuddin,"4V39+987, Jl. Sudirman, Lolu Utara, Kec. Palu Tim., Kota Palu, Sulawesi Tengah 94112","Jl. Sudirman, Lolu Utara, Kec. Palu Tim., Kota Palu",SULAWESI TENGAH,94112.0,Indonesia,,,,-0.8965978,119.8683028,https://maps.google.com/?cid=0x0:0x3f84768500f98cda,
mall,Pusat Perbelanjaan,Plaza Palu,"Komplek Palu Plaza, Jl. Sis AlJufri, Blok IV, Siranindi, Kec. Ulujadi, Kota Palu, Sulawesi Tengah 94111","Jl. Sis AlJufri, Blok IV, Siranindi, Kec. Ulujadi, Kota Palu",SULAWESI TENGAH,94111.0,Indonesia,,,,-0.8993996,119.8607805,https://maps.google.com/?cid=0x0:0xc5f25dc5c9bc56bd,
mall,Toko,Kios Siti Almiah,"Jl. Poros Palu Bangga, Baluase, Kec. Dolo Sel., Kabupaten Sigi, Sulawesi Tengah 94361","Baluase, Kec. Dolo Sel., Kabupaten Sigi",SULAWESI TENGAH,94361.0,Indonesia,82296699919.0,,,-1.1933279,119.8924583,https://maps.google.com/?cid=0x0:0xbd270e4d78b586bc,
mall,mall,Kec. Kinovaro,"Kabupaten Sigi, Sulawesi Tengah","Kabupaten Sigi, Sulawesi Tengah",SULAWESI TENGAH,,Indonesia,,,,-0.9532106,119.8381831,https://maps.google.com/?cid=0x0:0x98e9a1405ab12b25,
mall,Pusat Perbelanjaan,XEIGHT Palu Grand Mall,"Grand Mall, Jl. Cumi-Cumi No.77 LT. GF UNIT G - 0150, BUMI BAHARI, Kec. Palu Bar., Kota Palu, Sulawesi Tengah 94221","Jl. Cumi-Cumi No.77 LT. GF UNIT G - 0150, BUMI BAHARI, Kec. Palu Bar., Kota Palu",SULAWESI TENGAH,94221.0,Indonesia,4514134547.0,,,-0.8828723,119.8427211,https://maps.google.com/?cid=0x0:0xd7e6e97d68971afd,
mall,Pusat Perbelanjaan,THE PARK MALL PALU,"4RCP+6RC, Jl. Cumi-Cumi, Silae, Kec. Palu Bar., Kota Palu, Sulawesi Tengah 94227","Jl. Cumi-Cumi, Silae, Kec. Palu Bar., Kota Palu",SULAWESI TENGAH,94227.0,Indonesia,4317554446.0,,,-0.8793749,119.8370341,https://maps.google.com/?cid=0x0:0x32487cdfd5e5d75f,
mall,Pusat Perbelanjaan,Kios nabila/Uwais,"3R3M+993, Balane, Kec. Kinovaro, Kabupaten Sigi, Sulawesi Tengah","Kabupaten Sigi, Sulawesi Tengah",SULAWESI TENGAH,,Indonesia,,,,-0.9466243,119.8334192,https://maps.google.com/?cid=0x0:0x12033fc1fc959291,
mall,mall,Pasar Tangarava,"2VR4+C4V, Padende, Kec. Marawola, Kabupaten Sigi, Sulawesi Tengah 94237","Padende, Kec. Marawola, Kabupaten Sigi",SULAWESI TENGAH,94237.0,Indonesia,85254773799.0,,,-0.958893,119.8553033,https://maps.google.com/?cid=0x0:0x9ae17100aacc9795,
mall,Perumahan,Vera Distributor Nasa,"3V32+V5W, Boyabaliase, Kec. Marawola, Kabupaten Sigi, Sulawesi Tengah 94222","Boyabaliase, Kec. Marawola, Kabupaten Sigi",SULAWESI TENGAH,94222.0,Indonesia,85294425935.0,,,-0.9452966,119.8502498,https://maps.google.com/?cid=0x0:0x6672546224b7715f,
mall,Toko,AllShop,"BTN, Jl. Graha Mutiara No.19 Blok D1, Tinggede Sel., Kec. Marawola, Kabupaten Sigi, Sulawesi Tengah 94222","Jl. Graha Mutiara No.19 Blok D1, Tinggede Sel., Kec. Marawola, Kabupaten Sigi",SULAWESI TENGAH,94222.0,Indonesia,82229300084.0,,,-0.944949,119.8644137,https://maps.google.com/?cid=0x0:0x7ad21c1500b640d8,
mall,Tujuan Wisata,Lembana Sibedi,"2VG5+HM5, Sibedi, Kec. Marawola, Kabupaten Sigi, Sulawesi Tengah 94238","Sibedi, Kec. Marawola, Kabupaten Sigi",SULAWESI TENGAH,94238.0,Indonesia,85254773799.0,,,-0.9736181,119.8592265,https://maps.google.com/?cid=0x0:0x7392504af03ba53f,
mall,Toko Pakaian,ci_store_,"3VC9+J53, Jl. Padat Karya, Tinggede, Kec. Marawola, Kabupaten Sigi, Sulawesi Tengah 94235","Jl. Padat Karya, Tinggede, Kec. Marawola, Kabupaten Sigi",SULAWESI TENGAH,94235.0,Indonesia,,,,-0.9284858,119.867932,https://maps.google.com/?cid=0x0:0xeb1e091bc9fa8277,
mall,Toko,Kios ASNI,"Jl. Poros Palu Bangga No.54, Sibedi, Kec. Marawola, Kabupaten Sigi, Sulawesi Tengah 94238","Sibedi, Kec. Marawola, Kabupaten Sigi",SULAWESI TENGAH,94238.0,Indonesia,82271007791.0,,,-0.976143,119.857168,https://maps.google.com/?cid=0x0:0xb86ba6e817346eae,
mall,Toko bahan makanan,Kios Ari,"2VR3+GW8, Padende, Kec. Marawola, Kabupaten Sigi, Sulawesi Tengah 94237","Padende, Kec. Marawola, Kabupaten Sigi",SULAWESI TENGAH,94237.0,Indonesia,82349241117.0,,,-0.9587054,119.8548416,https://maps.google.com/?cid=0x0:0x3342a7454b036a65,
mall,Pusat Perbelanjaan,Hypermart Palu Grand Mall,"Jl. Diponegoro No.8A, Lere, Kec. Palu Bar., Kota Palu, Sulawesi Tengah 94221","Lere, Kec. Palu Bar., Kota Palu",SULAWESI TENGAH,94221.0,Indonesia,81312097422.0,,,-0.8837991,119.8423758,https://maps.google.com/?cid=0x0:0x9567cc1a06bb61e4,
mall,Toko Kerajinan Tangan,banua flanel,"Jl. Lasaganti No.20, Tinggede, Kec. Marawola, Kabupaten Sigi, Sulawesi Tengah 94235","Tinggede, Kec. Marawola, Kabupaten Sigi",SULAWESI TENGAH,94235.0,Indonesia,85242008940.0,,,-0.9269846,119.8696361,https://maps.google.com/?cid=0x0:0x53e7940fabab3748,
mall,Pusat Perbelanjaan,Naurah shop,"3V89+373, Tinggede, Kec. Marawola, Kabupaten Sigi, Sulawesi Tengah 94235","Tinggede, Kec. Marawola, Kabupaten Sigi",SULAWESI TENGAH,94235.0,Indonesia,,,,-0.9348579,119.8681683,https://maps.google.com/?cid=0x0:0x2efd39fdd81b20cd,
mall,Toko,ILSHOP,"Tinggede Sel., Kec. Marawola, Kabupaten Sigi, Sulawesi Tengah 94235","Kec. Marawola, Kabupaten Sigi",SULAWESI TENGAH,94235.0,Indonesia,85241442772.0,,,-0.9361517,119.8771023,https://maps.google.com/?cid=0x0:0xb249acfa279bd601,
mall,Komplek perumahan,Rumahku Istanaku,"3V47+8G5, Tinggede Sel., Kec. Marawola, Kabupaten Sigi, Sulawesi Tengah","Kabupaten Sigi, Sulawesi Tengah",SULAWESI TENGAH,,Indonesia,,,,-0.9446277,119.8636963,https://maps.google.com/?cid=0x0:0x72cbf0db445543ae,
mall,Pusat Perbelanjaan,Plaza Palu,"Komplek Palu Plaza, Jl. Sis AlJufri, Blok IV, Siranindi, Kec. Ulujadi, Kota Palu, Sulawesi Tengah 94111","Jl. Sis AlJufri, Blok IV, Siranindi, Kec. Ulujadi, Kota Palu",SULAWESI TENGAH,94111.0,Indonesia,,,,-0.8993996,119.8607805,https://maps.google.com/?cid=0x0:0xc5f25dc5c9bc56bd,
mall,Pusat Perbelanjaan,Cinema XXI - Palu Grand Mall,"Grand Mall, lt 3, Jl. Diponegoro No.77, Lere, Palu Barat, Palu City, Central Sulawesi 94111","lt 3, Jl. Diponegoro No.77, Lere, Palu Barat, Palu City",SULAWESI TENGAH,94111.0,Indonesia,4514131021.0,,,-0.8837456,119.8432083,https://maps.google.com/?cid=0x0:0xcd283a995bf07939,
mall,Toko Pakaian,Naila jaya,"3V84+GC8, Jl. Poros Palu Bangga, Baliase, Kec. Marawola, Kabupaten Sigi, Sulawesi Tengah 94222","Jl. Poros Palu Bangga, Baliase, Kec. Marawola, Kabupaten Sigi",SULAWESI TENGAH,94222.0,Indonesia,82262693069.0,,,-0.9336686,119.8560944,https://maps.google.com/?cid=0x0:0x4c6f5c5468157595,
mall,Pusat Perbelanjaan,Chivousmn.id,"Jl. Mangga Lrg. III, Pengawu, Kec. Tatanga, Kota Palu, Sulawesi Tengah 94222","Pengawu, Kec. Tatanga, Kota Palu",SULAWESI TENGAH,94222.0,Indonesia,85242410645.0,,,-0.919802,119.8486586,https://maps.google.com/?cid=0x0:0xfee146113f2518bf,
mall,Pusat Perbelanjaan,Kios Fadhalna,"2V66+2R4, Jl. Poros Palu Bangga, Beka, Kec. Marawola, Kabupaten Sigi, Sulawesi Tengah 94362","Jl. Poros Palu Bangga, Beka, Kec. Marawola, Kabupaten Sigi",SULAWESI TENGAH,94362.0,Indonesia,,,,-0.9899896,119.8620854,https://maps.google.com/?cid=0x0:0x36421269eb868dae,
mall,Toko,Ann shop marawola,"Baliase, Kec. Marawola, Kabupaten Sigi, Sulawesi Tengah 94222","Kec. Marawola, Kabupaten Sigi",SULAWESI TENGAH,94222.0,Indonesia,82292560622.0,,,-0.9459695,119.8535776,https://maps.google.com/?cid=0x0:0x142cb1369203eca2,
mall,Pusat Perbelanjaan,Mall Of Indonesia,"Jl. Boulevard Bar. Raya No.12, RT.18/RW.19, Klp. Gading Bar., Kec. Klp. Gading, Jkt Utara, Daerah Khusus Ibukota Jakarta 14240","RT.18/RW.19, Klp. Gading Bar., Kec. Klp. Gading, Jkt Utara",SULAWESI TENGAH,14240.0,Indonesia,2145867888.0,,,-6.1514549,106.8918949,https://maps.google.com/?cid=0x0:0x3431c7aaadd1f1b6,
mall,Restoran,Mall Cijantung,"MVP6+XRC, Jl. Pendidikan, RT.1/RW.4, Cijantung, Kec. Ps. Rebo, Kota Jakarta Timur, Daerah Khusus Ibukota Jakarta 13770","Jl. Pendidikan, RT.1/RW.4, Cijantung, Kec. Ps. Rebo, Kota Jakarta Timur",SULAWESI TENGAH,13770.0,Indonesia,85891111850.0,,,-6.312566,106.8620154,https://maps.google.com/?cid=0x0:0x8ad235b0fa732cad,
mall,Pusat Perbelanjaan,TRANSMART,"Jl. Pendidikan Jl. Jati No.1, RT.1/RW.4, Cijantung, Kec. Ps. Rebo, Kota Jakarta Timur, Daerah Khusus Ibukota Jakarta 13770","RT.1/RW.4, Cijantung, Kec. Ps. Rebo, Kota Jakarta Timur",SULAWESI TENGAH,13770.0,Indonesia,,,,-6.3125475,106.8617655,https://maps.google.com/?cid=0x0:0x116cf2decb30fd3f,
mall,mall,Sulawesi Tengah 94363,"Kabupaten Sigi, Sulawesi Tengah","Kabupaten Sigi, Sulawesi Tengah",SULAWESI TENGAH,,Indonesia,,,,-1.5208341,119.8815203,https://maps.google.com/?cid=0x0:0xdeb8c8aa1833cdca,
mall,Komplek perumahan,Rumah Pak Mustamin,"Jl. Poros Palu- Kulawi No.62.B, Bolapapu, Kec. Kulawi, Kabupaten Sigi, Sulawesi Tengah 94363","Bolapapu, Kec. Kulawi, Kabupaten Sigi",SULAWESI TENGAH,94363.0,Indonesia,85399191919.0,,,-1.4387647,119.986962,https://maps.google.com/?cid=0x0:0x4e11c795509835bd,
mall,Kantor Pemerintahan Regional,PERTOKOAN DESA TOMUA,"929Q+QPM, Tomua, Kec. Kulawi Sel., Kabupaten Sigi, Sulawesi Tengah 94363","Tomua, Kec. Kulawi Sel., Kabupaten Sigi",SULAWESI TENGAH,94363.0,Indonesia,,,,-1.6305304,120.0392893,https://maps.google.com/?cid=0x0:0x146f0688a87687da,
mall,Toko,Kios clara,"924R+FVW, Lempelero, Kec. Kulawi Sel., Kabupaten Sigi, Sulawesi Tengah 94112","Lempelero, Kec. Kulawi Sel., Kabupaten Sigi",SULAWESI TENGAH,94112.0,Indonesia,81288520080.0,,,-1.6437641,120.0422041,https://maps.google.com/?cid=0x0:0x9972c122dd31fcc0,
mall,Pusat Perbelanjaan,ARDY JAYA {mama ardy},"929Q+R24, Tomua, Kec. Kulawi Sel., Kabupaten Sigi, Sulawesi Tengah 94363","Tomua, Kec. Kulawi Sel., Kabupaten Sigi",SULAWESI TENGAH,94363.0,Indonesia,,,,-1.6304993,120.0375763,https://maps.google.com/?cid=0x0:0x88b0cd854611c7fa,
mall,Toko Perlengkapan Rumah,Ecin Olshop Campuran,"JV7J+JJ2, Salua, Kec. Kulawi, Kabupaten Sigi, Sulawesi Tengah","Kabupaten Sigi, Sulawesi Tengah",SULAWESI TENGAH,,Indonesia,,,,-1.3859904,119.8815203,https://maps.google.com/?cid=0x0:0x69a544fe164be2f7,
mall,Kios,Toko Shafar,"92GR+H6C, Lawua, Kec. Kulawi Sel., Kabupaten Sigi, Sulawesi Tengah","Kabupaten Sigi, Sulawesi Tengah",SULAWESI TENGAH,,Indonesia,,,,-1.6235545,120.0405106,https://maps.google.com/?cid=0x0:0xa6afc751a4432531,
mall,Toko Ponsel,Kartu Internet Telkomsel,"QWCW+F9M, Jl. Poros Palu - Kulawi, Pakuli, Kec. Gumbasa, Kabupaten Sigi, Sulawesi Tengah 94361","Jl. Poros Palu - Kulawi, Pakuli, Kec. Gumbasa, Kabupaten Sigi",SULAWESI TENGAH,94361.0,Indonesia,85255944443.0,,,-1.2287969,119.9459088,https://maps.google.com/?cid=0x0:0xd7c6f60b8551ef9b,
mall,mall,E-WARONG IKSAN,"HXQH+XJX, Unnamed Road, Namo, Kec. Kulawi, Kabupaten Sigi, Sulawesi Tengah 94363","Unnamed Road, Namo, Kec. Kulawi, Kabupaten Sigi",SULAWESI TENGAH,94363.0,Indonesia,,,,-1.4100161,119.9791192,https://maps.google.com/?cid=0x0:0x9386da7147e7ce54,
mall,mall,Kec. Kulawi Sel.,"Kabupaten Sigi, Sulawesi Tengah","Kabupaten Sigi, Sulawesi Tengah",SULAWESI TENGAH,,Indonesia,,,,-1.6101964,120.0395124,https://maps.google.com/?cid=0x0:0x2e68e52f1c51cd88,
mall,Minimarket,Toko fadlan,"92QQ+MXJ, Lawua, Kec. Kulawi Sel., Kabupaten Sigi, Sulawesi Tengah 94363","Lawua, Kec. Kulawi Sel., Kabupaten Sigi",SULAWESI TENGAH,94363.0,Indonesia,,,,-1.6107869,120.0398904,https://maps.google.com/?cid=0x0:0xd81a223e49564ec8,
mall,Kantor Pemerintahan Regional,PERTOKOAN DESA TOMUA,"929Q+QPM, Tomua, Kec. Kulawi Sel., Kabupaten Sigi, Sulawesi Tengah 94363","Tomua, Kec. Kulawi Sel., Kabupaten Sigi",SULAWESI TENGAH,94363.0,Indonesia,,,,-1.6305304,120.0392893,https://maps.google.com/?cid=0x0:0x146f0688a87687da,
mall,Pusat Perbelanjaan,ARDY JAYA {mama ardy},"929Q+R24, Tomua, Kec. Kulawi Sel., Kabupaten Sigi, Sulawesi Tengah 94363","Tomua, Kec. Kulawi Sel., Kabupaten Sigi",SULAWESI TENGAH,94363.0,Indonesia,,,,-1.6304993,120.0375763,https://maps.google.com/?cid=0x0:0x88b0cd854611c7fa,
mall,Kios,Toko Shafar,"92GR+H6C, Lawua, Kec. Kulawi Sel., Kabupaten Sigi, Sulawesi Tengah","Kabupaten Sigi, Sulawesi Tengah",SULAWESI TENGAH,,Indonesia,,,,-1.6235545,120.0405106,https://maps.google.com/?cid=0x0:0xa6afc751a4432531,
mall,mall,Toko Lela Lawua,"92QR+H4R, Lawua, Kec. Kulawi Sel., Kabupaten Sigi, Sulawesi Tengah 94363","Lawua, Kec. Kulawi Sel., Kabupaten Sigi",SULAWESI TENGAH,94363.0,Indonesia,,,,-1.6110188,120.0402629,https://maps.google.com/?cid=0x0:0xa9fc76dca7f5864b,
mall,mall,Sulawesi Tengah 94363,"Kabupaten Sigi, Sulawesi Tengah","Kabupaten Sigi, Sulawesi Tengah",SULAWESI TENGAH,,Indonesia,,,,-1.5208341,119.8815203,https://maps.google.com/?cid=0x0:0xdeb8c8aa1833cdca,
mall,Hutan Nasional,Taman Nasional Lore Lindu,"G5GQ+2H8, Dodolo, Sulawesi Tengah",Sulawesi Tengah,SULAWESI TENGAH,,Indonesia,451457623.0,,,-1.4749503,120.1889421,https://maps.google.com/?cid=0x0:0xfff2d0319faff404,
mall,Pusat Perbelanjaan,XEIGHT Palu Grand Mall,"Grand Mall, Jl. Cumi-Cumi No.77 LT. GF UNIT G - 0150, BUMI BAHARI, Kec. Palu Bar., Kota Palu, Sulawesi Tengah 94221","Jl. Cumi-Cumi No.77 LT. GF UNIT G - 0150, BUMI BAHARI, Kec. Palu Bar., Kota Palu",SULAWESI TENGAH,94221.0,Indonesia,4514134547.0,,,-0.8828723,119.8427211,https://maps.google.com/?cid=0x0:0xd7e6e97d68971afd,
mall,Minimarket,Toko fadlan,"92QQ+MXJ, Lawua, Kec. Kulawi Sel., Kabupaten Sigi, Sulawesi Tengah 94363","Lawua, Kec. Kulawi Sel., Kabupaten Sigi",SULAWESI TENGAH,94363.0,Indonesia,,,,-1.6107869,120.0398904,https://maps.google.com/?cid=0x0:0xd81a223e49564ec8,
mall,Toko,Kios clara,"924R+FVW, Lempelero, Kec. Kulawi Sel., Kabupaten Sigi, Sulawesi Tengah 94112","Lempelero, Kec. Kulawi Sel., Kabupaten Sigi",SULAWESI TENGAH,94112.0,Indonesia,81288520080.0,,,-1.6437641,120.0422041,https://maps.google.com/?cid=0x0:0x9972c122dd31fcc0,
mall,Kantor Pemerintahan Regional,PERTOKOAN DESA TOMUA,"929Q+QPM, Tomua, Kec. Kulawi Sel., Kabupaten Sigi, Sulawesi Tengah 94363","Tomua, Kec. Kulawi Sel., Kabupaten Sigi",SULAWESI TENGAH,94363.0,Indonesia,,,,-1.6305304,120.0392893,https://maps.google.com/?cid=0x0:0x146f0688a87687da,
mall,Toko Perlengkapan Rumah,Ecin Olshop Campuran,"JV7J+JJ2, Salua, Kec. Kulawi, Kabupaten Sigi, Sulawesi Tengah","Kabupaten Sigi, Sulawesi Tengah",SULAWESI TENGAH,,Indonesia,,,,-1.3859904,119.8815203,https://maps.google.com/?cid=0x0:0x69a544fe164be2f7,
mall,Komplek perumahan,Rumah Pak Mustamin,"Jl. Poros Palu- Kulawi No.62.B, Bolapapu, Kec. Kulawi, Kabupaten Sigi, Sulawesi Tengah 94363","Bolapapu, Kec. Kulawi, Kabupaten Sigi",SULAWESI TENGAH,94363.0,Indonesia,85399191919.0,,,-1.4387647,119.986962,https://maps.google.com/?cid=0x0:0x4e11c795509835bd,
mall,Kios,Toko Shafar,"92GR+H6C, Lawua, Kec. Kulawi Sel., Kabupaten Sigi, Sulawesi Tengah","Kabupaten Sigi, Sulawesi Tengah",SULAWESI TENGAH,,Indonesia,,,,-1.6235545,120.0405106,https://maps.google.com/?cid=0x0:0xa6afc751a4432531,
mall,Kios,Amoura Mart,"V348+485, Ranteleda, Kec. Palolo, Kabupaten Sigi, Sulawesi Tengah","Kabupaten Sigi, Sulawesi Tengah",SULAWESI TENGAH,,Indonesia,,,,-1.1447436,120.0658632,https://maps.google.com/?cid=0x0:0x65cb029784e98ce7,
mall,Pusat Perbelanjaan,THE PARK MALL PALU,"4RCP+6RC, Jl. Cumi-Cumi, Silae, Kec. Palu Bar., Kota Palu, Sulawesi Tengah 94227","Jl. Cumi-Cumi, Silae, Kec. Palu Bar., Kota Palu",SULAWESI TENGAH,94227.0,Indonesia,4317554446.0,,,-0.8793749,119.8370341,https://maps.google.com/?cid=0x0:0x32487cdfd5e5d75f,
mall,mall,BANANI LALUNDU1,"Jl perintis lalundu No.1, Minti Makmur, Kec. Rio Pakava, Kabupaten Donggala, Sulawesi Tengah 83175","Minti Makmur, Kec. Rio Pakava, Kabupaten Donggala",SULAWESI TENGAH,83175.0,Indonesia,82188285657.0,,,-1.3342827,119.5307739,https://maps.google.com/?cid=0x0:0x45c39b6470de49be,
mall,Kios,Kios Egi,"PWWM+27G, Jl. Poros Palu Bangga, Bangga, Kec. Dolo Sel., Kabupaten Sigi, Sulawesi Tengah 94361","Jl. Poros Palu Bangga, Bangga, Kec. Dolo Sel., Kabupaten Sigi",SULAWESI TENGAH,94361.0,Indonesia,,,,-1.2549381,119.9331948,https://maps.google.com/?cid=0x0:0x11c3ae18fbc87ca6,
mall,China,Ramayana Mall,"4V39+9QJ, Jl. Sudirman, Besusu Bar., Kec. Palu Sel., Kota Palu, Sulawesi Tengah 94111","Jl. Sudirman, Besusu Bar., Kec. Palu Sel., Kota Palu",SULAWESI TENGAH,94111.0,Indonesia,,,,-0.8965364,119.8693777,https://maps.google.com/?cid=0x0:0x5d679ad85882cd3d,
mall,Toko Ponsel,Kartu Internet Telkomsel,"QWCW+F9M, Jl. Poros Palu - Kulawi, Pakuli, Kec. Gumbasa, Kabupaten Sigi, Sulawesi Tengah 94361","Jl. Poros Palu - Kulawi, Pakuli, Kec. Gumbasa, Kabupaten Sigi",SULAWESI TENGAH,94361.0,Indonesia,85255944443.0,,,-1.2287969,119.9459088,https://maps.google.com/?cid=0x0:0xd7c6f60b8551ef9b,
mall,Pusat Perbelanjaan,"Toko Sendal,tas, DLL","H8H7+C83, Wuasa, Kec. Lore Utara, Kabupaten Poso, Sulawesi Tengah 94653","Wuasa, Kec. Lore Utara, Kabupaten Poso",SULAWESI TENGAH,94653.0,Indonesia,,,,-1.4214903,120.3132916,https://maps.google.com/?cid=0x0:0xd0eacbefc11b199e,
mall,mall,Dusun sangali,"M49J+JRV, Olu, Kec. Lindu, Kabupaten Sigi, Sulawesi Tengah","Kabupaten Sigi, Sulawesi Tengah",SULAWESI TENGAH,,Indonesia,,,,-1.3308835,120.1320544,https://maps.google.com/?cid=0x0:0xd4039a898ae6c921,
mall,Pusat Perbelanjaan,Poso City Mall,"Jl. Pulau Sabang No.72, Kayamanya, Kec. Poso Kota, Kabupaten Poso, Sulawesi Tengah 94611","Kayamanya, Kec. Poso Kota, Kabupaten Poso",SULAWESI TENGAH,94611.0,Indonesia,,,,-1.3871945,120.7405742,https://maps.google.com/?cid=0x0:0x5566dc5bacc8cb0c,
mall,Pusat Perbelanjaan,Mall Of Indonesia,"Jl. Boulevard Bar. Raya No.12, RT.18/RW.19, Klp. Gading Bar., Kec. Klp. Gading, Jkt Utara, Daerah Khusus Ibukota Jakarta 14240","RT.18/RW.19, Klp. Gading Bar., Kec. Klp. Gading, Jkt Utara",SULAWESI TENGAH,14240.0,Indonesia,2145867888.0,,,-6.1514549,106.8918949,https://maps.google.com/?cid=0x0:0x3431c7aaadd1f1b6,
mall,Pusat Perbelanjaan,Grand Indonesia,"Jl. MH Thamrin No.1, Menteng, Kec. Menteng, Kota Jakarta Pusat, Daerah Khusus Ibukota Jakarta 10310","Menteng, Kec. Menteng, Kota Jakarta Pusat",SULAWESI TENGAH,10310.0,Indonesia,2123580001.0,,,-6.1950412,106.8210081,https://maps.google.com/?cid=0x0:0xb04ce66a7cb711d9,
mall,Pusat Perbelanjaan,ASHTA District 8,"Jl. Senopati No.83, Senayan, Kec. Kby. Baru, Kota Jakarta Selatan, Daerah Khusus Ibukota Jakarta 12190","Senayan, Kec. Kby. Baru, Kota Jakarta Selatan",SULAWESI TENGAH,12190.0,Indonesia,2150262888.0,,,-6.229976,106.8070846,https://maps.google.com/?cid=0x0:0x1042cab307c13c5f,
mall,Toko Elektronik,LTC Glodok Hayam Wuruk,"Jl. Hayam Wuruk No.127, RT.1/RW.6, Mangga Besar, Kec. Taman Sari, Kota Jakarta Barat, Daerah Khusus Ibukota Jakarta 11180","RT.1/RW.6, Mangga Besar, Kec. Taman Sari, Kota Jakarta Barat",SULAWESI TENGAH,11180.0,Indonesia,2162317000.0,,,-6.1462191,106.816678,https://maps.google.com/?cid=0x0:0x13e44fe2511240e6,
mall,Pusat Perbelanjaan,Mall Taman Palem,"Jl. Kamal Raya Outer Ring Road, Cengkareng Tim., Kecamatan Cengkareng, Kota Jakarta Barat, Daerah Khusus Ibukota Jakarta 11730","Cengkareng Tim., Kecamatan Cengkareng, Kota Jakarta Barat",SULAWESI TENGAH,11730.0,Indonesia,,,,-6.1394461,106.7308668,https://maps.google.com/?cid=0x0:0xb4b487d720269809,
mall,Pusat Perbelanjaan,Mall Artha Gading Jakarta,"Jl. Artha Gading Sel. No.1, Klp. Gading Bar., Kec. Klp. Gading, Jkt Utara, Daerah Khusus Ibukota Jakarta 14240","Klp. Gading Bar., Kec. Klp. Gading, Jkt Utara",SULAWESI TENGAH,14240.0,Indonesia,2145864000.0,,,-6.1457739,106.8919187,https://maps.google.com/?cid=0x0:0x176166b3d087c724,
mall,mall,Kec. Marawola,"Kabupaten Sigi, Sulawesi Tengah","Kabupaten Sigi, Sulawesi Tengah",SULAWESI TENGAH,,Indonesia,,,,-0.9555175,119.8550313,https://maps.google.com/?cid=0x0:0x5fea2d25cfdec4a9,
mall,Pusat Perbelanjaan,XEIGHT Palu Grand Mall,"Grand Mall, Jl. Cumi-Cumi No.77 LT. GF UNIT G - 0150, BUMI BAHARI, Kec. Palu Bar., Kota Palu, Sulawesi Tengah 94221","Jl. Cumi-Cumi No.77 LT. GF UNIT G - 0150, BUMI BAHARI, Kec. Palu Bar., Kota Palu",SULAWESI TENGAH,94221.0,Indonesia,4514134547.0,,,-0.8828723,119.8427211,https://maps.google.com/?cid=0x0:0xd7e6e97d68971afd,
mall,Kios,CLEOSHOP,"Desa Beka No. 75 (Depan Lapangan Bola, Kec. Marawola, Kabupaten Sigi, Sulawesi Tengah 94372","Kec. Marawola, Kabupaten Sigi",SULAWESI TENGAH,94372.0,Indonesia,82229300084.0,,,-0.9862635,119.8628325,https://maps.google.com/?cid=0x0:0xc03679a9a5bf2dde,
mall,Toko,ILSHOP,"Tinggede Sel., Kec. Marawola, Kabupaten Sigi, Sulawesi Tengah 94235","Kec. Marawola, Kabupaten Sigi",SULAWESI TENGAH,94235.0,Indonesia,85241442772.0,,,-0.9361517,119.8771023,https://maps.google.com/?cid=0x0:0xb249acfa279bd601,
mall,Pusat Perbelanjaan,Naurah shop,"3V89+373, Tinggede, Kec. Marawola, Kabupaten Sigi, Sulawesi Tengah 94235","Tinggede, Kec. Marawola, Kabupaten Sigi",SULAWESI TENGAH,94235.0,Indonesia,,,,-0.9348579,119.8681683,https://maps.google.com/?cid=0x0:0x2efd39fdd81b20cd,
mall,mall,Pasar Tangarava,"2VR4+C4V, Padende, Kec. Marawola, Kabupaten Sigi, Sulawesi Tengah 94237","Padende, Kec. Marawola, Kabupaten Sigi",SULAWESI TENGAH,94237.0,Indonesia,85254773799.0,,,-0.958893,119.8553033,https://maps.google.com/?cid=0x0:0x9ae17100aacc9795,
mall,Toko Kerajinan Tangan,banua flanel,"Jl. Lasaganti No.20, Tinggede, Kec. Marawola, Kabupaten Sigi, Sulawesi Tengah 94235","Tinggede, Kec. Marawola, Kabupaten Sigi",SULAWESI TENGAH,94235.0,Indonesia,85242008940.0,,,-0.9269846,119.8696361,https://maps.google.com/?cid=0x0:0x53e7940fabab3748,
mall,Toko,Ann shop marawola,"Baliase, Kec. Marawola, Kabupaten Sigi, Sulawesi Tengah 94222","Kec. Marawola, Kabupaten Sigi",SULAWESI TENGAH,94222.0,Indonesia,82292560622.0,,,-0.9459695,119.8535776,https://maps.google.com/?cid=0x0:0x142cb1369203eca2,
mall,Kantor Perusahaan,Pusat Ole2 Kripik Fiqra,"3V89+C2W, Tinggede, Kec. Marawola, Kabupaten Sigi, Sulawesi Tengah 94235","Tinggede, Kec. Marawola, Kabupaten Sigi",SULAWESI TENGAH,94235.0,Indonesia,82188188891.0,,,-0.9338978,119.8675817,https://maps.google.com/?cid=0x0:0x381b8ca2c9a0e60e,
mall,Toko Kosmetik,Outlet Annisa Humairrah,"3V5C+8M6, Tinggede Sel., Kec. Marawola, Kabupaten Sigi, Sulawesi Tengah 94222","Tinggede Sel., Kec. Marawola, Kabupaten Sigi",SULAWESI TENGAH,94222.0,Indonesia,,,,-0.9417226,119.8716358,https://maps.google.com/?cid=0x0:0x1364542c4c229c15,
mall,Perumahan,Vera Distributor Nasa,"3V32+V5W, Boyabaliase, Kec. Marawola, Kabupaten Sigi, Sulawesi Tengah 94222","Boyabaliase, Kec. Marawola, Kabupaten Sigi",SULAWESI TENGAH,94222.0,Indonesia,85294425935.0,,,-0.9452966,119.8502498,https://maps.google.com/?cid=0x0:0x6672546224b7715f,
mall,Toko,AllShop,"BTN, Jl. Graha Mutiara No.19 Blok D1, Tinggede Sel., Kec. Marawola, Kabupaten Sigi, Sulawesi Tengah 94222","Jl. Graha Mutiara No.19 Blok D1, Tinggede Sel., Kec. Marawola, Kabupaten Sigi",SULAWESI TENGAH,94222.0,Indonesia,82229300084.0,,,-0.944949,119.8644137,https://maps.google.com/?cid=0x0:0x7ad21c1500b640d8,
mall,Kios,Kios Aira,"XVX7+723, Beka, Kec. Marawola, Kabupaten Sigi, Sulawesi Tengah 94362","Beka, Kec. Marawola, Kabupaten Sigi",SULAWESI TENGAH,94362.0,Indonesia,,,,-1.0018515,119.8625332,https://maps.google.com/?cid=0x0:0x5a401c767de65caa,
mall,Tujuan Wisata,Lembana Sibedi,"2VG5+HM5, Sibedi, Kec. Marawola, Kabupaten Sigi, Sulawesi Tengah 94238","Sibedi, Kec. Marawola, Kabupaten Sigi",SULAWESI TENGAH,94238.0,Indonesia,85254773799.0,,,-0.9736181,119.8592265,https://maps.google.com/?cid=0x0:0x7392504af03ba53f,
mall,Pusat Perbelanjaan,THE PARK MALL PALU,"4RCP+6RC, Jl. Cumi-Cumi, Silae, Kec. Palu Bar., Kota Palu, Sulawesi Tengah 94227","Jl. Cumi-Cumi, Silae, Kec. Palu Bar., Kota Palu",SULAWESI TENGAH,94227.0,Indonesia,4317554446.0,,,-0.8793749,119.8370341,https://maps.google.com/?cid=0x0:0x32487cdfd5e5d75f,
mall,Pusat Perbelanjaan,SAIFA SHOP,"3V97+PWC, Unnamed Road, Tinggede, Kec. Marawola, Kabupaten Sigi, Sulawesi Tengah 94235","Unnamed Road, Tinggede, Kec. Marawola, Kabupaten Sigi",SULAWESI TENGAH,94235.0,Indonesia,82122155354.0,,,-0.9306892,119.8647769,https://maps.google.com/?cid=0x0:0x3d74082a53dae7df,
mall,Pusat Perbelanjaan,FR shop,"3V97+QVW, Tinggede, Kec. Marawola, Kabupaten Sigi, Sulawesi Tengah 94235","Tinggede, Kec. Marawola, Kabupaten Sigi",SULAWESI TENGAH,94235.0,Indonesia,82122155354.0,,,-0.9305094,119.8647168,https://maps.google.com/?cid=0x0:0xc4e67472bda0edfa,
mall,Toko Kue,Rajata bakery,"3VCC+VPM, Tinggede, Kec. Marawola, Kabupaten Sigi, Sulawesi Tengah 94235","Tinggede, Kec. Marawola, Kabupaten Sigi",SULAWESI TENGAH,94235.0,Indonesia,,,,-0.9277815,119.8718107,https://maps.google.com/?cid=0x0:0xc6f965f03b9dab50,
mall,Toko Pakaian,Naila jaya,"3V84+GC8, Jl. Poros Palu Bangga, Baliase, Kec. Marawola, Kabupaten Sigi, Sulawesi Tengah 94222","Jl. Poros Palu Bangga, Baliase, Kec. Marawola, Kabupaten Sigi",SULAWESI TENGAH,94222.0,Indonesia,82262693069.0,,,-0.9336686,119.8560944,https://maps.google.com/?cid=0x0:0x4c6f5c5468157595,
mall,Toko Elektronik,RADIT STORE PALU (CABANG TOMBOLOTUTU),"Jl. I Gusti Ngurah Rai No.28, Tawanjuka, Kec. Tatanga, Kota Palu, Sulawesi Tengah 94127","Tawanjuka, Kec. Tatanga, Kota Palu",SULAWESI TENGAH,94127.0,Indonesia,81341413663.0,,,-0.9224846,119.8681926,https://maps.google.com/?cid=0x0:0xe9bd8cb1fb58df8f,
mall,Toko,Adjie cell,"3VFF+PF6, Unnamed Road, Tinggede, Kec. Marawola, Kabupaten Sigi, Sulawesi Tengah 94235","Unnamed Road, Tinggede, Kec. Marawola, Kabupaten Sigi",SULAWESI TENGAH,94235.0,Indonesia,82111656777.0,,,-0.9257034,119.873636,https://maps.google.com/?cid=0x0:0xa605ef240bf30b6c,
mall,Toko umum,AQILAH HANDMADE,"BTN Griya Excotic Recidence 3 Blok AÂ³, Jl. Lasaganti No.19, Tinggede, Kec. Marawola, Kabupaten Sigi, Sulawesi Tengah 94235","Jl. Lasaganti No.19, Tinggede, Kec. Marawola, Kabupaten Sigi",SULAWESI TENGAH,94235.0,Indonesia,,,,-0.9359311,119.8696557,https://maps.google.com/?cid=0x0:0xed9971f765ab3bb,
mall,Pusat Perbelanjaan,Kios Fadhalna,"2V66+2R4, Jl. Poros Palu Bangga, Beka, Kec. Marawola, Kabupaten Sigi, Sulawesi Tengah 94362","Jl. Poros Palu Bangga, Beka, Kec. Marawola, Kabupaten Sigi",SULAWESI TENGAH,94362.0,Indonesia,,,,-0.9899896,119.8620854,https://maps.google.com/?cid=0x0:0x36421269eb868dae,
mall,Pusat Perbelanjaan,Nugra shop,"BTN. Tinggede permai blok mm5 no.7, Tinggede, Kec. Marawola, Kabupaten Sigi, Sulawesi Tengah 94235","Tinggede, Kec. Marawola, Kabupaten Sigi",SULAWESI TENGAH,94235.0,Indonesia,82292724701.0,,,-0.9283678,119.8728421,https://maps.google.com/?cid=0x0:0xf7005766acc779a9,
mall,Toko Herbal,DISTRIBUTOR HNI HPAI PALU,"BTN BUMI TINGGEDE INDAH 2, JL.Rapolinja, Blk. D No.10, Kabupaten Sigi, Sulawesi Tengah 94362","JL.Rapolinja, Blk. D No.10, Kabupaten Sigi",SULAWESI TENGAH,94362.0,Indonesia,85215262121.0,,,-0.9275078,119.8751715,https://maps.google.com/?cid=0x0:0xa2ea3f2f1980759a,
mall,mall,,,,SULAWESI TENGAH,,Indonesia,,,,,,https://maps.google.com/?cid=0x0:0xb7948086e4538741,
mall,Pusat Perbelanjaan,XEIGHT Palu Grand Mall,"Grand Mall, Jl. Cumi-Cumi No.77 LT. GF UNIT G - 0150, BUMI BAHARI, Kec. Palu Bar., Kota Palu, Sulawesi Tengah 94221","Jl. Cumi-Cumi No.77 LT. GF UNIT G - 0150, BUMI BAHARI, Kec. Palu Bar., Kota Palu",SULAWESI TENGAH,94221.0,Indonesia,4514134547.0,,,-0.8828723,119.8427211,https://maps.google.com/?cid=0x0:0xd7e6e97d68971afd,
mall,Toko umum,Mall RM Shop,"Bukit Baliase Indah Blok. M18, Baliase, Kec. Marawola, Kabupaten Sigi, Sulawesi Tengah","Kabupaten Sigi, Sulawesi Tengah",SULAWESI TENGAH,,Indonesia,,,,-0.941236,119.8504996,https://maps.google.com/?cid=0x0:0x9b7417f4631079e9,
mall,mall,Pasar Tangarava,"2VR4+C4V, Padende, Kec. Marawola, Kabupaten Sigi, Sulawesi Tengah 94237","Padende, Kec. Marawola, Kabupaten Sigi",SULAWESI TENGAH,94237.0,Indonesia,85254773799.0,,,-0.958893,119.8553033,https://maps.google.com/?cid=0x0:0x9ae17100aacc9795,
mall,Toko,Ann shop marawola,"Baliase, Kec. Marawola, Kabupaten Sigi, Sulawesi Tengah 94222","Kec. Marawola, Kabupaten Sigi",SULAWESI TENGAH,94222.0,Indonesia,82292560622.0,,,-0.9459695,119.8535776,https://maps.google.com/?cid=0x0:0x142cb1369203eca2,
mall,Pusat Perbelanjaan,Naurah shop,"3V89+373, Tinggede, Kec. Marawola, Kabupaten Sigi, Sulawesi Tengah 94235","Tinggede, Kec. Marawola, Kabupaten Sigi",SULAWESI TENGAH,94235.0,Indonesia,,,,-0.9348579,119.8681683,https://maps.google.com/?cid=0x0:0x2efd39fdd81b20cd,
mall,Toko Kerajinan Tangan,banua flanel,"Jl. Lasaganti No.20, Tinggede, Kec. Marawola, Kabupaten Sigi, Sulawesi Tengah 94235","Tinggede, Kec. Marawola, Kabupaten Sigi",SULAWESI TENGAH,94235.0,Indonesia,85242008940.0,,,-0.9269846,119.8696361,https://maps.google.com/?cid=0x0:0x53e7940fabab3748,
mall,Toko,ILSHOP,"Tinggede Sel., Kec. Marawola, Kabupaten Sigi, Sulawesi Tengah 94235","Kec. Marawola, Kabupaten Sigi",SULAWESI TENGAH,94235.0,Indonesia,85241442772.0,,,-0.9361517,119.8771023,https://maps.google.com/?cid=0x0:0xb249acfa279bd601,
mall,Perumahan,Vera Distributor Nasa,"3V32+V5W, Boyabaliase, Kec. Marawola, Kabupaten Sigi, Sulawesi Tengah 94222","Boyabaliase, Kec. Marawola, Kabupaten Sigi",SULAWESI TENGAH,94222.0,Indonesia,85294425935.0,,,-0.9452966,119.8502498,https://maps.google.com/?cid=0x0:0x6672546224b7715f,
mall,Tujuan Wisata,Lembana Sibedi,"2VG5+HM5, Sibedi, Kec. Marawola, Kabupaten Sigi, Sulawesi Tengah 94238","Sibedi, Kec. Marawola, Kabupaten Sigi",SULAWESI TENGAH,94238.0,Indonesia,85254773799.0,,,-0.9736181,119.8592265,https://maps.google.com/?cid=0x0:0x7392504af03ba53f,
mall,Toko Pakaian,ci_store_,"3VC9+J53, Jl. Padat Karya, Tinggede, Kec. Marawola, Kabupaten Sigi, Sulawesi Tengah 94235","Jl. Padat Karya, Tinggede, Kec. Marawola, Kabupaten Sigi",SULAWESI TENGAH,94235.0,Indonesia,,,,-0.9284858,119.867932,https://maps.google.com/?cid=0x0:0xeb1e091bc9fa8277,
mall,Toko,AllShop,"BTN, Jl. Graha Mutiara No.19 Blok D1, Tinggede Sel., Kec. Marawola, Kabupaten Sigi, Sulawesi Tengah 94222","Jl. Graha Mutiara No.19 Blok D1, Tinggede Sel., Kec. Marawola, Kabupaten Sigi",SULAWESI TENGAH,94222.0,Indonesia,82229300084.0,,,-0.944949,119.8644137,https://maps.google.com/?cid=0x0:0x7ad21c1500b640d8,
mall,Kantor Perusahaan,Pusat Ole2 Kripik Fiqra,"3V89+C2W, Tinggede, Kec. Marawola, Kabupaten Sigi, Sulawesi Tengah 94235","Tinggede, Kec. Marawola, Kabupaten Sigi",SULAWESI TENGAH,94235.0,Indonesia,82188188891.0,,,-0.9338978,119.8675817,https://maps.google.com/?cid=0x0:0x381b8ca2c9a0e60e,
mall,Toko Kue,Rajata bakery,"3VCC+VPM, Tinggede, Kec. Marawola, Kabupaten Sigi, Sulawesi Tengah 94235","Tinggede, Kec. Marawola, Kabupaten Sigi",SULAWESI TENGAH,94235.0,Indonesia,,,,-0.9277815,119.8718107,https://maps.google.com/?cid=0x0:0xc6f965f03b9dab50,
mall,Toko Pakaian,Naila jaya,"3V84+GC8, Jl. Poros Palu Bangga, Baliase, Kec. Marawola, Kabupaten Sigi, Sulawesi Tengah 94222","Jl. Poros Palu Bangga, Baliase, Kec. Marawola, Kabupaten Sigi",SULAWESI TENGAH,94222.0,Indonesia,82262693069.0,,,-0.9336686,119.8560944,https://maps.google.com/?cid=0x0:0x4c6f5c5468157595,
mall,Toko Elektronik,RADIT STORE PALU (CABANG TOMBOLOTUTU),"Jl. I Gusti Ngurah Rai No.28, Tawanjuka, Kec. Tatanga, Kota Palu, Sulawesi Tengah 94127","Tawanjuka, Kec. Tatanga, Kota Palu",SULAWESI TENGAH,94127.0,Indonesia,81341413663.0,,,-0.9224846,119.8681926,https://maps.google.com/?cid=0x0:0xe9bd8cb1fb58df8f,
mall,mall,Kec. Marawola,"Kabupaten Sigi, Sulawesi Tengah","Kabupaten Sigi, Sulawesi Tengah",SULAWESI TENGAH,,Indonesia,,,,-0.9555175,119.8550313,https://maps.google.com/?cid=0x0:0x5fea2d25cfdec4a9,
mall,Pusat Perbelanjaan,FR shop,"3V97+QVW, Tinggede, Kec. Marawola, Kabupaten Sigi, Sulawesi Tengah 94235","Tinggede, Kec. Marawola, Kabupaten Sigi",SULAWESI TENGAH,94235.0,Indonesia,82122155354.0,,,-0.9305094,119.8647168,https://maps.google.com/?cid=0x0:0xc4e67472bda0edfa,
mall,Pusat Perbelanjaan,Hypermart Palu Grand Mall,"Jl. Diponegoro No.8A, Lere, Kec. Palu Bar., Kota Palu, Sulawesi Tengah 94221","Lere, Kec. Palu Bar., Kota Palu",SULAWESI TENGAH,94221.0,Indonesia,81312097422.0,,,-0.8837991,119.8423758,https://maps.google.com/?cid=0x0:0x9567cc1a06bb61e4,
mall,Toko,Kios ASNI,"Jl. Poros Palu Bangga No.54, Sibedi, Kec. Marawola, Kabupaten Sigi, Sulawesi Tengah 94238","Sibedi, Kec. Marawola, Kabupaten Sigi",SULAWESI TENGAH,94238.0,Indonesia,82271007791.0,,,-0.976143,119.857168,https://maps.google.com/?cid=0x0:0xb86ba6e817346eae,
mall,Toko Kosmetik,Outlet Annisa Humairrah,"3V5C+8M6, Tinggede Sel., Kec. Marawola, Kabupaten Sigi, Sulawesi Tengah 94222","Tinggede Sel., Kec. Marawola, Kabupaten Sigi",SULAWESI TENGAH,94222.0,Indonesia,,,,-0.9417226,119.8716358,https://maps.google.com/?cid=0x0:0x1364542c4c229c15,
mall,Pusat Perbelanjaan,Kios nabila/Uwais,"3R3M+993, Balane, Kec. Kinovaro, Kabupaten Sigi, Sulawesi Tengah","Kabupaten Sigi, Sulawesi Tengah",SULAWESI TENGAH,,Indonesia,,,,-0.9466243,119.8334192,https://maps.google.com/?cid=0x0:0x12033fc1fc959291,
mall,Pusat Perbelanjaan,SAIFA SHOP,"3V97+PWC, Unnamed Road, Tinggede, Kec. Marawola, Kabupaten Sigi, Sulawesi Tengah 94235","Unnamed Road, Tinggede, Kec. Marawola, Kabupaten Sigi",SULAWESI TENGAH,94235.0,Indonesia,82122155354.0,,,-0.9306892,119.8647769,https://maps.google.com/?cid=0x0:0x3d74082a53dae7df,
mall,Pusat Perbelanjaan,Kios Meranti,"Jl. Meranti Raya No.23, Tinggede, Kec. Marawola, Kabupaten Sigi, Sulawesi Tengah 94235","Tinggede, Kec. Marawola, Kabupaten Sigi",SULAWESI TENGAH,94235.0,Indonesia,,,,-0.9337873,119.8659991,https://maps.google.com/?cid=0x0:0x355d832974a13abd,
mall,Toko bahan makanan,Kios Ari,"2VR3+GW8, Padende, Kec. Marawola, Kabupaten Sigi, Sulawesi Tengah 94237","Padende, Kec. Marawola, Kabupaten Sigi",SULAWESI TENGAH,94237.0,Indonesia,82349241117.0,,,-0.9587054,119.8548416,https://maps.google.com/?cid=0x0:0x3342a7454b036a65,
mall,mall,Kec. Nokilalaki,"Kabupaten Sigi, Sulawesi Tengah","Kabupaten Sigi, Sulawesi Tengah",SULAWESI TENGAH,,Indonesia,,,,-1.1889906,120.1320653,https://maps.google.com/?cid=0x0:0xc5bb665e4a1adbde,
mall,Toko,Toko Dila Bangunan,"R46J+PC8, Jl. Mangga, Kamarora A, Kec. Nokilalaki, Kabupaten Sigi, Sulawesi Tengah 94364","Jl. Mangga, Kamarora A, Kec. Nokilalaki, Kabupaten Sigi",SULAWESI TENGAH,94364.0,Indonesia,81234939888.0,,,-1.1882135,120.1310867,https://maps.google.com/?cid=0x0:0xf5e1d220c84935ec,
mall,Pusat Perbelanjaan,XEIGHT Palu Grand Mall,"Grand Mall, Jl. Cumi-Cumi No.77 LT. GF UNIT G - 0150, BUMI BAHARI, Kec. Palu Bar., Kota Palu, Sulawesi Tengah 94221","Jl. Cumi-Cumi No.77 LT. GF UNIT G - 0150, BUMI BAHARI, Kec. Palu Bar., Kota Palu",SULAWESI TENGAH,94221.0,Indonesia,4514134547.0,,,-0.8828723,119.8427211,https://maps.google.com/?cid=0x0:0xd7e6e97d68971afd,
mall,Kios,Amoura Mart,"V348+485, Ranteleda, Kec. Palolo, Kabupaten Sigi, Sulawesi Tengah","Kabupaten Sigi, Sulawesi Tengah",SULAWESI TENGAH,,Indonesia,,,,-1.1447436,120.0658632,https://maps.google.com/?cid=0x0:0x65cb029784e98ce7,
mall,Pasar,Toko Sinar Rahmat.palolo,"toko sinar, Rahmat, Kec. Palolo, Kabupaten Sigi, Sulawesi Tengah 94364","Rahmat, Kec. Palolo, Kabupaten Sigi",SULAWESI TENGAH,94364.0,Indonesia,,,,-1.17594,120.0672909,https://maps.google.com/?cid=0x0:0x93af91282ac92aa7,
mall,Gedung Apartemen,Banua Kita palolo,"V355+JR9, Unnamed Road, Makmur, Kec. Palolo, Kabupaten Sigi, Sulawesi Tengah 94364","Unnamed Road, Makmur, Kec. Palolo, Kabupaten Sigi",SULAWESI TENGAH,94364.0,Indonesia,81241010681.0,,,-1.1409699,120.0596031,https://maps.google.com/?cid=0x0:0x46cc8b818037b153,
mall,Pemasok Air Minum Dalam Kemasan,Depot Air Minum Alif Knpi,"R4FW+R4V, Tongoa, Kec. Palolo, Kabupaten Sigi, Sulawesi Tengah 94473","Tongoa, Kec. Palolo, Kabupaten Sigi",SULAWESI TENGAH,94473.0,Indonesia,82350634414.0,,,-1.175386,120.145311,https://maps.google.com/?cid=0x0:0x8cc256470d9bd5a8,
mall,Pasar,Kios Andra,"R44J+MX2, Kamarora A, Kec. Nokilalaki, Kabupaten Sigi, Sulawesi Tengah 94364","Kamarora A, Kec. Nokilalaki, Kabupaten Sigi",SULAWESI TENGAH,94364.0,Indonesia,,,,-1.1933682,120.1324019,https://maps.google.com/?cid=0x0:0x973e69f44363d828,
mall,mall,Sulawesi Tengah 94364,"Kabupaten Sigi, Sulawesi Tengah","Kabupaten Sigi, Sulawesi Tengah",SULAWESI TENGAH,,Indonesia,,,,-1.1495881,120.0202964,https://maps.google.com/?cid=0x0:0xc1b3b50bcce1d51b,
mall,Kios,Amoura Mart,"V348+485, Ranteleda, Kec. Palolo, Kabupaten Sigi, Sulawesi Tengah","Kabupaten Sigi, Sulawesi Tengah",SULAWESI TENGAH,,Indonesia,,,,-1.1447436,120.0658632,https://maps.google.com/?cid=0x0:0x65cb029784e98ce7,
mall,Gedung Apartemen,Banua Kita palolo,"V355+JR9, Unnamed Road, Makmur, Kec. Palolo, Kabupaten Sigi, Sulawesi Tengah 94364","Unnamed Road, Makmur, Kec. Palolo, Kabupaten Sigi",SULAWESI TENGAH,94364.0,Indonesia,81241010681.0,,,-1.1409699,120.0596031,https://maps.google.com/?cid=0x0:0x46cc8b818037b153,
mall,Pasar,Toko Sinar Rahmat.palolo,"toko sinar, Rahmat, Kec. Palolo, Kabupaten Sigi, Sulawesi Tengah 94364","Rahmat, Kec. Palolo, Kabupaten Sigi",SULAWESI TENGAH,94364.0,Indonesia,,,,-1.17594,120.0672909,https://maps.google.com/?cid=0x0:0x93af91282ac92aa7,
mall,Pasar,PASAR BOBO,"V2H7+C7J, Bobo, Kec. Palolo, Kabupaten Sigi, Sulawesi Tengah 94364","Bobo, Kec. Palolo, Kabupaten Sigi",SULAWESI TENGAH,94364.0,Indonesia,,,,-1.121415,120.0131527,https://maps.google.com/?cid=0x0:0x3c5acf84eb28737b,
mall,mall,Ellce shop palolo,"R37C+9WM, Rahmat, Kec. Palolo, Kabupaten Sigi, Sulawesi Tengah 94364","Rahmat, Kec. Palolo, Kabupaten Sigi",SULAWESI TENGAH,94364.0,Indonesia,,,,-1.1865465,120.0723009,https://maps.google.com/?cid=0x0:0x42ee907bb6b1c527,
mall,Bengkel Bongkar Pasang Mesin,"BERLIAN Motor,#053","V36V+5W4, Bahagia, Kec. Palolo, Kabupaten Sigi, Sulawesi Tengah 94473","Bahagia, Kec. Palolo, Kabupaten Sigi",SULAWESI TENGAH,94473.0,Indonesia,82345554387.0,,,-1.1396125,120.0948436,https://maps.google.com/?cid=0x0:0xfb09244997fc5de,
mall,Toko Swalayan,Kios Faril,"XW3X+886, Jl. Poros Palu-Palolo, Bora, Kec. Sigi Biromaru, Kabupaten Sigi, Sulawesi Tengah 94364","Jl. Poros Palu-Palolo, Bora, Kec. Sigi Biromaru, Kabupaten Sigi",SULAWESI TENGAH,94364.0,Indonesia,,,,-1.0467077,119.9482644,https://maps.google.com/?cid=0x0:0xccf2629e3ee9b08e,
mall,Pusat Perbelanjaan,THE PARK MALL PALU,"4RCP+6RC, Jl. Cumi-Cumi, Silae, Kec. Palu Bar., Kota Palu, Sulawesi Tengah 94227","Jl. Cumi-Cumi, Silae, Kec. Palu Bar., Kota Palu",SULAWESI TENGAH,94227.0,Indonesia,4317554446.0,,,-0.8793749,119.8370341,https://maps.google.com/?cid=0x0:0x32487cdfd5e5d75f,
mall,Gudang,Toko Bahagia,"V36V+6MQ, Bahagia, Kec. Palolo, Kabupaten Sigi, Sulawesi Tengah 94473","Bahagia, Kec. Palolo, Kabupaten Sigi",SULAWESI TENGAH,94473.0,Indonesia,,,,-1.139415,120.0943038,https://maps.google.com/?cid=0x0:0x5b0d3fc169f9e2f7,
mall,Kios,Kios Egi,"PWWM+27G, Jl. Poros Palu Bangga, Bangga, Kec. Dolo Sel., Kabupaten Sigi, Sulawesi Tengah 94361","Jl. Poros Palu Bangga, Bangga, Kec. Dolo Sel., Kabupaten Sigi",SULAWESI TENGAH,94361.0,Indonesia,,,,-1.2549381,119.9331948,https://maps.google.com/?cid=0x0:0x11c3ae18fbc87ca6,
mall,Toko,Toko Dila Bangunan,"R46J+PC8, Jl. Mangga, Kamarora A, Kec. Nokilalaki, Kabupaten Sigi, Sulawesi Tengah 94364","Jl. Mangga, Kamarora A, Kec. Nokilalaki, Kabupaten Sigi",SULAWESI TENGAH,94364.0,Indonesia,81234939888.0,,,-1.1882135,120.1310867,https://maps.google.com/?cid=0x0:0xf5e1d220c84935ec,
mall,Toko Ponsel,Kartu Internet Telkomsel,"QWCW+F9M, Jl. Poros Palu - Kulawi, Pakuli, Kec. Gumbasa, Kabupaten Sigi, Sulawesi Tengah 94361","Jl. Poros Palu - Kulawi, Pakuli, Kec. Gumbasa, Kabupaten Sigi",SULAWESI TENGAH,94361.0,Indonesia,85255944443.0,,,-1.2287969,119.9459088,https://maps.google.com/?cid=0x0:0xd7c6f60b8551ef9b,
mall,Kios,Kios Fara,"R577+MGP, Jl. Trans Palu-napu, Tongoa, Kec. Palolo, Kabupaten Sigi, Sulawesi Tengah 94473","Jl. Trans Palu-napu, Tongoa, Kec. Palolo, Kabupaten Sigi",SULAWESI TENGAH,94473.0,Indonesia,82343782850.0,,,-1.185784,120.1638342,https://maps.google.com/?cid=0x0:0x61e0d8d68b65dd96,
mall,Toko,Kios aryan-rayan,"R25J+GP9, Sintuwu, Kec. Palolo, Kabupaten Sigi, Sulawesi Tengah 94364","Sintuwu, Kec. Palolo, Kabupaten Sigi",SULAWESI TENGAH,94364.0,Indonesia,,,,-1.1912087,120.0318547,https://maps.google.com/?cid=0x0:0x3eb74617a07563e1,
mall,Dapur Umum,AL BAROKAH,"Bora, Kec. Sigi Biromaru, Kabupaten Sigi, Sulawesi Tengah 94361","Kec. Sigi Biromaru, Kabupaten Sigi",SULAWESI TENGAH,94361.0,Indonesia,82273370321.0,,,-1.0494107,119.9439638,https://maps.google.com/?cid=0x0:0x24a1ce404c3a0891,
mall,Pusat Perbelanjaan,Toko Hj.Irma,"V38Q+J34, Berdikari, Kec. Palolo, Kabupaten Sigi, Sulawesi Tengah 94473","Berdikari, Kec. Palolo, Kabupaten Sigi",SULAWESI TENGAH,94473.0,Indonesia,81340393285.0,,,-1.1334775,120.0876947,https://maps.google.com/?cid=0x0:0x147615f14754ba1d,
mall,Toko Pakaian,Olshopulfa,"3W37+2CV kost duma, Jl. Guru Tua lorong syarief sanusi, Mpanau, Kec. Sigi Biromaru, Kabupaten Sigi, Sulawesi Tengah 94234","Jl. Guru Tua lorong syarief sanusi, Mpanau, Kec. Sigi Biromaru, Kabupaten Sigi",SULAWESI TENGAH,94234.0,Indonesia,81355107627.0,,,-0.9473873,119.913547,https://maps.google.com/?cid=0x0:0xaf379323300a19f2,
mall,Toko,ILSHOP,"Tinggede Sel., Kec. Marawola, Kabupaten Sigi, Sulawesi Tengah 94235","Kec. Marawola, Kabupaten Sigi",SULAWESI TENGAH,94235.0,Indonesia,85241442772.0,,,-0.9361517,119.8771023,https://maps.google.com/?cid=0x0:0xb249acfa279bd601,
mall,Pemasok Air Minum Dalam Kemasan,Depot Air Minum Alif Knpi,"R4FW+R4V, Tongoa, Kec. Palolo, Kabupaten Sigi, Sulawesi Tengah 94473","Tongoa, Kec. Palolo, Kabupaten Sigi",SULAWESI TENGAH,94473.0,Indonesia,82350634414.0,,,-1.175386,120.145311,https://maps.google.com/?cid=0x0:0x8cc256470d9bd5a8,
mall,Toko,Foto Copy Alifia,"VW4C+8CP, Jl. Poros Palu - Kulawi, Sibalaya Sel., Kec. Tanambulava, Kabupaten Sigi, Sulawesi Tengah 94361","Jl. Poros Palu - Kulawi, Sibalaya Sel., Kec. Tanambulava, Kabupaten Sigi",SULAWESI TENGAH,94361.0,Indonesia,85399996978.0,,,-1.144156,119.921073,https://maps.google.com/?cid=0x0:0x9fef8d29a17f4525,
mall,mall,Palolo,"Honolulu, Hawaii, Amerika Serikat","Honolulu, Hawaii, Amerika Serikat",SULAWESI TENGAH,,Indonesia,,,,21.3126058,-157.7794817,https://maps.google.com/?cid=0x0:0x96a92335f0deeacc,
mall,Pusat Perbelanjaan,Kahala Mall,"4211 Waialae Ave, Honolulu, HI 96816, Amerika Serikat","Honolulu, HI",SULAWESI TENGAH,96816.0,Indonesia,18087327736.0,,,21.2771507,-157.786158,https://maps.google.com/?cid=0x0:0xa52d8f35c95669bb,
mall,Pusat Perbelanjaan,Kaimuki Shopping Center,"3221 Waialae Ave, Honolulu, HI 96816, Amerika Serikat","Honolulu, HI",SULAWESI TENGAH,96816.0,Indonesia,18089427100.0,,,21.2868904,-157.8077444,https://maps.google.com/?cid=0x0:0xa582953ee9b34855,
mall,Pusat Perbelanjaan,Ala Moana Center,"1450 Ala Moana Blvd, Honolulu, HI 96814, Amerika Serikat","Honolulu, HI",SULAWESI TENGAH,96814.0,Indonesia,18089559517.0,,,21.2911038,-157.8434622,https://maps.google.com/?cid=0x0:0x227f311d471df768,
mall,Pusat Perbelanjaan,Kapahulu Shopping Center,"830 Kapahulu Ave, Honolulu, HI 96816, Amerika Serikat","Honolulu, HI",SULAWESI TENGAH,96816.0,Indonesia,,,,21.2828235,-157.8141779,https://maps.google.com/?cid=0x0:0xb1661600766ece,
mall,Pusat Perbelanjaan,KÅ«âono Marketplace,"4210 Waialae Ave, Honolulu, HI 96816, Amerika Serikat","Honolulu, HI",SULAWESI TENGAH,96816.0,Indonesia,,,,21.2791544,-157.7869749,https://maps.google.com/?cid=0x0:0xbbbf31a49a492c6,
mall,Pusat Bisnis,Waialae Plaza,"3571 Waialae Ave, Honolulu, HI 96816, Amerika Serikat","Honolulu, HI",SULAWESI TENGAH,96816.0,Indonesia,,,,21.2828319,-157.7995542,https://maps.google.com/?cid=0x0:0x4d803f06e8d96ea3,
mall,Pusat Perbelanjaan,Aina Haina Shopping Center,"820 W Hind Dr, Honolulu, HI 96821, Amerika Serikat","Honolulu, HI",SULAWESI TENGAH,96821.0,Indonesia,18087327736.0,,,21.2790249,-157.7544433,https://maps.google.com/?cid=0x0:0xf1e9e1ddf9697b45,
mall,mall,Sulawesi Tengah 94112,"Kabupaten Sigi, Sulawesi Tengah","Kabupaten Sigi, Sulawesi Tengah",SULAWESI TENGAH,,Indonesia,,,,-1.7555339,120.0202964,https://maps.google.com/?cid=0x0:0x4cb6d2402d66959,
mall,Toko,Kios clara,"924R+FVW, Lempelero, Kec. Kulawi Sel., Kabupaten Sigi, Sulawesi Tengah 94112","Lempelero, Kec. Kulawi Sel., Kabupaten Sigi",SULAWESI TENGAH,94112.0,Indonesia,81288520080.0,,,-1.6437641,120.0422041,https://maps.google.com/?cid=0x0:0x9972c122dd31fcc0,
mall,Kantor Pemerintahan Regional,PERTOKOAN DESA TOMUA,"929Q+QPM, Tomua, Kec. Kulawi Sel., Kabupaten Sigi, Sulawesi Tengah 94363","Tomua, Kec. Kulawi Sel., Kabupaten Sigi",SULAWESI TENGAH,94363.0,Indonesia,,,,-1.6305304,120.0392893,https://maps.google.com/?cid=0x0:0x146f0688a87687da,
mall,Pusat Perbelanjaan,ARDY JAYA {mama ardy},"929Q+R24, Tomua, Kec. Kulawi Sel., Kabupaten Sigi, Sulawesi Tengah 94363","Tomua, Kec. Kulawi Sel., Kabupaten Sigi",SULAWESI TENGAH,94363.0,Indonesia,,,,-1.6304993,120.0375763,https://maps.google.com/?cid=0x0:0x88b0cd854611c7fa,
mall,Minimarket,Toko fadlan,"92QQ+MXJ, Lawua, Kec. Kulawi Sel., Kabupaten Sigi, Sulawesi Tengah 94363","Lawua, Kec. Kulawi Sel., Kabupaten Sigi",SULAWESI TENGAH,94363.0,Indonesia,,,,-1.6107869,120.0398904,https://maps.google.com/?cid=0x0:0xd81a223e49564ec8,
mall,mall,Pipikoro,"Kabupaten Sigi, Sulawesi Tengah","Kabupaten Sigi, Sulawesi Tengah",SULAWESI TENGAH,,Indonesia,,,,-1.8251672,119.9277947,https://maps.google.com/?cid=0x0:0x464088333be952d6,
mall,Pusat Perbelanjaan,Poso City Mall,"Jl. Pulau Sabang No.72, Kayamanya, Kec. Poso Kota, Kabupaten Poso, Sulawesi Tengah 94611","Kayamanya, Kec. Poso Kota, Kabupaten Poso",SULAWESI TENGAH,94611.0,Indonesia,,,,-1.3871945,120.7405742,https://maps.google.com/?cid=0x0:0x5566dc5bacc8cb0c,
mall,Kios,KIOS INDAH,"2WF8+GQ, Jono Oge, Kec. Sigi Biromaru, Kabupaten Sigi, Sulawesi Tengah 94362","Jono Oge, Kec. Sigi Biromaru, Kabupaten Sigi",SULAWESI TENGAH,94362.0,Indonesia,82190069704.0,,,-0.9761531,119.9168823,https://maps.google.com/?cid=0x0:0x49727f71c435329d,
mall,Pusat Perbelanjaan,XEIGHT Palu Grand Mall,"Grand Mall, Jl. Cumi-Cumi No.77 LT. GF UNIT G - 0150, BUMI BAHARI, Kec. Palu Bar., Kota Palu, Sulawesi Tengah 94221","Jl. Cumi-Cumi No.77 LT. GF UNIT G - 0150, BUMI BAHARI, Kec. Palu Bar., Kota Palu",SULAWESI TENGAH,94221.0,Indonesia,4514134547.0,,,-0.8828723,119.8427211,https://maps.google.com/?cid=0x0:0xd7e6e97d68971afd,
mall,mall,Sulawesi Tengah 94364,"Kabupaten Sigi, Sulawesi Tengah","Kabupaten Sigi, Sulawesi Tengah",SULAWESI TENGAH,,Indonesia,,,,-1.1495881,120.0202964,https://maps.google.com/?cid=0x0:0xc1b3b50bcce1d51b,
mall,Toko Elektronik,Savior Celluler,"3W27+FCF, Mpanau, Kec. Sigi Biromaru, Kabupaten Sigi, Sulawesi Tengah 94234","Mpanau, Kec. Sigi Biromaru, Kabupaten Sigi",SULAWESI TENGAH,94234.0,Indonesia,82187672012.0,,,-0.948818,119.9135461,https://maps.google.com/?cid=0x0:0x3cdf816e027bfd31,
mall,Toko Swalayan,Kios Faril,"XW3X+886, Jl. Poros Palu-Palolo, Bora, Kec. Sigi Biromaru, Kabupaten Sigi, Sulawesi Tengah 94364","Jl. Poros Palu-Palolo, Bora, Kec. Sigi Biromaru, Kabupaten Sigi",SULAWESI TENGAH,94364.0,Indonesia,,,,-1.0467077,119.9482644,https://maps.google.com/?cid=0x0:0xccf2629e3ee9b08e,
mall,Toko Pakaian,Olshopulfa,"3W37+2CV kost duma, Jl. Guru Tua lorong syarief sanusi, Mpanau, Kec. Sigi Biromaru, Kabupaten Sigi, Sulawesi Tengah 94234","Jl. Guru Tua lorong syarief sanusi, Mpanau, Kec. Sigi Biromaru, Kabupaten Sigi",SULAWESI TENGAH,94234.0,Indonesia,81355107627.0,,,-0.9473873,119.913547,https://maps.google.com/?cid=0x0:0xaf379323300a19f2,
mall,Dapur Umum,AL BAROKAH,"Bora, Kec. Sigi Biromaru, Kabupaten Sigi, Sulawesi Tengah 94361","Kec. Sigi Biromaru, Kabupaten Sigi",SULAWESI TENGAH,94361.0,Indonesia,82273370321.0,,,-1.0494107,119.9439638,https://maps.google.com/?cid=0x0:0x24a1ce404c3a0891,
mall,Pasar,PASAR BOBO,"V2H7+C7J, Bobo, Kec. Palolo, Kabupaten Sigi, Sulawesi Tengah 94364","Bobo, Kec. Palolo, Kabupaten Sigi",SULAWESI TENGAH,94364.0,Indonesia,,,,-1.121415,120.0131527,https://maps.google.com/?cid=0x0:0x3c5acf84eb28737b,
mall,Produsen makanan,Industri Bawang Goreng Satria,"XWVV+8GX, Unnamed Road, Upt Lembah Palu, Kec. Sigi Biromaru, Kabupaten Sigi, Sulawesi Tengah 94364","Unnamed Road, Upt Lembah Palu, Kec. Sigi Biromaru, Kabupaten Sigi",SULAWESI TENGAH,94364.0,Indonesia,85240933270.0,,,-1.0066339,119.9438736,https://maps.google.com/?cid=0x0:0xb6219b167c052ad1,
mall,Toko Kosmetik,SM shop,"3V3M+2PJ, Lrg. Balai Desa, Kalukubula, Kec. Sigi Biromaru, Kabupaten Sigi, Sulawesi Tengah 94236","Lrg. Balai Desa, Kalukubula, Kec. Sigi Biromaru, Kabupaten Sigi",SULAWESI TENGAH,94236.0,Indonesia,82291302901.0,,,-0.947406,119.8842799,https://maps.google.com/?cid=0x0:0xe88acf7a5b19811b,
mall,Pusat Perbelanjaan,XEIGHT Palu Grand Mall,"Grand Mall, Jl. Cumi-Cumi No.77 LT. GF UNIT G - 0150, BUMI BAHARI, Kec. Palu Bar., Kota Palu, Sulawesi Tengah 94221","Jl. Cumi-Cumi No.77 LT. GF UNIT G - 0150, BUMI BAHARI, Kec. Palu Bar., Kota Palu",SULAWESI TENGAH,94221.0,Indonesia,4514134547.0,,,-0.8828723,119.8427211,https://maps.google.com/?cid=0x0:0xd7e6e97d68971afd,
mall,Toko bahan makanan,Kios dikal,"2WRW+VCP, Loru, Kec. Sigi Biromaru, Kabupaten Sigi, Sulawesi Tengah 94231","Loru, Kec. Sigi Biromaru, Kabupaten Sigi",SULAWESI TENGAH,94231.0,Indonesia,,,,-0.9578319,119.9461731,https://maps.google.com/?cid=0x0:0xb5653f88cd0c979e,
mall,Kios,KIOS INDAH,"2WF8+GQ, Jono Oge, Kec. Sigi Biromaru, Kabupaten Sigi, Sulawesi Tengah 94362","Jono Oge, Kec. Sigi Biromaru, Kabupaten Sigi",SULAWESI TENGAH,94362.0,Indonesia,82190069704.0,,,-0.9761531,119.9168823,https://maps.google.com/?cid=0x0:0x49727f71c435329d,
mall,Pengolahan Ikan,Rumah Peyek Mom's Rizki,"2WQF+V65, Jl. Tadulako, Lolu, Kec. Sigi Biromaru, Kabupaten Sigi, Sulawesi Tengah 94231","Jl. Tadulako, Lolu, Kec. Sigi Biromaru, Kabupaten Sigi",SULAWESI TENGAH,94231.0,Indonesia,82373480890.0,,,-0.9603703,119.9231187,https://maps.google.com/?cid=0x0:0x74cdea8b5f5d5621,
mall,Toko Perlengkapan Rumah,Tekape Shop,"BTN The Green Forest, Jl. Lapatta Blk. E No.15, Kalukubula, Kec. Sigi Biromaru, Kabupaten Sigi, Sulawesi Tengah 94364","Jl. Lapatta Blk. E No.15, Kalukubula, Kec. Sigi Biromaru, Kabupaten Sigi",SULAWESI TENGAH,94364.0,Indonesia,85171237990.0,,,-0.9507736,119.8952599,https://maps.google.com/?cid=0x0:0xc5831d240939daa2,
mall,Toko,Toko Dila Bangunan,"R46J+PC8, Jl. Mangga, Kamarora A, Kec. Nokilalaki, Kabupaten Sigi, Sulawesi Tengah 94364","Jl. Mangga, Kamarora A, Kec. Nokilalaki, Kabupaten Sigi",SULAWESI TENGAH,94364.0,Indonesia,81234939888.0,,,-1.1882135,120.1310867,https://maps.google.com/?cid=0x0:0xf5e1d220c84935ec,
mall,Layanan Percetakan Undangan,Fotocopy ZIGER,"Jl. Karanjalemba No.11, Mpanau, Kec. Sigi Biromaru, Kabupaten Sigi, Sulawesi Tengah 94234","Mpanau, Kec. Sigi Biromaru, Kabupaten Sigi",SULAWESI TENGAH,94234.0,Indonesia,82187001608.0,,,-0.9496067,119.9149631,https://maps.google.com/?cid=0x0:0x8459d572e2d405e1,
mall,Pasar,Toko Sinar Rahmat.palolo,"toko sinar, Rahmat, Kec. Palolo, Kabupaten Sigi, Sulawesi Tengah 94364","Rahmat, Kec. Palolo, Kabupaten Sigi",SULAWESI TENGAH,94364.0,Indonesia,,,,-1.17594,120.0672909,https://maps.google.com/?cid=0x0:0x93af91282ac92aa7,
mall,Komplek perumahan,Awr Shop,"3V7P+C94, Unnamed Road, Kalukubula, Kec. Sigi Biromaru, Kabupaten Sigi, Sulawesi Tengah 94235","Unnamed Road, Kalukubula, Kec. Sigi Biromaru, Kabupaten Sigi",SULAWESI TENGAH,94235.0,Indonesia,85396073364.0,,,-0.936494,119.8859477,https://maps.google.com/?cid=0x0:0x2e5878ceba68d2a6,
mall,Pusat Perbelanjaan,Kayyisah,"2WWF+335, Mpanau, Kec. Sigi Biromaru, Kabupaten Sigi, Sulawesi Tengah 94231","Mpanau, Kec. Sigi Biromaru, Kabupaten Sigi",SULAWESI TENGAH,94231.0,Indonesia,82291547117.0,,,-0.9548747,119.9227369,https://maps.google.com/?cid=0x0:0xcca70c1421be99d6,
mall,Dapur Umum,RUMAH USAHA,"Kalukubula, Kec. Sigi Biromaru, Kabupaten Sigi, Sulawesi Tengah 94237","Kec. Sigi Biromaru, Kabupaten Sigi",SULAWESI TENGAH,94237.0,Indonesia,85393949933.0,,,-0.9613428,119.8863406,https://maps.google.com/?cid=0x0:0x9e6a6dd280d0e22,
mall,Kios,Kios Egi,"PWWM+27G, Jl. Poros Palu Bangga, Bangga, Kec. Dolo Sel., Kabupaten Sigi, Sulawesi Tengah 94361","Jl. Poros Palu Bangga, Bangga, Kec. Dolo Sel., Kabupaten Sigi",SULAWESI TENGAH,94361.0,Indonesia,,,,-1.2549381,119.9331948,https://maps.google.com/?cid=0x0:0x11c3ae18fbc87ca6,
mall,Pusat Bisnis,Ruko Diamond 3,"2VPJ+JXV, Kalukubula, Kec. Sigi Biromaru, Kabupaten Sigi, Sulawesi Tengah 94364","Kalukubula, Kec. Sigi Biromaru, Kabupaten Sigi",SULAWESI TENGAH,94364.0,Indonesia,,,,-0.9633826,119.8823626,https://maps.google.com/?cid=0x0:0xc579acd51c046a55,
mall,Gedung Apartemen,Banua Kita palolo,"V355+JR9, Unnamed Road, Makmur, Kec. Palolo, Kabupaten Sigi, Sulawesi Tengah 94364","Unnamed Road, Makmur, Kec. Palolo, Kabupaten Sigi",SULAWESI TENGAH,94364.0,Indonesia,81241010681.0,,,-1.1409699,120.0596031,https://maps.google.com/?cid=0x0:0x46cc8b818037b153,
mall,Toko,Depot rezkiani,"Btn kelapa gading Blk. T No.12, Kalukubula, Kec. Sigi Biromaru, Kabupaten Sigi, Sulawesi Tengah 94236","Kalukubula, Kec. Sigi Biromaru, Kabupaten Sigi",SULAWESI TENGAH,94236.0,Indonesia,82347831077.0,,,-0.9488814,119.8955344,https://maps.google.com/?cid=0x0:0x9256c1ea6554b0e5,
mall,mall,Kec. Tanambulava,"Kabupaten Sigi, Sulawesi Tengah","Kabupaten Sigi, Sulawesi Tengah",SULAWESI TENGAH,,Indonesia,,,,-1.144118,119.9209817,https://maps.google.com/?cid=0x0:0x5d80464cf673a40c,
mall,Pusat Perbelanjaan,XEIGHT Palu Grand Mall,"Grand Mall, Jl. Cumi-Cumi No.77 LT. GF UNIT G - 0150, BUMI BAHARI, Kec. Palu Bar., Kota Palu, Sulawesi Tengah 94221","Jl. Cumi-Cumi No.77 LT. GF UNIT G - 0150, BUMI BAHARI, Kec. Palu Bar., Kota Palu",SULAWESI TENGAH,94221.0,Indonesia,4514134547.0,,,-0.8828723,119.8427211,https://maps.google.com/?cid=0x0:0xd7e6e97d68971afd,
mall,Toko,Foto Copy Alifia,"VW4C+8CP, Jl. Poros Palu - Kulawi, Sibalaya Sel., Kec. Tanambulava, Kabupaten Sigi, Sulawesi Tengah 94361","Jl. Poros Palu - Kulawi, Sibalaya Sel., Kec. Tanambulava, Kabupaten Sigi",SULAWESI TENGAH,94361.0,Indonesia,85399996978.0,,,-1.144156,119.921073,https://maps.google.com/?cid=0x0:0x9fef8d29a17f4525,
mall,mall,Kios Fadlini,"RWVG+W7F, Jl. Poros Palu - Kulawi, Sibalaya Sel., Kec. Tanambulava, Kabupaten Sigi, Sulawesi Tengah 94361","Jl. Poros Palu - Kulawi, Sibalaya Sel., Kec. Tanambulava, Kabupaten Sigi",SULAWESI TENGAH,94361.0,Indonesia,,,,-1.1551927,119.9256594,https://maps.google.com/?cid=0x0:0x8ab6d63dedc66527,
supermarket,supermarket,Sulawesi Tengah 94361,"Kabupaten Sigi, Sulawesi Tengah","Kabupaten Sigi, Sulawesi Tengah",SULAWESI TENGAH,,Indonesia,,,,-1.23459,119.9046594,https://maps.google.com/?cid=0x0:0x4f531feacb3953e3,
supermarket,Toko Swalayan,Kios Viffal,"Wisolo, Kec. Dolo Sel., Kabupaten Sigi, Sulawesi Tengah 94362","Kec. Dolo Sel., Kabupaten Sigi",SULAWESI TENGAH,94362.0,Indonesia,895320222858.0,,,-1.122846,119.8769465,https://maps.google.com/?cid=0x0:0x197fdc433a6e3f49,
supermarket,Minimarket,AZ Mini Mart,"XVWQ+7JG, Jl. Dolo Sidera, Potoya, Kec. Dolo, Kabupaten Sigi, Sulawesi Tengah 94362","Jl. Dolo Sidera, Potoya, Kec. Dolo, Kabupaten Sigi",SULAWESI TENGAH,94362.0,Indonesia,,,,-1.0043051,119.8890907,https://maps.google.com/?cid=0x0:0x9b4d0f8b5920abbf,
supermarket,supermarket,Dolo,"Kotarindau, Kec. Dolo, Kabupaten Sigi, Sulawesi Tengah","Kabupaten Sigi, Sulawesi Tengah",SULAWESI TENGAH,,Indonesia,,,,-0.990628,119.878098,https://maps.google.com/?cid=0x0:0x5c92b62bdcba4dae,
supermarket,Toko Swalayan,KIOS FAUZI,"2V7H+GWX, Kotarindau, Kec. Dolo, Kabupaten Sigi, Sulawesi Tengah 94362","Kotarindau, Kec. Dolo, Kabupaten Sigi",SULAWESI TENGAH,94362.0,Indonesia,81240764540.0,,,-0.9863165,119.8799264,https://maps.google.com/?cid=0x0:0x62c3fdf293a1b9f2,
supermarket,Toko,Dila Frozen (Warcek),"7, Jl. Masjid Baabul Minan No.54, RT.7/RW.8, Joglo, Kec. Kembangan, Kota Jakarta Barat, Daerah Khusus Ibukota Jakarta 11640","Jl. Masjid Baabul Minan No.54, RT.7/RW.8, Joglo, Kec. Kembangan, Kota Jakarta Barat",SULAWESI TENGAH,11640.0,Indonesia,83812651341.0,,,-6.2227475,106.7407176,https://maps.google.com/?cid=0x0:0xa873330e48ca945c,
supermarket,Toko Makanan,Distributor Frozen food bogor,"Pilar 1, Jalan, RT.02/RW.06, Sindangbarang, Bogor Barat, Bogor City, West Java 16117","Jalan, RT.02/RW.06, Sindangbarang, Bogor Barat, Bogor City",SULAWESI TENGAH,16117.0,Indonesia,85772936818.0,,,-6.5749213,106.7615543,https://maps.google.com/?cid=0x0:0x40094597443560d1,
supermarket,Mal outlet,Saint Laurent,"Jl. M.H. Thamrin Kav. 28-30 Plaza Indonesia, Level 1 63-68A, Jakarta, 10350",Level 1 63-68A,SULAWESI TENGAH,10350.0,Indonesia,2129924098.0,,,-6.1936508,106.8221703,https://maps.google.com/?cid=0x0:0x29098b588bcf0143,
supermarket,supermarket,Kec. Dolo Bar.,"Kabupaten Sigi, Sulawesi Tengah","Kabupaten Sigi, Sulawesi Tengah",SULAWESI TENGAH,,Indonesia,,,,-1.0248547,119.8669421,https://maps.google.com/?cid=0x0:0x9cff6f7017d9df8d,
supermarket,Minimarket,Radja Online Market,"2V7H+3GQ, Unnamed Road, Kotarindau, Kec. Dolo, Kabupaten Sigi, Sulawesi Tengah 94362","Unnamed Road, Kotarindau, Kec. Dolo, Kabupaten Sigi",SULAWESI TENGAH,94362.0,Indonesia,82291541449.0,,,-0.9872762,119.8788511,https://maps.google.com/?cid=0x0:0x3dcd2efb41a9ddcf,
supermarket,Toko bahan makanan,Kios Mama,"Rarampadende, Kec. Dolo Bar., Kabupaten Sigi, Sulawesi Tengah 94362","Kec. Dolo Bar., Kabupaten Sigi",SULAWESI TENGAH,94362.0,Indonesia,,,,-1.0514139,119.8705712,https://maps.google.com/?cid=0x0:0x47aebcb1c6fef148,
supermarket,Minimarket,Toko cahaya berkah,"XV6G+H79, Kaleke, Kec. Dolo Bar., Kabupaten Sigi, Sulawesi Tengah 94362","Kaleke, Kec. Dolo Bar., Kabupaten Sigi",SULAWESI TENGAH,94362.0,Indonesia,85242601986.0,,,-1.0385862,119.8757349,https://maps.google.com/?cid=0x0:0x8e72cf1ed0b274d5,
supermarket,Toko Swalayan,Pogade Assya,"XVM7+88R, Sibonu, Kec. Dolo Bar., Kabupaten Sigi, Sulawesi Tengah 94362","Sibonu, Kec. Dolo Bar., Kabupaten Sigi",SULAWESI TENGAH,94362.0,Indonesia,,,,-1.0166313,119.8632703,https://maps.google.com/?cid=0x0:0x7572869b7aabe8cd,
supermarket,Toko Swalayan,Kios Asilah,"WVMC+3Q2, Jl. Poros Palu Bangga, desa luku, Kec. Dolo Bar., Kabupaten Sigi, Sulawesi Tengah","Kabupaten Sigi, Sulawesi Tengah",SULAWESI TENGAH,,Indonesia,81354381138.0,,,-1.0673554,119.871902,https://maps.google.com/?cid=0x0:0x3b8f06e7fd0c40fa,
supermarket,Toko Swalayan,Kios beby,"XV69+6M8, Jl. Poros Palu Bangga, Kaleke, Kec. Dolo Bar., Kabupaten Sigi, Sulawesi Tengah 94362","Jl. Poros Palu Bangga, Kaleke, Kec. Dolo Bar., Kabupaten Sigi",SULAWESI TENGAH,94362.0,Indonesia,82111709465.0,,,-1.0394669,119.8692182,https://maps.google.com/?cid=0x0:0x58d296134ab79a7d,
supermarket,Toko bahan makanan,agen mandri link,"jln poros palu Kulawi, maku, maku Sigi Biromaru, Maku, Kec. Dolo, Kabupaten Sigi, Sulawesi Tengah 94362","maku, maku Sigi Biromaru, Maku, Kec. Dolo, Kabupaten Sigi",SULAWESI TENGAH,94362.0,Indonesia,,,,-1.0599504,119.8977142,https://maps.google.com/?cid=0x0:0x2216dac53313209f,
supermarket,Toko Swalayan,Seven Mart,"Jl. I Gusti Ngurah Rai No.77, Tawanjuka, Kec. Palu Sel., Kota Palu, Sulawesi Tengah 94111","Tawanjuka, Kec. Palu Sel., Kota Palu",SULAWESI TENGAH,94111.0,Indonesia,,,,-0.9227722,119.8643451,https://maps.google.com/?cid=0x0:0xf6f567a3e7ac003b,
supermarket,Toko Swalayan,KIOS FAUZI,"2V7H+GWX, Kotarindau, Kec. Dolo, Kabupaten Sigi, Sulawesi Tengah 94362","Kotarindau, Kec. Dolo, Kabupaten Sigi",SULAWESI TENGAH,94362.0,Indonesia,81240764540.0,,,-0.9863165,119.8799264,https://maps.google.com/?cid=0x0:0x62c3fdf293a1b9f2,
supermarket,Toko Swalayan,KIOS ALFIT,"XVPJ+64F, Tulo, Kec. Dolo, Kabupaten Sigi, Sulawesi Tengah 94362","Tulo, Kec. Dolo, Kabupaten Sigi",SULAWESI TENGAH,94362.0,Indonesia,,,,-1.0144456,119.8803068,https://maps.google.com/?cid=0x0:0xbc2b1b44bfb8349,
supermarket,Pasar,IRWAN KOPRA,"Jl. Poros Palu Bangga, Pewunu, Kec. Dolo Bar., Kabupaten Sigi, Sulawesi Tengah 94360","Pewunu, Kec. Dolo Bar., Kabupaten Sigi",SULAWESI TENGAH,94360.0,Indonesia,,,,-1.024674,119.8661905,https://maps.google.com/?cid=0x0:0x89a76183202b1c22,
supermarket,Kios,Kios tiara,"WVPC+XJJ, Rarampadende, Kec. Dolo Bar., Kabupaten Sigi, Sulawesi Tengah 94362","Rarampadende, Kec. Dolo Bar., Kabupaten Sigi",SULAWESI TENGAH,94362.0,Indonesia,,,,-1.0625401,119.8715278,https://maps.google.com/?cid=0x0:0xb5ea6963715a018f,
supermarket,Toko umum,Kios Rian,"XVV6+68R, Unnamed Road, Bomba, Kec. Marawola, Kabupaten Sigi, Sulawesi Tengah 94362","Unnamed Road, Bomba, Kec. Marawola, Kabupaten Sigi",SULAWESI TENGAH,94362.0,Indonesia,,,,-1.0068846,119.8607714,https://maps.google.com/?cid=0x0:0x90ef5e622bde5a00,
supermarket,Minimarket,Kios alya,"2V6F+R8W, Jl. Poros Palu - Kulawi, Kotarindau, Kec. Dolo, Kabupaten Sigi, Sulawesi Tengah 94362","Jl. Poros Palu - Kulawi, Kotarindau, Kec. Dolo, Kabupaten Sigi",SULAWESI TENGAH,94362.0,Indonesia,,,,-0.988049,119.8734007,https://maps.google.com/?cid=0x0:0x6219727c97b6e2b7,
supermarket,Toko Swalayan,Loket Alsyifaa,"XVM6+3XP, jl. trans bangga, Sibonu, Kec. Dolo Bar., Kota Palu, Sulawesi Tengah 94362","jl. trans bangga, Sibonu, Kec. Dolo Bar., Kota Palu",SULAWESI TENGAH,94362.0,Indonesia,85241213559.0,,,-1.017285,119.8624516,https://maps.google.com/?cid=0x0:0x7ba0b61ec47aa638,
supermarket,Pasar,Pasar Tradisional Maranata,"Maranata, Waturalele, Kec. Sigi Biromaru, Kabupaten Sigi, Sulawesi Tengah 94362","Waturalele, Kec. Sigi Biromaru, Kabupaten Sigi",SULAWESI TENGAH,94362.0,Indonesia,,,,-1.0403106,119.9104974,https://maps.google.com/?cid=0x0:0x7ef6a00e2a2ee844,
supermarket,Toko Swalayan,Tk. Risma,"2V5F+C75, Jl. Poros Palu - Kulawi, Kota Pulu, Kec. Dolo, Kabupaten Sigi, Sulawesi Tengah 94362","Jl. Poros Palu - Kulawi, Kota Pulu, Kec. Dolo, Kabupaten Sigi",SULAWESI TENGAH,94362.0,Indonesia,85378803900.0,,,-0.991495,119.8732378,https://maps.google.com/?cid=0x0:0xe48df4b5588362a7,
supermarket,Pemasok Produk Makanan,Jual Bawang Goreng Nembuke,"Jl. Poros Palu - Kulawi, Tulo, Kec. Dolo, Kabupaten Sigi, Sulawesi Tengah 94361","Tulo, Kec. Dolo, Kabupaten Sigi",SULAWESI TENGAH,94361.0,Indonesia,82348879191.0,,,-1.0029943,119.8755296,https://maps.google.com/?cid=0x0:0x5ddd09b9ba29ba41,
supermarket,Toko,Kios naura,"VWX4+PHX, desa, Sidondo III, Kec. Sigi Biromaru, Kabupaten Sigi, Sulawesi Tengah 94362","desa, Sidondo III, Kec. Sigi Biromaru, Kabupaten Sigi",SULAWESI TENGAH,94362.0,Indonesia,82292224239.0,,,-1.1006489,119.9064773,https://maps.google.com/?cid=0x0:0x355fdbb1dab0f053,
supermarket,Toko bahan makanan,Telur Burung Puyuh,"2V2H+3R3, Kota Pulu, Kec. Dolo, Kabupaten Sigi, Sulawesi Tengah 94362","Kota Pulu, Kec. Dolo, Kabupaten Sigi",SULAWESI TENGAH,94362.0,Indonesia,811425589.0,,,-0.9997782,119.8799342,https://maps.google.com/?cid=0x0:0x1423f05cc6658f81,
supermarket,Toko bahan makanan,Toko RIFKAgrosir,"VWP5+3HC, Jl. Poros Palu - Kulawi, Sibowi, Kec. Tanambulava, Kabupaten Sigi, Sulawesi Tengah 94361","Jl. Poros Palu - Kulawi, Sibowi, Kec. Tanambulava, Kabupaten Sigi",SULAWESI TENGAH,94361.0,Indonesia,,,,-1.114824,119.9088873,https://maps.google.com/?cid=0x0:0x4af776ab168c3eb6,
supermarket,supermarket,Sulawesi Tengah 94361,"Kabupaten Sigi, Sulawesi Tengah","Kabupaten Sigi, Sulawesi Tengah",SULAWESI TENGAH,,Indonesia,,,,-1.23459,119.9046594,https://maps.google.com/?cid=0x0:0x4f531feacb3953e3,
supermarket,Toko Swalayan,Kios Viffal,"Wisolo, Kec. Dolo Sel., Kabupaten Sigi, Sulawesi Tengah 94362","Kec. Dolo Sel., Kabupaten Sigi",SULAWESI TENGAH,94362.0,Indonesia,895320222858.0,,,-1.122846,119.8769465,https://maps.google.com/?cid=0x0:0x197fdc433a6e3f49,
supermarket,Kios,KIOS 2 R,"VWJ6+G4G, Sibowi, Kec. Tanambulava, Kabupaten Sigi, Sulawesi Tengah 94361","Sibowi, Kec. Tanambulava, Kabupaten Sigi",SULAWESI TENGAH,94361.0,Indonesia,81342352983.0,,,-1.1186961,119.9103157,https://maps.google.com/?cid=0x0:0xc52b1abb5fd6818,
supermarket,Toko bahan makanan,Kios Mama,"Rarampadende, Kec. Dolo Bar., Kabupaten Sigi, Sulawesi Tengah 94362","Kec. Dolo Bar., Kabupaten Sigi",SULAWESI TENGAH,94362.0,Indonesia,,,,-1.0514139,119.8705712,https://maps.google.com/?cid=0x0:0x47aebcb1c6fef148,
supermarket,Toko umum,Kios Ibu Dijah,"RWHQ+G35, Jalan Pendidikan, Kalawara, Kec. Gumbasa, Kabupaten Sigi, Sulawesi Tengah 94361","Jalan Pendidikan, Kalawara, Kec. Gumbasa, Kabupaten Sigi",SULAWESI TENGAH,94361.0,Indonesia,85256703891.0,,,-1.1712361,119.9377331,https://maps.google.com/?cid=0x0:0x70589f9eab38c638,
supermarket,supermarket,Kios Deliza Afandha,"QW8W+67P, Pakuli, Kec. Gumbasa, Kabupaten Sigi, Sulawesi Tengah 94361","Pakuli, Kec. Gumbasa, Kabupaten Sigi",SULAWESI TENGAH,94361.0,Indonesia,,,,-1.2344236,119.9457002,https://maps.google.com/?cid=0x0:0x4df75f7ebf658f06,
supermarket,Minimarket,Toko cahaya berkah,"XV6G+H79, Kaleke, Kec. Dolo Bar., Kabupaten Sigi, Sulawesi Tengah 94362","Kaleke, Kec. Dolo Bar., Kabupaten Sigi",SULAWESI TENGAH,94362.0,Indonesia,85242601986.0,,,-1.0385862,119.8757349,https://maps.google.com/?cid=0x0:0x8e72cf1ed0b274d5,
supermarket,Toko Swalayan,Kios Asilah,"WVMC+3Q2, Jl. Poros Palu Bangga, desa luku, Kec. Dolo Bar., Kabupaten Sigi, Sulawesi Tengah","Kabupaten Sigi, Sulawesi Tengah",SULAWESI TENGAH,,Indonesia,81354381138.0,,,-1.0673554,119.871902,https://maps.google.com/?cid=0x0:0x3b8f06e7fd0c40fa,
supermarket,Toko Swalayan,Swalayan Amar 2 dolo,"3V84+VFM, Palupi, Kec. Palu Sel., Kota Palu, Sulawesi Tengah 94222","Palupi, Kec. Palu Sel., Kota Palu",SULAWESI TENGAH,94222.0,Indonesia,,,,-0.9326883,119.8561178,https://maps.google.com/?cid=0x0:0x750d04cfa7387177,
supermarket,Toko Swalayan,KIOS ALFIT,"XVPJ+64F, Tulo, Kec. Dolo, Kabupaten Sigi, Sulawesi Tengah 94362","Tulo, Kec. Dolo, Kabupaten Sigi",SULAWESI TENGAH,94362.0,Indonesia,,,,-1.0144456,119.8803068,https://maps.google.com/?cid=0x0:0xbc2b1b44bfb8349,
supermarket,Toko Swalayan,KIOS FAUZI,"2V7H+GWX, Kotarindau, Kec. Dolo, Kabupaten Sigi, Sulawesi Tengah 94362","Kotarindau, Kec. Dolo, Kabupaten Sigi",SULAWESI TENGAH,94362.0,Indonesia,81240764540.0,,,-0.9863165,119.8799264,https://maps.google.com/?cid=0x0:0x62c3fdf293a1b9f2,
supermarket,Minimarket,Kios alya,"2V6F+R8W, Jl. Poros Palu - Kulawi, Kotarindau, Kec. Dolo, Kabupaten Sigi, Sulawesi Tengah 94362","Jl. Poros Palu - Kulawi, Kotarindau, Kec. Dolo, Kabupaten Sigi",SULAWESI TENGAH,94362.0,Indonesia,,,,-0.988049,119.8734007,https://maps.google.com/?cid=0x0:0x6219727c97b6e2b7,
supermarket,Toko bahan makanan,Kios Adit,"XWRG+VWJ, Sidera, Kec. Sigi Biromaru, Kabupaten Sigi, Sulawesi Tengah 94362","Sidera, Kec. Sigi Biromaru, Kabupaten Sigi",SULAWESI TENGAH,94362.0,Indonesia,,,,-1.0073483,119.927878,https://maps.google.com/?cid=0x0:0x4bb7ea4020d7ae90,
supermarket,supermarket,RPK WASTI,"RVCP+WQP, Rogo, Kec. Dolo Sel., Kabupaten Sigi, Sulawesi Tengah 94361","Rogo, Kec. Dolo Sel., Kabupaten Sigi",SULAWESI TENGAH,94361.0,Indonesia,,,,-1.1776735,119.8869471,https://maps.google.com/?cid=0x0:0xcdf5e9ee02bab7c5,
supermarket,Toko umum,Kios Rian,"XVV6+68R, Unnamed Road, Bomba, Kec. Marawola, Kabupaten Sigi, Sulawesi Tengah 94362","Unnamed Road, Bomba, Kec. Marawola, Kabupaten Sigi",SULAWESI TENGAH,94362.0,Indonesia,,,,-1.0068846,119.8607714,https://maps.google.com/?cid=0x0:0x90ef5e622bde5a00,
supermarket,supermarket,Kec. Gumbasa,"Kabupaten Sigi, Sulawesi Tengah","Kabupaten Sigi, Sulawesi Tengah",SULAWESI TENGAH,,Indonesia,,,,-1.2047086,119.9426429,https://maps.google.com/?cid=0x0:0x12ba9694169370c2,
supermarket,Toko umum,Kios Ibu Dijah,"RWHQ+G35, Jalan Pendidikan, Kalawara, Kec. Gumbasa, Kabupaten Sigi, Sulawesi Tengah 94361","Jalan Pendidikan, Kalawara, Kec. Gumbasa, Kabupaten Sigi",SULAWESI TENGAH,94361.0,Indonesia,85256703891.0,,,-1.1712361,119.9377331,https://maps.google.com/?cid=0x0:0x70589f9eab38c638,
supermarket,supermarket,Kios Deliza Afandha,"QW8W+67P, Pakuli, Kec. Gumbasa, Kabupaten Sigi, Sulawesi Tengah 94361","Pakuli, Kec. Gumbasa, Kabupaten Sigi",SULAWESI TENGAH,94361.0,Indonesia,,,,-1.2344236,119.9457002,https://maps.google.com/?cid=0x0:0x4df75f7ebf658f06,
supermarket,Kios,Kios Zul,"PWXV+G9F, Jl. Poros Palu - Kulawi, Bangga, Kec. Gumbasa, Kabupaten Sigi, Sulawesi Tengah 94361","Jl. Poros Palu - Kulawi, Bangga, Kec. Gumbasa, Kabupaten Sigi",SULAWESI TENGAH,94361.0,Indonesia,,,,-1.2511781,119.9434253,https://maps.google.com/?cid=0x0:0xa5ebb31b63b95db6,
supermarket,Toko umum,Kios Jessica Mokosolang,"RW5V+R36, Pandere, Kec. Gumbasa, Kabupaten Sigi, Sulawesi Tengah 94361","Pandere, Kec. Gumbasa, Kabupaten Sigi",SULAWESI TENGAH,94361.0,Indonesia,85256088313.0,,,-1.1904713,119.9426257,https://maps.google.com/?cid=0x0:0x10365815473f24ab,
supermarket,Toko bahan makanan,Kios Adel,"RW8R+43X, Pandere, Kec. Gumbasa, Kabupaten Sigi, Sulawesi Tengah 94361","Pandere, Kec. Gumbasa, Kabupaten Sigi",SULAWESI TENGAH,94361.0,Indonesia,,,,-1.1849812,119.9403429,https://maps.google.com/?cid=0x0:0x63684b2f3d735018,
supermarket,Toko bahan makanan,Kios Aulia,"RW7R+V6W, Jl. Poros Palu - Kulawi, Pandere, Kec. Gumbasa, Kabupaten Sigi, Sulawesi Tengah 94364","Jl. Poros Palu - Kulawi, Pandere, Kec. Gumbasa, Kabupaten Sigi",SULAWESI TENGAH,94364.0,Indonesia,85823763353.0,,,-1.1852624,119.9405695,https://maps.google.com/?cid=0x0:0x6357673570cf568b,
supermarket,supermarket,Kec. Kinovaro,"Kabupaten Sigi, Sulawesi Tengah","Kabupaten Sigi, Sulawesi Tengah",SULAWESI TENGAH,,Indonesia,,,,-0.9532106,119.8381831,https://maps.google.com/?cid=0x0:0x98e9a1405ab12b25,
supermarket,Toko umum,Kios Kharisma,"3V54+V9R, Baliase, Kec. Marawola, Kabupaten Sigi, Sulawesi Tengah 94222","Baliase, Kec. Marawola, Kabupaten Sigi",SULAWESI TENGAH,94222.0,Indonesia,82195593556.0,,,-0.9402518,119.8558923,https://maps.google.com/?cid=0x0:0xc1a068bbf737d7f6,
supermarket,Pusat Perbelanjaan,Swalayan Amar Kabonena,"4R4P+6CH, Jl. Munif Rahman, Kabonena, Kec. Palu Bar., Kota Palu, Sulawesi Tengah 94111","Jl. Munif Rahman, Kabonena, Kec. Palu Bar., Kota Palu",SULAWESI TENGAH,94111.0,Indonesia,,,,-0.8944487,119.8360948,https://maps.google.com/?cid=0x0:0xda93496757ced3c,
supermarket,Toko bahan makanan,toko cahaya global,"3V54+XCG, Baliase, Kec. Marawola, Kabupaten Sigi, Sulawesi Tengah 94222","Baliase, Kec. Marawola, Kabupaten Sigi",SULAWESI TENGAH,94222.0,Indonesia,,,,-0.940051,119.856063,https://maps.google.com/?cid=0x0:0x81120b4b28b3a49b,
supermarket,Toko bahan makanan,Amar 2 Mini Swalayan,"2VGJ+R6H, Jl. Habib Moh. Al-Jufri, Kabobona, Kec. Dolo, Kabupaten Sigi, Sulawesi Tengah 94361","Jl. Habib Moh. Al-Jufri, Kabobona, Kec. Dolo, Kabupaten Sigi",SULAWESI TENGAH,94361.0,Indonesia,,,,-0.9729444,119.8806131,https://maps.google.com/?cid=0x0:0x6cb1af0ed630f3fc,
supermarket,Toko Swalayan,Seven Mart,"Jl. I Gusti Ngurah Rai No.77, Tawanjuka, Kec. Palu Sel., Kota Palu, Sulawesi Tengah 94111","Tawanjuka, Kec. Palu Sel., Kota Palu",SULAWESI TENGAH,94111.0,Indonesia,,,,-0.9227722,119.8643451,https://maps.google.com/?cid=0x0:0xf6f567a3e7ac003b,
supermarket,Toko Swalayan,Swalayan BMS Pengawu,"3RGV+RWC, Duyu, Kec. Tatanga, Kota Palu, Sulawesi Tengah","Kota Palu, Sulawesi Tengah",SULAWESI TENGAH,,Indonesia,,,,-0.9229332,119.8447576,https://maps.google.com/?cid=0x0:0xd756beeb6f3774bf,
supermarket,Komplek perumahan,Perumahan Dreamland 5 baliase,"3V76+4J6, Jl. Tavanjuka Permai, Baliase, Kec. Marawola, Kabupaten Sigi, Sulawesi Tengah 94222","Jl. Tavanjuka Permai, Baliase, Kec. Marawola, Kabupaten Sigi",SULAWESI TENGAH,94222.0,Indonesia,85241180802.0,,,-0.9372182,119.8615171,https://maps.google.com/?cid=0x0:0xa7398dc61e7bf68,
supermarket,Toko,Swalayan Amar Palupi,"3VC4+9QJ, Palupi, Kec. Tatanga, Kota Palu, Sulawesi Tengah 94222","Palupi, Kec. Tatanga, Kota Palu",SULAWESI TENGAH,94222.0,Indonesia,,,,-0.9290282,119.8568866,https://maps.google.com/?cid=0x0:0xe8d8177a1b4e63a1,
supermarket,Toko bahan makanan,Rizwar CELL,"3V54+578, Baliase, Kec. Marawola, Kabupaten Sigi, Sulawesi Tengah 94222","Baliase, Kec. Marawola, Kabupaten Sigi",SULAWESI TENGAH,94222.0,Indonesia,82195322191.0,,,-0.9420913,119.8557127,https://maps.google.com/?cid=0x0:0xc5692650fe160ba4,
supermarket,Toko,Cemara Swalayan,"Jl. Setia Budi No.36, Besusu Tengah, Kec. Palu Tim., Kota Palu, Sulawesi Tengah 94118","Besusu Tengah, Kec. Palu Tim., Kota Palu",SULAWESI TENGAH,94118.0,Indonesia,82129089434.0,,,-0.8889602,119.8788128,https://maps.google.com/?cid=0x0:0x4147d219667a4674,
supermarket,Toko Swalayan,Swalayan Ganesha,"3VF4+3FW, Jl. Poros Palu Bangga, Palupi, Kec. Tatanga, Kota Palu, Sulawesi Tengah 94222","Jl. Poros Palu Bangga, Palupi, Kec. Tatanga, Kota Palu",SULAWESI TENGAH,94222.0,Indonesia,,,,-0.9272713,119.8561982,https://maps.google.com/?cid=0x0:0x84914685b537bd0f,
supermarket,Toserba,Zhafira Mart,"Donggala Kodi, Kec. Ulujadi, Kota Palu, Sulawesi Tengah 94111","Kec. Ulujadi, Kota Palu",SULAWESI TENGAH,94111.0,Indonesia,,,,-0.8978818,119.8505976,https://maps.google.com/?cid=0x0:0x619a5da9b6fc2354,
supermarket,supermarket,kios Ibba,"4R9J+R94, Silae, Kec. Palu Bar., Kota Palu, Sulawesi Tengah 94227","Silae, Kec. Palu Bar., Kota Palu",SULAWESI TENGAH,94227.0,Indonesia,,,,-0.8804608,119.8309349,https://maps.google.com/?cid=0x0:0x6f702154bf2f64d2,
supermarket,Toko Swalayan,Grand Hero Swalayan,"Jl. Jenderal Basuki Rahmat No.31, Tatura Sel., Kec. Palu Sel., Kota Palu, Sulawesi Tengah 94111","Tatura Sel., Kec. Palu Sel., Kota Palu",SULAWESI TENGAH,94111.0,Indonesia,451481451.0,,,-0.9187004,119.8796472,https://maps.google.com/?cid=0x0:0xb9406a15fa1dd6dc,
supermarket,Toko bahan makanan,Kios adhy,"2VM3+FWF, Jl. Poros Palu Bangga, Padende, Kec. Marawola, Kabupaten Sigi, Sulawesi Tengah 94237","Jl. Poros Palu Bangga, Padende, Kec. Marawola, Kabupaten Sigi",SULAWESI TENGAH,94237.0,Indonesia,,,,-0.9663052,119.8548041,https://maps.google.com/?cid=0x0:0x529170bace57341c,
supermarket,Toko Swalayan,Kios Tiga Saudara,"Jl. Pue Bongo No.68, Pengawu, Kec. Tatanga, Kota Palu, Sulawesi Tengah 94222","Pengawu, Kec. Tatanga, Kota Palu",SULAWESI TENGAH,94222.0,Indonesia,82193480592.0,,,-0.92139,119.8564117,https://maps.google.com/?cid=0x0:0xb96d0bb025278a40,
supermarket,Toko Swalayan,E-Warong Anontodea,"Jl. Sultan Alaudin No.1, RW.No. 01, Donggala Kodi, Kec. Ulujadi, Kota Palu, Sulawesi Tengah 94111","RW.No. 01, Donggala Kodi, Kec. Ulujadi, Kota Palu",SULAWESI TENGAH,94111.0,Indonesia,,,,-0.9002087,119.8393132,https://maps.google.com/?cid=0x0:0xfedb78c3a79e7da9,
supermarket,Pusat Perbelanjaan,Hypermart Palu Grand Mall,"Jl. Diponegoro No.8A, Lere, Kec. Palu Bar., Kota Palu, Sulawesi Tengah 94221","Lere, Kec. Palu Bar., Kota Palu",SULAWESI TENGAH,94221.0,Indonesia,81312097422.0,,,-0.8837991,119.8423758,https://maps.google.com/?cid=0x0:0x9567cc1a06bb61e4,
supermarket,Minimarket,Kios Family 2,"3VG8+2QM, Tinggede, Kec. Marawola, Kabupaten Sigi, Sulawesi Tengah 94111","Tinggede, Kec. Marawola, Kabupaten Sigi",SULAWESI TENGAH,94111.0,Indonesia,81341226681.0,,,-0.924914,119.8669224,https://maps.google.com/?cid=0x0:0x43e7b3f0a64bf51,
supermarket,Toko Swalayan,E-Warong Depot Sarara,"3R9V+JQJ, Jl. Malontara, Pengawu, Kec. Tatanga, Kota Palu, Sulawesi Tengah 94221","Jl. Malontara, Pengawu, Kec. Tatanga, Kota Palu",SULAWESI TENGAH,94221.0,Indonesia,,,,-0.9309115,119.8443804,https://maps.google.com/?cid=0x0:0xb573bef30c0d94b7,
supermarket,Toko bahan makanan,As'Syifa Mart,"Jl. Malontara, Pengawu, Kec. Tatanga, Kota Palu, Sulawesi Tengah 94221","Pengawu, Kec. Tatanga, Kota Palu",SULAWESI TENGAH,94221.0,Indonesia,85241367480.0,,,-0.9309681,119.8440876,https://maps.google.com/?cid=0x0:0xc754eb1edc93d9e4,
supermarket,Toko,Kios Widya // WL Beauty Parlour,"Kios widya, Jl. Tanggul Utara, RT.03/RW.01, Birobuli Utara, Kec. Palu Sel., Kota Palu, Sulawesi Tengah 94111","Jl. Tanggul Utara, RT.03/RW.01, Birobuli Utara, Kec. Palu Sel., Kota Palu",SULAWESI TENGAH,94111.0,Indonesia,85394300064.0,,,-0.9141694,119.8945438,https://maps.google.com/?cid=0x0:0xa01e765c3ec520ef,
supermarket,supermarket,Kios wahyuayaz,"2RVQ+9PC, Porame, Kec. Kinovaro, Kabupaten Sigi, Sulawesi Tengah","Kabupaten Sigi, Sulawesi Tengah",SULAWESI TENGAH,,Indonesia,,,,-0.9565636,119.8392564,https://maps.google.com/?cid=0x0:0x973a66c97af7c753,
supermarket,supermarket,Edison,"2R99+M45, Uwemanje, Kec. Kinovaro, Kabupaten Sigi, Sulawesi Tengah 94239","Uwemanje, Kec. Kinovaro, Kabupaten Sigi",SULAWESI TENGAH,94239.0,Indonesia,,,,-0.9808693,119.8178676,https://maps.google.com/?cid=0x0:0x13630f9d5b32198d,
supermarket,Kios,Kios Tian Cell,"HX5P+FHQ, Bolapapu, Kec. Kulawi, Kabupaten Sigi, Sulawesi Tengah 94363","Bolapapu, Kec. Kulawi, Kabupaten Sigi",SULAWESI TENGAH,94363.0,Indonesia,82199179996.0,,,-1.4412828,119.9864793,https://maps.google.com/?cid=0x0:0xbf351f692454aa2f,
supermarket,Kios,Kios Jelfi,"HX8P+FV5, Dusun III, Bolapapu, Kec. Kulawi, Kabupaten Sigi, Sulawesi Tengah 94363","Dusun III, Bolapapu, Kec. Kulawi, Kabupaten Sigi",SULAWESI TENGAH,94363.0,Indonesia,82395076517.0,,,-1.4338648,119.9872337,https://maps.google.com/?cid=0x0:0x275be1a11101b742,
supermarket,supermarket,Sulawesi Tengah 94363,"Kabupaten Sigi, Sulawesi Tengah","Kabupaten Sigi, Sulawesi Tengah",SULAWESI TENGAH,,Indonesia,,,,-1.5208341,119.8815203,https://maps.google.com/?cid=0x0:0xdeb8c8aa1833cdca,
supermarket,supermarket,Foto Copy Lawua,"92RQ+J5H, Lawua, Kec. Kulawi Sel., Kabupaten Sigi, Sulawesi Tengah 94363","Lawua, Kec. Kulawi Sel., Kabupaten Sigi",SULAWESI TENGAH,94363.0,Indonesia,82188730821.0,,,-1.6084486,120.0379837,https://maps.google.com/?cid=0x0:0xc6643260cbf3f54e,
supermarket,Kios,SAWINAMART,"92PR+4H2, Lawua, Kec. Kulawi Sel., Kabupaten Sigi, Sulawesi Tengah 94363","Lawua, Kec. Kulawi Sel., Kabupaten Sigi",SULAWESI TENGAH,94363.0,Indonesia,,,,-1.614213,120.0416934,https://maps.google.com/?cid=0x0:0x268e13b6f23ae226,
supermarket,Kios,TOKO Faswan,"929R+Q4V, Tomua, Kec. Kulawi Sel., Kabupaten Sigi, Sulawesi Tengah 94363","Tomua, Kec. Kulawi Sel., Kabupaten Sigi",SULAWESI TENGAH,94363.0,Indonesia,,,,-1.630517,120.0403101,https://maps.google.com/?cid=0x0:0x605b9504b6cac590,
supermarket,supermarket,Sulawesi Tengah 94363,"Kabupaten Sigi, Sulawesi Tengah","Kabupaten Sigi, Sulawesi Tengah",SULAWESI TENGAH,,Indonesia,,,,-1.5208341,119.8815203,https://maps.google.com/?cid=0x0:0xdeb8c8aa1833cdca,
supermarket,Kios,Kios Tian Cell,"HX5P+FHQ, Bolapapu, Kec. Kulawi, Kabupaten Sigi, Sulawesi Tengah 94363","Bolapapu, Kec. Kulawi, Kabupaten Sigi",SULAWESI TENGAH,94363.0,Indonesia,82199179996.0,,,-1.4412828,119.9864793,https://maps.google.com/?cid=0x0:0xbf351f692454aa2f,
supermarket,Toko Swalayan,Seven Mart,"Jl. I Gusti Ngurah Rai No.77, Tawanjuka, Kec. Palu Sel., Kota Palu, Sulawesi Tengah 94111","Tawanjuka, Kec. Palu Sel., Kota Palu",SULAWESI TENGAH,94111.0,Indonesia,,,,-0.9227722,119.8643451,https://maps.google.com/?cid=0x0:0xf6f567a3e7ac003b,
supermarket,Kios,KIOS 2 R,"VWJ6+G4G, Sibowi, Kec. Tanambulava, Kabupaten Sigi, Sulawesi Tengah 94361","Sibowi, Kec. Tanambulava, Kabupaten Sigi",SULAWESI TENGAH,94361.0,Indonesia,81342352983.0,,,-1.1186961,119.9103157,https://maps.google.com/?cid=0x0:0xc52b1abb5fd6818,
supermarket,Toko Swalayan,Kios Pancaran Berkat,"R4W6+WF3, Jl. Trans Palu, Desa UeRani, Sejahtera, Kec. Palolo, Kabupaten Sigi, Sulawesi Tengah 94473","Jl. Trans Palu, Desa UeRani, Sejahtera, Kec. Palolo, Kabupaten Sigi",SULAWESI TENGAH,94473.0,Indonesia,,,,-1.1527458,120.1111704,https://maps.google.com/?cid=0x0:0x459badd3a37f1572,
supermarket,supermarket,Kios Deliza Afandha,"QW8W+67P, Pakuli, Kec. Gumbasa, Kabupaten Sigi, Sulawesi Tengah 94361","Pakuli, Kec. Gumbasa, Kabupaten Sigi",SULAWESI TENGAH,94361.0,Indonesia,,,,-1.2344236,119.9457002,https://maps.google.com/?cid=0x0:0x4df75f7ebf658f06,
supermarket,Toko Swalayan,GrandLucky - SCBD,"Kawasan Niaga Terpadu Sudirman (SCBD, Jl. Jenderal Sudirman LOT-12, Senayan, Kec. Kby. Baru, Kota Jakarta Selatan, Daerah Khusus Ibukota Jakarta 12190","Jl. Jenderal Sudirman LOT-12, Senayan, Kec. Kby. Baru, Kota Jakarta Selatan",SULAWESI TENGAH,12190.0,Indonesia,215153832.0,,,-6.22691,106.8059153,https://maps.google.com/?cid=0x0:0x4efcd0d8d64cad53,
supermarket,Toko Swalayan,GrandLucky - Radio Dalam,"Jl. Radio Dalam Raya No.9, RT.4/RW.4, Gandaria Utara, Kec. Kby. Baru, Kota Jakarta Selatan, Daerah Khusus Ibukota Jakarta 12140","RT.4/RW.4, Gandaria Utara, Kec. Kby. Baru, Kota Jakarta Selatan",SULAWESI TENGAH,12140.0,Indonesia,217398368.0,,,-6.2538402,106.7907062,https://maps.google.com/?cid=0x0:0x3a6b61772e479f77,
supermarket,Restoran,Bagoja,"GrandLucky - SCBD, Senayan, Kec. Kby. Baru, Kota Jakarta Selatan, Daerah Khusus Ibukota Jakarta","Kota Jakarta Selatan, Daerah Khusus Ibukota Jakarta",SULAWESI TENGAH,,Indonesia,,,,-6.2267991,106.8059056,https://maps.google.com/?cid=0x0:0xe6bf64788dc00bbc,
supermarket,supermarket,Kec. Marawola,"Kabupaten Sigi, Sulawesi Tengah","Kabupaten Sigi, Sulawesi Tengah",SULAWESI TENGAH,,Indonesia,,,,-0.9555175,119.8550313,https://maps.google.com/?cid=0x0:0x5fea2d25cfdec4a9,
supermarket,Toko umum,Kios Kharisma,"3V54+V9R, Baliase, Kec. Marawola, Kabupaten Sigi, Sulawesi Tengah 94222","Baliase, Kec. Marawola, Kabupaten Sigi",SULAWESI TENGAH,94222.0,Indonesia,82195593556.0,,,-0.9402518,119.8558923,https://maps.google.com/?cid=0x0:0xc1a068bbf737d7f6,
supermarket,Toko umum,Kios Rian,"XVV6+68R, Unnamed Road, Bomba, Kec. Marawola, Kabupaten Sigi, Sulawesi Tengah 94362","Unnamed Road, Bomba, Kec. Marawola, Kabupaten Sigi",SULAWESI TENGAH,94362.0,Indonesia,,,,-1.0068846,119.8607714,https://maps.google.com/?cid=0x0:0x90ef5e622bde5a00,
supermarket,Komplek perumahan,Perumahan Dreamland 5 baliase,"3V76+4J6, Jl. Tavanjuka Permai, Baliase, Kec. Marawola, Kabupaten Sigi, Sulawesi Tengah 94222","Jl. Tavanjuka Permai, Baliase, Kec. Marawola, Kabupaten Sigi",SULAWESI TENGAH,94222.0,Indonesia,85241180802.0,,,-0.9372182,119.8615171,https://maps.google.com/?cid=0x0:0xa7398dc61e7bf68,
supermarket,Toko Swalayan,Seven Mart,"Jl. I Gusti Ngurah Rai No.77, Tawanjuka, Kec. Palu Sel., Kota Palu, Sulawesi Tengah 94111","Tawanjuka, Kec. Palu Sel., Kota Palu",SULAWESI TENGAH,94111.0,Indonesia,,,,-0.9227722,119.8643451,https://maps.google.com/?cid=0x0:0xf6f567a3e7ac003b,
supermarket,Toko bahan makanan,toko cahaya global,"3V54+XCG, Baliase, Kec. Marawola, Kabupaten Sigi, Sulawesi Tengah 94222","Baliase, Kec. Marawola, Kabupaten Sigi",SULAWESI TENGAH,94222.0,Indonesia,,,,-0.940051,119.856063,https://maps.google.com/?cid=0x0:0x81120b4b28b3a49b,
supermarket,Toko bahan makanan,Rizwar CELL,"3V54+578, Baliase, Kec. Marawola, Kabupaten Sigi, Sulawesi Tengah 94222","Baliase, Kec. Marawola, Kabupaten Sigi",SULAWESI TENGAH,94222.0,Indonesia,82195322191.0,,,-0.9420913,119.8557127,https://maps.google.com/?cid=0x0:0xc5692650fe160ba4,
supermarket,Toko bahan makanan,KIOS YUMNAYLA,"3V64+68F, Jl. Poros Palu Bangga, Baliase, Kec. Marawola, Kabupaten Sigi, Sulawesi Tengah 94222","Jl. Poros Palu Bangga, Baliase, Kec. Marawola, Kabupaten Sigi",SULAWESI TENGAH,94222.0,Indonesia,,,,-0.9394301,119.8557758,https://maps.google.com/?cid=0x0:0xa4d0b4926cdde55f,
supermarket,Toko,Swalayan Amar Palupi,"3VC4+9QJ, Palupi, Kec. Tatanga, Kota Palu, Sulawesi Tengah 94222","Palupi, Kec. Tatanga, Kota Palu",SULAWESI TENGAH,94222.0,Indonesia,,,,-0.9290282,119.8568866,https://maps.google.com/?cid=0x0:0xe8d8177a1b4e63a1,
supermarket,Toko Swalayan,Swalayan Ganesha,"3VF4+3FW, Jl. Poros Palu Bangga, Palupi, Kec. Tatanga, Kota Palu, Sulawesi Tengah 94222","Jl. Poros Palu Bangga, Palupi, Kec. Tatanga, Kota Palu",SULAWESI TENGAH,94222.0,Indonesia,,,,-0.9272713,119.8561982,https://maps.google.com/?cid=0x0:0x84914685b537bd0f,
supermarket,Toko Swalayan,Swalayan BMS Pengawu,"3RGV+RWC, Duyu, Kec. Tatanga, Kota Palu, Sulawesi Tengah","Kota Palu, Sulawesi Tengah",SULAWESI TENGAH,,Indonesia,,,,-0.9229332,119.8447576,https://maps.google.com/?cid=0x0:0xd756beeb6f3774bf,
supermarket,Toko Swalayan,Grand Hero Swalayan,"Jl. Jenderal Basuki Rahmat No.31, Tatura Sel., Kec. Palu Sel., Kota Palu, Sulawesi Tengah 94111","Tatura Sel., Kec. Palu Sel., Kota Palu",SULAWESI TENGAH,94111.0,Indonesia,451481451.0,,,-0.9187004,119.8796472,https://maps.google.com/?cid=0x0:0xb9406a15fa1dd6dc,
supermarket,Minimarket,Kios Family 2,"3VG8+2QM, Tinggede, Kec. Marawola, Kabupaten Sigi, Sulawesi Tengah 94111","Tinggede, Kec. Marawola, Kabupaten Sigi",SULAWESI TENGAH,94111.0,Indonesia,81341226681.0,,,-0.924914,119.8669224,https://maps.google.com/?cid=0x0:0x43e7b3f0a64bf51,
supermarket,Toko Swalayan,jaya,"3VCF+R9R, Tinggede, Kec. Marawola, Kabupaten Sigi, Sulawesi Tengah 94235","Tinggede, Kec. Marawola, Kabupaten Sigi",SULAWESI TENGAH,94235.0,Indonesia,81327807937.0,,,-0.9278997,119.8734015,https://maps.google.com/?cid=0x0:0x6d631e2dcb6da50c,
supermarket,Komplek perumahan,Alfamidi Towua,"Jl. Towua, Tatura Sel., Kec. Palu Sel., Kota Palu, Sulawesi Tengah 94111","Tatura Sel., Kec. Palu Sel., Kota Palu",SULAWESI TENGAH,94111.0,Indonesia,85341422103.0,,,-0.9253735,119.8803481,https://maps.google.com/?cid=0x0:0x2dcc3379e3a45f0,
supermarket,Toko bahan makanan,Kios adhy,"2VM3+FWF, Jl. Poros Palu Bangga, Padende, Kec. Marawola, Kabupaten Sigi, Sulawesi Tengah 94237","Jl. Poros Palu Bangga, Padende, Kec. Marawola, Kabupaten Sigi",SULAWESI TENGAH,94237.0,Indonesia,,,,-0.9663052,119.8548041,https://maps.google.com/?cid=0x0:0x529170bace57341c,
supermarket,Toko Swalayan,Toko Jeje,"3V58+3FC, Jl. Manunggal, Baliase, Kec. Marawola, Kabupaten Sigi, Sulawesi Tengah 94222","Jl. Manunggal, Baliase, Kec. Marawola, Kabupaten Sigi",SULAWESI TENGAH,94222.0,Indonesia,,,,-0.9423245,119.8661406,https://maps.google.com/?cid=0x0:0xdb830e3743d43ca,
supermarket,Pusat Perbelanjaan,Swalayan Amar Kabonena,"4R4P+6CH, Jl. Munif Rahman, Kabonena, Kec. Palu Bar., Kota Palu, Sulawesi Tengah 94111","Jl. Munif Rahman, Kabonena, Kec. Palu Bar., Kota Palu",SULAWESI TENGAH,94111.0,Indonesia,,,,-0.8944487,119.8360948,https://maps.google.com/?cid=0x0:0xda93496757ced3c,
supermarket,Toko Swalayan,Kios Tiga Saudara,"Jl. Pue Bongo No.68, Pengawu, Kec. Tatanga, Kota Palu, Sulawesi Tengah 94222","Pengawu, Kec. Tatanga, Kota Palu",SULAWESI TENGAH,94222.0,Indonesia,82193480592.0,,,-0.92139,119.8564117,https://maps.google.com/?cid=0x0:0xb96d0bb025278a40,
supermarket,Toko Swalayan,Kios fadhil,"2V8G+W7G, Kotarindau, Kec. Dolo, Kabupaten Sigi, Sulawesi Tengah 94362","Kotarindau, Kec. Dolo, Kabupaten Sigi",SULAWESI TENGAH,94362.0,Indonesia,,,,-0.9825416,119.8757613,https://maps.google.com/?cid=0x0:0x9b74c430da657f4d,
supermarket,Minimarket,Alfamidi Emmy Saelan,"3VMG+JJX, Jl. Emmy Saelan, Tatura Utara, Kec. Palu Sel., Kota Palu, Sulawesi Tengah 94236","Jl. Emmy Saelan, Tatura Utara, Kec. Palu Sel., Kota Palu",SULAWESI TENGAH,94236.0,Indonesia,82196940759.0,,,-0.9158847,119.8765958,https://maps.google.com/?cid=0x0:0xb74395adf471a55b,
supermarket,Dapur Umum,Raturamu.id,"BTN Nabila, Blk. A No.14, Baliase, Kec. Marawola, Kabupaten Sigi, Sulawesi Tengah 94222","Blk. A No.14, Baliase, Kec. Marawola, Kabupaten Sigi",SULAWESI TENGAH,94222.0,Indonesia,82296046398.0,,,-0.9367644,119.8528939,https://maps.google.com/?cid=0x0:0xdd95af2176d6184b,
supermarket,Grosir Beras,SINAR INTAN.KS,"BTN, Jl. Berlian No.1 blok p4, Baliase, Kec. Marawola, Kabupaten Sigi, Sulawesi Tengah 94222","Jl. Berlian No.1 blok p4, Baliase, Kec. Marawola, Kabupaten Sigi",SULAWESI TENGAH,94222.0,Indonesia,85343730004.0,,,-0.9410014,119.8555366,https://maps.google.com/?cid=0x0:0xe66a71ec441778c8,
supermarket,Pasar,Kios ASRI,"2VR3+HPC, Padende, Kec. Marawola, Kabupaten Sigi, Sulawesi Tengah 94237","Padende, Kec. Marawola, Kabupaten Sigi",SULAWESI TENGAH,94237.0,Indonesia,,,,-0.9585723,119.8542618,https://maps.google.com/?cid=0x0:0xd7904aa9eb0ac08,
supermarket,Toko bahan makanan,Mancha Fresh Food,"Baliase, Kec. Marawola, Kabupaten Sigi, Sulawesi Tengah 94222","Kec. Marawola, Kabupaten Sigi",SULAWESI TENGAH,94222.0,Indonesia,81258787092.0,,,-0.933334,119.859077,https://maps.google.com/?cid=0x0:0x2d68d5fbf31b7642,
supermarket,Pusat Perbelanjaan,Kios Wahyuni,"3V5F+J4W, Tinggede Sel., Kec. Marawola, Kabupaten Sigi, Sulawesi Tengah","Kabupaten Sigi, Sulawesi Tengah",SULAWESI TENGAH,,Indonesia,,,,-0.9408986,119.8728305,https://maps.google.com/?cid=0x0:0xa1ef280bfebecf40,
supermarket,Toko,Toko Alamzah,"3V84+HCW, Jl. Poros Palu Bangga, Baliase, Kec. Marawola, Kabupaten Sigi, Sulawesi Tengah 94222","Jl. Poros Palu Bangga, Baliase, Kec. Marawola, Kabupaten Sigi",SULAWESI TENGAH,94222.0,Indonesia,,,,-0.9335112,119.8560724,https://maps.google.com/?cid=0x0:0xb05592ea0ac00b65,
supermarket,supermarket,Kec. Marawola Barat,"Kabupaten Sigi, Sulawesi Tengah","Kabupaten Sigi, Sulawesi Tengah",SULAWESI TENGAH,,Indonesia,,,,-0.9674043,119.780961,https://maps.google.com/?cid=0x0:0xb7948086e4538741,
supermarket,Toko umum,Kios Kharisma,"3V54+V9R, Baliase, Kec. Marawola, Kabupaten Sigi, Sulawesi Tengah 94222","Baliase, Kec. Marawola, Kabupaten Sigi",SULAWESI TENGAH,94222.0,Indonesia,82195593556.0,,,-0.9402518,119.8558923,https://maps.google.com/?cid=0x0:0xc1a068bbf737d7f6,
supermarket,Toko Swalayan,Swalayan BMS Pengawu,"3RGV+RWC, Duyu, Kec. Tatanga, Kota Palu, Sulawesi Tengah","Kota Palu, Sulawesi Tengah",SULAWESI TENGAH,,Indonesia,,,,-0.9229332,119.8447576,https://maps.google.com/?cid=0x0:0xd756beeb6f3774bf,
supermarket,Toko bahan makanan,toko cahaya global,"3V54+XCG, Baliase, Kec. Marawola, Kabupaten Sigi, Sulawesi Tengah 94222","Baliase, Kec. Marawola, Kabupaten Sigi",SULAWESI TENGAH,94222.0,Indonesia,,,,-0.940051,119.856063,https://maps.google.com/?cid=0x0:0x81120b4b28b3a49b,
supermarket,Komplek perumahan,Perumahan Dreamland 5 baliase,"3V76+4J6, Jl. Tavanjuka Permai, Baliase, Kec. Marawola, Kabupaten Sigi, Sulawesi Tengah 94222","Jl. Tavanjuka Permai, Baliase, Kec. Marawola, Kabupaten Sigi",SULAWESI TENGAH,94222.0,Indonesia,85241180802.0,,,-0.9372182,119.8615171,https://maps.google.com/?cid=0x0:0xa7398dc61e7bf68,
supermarket,Toko bahan makanan,Rizwar CELL,"3V54+578, Baliase, Kec. Marawola, Kabupaten Sigi, Sulawesi Tengah 94222","Baliase, Kec. Marawola, Kabupaten Sigi",SULAWESI TENGAH,94222.0,Indonesia,82195322191.0,,,-0.9420913,119.8557127,https://maps.google.com/?cid=0x0:0xc5692650fe160ba4,
supermarket,Toko bahan makanan,Amar 2 Mini Swalayan,"2VGJ+R6H, Jl. Habib Moh. Al-Jufri, Kabobona, Kec. Dolo, Kabupaten Sigi, Sulawesi Tengah 94361","Jl. Habib Moh. Al-Jufri, Kabobona, Kec. Dolo, Kabupaten Sigi",SULAWESI TENGAH,94361.0,Indonesia,,,,-0.9729444,119.8806131,https://maps.google.com/?cid=0x0:0x6cb1af0ed630f3fc,
supermarket,Toko,Swalayan Amar Palupi,"3VC4+9QJ, Palupi, Kec. Tatanga, Kota Palu, Sulawesi Tengah 94222","Palupi, Kec. Tatanga, Kota Palu",SULAWESI TENGAH,94222.0,Indonesia,,,,-0.9290282,119.8568866,https://maps.google.com/?cid=0x0:0xe8d8177a1b4e63a1,
supermarket,Toko bahan makanan,KIOS YUMNAYLA,"3V64+68F, Jl. Poros Palu Bangga, Baliase, Kec. Marawola, Kabupaten Sigi, Sulawesi Tengah 94222","Jl. Poros Palu Bangga, Baliase, Kec. Marawola, Kabupaten Sigi",SULAWESI TENGAH,94222.0,Indonesia,,,,-0.9394301,119.8557758,https://maps.google.com/?cid=0x0:0xa4d0b4926cdde55f,
supermarket,Toko Swalayan,Swalayan Ganesha,"3VF4+3FW, Jl. Poros Palu Bangga, Palupi, Kec. Tatanga, Kota Palu, Sulawesi Tengah 94222","Jl. Poros Palu Bangga, Palupi, Kec. Tatanga, Kota Palu",SULAWESI TENGAH,94222.0,Indonesia,,,,-0.9272713,119.8561982,https://maps.google.com/?cid=0x0:0x84914685b537bd0f,
supermarket,Dapur Umum,Raturamu.id,"BTN Nabila, Blk. A No.14, Baliase, Kec. Marawola, Kabupaten Sigi, Sulawesi Tengah 94222","Blk. A No.14, Baliase, Kec. Marawola, Kabupaten Sigi",SULAWESI TENGAH,94222.0,Indonesia,82296046398.0,,,-0.9367644,119.8528939,https://maps.google.com/?cid=0x0:0xdd95af2176d6184b,
supermarket,Minimarket,Kios Family 2,"3VG8+2QM, Tinggede, Kec. Marawola, Kabupaten Sigi, Sulawesi Tengah 94111","Tinggede, Kec. Marawola, Kabupaten Sigi",SULAWESI TENGAH,94111.0,Indonesia,81341226681.0,,,-0.924914,119.8669224,https://maps.google.com/?cid=0x0:0x43e7b3f0a64bf51,
supermarket,Toko Swalayan,E-Warong Depot Sarara,"3R9V+JQJ, Jl. Malontara, Pengawu, Kec. Tatanga, Kota Palu, Sulawesi Tengah 94221","Jl. Malontara, Pengawu, Kec. Tatanga, Kota Palu",SULAWESI TENGAH,94221.0,Indonesia,,,,-0.9309115,119.8443804,https://maps.google.com/?cid=0x0:0xb573bef30c0d94b7,
supermarket,Grosir Beras,SINAR INTAN.KS,"BTN, Jl. Berlian No.1 blok p4, Baliase, Kec. Marawola, Kabupaten Sigi, Sulawesi Tengah 94222","Jl. Berlian No.1 blok p4, Baliase, Kec. Marawola, Kabupaten Sigi",SULAWESI TENGAH,94222.0,Indonesia,85343730004.0,,,-0.9410014,119.8555366,https://maps.google.com/?cid=0x0:0xe66a71ec441778c8,
supermarket,Pasar,Kios ASRI,"2VR3+HPC, Padende, Kec. Marawola, Kabupaten Sigi, Sulawesi Tengah 94237","Padende, Kec. Marawola, Kabupaten Sigi",SULAWESI TENGAH,94237.0,Indonesia,,,,-0.9585723,119.8542618,https://maps.google.com/?cid=0x0:0xd7904aa9eb0ac08,
supermarket,Pasar,Pasar Dombu,"2QQM+WWM, Dombu, Kec. Banawa Sel., Kabupaten Sigi, Sulawesi Tengah 94226","Dombu, Kec. Banawa Sel., Kabupaten Sigi",SULAWESI TENGAH,94226.0,Indonesia,,,,-0.9601522,119.7847917,https://maps.google.com/?cid=0x0:0xd50b85cb9b56504c,
supermarket,Toko bahan makanan,Frozen Food 89,"Jl. Rezeki BTN Pondok Indah No.C3, Boyabaliase, Kec. Marawola, Kabupaten Sigi, Sulawesi Tengah 94222","Boyabaliase, Kec. Marawola, Kabupaten Sigi",SULAWESI TENGAH,94222.0,Indonesia,82259597866.0,,,-0.945475,119.8510311,https://maps.google.com/?cid=0x0:0x5c4a31c30b1ad688,
supermarket,Pusat Perbelanjaan,Alkhairaat Swalayan,"Jl. Poros Palu Bangga No.51-81, Palupi, Kec. Tatanga, Kota Palu, Sulawesi Tengah 94237","Palupi, Kec. Tatanga, Kota Palu",SULAWESI TENGAH,94237.0,Indonesia,81241510488.0,,,-0.931417,119.855944,https://maps.google.com/?cid=0x0:0x81c83f55e0953585,
supermarket,Toko bahan makanan,Kios adhy,"2VM3+FWF, Jl. Poros Palu Bangga, Padende, Kec. Marawola, Kabupaten Sigi, Sulawesi Tengah 94237","Jl. Poros Palu Bangga, Padende, Kec. Marawola, Kabupaten Sigi",SULAWESI TENGAH,94237.0,Indonesia,,,,-0.9663052,119.8548041,https://maps.google.com/?cid=0x0:0x529170bace57341c,
supermarket,Toko bahan makanan,Mancha Fresh Food,"Baliase, Kec. Marawola, Kabupaten Sigi, Sulawesi Tengah 94222","Kec. Marawola, Kabupaten Sigi",SULAWESI TENGAH,94222.0,Indonesia,81258787092.0,,,-0.933334,119.859077,https://maps.google.com/?cid=0x0:0x2d68d5fbf31b7642,
supermarket,Toko Swalayan,jaya,"3VCF+R9R, Tinggede, Kec. Marawola, Kabupaten Sigi, Sulawesi Tengah 94235","Tinggede, Kec. Marawola, Kabupaten Sigi",SULAWESI TENGAH,94235.0,Indonesia,81327807937.0,,,-0.9278997,119.8734015,https://maps.google.com/?cid=0x0:0x6d631e2dcb6da50c,
supermarket,Toko Swalayan,Syahrani Cell,"3RJQ+5GG, Duyu, Kec. Palu Bar., Kota Palu, Sulawesi Tengah","Kota Palu, Sulawesi Tengah",SULAWESI TENGAH,,Indonesia,,,,-0.9195524,119.838832,https://maps.google.com/?cid=0x0:0x155cba1cffc1f65e,
supermarket,Toko Swalayan,Toko Jeje,"3V58+3FC, Jl. Manunggal, Baliase, Kec. Marawola, Kabupaten Sigi, Sulawesi Tengah 94222","Jl. Manunggal, Baliase, Kec. Marawola, Kabupaten Sigi",SULAWESI TENGAH,94222.0,Indonesia,,,,-0.9423245,119.8661406,https://maps.google.com/?cid=0x0:0xdb830e3743d43ca,
supermarket,Toko bahan makanan,As'Syifa Mart,"Jl. Malontara, Pengawu, Kec. Tatanga, Kota Palu, Sulawesi Tengah 94221","Pengawu, Kec. Tatanga, Kota Palu",SULAWESI TENGAH,94221.0,Indonesia,85241367480.0,,,-0.9309681,119.8440876,https://maps.google.com/?cid=0x0:0xc754eb1edc93d9e4,
supermarket,Toko Swalayan,Grand Hero Swalayan,"Jl. Jenderal Basuki Rahmat No.31, Tatura Sel., Kec. Palu Sel., Kota Palu, Sulawesi Tengah 94111","Tatura Sel., Kec. Palu Sel., Kota Palu",SULAWESI TENGAH,94111.0,Indonesia,451481451.0,,,-0.9187004,119.8796472,https://maps.google.com/?cid=0x0:0xb9406a15fa1dd6dc,
supermarket,,Kios Fadlia,"3RCW+P3W, Jl. Malontara, Pengawu, Kec. Palu Sel., Kota Palu, Sulawesi Tengah 94221","Jl. Malontara, Pengawu, Kec. Palu Sel., Kota Palu",SULAWESI TENGAH,94221.0,Indonesia,81355595603.0,,,-0.9281317,119.8451887,https://maps.google.com/?cid=0x0:0x1c8f741ed504dc0f,
supermarket,Toko umum,Rumah BP KSJ_Raqih,"Jl. Munif Rahman 2, Kabonena, Kec. Palu Bar., Kota Palu, Sulawesi Tengah 94221","Kabonena, Kec. Palu Bar., Kota Palu",SULAWESI TENGAH,94221.0,Indonesia,85215257952.0,,,-0.893825,119.8345012,https://maps.google.com/?cid=0x0:0xc73bc94d5d64470e,
supermarket,Toko Perlengkapan Rumah,Kios Bayu,"Jl. Rezeki BTN Pd. Surya Blok A No. 03, Boyabaliase, Kec. Marawola, Kabupaten Sigi, Sulawesi Tengah 94222","Boyabaliase, Kec. Marawola, Kabupaten Sigi",SULAWESI TENGAH,94222.0,Indonesia,82161035943.0,,,-0.9448933,119.85163,https://maps.google.com/?cid=0x0:0x933b98c8700a516d,
supermarket,Toko bahan makanan,SYAMIL HALAL MART,"3V79+MR6, Jl. Lasaganti, Tinggede, Kec. Marawola, Kabupaten Sigi, Sulawesi Tengah 94235","Jl. Lasaganti, Tinggede, Kec. Marawola, Kabupaten Sigi",SULAWESI TENGAH,94235.0,Indonesia,82266078807.0,,,-0.9358273,119.8695012,https://maps.google.com/?cid=0x0:0xee16bd7f17e0bdec,
supermarket,supermarket,Kec. Nokilalaki,"Kabupaten Sigi, Sulawesi Tengah","Kabupaten Sigi, Sulawesi Tengah",SULAWESI TENGAH,,Indonesia,,,,-1.1889906,120.1320653,https://maps.google.com/?cid=0x0:0xc5bb665e4a1adbde,
supermarket,Toko Swalayan,Kios Pancaran Berkat,"R4W6+WF3, Jl. Trans Palu, Desa UeRani, Sejahtera, Kec. Palolo, Kabupaten Sigi, Sulawesi Tengah 94473","Jl. Trans Palu, Desa UeRani, Sejahtera, Kec. Palolo, Kabupaten Sigi",SULAWESI TENGAH,94473.0,Indonesia,,,,-1.1527458,120.1111704,https://maps.google.com/?cid=0x0:0x459badd3a37f1572,
supermarket,Toko Perlengkapan Rumah,Toko nabila sejahtera,"Dekat masjid samiul basir, Sejahtera, Kec. Palolo, Kabupaten Sigi, Sulawesi Tengah 94366","Sejahtera, Kec. Palolo, Kabupaten Sigi",SULAWESI TENGAH,94366.0,Indonesia,82218994310.0,,,-1.156545,120.1189695,https://maps.google.com/?cid=0x0:0x6a06fe26e99293ae,
supermarket,Toko bahan makanan,KIOS YUMNAYLA,"3V64+68F, Jl. Poros Palu Bangga, Baliase, Kec. Marawola, Kabupaten Sigi, Sulawesi Tengah 94222","Jl. Poros Palu Bangga, Baliase, Kec. Marawola, Kabupaten Sigi",SULAWESI TENGAH,94222.0,Indonesia,,,,-0.9394301,119.8557758,https://maps.google.com/?cid=0x0:0xa4d0b4926cdde55f,
supermarket,Minimarket,Alfamidi Nokilalaki Palu,"3VXH+MR6, Jl. Nokilalaki Utara, Lolu Utara, Kec. Palu Tim., Kota Palu, Sulawesi Tengah 94112","Jl. Nokilalaki Utara, Lolu Utara, Kec. Palu Tim., Kota Palu",SULAWESI TENGAH,94112.0,Indonesia,81290111229.0,,,-0.9008381,119.8795288,https://maps.google.com/?cid=0x0:0xa9cd2865c4c70ad2,
supermarket,Toko Swalayan,Toko Citarasa,"Ranteleda, Kec. Palolo, Kota palu, Sulawesi Tengah 94366","Kec. Palolo, Kota palu",SULAWESI TENGAH,94366.0,Indonesia,81390679496.0,,,-1.1442991,120.0707238,https://maps.google.com/?cid=0x0:0x8e820d3f699eafc6,
supermarket,supermarket,Kios Sipulemu,"R478+V2W, Sopu, Kec. Nokilalaki, Kabupaten Sigi, Sulawesi Tengah 94364","Sopu, Kec. Nokilalaki, Kabupaten Sigi",SULAWESI TENGAH,94364.0,Indonesia,,,,-1.18527,120.1150694,https://maps.google.com/?cid=0x0:0xd8a26681a28d11cc,
supermarket,supermarket,Kios Helmi  Jendri,"R45J+JVV, Kamarora A, Kec. Nokilalaki, Kabupaten Sigi, Sulawesi Tengah 94364","Kamarora A, Kec. Nokilalaki, Kabupaten Sigi",SULAWESI TENGAH,94364.0,Indonesia,,,,-1.1908985,120.1321658,https://maps.google.com/?cid=0x0:0xcf953b7bffc76038,
supermarket,supermarket,Bulu Nokilelaki,"Anca, Kec. Lindu, Kabupaten Sigi, Sulawesi Tengah","Kabupaten Sigi, Sulawesi Tengah",SULAWESI TENGAH,,Indonesia,,,,-1.255,120.1658333,https://maps.google.com/?cid=0x0:0xe44ef7613de36c0b,
supermarket,Minimarket,Kios AQHILA,"V39C+R5V, Ampera, Kec. Palolo, Kabupaten Sigi, Sulawesi Tengah 94364","Ampera, Kec. Palolo, Kabupaten Sigi",SULAWESI TENGAH,94364.0,Indonesia,,,,-1.1320985,120.0716326,https://maps.google.com/?cid=0x0:0xf93864305d22c6d,
supermarket,supermarket,Sulawesi Tengah 94364,"Kabupaten Sigi, Sulawesi Tengah","Kabupaten Sigi, Sulawesi Tengah",SULAWESI TENGAH,,Indonesia,,,,-1.1495881,120.0202964,https://maps.google.com/?cid=0x0:0xc1b3b50bcce1d51b,
supermarket,Toko umum,Sigi mart,"XWPP+4C8, Jl. Poros Palu-Palolo, Oloboju, Sigi Kota, Kabupaten Sigi, Sulawesi Tengah 94364","Jl. Poros Palu-Palolo, Oloboju, Sigi Kota, Kabupaten Sigi",SULAWESI TENGAH,94364.0,Indonesia,82394210582.0,,,-1.0147054,119.936073,https://maps.google.com/?cid=0x0:0x72df6b9e6bd68561,
supermarket,Grosir,Toko Mitra Harapan,"R5J2+66R, Jalan Trans Palunapu, Uenuni, Kec. Palolo, Kabupaten Sigi, Sulawesi Tengah 94473","Jalan Trans Palunapu, Uenuni, Kec. Palolo, Kabupaten Sigi",SULAWESI TENGAH,94473.0,Indonesia,82291958833.0,,,-1.1693878,120.1505147,https://maps.google.com/?cid=0x0:0xcc30f289193114ae,
supermarket,Kios,Kios Nur 1,"V3JH+37W, Rejeki, Kec. Palolo, Kabupaten Sigi, Sulawesi Tengah 94364","Rejeki, Kec. Palolo, Kabupaten Sigi",SULAWESI TENGAH,94364.0,Indonesia,82293685639.0,,,-1.1195049,120.0782423,https://maps.google.com/?cid=0x0:0x9b5da4c2d0040a11,
supermarket,Toko Perlengkapan Rumah,Toko nabila sejahtera,"Dekat masjid samiul basir, Sejahtera, Kec. Palolo, Kabupaten Sigi, Sulawesi Tengah 94366","Sejahtera, Kec. Palolo, Kabupaten Sigi",SULAWESI TENGAH,94366.0,Indonesia,82218994310.0,,,-1.156545,120.1189695,https://maps.google.com/?cid=0x0:0x6a06fe26e99293ae,
supermarket,Toko bahan makanan,SUKSES TANI PALOLO,"V355+8XR, Makmur, Kec. Palolo, Kabupaten Sigi, Sulawesi Tengah","Kabupaten Sigi, Sulawesi Tengah",SULAWESI TENGAH,,Indonesia,,,,-1.1416449,120.0598769,https://maps.google.com/?cid=0x0:0xd108482c389b5a36,
supermarket,Pusat Perbelanjaan,Kios fikran (ff_store),"XW2V+667, Jl. Poros Palu-Palolo, Bora, Kec. Sigi Biromaru, Kabupaten Sigi, Sulawesi Tengah 94361","Jl. Poros Palu-Palolo, Bora, Kec. Sigi Biromaru, Kabupaten Sigi",SULAWESI TENGAH,94361.0,Indonesia,82188449305.0,,,-1.0494748,119.9430332,https://maps.google.com/?cid=0x0:0xc78f754a52051236,
supermarket,Toko bahan makanan,LapaksayursembakoMbakFera,"2W4C+9X7, Jl. Poros Palu-Palolo, Sidera, Kec. Sigi Biromaru, Kabupaten Sigi, Sulawesi Tengah","Kabupaten Sigi, Sulawesi Tengah",SULAWESI TENGAH,,Indonesia,,,,-0.9940901,119.922411,https://maps.google.com/?cid=0x0:0xf00d7edb661b37d8,
supermarket,Pasar,Pasar Tradisional Omu,"PWGW+PC5, Jl. Poros Palu - Kulawi, Omu, Kec. Gumbasa, Kabupaten Sigi, Sulawesi Tengah 94361","Jl. Poros Palu - Kulawi, Omu, Kec. Gumbasa, Kabupaten Sigi",SULAWESI TENGAH,94361.0,Indonesia,,,,-1.2732283,119.9461217,https://maps.google.com/?cid=0x0:0x57c7dfcc547d3746,
supermarket,Toko bahan makanan,Amar 2 Mini Swalayan,"2VGJ+R6H, Jl. Habib Moh. Al-Jufri, Kabobona, Kec. Dolo, Kabupaten Sigi, Sulawesi Tengah 94361","Jl. Habib Moh. Al-Jufri, Kabobona, Kec. Dolo, Kabupaten Sigi",SULAWESI TENGAH,94361.0,Indonesia,,,,-0.9729444,119.8806131,https://maps.google.com/?cid=0x0:0x6cb1af0ed630f3fc,
supermarket,Pusat Perbelanjaan,Outlet Azka,"XWPM+W4X, Jl. Poros Palu-Palolo, Sidera, Kec. Sigi Biromaru, Kabupaten Sigi, Sulawesi Tengah","Kabupaten Sigi, Sulawesi Tengah",SULAWESI TENGAH,,Indonesia,,,,-1.012631,119.9328702,https://maps.google.com/?cid=0x0:0x7ce346d83d2b3701,
supermarket,Toko,Az'Store Palolo,"R3G9+Q46, Rahmat, Kec. Palolo, Kabupaten Sigi, Sulawesi Tengah 94364","Rahmat, Kec. Palolo, Kabupaten Sigi",SULAWESI TENGAH,94364.0,Indonesia,82215869955.0,,,-1.1730958,120.0677669,https://maps.google.com/?cid=0x0:0x4a03d7aedf10abd4,
supermarket,Kios,Kios rama,"Jl. Poros Palu-Palolo, Jono Oge, Kec. Sigi Biromaru, Kabupaten Sigi, Sulawesi Tengah","Kabupaten Sigi, Sulawesi Tengah",SULAWESI TENGAH,,Indonesia,,,,-0.9796363,119.9172308,https://maps.google.com/?cid=0x0:0xa07465b00129fbc0,
supermarket,Toko umum,Sustran Fotocopy,"2W3F+573, Jl. Poros Palu-Palolo, Sidera, Sigi Kota, Kabupaten Sigi, Sulawesi Tengah 94364","Jl. Poros Palu-Palolo, Sidera, Sigi Kota, Kabupaten Sigi",SULAWESI TENGAH,94364.0,Indonesia,81341471839.0,,,-0.9971042,119.9231672,https://maps.google.com/?cid=0x0:0x3f1f76cc2cb5777e,
supermarket,Kios,KIOS 2 R,"VWJ6+G4G, Sibowi, Kec. Tanambulava, Kabupaten Sigi, Sulawesi Tengah 94361","Sibowi, Kec. Tanambulava, Kabupaten Sigi",SULAWESI TENGAH,94361.0,Indonesia,81342352983.0,,,-1.1186961,119.9103157,https://maps.google.com/?cid=0x0:0xc52b1abb5fd6818,
supermarket,Pertanian,PERKEBUNAN CABAI H.TAUFIQ DG MASIRI DESA SINTUWU,"R3R3+H2Q, Sintuwu, Kec. Palolo, Kabupaten Sigi, Sulawesi Tengah 94364","Sintuwu, Kec. Palolo, Kabupaten Sigi",SULAWESI TENGAH,94364.0,Indonesia,,,,-1.1588287,120.0519405,https://maps.google.com/?cid=0x0:0xfe4137629ce99476,
supermarket,Toko bahan makanan,Kios Adit,"XWRG+VWJ, Sidera, Kec. Sigi Biromaru, Kabupaten Sigi, Sulawesi Tengah 94362","Sidera, Kec. Sigi Biromaru, Kabupaten Sigi",SULAWESI TENGAH,94362.0,Indonesia,,,,-1.0073483,119.927878,https://maps.google.com/?cid=0x0:0x4bb7ea4020d7ae90,
supermarket,Toko Swalayan,Toko Citarasa,"Ranteleda, Kec. Palolo, Kota palu, Sulawesi Tengah 94366","Kec. Palolo, Kota palu",SULAWESI TENGAH,94366.0,Indonesia,81390679496.0,,,-1.1442991,120.0707238,https://maps.google.com/?cid=0x0:0x8e820d3f699eafc6,
supermarket,Toko umum,BUMdes magaya pura,"XWPP+3CW, Jl. Poros Palu-Palolo, Oloboju, Sigi Kota, Kabupaten Sigi, Sulawesi Tengah 94364","Jl. Poros Palu-Palolo, Oloboju, Sigi Kota, Kabupaten Sigi",SULAWESI TENGAH,94364.0,Indonesia,82325111911.0,,,-1.0147586,119.9360885,https://maps.google.com/?cid=0x0:0x7eb41ccb5d64de74,
supermarket,Toko umum,Kios Ibu Dijah,"RWHQ+G35, Jalan Pendidikan, Kalawara, Kec. Gumbasa, Kabupaten Sigi, Sulawesi Tengah 94361","Jalan Pendidikan, Kalawara, Kec. Gumbasa, Kabupaten Sigi",SULAWESI TENGAH,94361.0,Indonesia,85256703891.0,,,-1.1712361,119.9377331,https://maps.google.com/?cid=0x0:0x70589f9eab38c638,
supermarket,supermarket,Palolo,"Honolulu, Hawaii, Amerika Serikat","Honolulu, Hawaii, Amerika Serikat",SULAWESI TENGAH,,Indonesia,,,,21.3126058,-157.7794817,https://maps.google.com/?cid=0x0:0x96a92335f0deeacc,
supermarket,Toko bahan makanan,Palolo Family Mart,"1829 Palolo Ave, Honolulu, HI 96816, Amerika Serikat","Honolulu, HI",SULAWESI TENGAH,96816.0,Indonesia,18087324219.0,,,21.2960551,-157.7986675,https://maps.google.com/?cid=0x0:0x6e2222b32b77b3c0,
supermarket,Toko bahan makanan,Valley Market,"2402 10th Ave, Honolulu, HI 96816, Amerika Serikat","Honolulu, HI",SULAWESI TENGAH,96816.0,Indonesia,18087378952.0,,,21.3027473,-157.7892964,https://maps.google.com/?cid=0x0:0x8a5a1b580c544db5,
supermarket,Toko bahan makanan,Times Supermarket - Kaimuki,"3221 Waialae Ave, Honolulu, HI 96816, Amerika Serikat","Honolulu, HI",SULAWESI TENGAH,96816.0,Indonesia,18087335050.0,,,21.2867761,-157.8078043,https://maps.google.com/?cid=0x0:0x4ddb5c42110fcb26,
supermarket,Toko bahan makanan,Times Supermarket - Kahala,"1173 21st Ave, Honolulu, HI 96816, Amerika Serikat","Honolulu, HI",SULAWESI TENGAH,96816.0,Indonesia,18087332466.0,,,21.2778919,-157.7886685,https://maps.google.com/?cid=0x0:0x48dd8eca412a635b,
supermarket,Toko bahan makanan,Number One Store,"1638 10th Ave, Honolulu, HI 96816, Amerika Serikat","Honolulu, HI",SULAWESI TENGAH,96816.0,Indonesia,18087372398.0,,,21.2911921,-157.7971112,https://maps.google.com/?cid=0x0:0x550ba8c019962cbb,
supermarket,Toko bahan makanan,Whole Foods Market,"4211 Wai'alae Ave Ste 2000, Honolulu, HI 96816, Amerika Serikat","Honolulu, HI",SULAWESI TENGAH,96816.0,Indonesia,18087380820.0,,,21.2773696,-157.7864675,https://maps.google.com/?cid=0x0:0xccdfdadda5947848,
supermarket,Toko Kelontong Korea,Palama Supermarket,"1670 Makaloa St, Honolulu, HI 96814, Amerika Serikat","Honolulu, HI",SULAWESI TENGAH,96814.0,Indonesia,18084477777.0,,,21.2930108,-157.837294,https://maps.google.com/?cid=0x0:0xadd94d01cf85c141,
supermarket,Toko bahan makanan,Foodland Market City,"2939 Harding Ave, Honolulu, HI 96816, Amerika Serikat","Honolulu, HI",SULAWESI TENGAH,96816.0,Indonesia,18087346303.0,,,21.2879401,-157.8139744,https://maps.google.com/?cid=0x0:0xe0b8f12d6627bbf8,
supermarket,Toko umum,Kios opa ares,"6W88+VF5, Dusun 1 bola, Peana, Pipikoro, Kabupaten Sigi, Sulawesi Tengah","Kabupaten Sigi, Sulawesi Tengah",SULAWESI TENGAH,,Indonesia,,,,-1.7828607,119.9162276,https://maps.google.com/?cid=0x0:0x35b58dc5c2cb97b5,
supermarket,Toko,KIOS RADE,"8WJ2+637, Lone Basa, Pipikoro, Kabupaten Sigi, Sulawesi Tengah 94112","Lone Basa, Pipikoro, Kabupaten Sigi",SULAWESI TENGAH,94112.0,Indonesia,,,,-1.6694285,119.9009503,https://maps.google.com/?cid=0x0:0x2044f0ee8ca8aaaa,
supermarket,supermarket,Sulawesi Tengah 94364,"Kabupaten Sigi, Sulawesi Tengah","Kabupaten Sigi, Sulawesi Tengah",SULAWESI TENGAH,,Indonesia,,,,-1.1495881,120.0202964,https://maps.google.com/?cid=0x0:0xc1b3b50bcce1d51b,
supermarket,Pasar,Pasar Ranggulalo Biromaru,"2WVH+749, Mpanau, Kec. Sigi Biromaru, Kabupaten Sigi, Sulawesi Tengah 94231","Mpanau, Kec. Sigi Biromaru, Kabupaten Sigi",SULAWESI TENGAH,94231.0,Indonesia,,,,-0.9568436,119.9278612,https://maps.google.com/?cid=0x0:0x61caf770ce73b545,
supermarket,Toko bahan makanan,Kios Adit,"XWRG+VWJ, Sidera, Kec. Sigi Biromaru, Kabupaten Sigi, Sulawesi Tengah 94362","Sidera, Kec. Sigi Biromaru, Kabupaten Sigi",SULAWESI TENGAH,94362.0,Indonesia,,,,-1.0073483,119.927878,https://maps.google.com/?cid=0x0:0x4bb7ea4020d7ae90,
supermarket,Toko umum,Sigi mart,"XWPP+4C8, Jl. Poros Palu-Palolo, Oloboju, Sigi Kota, Kabupaten Sigi, Sulawesi Tengah 94364","Jl. Poros Palu-Palolo, Oloboju, Sigi Kota, Kabupaten Sigi",SULAWESI TENGAH,94364.0,Indonesia,82394210582.0,,,-1.0147054,119.936073,https://maps.google.com/?cid=0x0:0x72df6b9e6bd68561,
supermarket,Pusat Perbelanjaan,Kios fikran (ff_store),"XW2V+667, Jl. Poros Palu-Palolo, Bora, Kec. Sigi Biromaru, Kabupaten Sigi, Sulawesi Tengah 94361","Jl. Poros Palu-Palolo, Bora, Kec. Sigi Biromaru, Kabupaten Sigi",SULAWESI TENGAH,94361.0,Indonesia,82188449305.0,,,-1.0494748,119.9430332,https://maps.google.com/?cid=0x0:0xc78f754a52051236,
supermarket,Kios,Kios rama,"Jl. Poros Palu-Palolo, Jono Oge, Kec. Sigi Biromaru, Kabupaten Sigi, Sulawesi Tengah","Kabupaten Sigi, Sulawesi Tengah",SULAWESI TENGAH,,Indonesia,,,,-0.9796363,119.9172308,https://maps.google.com/?cid=0x0:0xa07465b00129fbc0,
supermarket,Toko Swalayan,AMAR SWALAYAN,"2VRV+R32, Jl. Lando 2, Kalukubula, Kec. Sigi Biromaru, Kabupaten Sigi, Sulawesi Tengah 94236","Jl. Lando 2, Kalukubula, Kec. Sigi Biromaru, Kabupaten Sigi",SULAWESI TENGAH,94236.0,Indonesia,,,,-0.9579919,119.8926363,https://maps.google.com/?cid=0x0:0x96f1286183978e2b,
supermarket,Toko bahan makanan,Amar 2 Mini Swalayan,"2VGJ+R6H, Jl. Habib Moh. Al-Jufri, Kabobona, Kec. Dolo, Kabupaten Sigi, Sulawesi Tengah 94361","Jl. Habib Moh. Al-Jufri, Kabobona, Kec. Dolo, Kabupaten Sigi",SULAWESI TENGAH,94361.0,Indonesia,,,,-0.9729444,119.8806131,https://maps.google.com/?cid=0x0:0x6cb1af0ed630f3fc,
supermarket,Minimarket,Kios Naura sasanabila,"Unnamed Road, Kalukubula, Kec. Sigi Biromaru, Kabupaten Sigi, Sulawesi Tengah 94236","Kalukubula, Kec. Sigi Biromaru, Kabupaten Sigi",SULAWESI TENGAH,94236.0,Indonesia,81243842693.0,,,-0.9477142,119.8936103,https://maps.google.com/?cid=0x0:0x74a5426ccb087951,
supermarket,Grosir,Toko Mitra Harapan,"R5J2+66R, Jalan Trans Palunapu, Uenuni, Kec. Palolo, Kabupaten Sigi, Sulawesi Tengah 94473","Jalan Trans Palunapu, Uenuni, Kec. Palolo, Kabupaten Sigi",SULAWESI TENGAH,94473.0,Indonesia,82291958833.0,,,-1.1693878,120.1505147,https://maps.google.com/?cid=0x0:0xcc30f289193114ae,
supermarket,Toko Perlengkapan Rumah,Toko nabila sejahtera,"Dekat masjid samiul basir, Sejahtera, Kec. Palolo, Kabupaten Sigi, Sulawesi Tengah 94366","Sejahtera, Kec. Palolo, Kabupaten Sigi",SULAWESI TENGAH,94366.0,Indonesia,82218994310.0,,,-1.156545,120.1189695,https://maps.google.com/?cid=0x0:0x6a06fe26e99293ae,
supermarket,Toko Pertanian,Toko Pertanian Berkah Tani,"Jl. Lasoso No.99, Lolu, Kec. Sigi Biromaru, Kabupaten Sigi, Sulawesi Tengah 94231","Lolu, Kec. Sigi Biromaru, Kabupaten Sigi",SULAWESI TENGAH,94231.0,Indonesia,82229977336.0,,,-0.9717894,119.9166303,https://maps.google.com/?cid=0x0:0xa82f4fcf84ca59ab,
supermarket,Taman,Pondok Kebun Ubi,"2WRC+62F, Jl. Tadulako, Lolu, Kec. Sigi Biromaru, Kabupaten Sigi, Sulawesi Tengah 94231","Jl. Tadulako, Lolu, Kec. Sigi Biromaru, Kabupaten Sigi",SULAWESI TENGAH,94231.0,Indonesia,85394693670.0,,,-0.9594417,119.9200624,https://maps.google.com/?cid=0x0:0x365f3c5097d2ea31,
supermarket,Toko umum,Kios Ibu Dijah,"RWHQ+G35, Jalan Pendidikan, Kalawara, Kec. Gumbasa, Kabupaten Sigi, Sulawesi Tengah 94361","Jalan Pendidikan, Kalawara, Kec. Gumbasa, Kabupaten Sigi",SULAWESI TENGAH,94361.0,Indonesia,85256703891.0,,,-1.1712361,119.9377331,https://maps.google.com/?cid=0x0:0x70589f9eab38c638,
supermarket,Toko umum,Kios Dua Putra,"3V4V+4QF, Jl. Klp. Gading, Kalukubula, Kec. Sigi Biromaru, Kabupaten Sigi, Sulawesi Tengah 94236","Jl. Klp. Gading, Kalukubula, Kec. Sigi Biromaru, Kabupaten Sigi",SULAWESI TENGAH,94236.0,Indonesia,,,,-0.9446972,119.8944286,https://maps.google.com/?cid=0x0:0x61e5c39736b9c669,
supermarket,Minimarket,Alfamidi Guru Tua,"Jl. Guru Tua No.36, Kalukubula, Kec. Sigi Biromaru, Kabupaten Sigi, Sulawesi Tengah 94235","Kalukubula, Kec. Sigi Biromaru, Kabupaten Sigi",SULAWESI TENGAH,94235.0,Indonesia,,,,-0.9364798,119.8846762,https://maps.google.com/?cid=0x0:0xfd3cce2a7980f45c,
supermarket,Minimarket,TOKO MITHA,"Jl. Lando, Kalukubula, Kec. Sigi Biromaru, Kabupaten Sigi, Sulawesi Tengah","Kabupaten Sigi, Sulawesi Tengah",SULAWESI TENGAH,,Indonesia,,,,-0.9562332,119.8908447,https://maps.google.com/?cid=0x0:0x2898c4f291e93662,
supermarket,Toko umum,Kios Kharisma,"3V54+V9R, Baliase, Kec. Marawola, Kabupaten Sigi, Sulawesi Tengah 94222","Baliase, Kec. Marawola, Kabupaten Sigi",SULAWESI TENGAH,94222.0,Indonesia,82195593556.0,,,-0.9402518,119.8558923,https://maps.google.com/?cid=0x0:0xc1a068bbf737d7f6,
supermarket,Toko Swalayan,Seven Mart,"Jl. I Gusti Ngurah Rai No.77, Tawanjuka, Kec. Palu Sel., Kota Palu, Sulawesi Tengah 94111","Tawanjuka, Kec. Palu Sel., Kota Palu",SULAWESI TENGAH,94111.0,Indonesia,,,,-0.9227722,119.8643451,https://maps.google.com/?cid=0x0:0xf6f567a3e7ac003b,
supermarket,Toko Swalayan,Kios Pancaran Berkat,"R4W6+WF3, Jl. Trans Palu, Desa UeRani, Sejahtera, Kec. Palolo, Kabupaten Sigi, Sulawesi Tengah 94473","Jl. Trans Palu, Desa UeRani, Sejahtera, Kec. Palolo, Kabupaten Sigi",SULAWESI TENGAH,94473.0,Indonesia,,,,-1.1527458,120.1111704,https://maps.google.com/?cid=0x0:0x459badd3a37f1572,
supermarket,Toko Swalayan,Kios Viffal,"Wisolo, Kec. Dolo Sel., Kabupaten Sigi, Sulawesi Tengah 94362","Kec. Dolo Sel., Kabupaten Sigi",SULAWESI TENGAH,94362.0,Indonesia,895320222858.0,,,-1.122846,119.8769465,https://maps.google.com/?cid=0x0:0x197fdc433a6e3f49,
supermarket,Toko bahan makanan,LapaksayursembakoMbakFera,"2W4C+9X7, Jl. Poros Palu-Palolo, Sidera, Kec. Sigi Biromaru, Kabupaten Sigi, Sulawesi Tengah","Kabupaten Sigi, Sulawesi Tengah",SULAWESI TENGAH,,Indonesia,,,,-0.9940901,119.922411,https://maps.google.com/?cid=0x0:0xf00d7edb661b37d8,
supermarket,,Kios Berkah Utama,"Jl. Karanja Lembah No.7, Mpanau, Kec. Sigi Biromaru, Kabupaten Sigi, Sulawesi Tengah 94364","Mpanau, Kec. Sigi Biromaru, Kabupaten Sigi",SULAWESI TENGAH,94364.0,Indonesia,,,,-0.9430988,119.9029448,https://maps.google.com/?cid=0x0:0xae36d779b6245732,
supermarket,Toko bahan makanan,Kios Obot,"3V4M+5FP, Lrg. Marakaili, Kalukubula, Kec. Sigi Biromaru, Kabupaten Sigi, Sulawesi Tengah 94236","Lrg. Marakaili, Kalukubula, Kec. Sigi Biromaru, Kabupaten Sigi",SULAWESI TENGAH,94236.0,Indonesia,81354784383.0,,,-0.9445317,119.8837107,https://maps.google.com/?cid=0x0:0xcbe0af2906b4b0c0,
supermarket,Toko Swalayan,Toko Mitra Setia,"2W4C+5WP, Jl. Kanuna, Sidera, Sigi Kota, Kabupaten Sigi, Sulawesi Tengah 94364","Jl. Kanuna, Sidera, Sigi Kota, Kabupaten Sigi",SULAWESI TENGAH,94364.0,Indonesia,,,,-0.9945452,119.9223306,https://maps.google.com/?cid=0x0:0x93316d4825baf21d,
supermarket,Pusat Perbelanjaan,Kios Nayla,"Unnamed Road, Pombewe, Kec. Sigi Biromaru, Kabupaten Sigi, Sulawesi Tengah 94232","Pombewe, Kec. Sigi Biromaru, Kabupaten Sigi",SULAWESI TENGAH,94232.0,Indonesia,85395079559.0,,,-0.9682127,119.9448685,https://maps.google.com/?cid=0x0:0xec69819b3792058e,
supermarket,Minimarket,Kios Andi,"2VVP+J3W, Jl. Lando, Kalukubula, Kec. Sigi Biromaru, Kabupaten Sigi, Sulawesi Tengah 94236","Jl. Lando, Kalukubula, Kec. Sigi Biromaru, Kabupaten Sigi",SULAWESI TENGAH,94236.0,Indonesia,85241266167.0,,,-0.9558879,119.8852094,https://maps.google.com/?cid=0x0:0x2b9e66624e76e11f,
supermarket,Pusat Perbelanjaan,Kios Indah,"2VXJ+3F2, Jl. Guru Tua, Kalukubula, Kec. Sigi Biromaru, Kabupaten Sigi, Sulawesi Tengah 94364","Jl. Guru Tua, Kalukubula, Kec. Sigi Biromaru, Kabupaten Sigi",SULAWESI TENGAH,94364.0,Indonesia,,,,-0.9523749,119.8811307,https://maps.google.com/?cid=0x0:0x425f8f29d72e23dc,
supermarket,supermarket,Kec. Tanambulava,"Kabupaten Sigi, Sulawesi Tengah","Kabupaten Sigi, Sulawesi Tengah",SULAWESI TENGAH,,Indonesia,,,,-1.144118,119.9209817,https://maps.google.com/?cid=0x0:0x5d80464cf673a40c,
supermarket,Kios,KIOS 2 R,"VWJ6+G4G, Sibowi, Kec. Tanambulava, Kabupaten Sigi, Sulawesi Tengah 94361","Sibowi, Kec. Tanambulava, Kabupaten Sigi",SULAWESI TENGAH,94361.0,Indonesia,81342352983.0,,,-1.1186961,119.9103157,https://maps.google.com/?cid=0x0:0xc52b1abb5fd6818,
supermarket,Toko umum,Kios Ibu Dijah,"RWHQ+G35, Jalan Pendidikan, Kalawara, Kec. Gumbasa, Kabupaten Sigi, Sulawesi Tengah 94361","Jalan Pendidikan, Kalawara, Kec. Gumbasa, Kabupaten Sigi",SULAWESI TENGAH,94361.0,Indonesia,85256703891.0,,,-1.1712361,119.9377331,https://maps.google.com/?cid=0x0:0x70589f9eab38c638,
supermarket,Toko bahan makanan,Kios Mama,"Rarampadende, Kec. Dolo Bar., Kabupaten Sigi, Sulawesi Tengah 94362","Kec. Dolo Bar., Kabupaten Sigi",SULAWESI TENGAH,94362.0,Indonesia,,,,-1.0514139,119.8705712,https://maps.google.com/?cid=0x0:0x47aebcb1c6fef148,
supermarket,supermarket,Kios alfariq,"VW4G+C27, Unnamed Road, Sibalaya Sel., Kec. Tanambulava, Kabupaten Sigi, Sulawesi Tengah 94361","Unnamed Road, Sibalaya Sel., Kec. Tanambulava, Kabupaten Sigi",SULAWESI TENGAH,94361.0,Indonesia,,,,-1.1439606,119.9250545,https://maps.google.com/?cid=0x0:0x1028d8a7a6d18f24,
supermarket,supermarket,Kios Ana ani,"VWF7+G99, Jl. Poros Palu- Kulawi, Sibowi, Kec. Tanambulava, Kabupaten Sigi, Sulawesi Tengah 94361","Jl. Poros Palu- Kulawi, Sibowi, Kec. Tanambulava, Kabupaten Sigi",SULAWESI TENGAH,94361.0,Indonesia,,,,-1.126202,119.9134827,https://maps.google.com/?cid=0x0:0xa569a6d6e65fee04,
supermarket,supermarket,Kios Pancaran Berkat,"R4W6+JFV, Jl. Poros Palu- Kulawi, Desa Uerani, Sejahtera, Kec. Palolo, Kabupaten Sigi, Sulawesi Tengah 94473","Jl. Poros Palu- Kulawi, Desa Uerani, Sejahtera, Kec. Palolo, Kabupaten Sigi",SULAWESI TENGAH,94473.0,Indonesia,,,,-1.1336737,119.9169853,https://maps.google.com/?cid=0x0:0xc12c3a76b5ae6cd0,
supermarket,Toko umum,AMINAH STORE,"VW4H+RRM, Sibalaya Sel., Kec. Tanambulava, Kabupaten Sigi, Sulawesi Tengah 94361","Sibalaya Sel., Kec. Tanambulava, Kabupaten Sigi",SULAWESI TENGAH,94361.0,Indonesia,,,,-1.14291,119.9295487,https://maps.google.com/?cid=0x0:0xf1e6d535551552ab,
supermarket,Toko bahan makanan,Toko RIFKAgrosir,"VWP5+3HC, Jl. Poros Palu - Kulawi, Sibowi, Kec. Tanambulava, Kabupaten Sigi, Sulawesi Tengah 94361","Jl. Poros Palu - Kulawi, Sibowi, Kec. Tanambulava, Kabupaten Sigi",SULAWESI TENGAH,94361.0,Indonesia,,,,-1.114824,119.9088873,https://maps.google.com/?cid=0x0:0x4af776ab168c3eb6,
supermarket,Kios,Kios Daffa,"RWXH+87H, Sibalaya Sel., Kec. Tanambulava, Kabupaten Sigi, Sulawesi Tengah 94361","Sibalaya Sel., Kec. Tanambulava, Kabupaten Sigi",SULAWESI TENGAH,94361.0,Indonesia,,,,-1.1513415,119.928858,https://maps.google.com/?cid=0x0:0x6c1bbcbc476ffac7,
supermarket,Produsen makanan,Umi bawang merah asli,"VWHM+FC4, Sibowi, Kec. Tanambulava, Kabupaten Sigi, Sulawesi Tengah","Kabupaten Sigi, Sulawesi Tengah",SULAWESI TENGAH,,Indonesia,,,,-1.1213634,119.9335779,https://maps.google.com/?cid=0x0:0x717e9656a048319f,
supermarket,Perhimpunan Pengembang Perumahan,Sibowi,"VWHM+FC4, Sibowi, Kec. Tanambulava, Kabupaten Sigi, Sulawesi Tengah","Kabupaten Sigi, Sulawesi Tengah",SULAWESI TENGAH,,Indonesia,,,,-1.1213634,119.9335779,https://maps.google.com/?cid=0x0:0xdfca79a3b3ca4e8,
supermarket,Toko bahan makanan,Kios Aulia,"RW7R+V6W, Jl. Poros Palu - Kulawi, Pandere, Kec. Gumbasa, Kabupaten Sigi, Sulawesi Tengah 94364","Jl. Poros Palu - Kulawi, Pandere, Kec. Gumbasa, Kabupaten Sigi",SULAWESI TENGAH,94364.0,Indonesia,85823763353.0,,,-1.1852624,119.9405695,https://maps.google.com/?cid=0x0:0x6357673570cf568b,
