Category,Real Category,Business Name,Address,City,State,Postal Code,Country,Phone,Email,Website,Latitude,Longitude,Map Link,Details Link
komplek housing,komplek housing,Sulawesi Tengah 94361,"Kabupaten Sigi, Sulawesi Tengah","Kabupaten Sigi, Sulawesi Tengah",SULAWESI TENGAH,,Indonesia,,,,-1.23459,119.9046594,https://maps.google.com/?cid=0x0:0x4f531feacb3953e3,
komplek housing,Kantor Pemda,Desa baluase,"QR4F+CF2, Baluase, Kec. Dolo Sel., Kabupaten Sigi, Sulawesi Tengah","Kabupaten Sigi, Sulawesi Tengah",SULAWESI TENGAH,,Indonesia,,,,-1.2439761,119.8236554,https://maps.google.com/?cid=0x0:0x65f1d5a8c584af85,
komplek housing,Perhimpunan Pengembang Perumahan,Ikbal Ebony,"XV3C+J4G, Kaleke, Kec. Dolo Bar., Kabupaten Sigi, Sulawesi Tengah 94362","Kaleke, Kec. Dolo Bar., Kabupaten Sigi",SULAWESI TENGAH,94362.0,Indonesia,,,,-1.045935,119.8703312,https://maps.google.com/?cid=0x0:0xaed9f688064b1d17,
komplek housing,Komplek perumahan,PERUMAHAN ORVIL LANDS BOYA BALIASE,"Jl. Vunja Sinongi No.8, Boyabaliase, Kec. Marawola, Kabupaten Sigi, Sulawesi Tengah 94222","Boyabaliase, Kec. Marawola, Kabupaten Sigi",SULAWESI TENGAH,94222.0,Indonesia,85288498397.0,,,-0.948184,119.8467998,https://maps.google.com/?cid=0x0:0x5dbeee685e28bc4e,
komplek housing,Perumahan,Rumah Pak Armadi,"2V8P+PRP, Langaleso, Kec. Dolo, Kabupaten Sigi, Sulawesi Tengah 94362","Langaleso, Kec. Dolo, Kabupaten Sigi",SULAWESI TENGAH,94362.0,Indonesia,,,,-0.983155,119.8870796,https://maps.google.com/?cid=0x0:0x5c4ba67290da466a,
komplek housing,Perumahan,Rumah pak Adi,"2V9P+2M3, Langaleso, Kec. Dolo, Kabupaten Sigi, Sulawesi Tengah 94362","Langaleso, Kec. Dolo, Kabupaten Sigi",SULAWESI TENGAH,94362.0,Indonesia,,,,-0.983155,119.88708,https://maps.google.com/?cid=0x0:0x97457e033fe80b,
komplek housing,komplek housing,Dolo,"Kotarindau, Kec. Dolo, Kabupaten Sigi, Sulawesi Tengah","Kabupaten Sigi, Sulawesi Tengah",SULAWESI TENGAH,,Indonesia,,,,-0.990628,119.878098,https://maps.google.com/?cid=0x0:0x5c92b62bdcba4dae,
komplek housing,Pembangunan Perumahan,Perumahan,"Blk. BJ No.15, Kalukubula, Kec. Sigi Biromaru, Kabupaten Sigi, Sulawesi Tengah 94235","Kalukubula, Kec. Sigi Biromaru, Kabupaten Sigi",SULAWESI TENGAH,94235.0,Indonesia,,,,-0.9454064,119.8908371,https://maps.google.com/?cid=0x0:0x2a5196ec87c2aea,
komplek housing,Komplek perumahan,Pondok Gede Housing 1,"Jl. Cipta Raya No.45-3, RT.001/RW.003, Jatirahayu, Kec. Pd. Melati, Kota Bks, Jawa Barat 17414","RT.001/RW.003, Jatirahayu, Kec. Pd. Melati, Kota Bks",SULAWESI TENGAH,17414.0,Indonesia,,,,-6.2852504,106.9163397,https://maps.google.com/?cid=0x0:0x3132afedbf38cd61,
komplek housing,Komplek perumahan,Pondok gede housing,"PW69+G7J, Jl. Teratai, RT.005/RW.003, Jatirahayu, Kec. Pd. Melati, Kota Bks, Jawa Barat 17414","Jl. Teratai, RT.005/RW.003, Jatirahayu, Kec. Pd. Melati, Kota Bks",SULAWESI TENGAH,17414.0,Indonesia,,,,-6.2886631,106.9181392,https://maps.google.com/?cid=0x0:0xe09247830c5049e9,
komplek housing,Komplek perumahan,Komplek Raya Housing (Molek) Blok L3 - ZAIA,"Komplek Raya Housing (Molek No.3 Blok-L, RT.005/RW.011, Jatiwaringin, Kec. Pd. Gede, Kota Bks, Jawa Barat 17411","RT.005/RW.011, Jatiwaringin, Kec. Pd. Gede, Kota Bks",SULAWESI TENGAH,17411.0,Indonesia,,,,-6.2791346,106.9098178,https://maps.google.com/?cid=0x0:0x70e05a91fbc23a92,
komplek housing,komplek housing,Kec. Dolo Bar.,"Kabupaten Sigi, Sulawesi Tengah","Kabupaten Sigi, Sulawesi Tengah",SULAWESI TENGAH,,Indonesia,,,,-1.0248547,119.8669421,https://maps.google.com/?cid=0x0:0x9cff6f7017d9df8d,
komplek housing,komplek housing,Emeng home stay,"WVCH+PFJ, Pesaku, Kec. Dolo Bar., Kabupaten Sigi, Sulawesi Tengah 94362","Pesaku, Kec. Dolo Bar., Kabupaten Sigi",SULAWESI TENGAH,94362.0,Indonesia,,,,-1.0781594,119.8786276,https://maps.google.com/?cid=0x0:0x1f7298cecaa1b7,
komplek housing,komplek housing,moh.fikriansyah,"Jl. Tandalonggo No.173, Pewunu, Kec. Dolo Bar., Kabupaten Sigi, Sulawesi Tengah 94362","Pewunu, Kec. Dolo Bar., Kabupaten Sigi",SULAWESI TENGAH,94362.0,Indonesia,,,,-1.0241933,119.8581583,https://maps.google.com/?cid=0x0:0xf618e5eaf1ec376f,
komplek housing,Komplek perumahan,Moh. Saleh/Gifar House,"Rarampadende, Kec. Dolo Bar., Kabupaten Sigi, Sulawesi Tengah 94362","Kec. Dolo Bar., Kabupaten Sigi",SULAWESI TENGAH,94362.0,Indonesia,,,,-1.0544259,119.871754,https://maps.google.com/?cid=0x0:0x8b16eefbb55786b9,
komplek housing,Komplek perumahan,Dea Mutiari’s Home,"Jl. Poros Palu Bangga, Pewunu, Kec. Dolo Bar., Kabupaten Sigi, Sulawesi Tengah 94361","Pewunu, Kec. Dolo Bar., Kabupaten Sigi",SULAWESI TENGAH,94361.0,Indonesia,,,,-1.0273126,119.8670142,https://maps.google.com/?cid=0x0:0x702a5302cf3fdb5e,
komplek housing,komplek housing,Rumah Masjita,"XV8F+M57, Kaleke, Kec. Dolo Bar., Kabupaten Sigi, Sulawesi Tengah 94359","Kaleke, Kec. Dolo Bar., Kabupaten Sigi",SULAWESI TENGAH,94359.0,Indonesia,,,,-1.0334916,119.8726201,https://maps.google.com/?cid=0x0:0x208d8220d7f42e38,
komplek housing,komplek housing,Rumah Irmawati,"XV8F+73F, Kaleke, Kec. Dolo Bar., Kabupaten Sigi, Sulawesi Tengah","Kabupaten Sigi, Sulawesi Tengah",SULAWESI TENGAH,,Indonesia,,,,-1.0343699,119.8724739,https://maps.google.com/?cid=0x0:0xe594ece2bd3861d7,
komplek housing,Pembangunan Perumahan,Enso,"WVP8+4R Nso, Mantikole, Kec. Dolo Bar., Kabupaten Sigi, Sulawesi Tengah","Kabupaten Sigi, Sulawesi Tengah",SULAWESI TENGAH,,Indonesia,,,,-1.0649517,119.8671803,https://maps.google.com/?cid=0x0:0xe0decc82581a242a,
komplek housing,Komplek perumahan,Rendy,"WVP8+4R Nso, Mantikole, Kec. Dolo Bar., Kabupaten Sigi, Sulawesi Tengah","Kabupaten Sigi, Sulawesi Tengah",SULAWESI TENGAH,,Indonesia,,,,-1.0643208,119.8674411,https://maps.google.com/?cid=0x0:0xd866391686c52191,
komplek housing,Komplek perumahan,ILHAM HOUSE'S,"WVVC+27V, Rarampadende, Kec. Dolo Bar., Kabupaten Sigi, Sulawesi Tengah 94362","Rarampadende, Kec. Dolo Bar., Kabupaten Sigi",SULAWESI TENGAH,94362.0,Indonesia,,,,-1.057545,119.8706893,https://maps.google.com/?cid=0x0:0x704fd3def67f214d,
komplek housing,Komplek perumahan,Anjas Sry,"WVRC+94F, Jl. Poros Palu Bangga, Rarampadende, Kec. Dolo Bar., Kabupaten Sigi, Sulawesi Tengah 94362","Jl. Poros Palu Bangga, Rarampadende, Kec. Dolo Bar., Kabupaten Sigi",SULAWESI TENGAH,94362.0,Indonesia,82136397184.0,,,-1.0590642,119.8702836,https://maps.google.com/?cid=0x0:0x17b67d9a5c57b08b,
komplek housing,Komplek perumahan,Dusun Sosial,"WRGH+WRC, Mantikole, Kec. Dolo Bar., Kabupaten Sigi, Sulawesi Tengah 94362","Mantikole, Kec. Dolo Bar., Kabupaten Sigi",SULAWESI TENGAH,94362.0,Indonesia,,,,-1.0726782,119.8295074,https://maps.google.com/?cid=0x0:0xf817a0c842ad53f,
komplek housing,Komplek perumahan,Djuhasa fams,"XV8F+R58, Jln Jln. Veteran, Kaleke, Dolo Barat, Sigi Regency, Central Sulawesi 94362","Jln Jln. Veteran, Kaleke, Dolo Barat, Sigi Regency",SULAWESI TENGAH,94362.0,Indonesia,,,,-1.0329511,119.8729603,https://maps.google.com/?cid=0x0:0x58ae1ee5712150a3,
komplek housing,Komplek perumahan,Rumah Yulfien,"WVM7+HPP, Balamoa, Kec. Dolo Bar., Kabupaten Sigi, Sulawesi Tengah 94362","Balamoa, Kec. Dolo Bar., Kabupaten Sigi",SULAWESI TENGAH,94362.0,Indonesia,,,,-1.0641122,119.8695214,https://maps.google.com/?cid=0x0:0x8c4d4a969e329e2,
komplek housing,Komplek perumahan,Dewinayanti Home,"WRHH+2QG, Mantikole, Kec. Dolo Bar., Kabupaten Sigi, Sulawesi Tengah 94362","Mantikole, Kec. Dolo Bar., Kabupaten Sigi",SULAWESI TENGAH,94362.0,Indonesia,,,,-1.0724315,119.829443,https://maps.google.com/?cid=0x0:0x76ee8844183efab0,
komplek housing,Pembangunan Perumahan,INDRA KENZO,"XW62+8J7, Jl. Sasuwuno, Waturalele, Kec. Dolo, Kabupaten Sigi, Sulawesi Tengah 94362","Jl. Sasuwuno, Waturalele, Kec. Dolo, Kabupaten Sigi",SULAWESI TENGAH,94362.0,Indonesia,,,,-1.0392256,119.9013397,https://maps.google.com/?cid=0x0:0xbda928e1e86efb32,
komplek housing,Komplek perumahan,Pewunu,"XVG8+466, Pewunu, Kec. Dolo Bar., Kabupaten Sigi, Sulawesi Tengah","Kabupaten Sigi, Sulawesi Tengah",SULAWESI TENGAH,,Indonesia,,,,-1.024722,119.8655157,https://maps.google.com/?cid=0x0:0x2b12ec9bbc207179,
komplek housing,Perhimpunan Pengembang Perumahan,Ikbal Ebony,"XV3C+J4G, Kaleke, Kec. Dolo Bar., Kabupaten Sigi, Sulawesi Tengah 94362","Kaleke, Kec. Dolo Bar., Kabupaten Sigi",SULAWESI TENGAH,94362.0,Indonesia,,,,-1.045935,119.8703312,https://maps.google.com/?cid=0x0:0xaed9f688064b1d17,
komplek housing,Komplek perumahan,Bu Meti Home,"WRHH+2QG, Mantikole, Kec. Dolo Bar., Kabupaten Sigi, Sulawesi Tengah 94362","Mantikole, Kec. Dolo Bar., Kabupaten Sigi",SULAWESI TENGAH,94362.0,Indonesia,,,,-1.0724315,119.829443,https://maps.google.com/?cid=0x0:0xc8a637808086d2f7,
komplek housing,Komplek perumahan,Manda’s home,"XVF8+6RR, Pewunu, Kec. Dolo Bar., Kabupaten Sigi, Sulawesi Tengah 94362","Pewunu, Kec. Dolo Bar., Kabupaten Sigi",SULAWESI TENGAH,94362.0,Indonesia,,,,-1.0267519,119.8669366,https://maps.google.com/?cid=0x0:0xe09bec2282e60e1f,
komplek housing,Komplek perumahan,Rumah Mertua Kim Taehyung,"RV6Q+RXF Jembatan Pewana, Jl. Poros Palu Bangga, Rogo, Kec. Dolo Sel., Kabupaten Sigi, Sulawesi Tengah 94361","Jl. Poros Palu Bangga, Rogo, Kec. Dolo Sel., Kabupaten Sigi",SULAWESI TENGAH,94361.0,Indonesia,,,,-1.1879388,119.8899212,https://maps.google.com/?cid=0x0:0xd4be5d206296e58f,
komplek housing,komplek housing,Emeng home stay,"WVCH+PFJ, Pesaku, Kec. Dolo Bar., Kabupaten Sigi, Sulawesi Tengah 94362","Pesaku, Kec. Dolo Bar., Kabupaten Sigi",SULAWESI TENGAH,94362.0,Indonesia,,,,-1.0781594,119.8786276,https://maps.google.com/?cid=0x0:0x1f7298cecaa1b7,
komplek housing,komplek housing,Sulawesi Tengah 94361,"Kabupaten Sigi, Sulawesi Tengah","Kabupaten Sigi, Sulawesi Tengah",SULAWESI TENGAH,,Indonesia,,,,-1.23459,119.9046594,https://maps.google.com/?cid=0x0:0x4f531feacb3953e3,
komplek housing,Komplek perumahan,Dea Mutiari’s Home,"Jl. Poros Palu Bangga, Pewunu, Kec. Dolo Bar., Kabupaten Sigi, Sulawesi Tengah 94361","Pewunu, Kec. Dolo Bar., Kabupaten Sigi",SULAWESI TENGAH,94361.0,Indonesia,,,,-1.0273126,119.8670142,https://maps.google.com/?cid=0x0:0x702a5302cf3fdb5e,
komplek housing,Komplek perumahan,Rumah jafar,"QWW5+53, Bulubete, Kec. Dolo Sel., Kabupaten Sigi, Sulawesi Tengah","Kabupaten Sigi, Sulawesi Tengah",SULAWESI TENGAH,,Indonesia,,,,-1.2046586,119.9066791,https://maps.google.com/?cid=0x0:0x2c51056154da2d29,
komplek housing,Komplek perumahan,Home Nadiva,"QWW3+VWP, Bulubete, Kec. Dolo Sel., Kabupaten Sigi, Sulawesi Tengah 94361","Bulubete, Kec. Dolo Sel., Kabupaten Sigi",SULAWESI TENGAH,94361.0,Indonesia,,,,-1.2027858,119.9044499,https://maps.google.com/?cid=0x0:0x23ef6d019404a4fa,
komplek housing,Komplek perumahan,Rumah Adi Aoo,"Bangga, Kec. Dolo Sel., Kabupaten Sigi, Sulawesi Tengah","Kabupaten Sigi, Sulawesi Tengah",SULAWESI TENGAH,,Indonesia,,,,-1.2493038,119.9275132,https://maps.google.com/?cid=0x0:0xb7bf3fb81e85da66,
komplek housing,komplek housing,Rumah Ibu Muslimat,"VVXF+99F, Jl. Poros Palu Bangga, Bobo, Kec. Dolo Bar., Kabupaten Sigi, Sulawesi Tengah 94361","Jl. Poros Palu Bangga, Bobo, Kec. Dolo Bar., Kabupaten Sigi",SULAWESI TENGAH,94361.0,Indonesia,,,,-1.1015692,119.8734215,https://maps.google.com/?cid=0x0:0xce898a1f726854a6,
komplek housing,Komplek perumahan,Warna Home,"QWH6+HRX, Walatana, Kec. Dolo Sel., Kabupaten Sigi, Sulawesi Tengah 94361","Walatana, Kec. Dolo Sel., Kabupaten Sigi",SULAWESI TENGAH,94361.0,Indonesia,,,,-1.2210025,119.9121234,https://maps.google.com/?cid=0x0:0x333ae3b7c24f828f,
komplek housing,Gedung Apartemen,Rumahh,"QWP6+G2, Bulubete, Kec. Dolo Sel., Kabupaten Sigi, Sulawesi Tengah","Kabupaten Sigi, Sulawesi Tengah",SULAWESI TENGAH,,Indonesia,,,,-1.2143766,119.9102929,https://maps.google.com/?cid=0x0:0x48c830119a4fb119,
komplek housing,Pembangunan Perumahan,Lorong sintuvu,"QW8C+929, Bangga, Kec. Dolo Sel., Kabupaten Sigi, Sulawesi Tengah","Kabupaten Sigi, Sulawesi Tengah",SULAWESI TENGAH,,Indonesia,,,,-1.2340922,119.9201053,https://maps.google.com/?cid=0x0:0x2395c60f15bdcd57,
komplek housing,Komplek perumahan,Banua Muminah Labaso,"RVRP+738, Pulu, Kec. Dolo Sel., Kabupaten Sigi, Sulawesi Tengah 94361","Pulu, Kec. Dolo Sel., Kabupaten Sigi",SULAWESI TENGAH,94361.0,Indonesia,,,,-1.1593419,119.8851963,https://maps.google.com/?cid=0x0:0x49f1b01286dfec7b,
komplek housing,Komplek perumahan,Home Aulia,"QWW3+VWP SMPN 10, Bulubete, Kec. Dolo Sel., Kabupaten Sigi, Sulawesi Tengah","Kabupaten Sigi, Sulawesi Tengah",SULAWESI TENGAH,,Indonesia,,,,-1.2027884,119.9048316,https://maps.google.com/?cid=0x0:0xd021e13cdfa8eb9e,
komplek housing,Komplek perumahan,Sou kodi Raflin,"RV6Q+94C, Rogo, Kec. Dolo Sel., Kabupaten Sigi, Sulawesi Tengah 94361","Rogo, Kec. Dolo Sel., Kabupaten Sigi",SULAWESI TENGAH,94361.0,Indonesia,,,,-1.1890543,119.8877807,https://maps.google.com/?cid=0x0:0x6fc30fd1d1b0b08f,
komplek housing,komplek housing,Nilam's Home (Bengkel Papa Egit),"QW4H+HG5, Jl. Poros Palu Bangga, Bangga, Kec. Dolo Sel., Kabupaten Sigi, Sulawesi Tengah 94361","Jl. Poros Palu Bangga, Bangga, Kec. Dolo Sel., Kabupaten Sigi",SULAWESI TENGAH,94361.0,Indonesia,,,,-1.2434821,119.9289123,https://maps.google.com/?cid=0x0:0x4b5ab84f3ac46e5,
komplek housing,Komplek perumahan,PERUMAHAN ORVIL LANDS BOYA BALIASE,"Jl. Vunja Sinongi No.8, Boyabaliase, Kec. Marawola, Kabupaten Sigi, Sulawesi Tengah 94222","Boyabaliase, Kec. Marawola, Kabupaten Sigi",SULAWESI TENGAH,94222.0,Indonesia,85288498397.0,,,-0.948184,119.8467998,https://maps.google.com/?cid=0x0:0x5dbeee685e28bc4e,
komplek housing,komplek housing,Perumahan Kodim,"WWW6+4Q8, Sidondo IV, Kec. Sigi Biromaru, Kabupaten Sigi, Sulawesi Tengah 94362","Sidondo IV, Kec. Sigi Biromaru, Kabupaten Sigi",SULAWESI TENGAH,94362.0,Indonesia,,,,-1.0556651,119.9116972,https://maps.google.com/?cid=0x0:0x385d5f39586ae3a,
komplek housing,Komplek perumahan,rumah mas agus,"PWWJ+7RV, Bangga, Kec. Dolo Sel., Kabupaten Sigi, Sulawesi Tengah","Kabupaten Sigi, Sulawesi Tengah",SULAWESI TENGAH,,Indonesia,,,,-1.2542577,119.9320341,https://maps.google.com/?cid=0x0:0x4922186079f1208,
komplek housing,Komplek perumahan,LOPER (Lorong Perkuburan),"QWV3+XRQ, Jl. Poros Palu Bangga, Baluase, Kec. Dolo Sel., Kabupaten Sigi, Sulawesi Tengah 94361","Jl. Poros Palu Bangga, Baluase, Kec. Dolo Sel., Kabupaten Sigi",SULAWESI TENGAH,94361.0,Indonesia,,,,-1.2059809,119.9048065,https://maps.google.com/?cid=0x0:0x4040ffe0542be622,
komplek housing,Komplek perumahan,Rumah ku,"RV5Q+VPQ, Rogo, Kec. Dolo Sel., Kabupaten Sigi, Sulawesi Tengah","Kabupaten Sigi, Sulawesi Tengah",SULAWESI TENGAH,,Indonesia,,,,-1.1902397,119.8893362,https://maps.google.com/?cid=0x0:0x95f60bd047e2ac58,
komplek housing,komplek housing,Kec. Dolo Sel.,"Kabupaten Sigi, Sulawesi Tengah","Kabupaten Sigi, Sulawesi Tengah",SULAWESI TENGAH,,Indonesia,,,,-1.2019728,119.9022583,https://maps.google.com/?cid=0x0:0x52e0313434edf164,
komplek housing,Gedung Apartemen,Tempat nongkrong kabilasa Bangga,"QW2H+GR5, Jl. Poros Palu Bangga, Bangga, Kec. Dolo Sel., Kabupaten Sigi, Sulawesi Tengah 94361","Jl. Poros Palu Bangga, Bangga, Kec. Dolo Sel., Kabupaten Sigi",SULAWESI TENGAH,94361.0,Indonesia,,,,-1.2491315,119.9297914,https://maps.google.com/?cid=0x0:0x39a870b1b04d75a7,
komplek housing,Komplek perumahan,Banua Toma isal,"RVMP+6HV, Pulu, Kec. Dolo Sel., Kabupaten Sigi, Sulawesi Tengah 94361","Pulu, Kec. Dolo Sel., Kabupaten Sigi",SULAWESI TENGAH,94361.0,Indonesia,,,,-1.1668813,119.8864247,https://maps.google.com/?cid=0x0:0xa720581b11f61e6f,
komplek housing,Komplek perumahan,Banua Aminah Labaso,"RVRP+H28, Pulu, Kec. Dolo Sel., Kabupaten Sigi, Sulawesi Tengah 94361","Pulu, Kec. Dolo Sel., Kabupaten Sigi",SULAWESI TENGAH,94361.0,Indonesia,,,,-1.1585106,119.8854803,https://maps.google.com/?cid=0x0:0xc01cea00cb17ecce,
komplek housing,Komplek perumahan,Rumah Dede,"VW88+GQQ, Jl. Poros Palu - Kulawi, Sibowi, Kec. Tanambulava, Kabupaten Sigi, Sulawesi Tengah 94361","Jl. Poros Palu - Kulawi, Sibowi, Kec. Tanambulava, Kabupaten Sigi",SULAWESI TENGAH,94361.0,Indonesia,,,,-1.1339743,119.9169483,https://maps.google.com/?cid=0x0:0xdecdb91f06c8aa8b,
komplek housing,Komplek perumahan,Rumah fajriani,"RV9M+4MG, Rogo, Kec. Dolo Sel., Kabupaten Sigi, Sulawesi Tengah 94361","Rogo, Kec. Dolo Sel., Kabupaten Sigi",SULAWESI TENGAH,94361.0,Indonesia,,,,-1.1821249,119.8841979,https://maps.google.com/?cid=0x0:0x34fee3c4c6d0494e,
komplek housing,Komplek perumahan,Rumah nya DEDEN,"MWXX+7HH, Jl. Poros Palu - Kulawi, Omu, Kec. Gumbasa, Kabupaten Sigi, Sulawesi Tengah 94361","Jl. Poros Palu - Kulawi, Omu, Kec. Gumbasa, Kabupaten Sigi",SULAWESI TENGAH,94361.0,Indonesia,,,,-1.3017923,119.949113,https://maps.google.com/?cid=0x0:0x1592d120b6e5c645,
komplek housing,Komplek perumahan,Lorong bantaya,"QWR5+559, Bulubete, Kec. Dolo Sel., Kabupaten Sigi, Sulawesi Tengah 94361","Bulubete, Kec. Dolo Sel., Kabupaten Sigi",SULAWESI TENGAH,94361.0,Indonesia,,,,-1.2095787,119.9079951,https://maps.google.com/?cid=0x0:0x945a429515650b96,
komplek housing,Komplek perumahan,Rumah Bambang L,"QWWV+48G, Pandere, Kec. Gumbasa, Kabupaten Sigi, Sulawesi Tengah 94361","Pandere, Kec. Gumbasa, Kabupaten Sigi",SULAWESI TENGAH,94361.0,Indonesia,,,,-1.2046811,119.9433228,https://maps.google.com/?cid=0x0:0x77e3dc79b53a7002,
komplek housing,komplek housing,Kec. Gumbasa,"Kabupaten Sigi, Sulawesi Tengah","Kabupaten Sigi, Sulawesi Tengah",SULAWESI TENGAH,,Indonesia,,,,-1.2047086,119.9426429,https://maps.google.com/?cid=0x0:0x12ba9694169370c2,
komplek housing,Komplek perumahan,Euis House,"MWXX+94R, Omu, Kec. Gumbasa, Kabupaten Sigi, Sulawesi Tengah","Kabupaten Sigi, Sulawesi Tengah",SULAWESI TENGAH,,Indonesia,,,,-1.3015091,119.9477796,https://maps.google.com/?cid=0x0:0xb114a14aef3ccf8a,
komplek housing,Komplek perumahan,House,"RWJF+V4M, Lambara, Kec. Tanambulava, Kabupaten Sigi, Sulawesi Tengah","Kabupaten Sigi, Sulawesi Tengah",SULAWESI TENGAH,,Indonesia,,,,-1.1675485,119.9223469,https://maps.google.com/?cid=0x0:0x3542108aa13d1584,
komplek housing,Komplek perumahan,"Perumahan Satelit Desa Tuwa, Rumah 02","MXC6+JXQ, Tuwa, Kec. Gumbasa, Kabupaten Sigi, Sulawesi Tengah","Kabupaten Sigi, Sulawesi Tengah",SULAWESI TENGAH,,Indonesia,,,,-1.328425,119.9624909,https://maps.google.com/?cid=0x0:0x8ca60bbc5408288,
komplek housing,Komplek perumahan,Home Yusran,"MXC5+P43, Tuwa, Kec. Gumbasa, Kabupaten Sigi, Sulawesi Tengah","Kabupaten Sigi, Sulawesi Tengah",SULAWESI TENGAH,,Indonesia,,,,-1.3282286,119.9577916,https://maps.google.com/?cid=0x0:0xfbd4756d91c0aee,
komplek housing,Komplek perumahan,LAKUTA,"QX42+9R6, Pakuli, Kec. Gumbasa, Kabupaten Sigi, Sulawesi Tengah 94361","Pakuli, Kec. Gumbasa, Kabupaten Sigi",SULAWESI TENGAH,94361.0,Indonesia,,,,-1.2440925,119.9520181,https://maps.google.com/?cid=0x0:0x3d6943646e291ab7,
komplek housing,Komplek perumahan,Rumah BPD dan KARANG TARUNA,"P2F5+WFQ, Omu, Kec. Gumbasa, Kabupaten Sigi, Sulawesi Tengah","Kabupaten Sigi, Sulawesi Tengah",SULAWESI TENGAH,,Indonesia,,,,-1.2751588,120.0087372,https://maps.google.com/?cid=0x0:0xf856f63987daac00,
komplek housing,Komplek perumahan,zillhome,"MWWX+VX8, Tuwa, Kec. Gumbasa, Kabupaten Sigi, Sulawesi Tengah","Kabupaten Sigi, Sulawesi Tengah",SULAWESI TENGAH,,Indonesia,,,,-1.3028542,119.9501182,https://maps.google.com/?cid=0x0:0xb20652f7b8106714,
komplek housing,Komplek perumahan,Rumah Bambang L,"QWWV+48G, Pandere, Kec. Gumbasa, Kabupaten Sigi, Sulawesi Tengah 94361","Pandere, Kec. Gumbasa, Kabupaten Sigi",SULAWESI TENGAH,94361.0,Indonesia,,,,-1.2046811,119.9433228,https://maps.google.com/?cid=0x0:0x77e3dc79b53a7002,
komplek housing,Komplek perumahan,Rumah yhoyo,"MX47+5GQ, Salua, Kec. Gumbasa, Kabupaten Sigi, Sulawesi Tengah","Kabupaten Sigi, Sulawesi Tengah",SULAWESI TENGAH,,Indonesia,,,,-1.3445483,119.9638594,https://maps.google.com/?cid=0x0:0x795a7abe059affa1,
komplek housing,komplek housing,Fadila,"MXFP+M6X, Tuwa, Kec. Gumbasa, Kabupaten Sigi, Sulawesi Tengah","Kabupaten Sigi, Sulawesi Tengah",SULAWESI TENGAH,,Indonesia,,,,-1.325763,119.9856157,https://maps.google.com/?cid=0x0:0xc26ee31fc9bca070,
komplek housing,Komplek perumahan,Rumah Suratman,"MX86+V92, Tuwa, Kec. Gumbasa, Kabupaten Sigi, Sulawesi Tengah","Kabupaten Sigi, Sulawesi Tengah",SULAWESI TENGAH,,Indonesia,,,,-1.3328682,119.9608752,https://maps.google.com/?cid=0x0:0x389f389f833e87bd,
komplek housing,komplek housing,Home fadila,"QWWV+436, Pandere, Kec. Gumbasa, Kabupaten Sigi, Sulawesi Tengah","Kabupaten Sigi, Sulawesi Tengah",SULAWESI TENGAH,,Indonesia,,,,-1.2047086,119.9426429,https://maps.google.com/?cid=0x0:0xca788b31e42ab674,
komplek housing,Komplek perumahan,Muhidin Family,"MXH4+6PX, Tuwa, Kec. Gumbasa, Kabupaten Sigi, Sulawesi Tengah 94364","Tuwa, Kec. Gumbasa, Kabupaten Sigi",SULAWESI TENGAH,94364.0,Indonesia,,,,-1.321468,119.956695,https://maps.google.com/?cid=0x0:0x57d6eace097ba96e,
komplek housing,Komplek perumahan,CALAZI,"P2F5+WFQ, Omu, Kec. Gumbasa, Kabupaten Sigi, Sulawesi Tengah","Kabupaten Sigi, Sulawesi Tengah",SULAWESI TENGAH,,Indonesia,,,,-1.2751588,120.0087372,https://maps.google.com/?cid=0x0:0x79b7c17c85cf6f99,
komplek housing,Komplek perumahan,Rumah Farhan,"QWWV+69H, Pandere, Kec. Gumbasa, Kabupaten Sigi, Sulawesi Tengah 94361","Pandere, Kec. Gumbasa, Kabupaten Sigi",SULAWESI TENGAH,94361.0,Indonesia,,,,-1.2044373,119.9434901,https://maps.google.com/?cid=0x0:0xd5bd1de6f9f2bf16,
komplek housing,Komplek perumahan,Rumah saya,"RWJP+7VR, Kalawara, Kec. Gumbasa, Kabupaten Sigi, Sulawesi Tengah","Kabupaten Sigi, Sulawesi Tengah",SULAWESI TENGAH,,Indonesia,,,,-1.1692734,119.9371319,https://maps.google.com/?cid=0x0:0x551be68653d43725,
komplek housing,Komplek perumahan,Rumah Agus to pandehe,"QWWV+6M5, lr. Baloli, Pandere, Kec. Gumbasa, Kabupaten Sigi, Sulawesi Tengah 94361","lr. Baloli, Pandere, Kec. Gumbasa, Kabupaten Sigi",SULAWESI TENGAH,94361.0,Indonesia,,,,-1.2044875,119.9442344,https://maps.google.com/?cid=0x0:0xb2e56635896f6876,
komplek housing,Komplek perumahan,Rumah nya DEDEN,"MWXX+7HH, Jl. Poros Palu - Kulawi, Omu, Kec. Gumbasa, Kabupaten Sigi, Sulawesi Tengah 94361","Jl. Poros Palu - Kulawi, Omu, Kec. Gumbasa, Kabupaten Sigi",SULAWESI TENGAH,94361.0,Indonesia,,,,-1.3017923,119.949113,https://maps.google.com/?cid=0x0:0x1592d120b6e5c645,
komplek housing,Komplek perumahan,Fatri home,"Tuwa, Kec. Gumbasa, Kabupaten Sigi, Sulawesi Tengah","Kabupaten Sigi, Sulawesi Tengah",SULAWESI TENGAH,,Indonesia,,,,-1.3321446,119.9609499,https://maps.google.com/?cid=0x0:0xce7af66cded02c24,
komplek housing,Komplek perumahan,Rumah magfirah,"QWWV+529, Jl. Poros Palu - Kulawi, Pandere, Kec. Gumbasa, Kabupaten Sigi, Sulawesi Tengah","Kabupaten Sigi, Sulawesi Tengah",SULAWESI TENGAH,,Indonesia,,,,-1.204577,119.9426063,https://maps.google.com/?cid=0x0:0xf63e3a0161fb9de8,
komplek housing,Komplek perumahan,Lagimpu Family,"HX4M+4QJ, Bolapapu, Kec. Kulawi, Kabupaten Sigi, Sulawesi Tengah 94363","Bolapapu, Kec. Kulawi, Kabupaten Sigi",SULAWESI TENGAH,94363.0,Indonesia,,,,-1.4446607,119.9843894,https://maps.google.com/?cid=0x0:0xe009d7a679f74b06,
komplek housing,komplek housing,Kec. Kinovaro,"Kabupaten Sigi, Sulawesi Tengah","Kabupaten Sigi, Sulawesi Tengah",SULAWESI TENGAH,,Indonesia,,,,-0.9532106,119.8381831,https://maps.google.com/?cid=0x0:0x98e9a1405ab12b25,
komplek housing,Komplek perumahan,FitriHome,"BTN Baliase Indah Blok AI No. 27, Balane, Kec. Kinovaro, Kabupaten Sigi, Sulawesi Tengah","Kabupaten Sigi, Sulawesi Tengah",SULAWESI TENGAH,,Indonesia,,,,-0.9408468,119.8488078,https://maps.google.com/?cid=0x0:0xa8768660d73d98df,
komplek housing,Restoran,Rice Box Suka Makan,"3R6W+FFR, Balane, Kec. Kinovaro, Kabupaten Sigi, Sulawesi Tengah","Kabupaten Sigi, Sulawesi Tengah",SULAWESI TENGAH,,Indonesia,,,,-0.9385379,119.8463554,https://maps.google.com/?cid=0x0:0xcb09d9f3ff05598,
komplek housing,komplek housing,Korwil,"2RJG+GG, Uwemanje, Kec. Kinovaro, Kabupaten Sigi, Sulawesi Tengah","Kabupaten Sigi, Sulawesi Tengah",SULAWESI TENGAH,,Indonesia,,,,-0.9686883,119.8263467,https://maps.google.com/?cid=0x0:0x8772f2cee569e420,
komplek housing,Perumahan,RUMAH CIHKA NUR AULIA,"2RRQ+393, Porame, Kec. Kinovaro, Kabupaten Sigi, Sulawesi Tengah","Kabupaten Sigi, Sulawesi Tengah",SULAWESI TENGAH,,Indonesia,,,,-0.9598596,119.8384318,https://maps.google.com/?cid=0x0:0x946ccc3a9487edfc,
komplek housing,Rumah Kayu,"Desa Doda Kec,Kinovaro Kab,Sigi","3RCF+G7V, Unnamed Road, Doda, Kec. Kinovaro, Kabupaten Sigi, Sulawesi Tengah 94223","Unnamed Road, Doda, Kec. Kinovaro, Kabupaten Sigi",SULAWESI TENGAH,94223.0,Indonesia,,,,-0.9286339,119.8231814,https://maps.google.com/?cid=0x0:0x85521e9c6e2c7399,
komplek housing,Toko Pakaian Wanita,Ruma mama niken,"3R4V+JHR, Balane, Kec. Kinovaro, Kabupaten Sigi, Sulawesi Tengah","Kabupaten Sigi, Sulawesi Tengah",SULAWESI TENGAH,,Indonesia,,,,-0.9433971,119.8438861,https://maps.google.com/?cid=0x0:0xfd0f79d18057745a,
komplek housing,Komplek perumahan,Perumahan,"Green Garden, Jl TK Handayani Blk. J No.12, Baliase, Kec. Marawola, Kabupaten Sigi, Sulawesi Tengah 94222","Jl TK Handayani Blk. J No.12, Baliase, Kec. Marawola, Kabupaten Sigi",SULAWESI TENGAH,94222.0,Indonesia,,,,-0.9378146,119.8501975,https://maps.google.com/?cid=0x0:0x478ab8baab5bf499,
komplek housing,Komplek perumahan,Rumah ubay,"3R3M+GW, Balane, Kec. Kinovaro, Kabupaten Sigi, Sulawesi Tengah","Kabupaten Sigi, Sulawesi Tengah",SULAWESI TENGAH,,Indonesia,,,,-0.9461896,119.8347026,https://maps.google.com/?cid=0x0:0x998715335042f976,
komplek housing,Pembangunan Perumahan,Tondo,"3R3J+VWH, Balane, Kec. Kinovaro, Kabupaten Sigi, Sulawesi Tengah","Kabupaten Sigi, Sulawesi Tengah",SULAWESI TENGAH,,Indonesia,,,,-0.9453021,119.8323443,https://maps.google.com/?cid=0x0:0xf0f30307334086d1,
komplek housing,Komplek perumahan,RUMAH PUTRI,"2RRQ+V6Q, Porame, Kec. Kinovaro, Kabupaten Sigi, Sulawesi Tengah","Kabupaten Sigi, Sulawesi Tengah",SULAWESI TENGAH,,Indonesia,,,,-0.9577901,119.8381239,https://maps.google.com/?cid=0x0:0x8898aa190b23368a,
komplek housing,Komplek perumahan,BLOK C4.HOME KEISHA,"Jl. Rezeki BTN Pondok Indah No.C3, Boyabaliase, Kec. Marawola, Kabupaten Sigi, Sulawesi Tengah 94222","Boyabaliase, Kec. Marawola, Kabupaten Sigi",SULAWESI TENGAH,94222.0,Indonesia,,,,-0.9454914,119.8510468,https://maps.google.com/?cid=0x0:0x61686f80f5f205ec,
komplek housing,Komplek perumahan,Glamour AK 8,"3R6W+FFR, Balane, Kec. Kinovaro, Kabupaten Sigi, Sulawesi Tengah","Kabupaten Sigi, Sulawesi Tengah",SULAWESI TENGAH,,Indonesia,,,,-0.9387717,119.84614,https://maps.google.com/?cid=0x0:0x14258bab235a6d63,
komplek housing,Pembangunan Perumahan,Lheman,"3R2M+WFG, Porame, Kec. Kinovaro, Kabupaten Sigi, Sulawesi Tengah","Kabupaten Sigi, Sulawesi Tengah",SULAWESI TENGAH,,Indonesia,,,,-0.9476921,119.8337146,https://maps.google.com/?cid=0x0:0xb9f80e7e6d9e0485,
komplek housing,Gedung Apartemen,Home sweet RA,"3V45+HF9, Baliase, Kec. Marawola, Kabupaten Sigi, Sulawesi Tengah 94222","Baliase, Kec. Marawola, Kabupaten Sigi",SULAWESI TENGAH,94222.0,Indonesia,,,,-0.9436312,119.8587491,https://maps.google.com/?cid=0x0:0xf91c23c26dc08273,
komplek housing,Komplek perumahan,Home Okky Vallentino,"2RXP+8XR, Porame, Kec. Kinovaro, Kabupaten Sigi, Sulawesi Tengah","Kabupaten Sigi, Sulawesi Tengah",SULAWESI TENGAH,,Indonesia,,,,-0.9516305,119.8373786,https://maps.google.com/?cid=0x0:0xbd865deacc80d8d2,
komplek housing,Komplek perumahan,Rumah nenek,"2RVP+RV9, Porame, Kec. Kinovaro, Kabupaten Sigi, Sulawesi Tengah","Kabupaten Sigi, Sulawesi Tengah",SULAWESI TENGAH,,Indonesia,,,,-0.9557236,119.8373212,https://maps.google.com/?cid=0x0:0x645eaffde84cbca8,
komplek housing,Kantor Perusahaan,Desa porame,"2RRQ+V6Q, Porame, Kec. Kinovaro, Kabupaten Sigi, Sulawesi Tengah","Kabupaten Sigi, Sulawesi Tengah",SULAWESI TENGAH,,Indonesia,,,,-0.9577901,119.8381239,https://maps.google.com/?cid=0x0:0x14e39a7de8a257b8,
komplek housing,Komplek perumahan,BTN BUKIT BALIASE INDAH BLOK AL NO.30,"3R6W+5C6, Balane, Kec. Kinovaro, Kabupaten Sigi, Sulawesi Tengah","Kabupaten Sigi, Sulawesi Tengah",SULAWESI TENGAH,,Indonesia,,,,-0.9398083,119.8460983,https://maps.google.com/?cid=0x0:0x5c5e9a0145c07214,
komplek housing,Komplek perumahan,Rumah Mayor Yang Balla,"2RWP+WPP, Porame, Kec. Kinovaro, Kabupaten Sigi, Sulawesi Tengah","Kabupaten Sigi, Sulawesi Tengah",SULAWESI TENGAH,,Indonesia,,,,-0.952665,119.8368136,https://maps.google.com/?cid=0x0:0x7d9af5eee42f41e,
komplek housing,Komplek perumahan,Perumahan Azzahra,"3R8P+Q3, Duyu, Kec. Tatanga, Kota Palu, Sulawesi Tengah","Kota Palu, Sulawesi Tengah",SULAWESI TENGAH,,Indonesia,,,,-0.9330962,119.8351633,https://maps.google.com/?cid=0x0:0xecea7d69a151af16,
komplek housing,Pengembang Realestat,Musville SkyView,"3R5V+XJ, Balane, Kec. Kinovaro, Kabupaten Sigi, Sulawesi Tengah","Kabupaten Sigi, Sulawesi Tengah",SULAWESI TENGAH,,Indonesia,,,,-0.9399167,119.8436944,https://maps.google.com/?cid=0x0:0x832a9e39c5c9731c,
komplek housing,Komplek perumahan,Yunhi home,"3R6X+J8Q, Baliase, Kec. Marawola, Kabupaten Sigi, Sulawesi Tengah","Kabupaten Sigi, Sulawesi Tengah",SULAWESI TENGAH,,Indonesia,,,,-0.9387868,119.8480504,https://maps.google.com/?cid=0x0:0xb95a30c6c94a6c3d,
komplek housing,komplek housing,Komplek Housing,"Blok Bojong Nangka I, Jl. Ring Rudal Blok Bojong Nangka I No.68, RT.001/RW.007, Jatirahayu, Kec. Pd. Melati, Kota Bks, Jawa Barat 17414","Jl. Ring Rudal Blok Bojong Nangka I No.68, RT.001/RW.007, Jatirahayu, Kec. Pd. Melati, Kota Bks",SULAWESI TENGAH,17414.0,Indonesia,,,,-6.293724,106.9165114,https://maps.google.com/?cid=0x0:0x9c50464976dee674,
komplek housing,komplek housing,Sulawesi Tengah 94363,"Kabupaten Sigi, Sulawesi Tengah","Kabupaten Sigi, Sulawesi Tengah",SULAWESI TENGAH,,Indonesia,,,,-1.5208341,119.8815203,https://maps.google.com/?cid=0x0:0xdeb8c8aa1833cdca,
komplek housing,Komplek perumahan,Rumah Keluarga NURDIN Muda Lebang,"F2C6+JGR, Winatu, Kec. Kulawi, Kabupaten Sigi, Sulawesi Tengah 94363","Winatu, Kec. Kulawi, Kabupaten Sigi",SULAWESI TENGAH,94363.0,Indonesia,,,,-1.5283882,120.0112668,https://maps.google.com/?cid=0x0:0x9afc8c9813840466,
komplek housing,Komplek perumahan,Lorong TAVA,"GXXM+6HG, Boladangko, Kec. Kulawi, Kabupaten Sigi, Sulawesi Tengah 94363","Boladangko, Kec. Kulawi, Kabupaten Sigi",SULAWESI TENGAH,94363.0,Indonesia,,,,-1.4519382,119.983953,https://maps.google.com/?cid=0x0:0x2404d23b0f30f9fa,
komplek housing,komplek housing,Desa Puroo,"J2PP+JFC, Puro'o, Kec. Lindu, Kabupaten Sigi, Sulawesi Tengah 94363","Puro'o, Kec. Lindu, Kabupaten Sigi",SULAWESI TENGAH,94363.0,Indonesia,,,,-1.3634407,120.0361343,https://maps.google.com/?cid=0x0:0x6114494d8fb631c1,
komplek housing,Komplek perumahan,Starlink Tua Janggut Winatu,"CXVH+32Q, Winatu, Kec. Kulawi, Kabupaten Sigi, Sulawesi Tengah","Kabupaten Sigi, Sulawesi Tengah",SULAWESI TENGAH,,Indonesia,,,,-1.5572855,119.9775974,https://maps.google.com/?cid=0x0:0xdbf8533ae3a129c2,
komplek housing,Komplek perumahan,Rumah eca tonta,"92VP+7MM, Lawua, Kec. Kulawi Sel., Kabupaten Sigi, Sulawesi Tengah 94363","Lawua, Kec. Kulawi Sel., Kabupaten Sigi",SULAWESI TENGAH,94363.0,Indonesia,,,,-1.6067776,120.0366831,https://maps.google.com/?cid=0x0:0x4eaba662286efc87,
komplek housing,Komplek perumahan,Kel.Ezar Lampi/Tandu,"F2RG+234, Toro, Kec. Kulawi, Kabupaten Sigi, Sulawesi Tengah","Kabupaten Sigi, Sulawesi Tengah",SULAWESI TENGAH,,Indonesia,,,,-1.5099903,120.0251925,https://maps.google.com/?cid=0x0:0x1b65c14b6da0538,
komplek housing,Komplek perumahan,Yhoyo's Home,"Salua, Kec. Kulawi, Kabupaten Sigi, Sulawesi Tengah","Kabupaten Sigi, Sulawesi Tengah",SULAWESI TENGAH,,Indonesia,,,,-1.4024936,119.9046594,https://maps.google.com/?cid=0x0:0x733398ae15456dcd,
komplek housing,Komplek perumahan,Rumah Harianto Abd. Madjid,"Dsn l Liohi, Bolapapu, Kec. Kulawi, Kabupaten Sigi, Sulawesi Tengah 94363","Bolapapu, Kec. Kulawi, Kabupaten Sigi",SULAWESI TENGAH,94363.0,Indonesia,,,,-1.443863,119.9866503,https://maps.google.com/?cid=0x0:0xa85b20fad59838f1,
komplek housing,Kantor Pemerintahan Daerah,Desa Banggaiba,"FPJQ+VW2, Banggaiba, Kec. Kulawi, Kabupaten Sigi, Sulawesi Tengah 94363","Banggaiba, Kec. Kulawi, Kabupaten Sigi",SULAWESI TENGAH,94363.0,Indonesia,,,,-1.5178749,119.7397636,https://maps.google.com/?cid=0x0:0x4ab5f53fab7ef3f5,
komplek housing,Komplek perumahan,Rumah deviana,"F2F6+2G5, Jl. Kulawi, Gimpu, Sungku, Kec. Kulawi, Kabupaten Sigi, Sulawesi Tengah 94363","Jl. Kulawi, Gimpu, Sungku, Kec. Kulawi, Kabupaten Sigi",SULAWESI TENGAH,94363.0,Indonesia,,,,-1.5276129,120.0112528,https://maps.google.com/?cid=0x0:0xf5739859a487d94b,
komplek housing,Komplek perumahan,Keluarga Barata/Tandu,"F2QG+R6X, Toro, Kec. Kulawi, Kabupaten Sigi, Sulawesi Tengah","Kabupaten Sigi, Sulawesi Tengah",SULAWESI TENGAH,,Indonesia,,,,-1.5100738,120.0254494,https://maps.google.com/?cid=0x0:0x22931e95a081d5a5,
komplek housing,komplek housing,Rumah Farhan,"C25H+R24, O'o, Kec. Kulawi Sel., Kabupaten Sigi, Sulawesi Tengah 94363","O'o, Kec. Kulawi Sel., Kabupaten Sigi",SULAWESI TENGAH,94363.0,Indonesia,,,,-1.5904771,120.0275737,https://maps.google.com/?cid=0x0:0xbc2000a9789fa459,
komplek housing,komplek housing,Desa Polma,"F2C6+PG8, Desa Polma, Kec. Kulawi, Kabupaten Sigi, Sulawesi Tengah 94363","Desa Polma, Kec. Kulawi, Kabupaten Sigi",SULAWESI TENGAH,94363.0,Indonesia,,,,-1.5282233,120.0113262,https://maps.google.com/?cid=0x0:0x9dc5bb7b89f555cc,
komplek housing,Komplek perumahan,BTN GREEN LANDO 2,"JV7J+JJ2, Salua, Kec. Kulawi, Kabupaten Sigi, Sulawesi Tengah","Kabupaten Sigi, Sulawesi Tengah",SULAWESI TENGAH,,Indonesia,,,,-1.3859904,119.8815203,https://maps.google.com/?cid=0x0:0xb867eecf24815abc,
komplek housing,Kantor Administrasi Kota,Desa salua,"MX29+R57, Salua, Kec. Kulawi, Kabupaten Sigi, Sulawesi Tengah 94363","Salua, Kec. Kulawi, Kabupaten Sigi",SULAWESI TENGAH,94363.0,Indonesia,,,,-1.3479598,119.9677153,https://maps.google.com/?cid=0x0:0x5d0b24f059972e0d,
komplek housing,komplek housing,Huntap satelit,"MX38+3MJ, Salua, Kec. Kulawi, Kabupaten Sigi, Sulawesi Tengah 94363","Salua, Kec. Kulawi, Kabupaten Sigi",SULAWESI TENGAH,94363.0,Indonesia,,,,-1.3472875,119.9666406,https://maps.google.com/?cid=0x0:0x9f7a568f68263ace,
komplek housing,Perhimpunan Pengembang Perumahan,Desa Loca Kecamatan kuwali,"FWC8+GF5, Lonca, Kec. Kulawi, Kabupaten Sigi, Sulawesi Tengah 94363","Lonca, Kec. Kulawi, Kabupaten Sigi",SULAWESI TENGAH,94363.0,Indonesia,,,,-1.5287458,119.9162276,https://maps.google.com/?cid=0x0:0x9987e4998d1c3f48,
komplek housing,Komplek perumahan,Dei Losoh,"FVHJ+MJ6, Lorong SMPN 1, Rantewulu, Kec. Kulawi, Kabupaten Sigi, Sulawesi Tengah","Kabupaten Sigi, Sulawesi Tengah",SULAWESI TENGAH,,Indonesia,,,,-1.5208341,119.8815203,https://maps.google.com/?cid=0x0:0xde5f75ad6a5ea546,
komplek housing,Lapangan Sepak Bola,Toro bola,"F2XP+M6V, Toro, Kec. Kulawi, Kabupaten Sigi, Sulawesi Tengah 94363","Toro, Kec. Kulawi, Kabupaten Sigi",SULAWESI TENGAH,94363.0,Indonesia,,,,-1.5007605,120.0355434,https://maps.google.com/?cid=0x0:0xe92810e7cc1390c8,
komplek housing,komplek housing,Kec. Kulawi,"Kabupaten Sigi, Sulawesi Tengah","Kabupaten Sigi, Sulawesi Tengah",SULAWESI TENGAH,,Indonesia,,,,-1.5208341,119.8815203,https://maps.google.com/?cid=0x0:0xa47d7b0d5123cf24,
komplek housing,Komplek perumahan,Rumah fira,"HX9P+46G, Bolapapu, Kec. Kulawi, Kabupaten Sigi, Sulawesi Tengah 94363","Bolapapu, Kec. Kulawi, Kabupaten Sigi",SULAWESI TENGAH,94363.0,Indonesia,,,,-1.4323998,119.9865798,https://maps.google.com/?cid=0x0:0xb5a22e9450de2cf6,
komplek housing,Komplek perumahan,Dusun lempe,"GXXM+X8Q, Boladangko, Kec. Kulawi, Kabupaten Sigi, Sulawesi Tengah 94363","Boladangko, Kec. Kulawi, Kabupaten Sigi",SULAWESI TENGAH,94363.0,Indonesia,,,,-1.4507239,119.983272,https://maps.google.com/?cid=0x0:0x5acaa7813faf7d1d,
komplek housing,Komplek perumahan,Donny Hamaele,"HX9M+8PV, Bolapapu, Kec. Kulawi, Kabupaten Sigi, Sulawesi Tengah 94363","Bolapapu, Kec. Kulawi, Kabupaten Sigi",SULAWESI TENGAH,94363.0,Indonesia,,,,-1.4322532,119.9845602,https://maps.google.com/?cid=0x0:0xe4b00df5f5606db2,
komplek housing,Komplek perumahan,Rumah Sindi,"Jl. Poros Palu No.62, Tuwa, Kec. Kulawi, Kabupaten Sigi, Sulawesi Tengah 94363","Tuwa, Kec. Kulawi, Kabupaten Sigi",SULAWESI TENGAH,94363.0,Indonesia,,,,-1.3470134,119.9662087,https://maps.google.com/?cid=0x0:0xf84d8377cb920870,
komplek housing,Komplek perumahan,Lagimpu Family,"HX4M+4QJ, Bolapapu, Kec. Kulawi, Kabupaten Sigi, Sulawesi Tengah 94363","Bolapapu, Kec. Kulawi, Kabupaten Sigi",SULAWESI TENGAH,94363.0,Indonesia,,,,-1.4446607,119.9843894,https://maps.google.com/?cid=0x0:0xe009d7a679f74b06,
komplek housing,Komplek perumahan,Rumah Papa Ben,"HX5P+657, Bolapapu, Kec. Kulawi, Kabupaten Sigi, Sulawesi Tengah 94363","Bolapapu, Kec. Kulawi, Kabupaten Sigi",SULAWESI TENGAH,94363.0,Indonesia,,,,-1.441996,119.985113,https://maps.google.com/?cid=0x0:0xc6c981ee9fb2cf2f,
komplek housing,Komplek perumahan,Dusun Lompo Desa Banggaiba,"CQXG+2R7, Rantewulu, Kec. Kulawi, Kabupaten Sigi, Sulawesi Tengah 94363","Rantewulu, Kec. Kulawi, Kabupaten Sigi",SULAWESI TENGAH,94363.0,Indonesia,,,,-1.5516047,119.7779254,https://maps.google.com/?cid=0x0:0xee2990ebd99750cb,
komplek housing,Pembangunan Perumahan,Dusun 4 raupa,"F2Q6+G2H, Jl. Kulawi-Gimpu, Sungku, Kec. Kulawi, Kabupaten Sigi, Sulawesi Tengah 94363","Jl. Kulawi-Gimpu, Sungku, Kec. Kulawi, Kabupaten Sigi",SULAWESI TENGAH,94363.0,Indonesia,,,,-1.5117059,120.0094637,https://maps.google.com/?cid=0x0:0x90ad0a32b8e8e07e,
komplek housing,Komplek perumahan,Rumah eca tonta,"92VP+7MM, Lawua, Kec. Kulawi Sel., Kabupaten Sigi, Sulawesi Tengah 94363","Lawua, Kec. Kulawi Sel., Kabupaten Sigi",SULAWESI TENGAH,94363.0,Indonesia,,,,-1.6067776,120.0366831,https://maps.google.com/?cid=0x0:0x4eaba662286efc87,
komplek housing,Komplek perumahan,Starlink Tua Janggut Winatu,"CXVH+32Q, Winatu, Kec. Kulawi, Kabupaten Sigi, Sulawesi Tengah","Kabupaten Sigi, Sulawesi Tengah",SULAWESI TENGAH,,Indonesia,,,,-1.5572855,119.9775974,https://maps.google.com/?cid=0x0:0xdbf8533ae3a129c2,
komplek housing,komplek housing,Kec. Kulawi Sel.,"Kabupaten Sigi, Sulawesi Tengah","Kabupaten Sigi, Sulawesi Tengah",SULAWESI TENGAH,,Indonesia,,,,-1.6101964,120.0395124,https://maps.google.com/?cid=0x0:0x2e68e52f1c51cd88,
komplek housing,komplek housing,Rumah Farhan,"C25H+R24, O'o, Kec. Kulawi Sel., Kabupaten Sigi, Sulawesi Tengah 94363","O'o, Kec. Kulawi Sel., Kabupaten Sigi",SULAWESI TENGAH,94363.0,Indonesia,,,,-1.5904771,120.0275737,https://maps.google.com/?cid=0x0:0xbc2000a9789fa459,
komplek housing,Komplek perumahan,Rumah Keluarga NURDIN Muda Lebang,"F2C6+JGR, Winatu, Kec. Kulawi, Kabupaten Sigi, Sulawesi Tengah 94363","Winatu, Kec. Kulawi, Kabupaten Sigi",SULAWESI TENGAH,94363.0,Indonesia,,,,-1.5283882,120.0112668,https://maps.google.com/?cid=0x0:0x9afc8c9813840466,
komplek housing,Kios,Kios merjen,"C23R+C66, Salutome, Kec. Kulawi Sel., Kabupaten Sigi, Sulawesi Tengah 94363","Salutome, Kec. Kulawi Sel., Kabupaten Sigi",SULAWESI TENGAH,94363.0,Indonesia,,,,-1.5964589,120.0405228,https://maps.google.com/?cid=0x0:0x745d841654735178,
komplek housing,Komplek perumahan,Rumah asti,"929Q+P3M, Tomua, Kec. Kulawi Sel., Kabupaten Sigi, Sulawesi Tengah 94363","Tomua, Kec. Kulawi Sel., Kabupaten Sigi",SULAWESI TENGAH,94363.0,Indonesia,,,,-1.6306726,120.0376786,https://maps.google.com/?cid=0x0:0x5d9ad1d25cdaeb56,
komplek housing,Komplek perumahan,M.Tamaka /Kae,"92VP+6FR, Lawua, Kec. Kulawi Sel., Kabupaten Sigi, Sulawesi Tengah 94363","Lawua, Kec. Kulawi Sel., Kabupaten Sigi",SULAWESI TENGAH,94363.0,Indonesia,,,,-1.6065976,120.036599,https://maps.google.com/?cid=0x0:0xe602483124bb2a8a,
komplek housing,Balai Pertemuan Desa,Desa tomua,"8XXH+VWP, Tomua, Kec. Kulawi Sel., Kabupaten Sigi, Sulawesi Tengah","Kabupaten Sigi, Sulawesi Tengah",SULAWESI TENGAH,,Indonesia,,,,-1.6502992,119.9798347,https://maps.google.com/?cid=0x0:0x4a33fed0b28e2617,
komplek housing,Komplek perumahan,Rumah Nyonya Envoy,"82VV+67, Lempelero, Kec. Kulawi Sel., Kabupaten Sigi, Sulawesi Tengah","Kabupaten Sigi, Sulawesi Tengah",SULAWESI TENGAH,,Indonesia,,,,-1.6569256,120.0431744,https://maps.google.com/?cid=0x0:0xfa25decd4871057d,
komplek housing,Komplek perumahan,Rumah alm Guru Enard Tawue,"C26G+GR, O'o, Kec. Kulawi Sel., Kabupaten Sigi, Sulawesi Tengah 94363","O'o, Kec. Kulawi Sel., Kabupaten Sigi",SULAWESI TENGAH,94363.0,Indonesia,,,,-1.5889997,120.027168,https://maps.google.com/?cid=0x0:0x51af65281a3d670c,
komplek housing,Komplek perumahan,Rmh ester,"92QP+CH, Lawua, Kec. Kulawi Sel., Kabupaten Sigi, Sulawesi Tengah","Kabupaten Sigi, Sulawesi Tengah",SULAWESI TENGAH,,Indonesia,,,,-1.6114069,120.0365262,https://maps.google.com/?cid=0x0:0x18c018a8efa1c26e,
komplek housing,Komplek perumahan,Ngata Moa,"632X+QMH, Moa, Kec. Kulawi Sel., Kabupaten Sigi, Sulawesi Tengah","Kabupaten Sigi, Sulawesi Tengah",SULAWESI TENGAH,,Indonesia,,,,-1.7980579,120.0992487,https://maps.google.com/?cid=0x0:0x79b820685e74ff9e,
komplek housing,Komplek perumahan,Erwin,"92GH+267, Tompi Bugis, Kec. Kulawi Sel., Kabupaten Sigi, Sulawesi Tengah","Kabupaten Sigi, Sulawesi Tengah",SULAWESI TENGAH,,Indonesia,,,,-1.6249577,120.0280437,https://maps.google.com/?cid=0x0:0x21b16b15b60dc3fc,
komplek housing,Komplek perumahan,Rumah deviana,"F2F6+2G5, Jl. Kulawi, Gimpu, Sungku, Kec. Kulawi, Kabupaten Sigi, Sulawesi Tengah 94363","Jl. Kulawi, Gimpu, Sungku, Kec. Kulawi, Kabupaten Sigi",SULAWESI TENGAH,94363.0,Indonesia,,,,-1.5276129,120.0112528,https://maps.google.com/?cid=0x0:0xf5739859a487d94b,
komplek housing,Komplek perumahan,Rumah mertua,"92VP+5QX, Watukilo, Kec. Kulawi Sel., Kabupaten Sigi, Sulawesi Tengah","Kabupaten Sigi, Sulawesi Tengah",SULAWESI TENGAH,,Indonesia,,,,-1.6069159,120.0369781,https://maps.google.com/?cid=0x0:0x34a19c58c37f89a4,
komplek housing,Komplek perumahan,M. Tahir,"92RQ+8C9, Lawua, Kec. Kulawi Sel., Kabupaten Sigi, Sulawesi Tengah","Kabupaten Sigi, Sulawesi Tengah",SULAWESI TENGAH,,Indonesia,,,,-1.6092037,120.0386089,https://maps.google.com/?cid=0x0:0x636a1377f7726edf,
komplek housing,Kelompok Bermain,papa beby,"92VP+9G6, Lawua, Kec. Kulawi Sel., Kabupaten Sigi, Sulawesi Tengah 94363","Lawua, Kec. Kulawi Sel., Kabupaten Sigi",SULAWESI TENGAH,94363.0,Indonesia,,,,-1.6065889,120.0362784,https://maps.google.com/?cid=0x0:0x1eb4abbf04dd233a,
komplek housing,komplek housing,Desa Polma,"F2C6+PG8, Desa Polma, Kec. Kulawi, Kabupaten Sigi, Sulawesi Tengah 94363","Desa Polma, Kec. Kulawi, Kabupaten Sigi",SULAWESI TENGAH,94363.0,Indonesia,,,,-1.5282233,120.0113262,https://maps.google.com/?cid=0x0:0x9dc5bb7b89f555cc,
komplek housing,Komplek perumahan,RUMAH TAMA PEPA,"92JJ+V66, Tompi Bugis, Kec. Kulawi Sel., Kabupaten Sigi, Sulawesi Tengah","Kabupaten Sigi, Sulawesi Tengah",SULAWESI TENGAH,,Indonesia,,,,-1.6171104,120.0314441,https://maps.google.com/?cid=0x0:0xbfdb3255ae1d9b4e,
komplek housing,Gedung Apartemen,Rumah bidan ati,"C24H+5VG, O'o, Kec. Kulawi Sel., Kabupaten Sigi, Sulawesi Tengah","Kabupaten Sigi, Sulawesi Tengah",SULAWESI TENGAH,,Indonesia,,,,-1.5947365,120.0298924,https://maps.google.com/?cid=0x0:0xc9779e96416ae79d,
komplek housing,komplek housing,Desa Puroo,"J2PP+JFC, Puro'o, Kec. Lindu, Kabupaten Sigi, Sulawesi Tengah 94363","Puro'o, Kec. Lindu, Kabupaten Sigi",SULAWESI TENGAH,94363.0,Indonesia,,,,-1.3634407,120.0361343,https://maps.google.com/?cid=0x0:0x6114494d8fb631c1,
komplek housing,Pembangunan Perumahan,Home Eran,"J2FJ+RP, Puro'o, Kec. Lindu, Kabupaten Sigi, Sulawesi Tengah 94363","Puro'o, Kec. Lindu, Kabupaten Sigi",SULAWESI TENGAH,94363.0,Indonesia,,,,-1.3599678,120.0415423,https://maps.google.com/?cid=0x0:0x457dd248fdfd2f3b,
komplek housing,komplek housing,Sulawesi Tengah 94363,"Kabupaten Sigi, Sulawesi Tengah","Kabupaten Sigi, Sulawesi Tengah",SULAWESI TENGAH,,Indonesia,,,,-1.5208341,119.8815203,https://maps.google.com/?cid=0x0:0xdeb8c8aa1833cdca,
komplek housing,Komplek perumahan,Rumah Keluarga NURDIN Muda Lebang,"F2C6+JGR, Winatu, Kec. Kulawi, Kabupaten Sigi, Sulawesi Tengah 94363","Winatu, Kec. Kulawi, Kabupaten Sigi",SULAWESI TENGAH,94363.0,Indonesia,,,,-1.5283882,120.0112668,https://maps.google.com/?cid=0x0:0x9afc8c9813840466,
komplek housing,Komplek perumahan,Rumah Maykel,"M3M4+GC, Anca, Kec. Lindu, Kabupaten Sigi, Sulawesi Tengah","Kabupaten Sigi, Sulawesi Tengah",SULAWESI TENGAH,,Indonesia,,,,-1.316199,120.056034,https://maps.google.com/?cid=0x0:0xa8951c7c8abdffe9,
komplek housing,Komplek perumahan,BTN GREEN LANDO 2,"JV7J+JJ2, Salua, Kec. Kulawi, Kabupaten Sigi, Sulawesi Tengah","Kabupaten Sigi, Sulawesi Tengah",SULAWESI TENGAH,,Indonesia,,,,-1.3859904,119.8815203,https://maps.google.com/?cid=0x0:0xb867eecf24815abc,
komplek housing,Komplek perumahan,Rumah Allfa Rivaldo,"J2PQ+W94, Puro'o, Kec. Lindu, Kabupaten Sigi, Sulawesi Tengah 94363","Puro'o, Kec. Lindu, Kabupaten Sigi",SULAWESI TENGAH,94363.0,Indonesia,,,,-1.3625635,120.0374097,https://maps.google.com/?cid=0x0:0xa9d8ca35970f300c,
komplek housing,Komplek perumahan,Dusun Kalora,"M27V+7J4, Tomado, Kec. Lindu, Kabupaten Sigi, Sulawesi Tengah","Kabupaten Sigi, Sulawesi Tengah",SULAWESI TENGAH,,Indonesia,,,,-1.3368665,120.0440776,https://maps.google.com/?cid=0x0:0xc9e9a762c041b150,
komplek housing,Komplek perumahan,Lorong TAVA,"GXXM+6HG, Boladangko, Kec. Kulawi, Kabupaten Sigi, Sulawesi Tengah 94363","Boladangko, Kec. Kulawi, Kabupaten Sigi",SULAWESI TENGAH,94363.0,Indonesia,,,,-1.4519382,119.983953,https://maps.google.com/?cid=0x0:0x2404d23b0f30f9fa,
komplek housing,Komplek perumahan,Kristian Haral,"HX6P+M84, Bolapapu, Kec. Kulawi, Kabupaten Sigi, Sulawesi Tengah 94363","Bolapapu, Kec. Kulawi, Kabupaten Sigi",SULAWESI TENGAH,94363.0,Indonesia,,,,-1.4383672,119.9858301,https://maps.google.com/?cid=0x0:0xd7a4b521ab6198df,
komplek housing,komplek housing,Desa Polma,"F2C6+PG8, Desa Polma, Kec. Kulawi, Kabupaten Sigi, Sulawesi Tengah 94363","Desa Polma, Kec. Kulawi, Kabupaten Sigi",SULAWESI TENGAH,94363.0,Indonesia,,,,-1.5282233,120.0113262,https://maps.google.com/?cid=0x0:0x9dc5bb7b89f555cc,
komplek housing,Komplek perumahan,Starlink Tua Janggut Winatu,"CXVH+32Q, Winatu, Kec. Kulawi, Kabupaten Sigi, Sulawesi Tengah","Kabupaten Sigi, Sulawesi Tengah",SULAWESI TENGAH,,Indonesia,,,,-1.5572855,119.9775974,https://maps.google.com/?cid=0x0:0xdbf8533ae3a129c2,
komplek housing,Komplek perumahan,"Perumahan Satelit Desa Tuwa, Rumah 02","MXC6+JXQ, Tuwa, Kec. Gumbasa, Kabupaten Sigi, Sulawesi Tengah","Kabupaten Sigi, Sulawesi Tengah",SULAWESI TENGAH,,Indonesia,,,,-1.328425,119.9624909,https://maps.google.com/?cid=0x0:0x8ca60bbc5408288,
komplek housing,Komplek perumahan,Kel.Ezar Lampi/Tandu,"F2RG+234, Toro, Kec. Kulawi, Kabupaten Sigi, Sulawesi Tengah","Kabupaten Sigi, Sulawesi Tengah",SULAWESI TENGAH,,Indonesia,,,,-1.5099903,120.0251925,https://maps.google.com/?cid=0x0:0x1b65c14b6da0538,
komplek housing,komplek housing,Huntap satelit,"MX38+3MJ, Salua, Kec. Kulawi, Kabupaten Sigi, Sulawesi Tengah 94363","Salua, Kec. Kulawi, Kabupaten Sigi",SULAWESI TENGAH,94363.0,Indonesia,,,,-1.3472875,119.9666406,https://maps.google.com/?cid=0x0:0x9f7a568f68263ace,
komplek housing,Komplek perumahan,Yhoyo's Home,"Salua, Kec. Kulawi, Kabupaten Sigi, Sulawesi Tengah","Kabupaten Sigi, Sulawesi Tengah",SULAWESI TENGAH,,Indonesia,,,,-1.4024936,119.9046594,https://maps.google.com/?cid=0x0:0x733398ae15456dcd,
komplek housing,Perhimpunan Pengembang Perumahan,Desa Loca Kecamatan kuwali,"FWC8+GF5, Lonca, Kec. Kulawi, Kabupaten Sigi, Sulawesi Tengah 94363","Lonca, Kec. Kulawi, Kabupaten Sigi",SULAWESI TENGAH,94363.0,Indonesia,,,,-1.5287458,119.9162276,https://maps.google.com/?cid=0x0:0x9987e4998d1c3f48,
komplek housing,komplek housing,Rumah Leiden Brits,"76CC+3V8, Lempe, Kec. Lore Tengah, Kabupaten Poso, Sulawesi Tengah 94654","Lempe, Kec. Lore Tengah, Kabupaten Poso",SULAWESI TENGAH,94654.0,Indonesia,,,,-1.7298497,120.2222037,https://maps.google.com/?cid=0x0:0x4a0181c412dc9175,
komplek housing,Komplek perumahan,Rumah Harianto Abd. Madjid,"Dsn l Liohi, Bolapapu, Kec. Kulawi, Kabupaten Sigi, Sulawesi Tengah 94363","Bolapapu, Kec. Kulawi, Kabupaten Sigi",SULAWESI TENGAH,94363.0,Indonesia,,,,-1.443863,119.9866503,https://maps.google.com/?cid=0x0:0xa85b20fad59838f1,
komplek housing,Kantor Pemerintahan Daerah,Desa Banggaiba,"FPJQ+VW2, Banggaiba, Kec. Kulawi, Kabupaten Sigi, Sulawesi Tengah 94363","Banggaiba, Kec. Kulawi, Kabupaten Sigi",SULAWESI TENGAH,94363.0,Indonesia,,,,-1.5178749,119.7397636,https://maps.google.com/?cid=0x0:0x4ab5f53fab7ef3f5,
komplek housing,Kantor Administrasi Kota,Desa salua,"MX29+R57, Salua, Kec. Kulawi, Kabupaten Sigi, Sulawesi Tengah 94363","Salua, Kec. Kulawi, Kabupaten Sigi",SULAWESI TENGAH,94363.0,Indonesia,,,,-1.3479598,119.9677153,https://maps.google.com/?cid=0x0:0x5d0b24f059972e0d,
komplek housing,Komplek perumahan,Rumah Sindi,"Jl. Poros Palu No.62, Tuwa, Kec. Kulawi, Kabupaten Sigi, Sulawesi Tengah 94363","Tuwa, Kec. Kulawi, Kabupaten Sigi",SULAWESI TENGAH,94363.0,Indonesia,,,,-1.3470134,119.9662087,https://maps.google.com/?cid=0x0:0xf84d8377cb920870,
komplek housing,Komplek perumahan,Perumahan Harapan Elok,"Perumahan Harapan Elok, Babelan Kota, Kec. Babelan, Kabupaten Bekasi, Jawa Barat 17610","Babelan Kota, Kec. Babelan, Kabupaten Bekasi",SULAWESI TENGAH,17610.0,Indonesia,,,,-6.1609072,107.0361659,https://maps.google.com/?cid=0x0:0x1e74487fccc9de04,
komplek housing,Komplek perumahan,Komplek Abadi,"Jl. Kolonel Sugiono No.64, RT.5/RW.4, Duren Sawit, Kec. Duren Sawit, Kota Jakarta Timur, Daerah Khusus Ibukota Jakarta 13440","RT.5/RW.4, Duren Sawit, Kec. Duren Sawit, Kota Jakarta Timur",SULAWESI TENGAH,13440.0,Indonesia,,,,-6.2263602,106.9090587,https://maps.google.com/?cid=0x0:0x411a933e73c7ea82,
komplek housing,Komplek perumahan,Taman Leticia 2 Buni Bakti,"Kedung Pengawas, Kec. Babelan, Kabupaten Bekasi, Jawa Barat","Kabupaten Bekasi, Jawa Barat",SULAWESI TENGAH,,Indonesia,,,,-6.1258757,107.0366681,https://maps.google.com/?cid=0x0:0xcfab4090da5d3b64,
komplek housing,komplek housing,Kec. Lindu,"Kabupaten Sigi, Sulawesi Tengah","Kabupaten Sigi, Sulawesi Tengah",SULAWESI TENGAH,,Indonesia,,,,-1.3309548,120.1320454,https://maps.google.com/?cid=0x0:0x1a700d098c4d109b,
komplek housing,Komplek perumahan,Alesha 6 JATIWARNA,"Jl. Bulak Tinggi A No.RT 01/03, Jatiwarna, Kec. Pd. Melati, Kota Bks, Jawa Barat 17415","Jatiwarna, Kec. Pd. Melati, Kota Bks",SULAWESI TENGAH,17415.0,Indonesia,82110959616.0,,,-6.301008,106.9351414,https://maps.google.com/?cid=0x0:0x6f61ec1948785d9f,
komplek housing,Pembangunan Perumahan,Kota Legenda Bekasi,"Kota Legenda, Pusat Niaga Dukuh Bima, Jl. Bima Utama Raya No. 1-3, Lambangsari, Kec. Tambun Sel., Kabupaten Bekasi, Jawa Barat 17510","Pusat Niaga Dukuh Bima, Jl. Bima Utama Raya No. 1-3, Lambangsari, Kec. Tambun Sel., Kabupaten Bekasi",SULAWESI TENGAH,17510.0,Indonesia,2182650808.0,,,-6.2786857,107.0343228,https://maps.google.com/?cid=0x0:0xd570bcabbb16712e,
komplek housing,Pembangunan Perumahan,TERA DAMAI by Harapan Indah,"Jl.Green City No.1, Sriamur, Kec. Tambun Utara, Kabupaten Bekasi, Jawa Barat 17510","Sriamur, Kec. Tambun Utara, Kabupaten Bekasi",SULAWESI TENGAH,17510.0,Indonesia,8111121004.0,,,-6.1715187,107.0495065,https://maps.google.com/?cid=0x0:0x44ed8e40ce9abd4a,
komplek housing,Gedung Apartemen,Home sweet RA,"3V45+HF9, Baliase, Kec. Marawola, Kabupaten Sigi, Sulawesi Tengah 94222","Baliase, Kec. Marawola, Kabupaten Sigi",SULAWESI TENGAH,94222.0,Indonesia,,,,-0.9436312,119.8587491,https://maps.google.com/?cid=0x0:0xf91c23c26dc08273,
komplek housing,komplek housing,Kec. Marawola,"Kabupaten Sigi, Sulawesi Tengah","Kabupaten Sigi, Sulawesi Tengah",SULAWESI TENGAH,,Indonesia,,,,-0.9555175,119.8550313,https://maps.google.com/?cid=0x0:0x5fea2d25cfdec4a9,
komplek housing,Pembangunan Perumahan,Perumahan Graha Mutiara A1/9,"Perum Graha Mutiara Blok A1 No.9, RW.8, Tinggede Sel., Kec. Marawola, Kabupaten Sigi, Sulawesi Tengah 94222","RW.8, Tinggede Sel., Kec. Marawola, Kabupaten Sigi",SULAWESI TENGAH,94222.0,Indonesia,,,,-0.9423497,119.8659324,https://maps.google.com/?cid=0x0:0xead48bc32dff7ec6,
komplek housing,Pembangunan Perumahan,Jabal Rahmah,"BTN REGENSI SETIA BUDI Blk. B No.29, Baliase, Kec. Marawola, Kabupaten Sigi, Sulawesi Tengah 94222","Baliase, Kec. Marawola, Kabupaten Sigi",SULAWESI TENGAH,94222.0,Indonesia,,,,-0.939921,119.8508217,https://maps.google.com/?cid=0x0:0x4b94c0205af8b54b,
komplek housing,Komplek perumahan,Rumah,"3V45+HF9, Unnamed Road, Baliase, Kec. Marawola, Kabupaten Sigi, Sulawesi Tengah 94222","Unnamed Road, Baliase, Kec. Marawola, Kabupaten Sigi",SULAWESI TENGAH,94222.0,Indonesia,,,,-0.9435874,119.858749,https://maps.google.com/?cid=0x0:0x1cd8a069c4a91cb3,
komplek housing,Komplek perumahan,BTN Bukit Baliase Indah,"BTN Bukit Baliase Indah, Baliase, Kec. Marawola, Kabupaten Sigi, Sulawesi Tengah 94222","Baliase, Kec. Marawola, Kabupaten Sigi",SULAWESI TENGAH,94222.0,Indonesia,81349772671.0,,,-0.9405389,119.8519653,https://maps.google.com/?cid=0x0:0x7605f9386ce6ece8,
komplek housing,Komplek perumahan,HOME Diva,"BTN, Jl. Graha Mutiara No.39 Blok C5, Tinggede Sel., Kec. Marawola, Kabupaten Sigi, Sulawesi Tengah 94222","Jl. Graha Mutiara No.39 Blok C5, Tinggede Sel., Kec. Marawola, Kabupaten Sigi",SULAWESI TENGAH,94222.0,Indonesia,,,,-0.9425902,119.86615,https://maps.google.com/?cid=0x0:0xb848a54771b30100,
komplek housing,Komplek perumahan,RUMAH SAHRI,"3V52+92G, Baliase, Kec. Marawola, Kabupaten Sigi, Sulawesi Tengah","Kabupaten Sigi, Sulawesi Tengah",SULAWESI TENGAH,,Indonesia,,,,-0.941556,119.849984,https://maps.google.com/?cid=0x0:0x68b2c2cb429beb3f,
komplek housing,Komplek perumahan,Alvaro_Bee,"3V48+J6W, Tinggede Sel., Kec. Marawola, Kabupaten Sigi, Sulawesi Tengah 94222","Tinggede Sel., Kec. Marawola, Kabupaten Sigi",SULAWESI TENGAH,94222.0,Indonesia,,,,-0.943249,119.86553,https://maps.google.com/?cid=0x0:0xd37aa9926ecc9989,
komplek housing,Komplek perumahan,BLOK C4.HOME KEISHA,"Jl. Rezeki BTN Pondok Indah No.C3, Boyabaliase, Kec. Marawola, Kabupaten Sigi, Sulawesi Tengah 94222","Boyabaliase, Kec. Marawola, Kabupaten Sigi",SULAWESI TENGAH,94222.0,Indonesia,,,,-0.9454914,119.8510468,https://maps.google.com/?cid=0x0:0x61686f80f5f205ec,
komplek housing,Komplek perumahan,House of Sabrina,"3V73+P4H, BTN Green Garden, Baliase, Kec. Marawola, Kabupaten Sigi, Sulawesi Tengah","Kabupaten Sigi, Sulawesi Tengah",SULAWESI TENGAH,,Indonesia,,,,-0.9356886,119.8528499,https://maps.google.com/?cid=0x0:0x6eb46a8c9c8b5261,
komplek housing,Komplek perumahan,Home Mawan kades samalili,"3V37+VVQ, Jl. Graha Mutiara, Tinggede Sel., Kec. Marawola, Kabupaten Sigi, Sulawesi Tengah 94222","Jl. Graha Mutiara, Tinggede Sel., Kec. Marawola, Kabupaten Sigi",SULAWESI TENGAH,94222.0,Indonesia,,,,-0.9452522,119.864773,https://maps.google.com/?cid=0x0:0x5b66f890a66806bb,
komplek housing,Komplek perumahan,Titiz,"Jl. Manunggal No.49, Tinggede Sel., Kec. Marawola, Kabupaten Sigi, Sulawesi Tengah 94222","Tinggede Sel., Kec. Marawola, Kabupaten Sigi",SULAWESI TENGAH,94222.0,Indonesia,,,,-0.9422273,119.8661188,https://maps.google.com/?cid=0x0:0xaaa260ab02990b0e,
komplek housing,Komplek perumahan,Nabila Residence 2,"3V45+888, Jl. Manunggal, Baliase, Kec. Marawola, Kabupaten Sigi, Sulawesi Tengah 94222","Jl. Manunggal, Baliase, Kec. Marawola, Kabupaten Sigi",SULAWESI TENGAH,94222.0,Indonesia,,,,-0.9442115,119.8583212,https://maps.google.com/?cid=0x0:0xdee548bc9d3459e2,
komplek housing,Komplek perumahan,Aan,"3V62+JV4, Baliase, Kec. Marawola, Kabupaten Sigi, Sulawesi Tengah 94222","Baliase, Kec. Marawola, Kabupaten Sigi",SULAWESI TENGAH,94222.0,Indonesia,,,,-0.9384814,119.8522167,https://maps.google.com/?cid=0x0:0x741c2bb35ea455e0,
komplek housing,Komplek perumahan,Rini hasan home,"3V54+H6V, Btn. Palupi, Baliase, Kec. Marawola, Kabupaten Sigi, Sulawesi Tengah","Kabupaten Sigi, Sulawesi Tengah",SULAWESI TENGAH,,Indonesia,,,,-0.9410015,119.8555366,https://maps.google.com/?cid=0x0:0x59a6fdf7d75e6e1c,
komplek housing,Komplek perumahan,Rumah Hanum,"BTN. Pondok Indah, Jl. Rezeki Blok H11, Boyabaliase, Kec. Marawola, Kabupaten Sigi, Sulawesi Tengah 94222","Jl. Rezeki Blok H11, Boyabaliase, Kec. Marawola, Kabupaten Sigi",SULAWESI TENGAH,94222.0,Indonesia,,,,-0.9461743,119.8496483,https://maps.google.com/?cid=0x0:0xad6fcdb695acd26b,
komplek housing,Komplek perumahan,Sya’s Home,"estate, Blok B8, Baliase, Kec. Marawola, Kabupaten Sigi, Sulawesi Tengah","Kabupaten Sigi, Sulawesi Tengah",SULAWESI TENGAH,,Indonesia,,,,-0.942938,119.8596898,https://maps.google.com/?cid=0x0:0x75871a71b5ca2432,
komplek housing,Agen Properti,Perumahan Banua Indah Permai,"3V76+6RF, Baliase, Kec. Marawola, Kabupaten Sigi, Sulawesi Tengah 94222","Baliase, Kec. Marawola, Kabupaten Sigi",SULAWESI TENGAH,94222.0,Indonesia,,,,-0.9369317,119.8620412,https://maps.google.com/?cid=0x0:0x2991207218580af6,
komplek housing,Komplek perumahan,Perumahan,"Green Garden, Jl TK Handayani Blk. J No.12, Baliase, Kec. Marawola, Kabupaten Sigi, Sulawesi Tengah 94222","Jl TK Handayani Blk. J No.12, Baliase, Kec. Marawola, Kabupaten Sigi",SULAWESI TENGAH,94222.0,Indonesia,,,,-0.9378146,119.8501975,https://maps.google.com/?cid=0x0:0x478ab8baab5bf499,
komplek housing,Komplek perumahan,Azka's Home,"Blk. A1 No.10, Baliase, Kec. Marawola, Kabupaten Sigi, Sulawesi Tengah 94222","Baliase, Kec. Marawola, Kabupaten Sigi",SULAWESI TENGAH,94222.0,Indonesia,,,,-0.9390385,119.8541276,https://maps.google.com/?cid=0x0:0xa4147a2339b96f92,
komplek housing,Komplek perumahan,Perumahan Berlianland Baliase,"3V65+XH, Baliase, Kec. Marawola, Kabupaten Sigi, Sulawesi Tengah 94222","Baliase, Kec. Marawola, Kabupaten Sigi",SULAWESI TENGAH,94222.0,Indonesia,,,,-0.9386631,119.8595799,https://maps.google.com/?cid=0x0:0xb554f5f5317f0208,
komplek housing,Komplek perumahan,Perumahan Berlianland Baliase C7,"3V65+MR5, Baliase, Kec. Marawola, Kabupaten Sigi, Sulawesi Tengah","Kabupaten Sigi, Sulawesi Tengah",SULAWESI TENGAH,,Indonesia,,,,-0.938356,119.8596131,https://maps.google.com/?cid=0x0:0xe0ba6c3c14a61ec3,
komplek housing,Perumahan,PERUMAHAN BTP BLOK C/4,"3V43+VWR, Perumahan BTP, Baliase, Kec. Marawola, Kabupaten Sigi, Sulawesi Tengah 94322","Perumahan BTP, Baliase, Kec. Marawola, Kabupaten Sigi",SULAWESI TENGAH,94322.0,Indonesia,,,,-0.9427641,119.8547708,https://maps.google.com/?cid=0x0:0xc6636bf1f37aa199,
komplek housing,Komplek perumahan,Yunhi home,"3R6X+J8Q, Baliase, Kec. Marawola, Kabupaten Sigi, Sulawesi Tengah","Kabupaten Sigi, Sulawesi Tengah",SULAWESI TENGAH,,Indonesia,,,,-0.9387868,119.8480504,https://maps.google.com/?cid=0x0:0xb95a30c6c94a6c3d,
komplek housing,komplek housing,Perumahan Maranda Hills,"3V32+9CQ, Boyabaliase, Kec. Marawola, Kabupaten Sigi, Sulawesi Tengah","Kabupaten Sigi, Sulawesi Tengah",SULAWESI TENGAH,,Indonesia,,,,-0.9465497,119.8511082,https://maps.google.com/?cid=0x0:0x47eaefe1e49db860,
komplek housing,Perumahan,PERUMAHAN BTP BLOK D/2,"3V43+QXR, Baliase, Kec. Marawola, Kabupaten Sigi, Sulawesi Tengah","Kabupaten Sigi, Sulawesi Tengah",SULAWESI TENGAH,,Indonesia,,,,-0.9430127,119.8548827,https://maps.google.com/?cid=0x0:0x790a66265f33ab57,
komplek housing,Pembangunan Perumahan,Home jufriansyah,"XVR5+9JV, Bomba, Kec. Marawola, Kabupaten Sigi, Sulawesi Tengah 94362","Bomba, Kec. Marawola, Kabupaten Sigi",SULAWESI TENGAH,94362.0,Indonesia,,,,-1.0090214,119.8590589,https://maps.google.com/?cid=0x0:0x96b4248a018b0eaa,
komplek housing,komplek housing,Rumah BTN Liysa,"3R6X+WCC, Baliase, Kec. Marawola, Kabupaten Sigi, Sulawesi Tengah 94222","Baliase, Kec. Marawola, Kabupaten Sigi",SULAWESI TENGAH,94222.0,Indonesia,,,,-0.9376839,119.8485285,https://maps.google.com/?cid=0x0:0xc215cb83ac6b1628,
komplek housing,komplek housing,Kec. Marawola Barat,"Kabupaten Sigi, Sulawesi Tengah","Kabupaten Sigi, Sulawesi Tengah",SULAWESI TENGAH,,Indonesia,,,,-0.9674043,119.780961,https://maps.google.com/?cid=0x0:0xb7948086e4538741,
komplek housing,Agen Properti,Perumahan Banua Indah Permai,"3V76+6RF, Baliase, Kec. Marawola, Kabupaten Sigi, Sulawesi Tengah 94222","Baliase, Kec. Marawola, Kabupaten Sigi",SULAWESI TENGAH,94222.0,Indonesia,,,,-0.9369317,119.8620412,https://maps.google.com/?cid=0x0:0x2991207218580af6,
komplek housing,komplek housing,Korwil,"2RJG+GG, Uwemanje, Kec. Kinovaro, Kabupaten Sigi, Sulawesi Tengah","Kabupaten Sigi, Sulawesi Tengah",SULAWESI TENGAH,,Indonesia,,,,-0.9686883,119.8263467,https://maps.google.com/?cid=0x0:0x8772f2cee569e420,
komplek housing,Komplek perumahan,Perumahan Berlianland Baliase C7,"3V65+MR5, Baliase, Kec. Marawola, Kabupaten Sigi, Sulawesi Tengah","Kabupaten Sigi, Sulawesi Tengah",SULAWESI TENGAH,,Indonesia,,,,-0.938356,119.8596131,https://maps.google.com/?cid=0x0:0xe0ba6c3c14a61ec3,
komplek housing,Gedung Apartemen,Home sweet RA,"3V45+HF9, Baliase, Kec. Marawola, Kabupaten Sigi, Sulawesi Tengah 94222","Baliase, Kec. Marawola, Kabupaten Sigi",SULAWESI TENGAH,94222.0,Indonesia,,,,-0.9436312,119.8587491,https://maps.google.com/?cid=0x0:0xf91c23c26dc08273,
komplek housing,Komplek perumahan,Perumahan,"Green Garden, Jl TK Handayani Blk. J No.12, Baliase, Kec. Marawola, Kabupaten Sigi, Sulawesi Tengah 94222","Jl TK Handayani Blk. J No.12, Baliase, Kec. Marawola, Kabupaten Sigi",SULAWESI TENGAH,94222.0,Indonesia,,,,-0.9378146,119.8501975,https://maps.google.com/?cid=0x0:0x478ab8baab5bf499,
komplek housing,Pembangunan Perumahan,Perumahan Graha Mutiara A1/9,"Perum Graha Mutiara Blok A1 No.9, RW.8, Tinggede Sel., Kec. Marawola, Kabupaten Sigi, Sulawesi Tengah 94222","RW.8, Tinggede Sel., Kec. Marawola, Kabupaten Sigi",SULAWESI TENGAH,94222.0,Indonesia,,,,-0.9423497,119.8659324,https://maps.google.com/?cid=0x0:0xead48bc32dff7ec6,
komplek housing,Komplek perumahan,Perumahan Berlianland Baliase,"3V65+XH, Baliase, Kec. Marawola, Kabupaten Sigi, Sulawesi Tengah 94222","Baliase, Kec. Marawola, Kabupaten Sigi",SULAWESI TENGAH,94222.0,Indonesia,,,,-0.9386631,119.8595799,https://maps.google.com/?cid=0x0:0xb554f5f5317f0208,
komplek housing,Komplek perumahan,Rumah dien,"3QGC+QJF, Lewara, Kec. Marawola Barat, Kabupaten Sigi, Sulawesi Tengah","Kabupaten Sigi, Sulawesi Tengah",SULAWESI TENGAH,,Indonesia,,,,-0.9230722,119.7715563,https://maps.google.com/?cid=0x0:0x37280a6080fae2e0,
komplek housing,Perumahan,Perumahan Bukit Nirwana Indah,"3RFP+QJ9, Duyu, Kec. Tatanga, Kota Palu, Sulawesi Tengah","Kota Palu, Sulawesi Tengah",SULAWESI TENGAH,,Indonesia,,,,-0.9255813,119.8366057,https://maps.google.com/?cid=0x0:0x6aa79660a987a348,
komplek housing,Perumahan,PERUMAHAN BTP BLOK C/4,"3V43+VWR, Perumahan BTP, Baliase, Kec. Marawola, Kabupaten Sigi, Sulawesi Tengah 94322","Perumahan BTP, Baliase, Kec. Marawola, Kabupaten Sigi",SULAWESI TENGAH,94322.0,Indonesia,,,,-0.9427641,119.8547708,https://maps.google.com/?cid=0x0:0xc6636bf1f37aa199,
komplek housing,Komplek perumahan,Yunhi home,"3R6X+J8Q, Baliase, Kec. Marawola, Kabupaten Sigi, Sulawesi Tengah","Kabupaten Sigi, Sulawesi Tengah",SULAWESI TENGAH,,Indonesia,,,,-0.9387868,119.8480504,https://maps.google.com/?cid=0x0:0xb95a30c6c94a6c3d,
komplek housing,Komplek perumahan,Rumah pak andi,"2QVM+G72, Dombu, Kec. Marawola Barat, Kabupaten Sigi, Sulawesi Tengah","Kabupaten Sigi, Sulawesi Tengah",SULAWESI TENGAH,,Indonesia,,,,-0.9562363,119.7831356,https://maps.google.com/?cid=0x0:0x789a93af7820519f,
komplek housing,Komplek perumahan,BLOK C4.HOME KEISHA,"Jl. Rezeki BTN Pondok Indah No.C3, Boyabaliase, Kec. Marawola, Kabupaten Sigi, Sulawesi Tengah 94222","Boyabaliase, Kec. Marawola, Kabupaten Sigi",SULAWESI TENGAH,94222.0,Indonesia,,,,-0.9454914,119.8510468,https://maps.google.com/?cid=0x0:0x61686f80f5f205ec,
komplek housing,Komplek perumahan,Perumahan Azzahra,"3R8P+Q3, Duyu, Kec. Tatanga, Kota Palu, Sulawesi Tengah","Kota Palu, Sulawesi Tengah",SULAWESI TENGAH,,Indonesia,,,,-0.9330962,119.8351633,https://maps.google.com/?cid=0x0:0xecea7d69a151af16,
komplek housing,Komplek perumahan,BTN Bukit Baliase Indah,"BTN Bukit Baliase Indah, Baliase, Kec. Marawola, Kabupaten Sigi, Sulawesi Tengah 94222","Baliase, Kec. Marawola, Kabupaten Sigi",SULAWESI TENGAH,94222.0,Indonesia,81349772671.0,,,-0.9405389,119.8519653,https://maps.google.com/?cid=0x0:0x7605f9386ce6ece8,
komplek housing,Komplek perumahan,RUMAH SAHRI,"3V52+92G, Baliase, Kec. Marawola, Kabupaten Sigi, Sulawesi Tengah","Kabupaten Sigi, Sulawesi Tengah",SULAWESI TENGAH,,Indonesia,,,,-0.941556,119.849984,https://maps.google.com/?cid=0x0:0x68b2c2cb429beb3f,
komplek housing,Pembangunan Perumahan,Jabal Rahmah,"BTN REGENSI SETIA BUDI Blk. B No.29, Baliase, Kec. Marawola, Kabupaten Sigi, Sulawesi Tengah 94222","Baliase, Kec. Marawola, Kabupaten Sigi",SULAWESI TENGAH,94222.0,Indonesia,,,,-0.939921,119.8508217,https://maps.google.com/?cid=0x0:0x4b94c0205af8b54b,
komplek housing,Komplek perumahan,Rumah,"3V73+F3X, Baliase, Kec. Marawola, Kabupaten Sigi, Sulawesi Tengah 94222","Baliase, Kec. Marawola, Kabupaten Sigi",SULAWESI TENGAH,94222.0,Indonesia,,,,-0.9362632,119.8527396,https://maps.google.com/?cid=0x0:0x85ef7ffb24bc9ff7,
komplek housing,Komplek perumahan,RUMAHKU,"3VF8+6CQ, Jl. Kramat Jaya, Tinggede, Kec. Marawola, Kabupaten Sigi, Sulawesi Tengah 94362","Jl. Kramat Jaya, Tinggede, Kec. Marawola, Kabupaten Sigi",SULAWESI TENGAH,94362.0,Indonesia,,,,-0.9269505,119.8661296,https://maps.google.com/?cid=0x0:0x82e874ab042466e9,
komplek housing,Perumahan,PERUMAHAN BTP BLOK D/2,"3V43+QXR, Baliase, Kec. Marawola, Kabupaten Sigi, Sulawesi Tengah","Kabupaten Sigi, Sulawesi Tengah",SULAWESI TENGAH,,Indonesia,,,,-0.9430127,119.8548827,https://maps.google.com/?cid=0x0:0x790a66265f33ab57,
komplek housing,komplek housing,Perumahan Maranda Hills,"3V32+9CQ, Boyabaliase, Kec. Marawola, Kabupaten Sigi, Sulawesi Tengah","Kabupaten Sigi, Sulawesi Tengah",SULAWESI TENGAH,,Indonesia,,,,-0.9465497,119.8511082,https://maps.google.com/?cid=0x0:0x47eaefe1e49db860,
komplek housing,Komplek perumahan,Rumah'Q,"3V9G+V2P, Jalan PKK, Tinggede, Kec. Marawola, Kabupaten Sigi, Sulawesi Tengah 94362","Jalan PKK, Tinggede, Kec. Marawola, Kabupaten Sigi",SULAWESI TENGAH,94362.0,Indonesia,,,,-0.9302875,119.8750781,https://maps.google.com/?cid=0x0:0x3a016db2b05d39ac,
komplek housing,Perhimpunan Pengembang Perumahan,Rumah Lala,"3V2C+GVF, Sunju, Kec. Marawola, Kabupaten Sigi, Sulawesi Tengah 94362","Sunju, Kec. Marawola, Kabupaten Sigi",SULAWESI TENGAH,94362.0,Indonesia,,,,-0.9486651,119.8721656,https://maps.google.com/?cid=0x0:0x1a3a486580d03b85,
komplek housing,Inspektur Tempat Tinggal,Rumah warga,"WRV9+M45, Balumpewa, Kec. Dolo Bar., Kabupaten Sigi, Sulawesi Tengah 94362","Balumpewa, Kec. Dolo Bar., Kabupaten Sigi",SULAWESI TENGAH,94362.0,Indonesia,,,,-1.055868,119.8178676,https://maps.google.com/?cid=0x0:0xc2621ae89558b12c,
komplek housing,Area Pengambilan Gambar,Bukit patuna desa rondingo,"XQVV+HV8, Rondingo, Kec. Kinovaro, Kabupaten Sigi, Sulawesi Tengah 94362","Rondingo, Kec. Kinovaro, Kabupaten Sigi",SULAWESI TENGAH,94362.0,Indonesia,,,,-1.0060843,119.7947139,https://maps.google.com/?cid=0x0:0xc443ec4bcdbd98eb,
komplek housing,Komplek perumahan,Bu Meti Home,"WRHH+2QG, Mantikole, Kec. Dolo Bar., Kabupaten Sigi, Sulawesi Tengah 94362","Mantikole, Kec. Dolo Bar., Kabupaten Sigi",SULAWESI TENGAH,94362.0,Indonesia,,,,-1.0724315,119.829443,https://maps.google.com/?cid=0x0:0xc8a637808086d2f7,
komplek housing,komplek housing,Kec. Nokilalaki,"Kabupaten Sigi, Sulawesi Tengah","Kabupaten Sigi, Sulawesi Tengah",SULAWESI TENGAH,,Indonesia,,,,-1.1889906,120.1320653,https://maps.google.com/?cid=0x0:0xc5bb665e4a1adbde,
komplek housing,Perumahan,Labangkalang's Home,"R488+Q9, Sopu, Kec. Nokilalaki, Kabupaten Sigi, Sulawesi Tengah","Kabupaten Sigi, Sulawesi Tengah",SULAWESI TENGAH,,Indonesia,,,,-1.1830916,120.1158951,https://maps.google.com/?cid=0x0:0x274de39501be265d,
komplek housing,Komplek perumahan,Rumah papa hengki,"R47J+5JH, Kamarora A, Kec. Nokilalaki, Kabupaten Sigi, Sulawesi Tengah 94364","Kamarora A, Kec. Nokilalaki, Kabupaten Sigi",SULAWESI TENGAH,94364.0,Indonesia,,,,-1.1860755,120.131906,https://maps.google.com/?cid=0x0:0x719c93c7d1a0d5c,
komplek housing,Komplek perumahan,Vhyola home’s,"R478+WPF, Sopu, Kec. Nokilalaki, Kabupaten Sigi, Sulawesi Tengah 94364","Sopu, Kec. Nokilalaki, Kabupaten Sigi",SULAWESI TENGAH,94364.0,Indonesia,,,,-1.1850509,120.11732,https://maps.google.com/?cid=0x0:0xfa0b3bfdecc44427,
komplek housing,Komplek perumahan,felix home's,"R488+264, Sopu, Kec. Nokilalaki, Kabupaten Sigi, Sulawesi Tengah 94364","Sopu, Kec. Nokilalaki, Kabupaten Sigi",SULAWESI TENGAH,94364.0,Indonesia,,,,-1.1848685,120.1156712,https://maps.google.com/?cid=0x0:0x806871e75f3d2e5b,
komplek housing,Gedung Apartemen,Indri Home's,"R479+5WP, Kadidia, Kec. Nokilalaki, Kabupaten Sigi, Sulawesi Tengah","Kabupaten Sigi, Sulawesi Tengah",SULAWESI TENGAH,,Indonesia,,,,-1.1870336,120.119835,https://maps.google.com/?cid=0x0:0x2c7ee984d89b6fe7,
komplek housing,Komplek perumahan,Rumah Manda,"R493+CP, Bulili, Kec. Nokilalaki, Kabupaten Sigi, Sulawesi Tengah","Kabupaten Sigi, Sulawesi Tengah",SULAWESI TENGAH,,Indonesia,,,,-1.1814079,120.1043462,https://maps.google.com/?cid=0x0:0x80f9316bf38df5d,
komplek housing,komplek housing,Rumah Yusril / Irham,"R4C6+XWM, Sopu, Kec. Nokilalaki, Kabupaten Sigi, Sulawesi Tengah 94364","Sopu, Kec. Nokilalaki, Kabupaten Sigi",SULAWESI TENGAH,94364.0,Indonesia,,,,-1.1775178,120.1125772,https://maps.google.com/?cid=0x0:0x8b8ad33b2ec65cd9,
komplek housing,Pembangunan Perumahan,Rumah Babba,"R45Q+H4, Kamarora B, Kec. Nokilalaki, Kabupaten Sigi, Sulawesi Tengah 94473","Kamarora B, Kec. Nokilalaki, Kabupaten Sigi",SULAWESI TENGAH,94473.0,Indonesia,,,,-1.1912562,120.1366264,https://maps.google.com/?cid=0x0:0x13d0e6818688da22,
komplek housing,Komplek perumahan,Astari Home's,"R478+8VF, Sopu, Kec. Nokilalaki, Kabupaten Sigi, Sulawesi Tengah 94364","Sopu, Kec. Nokilalaki, Kabupaten Sigi",SULAWESI TENGAH,94364.0,Indonesia,,,,-1.1866753,120.1171836,https://maps.google.com/?cid=0x0:0x761a4db70255a1eb,
komplek housing,Komplek perumahan,Rumah Papa Handri,"R479+4WH, Kadidia, Kec. Nokilalaki, Kabupaten Sigi, Sulawesi Tengah","Kabupaten Sigi, Sulawesi Tengah",SULAWESI TENGAH,,Indonesia,,,,-1.187191,120.119858,https://maps.google.com/?cid=0x0:0x3eb194644fdb00fb,
komplek housing,Komplek perumahan,Rumah Putih Andi,"R46J+CR4, Perumahan pesona, Kamarora B, Kec. Nokilalaki, Kabupaten Sigi, Sulawesi Tengah","Kabupaten Sigi, Sulawesi Tengah",SULAWESI TENGAH,,Indonesia,,,,-1.1889906,120.1320653,https://maps.google.com/?cid=0x0:0x45be5f3132a17588,
komplek housing,Komplek perumahan,Rumah yusri,"R4HF+9P7, Sopu, Kec. Nokilalaki, Kabupaten Sigi, Sulawesi Tengah","Kabupaten Sigi, Sulawesi Tengah",SULAWESI TENGAH,,Indonesia,,,,-1.171587,120.124289,https://maps.google.com/?cid=0x0:0xac1ff868e3cf4133,
komplek housing,Komplek perumahan,Lr.damai,"R3FR+GRG, Bulili, Kec. Nokilalaki, Kabupaten Sigi, Sulawesi Tengah 94364","Bulili, Kec. Nokilalaki, Kabupaten Sigi",SULAWESI TENGAH,94364.0,Indonesia,,,,-1.1761968,120.0920748,https://maps.google.com/?cid=0x0:0x3eb524885c12d9fb,
komplek housing,komplek housing,Adrian melky,"R5G5+J4C, Uenuni, Kec. Palolo, Kabupaten Sigi, Sulawesi Tengah 94473","Uenuni, Kec. Palolo, Kabupaten Sigi",SULAWESI TENGAH,94473.0,Indonesia,,,,-1.1734374,120.1577594,https://maps.google.com/?cid=0x0:0x2f6d504e830605a0,
komplek housing,komplek housing,RUMAH PAPA FATUR,"R46M+4Q9, Kamarora A, Kec. Nokilalaki, Kabupaten Sigi, Sulawesi Tengah","Kabupaten Sigi, Sulawesi Tengah",SULAWESI TENGAH,,Indonesia,,,,-1.1897215,120.1344819,https://maps.google.com/?cid=0x0:0x9d37c3b4172fe967,
komplek housing,Komplek perumahan,Home kinara kayla,"V356+QFV, Makmur, Kec. Palolo, Kabupaten Sigi, Sulawesi Tengah 94364","Makmur, Kec. Palolo, Kabupaten Sigi",SULAWESI TENGAH,94364.0,Indonesia,,,,-1.1405463,120.0612147,https://maps.google.com/?cid=0x0:0xaaf43541843ff527,
komplek housing,Taman bermain,Rumah ekel,"V43J+GPH, Sejahtera, Kec. Palolo, Kabupaten Sigi, Sulawesi Tengah 94473","Sejahtera, Kec. Palolo, Kabupaten Sigi",SULAWESI TENGAH,94473.0,Indonesia,,,,-1.1461921,120.1318576,https://maps.google.com/?cid=0x0:0xbe58cac3326fa136,
komplek housing,Kompleks Kondominium,Basecamp Albert ntee,"R45M+65R, Kamarora A, Kec. Nokilalaki, Kabupaten Sigi, Sulawesi Tengah","Kabupaten Sigi, Sulawesi Tengah",SULAWESI TENGAH,,Indonesia,,,,-1.1918773,120.1329014,https://maps.google.com/?cid=0x0:0x894a6a17b6a2d27b,
komplek housing,Pertanian,Kebun coklat,"R4J4+6QG, Sopu, Kec. Nokilalaki, Kabupaten Sigi, Sulawesi Tengah","Kabupaten Sigi, Sulawesi Tengah",SULAWESI TENGAH,,Indonesia,,,,-1.1694378,120.1069594,https://maps.google.com/?cid=0x0:0x6b6eb42f03f8d36b,
komplek housing,Vila,BTN Pesona Nokilalaki,"Tondo, Kec. Mantikulore, Kota Palu, Sulawesi Tengah 94119","Kec. Mantikulore, Kota Palu",SULAWESI TENGAH,94119.0,Indonesia,,,,-0.8537749,119.8898285,https://maps.google.com/?cid=0x0:0xe52f10f03a071d8a,
komplek housing,komplek housing,Rommy Massie house,"R3VG+JM2, Ranteleda, Kec. Palolo, Kabupaten Sigi, Sulawesi Tengah 94364","Ranteleda, Kec. Palolo, Kabupaten Sigi",SULAWESI TENGAH,94364.0,Indonesia,,,,-1.1556323,120.077335,https://maps.google.com/?cid=0x0:0xe51543d394fcedb1,
komplek housing,Komplek perumahan,Rumah dede,"V2HG+482, Kapiroe, Kec. Palolo, Kabupaten Sigi, Sulawesi Tengah 94364","Kapiroe, Kec. Palolo, Kabupaten Sigi",SULAWESI TENGAH,94364.0,Indonesia,,,,-1.1222386,120.0257588,https://maps.google.com/?cid=0x0:0xd06ecd420d101aa0,
komplek housing,komplek housing,Sulawesi Tengah 94364,"Kabupaten Sigi, Sulawesi Tengah","Kabupaten Sigi, Sulawesi Tengah",SULAWESI TENGAH,,Indonesia,,,,-1.1495881,120.0202964,https://maps.google.com/?cid=0x0:0xc1b3b50bcce1d51b,
komplek housing,Pembangunan Perumahan,Rumah Pashya,"V2GC+PRG, Kapiroe, Kec. Palolo, Kabupaten Sigi, Sulawesi Tengah 94364","Kapiroe, Kec. Palolo, Kabupaten Sigi",SULAWESI TENGAH,94364.0,Indonesia,,,,-1.1225889,120.0220993,https://maps.google.com/?cid=0x0:0x397c9ad7b10dd313,
komplek housing,Pembangunan Perumahan,Burhan home,"V37R+G6J, Bahagia, Kec. Palolo, Kabupaten Sigi, Sulawesi Tengah 94473","Bahagia, Kec. Palolo, Kabupaten Sigi",SULAWESI TENGAH,94473.0,Indonesia,,,,-1.1361512,120.0905157,https://maps.google.com/?cid=0x0:0x8cb4b272ac476c9d,
komplek housing,Komplek perumahan,S. Simatupang,"V34J+W9W, Tanah Harapan, Kec. Palolo, Kabupaten Sigi, Sulawesi Tengah","Kabupaten Sigi, Sulawesi Tengah",SULAWESI TENGAH,,Indonesia,,,,-1.1426284,120.0809664,https://maps.google.com/?cid=0x0:0xe07fb3da494e06ac,
komplek housing,Pembangunan Perumahan,Karya unggas,"R3H2+QQ3, Sintuwu, Kec. Palolo, Kabupaten Sigi, Sulawesi Tengah 94364","Sintuwu, Kec. Palolo, Kabupaten Sigi",SULAWESI TENGAH,94364.0,Indonesia,,,,-1.1706146,120.0519174,https://maps.google.com/?cid=0x0:0x8cb2ec89d1f4b989,
komplek housing,Komplek perumahan,Rumahnya Papa Leli,"V344+2GV, Makmur, Kec. Palolo, Kabupaten Sigi, Sulawesi Tengah 94364","Makmur, Kec. Palolo, Kabupaten Sigi",SULAWESI TENGAH,94364.0,Indonesia,,,,-1.1448988,120.0562817,https://maps.google.com/?cid=0x0:0x65b9b968a6847128,
komplek housing,Komplek perumahan,Rumah viona,"V432+H3J, Sejahtera, Kec. Palolo, Kabupaten Sigi, Sulawesi Tengah 94473","Sejahtera, Kec. Palolo, Kabupaten Sigi",SULAWESI TENGAH,94473.0,Indonesia,,,,-1.1460308,120.1001326,https://maps.google.com/?cid=0x0:0xa7af94cdd95b1754,
komplek housing,Komplek perumahan,House,"RWJF+V4M, Lambara, Kec. Tanambulava, Kabupaten Sigi, Sulawesi Tengah","Kabupaten Sigi, Sulawesi Tengah",SULAWESI TENGAH,,Indonesia,,,,-1.1675485,119.9223469,https://maps.google.com/?cid=0x0:0x3542108aa13d1584,
komplek housing,Perumahan,Rumah Eflin,"R586+JP6, Tongoa, Kec. Palolo, Kabupaten Sigi, Sulawesi Tengah 94473","Tongoa, Kec. Palolo, Kabupaten Sigi",SULAWESI TENGAH,94473.0,Indonesia,,,,-1.1835288,120.1617284,https://maps.google.com/?cid=0x0:0xfd483bc31e25001,
komplek housing,Komplek perumahan,Kapiroe,"V2GC+PRG, Kapiroe, Kec. Palolo, Kabupaten Sigi, Sulawesi Tengah 94364","Kapiroe, Kec. Palolo, Kabupaten Sigi",SULAWESI TENGAH,94364.0,Indonesia,,,,-1.1231792,120.0220721,https://maps.google.com/?cid=0x0:0x47d6419766e89d09,
komplek housing,Komplek perumahan,Keyla's,"V2H9+74G, Bunga, Kec. Palolo, Kabupaten Sigi, Sulawesi Tengah 94364","Bunga, Kec. Palolo, Kabupaten Sigi",SULAWESI TENGAH,94364.0,Indonesia,,,,-1.1218246,120.0178423,https://maps.google.com/?cid=0x0:0xa92d424d937f9598,
komplek housing,Komplek perumahan,Lizam's House,"WX3Q+7V, Baku-Bakulu, Kec. Palolo, Kabupaten Sigi, Sulawesi Tengah 94364","Baku-Bakulu, Kec. Palolo, Kabupaten Sigi",SULAWESI TENGAH,94364.0,Indonesia,,,,-1.096815,119.9896851,https://maps.google.com/?cid=0x0:0x408a031a3e2f3536,
komplek housing,Komplek perumahan,Rumah kades sigimpu,"WX9F+2V8, Sigimpu, Kec. Palolo, Kabupaten Sigi, Sulawesi Tengah 94364","Sigimpu, Kec. Palolo, Kabupaten Sigi",SULAWESI TENGAH,94364.0,Indonesia,,,,-1.082457,119.9746909,https://maps.google.com/?cid=0x0:0x8ad0bb1064cfcbb9,
komplek housing,Komplek perumahan,Rumah papa Lidya,"V374+3W6, Makmur, Kec. Palolo, Kabupaten Sigi, Sulawesi Tengah 94364","Makmur, Kec. Palolo, Kabupaten Sigi",SULAWESI TENGAH,94364.0,Indonesia,,,,-1.1373357,120.0572636,https://maps.google.com/?cid=0x0:0x552385a4292b7176,
komplek housing,Komplek perumahan,Villa Pak Syahrul,"V26R+M98, Petimbe, Kec. Palolo, Kabupaten Sigi, Sulawesi Tengah 94364","Petimbe, Kec. Palolo, Kabupaten Sigi",SULAWESI TENGAH,94364.0,Indonesia,,,,-1.1383321,120.0409582,https://maps.google.com/?cid=0x0:0x31ea85fc2de9b90c,
komplek housing,Masjid,Rumah Muhajir,"V26W+4C8, Makmur, Kec. Palolo, Kabupaten Sigi, Sulawesi Tengah 94364","Makmur, Kec. Palolo, Kabupaten Sigi",SULAWESI TENGAH,94364.0,Indonesia,,,,-1.1397148,120.0460869,https://maps.google.com/?cid=0x0:0x3762204a9c9fa33b,
komplek housing,Komplek perumahan,Pidee home,"WX2Q+3M3, Baku-Bakulu, Kec. Palolo, Kabupaten Sigi, Sulawesi Tengah 94364","Baku-Bakulu, Kec. Palolo, Kabupaten Sigi",SULAWESI TENGAH,94364.0,Indonesia,,,,-1.0998625,119.9891719,https://maps.google.com/?cid=0x0:0x7d51366bd1993fdc,
komplek housing,Komplek perumahan,BASECAMP PRPG BINUNU,"V2GC+PRG, Kapiroe, Kec. Palolo, Kabupaten Sigi, Sulawesi Tengah 94364","Kapiroe, Kec. Palolo, Kabupaten Sigi",SULAWESI TENGAH,94364.0,Indonesia,,,,-1.1240096,120.0220857,https://maps.google.com/?cid=0x0:0xb22db268b776aff6,
komplek housing,Pembangunan Perumahan,Rumahx kembar,"WX9F+3X, Sigimpu, Kec. Palolo, Kabupaten Sigi, Sulawesi Tengah 94364","Sigimpu, Kec. Palolo, Kabupaten Sigi",SULAWESI TENGAH,94364.0,Indonesia,,,,-1.0824453,119.9749431,https://maps.google.com/?cid=0x0:0x674233a69b561545,
komplek housing,Komplek perumahan,Rumah Marlina,"X2CQ+H36, Sigimpu, Kec. Palolo, Kabupaten Sigi, Sulawesi Tengah","Kabupaten Sigi, Sulawesi Tengah",SULAWESI TENGAH,,Indonesia,,,,-1.0285779,120.0376335,https://maps.google.com/?cid=0x0:0x9b5fb3489b2a0182,
komplek housing,Taman bermain,Rumah ekel,"V43J+GPH, Sejahtera, Kec. Palolo, Kabupaten Sigi, Sulawesi Tengah 94473","Sejahtera, Kec. Palolo, Kabupaten Sigi",SULAWESI TENGAH,94473.0,Indonesia,,,,-1.1461921,120.1318576,https://maps.google.com/?cid=0x0:0xbe58cac3326fa136,
komplek housing,komplek housing,Rumah Yuli,"R2RP+GF8, Sintuwu, Kec. Palolo, Kabupaten Sigi, Sulawesi Tengah 94364","Sintuwu, Kec. Palolo, Kabupaten Sigi",SULAWESI TENGAH,94364.0,Indonesia,,,,-1.159993,120.035976,https://maps.google.com/?cid=0x0:0x7935416da59ee42,
komplek housing,Komplek perumahan,Rumah Ferdyxorixo,"V39P+H89, Berdikari, Kec. Palolo, Kabupaten Sigi, Sulawesi Tengah","Kabupaten Sigi, Sulawesi Tengah",SULAWESI TENGAH,,Indonesia,,,,-1.1310885,120.0858601,https://maps.google.com/?cid=0x0:0x11978e9d18ffcb9a,
komplek housing,Masjid,Desa sigimpu,"WX7J+2XW, Sigimpu, Kec. Palolo, Kabupaten Sigi, Sulawesi Tengah","Kabupaten Sigi, Sulawesi Tengah",SULAWESI TENGAH,,Indonesia,,,,-1.0873933,119.9824466,https://maps.google.com/?cid=0x0:0x864f05deabcd2c35,
komplek housing,komplek housing,Komplek Housing,"Blok Bojong Nangka I, Jl. Ring Rudal Blok Bojong Nangka I No.68, RT.001/RW.007, Jatirahayu, Kec. Pd. Melati, Kota Bks, Jawa Barat 17414","Jl. Ring Rudal Blok Bojong Nangka I No.68, RT.001/RW.007, Jatirahayu, Kec. Pd. Melati, Kota Bks",SULAWESI TENGAH,17414.0,Indonesia,,,,-6.293724,106.9165114,https://maps.google.com/?cid=0x0:0x9c50464976dee674,
komplek housing,komplek housing,Palolo,"Honolulu, Hawaii, Amerika Serikat","Honolulu, Hawaii, Amerika Serikat",SULAWESI TENGAH,,Indonesia,,,,21.3126058,-157.7794817,https://maps.google.com/?cid=0x0:0x96a92335f0deeacc,
komplek housing,komplek housing,Sulawesi Tengah 94112,"Kabupaten Sigi, Sulawesi Tengah","Kabupaten Sigi, Sulawesi Tengah",SULAWESI TENGAH,,Indonesia,,,,-1.7555339,120.0202964,https://maps.google.com/?cid=0x0:0x4cb6d2402d66959,
komplek housing,komplek housing,Rumah Gr Herman D Rigo(Watumoni),"7VCW+8PH, Kantewu, Pipikoro, Kabupaten Sigi, Sulawesi Tengah 94112","Kantewu, Pipikoro, Kabupaten Sigi",SULAWESI TENGAH,94112.0,Indonesia,,,,-1.7301615,119.897689,https://maps.google.com/?cid=0x0:0x933cc800f0b45c73,
komplek housing,komplek housing,Rumah Tm Maya,"7V9W+88P, Kantewu, Pipikoro, Kabupaten Sigi, Sulawesi Tengah 94112","Kantewu, Pipikoro, Kabupaten Sigi",SULAWESI TENGAH,94112.0,Indonesia,,,,-1.7307235,119.8962068,https://maps.google.com/?cid=0x0:0x2bdb1dd4e696e725,
komplek housing,Komplek perumahan,Rumah Lucky Hopo,"7VCV+2CH, Kantewu, Pipikoro, Kabupaten Sigi, Sulawesi Tengah 94112","Kantewu, Pipikoro, Kabupaten Sigi",SULAWESI TENGAH,94112.0,Indonesia,,,,-1.7299319,119.893598,https://maps.google.com/?cid=0x0:0xfac109234464079e,
komplek housing,Komplek perumahan,Rumah Anes,"8W8H+62F dusun 2, Porelea, Pipikoro, Kabupaten Sigi, Sulawesi Tengah 94112","Porelea, Pipikoro, Kabupaten Sigi",SULAWESI TENGAH,94112.0,Indonesia,,,,-1.6844259,119.9275457,https://maps.google.com/?cid=0x0:0xea4d86fd8051c6e1,
komplek housing,Pembangunan Perumahan,Mpadano Ntenunu,"6WGH+VVH, Unnamed Road, Peana, Pipikoro, Kabupaten Sigi, Sulawesi Tengah 94112","Unnamed Road, Peana, Pipikoro, Kabupaten Sigi",SULAWESI TENGAH,94112.0,Indonesia,,,,-1.7728006,119.9297466,https://maps.google.com/?cid=0x0:0x8b6860de8c5be7ae,
komplek housing,Komplek perumahan,Erwin,"92GH+267, Tompi Bugis, Kec. Kulawi Sel., Kabupaten Sigi, Sulawesi Tengah","Kabupaten Sigi, Sulawesi Tengah",SULAWESI TENGAH,,Indonesia,,,,-1.6249577,120.0280437,https://maps.google.com/?cid=0x0:0x21b16b15b60dc3fc,
komplek housing,Komplek perumahan,Rumah Tm.Jeri,"82VV+Q5C, 82VV+Q5MLempeleroKec, Kec. Kulawi Sel., Kabupaten Sigi, Sulawesi Tengah 94112","82VV+Q5MLempeleroKec, Kec. Kulawi Sel., Kabupaten Sigi",SULAWESI TENGAH,94112.0,Indonesia,,,,-1.6555675,120.0428852,https://maps.google.com/?cid=0x0:0xfb1b3d00e1e06a40,
komplek housing,Komplek perumahan,RUMAH TAMA PEPA,"92JJ+V66, Tompi Bugis, Kec. Kulawi Sel., Kabupaten Sigi, Sulawesi Tengah","Kabupaten Sigi, Sulawesi Tengah",SULAWESI TENGAH,,Indonesia,,,,-1.6171104,120.0314441,https://maps.google.com/?cid=0x0:0xbfdb3255ae1d9b4e,
komplek housing,Balai Pertemuan Desa,Desa tomua,"8XXH+VWP, Tomua, Kec. Kulawi Sel., Kabupaten Sigi, Sulawesi Tengah","Kabupaten Sigi, Sulawesi Tengah",SULAWESI TENGAH,,Indonesia,,,,-1.6502992,119.9798347,https://maps.google.com/?cid=0x0:0x4a33fed0b28e2617,
komplek housing,Komplek perumahan,Rumah Nyonya Envoy,"82VV+67, Lempelero, Kec. Kulawi Sel., Kabupaten Sigi, Sulawesi Tengah","Kabupaten Sigi, Sulawesi Tengah",SULAWESI TENGAH,,Indonesia,,,,-1.6569256,120.0431744,https://maps.google.com/?cid=0x0:0xfa25decd4871057d,
komplek housing,komplek housing,Pipikoro,"Kabupaten Sigi, Sulawesi Tengah","Kabupaten Sigi, Sulawesi Tengah",SULAWESI TENGAH,,Indonesia,,,,-1.8251672,119.9277947,https://maps.google.com/?cid=0x0:0x464088333be952d6,
komplek housing,komplek housing,Sulawesi Tengah 94364,"Kabupaten Sigi, Sulawesi Tengah","Kabupaten Sigi, Sulawesi Tengah",SULAWESI TENGAH,,Indonesia,,,,-1.1495881,120.0202964,https://maps.google.com/?cid=0x0:0xc1b3b50bcce1d51b,
komplek housing,Perhimpunan Pengembang Perumahan,Mohamad Nur Residen,"XW2P+F9C, Bora, Kec. Sigi Biromaru, Kabupaten Sigi, Sulawesi Tengah 94362","Bora, Kec. Sigi Biromaru, Kabupaten Sigi",SULAWESI TENGAH,94362.0,Indonesia,,,,-1.0481709,119.9354837,https://maps.google.com/?cid=0x0:0xfe7949fa17374d0,
komplek housing,Komplek perumahan,Rumah Mey,"WW7H+CWG, Sidondo I, Kec. Sigi Biromaru, Kabupaten Sigi, Sulawesi Tengah","Kabupaten Sigi, Sulawesi Tengah",SULAWESI TENGAH,,Indonesia,,,,-1.0864304,119.9298149,https://maps.google.com/?cid=0x0:0xa164e1581139d5c9,
komplek housing,Rumah Kayu,"Jalan Kihajar Dewantoro, Lolu, Kec. Sigi Biromaru, Kabupaten Sigi","2WPH+94G, Jl. Ki Hajar, Lolu, Kec. Sigi Biromaru, Kabupaten Sigi, Sulawesi Tengah 94231","Jl. Ki Hajar, Lolu, Kec. Sigi Biromaru, Kabupaten Sigi",SULAWESI TENGAH,94231.0,Indonesia,,,,-0.9640738,119.9278213,https://maps.google.com/?cid=0x0:0x5e7fe5afe0c9bfaf,
komplek housing,Komplek perumahan,safrudin house,"WWXR+84V, Bora, Kec. Sigi Biromaru, Kabupaten Sigi, Sulawesi Tengah","Kabupaten Sigi, Sulawesi Tengah",SULAWESI TENGAH,,Indonesia,,,,-1.05165,119.9402827,https://maps.google.com/?cid=0x0:0xef4554623ace410b,
komplek housing,komplek housing,Muhammad Rizky,"XW2W+RJF, Jl. Poros Palu-Palolo, Bora, Kec. Sigi Biromaru, Kabupaten Sigi, Sulawesi Tengah 94361","Jl. Poros Palu-Palolo, Bora, Kec. Sigi Biromaru, Kabupaten Sigi",SULAWESI TENGAH,94361.0,Indonesia,,,,-1.0475548,119.9467245,https://maps.google.com/?cid=0x0:0x74d2fcea1f66c75,
komplek housing,Perumahan,Apernas Bukit Sigi Permai,"XX62+7QP, Watunonju, Kec. Sigi Biromaru, Kabupaten Sigi, Sulawesi Tengah 94364","Watunonju, Kec. Sigi Biromaru, Kabupaten Sigi",SULAWESI TENGAH,94364.0,Indonesia,,,,-1.039297,119.9519682,https://maps.google.com/?cid=0x0:0xfda62116e182859f,
komplek housing,Pembangunan Perumahan,Perumahan Biromaru Permai,"2WMG+PPJ, Lolu, Kec. Sigi Biromaru, Kabupaten Sigi, Sulawesi Tengah 94232","Lolu, Kec. Sigi Biromaru, Kabupaten Sigi",SULAWESI TENGAH,94232.0,Indonesia,,,,-0.9656619,119.9272879,https://maps.google.com/?cid=0x0:0x7fb21fc2008252a9,
komplek housing,Perhimpunan Pengembang Perumahan,Yeyen Home,"WW35+RMR, Sidondo I, Kec. Sigi Biromaru, Kabupaten Sigi, Sulawesi Tengah 94362","Sidondo I, Kec. Sigi Biromaru, Kabupaten Sigi",SULAWESI TENGAH,94362.0,Indonesia,,,,-1.0953917,119.9091498,https://maps.google.com/?cid=0x0:0x949f8abf4dcbe56c,
komplek housing,Otoritas Perumahan,"BTN Permata Biru, Desa Lolu, Kec. Sigi Biromaru, Kab. Sigi, Sulawesi Tengah","2WMF+W65, Unnamed Road, Lolu, Kec. Sigi Biromaru, Kabupaten Sigi, Sulawesi Tengah 94231","Unnamed Road, Lolu, Kec. Sigi Biromaru, Kabupaten Sigi",SULAWESI TENGAH,94231.0,Indonesia,82348969745.0,,,-0.9652291,119.9231073,https://maps.google.com/?cid=0x0:0x32045da7b43f1b1b,
komplek housing,Komplek perumahan,PUPR BLOK H,"Huntap PUPR, Blok H, Pombewe, Kec. Sigi Biromaru, Kabupaten Sigi, Sulawesi Tengah 94364","Blok H, Pombewe, Kec. Sigi Biromaru, Kabupaten Sigi",SULAWESI TENGAH,94364.0,Indonesia,,,,-0.9851288,119.9435877,https://maps.google.com/?cid=0x0:0x273995e6ace82838,
komplek housing,Komplek perumahan,MZ Aan.,"2W8V+84R, Pombewe, Kec. Sigi Biromaru, Kabupaten Sigi, Sulawesi Tengah 94364","Pombewe, Kec. Sigi Biromaru, Kabupaten Sigi",SULAWESI TENGAH,94364.0,Indonesia,,,,-0.9841375,119.9427656,https://maps.google.com/?cid=0x0:0x6a242a0b72b90172,
komplek housing,Komplek perumahan,Rumah erniati,"2W7W+VPW, Pombewe, Kec. Sigi Biromaru, Kabupaten Sigi, Sulawesi Tengah 94364","Pombewe, Kec. Sigi Biromaru, Kabupaten Sigi",SULAWESI TENGAH,94364.0,Indonesia,,,,-0.9852063,119.9469495,https://maps.google.com/?cid=0x0:0x9f636a442448a4ab,
komplek housing,Komplek perumahan,YG's House,"XWXF+4WV, Jl. Poros Palu-Palolo, RT.11/RW.Dusun 2, Sidera, Kec. Sigi Biromaru, Kabupaten Sigi, Sulawesi Tengah","Kabupaten Sigi, Sulawesi Tengah",SULAWESI TENGAH,,Indonesia,,,,-1.0021281,119.9247984,https://maps.google.com/?cid=0x0:0xef1acf175c34b747,
komplek housing,Komplek perumahan,Rumah komplek,"2VXX+P9, Kalukubula, Kec. Sigi Biromaru, Kabupaten Sigi, Sulawesi Tengah","Kabupaten Sigi, Sulawesi Tengah",SULAWESI TENGAH,,Indonesia,,,,-0.9506412,119.8984585,https://maps.google.com/?cid=0x0:0x6c84991c575a4227,
komplek housing,Komplek perumahan,Bantaya Raranggonau,"2XGX+93X, Pombewe, Kec. Sigi Biromaru, Kabupaten Sigi, Sulawesi Tengah 94364","Pombewe, Kec. Sigi Biromaru, Kabupaten Sigi",SULAWESI TENGAH,94364.0,Indonesia,,,,-0.974019,119.997739,https://maps.google.com/?cid=0x0:0xa58a5371c829bac1,
komplek housing,komplek housing,Kios Dian  Miftah,"WWQ9+HVC, Sidondo IV, Kec. Sigi Biromaru, Kabupaten Sigi, Sulawesi Tengah 94362","Sidondo IV, Kec. Sigi Biromaru, Kabupaten Sigi",SULAWESI TENGAH,94362.0,Indonesia,,,,-1.0610501,119.9196376,https://maps.google.com/?cid=0x0:0xf07a79d9a7f483d3,
komplek housing,Pembangunan Perumahan,Rumah intan,"2W7R+XP3, Pombewe, Kec. Sigi Biromaru, Kabupaten Sigi, Sulawesi Tengah 94364","Pombewe, Kec. Sigi Biromaru, Kabupaten Sigi",SULAWESI TENGAH,94364.0,Indonesia,,,,-0.984942,119.942061,https://maps.google.com/?cid=0x0:0x70c1839dc39170fe,
komplek housing,Komplek perumahan,Rumah rifdan,"WWWW+53R, Bora, Kec. Sigi Biromaru, Kabupaten Sigi, Sulawesi Tengah","Kabupaten Sigi, Sulawesi Tengah",SULAWESI TENGAH,,Indonesia,,,,-1.0545215,119.9451436,https://maps.google.com/?cid=0x0:0xec5d75a83195981c,
komplek housing,Komplek perumahan,Azril house,"XW2R+225, Bora, Kec. Sigi Biromaru, Kabupaten Sigi, Sulawesi Tengah 94362","Bora, Kec. Sigi Biromaru, Kabupaten Sigi",SULAWESI TENGAH,94362.0,Indonesia,,,,-1.0499805,119.9401219,https://maps.google.com/?cid=0x0:0x38b26e41fdfc9681,
komplek housing,Komplek perumahan,Rumahnya chiya,"belakang kantor pemasaran, Jl. Balintuma Blok D No.16, Perumahan Jinggaland, Kalukubula, Kec. Sigi Biromaru, Kabupaten Sigi, Sulawesi Tengah 94364","Jl. Balintuma Blok D No.16, Perumahan Jinggaland, Kalukubula, Kec. Sigi Biromaru, Kabupaten Sigi",SULAWESI TENGAH,94364.0,Indonesia,,,,-0.9616475,119.8970849,https://maps.google.com/?cid=0x0:0xb3ec76a48aa3fdc,
komplek housing,Perhimpunan Pengembang Perumahan,3WhOME,"Jl. Guru Tua Lrg. M. Syarif Sunusi No.7, Kalukubula, Kec. Sigi Biromaru, Kabupaten Sigi, Sulawesi Tengah 94364","Kalukubula, Kec. Sigi Biromaru, Kabupaten Sigi",SULAWESI TENGAH,94364.0,Indonesia,,,,-0.9367078,119.8854887,https://maps.google.com/?cid=0x0:0xc09816d2f487673f,
komplek housing,komplek housing,Kec. Sigi Biromaru,"Kabupaten Sigi, Sulawesi Tengah","Kabupaten Sigi, Sulawesi Tengah",SULAWESI TENGAH,,Indonesia,,,,-0.9505218,119.9167884,https://maps.google.com/?cid=0x0:0xca14d076a8f526b9,
komplek housing,Komplek perumahan,Palunet I-Hub,"3V7R+74F Perumahan Kaluku Indah, Blok D11, Kalukubula, Kec. Sigi Biromaru, Kabupaten Sigi, Sulawesi Tengah 94364","Blok D11, Kalukubula, Kec. Sigi Biromaru, Kabupaten Sigi",SULAWESI TENGAH,94364.0,Indonesia,,,,-0.9366815,119.8904152,https://maps.google.com/?cid=0x0:0xe11e90a0bec6f439,
komplek housing,Komplek perumahan,Richie,"Jl. Anggrek No.17, Mpanau, Kec. Sigi Biromaru, Kabupaten Sigi, Sulawesi Tengah 94364","Mpanau, Kec. Sigi Biromaru, Kabupaten Sigi",SULAWESI TENGAH,94364.0,Indonesia,,,,-0.9495698,119.9042779,https://maps.google.com/?cid=0x0:0x40c5fadc63f973e4,
komplek housing,Komplek perumahan,PUPR BLOK M,"2W8W+46P, Pombewe, Kec. Sigi Biromaru, Kabupaten Sigi, Sulawesi Tengah 94364","Pombewe, Kec. Sigi Biromaru, Kabupaten Sigi",SULAWESI TENGAH,94364.0,Indonesia,,,,-0.9846578,119.9455883,https://maps.google.com/?cid=0x0:0x25b1923228539ed6,
komplek housing,Pembangunan Perumahan,Rafkapratamashop,"XWVV+8P2, Upt Lembah Palu, Kec. Sigi Biromaru, Kabupaten Sigi, Sulawesi Tengah 94364","Upt Lembah Palu, Kec. Sigi Biromaru, Kabupaten Sigi",SULAWESI TENGAH,94364.0,Indonesia,,,,-1.0067348,119.9442706,https://maps.google.com/?cid=0x0:0x94ab194a6d97a973,
komplek housing,Pembangunan Perumahan,Widiaastuti,"Btc, blok v13, huntap, Pombewe, Sigi Biromaru, Sigi Regency, Central Sulawesi 94364","blok v13, huntap, Pombewe, Sigi Biromaru, Sigi Regency",SULAWESI TENGAH,94364.0,Indonesia,,,,-0.9865713,119.9391688,https://maps.google.com/?cid=0x0:0x28a032b46bc06c01,
komplek housing,Komplek perumahan,Rumah firman,"Jl. Lasoso No.3, Jono Oge, Kec. Sigi Biromaru, Kabupaten Sigi, Sulawesi Tengah 94364","Jono Oge, Kec. Sigi Biromaru, Kabupaten Sigi",SULAWESI TENGAH,94364.0,Indonesia,,,,-0.9725066,119.9167413,https://maps.google.com/?cid=0x0:0xb8cc3e401d822126,
komplek housing,komplek housing,Kec. Tanambulava,"Kabupaten Sigi, Sulawesi Tengah","Kabupaten Sigi, Sulawesi Tengah",SULAWESI TENGAH,,Indonesia,,,,-1.144118,119.9209817,https://maps.google.com/?cid=0x0:0x5d80464cf673a40c,
komplek housing,Komplek perumahan,House,"RWJF+V4M, Lambara, Kec. Tanambulava, Kabupaten Sigi, Sulawesi Tengah","Kabupaten Sigi, Sulawesi Tengah",SULAWESI TENGAH,,Indonesia,,,,-1.1675485,119.9223469,https://maps.google.com/?cid=0x0:0x3542108aa13d1584,
komplek housing,Komplek perumahan,Huntap Aslan,"RWXH+87H, Sibalaya Sel., Kec. Tanambulava, Kabupaten Sigi, Sulawesi Tengah 94361","Sibalaya Sel., Kec. Tanambulava, Kabupaten Sigi",SULAWESI TENGAH,94361.0,Indonesia,,,,-1.1515839,119.9285636,https://maps.google.com/?cid=0x0:0x9b98f796a46bb0d9,
komplek housing,Komplek perumahan,Rumah rakib,"RWMH+PXF, Lambara, Kec. Tanambulava, Kabupaten Sigi, Sulawesi Tengah 94361","Lambara, Kec. Tanambulava, Kabupaten Sigi",SULAWESI TENGAH,94361.0,Indonesia,,,,-1.1657072,119.9293089,https://maps.google.com/?cid=0x0:0x949cd84a48ddd521,
komplek housing,Komplek perumahan,Rumah azam,"RWJF+P6R, Lambara, Kec. Tanambulava, Kabupaten Sigi, Sulawesi Tengah 94361","Lambara, Kec. Tanambulava, Kabupaten Sigi",SULAWESI TENGAH,94361.0,Indonesia,,,,-1.1681334,119.9230118,https://maps.google.com/?cid=0x0:0x998e273cd6c3b1e2,
komplek housing,Komplek perumahan,Rumah lylis,"RWMH+PXF, Lambara, Kec. Tanambulava, Kabupaten Sigi, Sulawesi Tengah 94361","Lambara, Kec. Tanambulava, Kabupaten Sigi",SULAWESI TENGAH,94361.0,Indonesia,,,,-1.1657652,119.9294554,https://maps.google.com/?cid=0x0:0x9048d53dbbef68fd,
komplek housing,komplek housing,"Rumah, Abil Shidqi Ansalan","RWWF+RMR, Sibalaya Sel., Kec. Tanambulava, Kabupaten Sigi, Sulawesi Tengah","Kabupaten Sigi, Sulawesi Tengah",SULAWESI TENGAH,,Indonesia,85268869107.0,,,-1.1528775,119.9241544,https://maps.google.com/?cid=0x0:0x3971333cfaf2f087,
komplek housing,Komplek perumahan,Huntap Satelit,"VW3G+FR, Sibalaya Sel., Kec. Tanambulava, Kabupaten Sigi, Sulawesi Tengah","Kabupaten Sigi, Sulawesi Tengah",SULAWESI TENGAH,,Indonesia,,,,-1.146298,119.9270743,https://maps.google.com/?cid=0x0:0x24e640f2426c5fa6,
komplek housing,Komplek perumahan,Huntap Lambara,"RWJF+V4M, Lambara, Kec. Tanambulava, Kabupaten Sigi, Sulawesi Tengah","Kabupaten Sigi, Sulawesi Tengah",SULAWESI TENGAH,,Indonesia,,,,-1.1677815,119.9227884,https://maps.google.com/?cid=0x0:0xde3f0b23397067de,
komplek housing,Perhimpunan Pengembang Perumahan,Huntap Yusran Niar,"RWXH+H4J, Sibalaya Utara, Kec. Tanambulava, Kabupaten Sigi, Sulawesi Tengah 94361","Sibalaya Utara, Kec. Tanambulava, Kabupaten Sigi",SULAWESI TENGAH,94361.0,Indonesia,,,,-1.1508364,119.9288908,https://maps.google.com/?cid=0x0:0x382adf7f4208badb,
komplek housing,Komplek perumahan,Rumah Naylaa,"VWHM+FC4, Sibowi, Kec. Tanambulava, Kabupaten Sigi, Sulawesi Tengah","Kabupaten Sigi, Sulawesi Tengah",SULAWESI TENGAH,,Indonesia,,,,-1.1213634,119.9335779,https://maps.google.com/?cid=0x0:0x14e93bde20ac715,
komplek housing,Komplek perumahan,Reza Andriansyah,"Sibalaya Sel; km 30, Sibalaya Sel., Kec. Tanambulava, Kabupaten Sigi, Sulawesi Tengah 94361","Sibalaya Sel., Kec. Tanambulava, Kabupaten Sigi",SULAWESI TENGAH,94361.0,Indonesia,82145509339.0,,,-1.1462817,119.9451436,https://maps.google.com/?cid=0x0:0x4f9abaf72022e7c9,
komplek housing,Komplek perumahan,Komplek Perbatasan MKTR,"VW79+28M, Jl. Poros Palu - Kulawi, Sibalaya Utara, Kec. Tanambulava, Kabupaten Sigi, Sulawesi Tengah 94361","Jl. Poros Palu - Kulawi, Sibalaya Utara, Kec. Tanambulava, Kabupaten Sigi",SULAWESI TENGAH,94361.0,Indonesia,,,,-1.1373733,119.9182961,https://maps.google.com/?cid=0x0:0xd33c8c0fb2b66fa0,
komplek housing,Pembangunan Perumahan,Fahri,"VW4C+JVH, Sibalaya Sel., Kec. Tanambulava, Kabupaten Sigi, Sulawesi Tengah 94361","Sibalaya Sel., Kec. Tanambulava, Kabupaten Sigi",SULAWESI TENGAH,94361.0,Indonesia,,,,-1.1429777,119.9217659,https://maps.google.com/?cid=0x0:0xe1ae6fd2a35f7a5,
komplek housing,Perhimpunan Pengembang Perumahan,SEKDES SIBOWI,"VW8C+4Q2, Sibalaya Utara, Kec. Tanambulava, Kabupaten Sigi, Sulawesi Tengah 94361","Sibalaya Utara, Kec. Tanambulava, Kabupaten Sigi",SULAWESI TENGAH,94361.0,Indonesia,,,,-1.1347271,119.9219056,https://maps.google.com/?cid=0x0:0xcb0552a0d726c30,
komplek housing,Komplek perumahan,Rumah Azan Alfatih,"Jl. Poros Palu - Kulawi No.km. 29, RT.001/RW.002, Sibalaya Utara, Kec. Tanambulava, Kabupaten Sigi, Sulawesi Tengah","Kabupaten Sigi, Sulawesi Tengah",SULAWESI TENGAH,,Indonesia,,,,-1.1427169,119.9201743,https://maps.google.com/?cid=0x0:0xf071d5cc6cf6f484,
komplek housing,Pembangunan Perumahan,Sou Memet,"VW56+M3X, Sibalaya Utara, Kec. Tanambulava, Kabupaten Sigi, Sulawesi Tengah 94361","Sibalaya Utara, Kec. Tanambulava, Kabupaten Sigi",SULAWESI TENGAH,94361.0,Indonesia,,,,-1.1407658,119.9102275,https://maps.google.com/?cid=0x0:0xda14ba241858c7e0,
komplek housing,Komplek perumahan,rumah memel,"VW79+M46, Sibalaya Utara, Kec. Tanambulava, Kabupaten Sigi, Sulawesi Tengah","Kabupaten Sigi, Sulawesi Tengah",SULAWESI TENGAH,,Indonesia,,,,-1.1358267,119.9177627,https://maps.google.com/?cid=0x0:0x99d8f945df2ff0f5,
komplek housing,Komplek perumahan,Huntap Airin,"Jl. Poros Palu - Kulawi, Sibalaya Sel., Kec. Tanambulava, Kabupaten Sigi, Sulawesi Tengah","Kabupaten Sigi, Sulawesi Tengah",SULAWESI TENGAH,,Indonesia,,,,-1.1512785,119.9290508,https://maps.google.com/?cid=0x0:0x59a3c4d1d29bd394,
komplek housing,Komplek perumahan,Rumah Hadija,"Jl. Poros Palu - Kulawi, Lambara, Kec. Tanambulava, Kabupaten Sigi, Sulawesi Tengah","Kabupaten Sigi, Sulawesi Tengah",SULAWESI TENGAH,,Indonesia,,,,-1.1628706,119.9300896,https://maps.google.com/?cid=0x0:0x25ec741447a3044b,
komplek housing,Komplek perumahan,Rumah nisa,"VW3H+HV, Sibalaya Sel., Kec. Tanambulava, Kabupaten Sigi, Sulawesi Tengah","Kabupaten Sigi, Sulawesi Tengah",SULAWESI TENGAH,,Indonesia,,,,-1.1456892,119.9288218,https://maps.google.com/?cid=0x0:0xd829c13e390e1f56,
komplek housing,Perhimpunan Pengembang Perumahan,Desa sibowi vatutampina,"VWHC+FM3, Sibowi, Kec. Tanambulava, Kabupaten Sigi, Sulawesi Tengah 94361","Sibowi, Kec. Tanambulava, Kabupaten Sigi",SULAWESI TENGAH,94361.0,Indonesia,,,,-1.1214183,119.921781,https://maps.google.com/?cid=0x0:0x6cd4507e44ae95f4,
komplek housing,Komplek perumahan,Posko KKN tematik 2024 lambara,"RWJF+V4M, Lambara, Kec. Tanambulava, Kabupaten Sigi, Sulawesi Tengah","Kabupaten Sigi, Sulawesi Tengah",SULAWESI TENGAH,,Indonesia,,,,-1.1682598,119.9229756,https://maps.google.com/?cid=0x0:0x2b81d72cfe74e1e3,
komplek housing,Komplek perumahan,Mohamad azan,"VXXJ+MVX, Baku-Bakulu, Kec. Palolo, Kabupaten Sigi, Sulawesi Tengah 94364","Baku-Bakulu, Kec. Palolo, Kabupaten Sigi",SULAWESI TENGAH,94364.0,Indonesia,,,,-1.1000484,119.9821583,https://maps.google.com/?cid=0x0:0x6581a75ac06e6491,
komplek housing,Komplek perumahan,Home Manaf,"WX2Q+3M3, Baku-Bakulu, Kec. Palolo, Kabupaten Sigi, Sulawesi Tengah 94364","Baku-Bakulu, Kec. Palolo, Kabupaten Sigi",SULAWESI TENGAH,94364.0,Indonesia,,,,-1.0998625,119.9891719,https://maps.google.com/?cid=0x0:0x2731905997c3a992,
komplek housing,Komplek perumahan,Pidee home,"WX2Q+3M3, Baku-Bakulu, Kec. Palolo, Kabupaten Sigi, Sulawesi Tengah 94364","Baku-Bakulu, Kec. Palolo, Kabupaten Sigi",SULAWESI TENGAH,94364.0,Indonesia,,,,-1.0998625,119.9891719,https://maps.google.com/?cid=0x0:0x7d51366bd1993fdc,
komplek housing,Komplek perumahan,Lizam's House,"WX3Q+7V, Baku-Bakulu, Kec. Palolo, Kabupaten Sigi, Sulawesi Tengah 94364","Baku-Bakulu, Kec. Palolo, Kabupaten Sigi",SULAWESI TENGAH,94364.0,Indonesia,,,,-1.096815,119.9896851,https://maps.google.com/?cid=0x0:0x408a031a3e2f3536,
komplek housing,Komplek perumahan,Rumah pitaa,"WX2Q+G68, Baku-Bakulu, Kec. Palolo, Kabupaten Sigi, Sulawesi Tengah 94364","Baku-Bakulu, Kec. Palolo, Kabupaten Sigi",SULAWESI TENGAH,94364.0,Indonesia,,,,-1.0987176,119.9880752,https://maps.google.com/?cid=0x0:0x3af7f7844cf97973,
komplek housing,Perumahan,Ashar,"VXJV+9JF, Bobo, Kec. Palolo, Kabupaten Sigi, Sulawesi Tengah 94364","Bobo, Kec. Palolo, Kabupaten Sigi",SULAWESI TENGAH,94364.0,Indonesia,,,,-1.1190511,119.9940551,https://maps.google.com/?cid=0x0:0x85cbe23e10da266e,
perumahan,perumahan,Sulawesi Tengah 94361,"Kabupaten Sigi, Sulawesi Tengah","Kabupaten Sigi, Sulawesi Tengah",SULAWESI TENGAH,,Indonesia,,,,-1.23459,119.9046594,https://maps.google.com/?cid=0x0:0x4f531feacb3953e3,
perumahan,Bar,The Lesung,"Sibonu, Kec. Dolo Bar., Kabupaten Sigi, Sulawesi Tengah 94362","Kec. Dolo Bar., Kabupaten Sigi",SULAWESI TENGAH,94362.0,Indonesia,85398642276.0,,,-1.0196614,119.8626642,https://maps.google.com/?cid=0x0:0xbc701517d6382b9c,
perumahan,Pembangunan Perumahan,Perumahan,"Blk. BJ No.15, Kalukubula, Kec. Sigi Biromaru, Kabupaten Sigi, Sulawesi Tengah 94235","Kalukubula, Kec. Sigi Biromaru, Kabupaten Sigi",SULAWESI TENGAH,94235.0,Indonesia,,,,-0.9454064,119.8908371,https://maps.google.com/?cid=0x0:0x2a5196ec87c2aea,
perumahan,Komplek perumahan,Apinindo Residenza Kalukubula,"2VRW+4Q, Kalukubula, Kec. Sigi Biromaru, Kabupaten Sigi, Sulawesi Tengah 94231","Kalukubula, Kec. Sigi Biromaru, Kabupaten Sigi",SULAWESI TENGAH,94231.0,Indonesia,,,,-0.9603613,119.8969072,https://maps.google.com/?cid=0x0:0xe60cf5e51a905851,
perumahan,Perhimpunan Pengembang Perumahan,Ikbal Ebony,"XV3C+J4G, Kaleke, Kec. Dolo Bar., Kabupaten Sigi, Sulawesi Tengah 94362","Kaleke, Kec. Dolo Bar., Kabupaten Sigi",SULAWESI TENGAH,94362.0,Indonesia,,,,-1.045935,119.8703312,https://maps.google.com/?cid=0x0:0xaed9f688064b1d17,
perumahan,perumahan,Dolo,"Kotarindau, Kec. Dolo, Kabupaten Sigi, Sulawesi Tengah","Kabupaten Sigi, Sulawesi Tengah",SULAWESI TENGAH,,Indonesia,,,,-0.990628,119.878098,https://maps.google.com/?cid=0x0:0x5c92b62bdcba4dae,
perumahan,Pembangunan Perumahan,Perumahan Biromaru Permai,"2WMG+PPJ, Lolu, Kec. Sigi Biromaru, Kabupaten Sigi, Sulawesi Tengah 94232","Lolu, Kec. Sigi Biromaru, Kabupaten Sigi",SULAWESI TENGAH,94232.0,Indonesia,,,,-0.9656619,119.9272879,https://maps.google.com/?cid=0x0:0x7fb21fc2008252a9,
perumahan,Pembangunan Perumahan,Pwn,"RV5Q+VPQ, Rogo, Kec. Dolo Sel., Kabupaten Sigi, Sulawesi Tengah","Kabupaten Sigi, Sulawesi Tengah",SULAWESI TENGAH,,Indonesia,,,,-1.1902986,119.8893401,https://maps.google.com/?cid=0x0:0x5eed22cd9ead8ab6,
perumahan,Komplek perumahan,Rumah Adi Aoo,"Bangga, Kec. Dolo Sel., Kabupaten Sigi, Sulawesi Tengah","Kabupaten Sigi, Sulawesi Tengah",SULAWESI TENGAH,,Indonesia,,,,-1.2493038,119.9275132,https://maps.google.com/?cid=0x0:0xb7bf3fb81e85da66,
perumahan,perumahan,Palu Biromaru,"2V5H+P6X, Kotarindau, Kec. Dolo, Kabupaten Sigi, Sulawesi Tengah","Kabupaten Sigi, Sulawesi Tengah",SULAWESI TENGAH,,Indonesia,,,,-0.990628,119.878098,https://maps.google.com/?cid=0x0:0x31ff6c20599e5f9a,
perumahan,Pembangunan Perumahan,Lorong sintuvu,"QW8C+929, Bangga, Kec. Dolo Sel., Kabupaten Sigi, Sulawesi Tengah","Kabupaten Sigi, Sulawesi Tengah",SULAWESI TENGAH,,Indonesia,,,,-1.2340922,119.9201053,https://maps.google.com/?cid=0x0:0x2395c60f15bdcd57,
perumahan,Komplek perumahan,Rumah Mertua Kim Taehyung,"RV6Q+RXF Jembatan Pewana, Jl. Poros Palu Bangga, Rogo, Kec. Dolo Sel., Kabupaten Sigi, Sulawesi Tengah 94361","Jl. Poros Palu Bangga, Rogo, Kec. Dolo Sel., Kabupaten Sigi",SULAWESI TENGAH,94361.0,Indonesia,,,,-1.1879388,119.8899212,https://maps.google.com/?cid=0x0:0xd4be5d206296e58f,
perumahan,Komplek perumahan,Bulubete,"QWR4+PPG, Bulubete, Kec. Dolo Sel., Kabupaten Sigi, Sulawesi Tengah","Kabupaten Sigi, Sulawesi Tengah",SULAWESI TENGAH,,Indonesia,,,,-1.2081769,119.9068228,https://maps.google.com/?cid=0x0:0x796a008ceb20be2e,
perumahan,Pembangunan Perumahan,Dusun kecil petimbelagi,"XW69+268 Maranata, Waturalele, Kec. Dolo, Kabupaten Sigi, Sulawesi Tengah 94362","Waturalele, Kec. Dolo, Kabupaten Sigi",SULAWESI TENGAH,94362.0,Indonesia,,,,-1.0399601,119.9180748,https://maps.google.com/?cid=0x0:0x9e39bb873cde25e7,
perumahan,Komplek perumahan,Sou kodi Raflin,"RV6Q+94C, Rogo, Kec. Dolo Sel., Kabupaten Sigi, Sulawesi Tengah 94361","Rogo, Kec. Dolo Sel., Kabupaten Sigi",SULAWESI TENGAH,94361.0,Indonesia,,,,-1.1890543,119.8877807,https://maps.google.com/?cid=0x0:0x6fc30fd1d1b0b08f,
perumahan,Komplek perumahan,Tempat leren,"XW32+G4, Waturalele, Kec. Dolo, Kabupaten Sigi, Sulawesi Tengah","Kabupaten Sigi, Sulawesi Tengah",SULAWESI TENGAH,,Indonesia,,,,-1.0461453,119.9003254,https://maps.google.com/?cid=0x0:0x95a5201fb47297f2,
perumahan,Komplek perumahan,LOPER (Lorong Perkuburan),"QWV3+XRQ, Jl. Poros Palu Bangga, Baluase, Kec. Dolo Sel., Kabupaten Sigi, Sulawesi Tengah 94361","Jl. Poros Palu Bangga, Baluase, Kec. Dolo Sel., Kabupaten Sigi",SULAWESI TENGAH,94361.0,Indonesia,,,,-1.2059809,119.9048065,https://maps.google.com/?cid=0x0:0x4040ffe0542be622,
perumahan,Perhimpunan Pengembang Perumahan,Lorong okodi,"PWWJ+CHF, Bangga, Kec. Dolo Sel., Kabupaten Sigi, Sulawesi Tengah","Kabupaten Sigi, Sulawesi Tengah",SULAWESI TENGAH,,Indonesia,,,,-1.2539422,119.9314326,https://maps.google.com/?cid=0x0:0xd2e2890d55a583ae,
perumahan,Komplek perumahan,DION,"WVP9+58X, Balamoa, Kec. Dolo Bar., Kabupaten Sigi, Sulawesi Tengah 94362","Balamoa, Kec. Dolo Bar., Kabupaten Sigi",SULAWESI TENGAH,94362.0,Indonesia,85657242207.0,,,-1.0643671,119.8686518,https://maps.google.com/?cid=0x0:0xdcf7feced7387574,
perumahan,Komplek perumahan,Rumah jafar,"QWW5+53, Bulubete, Kec. Dolo Sel., Kabupaten Sigi, Sulawesi Tengah","Kabupaten Sigi, Sulawesi Tengah",SULAWESI TENGAH,,Indonesia,,,,-1.2046586,119.9066791,https://maps.google.com/?cid=0x0:0x2c51056154da2d29,
perumahan,Komplek perumahan,Banua Muminah Labaso,"RVRP+738, Pulu, Kec. Dolo Sel., Kabupaten Sigi, Sulawesi Tengah 94361","Pulu, Kec. Dolo Sel., Kabupaten Sigi",SULAWESI TENGAH,94361.0,Indonesia,,,,-1.1593419,119.8851963,https://maps.google.com/?cid=0x0:0x49f1b01286dfec7b,
perumahan,Komplek perumahan,rumah mas agus,"PWWJ+7RV, Bangga, Kec. Dolo Sel., Kabupaten Sigi, Sulawesi Tengah","Kabupaten Sigi, Sulawesi Tengah",SULAWESI TENGAH,,Indonesia,,,,-1.2542577,119.9320341,https://maps.google.com/?cid=0x0:0x4922186079f1208,
perumahan,Komplek perumahan,Rumah Yulfien,"WVM7+HPP, Balamoa, Kec. Dolo Bar., Kabupaten Sigi, Sulawesi Tengah 94362","Balamoa, Kec. Dolo Bar., Kabupaten Sigi",SULAWESI TENGAH,94362.0,Indonesia,,,,-1.0641122,119.8695214,https://maps.google.com/?cid=0x0:0x8c4d4a969e329e2,
perumahan,Gedung Apartemen,Rumahh,"QWP6+G2, Bulubete, Kec. Dolo Sel., Kabupaten Sigi, Sulawesi Tengah","Kabupaten Sigi, Sulawesi Tengah",SULAWESI TENGAH,,Indonesia,,,,-1.2143766,119.9102929,https://maps.google.com/?cid=0x0:0x48c830119a4fb119,
perumahan,Komplek perumahan,Rumah ku,"RV5Q+VPQ, Rogo, Kec. Dolo Sel., Kabupaten Sigi, Sulawesi Tengah","Kabupaten Sigi, Sulawesi Tengah",SULAWESI TENGAH,,Indonesia,,,,-1.1902397,119.8893362,https://maps.google.com/?cid=0x0:0x95f60bd047e2ac58,
perumahan,Komplek perumahan,Rumah dira,"RV7Q+3CV, Rogo, Kec. Dolo Sel., Kabupaten Sigi, Sulawesi Tengah","Kabupaten Sigi, Sulawesi Tengah",SULAWESI TENGAH,,Indonesia,,,,-1.1872642,119.8885498,https://maps.google.com/?cid=0x0:0x428583ebf2e9884a,
perumahan,Komplek perumahan,Warna Home,"QWH6+HRX, Walatana, Kec. Dolo Sel., Kabupaten Sigi, Sulawesi Tengah 94361","Walatana, Kec. Dolo Sel., Kabupaten Sigi",SULAWESI TENGAH,94361.0,Indonesia,,,,-1.2210025,119.9121234,https://maps.google.com/?cid=0x0:0x333ae3b7c24f828f,
perumahan,Gedung Apartemen,Bumi tanggu,"PWWJ+M65, Bangga, Kec. Dolo Sel., Kabupaten Sigi, Sulawesi Tengah","Kabupaten Sigi, Sulawesi Tengah",SULAWESI TENGAH,,Indonesia,,,,-1.2533731,119.9305981,https://maps.google.com/?cid=0x0:0xa226fc497243803b,
perumahan,perumahan,Kec. Dolo Bar.,"Kabupaten Sigi, Sulawesi Tengah","Kabupaten Sigi, Sulawesi Tengah",SULAWESI TENGAH,,Indonesia,,,,-1.0248547,119.8669421,https://maps.google.com/?cid=0x0:0x9cff6f7017d9df8d,
perumahan,perumahan,Rumah Ibu Muslimat,"VVXF+99F, Jl. Poros Palu Bangga, Bobo, Kec. Dolo Bar., Kabupaten Sigi, Sulawesi Tengah 94361","Jl. Poros Palu Bangga, Bobo, Kec. Dolo Bar., Kabupaten Sigi",SULAWESI TENGAH,94361.0,Indonesia,,,,-1.1015692,119.8734215,https://maps.google.com/?cid=0x0:0xce898a1f726854a6,
perumahan,perumahan,Rumah Irmawati,"XV8F+73F, Kaleke, Kec. Dolo Bar., Kabupaten Sigi, Sulawesi Tengah","Kabupaten Sigi, Sulawesi Tengah",SULAWESI TENGAH,,Indonesia,,,,-1.0343699,119.8724739,https://maps.google.com/?cid=0x0:0xe594ece2bd3861d7,
perumahan,perumahan,Desa waturalele,"XW45+52V, Waturalele, Kec. Dolo, Kabupaten Sigi, Sulawesi Tengah 94362","Waturalele, Kec. Dolo, Kabupaten Sigi",SULAWESI TENGAH,94362.0,Indonesia,,,,-1.0445032,119.9075516,https://maps.google.com/?cid=0x0:0x80cfa44ccbb9c933,
perumahan,Komplek perumahan,Dea Mutiari’s Home,"Jl. Poros Palu Bangga, Pewunu, Kec. Dolo Bar., Kabupaten Sigi, Sulawesi Tengah 94361","Pewunu, Kec. Dolo Bar., Kabupaten Sigi",SULAWESI TENGAH,94361.0,Indonesia,,,,-1.0273126,119.8670142,https://maps.google.com/?cid=0x0:0x702a5302cf3fdb5e,
perumahan,Perhimpunan Pengembang Perumahan,Ikbal Ebony,"XV3C+J4G, Kaleke, Kec. Dolo Bar., Kabupaten Sigi, Sulawesi Tengah 94362","Kaleke, Kec. Dolo Bar., Kabupaten Sigi",SULAWESI TENGAH,94362.0,Indonesia,,,,-1.045935,119.8703312,https://maps.google.com/?cid=0x0:0xaed9f688064b1d17,
perumahan,Kantor Perusahaan,Banua Nayra,"XVM6+PQ6, Lorong kantor desa, Sibonu, Kec. Dolo Bar., Kabupaten Sigi, Sulawesi Tengah 94362","Lorong kantor desa, Sibonu, Kec. Dolo Bar., Kabupaten Sigi",SULAWESI TENGAH,94362.0,Indonesia,,,,-1.0157182,119.8618867,https://maps.google.com/?cid=0x0:0xca5c4d2a93ab4187,
perumahan,Komplek perumahan,Anjas Sry,"WVRC+94F, Jl. Poros Palu Bangga, Rarampadende, Kec. Dolo Bar., Kabupaten Sigi, Sulawesi Tengah 94362","Jl. Poros Palu Bangga, Rarampadende, Kec. Dolo Bar., Kabupaten Sigi",SULAWESI TENGAH,94362.0,Indonesia,82136397184.0,,,-1.0590642,119.8702836,https://maps.google.com/?cid=0x0:0x17b67d9a5c57b08b,
perumahan,Komplek perumahan,Adnan Syahroni,"WVJC+VMV, Jl. Poros Palu Bangga, Pesaku, Kec. Dolo Bar., Kabupaten Sigi, Sulawesi Tengah 94362","Jl. Poros Palu Bangga, Pesaku, Kec. Dolo Bar., Kabupaten Sigi",SULAWESI TENGAH,94362.0,Indonesia,,,,-1.0677733,119.8716745,https://maps.google.com/?cid=0x0:0x232300b01359fc58,
perumahan,Komplek perumahan,Sou Assya,"XVM7+7G6, Sibonu, Kec. Dolo Bar., Kabupaten Sigi, Sulawesi Tengah 94362","Sibonu, Kec. Dolo Bar., Kabupaten Sigi",SULAWESI TENGAH,94362.0,Indonesia,85255922200.0,,,-1.0168398,119.8637648,https://maps.google.com/?cid=0x0:0x65d86b0882bfd50e,
perumahan,Komplek perumahan,Pewunu,"XVG8+466, Pewunu, Kec. Dolo Bar., Kabupaten Sigi, Sulawesi Tengah","Kabupaten Sigi, Sulawesi Tengah",SULAWESI TENGAH,,Indonesia,,,,-1.024722,119.8655157,https://maps.google.com/?cid=0x0:0x2b12ec9bbc207179,
perumahan,perumahan,moh.fikriansyah,"Jl. Tandalonggo No.173, Pewunu, Kec. Dolo Bar., Kabupaten Sigi, Sulawesi Tengah 94362","Pewunu, Kec. Dolo Bar., Kabupaten Sigi",SULAWESI TENGAH,94362.0,Indonesia,,,,-1.0241933,119.8581583,https://maps.google.com/?cid=0x0:0xf618e5eaf1ec376f,
perumahan,Komplek perumahan,Rendy,"WVP8+4R Nso, Mantikole, Kec. Dolo Bar., Kabupaten Sigi, Sulawesi Tengah","Kabupaten Sigi, Sulawesi Tengah",SULAWESI TENGAH,,Indonesia,,,,-1.0643208,119.8674411,https://maps.google.com/?cid=0x0:0xd866391686c52191,
perumahan,Pusat Perbelanjaan,distributor NASA sigi,"XV59+5XM, Jl. Poros Palu Bangga, Kaleke, Kec. Dolo Bar., Kabupaten Sigi, Sulawesi Tengah 94361","Jl. Poros Palu Bangga, Kaleke, Kec. Dolo Bar., Kabupaten Sigi",SULAWESI TENGAH,94361.0,Indonesia,8152310521.0,,,-1.0420331,119.8699293,https://maps.google.com/?cid=0x0:0x8aa992fd641445de,
perumahan,Komplek perumahan,Rumah Yulfien,"WVM7+HPP, Balamoa, Kec. Dolo Bar., Kabupaten Sigi, Sulawesi Tengah 94362","Balamoa, Kec. Dolo Bar., Kabupaten Sigi",SULAWESI TENGAH,94362.0,Indonesia,,,,-1.0641122,119.8695214,https://maps.google.com/?cid=0x0:0x8c4d4a969e329e2,
perumahan,Pembangunan Perumahan,Siranindi Walet,"XVVH+X2W, Kota Pulu, Kec. Dolo, Kabupaten Sigi, Sulawesi Tengah 94362","Kota Pulu, Kec. Dolo, Kabupaten Sigi",SULAWESI TENGAH,94362.0,Indonesia,,,,-1.004496,119.877388,https://maps.google.com/?cid=0x0:0x86d28154162f7eba,
perumahan,Komplek perumahan,Rumah rin,"XVC8+XRH, Pewunu, Kec. Dolo Bar., Kabupaten Sigi, Sulawesi Tengah 94362","Pewunu, Kec. Dolo Bar., Kabupaten Sigi",SULAWESI TENGAH,94362.0,Indonesia,,,,-1.0275538,119.8670991,https://maps.google.com/?cid=0x0:0xf07e8b5cdac4abd5,
perumahan,perumahan,Rumah Aska,"WVPC+XJJ, Rarampadende, Kec. Dolo Bar., Kabupaten Sigi, Sulawesi Tengah 94362","Rarampadende, Kec. Dolo Bar., Kabupaten Sigi",SULAWESI TENGAH,94362.0,Indonesia,,,,-1.0631254,119.8720139,https://maps.google.com/?cid=0x0:0x88db63d83d70804b,
perumahan,Komplek perumahan,DION,"WVP9+58X, Balamoa, Kec. Dolo Bar., Kabupaten Sigi, Sulawesi Tengah 94362","Balamoa, Kec. Dolo Bar., Kabupaten Sigi",SULAWESI TENGAH,94362.0,Indonesia,85657242207.0,,,-1.0643671,119.8686518,https://maps.google.com/?cid=0x0:0xdcf7feced7387574,
perumahan,Rumah Berhantu,Irma Home,"XVF8+8X9, Pewunu, Kec. Dolo Bar., Kabupaten Sigi, Sulawesi Tengah 94362","Pewunu, Kec. Dolo Bar., Kabupaten Sigi",SULAWESI TENGAH,94362.0,Indonesia,,,,-1.0270141,119.8680124,https://maps.google.com/?cid=0x0:0xa8f781d5868921b7,
perumahan,perumahan,Martinus M Sayo,"XW62+8J7, Jl. Sasuwuno, Waturalele, Kec. Dolo, Kabupaten Sigi, Sulawesi Tengah 94362","Jl. Sasuwuno, Waturalele, Kec. Dolo, Kabupaten Sigi",SULAWESI TENGAH,94362.0,Indonesia,,,,-1.0392122,119.9015379,https://maps.google.com/?cid=0x0:0x7d2aef3f04bfa534,
perumahan,Komplek perumahan,Tempat leren,"XW32+G4, Waturalele, Kec. Dolo, Kabupaten Sigi, Sulawesi Tengah","Kabupaten Sigi, Sulawesi Tengah",SULAWESI TENGAH,,Indonesia,,,,-1.0461453,119.9003254,https://maps.google.com/?cid=0x0:0x95a5201fb47297f2,
perumahan,Komplek perumahan,Popo,"XVJJ+C24, Tulo, Kec. Dolo, Kabupaten Sigi, Sulawesi Tengah 94362","Tulo, Kec. Dolo, Kabupaten Sigi",SULAWESI TENGAH,94362.0,Indonesia,,,,-1.017897,119.880697,https://maps.google.com/?cid=0x0:0xc6e984ede8d9e671,
perumahan,Pembangunan Perumahan,Enso,"WVP8+4R Nso, Mantikole, Kec. Dolo Bar., Kabupaten Sigi, Sulawesi Tengah","Kabupaten Sigi, Sulawesi Tengah",SULAWESI TENGAH,,Indonesia,,,,-1.0649517,119.8671803,https://maps.google.com/?cid=0x0:0xe0decc82581a242a,
perumahan,Komplek perumahan,rumah nayla,"XVJJ+HV7, Tulo, Kec. Dolo, Kabupaten Sigi, Sulawesi Tengah 94362","Tulo, Kec. Dolo, Kabupaten Sigi",SULAWESI TENGAH,94362.0,Indonesia,,,,-1.0185919,119.8821697,https://maps.google.com/?cid=0x0:0x2e063880aec6268c,
perumahan,Pembangunan Perumahan,Rumah Annisa Ihsan,"XVGJ+MVM, Tulo, Kec. Dolo, Kabupaten Sigi, Sulawesi Tengah 94362","Tulo, Kec. Dolo, Kabupaten Sigi",SULAWESI TENGAH,94362.0,Indonesia,,,,-1.0232854,119.8821731,https://maps.google.com/?cid=0x0:0x76f42002f84c8737,
perumahan,perumahan,Sulawesi Tengah 94361,"Kabupaten Sigi, Sulawesi Tengah","Kabupaten Sigi, Sulawesi Tengah",SULAWESI TENGAH,,Indonesia,,,,-1.23459,119.9046594,https://maps.google.com/?cid=0x0:0x4f531feacb3953e3,
perumahan,Komplek perumahan,Rumah Mertua Kim Taehyung,"RV6Q+RXF Jembatan Pewana, Jl. Poros Palu Bangga, Rogo, Kec. Dolo Sel., Kabupaten Sigi, Sulawesi Tengah 94361","Jl. Poros Palu Bangga, Rogo, Kec. Dolo Sel., Kabupaten Sigi",SULAWESI TENGAH,94361.0,Indonesia,,,,-1.1879388,119.8899212,https://maps.google.com/?cid=0x0:0xd4be5d206296e58f,
perumahan,Pembangunan Perumahan,Pwn,"RV5Q+VPQ, Rogo, Kec. Dolo Sel., Kabupaten Sigi, Sulawesi Tengah","Kabupaten Sigi, Sulawesi Tengah",SULAWESI TENGAH,,Indonesia,,,,-1.1902986,119.8893401,https://maps.google.com/?cid=0x0:0x5eed22cd9ead8ab6,
perumahan,Komplek perumahan,Rumah jafar,"QWW5+53, Bulubete, Kec. Dolo Sel., Kabupaten Sigi, Sulawesi Tengah","Kabupaten Sigi, Sulawesi Tengah",SULAWESI TENGAH,,Indonesia,,,,-1.2046586,119.9066791,https://maps.google.com/?cid=0x0:0x2c51056154da2d29,
perumahan,Komplek perumahan,Bulubete,"QWR4+PPG, Bulubete, Kec. Dolo Sel., Kabupaten Sigi, Sulawesi Tengah","Kabupaten Sigi, Sulawesi Tengah",SULAWESI TENGAH,,Indonesia,,,,-1.2081769,119.9068228,https://maps.google.com/?cid=0x0:0x796a008ceb20be2e,
perumahan,Komplek perumahan,Rumah Adi Aoo,"Bangga, Kec. Dolo Sel., Kabupaten Sigi, Sulawesi Tengah","Kabupaten Sigi, Sulawesi Tengah",SULAWESI TENGAH,,Indonesia,,,,-1.2493038,119.9275132,https://maps.google.com/?cid=0x0:0xb7bf3fb81e85da66,
perumahan,Komplek perumahan,Sou kodi Raflin,"RV6Q+94C, Rogo, Kec. Dolo Sel., Kabupaten Sigi, Sulawesi Tengah 94361","Rogo, Kec. Dolo Sel., Kabupaten Sigi",SULAWESI TENGAH,94361.0,Indonesia,,,,-1.1890543,119.8877807,https://maps.google.com/?cid=0x0:0x6fc30fd1d1b0b08f,
perumahan,Komplek perumahan,LOPER (Lorong Perkuburan),"QWV3+XRQ, Jl. Poros Palu Bangga, Baluase, Kec. Dolo Sel., Kabupaten Sigi, Sulawesi Tengah 94361","Jl. Poros Palu Bangga, Baluase, Kec. Dolo Sel., Kabupaten Sigi",SULAWESI TENGAH,94361.0,Indonesia,,,,-1.2059809,119.9048065,https://maps.google.com/?cid=0x0:0x4040ffe0542be622,
perumahan,Komplek perumahan,rumah mas agus,"PWWJ+7RV, Bangga, Kec. Dolo Sel., Kabupaten Sigi, Sulawesi Tengah","Kabupaten Sigi, Sulawesi Tengah",SULAWESI TENGAH,,Indonesia,,,,-1.2542577,119.9320341,https://maps.google.com/?cid=0x0:0x4922186079f1208,
perumahan,Gedung Apartemen,Rumahh,"QWP6+G2, Bulubete, Kec. Dolo Sel., Kabupaten Sigi, Sulawesi Tengah","Kabupaten Sigi, Sulawesi Tengah",SULAWESI TENGAH,,Indonesia,,,,-1.2143766,119.9102929,https://maps.google.com/?cid=0x0:0x48c830119a4fb119,
perumahan,Komplek perumahan,Banua Muminah Labaso,"RVRP+738, Pulu, Kec. Dolo Sel., Kabupaten Sigi, Sulawesi Tengah 94361","Pulu, Kec. Dolo Sel., Kabupaten Sigi",SULAWESI TENGAH,94361.0,Indonesia,,,,-1.1593419,119.8851963,https://maps.google.com/?cid=0x0:0x49f1b01286dfec7b,
perumahan,Gedung Apartemen,Bumi tanggu,"PWWJ+M65, Bangga, Kec. Dolo Sel., Kabupaten Sigi, Sulawesi Tengah","Kabupaten Sigi, Sulawesi Tengah",SULAWESI TENGAH,,Indonesia,,,,-1.2533731,119.9305981,https://maps.google.com/?cid=0x0:0xa226fc497243803b,
perumahan,Perhimpunan Pengembang Perumahan,SM house,"QWW3+VWP, Bulubete, Kec. Dolo Sel., Kabupaten Sigi, Sulawesi Tengah 94361","Bulubete, Kec. Dolo Sel., Kabupaten Sigi",SULAWESI TENGAH,94361.0,Indonesia,,,,-1.202493,119.904427,https://maps.google.com/?cid=0x0:0x59a2cbc33747e30b,
perumahan,Komplek perumahan,Warna Home,"QWH6+HRX, Walatana, Kec. Dolo Sel., Kabupaten Sigi, Sulawesi Tengah 94361","Walatana, Kec. Dolo Sel., Kabupaten Sigi",SULAWESI TENGAH,94361.0,Indonesia,,,,-1.2210025,119.9121234,https://maps.google.com/?cid=0x0:0x333ae3b7c24f828f,
perumahan,Komplek perumahan,Rumah Randi,"Lapangan sepak bola, Balongga, Kec. Dolo Sel., Kabupaten Sigi, Sulawesi Tengah 94362","Balongga, Kec. Dolo Sel., Kabupaten Sigi",SULAWESI TENGAH,94362.0,Indonesia,,,,-1.1323469,119.8800847,https://maps.google.com/?cid=0x0:0x85bf4b21a58b4aac,
perumahan,perumahan,Rumah Nani Dan Nanaa,"RV9M+RW2, Rogo, Kec. Dolo Sel., Kabupaten Sigi, Sulawesi Tengah 94361","Rogo, Kec. Dolo Sel., Kabupaten Sigi",SULAWESI TENGAH,94361.0,Indonesia,,,,-1.1809262,119.8838729,https://maps.google.com/?cid=0x0:0xf50506260041dbec,
perumahan,Gedung Apartemen,Tempat nongkrong kabilasa Bangga,"QW2H+GR5, Jl. Poros Palu Bangga, Bangga, Kec. Dolo Sel., Kabupaten Sigi, Sulawesi Tengah 94361","Jl. Poros Palu Bangga, Bangga, Kec. Dolo Sel., Kabupaten Sigi",SULAWESI TENGAH,94361.0,Indonesia,,,,-1.2491315,119.9297914,https://maps.google.com/?cid=0x0:0x39a870b1b04d75a7,
perumahan,Komplek perumahan,Rumah fajriani,"RV9M+4MG, Rogo, Kec. Dolo Sel., Kabupaten Sigi, Sulawesi Tengah 94361","Rogo, Kec. Dolo Sel., Kabupaten Sigi",SULAWESI TENGAH,94361.0,Indonesia,,,,-1.1821249,119.8841979,https://maps.google.com/?cid=0x0:0x34fee3c4c6d0494e,
perumahan,Komplek perumahan,Rumah dira,"RV7Q+3CV, Rogo, Kec. Dolo Sel., Kabupaten Sigi, Sulawesi Tengah","Kabupaten Sigi, Sulawesi Tengah",SULAWESI TENGAH,,Indonesia,,,,-1.1872642,119.8885498,https://maps.google.com/?cid=0x0:0x428583ebf2e9884a,
perumahan,Komplek perumahan,Kompleks Sintuvu,"QW89+5M6, Bangga, Kec. Dolo Sel., Kabupaten Sigi, Sulawesi Tengah","Kabupaten Sigi, Sulawesi Tengah",SULAWESI TENGAH,,Indonesia,,,,-1.2345963,119.9191527,https://maps.google.com/?cid=0x0:0xdfd5b81eab8e5602,
perumahan,Komplek perumahan,Rumah lylis,"RWMH+PXF, Lambara, Kec. Tanambulava, Kabupaten Sigi, Sulawesi Tengah 94361","Lambara, Kec. Tanambulava, Kabupaten Sigi",SULAWESI TENGAH,94361.0,Indonesia,,,,-1.1657652,119.9294554,https://maps.google.com/?cid=0x0:0x9048d53dbbef68fd,
perumahan,Komplek perumahan,Home Erni,"MWXX+3GX, Jl. Poros Palu - Kulawi, Omu, Kec. Gumbasa, Kabupaten Sigi, Sulawesi Tengah 94361","Jl. Poros Palu - Kulawi, Omu, Kec. Gumbasa, Kabupaten Sigi",SULAWESI TENGAH,94361.0,Indonesia,,,,-1.3022532,119.9488522,https://maps.google.com/?cid=0x0:0x61163c2f5d7a5769,
perumahan,Komplek perumahan,Sibowi kampung tengah,"VWCF+M5P, Unnamed Road, Sibowi, Kec. Tanambulava, Kabupaten Sigi, Sulawesi Tengah 94361","Unnamed Road, Sibowi, Kec. Tanambulava, Kabupaten Sigi",SULAWESI TENGAH,94361.0,Indonesia,,,,-1.1282771,119.9229501,https://maps.google.com/?cid=0x0:0x46416605759f655f,
perumahan,perumahan,Kec. Gumbasa,"Kabupaten Sigi, Sulawesi Tengah","Kabupaten Sigi, Sulawesi Tengah",SULAWESI TENGAH,,Indonesia,,,,-1.2047086,119.9426429,https://maps.google.com/?cid=0x0:0x12ba9694169370c2,
perumahan,Komplek perumahan,Rmh Gua,"PW9W+R2, Omu, Kec. Gumbasa, Kabupaten Sigi, Sulawesi Tengah 94361","Omu, Kec. Gumbasa, Kabupaten Sigi",SULAWESI TENGAH,94361.0,Indonesia,,,,-1.2803828,119.9450678,https://maps.google.com/?cid=0x0:0x115c5226b5d70e24,
perumahan,Komplek perumahan,Rumah Saharudin,"QWXV+J7P, Pandere, Kec. Gumbasa, Kabupaten Sigi, Sulawesi Tengah","Kabupaten Sigi, Sulawesi Tengah",SULAWESI TENGAH,,Indonesia,,,,-1.20091,119.9432169,https://maps.google.com/?cid=0x0:0xe96602ce3e69220a,
perumahan,Komplek perumahan,"Perumahan Satelit Desa Tuwa, Rumah 02","MXC6+JXQ, Tuwa, Kec. Gumbasa, Kabupaten Sigi, Sulawesi Tengah","Kabupaten Sigi, Sulawesi Tengah",SULAWESI TENGAH,,Indonesia,,,,-1.328425,119.9624909,https://maps.google.com/?cid=0x0:0x8ca60bbc5408288,
perumahan,Komplek perumahan,Rumah BPD dan KARANG TARUNA,"P2F5+WFQ, Omu, Kec. Gumbasa, Kabupaten Sigi, Sulawesi Tengah","Kabupaten Sigi, Sulawesi Tengah",SULAWESI TENGAH,,Indonesia,,,,-1.2751588,120.0087372,https://maps.google.com/?cid=0x0:0xf856f63987daac00,
perumahan,Area Mendaki,Desa Tuva,"MWWX+VX8, Omu, Kec. Gumbasa, Kabupaten Sigi, Sulawesi Tengah","Kabupaten Sigi, Sulawesi Tengah",SULAWESI TENGAH,,Indonesia,,,,-1.3028425,119.9499552,https://maps.google.com/?cid=0x0:0x3bce7251536609a5,
perumahan,perumahan,Omu,"P2F5+WFQ, Omu, Kec. Gumbasa, Kabupaten Sigi, Sulawesi Tengah","Kabupaten Sigi, Sulawesi Tengah",SULAWESI TENGAH,,Indonesia,,,,-1.2751588,120.0087372,https://maps.google.com/?cid=0x0:0x5d643d8ccb33e9e8,
perumahan,Komplek perumahan,Rumah Suratman,"MX86+V92, Tuwa, Kec. Gumbasa, Kabupaten Sigi, Sulawesi Tengah","Kabupaten Sigi, Sulawesi Tengah",SULAWESI TENGAH,,Indonesia,,,,-1.3328682,119.9608752,https://maps.google.com/?cid=0x0:0x389f389f833e87bd,
perumahan,Perhimpunan Pengembang Perumahan,184. PETA,"RX56+5XQ, Pandere, Kec. Gumbasa, Kabupaten Sigi, Sulawesi Tengah","Kabupaten Sigi, Sulawesi Tengah",SULAWESI TENGAH,,Indonesia,,,,-1.1920412,119.9624902,https://maps.google.com/?cid=0x0:0xc1fbd9df85624cf4,
perumahan,Komplek perumahan,Rumah saya,"RWJP+7VR, Kalawara, Kec. Gumbasa, Kabupaten Sigi, Sulawesi Tengah","Kabupaten Sigi, Sulawesi Tengah",SULAWESI TENGAH,,Indonesia,,,,-1.1692734,119.9371319,https://maps.google.com/?cid=0x0:0x551be68653d43725,
perumahan,Komplek perumahan,Euis House,"MWXX+94R, Omu, Kec. Gumbasa, Kabupaten Sigi, Sulawesi Tengah","Kabupaten Sigi, Sulawesi Tengah",SULAWESI TENGAH,,Indonesia,,,,-1.3015091,119.9477796,https://maps.google.com/?cid=0x0:0xb114a14aef3ccf8a,
perumahan,Komplek perumahan,House,"RWJF+V4M, Lambara, Kec. Tanambulava, Kabupaten Sigi, Sulawesi Tengah","Kabupaten Sigi, Sulawesi Tengah",SULAWESI TENGAH,,Indonesia,,,,-1.1675485,119.9223469,https://maps.google.com/?cid=0x0:0x3542108aa13d1584,
perumahan,Komplek perumahan,Lorong kampung baru,"RXH9+H86, Kalawara, Kec. Gumbasa, Kabupaten Sigi, Sulawesi Tengah","Kabupaten Sigi, Sulawesi Tengah",SULAWESI TENGAH,,Indonesia,,,,-1.1710753,119.9682719,https://maps.google.com/?cid=0x0:0x2fb81a65f133c286,
perumahan,Komplek perumahan,Rumah yhoyo,"MX47+5GQ, Salua, Kec. Gumbasa, Kabupaten Sigi, Sulawesi Tengah","Kabupaten Sigi, Sulawesi Tengah",SULAWESI TENGAH,,Indonesia,,,,-1.3445483,119.9638594,https://maps.google.com/?cid=0x0:0x795a7abe059affa1,
perumahan,Komplek perumahan,Rumah magfirah,"QWWV+529, Jl. Poros Palu - Kulawi, Pandere, Kec. Gumbasa, Kabupaten Sigi, Sulawesi Tengah","Kabupaten Sigi, Sulawesi Tengah",SULAWESI TENGAH,,Indonesia,,,,-1.204577,119.9426063,https://maps.google.com/?cid=0x0:0xf63e3a0161fb9de8,
perumahan,Komplek perumahan,Rumah Silas.Kapang,"MXQ3+HH, Tuwa, Kec. Gumbasa, Kabupaten Sigi, Sulawesi Tengah","Kabupaten Sigi, Sulawesi Tengah",SULAWESI TENGAH,,Indonesia,,,,-1.31101,119.9538905,https://maps.google.com/?cid=0x0:0xc8f369c2fcdae37b,
perumahan,perumahan,Fadila,"MXFP+M6X, Tuwa, Kec. Gumbasa, Kabupaten Sigi, Sulawesi Tengah","Kabupaten Sigi, Sulawesi Tengah",SULAWESI TENGAH,,Indonesia,,,,-1.325763,119.9856157,https://maps.google.com/?cid=0x0:0xc26ee31fc9bca070,
perumahan,Komplek perumahan,Rumah Farhan,"QWWV+69H, Pandere, Kec. Gumbasa, Kabupaten Sigi, Sulawesi Tengah 94361","Pandere, Kec. Gumbasa, Kabupaten Sigi",SULAWESI TENGAH,94361.0,Indonesia,,,,-1.2044373,119.9434901,https://maps.google.com/?cid=0x0:0xd5bd1de6f9f2bf16,
perumahan,Perhimpunan Pengembang Perumahan,141. MATIUS,"RX56+5XQ, Pandere, Kec. Gumbasa, Kabupaten Sigi, Sulawesi Tengah","Kabupaten Sigi, Sulawesi Tengah",SULAWESI TENGAH,,Indonesia,,,,-1.1920412,119.9624902,https://maps.google.com/?cid=0x0:0xc1236b8065226609,
perumahan,Komplek perumahan,Rumah Bambang L,"QWWV+48G, Pandere, Kec. Gumbasa, Kabupaten Sigi, Sulawesi Tengah 94361","Pandere, Kec. Gumbasa, Kabupaten Sigi",SULAWESI TENGAH,94361.0,Indonesia,,,,-1.2046811,119.9433228,https://maps.google.com/?cid=0x0:0x77e3dc79b53a7002,
perumahan,Kantor Pemerintahan Daerah,Desa Omu,"PW9W+96, Omu, Kec. Gumbasa, Kabupaten Sigi, Sulawesi Tengah 94361","Omu, Kec. Gumbasa, Kabupaten Sigi",SULAWESI TENGAH,94361.0,Indonesia,,,,-1.2812108,119.9457502,https://maps.google.com/?cid=0x0:0x39e7c0dd35adf459,
perumahan,Komplek perumahan,Rumah Pak Agus,"RXH9+H86, Jl. Kamp. Baru, Kalawara, Kec. Gumbasa, Kabupaten Sigi, Sulawesi Tengah","Kabupaten Sigi, Sulawesi Tengah",SULAWESI TENGAH,,Indonesia,,,,-1.1710753,119.9682719,https://maps.google.com/?cid=0x0:0x56aaa39c28b718e4,
perumahan,perumahan,Kec. Kinovaro,"Kabupaten Sigi, Sulawesi Tengah","Kabupaten Sigi, Sulawesi Tengah",SULAWESI TENGAH,,Indonesia,,,,-0.9532106,119.8381831,https://maps.google.com/?cid=0x0:0x98e9a1405ab12b25,
perumahan,Komplek perumahan,FitriHome,"BTN Baliase Indah Blok AI No. 27, Balane, Kec. Kinovaro, Kabupaten Sigi, Sulawesi Tengah","Kabupaten Sigi, Sulawesi Tengah",SULAWESI TENGAH,,Indonesia,,,,-0.9408468,119.8488078,https://maps.google.com/?cid=0x0:0xa8768660d73d98df,
perumahan,Komplek perumahan,Rumah Rafin,"Jl. Uwe Lera, Porame, Kec. Kinovaro, Kabupaten Sigi, Sulawesi Tengah","Kabupaten Sigi, Sulawesi Tengah",SULAWESI TENGAH,,Indonesia,,,,-0.9527414,119.8376056,https://maps.google.com/?cid=0x0:0x7101801adde5ff43,
perumahan,perumahan,Rumah FIANAN,"JLN PERUNGGU 2 BTN No.1 BLOK R3, Baliase, Kec. Marawola, Kabupaten Sigi, Sulawesi Tengah 94235","Baliase, Kec. Marawola, Kabupaten Sigi",SULAWESI TENGAH,94235.0,Indonesia,,,,-0.9409954,119.8554841,https://maps.google.com/?cid=0x0:0xf8e0c0dda4adf657,
perumahan,Rumah Kayu,"Desa Doda Kec,Kinovaro Kab,Sigi","3RCF+G7V, Unnamed Road, Doda, Kec. Kinovaro, Kabupaten Sigi, Sulawesi Tengah 94223","Unnamed Road, Doda, Kec. Kinovaro, Kabupaten Sigi",SULAWESI TENGAH,94223.0,Indonesia,,,,-0.9286339,119.8231814,https://maps.google.com/?cid=0x0:0x85521e9c6e2c7399,
perumahan,Toko Pakaian Wanita,Ruma mama niken,"3R4V+JHR, Balane, Kec. Kinovaro, Kabupaten Sigi, Sulawesi Tengah","Kabupaten Sigi, Sulawesi Tengah",SULAWESI TENGAH,,Indonesia,,,,-0.9433971,119.8438861,https://maps.google.com/?cid=0x0:0xfd0f79d18057745a,
perumahan,Restoran,Rice Box Suka Makan,"3R6W+FFR, Balane, Kec. Kinovaro, Kabupaten Sigi, Sulawesi Tengah","Kabupaten Sigi, Sulawesi Tengah",SULAWESI TENGAH,,Indonesia,,,,-0.9385379,119.8463554,https://maps.google.com/?cid=0x0:0xcb09d9f3ff05598,
perumahan,Komplek perumahan,Rumah saya,"Rumah saya, Porame, Kec. Kinovaro, Kabupaten Sigi, Sulawesi Tengah","Kabupaten Sigi, Sulawesi Tengah",SULAWESI TENGAH,,Indonesia,,,,-0.9561175,119.835558,https://maps.google.com/?cid=0x0:0x5d677c2203fe909e,
perumahan,perumahan,Rumah BTN Liysa,"3R6X+WCC, Baliase, Kec. Marawola, Kabupaten Sigi, Sulawesi Tengah 94222","Baliase, Kec. Marawola, Kabupaten Sigi",SULAWESI TENGAH,94222.0,Indonesia,,,,-0.9376839,119.8485285,https://maps.google.com/?cid=0x0:0xc215cb83ac6b1628,
perumahan,Komplek perumahan,Perumahan Orvil Lands Property Blok B No.2,"3V45+VFX, Baliase, Kec. Marawola, Kabupaten Sigi, Sulawesi Tengah 94222","Baliase, Kec. Marawola, Kabupaten Sigi",SULAWESI TENGAH,94222.0,Indonesia,,,,-0.9427723,119.8587376,https://maps.google.com/?cid=0x0:0xfbb39ab704d77c8d,
perumahan,Komplek perumahan,Rumah ubay,"3R3M+GW, Balane, Kec. Kinovaro, Kabupaten Sigi, Sulawesi Tengah","Kabupaten Sigi, Sulawesi Tengah",SULAWESI TENGAH,,Indonesia,,,,-0.9461896,119.8347026,https://maps.google.com/?cid=0x0:0x998715335042f976,
perumahan,Komplek perumahan,PERUMAHAN ORVIL LANDS BOYA BALIASE,"Jl. Vunja Sinongi No.8, Boyabaliase, Kec. Marawola, Kabupaten Sigi, Sulawesi Tengah 94222","Boyabaliase, Kec. Marawola, Kabupaten Sigi",SULAWESI TENGAH,94222.0,Indonesia,85288498397.0,,,-0.948184,119.8467998,https://maps.google.com/?cid=0x0:0x5dbeee685e28bc4e,
perumahan,perumahan,Rumah rizalldy,"3R3M+G7J, Balane, Kec. Kinovaro, Kabupaten Sigi, Sulawesi Tengah","Kabupaten Sigi, Sulawesi Tengah",SULAWESI TENGAH,,Indonesia,,,,-0.946337,119.833228,https://maps.google.com/?cid=0x0:0x7f1f4ca503e94f71,
perumahan,Perumahan,Kahar,"2RVR+W5W, Porame, Kec. Kinovaro, Kabupaten Sigi, Sulawesi Tengah","Kabupaten Sigi, Sulawesi Tengah",SULAWESI TENGAH,,Indonesia,,,,-0.9551322,119.8404665,https://maps.google.com/?cid=0x0:0xb8109f21ba4c0f0a,
perumahan,Kantor Perusahaan,Desa porame,"2RRQ+V6Q, Porame, Kec. Kinovaro, Kabupaten Sigi, Sulawesi Tengah","Kabupaten Sigi, Sulawesi Tengah",SULAWESI TENGAH,,Indonesia,,,,-0.9577901,119.8381239,https://maps.google.com/?cid=0x0:0x14e39a7de8a257b8,
perumahan,Komplek perumahan,Rumah nenek,"2RVP+RV9, Porame, Kec. Kinovaro, Kabupaten Sigi, Sulawesi Tengah","Kabupaten Sigi, Sulawesi Tengah",SULAWESI TENGAH,,Indonesia,,,,-0.9557236,119.8373212,https://maps.google.com/?cid=0x0:0x645eaffde84cbca8,
perumahan,Komplek perumahan,RUMAH PUTRI,"2RRQ+V6Q, Porame, Kec. Kinovaro, Kabupaten Sigi, Sulawesi Tengah","Kabupaten Sigi, Sulawesi Tengah",SULAWESI TENGAH,,Indonesia,,,,-0.9577901,119.8381239,https://maps.google.com/?cid=0x0:0x8898aa190b23368a,
perumahan,Komplek perumahan,Glamour AK 8,"3R6W+FFR, Balane, Kec. Kinovaro, Kabupaten Sigi, Sulawesi Tengah","Kabupaten Sigi, Sulawesi Tengah",SULAWESI TENGAH,,Indonesia,,,,-0.9387717,119.84614,https://maps.google.com/?cid=0x0:0x14258bab235a6d63,
perumahan,Komplek perumahan,Rumah RA,"3V52+R5, Baliase, Kec. Marawola, Kabupaten Sigi, Sulawesi Tengah 94222","Baliase, Kec. Marawola, Kabupaten Sigi",SULAWESI TENGAH,94222.0,Indonesia,81347484890.0,,,-0.94038,119.8504917,https://maps.google.com/?cid=0x0:0x4c81d8b95fb5aa08,
perumahan,Komplek perumahan,Green Boya Baliase,"3R5V+XJ, Balane, Kec. Kinovaro, Kabupaten Sigi, Sulawesi Tengah","Kabupaten Sigi, Sulawesi Tengah",SULAWESI TENGAH,,Indonesia,,,,-0.9400479,119.844124,https://maps.google.com/?cid=0x0:0xf243d7d13f462755,
perumahan,perumahan,Sulawesi Tengah 94362,Sulawesi Tengah,Sulawesi Tengah,SULAWESI TENGAH,,Indonesia,,,,-1.1527932,119.742604,https://maps.google.com/?cid=0x0:0xfe92898e8bcefdb7,
perumahan,Pembangunan Perumahan,"Konci, Desa Namo, Kecamatan Kulawi","HXQJ+W6C, Namo, Kec. Kulawi, Kabupaten Sigi, Sulawesi Tengah 94363","Namo, Kec. Kulawi, Kabupaten Sigi",SULAWESI TENGAH,94363.0,Indonesia,,,,-1.4101952,119.9805267,https://maps.google.com/?cid=0x0:0x5a06cd65830f3ee8,
perumahan,Komplek perumahan,Lorong TAVA,"GXXM+6HG, Boladangko, Kec. Kulawi, Kabupaten Sigi, Sulawesi Tengah 94363","Boladangko, Kec. Kulawi, Kabupaten Sigi",SULAWESI TENGAH,94363.0,Indonesia,,,,-1.4519382,119.983953,https://maps.google.com/?cid=0x0:0x2404d23b0f30f9fa,
perumahan,perumahan,Sulawesi Tengah 94363,"Kabupaten Sigi, Sulawesi Tengah","Kabupaten Sigi, Sulawesi Tengah",SULAWESI TENGAH,,Indonesia,,,,-1.5208341,119.8815203,https://maps.google.com/?cid=0x0:0xdeb8c8aa1833cdca,
perumahan,perumahan,Desa Puroo,"J2PP+JFC, Puro'o, Kec. Lindu, Kabupaten Sigi, Sulawesi Tengah 94363","Puro'o, Kec. Lindu, Kabupaten Sigi",SULAWESI TENGAH,94363.0,Indonesia,,,,-1.3634407,120.0361343,https://maps.google.com/?cid=0x0:0x6114494d8fb631c1,
perumahan,Komplek perumahan,Starlink Tua Janggut Winatu,"CXVH+32Q, Winatu, Kec. Kulawi, Kabupaten Sigi, Sulawesi Tengah","Kabupaten Sigi, Sulawesi Tengah",SULAWESI TENGAH,,Indonesia,,,,-1.5572855,119.9775974,https://maps.google.com/?cid=0x0:0xdbf8533ae3a129c2,
perumahan,Komplek perumahan,Kel.Ezar Lampi/Tandu,"F2RG+234, Toro, Kec. Kulawi, Kabupaten Sigi, Sulawesi Tengah","Kabupaten Sigi, Sulawesi Tengah",SULAWESI TENGAH,,Indonesia,,,,-1.5099903,120.0251925,https://maps.google.com/?cid=0x0:0x1b65c14b6da0538,
perumahan,Komplek perumahan,Desa winatu,"CXVH+32Q, Winatu, Kec. Kulawi, Kabupaten Sigi, Sulawesi Tengah 94363","Winatu, Kec. Kulawi, Kabupaten Sigi",SULAWESI TENGAH,94363.0,Indonesia,,,,-1.5572855,119.9775974,https://maps.google.com/?cid=0x0:0x2bd5f40330f12be4,
perumahan,Kantor Pemerintah,Desa Lonca,"GX39+JGP, Lonca, Kec. Kulawi, Kabupaten Sigi, Sulawesi Tengah 94363","Lonca, Kec. Kulawi, Kabupaten Sigi",SULAWESI TENGAH,94363.0,Indonesia,,,,-1.4959089,119.9688309,https://maps.google.com/?cid=0x0:0x3d101e1a8a1033ca,
perumahan,Komplek perumahan,Rumah Tm.Jeri,"82VV+Q5C, 82VV+Q5MLempeleroKec, Kec. Kulawi Sel., Kabupaten Sigi, Sulawesi Tengah 94112","82VV+Q5MLempeleroKec, Kec. Kulawi Sel., Kabupaten Sigi",SULAWESI TENGAH,94112.0,Indonesia,,,,-1.6555675,120.0428852,https://maps.google.com/?cid=0x0:0xfb1b3d00e1e06a40,
perumahan,Komplek perumahan,Desa Wangka,"92RJ+C6, Lawua, Kec. Kulawi Sel., Kabupaten Sigi, Sulawesi Tengah 94363","Lawua, Kec. Kulawi Sel., Kabupaten Sigi",SULAWESI TENGAH,94363.0,Indonesia,,,,-1.6089727,120.0304991,https://maps.google.com/?cid=0x0:0x386d754aba3aa85,
perumahan,Komplek perumahan,Sulawesi tengah,"JV7J+JJ2, Salua, Kec. Kulawi, Kabupaten Sigi, Sulawesi Tengah","Kabupaten Sigi, Sulawesi Tengah",SULAWESI TENGAH,,Indonesia,,,,-1.3859904,119.8815203,https://maps.google.com/?cid=0x0:0xdbde7e50c2dd394,
perumahan,Komplek perumahan,Rumah eca tonta,"92VP+7MM, Lawua, Kec. Kulawi Sel., Kabupaten Sigi, Sulawesi Tengah 94363","Lawua, Kec. Kulawi Sel., Kabupaten Sigi",SULAWESI TENGAH,94363.0,Indonesia,,,,-1.6067776,120.0366831,https://maps.google.com/?cid=0x0:0x4eaba662286efc87,
perumahan,Komplek perumahan,BTN GREEN LANDO 2,"JV7J+JJ2, Salua, Kec. Kulawi, Kabupaten Sigi, Sulawesi Tengah","Kabupaten Sigi, Sulawesi Tengah",SULAWESI TENGAH,,Indonesia,,,,-1.3859904,119.8815203,https://maps.google.com/?cid=0x0:0xb867eecf24815abc,
perumahan,Kantor Pemerintahan Daerah,Desa Banggaiba,"FPJQ+VW2, Banggaiba, Kec. Kulawi, Kabupaten Sigi, Sulawesi Tengah 94363","Banggaiba, Kec. Kulawi, Kabupaten Sigi",SULAWESI TENGAH,94363.0,Indonesia,,,,-1.5178749,119.7397636,https://maps.google.com/?cid=0x0:0x4ab5f53fab7ef3f5,
perumahan,Komplek perumahan,Kristian Haral,"HX6P+M84, Bolapapu, Kec. Kulawi, Kabupaten Sigi, Sulawesi Tengah 94363","Bolapapu, Kec. Kulawi, Kabupaten Sigi",SULAWESI TENGAH,94363.0,Indonesia,,,,-1.4383672,119.9858301,https://maps.google.com/?cid=0x0:0xd7a4b521ab6198df,
perumahan,Kantor Administrasi Kota,Desa salua,"MX29+R57, Salua, Kec. Kulawi, Kabupaten Sigi, Sulawesi Tengah 94363","Salua, Kec. Kulawi, Kabupaten Sigi",SULAWESI TENGAH,94363.0,Indonesia,,,,-1.3479598,119.9677153,https://maps.google.com/?cid=0x0:0x5d0b24f059972e0d,
perumahan,perumahan,Desa Polma,"F2C6+PG8, Desa Polma, Kec. Kulawi, Kabupaten Sigi, Sulawesi Tengah 94363","Desa Polma, Kec. Kulawi, Kabupaten Sigi",SULAWESI TENGAH,94363.0,Indonesia,,,,-1.5282233,120.0113262,https://maps.google.com/?cid=0x0:0x9dc5bb7b89f555cc,
perumahan,perumahan,Rumah Farhan,"C25H+R24, O'o, Kec. Kulawi Sel., Kabupaten Sigi, Sulawesi Tengah 94363","O'o, Kec. Kulawi Sel., Kabupaten Sigi",SULAWESI TENGAH,94363.0,Indonesia,,,,-1.5904771,120.0275737,https://maps.google.com/?cid=0x0:0xbc2000a9789fa459,
perumahan,Komplek perumahan,Rumah deviana,"F2F6+2G5, Jl. Kulawi, Gimpu, Sungku, Kec. Kulawi, Kabupaten Sigi, Sulawesi Tengah 94363","Jl. Kulawi, Gimpu, Sungku, Kec. Kulawi, Kabupaten Sigi",SULAWESI TENGAH,94363.0,Indonesia,,,,-1.5276129,120.0112528,https://maps.google.com/?cid=0x0:0xf5739859a487d94b,
perumahan,Komplek perumahan,Keluarga Barata/Tandu,"F2QG+R6X, Toro, Kec. Kulawi, Kabupaten Sigi, Sulawesi Tengah","Kabupaten Sigi, Sulawesi Tengah",SULAWESI TENGAH,,Indonesia,,,,-1.5100738,120.0254494,https://maps.google.com/?cid=0x0:0x22931e95a081d5a5,
perumahan,Komplek perumahan,Benti,"MXF4+3VJ, Jl. Palu-Kulawi, Tuwa, Kec. Gumbasa, Kabupaten Sigi, Sulawesi Tengah 94364","Jl. Palu-Kulawi, Tuwa, Kec. Gumbasa, Kabupaten Sigi",SULAWESI TENGAH,94364.0,Indonesia,,,,-1.327162,119.957238,https://maps.google.com/?cid=0x0:0x1851892dd7a852e4,
perumahan,Komplek perumahan,Mesak Tandu,"F2QG+R6X, Toro, Kec. Kulawi, Kabupaten Sigi, Sulawesi Tengah","Kabupaten Sigi, Sulawesi Tengah",SULAWESI TENGAH,,Indonesia,,,,-1.5101918,120.0254209,https://maps.google.com/?cid=0x0:0x5dfa5c86d39dd623,
perumahan,perumahan,Kec. Kulawi Sel.,"Kabupaten Sigi, Sulawesi Tengah","Kabupaten Sigi, Sulawesi Tengah",SULAWESI TENGAH,,Indonesia,,,,-1.6101964,120.0395124,https://maps.google.com/?cid=0x0:0x2e68e52f1c51cd88,
perumahan,Komplek perumahan,Rumah Tm.Jeri,"82VV+Q5C, 82VV+Q5MLempeleroKec, Kec. Kulawi Sel., Kabupaten Sigi, Sulawesi Tengah 94112","82VV+Q5MLempeleroKec, Kec. Kulawi Sel., Kabupaten Sigi",SULAWESI TENGAH,94112.0,Indonesia,,,,-1.6555675,120.0428852,https://maps.google.com/?cid=0x0:0xfb1b3d00e1e06a40,
perumahan,Komplek perumahan,Desa Wangka,"92RJ+C6, Lawua, Kec. Kulawi Sel., Kabupaten Sigi, Sulawesi Tengah 94363","Lawua, Kec. Kulawi Sel., Kabupaten Sigi",SULAWESI TENGAH,94363.0,Indonesia,,,,-1.6089727,120.0304991,https://maps.google.com/?cid=0x0:0x386d754aba3aa85,
perumahan,Komplek perumahan,Starlink Tua Janggut Winatu,"CXVH+32Q, Winatu, Kec. Kulawi, Kabupaten Sigi, Sulawesi Tengah","Kabupaten Sigi, Sulawesi Tengah",SULAWESI TENGAH,,Indonesia,,,,-1.5572855,119.9775974,https://maps.google.com/?cid=0x0:0xdbf8533ae3a129c2,
perumahan,Komplek perumahan,Rumah asti,"929Q+P3M, Tomua, Kec. Kulawi Sel., Kabupaten Sigi, Sulawesi Tengah 94363","Tomua, Kec. Kulawi Sel., Kabupaten Sigi",SULAWESI TENGAH,94363.0,Indonesia,,,,-1.6306726,120.0376786,https://maps.google.com/?cid=0x0:0x5d9ad1d25cdaeb56,
perumahan,Komplek perumahan,Shanty'Home,"C26G+GR, O'o, Kec. Kulawi Sel., Kabupaten Sigi, Sulawesi Tengah 94363","O'o, Kec. Kulawi Sel., Kabupaten Sigi",SULAWESI TENGAH,94363.0,Indonesia,,,,-1.5886996,120.0270849,https://maps.google.com/?cid=0x0:0x3d0375bd477d553e,
perumahan,perumahan,Rumah Farhan,"C25H+R24, O'o, Kec. Kulawi Sel., Kabupaten Sigi, Sulawesi Tengah 94363","O'o, Kec. Kulawi Sel., Kabupaten Sigi",SULAWESI TENGAH,94363.0,Indonesia,,,,-1.5904771,120.0275737,https://maps.google.com/?cid=0x0:0xbc2000a9789fa459,
perumahan,Komplek perumahan,Ngata Moa,"632X+QMH, Moa, Kec. Kulawi Sel., Kabupaten Sigi, Sulawesi Tengah","Kabupaten Sigi, Sulawesi Tengah",SULAWESI TENGAH,,Indonesia,,,,-1.7980579,120.0992487,https://maps.google.com/?cid=0x0:0x79b820685e74ff9e,
perumahan,Komplek perumahan,Desa winatu,"CXVH+32Q, Winatu, Kec. Kulawi, Kabupaten Sigi, Sulawesi Tengah 94363","Winatu, Kec. Kulawi, Kabupaten Sigi",SULAWESI TENGAH,94363.0,Indonesia,,,,-1.5572855,119.9775974,https://maps.google.com/?cid=0x0:0x2bd5f40330f12be4,
perumahan,Komplek perumahan,Rumah Nyonya Envoy,"82VV+67, Lempelero, Kec. Kulawi Sel., Kabupaten Sigi, Sulawesi Tengah","Kabupaten Sigi, Sulawesi Tengah",SULAWESI TENGAH,,Indonesia,,,,-1.6569256,120.0431744,https://maps.google.com/?cid=0x0:0xfa25decd4871057d,
perumahan,Komplek perumahan,Lorong Jati Lempelero,"82VV+Q5M, Lempelero, Kec. Kulawi Sel., Kabupaten Sigi, Sulawesi Tengah 94112","Lempelero, Kec. Kulawi Sel., Kabupaten Sigi",SULAWESI TENGAH,94112.0,Indonesia,,,,-1.6555271,120.0429246,https://maps.google.com/?cid=0x0:0x90a8c630c2422c62,
perumahan,Komplek perumahan,M.Tamaka /Kae,"92VP+6FR, Lawua, Kec. Kulawi Sel., Kabupaten Sigi, Sulawesi Tengah 94363","Lawua, Kec. Kulawi Sel., Kabupaten Sigi",SULAWESI TENGAH,94363.0,Indonesia,,,,-1.6065976,120.036599,https://maps.google.com/?cid=0x0:0xe602483124bb2a8a,
perumahan,Kios,Kios merjen,"C23R+C66, Salutome, Kec. Kulawi Sel., Kabupaten Sigi, Sulawesi Tengah 94363","Salutome, Kec. Kulawi Sel., Kabupaten Sigi",SULAWESI TENGAH,94363.0,Indonesia,,,,-1.5964589,120.0405228,https://maps.google.com/?cid=0x0:0x745d841654735178,
perumahan,Komplek perumahan,Rumah alm Guru Enard Tawue,"C26G+GR, O'o, Kec. Kulawi Sel., Kabupaten Sigi, Sulawesi Tengah 94363","O'o, Kec. Kulawi Sel., Kabupaten Sigi",SULAWESI TENGAH,94363.0,Indonesia,,,,-1.5889997,120.027168,https://maps.google.com/?cid=0x0:0x51af65281a3d670c,
perumahan,Komplek perumahan,Rumah mertua,"92VP+5QX, Watukilo, Kec. Kulawi Sel., Kabupaten Sigi, Sulawesi Tengah","Kabupaten Sigi, Sulawesi Tengah",SULAWESI TENGAH,,Indonesia,,,,-1.6069159,120.0369781,https://maps.google.com/?cid=0x0:0x34a19c58c37f89a4,
perumahan,Komplek perumahan,RUMAH TAMA PEPA,"92JJ+V66, Tompi Bugis, Kec. Kulawi Sel., Kabupaten Sigi, Sulawesi Tengah","Kabupaten Sigi, Sulawesi Tengah",SULAWESI TENGAH,,Indonesia,,,,-1.6171104,120.0314441,https://maps.google.com/?cid=0x0:0xbfdb3255ae1d9b4e,
perumahan,Komplek perumahan,Rumah Keluarga NURDIN Muda Lebang,"F2C6+JGR, Winatu, Kec. Kulawi, Kabupaten Sigi, Sulawesi Tengah 94363","Winatu, Kec. Kulawi, Kabupaten Sigi",SULAWESI TENGAH,94363.0,Indonesia,,,,-1.5283882,120.0112668,https://maps.google.com/?cid=0x0:0x9afc8c9813840466,
perumahan,Balai Pertemuan Desa,Desa tomua,"8XXH+VWP, Tomua, Kec. Kulawi Sel., Kabupaten Sigi, Sulawesi Tengah","Kabupaten Sigi, Sulawesi Tengah",SULAWESI TENGAH,,Indonesia,,,,-1.6502992,119.9798347,https://maps.google.com/?cid=0x0:0x4a33fed0b28e2617,
perumahan,Komplek perumahan,Erwin,"92GH+267, Tompi Bugis, Kec. Kulawi Sel., Kabupaten Sigi, Sulawesi Tengah","Kabupaten Sigi, Sulawesi Tengah",SULAWESI TENGAH,,Indonesia,,,,-1.6249577,120.0280437,https://maps.google.com/?cid=0x0:0x21b16b15b60dc3fc,
perumahan,perumahan,Lawua Atas,"93VM+FGH, Lawua, Kec. Kulawi Sel., Kabupaten Sigi, Sulawesi Tengah","Kabupaten Sigi, Sulawesi Tengah",SULAWESI TENGAH,,Indonesia,,,,-1.6063163,120.0838547,https://maps.google.com/?cid=0x0:0x2ae35f1fa289fedf,
perumahan,Komplek perumahan,Rumah deviana,"F2F6+2G5, Jl. Kulawi, Gimpu, Sungku, Kec. Kulawi, Kabupaten Sigi, Sulawesi Tengah 94363","Jl. Kulawi, Gimpu, Sungku, Kec. Kulawi, Kabupaten Sigi",SULAWESI TENGAH,94363.0,Indonesia,,,,-1.5276129,120.0112528,https://maps.google.com/?cid=0x0:0xf5739859a487d94b,
perumahan,Komplek perumahan,Pospindu desa gimpu,"928R+G4P, Gimpu, Tomua, Kec. Kulawi Sel., Kabupaten Sigi, Sulawesi Tengah 94363","Gimpu, Tomua, Kec. Kulawi Sel., Kabupaten Sigi",SULAWESI TENGAH,94363.0,Indonesia,,,,-1.6336719,120.0403329,https://maps.google.com/?cid=0x0:0xe07730b0e0a62e62,
perumahan,perumahan,Sulawesi Tengah 94363,"Kabupaten Sigi, Sulawesi Tengah","Kabupaten Sigi, Sulawesi Tengah",SULAWESI TENGAH,,Indonesia,,,,-1.5208341,119.8815203,https://maps.google.com/?cid=0x0:0xdeb8c8aa1833cdca,
perumahan,perumahan,Desa Puroo,"J2PP+JFC, Puro'o, Kec. Lindu, Kabupaten Sigi, Sulawesi Tengah 94363","Puro'o, Kec. Lindu, Kabupaten Sigi",SULAWESI TENGAH,94363.0,Indonesia,,,,-1.3634407,120.0361343,https://maps.google.com/?cid=0x0:0x6114494d8fb631c1,
perumahan,Komplek perumahan,Lempe,"J2RR+2RQ, Puro'o, Kec. Lindu, Kabupaten Sigi, Sulawesi Tengah 94363","Puro'o, Kec. Lindu, Kabupaten Sigi",SULAWESI TENGAH,94363.0,Indonesia,,,,-1.3610344,120.0419328,https://maps.google.com/?cid=0x0:0xb61f998aae85fae,
perumahan,Kantor Pemerintah,Desa Lonca,"GX39+JGP, Lonca, Kec. Kulawi, Kabupaten Sigi, Sulawesi Tengah 94363","Lonca, Kec. Kulawi, Kabupaten Sigi",SULAWESI TENGAH,94363.0,Indonesia,,,,-1.4959089,119.9688309,https://maps.google.com/?cid=0x0:0x3d101e1a8a1033ca,
perumahan,Komplek perumahan,BTN GREEN LANDO 2,"JV7J+JJ2, Salua, Kec. Kulawi, Kabupaten Sigi, Sulawesi Tengah","Kabupaten Sigi, Sulawesi Tengah",SULAWESI TENGAH,,Indonesia,,,,-1.3859904,119.8815203,https://maps.google.com/?cid=0x0:0xb867eecf24815abc,
perumahan,Komplek perumahan,Rumah Maykel,"M3M4+GC, Anca, Kec. Lindu, Kabupaten Sigi, Sulawesi Tengah","Kabupaten Sigi, Sulawesi Tengah",SULAWESI TENGAH,,Indonesia,,,,-1.316199,120.056034,https://maps.google.com/?cid=0x0:0xa8951c7c8abdffe9,
perumahan,Komplek perumahan,Dusun Kalora,"M27V+7J4, Tomado, Kec. Lindu, Kabupaten Sigi, Sulawesi Tengah","Kabupaten Sigi, Sulawesi Tengah",SULAWESI TENGAH,,Indonesia,,,,-1.3368665,120.0440776,https://maps.google.com/?cid=0x0:0xc9e9a762c041b150,
perumahan,Komplek perumahan,Rumah Keluarga NURDIN Muda Lebang,"F2C6+JGR, Winatu, Kec. Kulawi, Kabupaten Sigi, Sulawesi Tengah 94363","Winatu, Kec. Kulawi, Kabupaten Sigi",SULAWESI TENGAH,94363.0,Indonesia,,,,-1.5283882,120.0112668,https://maps.google.com/?cid=0x0:0x9afc8c9813840466,
perumahan,Komplek perumahan,Rumah Allfa Rivaldo,"J2PQ+W94, Puro'o, Kec. Lindu, Kabupaten Sigi, Sulawesi Tengah 94363","Puro'o, Kec. Lindu, Kabupaten Sigi",SULAWESI TENGAH,94363.0,Indonesia,,,,-1.3625635,120.0374097,https://maps.google.com/?cid=0x0:0xa9d8ca35970f300c,
perumahan,perumahan,Desa Polma,"F2C6+PG8, Desa Polma, Kec. Kulawi, Kabupaten Sigi, Sulawesi Tengah 94363","Desa Polma, Kec. Kulawi, Kabupaten Sigi",SULAWESI TENGAH,94363.0,Indonesia,,,,-1.5282233,120.0113262,https://maps.google.com/?cid=0x0:0x9dc5bb7b89f555cc,
perumahan,Komplek perumahan,Lorong TAVA,"GXXM+6HG, Boladangko, Kec. Kulawi, Kabupaten Sigi, Sulawesi Tengah 94363","Boladangko, Kec. Kulawi, Kabupaten Sigi",SULAWESI TENGAH,94363.0,Indonesia,,,,-1.4519382,119.983953,https://maps.google.com/?cid=0x0:0x2404d23b0f30f9fa,
perumahan,Komplek perumahan,Kel.Ezar Lampi/Tandu,"F2RG+234, Toro, Kec. Kulawi, Kabupaten Sigi, Sulawesi Tengah","Kabupaten Sigi, Sulawesi Tengah",SULAWESI TENGAH,,Indonesia,,,,-1.5099903,120.0251925,https://maps.google.com/?cid=0x0:0x1b65c14b6da0538,
perumahan,Pembangunan Perumahan,"Konci, Desa Namo, Kecamatan Kulawi","HXQJ+W6C, Namo, Kec. Kulawi, Kabupaten Sigi, Sulawesi Tengah 94363","Namo, Kec. Kulawi, Kabupaten Sigi",SULAWESI TENGAH,94363.0,Indonesia,,,,-1.4101952,119.9805267,https://maps.google.com/?cid=0x0:0x5a06cd65830f3ee8,
perumahan,Komplek perumahan,Desa winatu,"CXVH+32Q, Winatu, Kec. Kulawi, Kabupaten Sigi, Sulawesi Tengah 94363","Winatu, Kec. Kulawi, Kabupaten Sigi",SULAWESI TENGAH,94363.0,Indonesia,,,,-1.5572855,119.9775974,https://maps.google.com/?cid=0x0:0x2bd5f40330f12be4,
perumahan,Komplek perumahan,Starlink Tua Janggut Winatu,"CXVH+32Q, Winatu, Kec. Kulawi, Kabupaten Sigi, Sulawesi Tengah","Kabupaten Sigi, Sulawesi Tengah",SULAWESI TENGAH,,Indonesia,,,,-1.5572855,119.9775974,https://maps.google.com/?cid=0x0:0xdbf8533ae3a129c2,
perumahan,Kantor Administrasi Kota,Desa salua,"MX29+R57, Salua, Kec. Kulawi, Kabupaten Sigi, Sulawesi Tengah 94363","Salua, Kec. Kulawi, Kabupaten Sigi",SULAWESI TENGAH,94363.0,Indonesia,,,,-1.3479598,119.9677153,https://maps.google.com/?cid=0x0:0x5d0b24f059972e0d,
perumahan,Kantor Pemerintahan Daerah,Desa Banggaiba,"FPJQ+VW2, Banggaiba, Kec. Kulawi, Kabupaten Sigi, Sulawesi Tengah 94363","Banggaiba, Kec. Kulawi, Kabupaten Sigi",SULAWESI TENGAH,94363.0,Indonesia,,,,-1.5178749,119.7397636,https://maps.google.com/?cid=0x0:0x4ab5f53fab7ef3f5,
perumahan,perumahan,"Rumah, Abil Shidqi Ansalan","RWWF+RMR, Sibalaya Sel., Kec. Tanambulava, Kabupaten Sigi, Sulawesi Tengah","Kabupaten Sigi, Sulawesi Tengah",SULAWESI TENGAH,,Indonesia,85268869107.0,,,-1.1528775,119.9241544,https://maps.google.com/?cid=0x0:0x3971333cfaf2f087,
perumahan,Komplek perumahan,Keluarga Barata/Tandu,"F2QG+R6X, Toro, Kec. Kulawi, Kabupaten Sigi, Sulawesi Tengah","Kabupaten Sigi, Sulawesi Tengah",SULAWESI TENGAH,,Indonesia,,,,-1.5100738,120.0254494,https://maps.google.com/?cid=0x0:0x22931e95a081d5a5,
perumahan,Komplek perumahan,Sulawesi tengah,"JV7J+JJ2, Salua, Kec. Kulawi, Kabupaten Sigi, Sulawesi Tengah","Kabupaten Sigi, Sulawesi Tengah",SULAWESI TENGAH,,Indonesia,,,,-1.3859904,119.8815203,https://maps.google.com/?cid=0x0:0xdbde7e50c2dd394,
perumahan,Komplek perumahan,"Perumahan Satelit Desa Tuwa, Rumah 02","MXC6+JXQ, Tuwa, Kec. Gumbasa, Kabupaten Sigi, Sulawesi Tengah","Kabupaten Sigi, Sulawesi Tengah",SULAWESI TENGAH,,Indonesia,,,,-1.328425,119.9624909,https://maps.google.com/?cid=0x0:0x8ca60bbc5408288,
perumahan,Agen Properti,Perumahan Banua Indah Permai,"3V76+6RF, Baliase, Kec. Marawola, Kabupaten Sigi, Sulawesi Tengah 94222","Baliase, Kec. Marawola, Kabupaten Sigi",SULAWESI TENGAH,94222.0,Indonesia,,,,-0.9369317,119.8620412,https://maps.google.com/?cid=0x0:0x2991207218580af6,
perumahan,perumahan,Kec. Marawola,"Kabupaten Sigi, Sulawesi Tengah","Kabupaten Sigi, Sulawesi Tengah",SULAWESI TENGAH,,Indonesia,,,,-0.9555175,119.8550313,https://maps.google.com/?cid=0x0:0x5fea2d25cfdec4a9,
perumahan,Perumahan,Perum Baliase Terpadu Permai,"3V43+VWR, Baliase, Kec. Marawola, Kabupaten Sigi, Sulawesi Tengah 94222","Baliase, Kec. Marawola, Kabupaten Sigi",SULAWESI TENGAH,94222.0,Indonesia,,,,-0.942752,119.8547789,https://maps.google.com/?cid=0x0:0x3ea2fe9fde344b4e,
perumahan,Komplek perumahan,Rumah RA,"3V52+R5, Baliase, Kec. Marawola, Kabupaten Sigi, Sulawesi Tengah 94222","Baliase, Kec. Marawola, Kabupaten Sigi",SULAWESI TENGAH,94222.0,Indonesia,81347484890.0,,,-0.94038,119.8504917,https://maps.google.com/?cid=0x0:0x4c81d8b95fb5aa08,
perumahan,Komplek perumahan,BTN Bukit Baliase Indah,"BTN Bukit Baliase Indah, Baliase, Kec. Marawola, Kabupaten Sigi, Sulawesi Tengah 94222","Baliase, Kec. Marawola, Kabupaten Sigi",SULAWESI TENGAH,94222.0,Indonesia,81349772671.0,,,-0.9405389,119.8519653,https://maps.google.com/?cid=0x0:0x7605f9386ce6ece8,
perumahan,Komplek perumahan,Perumahan Berlianland Baliase,"3V65+XH, Baliase, Kec. Marawola, Kabupaten Sigi, Sulawesi Tengah 94222","Baliase, Kec. Marawola, Kabupaten Sigi",SULAWESI TENGAH,94222.0,Indonesia,,,,-0.9386631,119.8595799,https://maps.google.com/?cid=0x0:0xb554f5f5317f0208,
perumahan,Komplek perumahan,PERUMAHAN ORVIL LANDS BOYA BALIASE,"Jl. Vunja Sinongi No.8, Boyabaliase, Kec. Marawola, Kabupaten Sigi, Sulawesi Tengah 94222","Boyabaliase, Kec. Marawola, Kabupaten Sigi",SULAWESI TENGAH,94222.0,Indonesia,85288498397.0,,,-0.948184,119.8467998,https://maps.google.com/?cid=0x0:0x5dbeee685e28bc4e,
perumahan,Komplek perumahan,Perumahan Berlianland Baliase C7,"3V65+MR5, Baliase, Kec. Marawola, Kabupaten Sigi, Sulawesi Tengah","Kabupaten Sigi, Sulawesi Tengah",SULAWESI TENGAH,,Indonesia,,,,-0.938356,119.8596131,https://maps.google.com/?cid=0x0:0xe0ba6c3c14a61ec3,
perumahan,Komplek perumahan,RUMAH SAHRI,"3V52+92G, Baliase, Kec. Marawola, Kabupaten Sigi, Sulawesi Tengah","Kabupaten Sigi, Sulawesi Tengah",SULAWESI TENGAH,,Indonesia,,,,-0.941556,119.849984,https://maps.google.com/?cid=0x0:0x68b2c2cb429beb3f,
perumahan,Pembangunan Perumahan,Rumah Putry,"3V24+PG2, Jl. Sedap Malam, Binangga, Kec. Marawola, Kabupaten Sigi, Sulawesi Tengah 94222","Jl. Sedap Malam, Binangga, Kec. Marawola, Kabupaten Sigi",SULAWESI TENGAH,94222.0,Indonesia,,,,-0.9482272,119.8562613,https://maps.google.com/?cid=0x0:0x9c8f3af0156432c8,
perumahan,Komplek perumahan,Rumah,"3V45+HF9, Unnamed Road, Baliase, Kec. Marawola, Kabupaten Sigi, Sulawesi Tengah 94222","Unnamed Road, Baliase, Kec. Marawola, Kabupaten Sigi",SULAWESI TENGAH,94222.0,Indonesia,,,,-0.9435874,119.858749,https://maps.google.com/?cid=0x0:0x1cd8a069c4a91cb3,
perumahan,Komplek perumahan,Perumahan Orvil Lands Property Blok B No.2,"3V45+VFX, Baliase, Kec. Marawola, Kabupaten Sigi, Sulawesi Tengah 94222","Baliase, Kec. Marawola, Kabupaten Sigi",SULAWESI TENGAH,94222.0,Indonesia,,,,-0.9427723,119.8587376,https://maps.google.com/?cid=0x0:0xfbb39ab704d77c8d,
perumahan,Pembangunan Perumahan,Perumahan Graha Mutiara A1/9,"Perum Graha Mutiara Blok A1 No.9, RW.8, Tinggede Sel., Kec. Marawola, Kabupaten Sigi, Sulawesi Tengah 94222","RW.8, Tinggede Sel., Kec. Marawola, Kabupaten Sigi",SULAWESI TENGAH,94222.0,Indonesia,,,,-0.9423497,119.8659324,https://maps.google.com/?cid=0x0:0xead48bc32dff7ec6,
perumahan,Komplek perumahan,Perumahan,"Green Garden, Jl TK Handayani Blk. J No.12, Baliase, Kec. Marawola, Kabupaten Sigi, Sulawesi Tengah 94222","Jl TK Handayani Blk. J No.12, Baliase, Kec. Marawola, Kabupaten Sigi",SULAWESI TENGAH,94222.0,Indonesia,,,,-0.9378146,119.8501975,https://maps.google.com/?cid=0x0:0x478ab8baab5bf499,
perumahan,Gedung Apartemen,Home sweet RA,"3V45+HF9, Baliase, Kec. Marawola, Kabupaten Sigi, Sulawesi Tengah 94222","Baliase, Kec. Marawola, Kabupaten Sigi",SULAWESI TENGAH,94222.0,Indonesia,,,,-0.9436312,119.8587491,https://maps.google.com/?cid=0x0:0xf91c23c26dc08273,
perumahan,perumahan,Rumah FIANAN,"JLN PERUNGGU 2 BTN No.1 BLOK R3, Baliase, Kec. Marawola, Kabupaten Sigi, Sulawesi Tengah 94235","Baliase, Kec. Marawola, Kabupaten Sigi",SULAWESI TENGAH,94235.0,Indonesia,,,,-0.9409954,119.8554841,https://maps.google.com/?cid=0x0:0xf8e0c0dda4adf657,
perumahan,Komplek perumahan,PERUMAHAN BTP BLOK D/3,"Baliase, Kec. Marawola, Kabupaten Sigi, Sulawesi Tengah 94222","Kec. Marawola, Kabupaten Sigi",SULAWESI TENGAH,94222.0,Indonesia,,,,-0.9430233,119.8548274,https://maps.google.com/?cid=0x0:0x59eb808320146a08,
perumahan,Pembangunan Perumahan,Rumah Didit,"Jl. Intan No.15, Baliase, Kec. Marawola, Kabupaten Sigi, Sulawesi Tengah 94362","Baliase, Kec. Marawola, Kabupaten Sigi",SULAWESI TENGAH,94362.0,Indonesia,,,,-0.9344301,119.8576113,https://maps.google.com/?cid=0x0:0xf5f24206d49b3ea0,
perumahan,Komplek perumahan,Rumah SEPRIANTO.SE,"Baliase, Kec. Marawola, Kabupaten Sigi, Sulawesi Tengah 94222","Kec. Marawola, Kabupaten Sigi",SULAWESI TENGAH,94222.0,Indonesia,,,,-0.9381765,119.8523598,https://maps.google.com/?cid=0x0:0x91574cedd543f1fb,
perumahan,Komplek perumahan,BTN Kartika 3,"3V4C+8JQ, Tinggede Sel., Kec. Marawola, Kabupaten Sigi, Sulawesi Tengah 94222","Tinggede Sel., Kec. Marawola, Kabupaten Sigi",SULAWESI TENGAH,94222.0,Indonesia,,,,-0.9441599,119.8715992,https://maps.google.com/?cid=0x0:0xcad529b2915b161e,
perumahan,Komplek perumahan,Rumah,"3V73+F3X, Baliase, Kec. Marawola, Kabupaten Sigi, Sulawesi Tengah 94222","Baliase, Kec. Marawola, Kabupaten Sigi",SULAWESI TENGAH,94222.0,Indonesia,,,,-0.9362632,119.8527396,https://maps.google.com/?cid=0x0:0x85ef7ffb24bc9ff7,
perumahan,Komplek perumahan,BTN Pondok Surya Boya Baliase,"3V33+M3X, Binangga, Kec. Marawola, Kabupaten Sigi, Sulawesi Tengah 94222","Binangga, Kec. Marawola, Kabupaten Sigi",SULAWESI TENGAH,94222.0,Indonesia,,,,-0.9457645,119.8527243,https://maps.google.com/?cid=0x0:0x5225f046052ac797,
perumahan,Perusahaan investasi properti,BLOK E Perumahan Berlian Tinggede,"3V78+736, Tinggede, Kec. Marawola, Kabupaten Sigi, Sulawesi Tengah","Kabupaten Sigi, Sulawesi Tengah",SULAWESI TENGAH,,Indonesia,,,,-0.9368465,119.8651377,https://maps.google.com/?cid=0x0:0x88c308d1a6e26b3f,
perumahan,Komplek perumahan,Alvaro_Bee,"3V48+J6W, Tinggede Sel., Kec. Marawola, Kabupaten Sigi, Sulawesi Tengah 94222","Tinggede Sel., Kec. Marawola, Kabupaten Sigi",SULAWESI TENGAH,94222.0,Indonesia,,,,-0.943249,119.86553,https://maps.google.com/?cid=0x0:0xd37aa9926ecc9989,
perumahan,Pembangunan Perumahan,Perumahan Bumi Tinggede Permai,"3V99+2WF, Tinggede, Kec. Marawola, Kabupaten Sigi, Sulawesi Tengah 94235","Tinggede, Kec. Marawola, Kabupaten Sigi",SULAWESI TENGAH,94235.0,Indonesia,81341424242.0,,,-0.9324393,119.8697967,https://maps.google.com/?cid=0x0:0xebf5b6d6482ae3c3,
perumahan,Komplek perumahan,Rumah abil,"3V53+645, Jl. Mayampae, Baliase, Kec. Marawola, Kabupaten Sigi, Sulawesi Tengah","Kabupaten Sigi, Sulawesi Tengah",SULAWESI TENGAH,,Indonesia,,,,-0.941999,119.8528532,https://maps.google.com/?cid=0x0:0x9c4f2f8d620f60b6,
perumahan,Komplek perumahan,Alfa Land,"Jl. Bunti Raja, Padende, Kec. Marawola, Kabupaten Sigi, Sulawesi Tengah 94362","Padende, Kec. Marawola, Kabupaten Sigi",SULAWESI TENGAH,94362.0,Indonesia,85241012825.0,,,-0.9584706,119.8525218,https://maps.google.com/?cid=0x0:0x83ce510c62f369d3,
perumahan,Kompleks Townhouse,BTN Tinggede View,"3V6G+85Q, Tinggede Sel., Kec. Marawola, Kabupaten Sigi, Sulawesi Tengah 94235","Tinggede Sel., Kec. Marawola, Kabupaten Sigi",SULAWESI TENGAH,94235.0,Indonesia,,,,-0.9391624,119.8754995,https://maps.google.com/?cid=0x0:0x7f5c9eeb8f4dd395,
perumahan,Komplek perumahan,Nabila Residence 2,"3V45+888, Jl. Manunggal, Baliase, Kec. Marawola, Kabupaten Sigi, Sulawesi Tengah 94222","Jl. Manunggal, Baliase, Kec. Marawola, Kabupaten Sigi",SULAWESI TENGAH,94222.0,Indonesia,,,,-0.9442115,119.8583212,https://maps.google.com/?cid=0x0:0xdee548bc9d3459e2,
perumahan,perumahan,Kec. Marawola Barat,"Kabupaten Sigi, Sulawesi Tengah","Kabupaten Sigi, Sulawesi Tengah",SULAWESI TENGAH,,Indonesia,,,,-0.9674043,119.780961,https://maps.google.com/?cid=0x0:0xb7948086e4538741,
perumahan,Komplek perumahan,Marawola,"2VM3+3P4, Padende, Kec. Marawola, Kabupaten Sigi, Sulawesi Tengah 94237","Padende, Kec. Marawola, Kabupaten Sigi",SULAWESI TENGAH,94237.0,Indonesia,,,,-0.966545,119.854516,https://maps.google.com/?cid=0x0:0xf8a82c46bdde23cf,
perumahan,perumahan,Rumah BTN Liysa,"3R6X+WCC, Baliase, Kec. Marawola, Kabupaten Sigi, Sulawesi Tengah 94222","Baliase, Kec. Marawola, Kabupaten Sigi",SULAWESI TENGAH,94222.0,Indonesia,,,,-0.9376839,119.8485285,https://maps.google.com/?cid=0x0:0xc215cb83ac6b1628,
perumahan,Komplek perumahan,Rumah pak andi,"2QVM+G72, Dombu, Kec. Marawola Barat, Kabupaten Sigi, Sulawesi Tengah","Kabupaten Sigi, Sulawesi Tengah",SULAWESI TENGAH,,Indonesia,,,,-0.9562363,119.7831356,https://maps.google.com/?cid=0x0:0x789a93af7820519f,
perumahan,perumahan,Korwil,"2RJG+GG, Uwemanje, Kec. Kinovaro, Kabupaten Sigi, Sulawesi Tengah","Kabupaten Sigi, Sulawesi Tengah",SULAWESI TENGAH,,Indonesia,,,,-0.9686883,119.8263467,https://maps.google.com/?cid=0x0:0x8772f2cee569e420,
perumahan,Komplek perumahan,Perumahan Berlianland Baliase,"3V65+XH, Baliase, Kec. Marawola, Kabupaten Sigi, Sulawesi Tengah 94222","Baliase, Kec. Marawola, Kabupaten Sigi",SULAWESI TENGAH,94222.0,Indonesia,,,,-0.9386631,119.8595799,https://maps.google.com/?cid=0x0:0xb554f5f5317f0208,
perumahan,Komplek perumahan,BTN Bukit Baliase Indah,"BTN Bukit Baliase Indah, Baliase, Kec. Marawola, Kabupaten Sigi, Sulawesi Tengah 94222","Baliase, Kec. Marawola, Kabupaten Sigi",SULAWESI TENGAH,94222.0,Indonesia,81349772671.0,,,-0.9405389,119.8519653,https://maps.google.com/?cid=0x0:0x7605f9386ce6ece8,
perumahan,Komplek perumahan,Perumahan Berlianland Baliase C7,"3V65+MR5, Baliase, Kec. Marawola, Kabupaten Sigi, Sulawesi Tengah","Kabupaten Sigi, Sulawesi Tengah",SULAWESI TENGAH,,Indonesia,,,,-0.938356,119.8596131,https://maps.google.com/?cid=0x0:0xe0ba6c3c14a61ec3,
perumahan,Pembangunan Perumahan,Rumah Putry,"3V24+PG2, Jl. Sedap Malam, Binangga, Kec. Marawola, Kabupaten Sigi, Sulawesi Tengah 94222","Jl. Sedap Malam, Binangga, Kec. Marawola, Kabupaten Sigi",SULAWESI TENGAH,94222.0,Indonesia,,,,-0.9482272,119.8562613,https://maps.google.com/?cid=0x0:0x9c8f3af0156432c8,
perumahan,Komplek perumahan,RUMAH SAHRI,"3V52+92G, Baliase, Kec. Marawola, Kabupaten Sigi, Sulawesi Tengah","Kabupaten Sigi, Sulawesi Tengah",SULAWESI TENGAH,,Indonesia,,,,-0.941556,119.849984,https://maps.google.com/?cid=0x0:0x68b2c2cb429beb3f,
perumahan,Komplek perumahan,Rumah SEPRIANTO.SE,"Baliase, Kec. Marawola, Kabupaten Sigi, Sulawesi Tengah 94222","Kec. Marawola, Kabupaten Sigi",SULAWESI TENGAH,94222.0,Indonesia,,,,-0.9381765,119.8523598,https://maps.google.com/?cid=0x0:0x91574cedd543f1fb,
perumahan,Pembangunan Perumahan,Rumah Didit,"Jl. Intan No.15, Baliase, Kec. Marawola, Kabupaten Sigi, Sulawesi Tengah 94362","Baliase, Kec. Marawola, Kabupaten Sigi",SULAWESI TENGAH,94362.0,Indonesia,,,,-0.9344301,119.8576113,https://maps.google.com/?cid=0x0:0xf5f24206d49b3ea0,
perumahan,perumahan,Rumah rizalldy,"3R3M+G7J, Balane, Kec. Kinovaro, Kabupaten Sigi, Sulawesi Tengah","Kabupaten Sigi, Sulawesi Tengah",SULAWESI TENGAH,,Indonesia,,,,-0.946337,119.833228,https://maps.google.com/?cid=0x0:0x7f1f4ca503e94f71,
perumahan,Komplek perumahan,PERUMAHAN ORVIL LANDS BOYA BALIASE,"Jl. Vunja Sinongi No.8, Boyabaliase, Kec. Marawola, Kabupaten Sigi, Sulawesi Tengah 94222","Boyabaliase, Kec. Marawola, Kabupaten Sigi",SULAWESI TENGAH,94222.0,Indonesia,85288498397.0,,,-0.948184,119.8467998,https://maps.google.com/?cid=0x0:0x5dbeee685e28bc4e,
perumahan,Perumahan,Perumahan Bukit Nirwana Indah,"3RFP+QJ9, Duyu, Kec. Tatanga, Kota Palu, Sulawesi Tengah","Kota Palu, Sulawesi Tengah",SULAWESI TENGAH,,Indonesia,,,,-0.9255813,119.8366057,https://maps.google.com/?cid=0x0:0x6aa79660a987a348,
perumahan,Komplek perumahan,Perumahan Orvil Lands Property Blok B No.2,"3V45+VFX, Baliase, Kec. Marawola, Kabupaten Sigi, Sulawesi Tengah 94222","Baliase, Kec. Marawola, Kabupaten Sigi",SULAWESI TENGAH,94222.0,Indonesia,,,,-0.9427723,119.8587376,https://maps.google.com/?cid=0x0:0xfbb39ab704d77c8d,
perumahan,Komplek perumahan,Perumahan,"Green Garden, Jl TK Handayani Blk. J No.12, Baliase, Kec. Marawola, Kabupaten Sigi, Sulawesi Tengah 94222","Jl TK Handayani Blk. J No.12, Baliase, Kec. Marawola, Kabupaten Sigi",SULAWESI TENGAH,94222.0,Indonesia,,,,-0.9378146,119.8501975,https://maps.google.com/?cid=0x0:0x478ab8baab5bf499,
perumahan,Komplek perumahan,Alfa Land,"Jl. Bunti Raja, Padende, Kec. Marawola, Kabupaten Sigi, Sulawesi Tengah 94362","Padende, Kec. Marawola, Kabupaten Sigi",SULAWESI TENGAH,94362.0,Indonesia,85241012825.0,,,-0.9584706,119.8525218,https://maps.google.com/?cid=0x0:0x83ce510c62f369d3,
perumahan,Komplek perumahan,Rumah dien,"3QGC+QJF, Lewara, Kec. Marawola Barat, Kabupaten Sigi, Sulawesi Tengah","Kabupaten Sigi, Sulawesi Tengah",SULAWESI TENGAH,,Indonesia,,,,-0.9230722,119.7715563,https://maps.google.com/?cid=0x0:0x37280a6080fae2e0,
perumahan,Komplek perumahan,Rumah Buy,"3R6X+26H, Btn selebes, Baliase, Kec. Marawola, Kabupaten Sigi, Sulawesi Tengah","Kabupaten Sigi, Sulawesi Tengah",SULAWESI TENGAH,,Indonesia,,,,-0.9399407,119.8481067,https://maps.google.com/?cid=0x0:0x42f3794619bfcd44,
perumahan,Komplek perumahan,Rumah,"3V73+F3X, Baliase, Kec. Marawola, Kabupaten Sigi, Sulawesi Tengah 94222","Baliase, Kec. Marawola, Kabupaten Sigi",SULAWESI TENGAH,94222.0,Indonesia,,,,-0.9362632,119.8527396,https://maps.google.com/?cid=0x0:0x85ef7ffb24bc9ff7,
perumahan,Komplek perumahan,Rumah,"3V45+HF9, Unnamed Road, Baliase, Kec. Marawola, Kabupaten Sigi, Sulawesi Tengah 94222","Unnamed Road, Baliase, Kec. Marawola, Kabupaten Sigi",SULAWESI TENGAH,94222.0,Indonesia,,,,-0.9435874,119.858749,https://maps.google.com/?cid=0x0:0x1cd8a069c4a91cb3,
perumahan,Komplek perumahan,Rumah Rafin,"Jl. Uwe Lera, Porame, Kec. Kinovaro, Kabupaten Sigi, Sulawesi Tengah","Kabupaten Sigi, Sulawesi Tengah",SULAWESI TENGAH,,Indonesia,,,,-0.9527414,119.8376056,https://maps.google.com/?cid=0x0:0x7101801adde5ff43,
perumahan,Pembangunan Perumahan,Jabal Rahmah,"BTN REGENSI SETIA BUDI Blk. B No.29, Baliase, Kec. Marawola, Kabupaten Sigi, Sulawesi Tengah 94222","Baliase, Kec. Marawola, Kabupaten Sigi",SULAWESI TENGAH,94222.0,Indonesia,,,,-0.939921,119.8508217,https://maps.google.com/?cid=0x0:0x4b94c0205af8b54b,
perumahan,Komplek perumahan,BTN BUKIT BALIASE INDAH BLOK AL NO.30,"3R6W+5C6, Balane, Kec. Kinovaro, Kabupaten Sigi, Sulawesi Tengah","Kabupaten Sigi, Sulawesi Tengah",SULAWESI TENGAH,,Indonesia,,,,-0.9398083,119.8460983,https://maps.google.com/?cid=0x0:0x5c5e9a0145c07214,
perumahan,Komplek perumahan,Rumah saya,"Rumah saya, Porame, Kec. Kinovaro, Kabupaten Sigi, Sulawesi Tengah","Kabupaten Sigi, Sulawesi Tengah",SULAWESI TENGAH,,Indonesia,,,,-0.9561175,119.835558,https://maps.google.com/?cid=0x0:0x5d677c2203fe909e,
perumahan,Komplek perumahan,Rumah ubay,"3R3M+GW, Balane, Kec. Kinovaro, Kabupaten Sigi, Sulawesi Tengah","Kabupaten Sigi, Sulawesi Tengah",SULAWESI TENGAH,,Indonesia,,,,-0.9461896,119.8347026,https://maps.google.com/?cid=0x0:0x998715335042f976,
perumahan,Komplek perumahan,Rumah Dwy (Btn celebes land),"Btn celebes land blok B4, Baliase, Kec. Marawola, Kabupaten Sigi, Sulawesi Tengah","Kabupaten Sigi, Sulawesi Tengah",SULAWESI TENGAH,,Indonesia,,,,-0.9400967,119.847975,https://maps.google.com/?cid=0x0:0x832ef55962e42876,
perumahan,Komplek perumahan,Rumah,"BTN GREEN GARDEN No.D/20, Mpanau, Kec. Marawola, Kabupaten Sigi, Sulawesi Tengah 94222","Mpanau, Kec. Marawola, Kabupaten Sigi",SULAWESI TENGAH,94222.0,Indonesia,,,,-0.9382417,119.8521677,https://maps.google.com/?cid=0x0:0x3359a1a1986b850e,
perumahan,perumahan,Kec. Nokilalaki,"Kabupaten Sigi, Sulawesi Tengah","Kabupaten Sigi, Sulawesi Tengah",SULAWESI TENGAH,,Indonesia,,,,-1.1889906,120.1320653,https://maps.google.com/?cid=0x0:0xc5bb665e4a1adbde,
perumahan,Komplek perumahan,Perum pesona nokilalaki,"R46J+CR4, Perum pesona, Kamarora B, Kec. Nokilalaki, Kabupaten Sigi, Sulawesi Tengah","Kabupaten Sigi, Sulawesi Tengah",SULAWESI TENGAH,,Indonesia,,,,-1.1889906,120.1320653,https://maps.google.com/?cid=0x0:0xb2ae5a0832ed2287,
perumahan,Komplek perumahan,Rumah panto,"R46M+254, Kamarora A, Kec. Nokilalaki, Kabupaten Sigi, Sulawesi Tengah","Kabupaten Sigi, Sulawesi Tengah",SULAWESI TENGAH,,Indonesia,,,,-1.1899874,120.1329523,https://maps.google.com/?cid=0x0:0xd78afda2b3074fcb,
perumahan,Komplek perumahan,Rumah papa hengki,"R47J+5JH, Kamarora A, Kec. Nokilalaki, Kabupaten Sigi, Sulawesi Tengah 94364","Kamarora A, Kec. Nokilalaki, Kabupaten Sigi",SULAWESI TENGAH,94364.0,Indonesia,,,,-1.1860755,120.131906,https://maps.google.com/?cid=0x0:0x719c93c7d1a0d5c,
perumahan,Komplek perumahan,Lany's House,"R478+4VX, Jl. Alternatif Palolo-Napu, Sopu, Kec. Nokilalaki, Kabupaten Sigi, Sulawesi Tengah 94364","Jl. Alternatif Palolo-Napu, Sopu, Kec. Nokilalaki, Kabupaten Sigi",SULAWESI TENGAH,94364.0,Indonesia,,,,-1.186855,120.1168399,https://maps.google.com/?cid=0x0:0xee2ab6ce739de0c2,
perumahan,Komplek perumahan,Rumah Manda,"R493+CP, Bulili, Kec. Nokilalaki, Kabupaten Sigi, Sulawesi Tengah","Kabupaten Sigi, Sulawesi Tengah",SULAWESI TENGAH,,Indonesia,,,,-1.1814079,120.1043462,https://maps.google.com/?cid=0x0:0x80f9316bf38df5d,
perumahan,Perumahan,Labangkalang's Home,"R488+Q9, Sopu, Kec. Nokilalaki, Kabupaten Sigi, Sulawesi Tengah","Kabupaten Sigi, Sulawesi Tengah",SULAWESI TENGAH,,Indonesia,,,,-1.1830916,120.1158951,https://maps.google.com/?cid=0x0:0x274de39501be265d,
perumahan,Komplek perumahan,Rumah Putih Andi,"R46J+CR4, Perumahan pesona, Kamarora B, Kec. Nokilalaki, Kabupaten Sigi, Sulawesi Tengah","Kabupaten Sigi, Sulawesi Tengah",SULAWESI TENGAH,,Indonesia,,,,-1.1889906,120.1320653,https://maps.google.com/?cid=0x0:0x45be5f3132a17588,
perumahan,Pembangunan Perumahan,Rumah Babba,"R45Q+H4, Kamarora B, Kec. Nokilalaki, Kabupaten Sigi, Sulawesi Tengah 94473","Kamarora B, Kec. Nokilalaki, Kabupaten Sigi",SULAWESI TENGAH,94473.0,Indonesia,,,,-1.1912562,120.1366264,https://maps.google.com/?cid=0x0:0x13d0e6818688da22,
perumahan,Kantor Perusahaan,Dusun II Desa Kamarora B Kecamatan Nokilalaki,"R532+H4J, Kamarora B, Kec. Nokilalaki, Kabupaten Sigi, Sulawesi Tengah","Kabupaten Sigi, Sulawesi Tengah",SULAWESI TENGAH,,Indonesia,,,,-1.1960431,120.1502699,https://maps.google.com/?cid=0x0:0x665703f6973812e2,
perumahan,perumahan,Rumah Yusril / Irham,"R4C6+XWM, Sopu, Kec. Nokilalaki, Kabupaten Sigi, Sulawesi Tengah 94364","Sopu, Kec. Nokilalaki, Kabupaten Sigi",SULAWESI TENGAH,94364.0,Indonesia,,,,-1.1775178,120.1125772,https://maps.google.com/?cid=0x0:0x8b8ad33b2ec65cd9,
perumahan,Komplek perumahan,Rumah yusri,"R4HF+9P7, Sopu, Kec. Nokilalaki, Kabupaten Sigi, Sulawesi Tengah","Kabupaten Sigi, Sulawesi Tengah",SULAWESI TENGAH,,Indonesia,,,,-1.171587,120.124289,https://maps.google.com/?cid=0x0:0xac1ff868e3cf4133,
perumahan,Komplek perumahan,Rumah Papa Handri,"R479+4WH, Kadidia, Kec. Nokilalaki, Kabupaten Sigi, Sulawesi Tengah","Kabupaten Sigi, Sulawesi Tengah",SULAWESI TENGAH,,Indonesia,,,,-1.187191,120.119858,https://maps.google.com/?cid=0x0:0x3eb194644fdb00fb,
perumahan,Komplek perumahan,Vhyola home’s,"R478+WPF, Sopu, Kec. Nokilalaki, Kabupaten Sigi, Sulawesi Tengah 94364","Sopu, Kec. Nokilalaki, Kabupaten Sigi",SULAWESI TENGAH,94364.0,Indonesia,,,,-1.1850509,120.11732,https://maps.google.com/?cid=0x0:0xfa0b3bfdecc44427,
perumahan,Komplek perumahan,felix home's,"R488+264, Sopu, Kec. Nokilalaki, Kabupaten Sigi, Sulawesi Tengah 94364","Sopu, Kec. Nokilalaki, Kabupaten Sigi",SULAWESI TENGAH,94364.0,Indonesia,,,,-1.1848685,120.1156712,https://maps.google.com/?cid=0x0:0x806871e75f3d2e5b,
perumahan,Komplek perumahan,Lr.damai,"R3FR+GRG, Bulili, Kec. Nokilalaki, Kabupaten Sigi, Sulawesi Tengah 94364","Bulili, Kec. Nokilalaki, Kabupaten Sigi",SULAWESI TENGAH,94364.0,Indonesia,,,,-1.1761968,120.0920748,https://maps.google.com/?cid=0x0:0x3eb524885c12d9fb,
perumahan,perumahan,RUMAH PAPA FATUR,"R46M+4Q9, Kamarora A, Kec. Nokilalaki, Kabupaten Sigi, Sulawesi Tengah","Kabupaten Sigi, Sulawesi Tengah",SULAWESI TENGAH,,Indonesia,,,,-1.1897215,120.1344819,https://maps.google.com/?cid=0x0:0x9d37c3b4172fe967,
perumahan,Komplek perumahan,Astari Home's,"R478+8VF, Sopu, Kec. Nokilalaki, Kabupaten Sigi, Sulawesi Tengah 94364","Sopu, Kec. Nokilalaki, Kabupaten Sigi",SULAWESI TENGAH,94364.0,Indonesia,,,,-1.1866753,120.1171836,https://maps.google.com/?cid=0x0:0x761a4db70255a1eb,
perumahan,Gedung Apartemen,Indri Home's,"R479+5WP, Kadidia, Kec. Nokilalaki, Kabupaten Sigi, Sulawesi Tengah","Kabupaten Sigi, Sulawesi Tengah",SULAWESI TENGAH,,Indonesia,,,,-1.1870336,120.119835,https://maps.google.com/?cid=0x0:0x2c7ee984d89b6fe7,
perumahan,Komplek perumahan,Rumah Kipong,"Q4XX+H27, Kamarora B, Kec. Nokilalaki, Kabupaten Sigi, Sulawesi Tengah","Kabupaten Sigi, Sulawesi Tengah",SULAWESI TENGAH,,Indonesia,,,,-1.2010947,120.1475586,https://maps.google.com/?cid=0x0:0x2a802721ff62e8ce,
perumahan,Komplek perumahan,Armen Fiyen HOME,"R45Q+H4, Kamarora B, Kec. Nokilalaki, Kabupaten Sigi, Sulawesi Tengah 94473","Kamarora B, Kec. Nokilalaki, Kabupaten Sigi",SULAWESI TENGAH,94473.0,Indonesia,,,,-1.1911114,120.137767,https://maps.google.com/?cid=0x0:0x88ae4c1ff6020abf,
perumahan,Komplek perumahan,Rumah viona,"V432+H3J, Sejahtera, Kec. Palolo, Kabupaten Sigi, Sulawesi Tengah 94473","Sejahtera, Kec. Palolo, Kabupaten Sigi",SULAWESI TENGAH,94473.0,Indonesia,,,,-1.1460308,120.1001326,https://maps.google.com/?cid=0x0:0xa7af94cdd95b1754,
perumahan,perumahan,Sulawesi Tengah 94364,"Kabupaten Sigi, Sulawesi Tengah","Kabupaten Sigi, Sulawesi Tengah",SULAWESI TENGAH,,Indonesia,,,,-1.1495881,120.0202964,https://maps.google.com/?cid=0x0:0xc1b3b50bcce1d51b,
perumahan,Pembangunan Perumahan,Rumah Pashya,"V2GC+PRG, Kapiroe, Kec. Palolo, Kabupaten Sigi, Sulawesi Tengah 94364","Kapiroe, Kec. Palolo, Kabupaten Sigi",SULAWESI TENGAH,94364.0,Indonesia,,,,-1.1225889,120.0220993,https://maps.google.com/?cid=0x0:0x397c9ad7b10dd313,
perumahan,Komplek perumahan,Rumah viona,"V432+H3J, Sejahtera, Kec. Palolo, Kabupaten Sigi, Sulawesi Tengah 94473","Sejahtera, Kec. Palolo, Kabupaten Sigi",SULAWESI TENGAH,94473.0,Indonesia,,,,-1.1460308,120.1001326,https://maps.google.com/?cid=0x0:0xa7af94cdd95b1754,
perumahan,Pembangunan Perumahan,Perumahan Biromaru Permai,"2WMG+PPJ, Lolu, Kec. Sigi Biromaru, Kabupaten Sigi, Sulawesi Tengah 94232","Lolu, Kec. Sigi Biromaru, Kabupaten Sigi",SULAWESI TENGAH,94232.0,Indonesia,,,,-0.9656619,119.9272879,https://maps.google.com/?cid=0x0:0x7fb21fc2008252a9,
perumahan,Komplek perumahan,Rumah Marlina,"X2CQ+H36, Sigimpu, Kec. Palolo, Kabupaten Sigi, Sulawesi Tengah","Kabupaten Sigi, Sulawesi Tengah",SULAWESI TENGAH,,Indonesia,,,,-1.0285779,120.0376335,https://maps.google.com/?cid=0x0:0x9b5fb3489b2a0182,
perumahan,Komplek perumahan,Rumahnya Papa Leli,"V344+2GV, Makmur, Kec. Palolo, Kabupaten Sigi, Sulawesi Tengah 94364","Makmur, Kec. Palolo, Kabupaten Sigi",SULAWESI TENGAH,94364.0,Indonesia,,,,-1.1448988,120.0562817,https://maps.google.com/?cid=0x0:0x65b9b968a6847128,
perumahan,Komplek perumahan,Rumah Arya,"WX6M+95H, Sigimpu, Kec. Palolo, Kabupaten Sigi, Sulawesi Tengah","Kabupaten Sigi, Sulawesi Tengah",SULAWESI TENGAH,,Indonesia,,,,-1.0890591,119.9829766,https://maps.google.com/?cid=0x0:0xd0aa05be0b593ff,
perumahan,Komplek perumahan,Rumahku,"V2H9+9JM, Jln. Trans Palu, Napu, Kec. Palolo, Kabupaten Sigi, Sulawesi Tengah 94364","Jln. Trans Palu, Napu, Kec. Palolo, Kabupaten Sigi",SULAWESI TENGAH,94364.0,Indonesia,,,,-1.1214201,120.0190627,https://maps.google.com/?cid=0x0:0xc20577caf0c437c7,
perumahan,Pembangunan Perumahan,Karya unggas,"R3H2+QQ3, Sintuwu, Kec. Palolo, Kabupaten Sigi, Sulawesi Tengah 94364","Sintuwu, Kec. Palolo, Kabupaten Sigi",SULAWESI TENGAH,94364.0,Indonesia,,,,-1.1706146,120.0519174,https://maps.google.com/?cid=0x0:0x8cb2ec89d1f4b989,
perumahan,perumahan,Rumah Yuli,"R2RP+GF8, Sintuwu, Kec. Palolo, Kabupaten Sigi, Sulawesi Tengah 94364","Sintuwu, Kec. Palolo, Kabupaten Sigi",SULAWESI TENGAH,94364.0,Indonesia,,,,-1.159993,120.035976,https://maps.google.com/?cid=0x0:0x7935416da59ee42,
perumahan,Komplek perumahan,Kapiroe,"V2GC+PRG, Kapiroe, Kec. Palolo, Kabupaten Sigi, Sulawesi Tengah 94364","Kapiroe, Kec. Palolo, Kabupaten Sigi",SULAWESI TENGAH,94364.0,Indonesia,,,,-1.1231792,120.0220721,https://maps.google.com/?cid=0x0:0x47d6419766e89d09,
perumahan,Komplek perumahan,Rumah dede,"V2HG+482, Kapiroe, Kec. Palolo, Kabupaten Sigi, Sulawesi Tengah 94364","Kapiroe, Kec. Palolo, Kabupaten Sigi",SULAWESI TENGAH,94364.0,Indonesia,,,,-1.1222386,120.0257588,https://maps.google.com/?cid=0x0:0xd06ecd420d101aa0,
perumahan,Komplek perumahan,Rumah Villy,"V2WG+GCW, Bunga, Kec. Palolo, Kabupaten Sigi, Sulawesi Tengah 94364","Bunga, Kec. Palolo, Kabupaten Sigi",SULAWESI TENGAH,94364.0,Indonesia,,,,-1.103644,120.0260757,https://maps.google.com/?cid=0x0:0x507226f606f6c7c8,
perumahan,Komplek perumahan,BASECAMP PRPG BINUNU,"V2GC+PRG, Kapiroe, Kec. Palolo, Kabupaten Sigi, Sulawesi Tengah 94364","Kapiroe, Kec. Palolo, Kabupaten Sigi",SULAWESI TENGAH,94364.0,Indonesia,,,,-1.1240096,120.0220857,https://maps.google.com/?cid=0x0:0xb22db268b776aff6,
perumahan,Komplek perumahan,Rumah naldo,"V2GC+PRG, Kapiroe, Kec. Palolo, Kabupaten Sigi, Sulawesi Tengah 94364","Kapiroe, Kec. Palolo, Kabupaten Sigi",SULAWESI TENGAH,94364.0,Indonesia,,,,-1.1223556,120.0219453,https://maps.google.com/?cid=0x0:0xc6046b0936f1097d,
perumahan,Komplek perumahan,Lizam's House,"WX3Q+7V, Baku-Bakulu, Kec. Palolo, Kabupaten Sigi, Sulawesi Tengah 94364","Baku-Bakulu, Kec. Palolo, Kabupaten Sigi",SULAWESI TENGAH,94364.0,Indonesia,,,,-1.096815,119.9896851,https://maps.google.com/?cid=0x0:0x408a031a3e2f3536,
perumahan,Komplek perumahan,Rumah Ferdyxorixo,"V39P+H89, Berdikari, Kec. Palolo, Kabupaten Sigi, Sulawesi Tengah","Kabupaten Sigi, Sulawesi Tengah",SULAWESI TENGAH,,Indonesia,,,,-1.1310885,120.0858601,https://maps.google.com/?cid=0x0:0x11978e9d18ffcb9a,
perumahan,Komplek perumahan,Rumah Kiki,"V2FJ+8R, Petimbe, Kec. Palolo, Kabupaten Sigi, Sulawesi Tengah","Kabupaten Sigi, Sulawesi Tengah",SULAWESI TENGAH,,Indonesia,,,,-1.1266479,120.0320446,https://maps.google.com/?cid=0x0:0x8a57c8d3ff0b36f8,
perumahan,Komplek perumahan,Rumah Livy,"V355+2GG, Makmur, Kec. Palolo, Kabupaten Sigi, Sulawesi Tengah 94364","Makmur, Kec. Palolo, Kabupaten Sigi",SULAWESI TENGAH,94364.0,Indonesia,,,,-1.1429073,120.0587118,https://maps.google.com/?cid=0x0:0x9ef10913c436a9eb,
perumahan,Masjid,Desa sigimpu,"WX7J+2XW, Sigimpu, Kec. Palolo, Kabupaten Sigi, Sulawesi Tengah","Kabupaten Sigi, Sulawesi Tengah",SULAWESI TENGAH,,Indonesia,,,,-1.0873933,119.9824466,https://maps.google.com/?cid=0x0:0x864f05deabcd2c35,
perumahan,Pembangunan Perumahan,Dahir Ambodale,"V29Q+7PG, jalan trans palu palolo desa petimbe kecamat, Petimbe, Kec. Palolo, Kabupaten Sigi, Sulawesi Tengah 94364","jalan trans palu palolo desa petimbe kecamat, Petimbe, Kec. Palolo, Kabupaten Sigi",SULAWESI TENGAH,94364.0,Indonesia,,,,-1.1318196,120.0393226,https://maps.google.com/?cid=0x0:0x7fdbe55b3bbedfe5,
perumahan,Komplek perumahan,Villa Pak Syahrul,"V26R+M98, Petimbe, Kec. Palolo, Kabupaten Sigi, Sulawesi Tengah 94364","Petimbe, Kec. Palolo, Kabupaten Sigi",SULAWESI TENGAH,94364.0,Indonesia,,,,-1.1383321,120.0409582,https://maps.google.com/?cid=0x0:0x31ea85fc2de9b90c,
perumahan,Komplek perumahan,Athan🤪,"V2HF+FMJ, Kapiroe, Kec. Palolo, Kabupaten Sigi, Sulawesi Tengah 94364","Kapiroe, Kec. Palolo, Kabupaten Sigi",SULAWESI TENGAH,94364.0,Indonesia,,,,-1.121281,120.0241431,https://maps.google.com/?cid=0x0:0x193937d5ba50ccf,
perumahan,Komplek perumahan,Rumah Faldin,"V2HC+8F9, Kapiroe, Kec. Palolo, Kabupaten Sigi, Sulawesi Tengah 94364","Kapiroe, Kec. Palolo, Kabupaten Sigi",SULAWESI TENGAH,94364.0,Indonesia,,,,-1.1217238,120.0212379,https://maps.google.com/?cid=0x0:0xeebf210fcc2df562,
perumahan,Pembangunan Perumahan,Lorong pimbongo,"V2FM+8MP, Petimbe, Kec. Palolo, Kabupaten Sigi, Sulawesi Tengah 94364","Petimbe, Kec. Palolo, Kabupaten Sigi",SULAWESI TENGAH,94364.0,Indonesia,,,,-1.1266682,120.0342089,https://maps.google.com/?cid=0x0:0x9cfe84e1e67e1182,
perumahan,Komplek perumahan,Rumah Meldin,"V23G+VC8, Kapiroe, Kec. Palolo, Kabupaten Sigi, Sulawesi Tengah 94364","Kapiroe, Kec. Palolo, Kabupaten Sigi",SULAWESI TENGAH,94364.0,Indonesia,,,,-1.1453481,120.0260757,https://maps.google.com/?cid=0x0:0x25fd8975a85d02d9,
perumahan,Pembangunan Perumahan,Rumahx kembar,"WX9F+3X, Sigimpu, Kec. Palolo, Kabupaten Sigi, Sulawesi Tengah 94364","Sigimpu, Kec. Palolo, Kabupaten Sigi",SULAWESI TENGAH,94364.0,Indonesia,,,,-1.0824453,119.9749431,https://maps.google.com/?cid=0x0:0x674233a69b561545,
perumahan,Komplek perumahan,Keyla's,"V2H9+74G, Bunga, Kec. Palolo, Kabupaten Sigi, Sulawesi Tengah 94364","Bunga, Kec. Palolo, Kabupaten Sigi",SULAWESI TENGAH,94364.0,Indonesia,,,,-1.1218246,120.0178423,https://maps.google.com/?cid=0x0:0xa92d424d937f9598,
perumahan,perumahan,Sulawesi Tengah 94112,"Kabupaten Sigi, Sulawesi Tengah","Kabupaten Sigi, Sulawesi Tengah",SULAWESI TENGAH,,Indonesia,,,,-1.7555339,120.0202964,https://maps.google.com/?cid=0x0:0x4cb6d2402d66959,
perumahan,Komplek perumahan,Ntenunu - Peana Pipikoro Sulawesi Tengah,"6WHF+5W6, Peana, Pipikoro, Kabupaten Sigi, Sulawesi Tengah 94112","Peana, Pipikoro, Kabupaten Sigi",SULAWESI TENGAH,94112.0,Indonesia,,,,-1.7720816,119.9247622,https://maps.google.com/?cid=0x0:0x27eb2649d0fe4650,
perumahan,Pembangunan Perumahan,Pomumua Peana,"6WJC+H2P, Pomumua, Pipikoro, Kabupaten Sigi, Sulawesi Tengah 94112","Pomumua, Pipikoro, Kabupaten Sigi",SULAWESI TENGAH,94112.0,Indonesia,,,,-1.7685346,119.9200876,https://maps.google.com/?cid=0x0:0xdd684aad205a5efb,
perumahan,perumahan,Rumah Gr Herman D Rigo(Watumoni),"7VCW+8PH, Kantewu, Pipikoro, Kabupaten Sigi, Sulawesi Tengah 94112","Kantewu, Pipikoro, Kabupaten Sigi",SULAWESI TENGAH,94112.0,Indonesia,,,,-1.7301615,119.897689,https://maps.google.com/?cid=0x0:0x933cc800f0b45c73,
perumahan,Komplek perumahan,Rumah Lucky Hopo,"7VCV+2CH, Kantewu, Pipikoro, Kabupaten Sigi, Sulawesi Tengah 94112","Kantewu, Pipikoro, Kabupaten Sigi",SULAWESI TENGAH,94112.0,Indonesia,,,,-1.7299319,119.893598,https://maps.google.com/?cid=0x0:0xfac109234464079e,
perumahan,Komplek perumahan,Rumah Anes,"8W8H+62F dusun 2, Porelea, Pipikoro, Kabupaten Sigi, Sulawesi Tengah 94112","Porelea, Pipikoro, Kabupaten Sigi",SULAWESI TENGAH,94112.0,Indonesia,,,,-1.6844259,119.9275457,https://maps.google.com/?cid=0x0:0xea4d86fd8051c6e1,
perumahan,Klub Olahraga,Padakama,"7V2M+MR, Kantewu II, Pipikoro, Kabupaten Sigi, Sulawesi Tengah","Kabupaten Sigi, Sulawesi Tengah",SULAWESI TENGAH,,Indonesia,,,,-1.7483586,119.8845254,https://maps.google.com/?cid=0x0:0x64eb107f1e2014a3,
perumahan,Komplek perumahan,PEANA,"6WCX+MW, Peana, Pipikoro, Kabupaten Sigi, Sulawesi Tengah","Kabupaten Sigi, Sulawesi Tengah",SULAWESI TENGAH,,Indonesia,,,,-1.7783551,119.9498669,https://maps.google.com/?cid=0x0:0x1baadd1a04329e66,
perumahan,Komplek perumahan,Rumah Tm.Jeri,"82VV+Q5C, 82VV+Q5MLempeleroKec, Kec. Kulawi Sel., Kabupaten Sigi, Sulawesi Tengah 94112","82VV+Q5MLempeleroKec, Kec. Kulawi Sel., Kabupaten Sigi",SULAWESI TENGAH,94112.0,Indonesia,,,,-1.6555675,120.0428852,https://maps.google.com/?cid=0x0:0xfb1b3d00e1e06a40,
perumahan,Pembangunan Perumahan,Mpadano Ntenunu,"6WGH+VVH, Unnamed Road, Peana, Pipikoro, Kabupaten Sigi, Sulawesi Tengah 94112","Unnamed Road, Peana, Pipikoro, Kabupaten Sigi",SULAWESI TENGAH,94112.0,Indonesia,,,,-1.7728006,119.9297466,https://maps.google.com/?cid=0x0:0x8b6860de8c5be7ae,
perumahan,Komplek perumahan,RUMAH TAMA PEPA,"92JJ+V66, Tompi Bugis, Kec. Kulawi Sel., Kabupaten Sigi, Sulawesi Tengah","Kabupaten Sigi, Sulawesi Tengah",SULAWESI TENGAH,,Indonesia,,,,-1.6171104,120.0314441,https://maps.google.com/?cid=0x0:0xbfdb3255ae1d9b4e,
perumahan,Komplek perumahan,Desa tuwo tanijaya,"738C+73, Pili Makujawa, pipikoro timur, Kabupaten Sigi, Sulawesi Tengah","Kabupaten Sigi, Sulawesi Tengah",SULAWESI TENGAH,,Indonesia,,,,-1.734377,120.0702102,https://maps.google.com/?cid=0x0:0xd3ce299eb11b63cc,
perumahan,Komplek perumahan,Rumah Nyonya Envoy,"82VV+67, Lempelero, Kec. Kulawi Sel., Kabupaten Sigi, Sulawesi Tengah","Kabupaten Sigi, Sulawesi Tengah",SULAWESI TENGAH,,Indonesia,,,,-1.6569256,120.0431744,https://maps.google.com/?cid=0x0:0xfa25decd4871057d,
perumahan,Komplek perumahan,Pospindu desa gimpu,"928R+G4P, Gimpu, Tomua, Kec. Kulawi Sel., Kabupaten Sigi, Sulawesi Tengah 94363","Gimpu, Tomua, Kec. Kulawi Sel., Kabupaten Sigi",SULAWESI TENGAH,94363.0,Indonesia,,,,-1.6336719,120.0403329,https://maps.google.com/?cid=0x0:0xe07730b0e0a62e62,
perumahan,Komplek perumahan,Erwin,"92GH+267, Tompi Bugis, Kec. Kulawi Sel., Kabupaten Sigi, Sulawesi Tengah","Kabupaten Sigi, Sulawesi Tengah",SULAWESI TENGAH,,Indonesia,,,,-1.6249577,120.0280437,https://maps.google.com/?cid=0x0:0x21b16b15b60dc3fc,
perumahan,Komplek perumahan,Lorong Jati Lempelero,"82VV+Q5M, Lempelero, Kec. Kulawi Sel., Kabupaten Sigi, Sulawesi Tengah 94112","Lempelero, Kec. Kulawi Sel., Kabupaten Sigi",SULAWESI TENGAH,94112.0,Indonesia,,,,-1.6555271,120.0429246,https://maps.google.com/?cid=0x0:0x90a8c630c2422c62,
perumahan,Komplek perumahan,Ngata Moa,"632X+QMH, Moa, Kec. Kulawi Sel., Kabupaten Sigi, Sulawesi Tengah","Kabupaten Sigi, Sulawesi Tengah",SULAWESI TENGAH,,Indonesia,,,,-1.7980579,120.0992487,https://maps.google.com/?cid=0x0:0x79b820685e74ff9e,
perumahan,Rumah Kaca,Rumah Videl ngale,"7V9W+88P, Kantewu, Pipikoro, Kabupaten Sigi, Sulawesi Tengah 94112","Kantewu, Pipikoro, Kabupaten Sigi",SULAWESI TENGAH,94112.0,Indonesia,,,,-1.730431,119.896116,https://maps.google.com/?cid=0x0:0x54449ae7b4909028,
perumahan,Balai Pertemuan Desa,Desa tomua,"8XXH+VWP, Tomua, Kec. Kulawi Sel., Kabupaten Sigi, Sulawesi Tengah","Kabupaten Sigi, Sulawesi Tengah",SULAWESI TENGAH,,Indonesia,,,,-1.6502992,119.9798347,https://maps.google.com/?cid=0x0:0x4a33fed0b28e2617,
perumahan,perumahan,Rumah Farhan,"C25H+R24, O'o, Kec. Kulawi Sel., Kabupaten Sigi, Sulawesi Tengah 94363","O'o, Kec. Kulawi Sel., Kabupaten Sigi",SULAWESI TENGAH,94363.0,Indonesia,,,,-1.5904771,120.0275737,https://maps.google.com/?cid=0x0:0xbc2000a9789fa459,
perumahan,Pembangunan Perumahan,Dipo Peana,"6WJ9+9FW, Unnamed Road, Peana, Pipikoro, Kabupaten Sigi, Sulawesi Tengah 94112","Unnamed Road, Peana, Pipikoro, Kabupaten Sigi",SULAWESI TENGAH,94112.0,Indonesia,,,,-1.7690177,119.9186984,https://maps.google.com/?cid=0x0:0xf90a4a91edea2309,
perumahan,perumahan,Sulawesi Tengah 94364,"Kabupaten Sigi, Sulawesi Tengah","Kabupaten Sigi, Sulawesi Tengah",SULAWESI TENGAH,,Indonesia,,,,-1.1495881,120.0202964,https://maps.google.com/?cid=0x0:0xc1b3b50bcce1d51b,
perumahan,Pembangunan Perumahan,Perumahan Biromaru Permai,"2WMG+PPJ, Lolu, Kec. Sigi Biromaru, Kabupaten Sigi, Sulawesi Tengah 94232","Lolu, Kec. Sigi Biromaru, Kabupaten Sigi",SULAWESI TENGAH,94232.0,Indonesia,,,,-0.9656619,119.9272879,https://maps.google.com/?cid=0x0:0x7fb21fc2008252a9,
perumahan,Komplek perumahan,Perumahan Dinas Biromaru,"2WX8+FW4, Jl. Pramuka, Mpanau, Kec. Sigi Biromaru, Kabupaten Sigi, Sulawesi Tengah 94231","Jl. Pramuka, Mpanau, Kec. Sigi Biromaru, Kabupaten Sigi",SULAWESI TENGAH,94231.0,Indonesia,82190213488.0,,,-0.9513556,119.9173346,https://maps.google.com/?cid=0x0:0xfb76c202cb83a322,
perumahan,Komplek perumahan,Btn,"Btn Kelapa Mas Permai Blok H 3 No 17, Kalukubula, Kec. Sigi Biromaru, Kabupaten Sigi, Sulawesi Tengah 94237","Kalukubula, Kec. Sigi Biromaru, Kabupaten Sigi",SULAWESI TENGAH,94237.0,Indonesia,,,,-0.9621725,119.8859417,https://maps.google.com/?cid=0x0:0x6183266e47e08918,
perumahan,Perumahan,Apernas Bukit Sigi Permai,"XX62+7QP, Watunonju, Kec. Sigi Biromaru, Kabupaten Sigi, Sulawesi Tengah 94364","Watunonju, Kec. Sigi Biromaru, Kabupaten Sigi",SULAWESI TENGAH,94364.0,Indonesia,,,,-1.039297,119.9519682,https://maps.google.com/?cid=0x0:0xfda62116e182859f,
perumahan,Perhimpunan Pengembang Perumahan,Perum Kelapa Gading,"Unnamed Road, Blk. Z No.32, Kalukubula, Kec. Sigi Biromaru, Kabupaten Sigi, Sulawesi Tengah 94236","Blk. Z No.32, Kalukubula, Kec. Sigi Biromaru, Kabupaten Sigi",SULAWESI TENGAH,94236.0,Indonesia,,,,-0.9461058,119.8946249,https://maps.google.com/?cid=0x0:0xebbaca9ce86e894c,
perumahan,Komplek perumahan,Rumah Mey,"WW7H+CWG, Sidondo I, Kec. Sigi Biromaru, Kabupaten Sigi, Sulawesi Tengah","Kabupaten Sigi, Sulawesi Tengah",SULAWESI TENGAH,,Indonesia,,,,-1.0864304,119.9298149,https://maps.google.com/?cid=0x0:0xa164e1581139d5c9,
perumahan,perumahan,Perumahan Kodim,"WWW6+4Q8, Sidondo IV, Kec. Sigi Biromaru, Kabupaten Sigi, Sulawesi Tengah 94362","Sidondo IV, Kec. Sigi Biromaru, Kabupaten Sigi",SULAWESI TENGAH,94362.0,Indonesia,,,,-1.0556651,119.9116972,https://maps.google.com/?cid=0x0:0x385d5f39586ae3a,
perumahan,Komplek perumahan,sigi biromaru,"3VXH+V62, Lolu Utara, Kec. Palu Sel., Kota Palu, Sulawesi Tengah 94111","Lolu Utara, Kec. Palu Sel., Kota Palu",SULAWESI TENGAH,94111.0,Indonesia,,,,-0.9003571,119.8780013,https://maps.google.com/?cid=0x0:0x58c6b951184cc0d8,
perumahan,Kantor Perusahaan,PT. BOROBUDUR BUMI MANDIRI,"Jl. Karanja Lembah No.16, Kalukubula, Kec. Sigi Biromaru, Kabupaten Sigi, Sulawesi Tengah 94364","Kalukubula, Kec. Sigi Biromaru, Kabupaten Sigi",SULAWESI TENGAH,94364.0,Indonesia,81298681480.0,,,-0.9379198,119.8938284,https://maps.google.com/?cid=0x0:0x8eef4eab038c1ae1,
perumahan,perumahan,Rumah Lestari,"2W7Q+F6V, Pombewe, Kec. Sigi Biromaru, Kabupaten Sigi, Sulawesi Tengah 94364","Pombewe, Kec. Sigi Biromaru, Kabupaten Sigi",SULAWESI TENGAH,94364.0,Indonesia,,,,-0.9865501,119.9378338,https://maps.google.com/?cid=0x0:0x566d30db09249d0e,
perumahan,Komplek perumahan,Apinindo Residenza Kalukubula,"2VRW+4Q, Kalukubula, Kec. Sigi Biromaru, Kabupaten Sigi, Sulawesi Tengah 94231","Kalukubula, Kec. Sigi Biromaru, Kabupaten Sigi",SULAWESI TENGAH,94231.0,Indonesia,,,,-0.9603613,119.8969072,https://maps.google.com/?cid=0x0:0xe60cf5e51a905851,
perumahan,Komplek perumahan,Rumah SARIFUDDIN,"WV5W+8C9, Sidondo II, Kec. Sigi Biromaru, Kabupaten Sigi, Sulawesi Tengah 94362","Sidondo II, Kec. Sigi Biromaru, Kabupaten Sigi",SULAWESI TENGAH,94362.0,Indonesia,,,,-1.0917079,119.8961232,https://maps.google.com/?cid=0x0:0xb956ca5da17a58de,
perumahan,perumahan,Rumah Yusril / Irham,"R4C6+XWM, Sopu, Kec. Nokilalaki, Kabupaten Sigi, Sulawesi Tengah 94364","Sopu, Kec. Nokilalaki, Kabupaten Sigi",SULAWESI TENGAH,94364.0,Indonesia,,,,-1.1775178,120.1125772,https://maps.google.com/?cid=0x0:0x8b8ad33b2ec65cd9,
perumahan,Kantor Perusahaan,PERUMAHAN THE GREEN LANDO,"2VVR+PW2, Jl. Lando, Kalukubula, Kec. Sigi Biromaru, Kota Palu, Sulawesi Tengah 94364","Jl. Lando, Kalukubula, Kec. Sigi Biromaru, Kota Palu",SULAWESI TENGAH,94364.0,Indonesia,82187356531.0,,,-0.9557456,119.8922528,https://maps.google.com/?cid=0x0:0xb790d88de554de5,
perumahan,Komplek perumahan,Rumah Papa Amar,"2W7R+GFW, Huntap, Pombewe, Kec. Sigi Biromaru, Kabupaten Sigi, Sulawesi Tengah 94364","Huntap, Pombewe, Kec. Sigi Biromaru, Kabupaten Sigi",SULAWESI TENGAH,94364.0,Indonesia,,,,-0.9861366,119.9412116,https://maps.google.com/?cid=0x0:0x77f64c97a1a4e606,
perumahan,Komplek perumahan,Leon kk Rumah,"XX6H+XWW, Watunonju, Kec. Sigi Biromaru, Kabupaten Sigi, Sulawesi Tengah 94364","Watunonju, Kec. Sigi Biromaru, Kabupaten Sigi",SULAWESI TENGAH,94364.0,Indonesia,,,,-1.0375007,119.9798347,https://maps.google.com/?cid=0x0:0xaad3f0e0a14e7c51,
perumahan,Komplek perumahan,Rumah erniati,"2W7W+VPW, Pombewe, Kec. Sigi Biromaru, Kabupaten Sigi, Sulawesi Tengah 94364","Pombewe, Kec. Sigi Biromaru, Kabupaten Sigi",SULAWESI TENGAH,94364.0,Indonesia,,,,-0.9852063,119.9469495,https://maps.google.com/?cid=0x0:0x9f636a442448a4ab,
perumahan,Pembangunan Perumahan,Kalukubula Paradise,"2VPH+7RJ, Jl. Guru Tua, Kalukubula, Kec. Sigi Biromaru, Kabupaten Sigi, Sulawesi Tengah","Kabupaten Sigi, Sulawesi Tengah",SULAWESI TENGAH,,Indonesia,,,,-0.9642837,119.8795175,https://maps.google.com/?cid=0x0:0x1e866a5ccedf9692,
perumahan,Otoritas Perumahan,"BTN Permata Biru, Desa Lolu, Kec. Sigi Biromaru, Kab. Sigi, Sulawesi Tengah","2WMF+W65, Unnamed Road, Lolu, Kec. Sigi Biromaru, Kabupaten Sigi, Sulawesi Tengah 94231","Unnamed Road, Lolu, Kec. Sigi Biromaru, Kabupaten Sigi",SULAWESI TENGAH,94231.0,Indonesia,82348969745.0,,,-0.9652291,119.9231073,https://maps.google.com/?cid=0x0:0x32045da7b43f1b1b,
perumahan,Pembangunan Perumahan,Perumahan Kelapa Gading Blok AU No 10,"3V2R+XGG, Blk. AU No.10, Kalukubula, Kec. Sigi Biromaru, Kabupaten Sigi, Sulawesi Tengah 94236","Blk. AU No.10, Kalukubula, Kec. Sigi Biromaru, Kabupaten Sigi",SULAWESI TENGAH,94236.0,Indonesia,,,,-0.9465706,119.8910385,https://maps.google.com/?cid=0x0:0xb418e9d39b93a444,
perumahan,perumahan,Rumah Pak Lutfi,"XWRG+RMF Avan camp, Sidera, Kec. Sigi Biromaru, Kabupaten Sigi, Sulawesi Tengah 94362","Sidera, Kec. Sigi Biromaru, Kabupaten Sigi",SULAWESI TENGAH,94362.0,Indonesia,,,,-1.0084934,119.9269613,https://maps.google.com/?cid=0x0:0x3dfc3c669d81b958,
perumahan,Komplek perumahan,Rumahnya chiya,"belakang kantor pemasaran, Jl. Balintuma Blok D No.16, Perumahan Jinggaland, Kalukubula, Kec. Sigi Biromaru, Kabupaten Sigi, Sulawesi Tengah 94364","Jl. Balintuma Blok D No.16, Perumahan Jinggaland, Kalukubula, Kec. Sigi Biromaru, Kabupaten Sigi",SULAWESI TENGAH,94364.0,Indonesia,,,,-0.9616475,119.8970849,https://maps.google.com/?cid=0x0:0xb3ec76a48aa3fdc,
perumahan,Komplek perumahan,PERUMAHAN GREEN TARA,"Kalukubula, Kec. Sigi Biromaru, Kabupaten Sigi, Sulawesi Tengah 94235","Kec. Sigi Biromaru, Kabupaten Sigi",SULAWESI TENGAH,94235.0,Indonesia,,,,-0.9411875,119.8925625,https://maps.google.com/?cid=0x0:0xb34bc841c7d93f71,
perumahan,Komplek perumahan,BTN. SHAFIRA RESIDENZA,"2VWX+44P, Unnamed Road, Kalukubula, Kec. Sigi Biromaru, Kabupaten Sigi, Sulawesi Tengah 94236","Unnamed Road, Kalukubula, Kec. Sigi Biromaru, Kabupaten Sigi",SULAWESI TENGAH,94236.0,Indonesia,,,,-0.9546526,119.8978406,https://maps.google.com/?cid=0x0:0xc80b3ff5c50fdab9,
perumahan,Penginapan,BTN BUMI KELAPA KALUKUBULA,"2VXP+JRM, Unnamed Road, Kalukubula, Kec. Sigi Biromaru, Kabupaten Sigi, Sulawesi Tengah 94236","Unnamed Road, Kalukubula, Kec. Sigi Biromaru, Kabupaten Sigi",SULAWESI TENGAH,94236.0,Indonesia,,,,-0.9509173,119.8870337,https://maps.google.com/?cid=0x0:0xa028d178088cd3d9,
perumahan,Pembangunan Perumahan,Rumah intan,"2W7R+XP3, Pombewe, Kec. Sigi Biromaru, Kabupaten Sigi, Sulawesi Tengah 94364","Pombewe, Kec. Sigi Biromaru, Kabupaten Sigi",SULAWESI TENGAH,94364.0,Indonesia,,,,-0.984942,119.942061,https://maps.google.com/?cid=0x0:0x70c1839dc39170fe,
perumahan,Komplek perumahan,Pekuburan Kristen,"WXP6+363, Bora, Kec. Sigi Biromaru, Kabupaten Sigi, Sulawesi Tengah 94364","Bora, Kec. Sigi Biromaru, Kabupaten Sigi",SULAWESI TENGAH,94364.0,Indonesia,,,,-1.064858,119.9605601,https://maps.google.com/?cid=0x0:0xe6bd1d19304d5560,
perumahan,Pembangunan Perumahan,Rumah ku,"WV6R+594, Sidondo II, Kec. Sigi Biromaru, Kabupaten Sigi, Sulawesi Tengah 94362","Sidondo II, Kec. Sigi Biromaru, Kabupaten Sigi",SULAWESI TENGAH,94362.0,Indonesia,,,,-1.0896196,119.8909413,https://maps.google.com/?cid=0x0:0x4b3c8c9a9bdd39d7,
perumahan,perumahan,Kec. Tanambulava,"Kabupaten Sigi, Sulawesi Tengah","Kabupaten Sigi, Sulawesi Tengah",SULAWESI TENGAH,,Indonesia,,,,-1.144118,119.9209817,https://maps.google.com/?cid=0x0:0x5d80464cf673a40c,
perumahan,Komplek perumahan,Rumah rakib,"RWMH+PXF, Lambara, Kec. Tanambulava, Kabupaten Sigi, Sulawesi Tengah 94361","Lambara, Kec. Tanambulava, Kabupaten Sigi",SULAWESI TENGAH,94361.0,Indonesia,,,,-1.1657072,119.9293089,https://maps.google.com/?cid=0x0:0x949cd84a48ddd521,
perumahan,Komplek perumahan,House,"RWJF+V4M, Lambara, Kec. Tanambulava, Kabupaten Sigi, Sulawesi Tengah","Kabupaten Sigi, Sulawesi Tengah",SULAWESI TENGAH,,Indonesia,,,,-1.1675485,119.9223469,https://maps.google.com/?cid=0x0:0x3542108aa13d1584,
perumahan,perumahan,"Rumah, Abil Shidqi Ansalan","RWWF+RMR, Sibalaya Sel., Kec. Tanambulava, Kabupaten Sigi, Sulawesi Tengah","Kabupaten Sigi, Sulawesi Tengah",SULAWESI TENGAH,,Indonesia,85268869107.0,,,-1.1528775,119.9241544,https://maps.google.com/?cid=0x0:0x3971333cfaf2f087,
perumahan,Komplek perumahan,Rumah lylis,"RWMH+PXF, Lambara, Kec. Tanambulava, Kabupaten Sigi, Sulawesi Tengah 94361","Lambara, Kec. Tanambulava, Kabupaten Sigi",SULAWESI TENGAH,94361.0,Indonesia,,,,-1.1657652,119.9294554,https://maps.google.com/?cid=0x0:0x9048d53dbbef68fd,
perumahan,Komplek perumahan,Huntap Satelit,"VW3G+FR, Sibalaya Sel., Kec. Tanambulava, Kabupaten Sigi, Sulawesi Tengah","Kabupaten Sigi, Sulawesi Tengah",SULAWESI TENGAH,,Indonesia,,,,-1.146298,119.9270743,https://maps.google.com/?cid=0x0:0x24e640f2426c5fa6,
perumahan,Perhimpunan Pengembang Perumahan,HUNIAN SEMENTARA,"Sibalaya Sel., Kec. Tanambulava, Kabupaten Sigi, Sulawesi Tengah","Kabupaten Sigi, Sulawesi Tengah",SULAWESI TENGAH,,Indonesia,81243370059.0,,,-1.1513806,119.9276848,https://maps.google.com/?cid=0x0:0x91808dd599aae332,
perumahan,Pembangunan Perumahan,Huntap Sibalaya Selatan,"RWXH+95G, Sibalaya Sel., Kec. Tanambulava, Kabupaten Sigi, Sulawesi Tengah 94361","Sibalaya Sel., Kec. Tanambulava, Kabupaten Sigi",SULAWESI TENGAH,94361.0,Indonesia,,,,-1.1515592,119.9279549,https://maps.google.com/?cid=0x0:0x98edcc32338c708d,
perumahan,Komplek perumahan,Huntap Aslan,"RWXH+87H, Sibalaya Sel., Kec. Tanambulava, Kabupaten Sigi, Sulawesi Tengah 94361","Sibalaya Sel., Kec. Tanambulava, Kabupaten Sigi",SULAWESI TENGAH,94361.0,Indonesia,,,,-1.1515839,119.9285636,https://maps.google.com/?cid=0x0:0x9b98f796a46bb0d9,
perumahan,Komplek perumahan,Posko KKN tematik 2024 lambara,"RWJF+V4M, Lambara, Kec. Tanambulava, Kabupaten Sigi, Sulawesi Tengah","Kabupaten Sigi, Sulawesi Tengah",SULAWESI TENGAH,,Indonesia,,,,-1.1682598,119.9229756,https://maps.google.com/?cid=0x0:0x2b81d72cfe74e1e3,
perumahan,Komplek perumahan,BP alternati,"RWWF+PVC, Jl. Poros Palu - Kulawi, Sibalaya Sel., Kec. Tanambulava, Kabupaten Sigi, Sulawesi Tengah 94361","Jl. Poros Palu - Kulawi, Sibalaya Sel., Kec. Tanambulava, Kabupaten Sigi",SULAWESI TENGAH,94361.0,Indonesia,,,,-1.1531822,119.9246489,https://maps.google.com/?cid=0x0:0x41d01e8980b9b96,
perumahan,Komplek perumahan,Huntap Lambara,"RWJF+V4M, Lambara, Kec. Tanambulava, Kabupaten Sigi, Sulawesi Tengah","Kabupaten Sigi, Sulawesi Tengah",SULAWESI TENGAH,,Indonesia,,,,-1.1677815,119.9227884,https://maps.google.com/?cid=0x0:0xde3f0b23397067de,
perumahan,Komplek perumahan,rumah memel,"VW79+M46, Sibalaya Utara, Kec. Tanambulava, Kabupaten Sigi, Sulawesi Tengah","Kabupaten Sigi, Sulawesi Tengah",SULAWESI TENGAH,,Indonesia,,,,-1.1358267,119.9177627,https://maps.google.com/?cid=0x0:0x99d8f945df2ff0f5,
perumahan,Komplek perumahan,Sibowi kampung tengah,"VWCF+M5P, Unnamed Road, Sibowi, Kec. Tanambulava, Kabupaten Sigi, Sulawesi Tengah 94361","Unnamed Road, Sibowi, Kec. Tanambulava, Kabupaten Sigi",SULAWESI TENGAH,94361.0,Indonesia,,,,-1.1282771,119.9229501,https://maps.google.com/?cid=0x0:0x46416605759f655f,
perumahan,Komplek perumahan,Rumah Azan Alfatih,"Jl. Poros Palu - Kulawi No.km. 29, RT.001/RW.002, Sibalaya Utara, Kec. Tanambulava, Kabupaten Sigi, Sulawesi Tengah","Kabupaten Sigi, Sulawesi Tengah",SULAWESI TENGAH,,Indonesia,,,,-1.1427169,119.9201743,https://maps.google.com/?cid=0x0:0xf071d5cc6cf6f484,
perumahan,Komplek perumahan,Reza Andriansyah,"Sibalaya Sel; km 30, Sibalaya Sel., Kec. Tanambulava, Kabupaten Sigi, Sulawesi Tengah 94361","Sibalaya Sel., Kec. Tanambulava, Kabupaten Sigi",SULAWESI TENGAH,94361.0,Indonesia,82145509339.0,,,-1.1462817,119.9451436,https://maps.google.com/?cid=0x0:0x4f9abaf72022e7c9,
perumahan,Komplek perumahan,Komplek Perbatasan MKTR,"VW79+28M, Jl. Poros Palu - Kulawi, Sibalaya Utara, Kec. Tanambulava, Kabupaten Sigi, Sulawesi Tengah 94361","Jl. Poros Palu - Kulawi, Sibalaya Utara, Kec. Tanambulava, Kabupaten Sigi",SULAWESI TENGAH,94361.0,Indonesia,,,,-1.1373733,119.9182961,https://maps.google.com/?cid=0x0:0xd33c8c0fb2b66fa0,
perumahan,Komplek perumahan,Rumah EKE,"Jl. Poros Palu - Kulawi No.km30, Sibowi, Kec. Tanambulava, Kabupaten Sigi, Sulawesi Tengah","Kabupaten Sigi, Sulawesi Tengah",SULAWESI TENGAH,,Indonesia,,,,-1.1336737,119.9169853,https://maps.google.com/?cid=0x0:0xb50afd78c8ba6d22,
perumahan,Perumahan,Jualbeli kelapa tua,"VWP5+M5Q, Jl. Poros Palu - Kulawi, Sibowi, Kec. Tanambulava, Kabupaten Sigi, Sulawesi Tengah 94361","Jl. Poros Palu - Kulawi, Sibowi, Kec. Tanambulava, Kabupaten Sigi",SULAWESI TENGAH,94361.0,Indonesia,,,,-1.1132991,119.907982,https://maps.google.com/?cid=0x0:0x359fecc369ea7612,
perumahan,Komplek perumahan,Rumah Naylaa,"VWHM+FC4, Sibowi, Kec. Tanambulava, Kabupaten Sigi, Sulawesi Tengah","Kabupaten Sigi, Sulawesi Tengah",SULAWESI TENGAH,,Indonesia,,,,-1.1213634,119.9335779,https://maps.google.com/?cid=0x0:0x14e93bde20ac715,
perumahan,Perhimpunan Pengembang Perumahan,Huntap Yusran Niar,"RWXH+H4J, Sibalaya Utara, Kec. Tanambulava, Kabupaten Sigi, Sulawesi Tengah 94361","Sibalaya Utara, Kec. Tanambulava, Kabupaten Sigi",SULAWESI TENGAH,94361.0,Indonesia,,,,-1.1508364,119.9288908,https://maps.google.com/?cid=0x0:0x382adf7f4208badb,
perumahan,Komplek perumahan,Sou mungkar,"RWW4+8PQ, Sibalaya Utara, Kec. Tanambulava, Kabupaten Sigi, Sulawesi Tengah 94361","Sibalaya Utara, Kec. Tanambulava, Kabupaten Sigi",SULAWESI TENGAH,94361.0,Indonesia,,,,-1.1541746,119.9068701,https://maps.google.com/?cid=0x0:0x1bc5142ce4938b65,
perumahan,Komplek perumahan,Rumah Mama Awang,"VW5C+H68, Sibalaya Utara, Kec. Tanambulava, Kabupaten Sigi, Sulawesi Tengah 94361","Sibalaya Utara, Kec. Tanambulava, Kabupaten Sigi",SULAWESI TENGAH,94361.0,Indonesia,,,,-1.1410878,119.920573,https://maps.google.com/?cid=0x0:0xd74ab45a0966f10,
perumahan,Perhimpunan Pengembang Perumahan,SEKDES SIBOWI,"VW8C+4Q2, Sibalaya Utara, Kec. Tanambulava, Kabupaten Sigi, Sulawesi Tengah 94361","Sibalaya Utara, Kec. Tanambulava, Kabupaten Sigi",SULAWESI TENGAH,94361.0,Indonesia,,,,-1.1347271,119.9219056,https://maps.google.com/?cid=0x0:0xcb0552a0d726c30,
perumahan,Komplek perumahan,Rumah annisa,"VW3H+HV, Sibalaya Sel., Kec. Tanambulava, Kabupaten Sigi, Sulawesi Tengah","Kabupaten Sigi, Sulawesi Tengah",SULAWESI TENGAH,,Indonesia,,,,-1.1452702,119.928806,https://maps.google.com/?cid=0x0:0x104fe8d0aa964de6,
