Category,Real Category,Business Name,Address,City,State,Postal Code,Country,Phone,Latitude,Longitude,Map Link
cafe,cafe,cafe mangoli,"6F7H+XQG, Falabisahaya, Mangoli Utara, Kabupaten Kepulauan Sula, Maluku Utara","Kabupaten Kepulauan Sula, Maluku Utara",MALUKU UTARA,,Indonesia,,-1.785059,125.4794404,https://maps.google.com/?cid=0x0:0x4e37abb8669bd1a1
cafe,Ayam,Rumah aldy marsaoly,"4496+77W, Wai Tamela, Kec. Mangoli Tim., Kabupaten Kepulauan Sula, Maluku Utara","Kabupaten Kepulauan Sula, Maluku Utara",MALUKU UTARA,,Indonesia,,-1.8821741,126.1126372,https://maps.google.com/?cid=0x0:0x2447e7bc68dc8ed4
cafe,Kedai Kopi,Rumah Al bhory Marsaoly,"4497+F3, Wai Tamela, Kec. Mangoli Tim., Kabupaten Kepulauan Sula, Maluku Utara","Kabupaten Kepulauan Sula, Maluku Utara",MALUKU UTARA,,Indonesia,,-1.8813381,126.1127066,https://maps.google.com/?cid=0x0:0xdfadfd6c7de8bc96
cafe,cafe,Maluku Utara 97795,"Falahu, Kec. Sanana, Kabupaten Kepulauan Sula, Maluku Utara","Kabupaten Kepulauan Sula, Maluku Utara",MALUKU UTARA,,Indonesia,,-2.0613593,125.9823727,https://maps.google.com/?cid=0x0:0x25db49ff4002ccf8
cafe,Kedai Kopi,IN_TIME,"Mangon, Kec. Sanana, Kabupaten Kepulauan Sula, Maluku Utara 97795","Kec. Sanana, Kabupaten Kepulauan Sula",MALUKU UTARA,97795.0,Indonesia,81354636058.0,-2.0613406,125.982371,https://maps.google.com/?cid=0x0:0xec9669d250217c01
cafe,Kedai Kopi,coffeeshop,"WXMJ+J6H, Jl. Jenderal Besar Soeharto, Fatce, Kec. Sanana, Kabupaten Kepulauan Sula, Maluku Utara","Kabupaten Kepulauan Sula, Maluku Utara",MALUKU UTARA,,Indonesia,82343874574.0,-2.0659349,125.9805966,https://maps.google.com/?cid=0x0:0x37cd2f787b5163de
cafe,Kafe,Cafe Corona Fogi - Sanana,"WXJH+85W, Jl. Jenderal Besar Soeharto, Fogi, Kec. Sanana, Kabupaten Kepulauan Sula, Maluku Utara","Kabupaten Kepulauan Sula, Maluku Utara",MALUKU UTARA,,Indonesia,,-2.0691451,125.9779455,https://maps.google.com/?cid=0x0:0x2c730581a49a66b9
cafe,Pabrik Coklat,Serius coklat sula,"WXQM+J65 Al-qaidah, Falahu, Kec. Sanana, Kabupaten Kepulauan Sula, Maluku Utara","Kabupaten Kepulauan Sula, Maluku Utara",MALUKU UTARA,,Indonesia,82291140480.0,-2.0609786,125.9831008,https://maps.google.com/?cid=0x0:0x2bb57127a2f3acf3
cafe,Kafe,Sanana Cafe And Resto,"852G+V9J, Jl. Hative Ambon, Kel Silale, Kec. Nusaniwe, Kota Ambon, Maluku","Kota Ambon, Maluku",MALUKU UTARA,,Indonesia,,-3.6977866,128.1758967,https://maps.google.com/?cid=0x0:0xc110ea39be62ed9c
cafe,Restoran,RM BUNDA,"WXQJ+MQF, Jl. A.K Syahlan, Falahu, Kec. Sanana, Kabupaten Kepulauan Sula, Maluku Utara","Kabupaten Kepulauan Sula, Maluku Utara",MALUKU UTARA,,Indonesia,82296675344.0,-2.0608231,125.9819256,https://maps.google.com/?cid=0x0:0xe8c572014b144ab7
cafe,Kedai Kopi,Mie Begadang Haibusa,"Fatce, Kec. Sanana, Kabupaten Kepulauan Sula, Maluku Utara 97795","Kec. Sanana, Kabupaten Kepulauan Sula",MALUKU UTARA,97795.0,Indonesia,,-2.0613406,125.982371,https://maps.google.com/?cid=0x0:0x506d12946d069858
cafe,Toko,Alya Mart,"WXRJ+3VG, Falahu, Kec. Sanana, Kabupaten Kepulauan Sula, Maluku Utara","Kabupaten Kepulauan Sula, Maluku Utara",MALUKU UTARA,,Indonesia,,-2.059804,125.9822097,https://maps.google.com/?cid=0x0:0x9f24780a49bf8142
cafe,cafe,Sanana,"Fagudu, Kec. Sanana, Kabupaten Kepulauan Sula, Maluku Utara","Kabupaten Kepulauan Sula, Maluku Utara",MALUKU UTARA,,Indonesia,,-2.054462,125.975403,https://maps.google.com/?cid=0x0:0x794f7fcc9fc05834
cafe,Kedai Kopi,SANAYU COFFEE,"Jl. Pd. Rumput I No.65, Kb. Pedes, Kec. Tanah Sereal, Kota Bogor, Jawa Barat 16162","Kb. Pedes, Kec. Tanah Sereal, Kota Bogor",MALUKU UTARA,16162.0,Indonesia,81294018552.0,-6.5708894,106.7930643,https://maps.google.com/?cid=0x0:0xe1f0a7cbed30bd02
cafe,Kedai Kopi,SANA COFFEE,"Jl. Pramuka 18, Sario Kotabaru, Kec. Sario, Kota Manado, Sulawesi Utara 95113","Sario Kotabaru, Kec. Sario, Kota Manado",MALUKU UTARA,95113.0,Indonesia,82114862377.0,1.464944,124.8369593,https://maps.google.com/?cid=0x0:0xd166ccd745153b9d
cafe,cafe,Kec. Sanana,"Kabupaten Kepulauan Sula, Maluku Utara","Kabupaten Kepulauan Sula, Maluku Utara",MALUKU UTARA,,Indonesia,,-2.0691681,125.9790065,https://maps.google.com/?cid=0x0:0x2d5117e449c43e36
cafe,cafe,Maluku Utara 97795,"Falahu, Kec. Sanana, Kabupaten Kepulauan Sula, Maluku Utara","Kabupaten Kepulauan Sula, Maluku Utara",MALUKU UTARA,,Indonesia,,-2.0613593,125.9823727,https://maps.google.com/?cid=0x0:0x25db49ff4002ccf8
cafe,Kedai Kopi,IN_TIME,"Mangon, Kec. Sanana, Kabupaten Kepulauan Sula, Maluku Utara 97795","Kec. Sanana, Kabupaten Kepulauan Sula",MALUKU UTARA,97795.0,Indonesia,81354636058.0,-2.0613406,125.982371,https://maps.google.com/?cid=0x0:0xec9669d250217c01
cafe,Pabrik Coklat,Serius coklat sula,"WXQM+J65 Al-qaidah, Falahu, Kec. Sanana, Kabupaten Kepulauan Sula, Maluku Utara","Kabupaten Kepulauan Sula, Maluku Utara",MALUKU UTARA,,Indonesia,82291140480.0,-2.0609786,125.9831008,https://maps.google.com/?cid=0x0:0x2bb57127a2f3acf3
cafe,Kafe,Js coffee,"WXPJ+H93, Fatce, Kec. Sanana, Kabupaten Kepulauan Sula, Maluku Utara","Kabupaten Kepulauan Sula, Maluku Utara",MALUKU UTARA,,Indonesia,,-2.063607,125.9809162,https://maps.google.com/?cid=0x0:0xc54b2b1e3bc96a81
cafe,Kedai Kopi,Warkop Fina Gauu,"WXQM+W85, Unnamed Road, Falahu, Kec. Sanana, Kabupaten Kepulauan Sula, Maluku Utara","Kabupaten Kepulauan Sula, Maluku Utara",MALUKU UTARA,,Indonesia,81244662066.0,-2.0602441,125.9833636,https://maps.google.com/?cid=0x0:0x69de2e2a68bfda03
cafe,Jawa,D'Cafe,"Swering, Mangon, Kec. Sanana, Kabupaten Kepulauan Sula, Maluku Utara 97795","Mangon, Kec. Sanana, Kabupaten Kepulauan Sula",MALUKU UTARA,97795.0,Indonesia,82188622959.0,-2.0497225,125.9902172,https://maps.google.com/?cid=0x0:0x6fee1ab6d73f9020
cafe,Restoran,RM BUNDA,"WXQJ+MQF, Jl. A.K Syahlan, Falahu, Kec. Sanana, Kabupaten Kepulauan Sula, Maluku Utara","Kabupaten Kepulauan Sula, Maluku Utara",MALUKU UTARA,,Indonesia,82296675344.0,-2.0608231,125.9819256,https://maps.google.com/?cid=0x0:0xe8c572014b144ab7
cafe,Kedai Kopi,Bakrin Norau,"WWVX+VM5, Fogi, Kec. Sanana, Kabupaten Kepulauan Sula, Maluku Utara","Kabupaten Kepulauan Sula, Maluku Utara",MALUKU UTARA,,Indonesia,,-2.0553643,125.9492482,https://maps.google.com/?cid=0x0:0x5868d0c3a8d84421
cafe,Kedai Kopi,Warini caffee,"Pelita, Kec. Mangoli Bar., Kabupaten Kepulauan Sula, Maluku Utara","Kabupaten Kepulauan Sula, Maluku Utara",MALUKU UTARA,,Indonesia,82187725373.0,-1.8353722,125.3286171,https://maps.google.com/?cid=0x0:0x4e368c759a148cf2
cafe,Kedai Kopi,Mie Begadang Haibusa,"Fatce, Kec. Sanana, Kabupaten Kepulauan Sula, Maluku Utara 97795","Kec. Sanana, Kabupaten Kepulauan Sula",MALUKU UTARA,97795.0,Indonesia,,-2.0613406,125.982371,https://maps.google.com/?cid=0x0:0x506d12946d069858
cafe,cafe,cafe mangoli,"6F7H+XQG, Falabisahaya, Mangoli Utara, Kabupaten Kepulauan Sula, Maluku Utara","Kabupaten Kepulauan Sula, Maluku Utara",MALUKU UTARA,,Indonesia,,-1.785059,125.4794404,https://maps.google.com/?cid=0x0:0x4e37abb8669bd1a1
cafe,cafe,Kec. Mangoli Bar.,"Kabupaten Kepulauan Sula, Maluku Utara","Kabupaten Kepulauan Sula, Maluku Utara",MALUKU UTARA,,Indonesia,,-1.8071861,125.3556926,https://maps.google.com/?cid=0x0:0x9235093942d7b06a
cafe,Kedai Kopi,Warini caffee,"Pelita, Kec. Mangoli Bar., Kabupaten Kepulauan Sula, Maluku Utara","Kabupaten Kepulauan Sula, Maluku Utara",MALUKU UTARA,,Indonesia,82187725373.0,-1.8353722,125.3286171,https://maps.google.com/?cid=0x0:0x4e368c759a148cf2
cafe,cafe,Taka,"59HH+FR3, Dofa, Kec. Mangoli Bar., Kabupaten Kepulauan Sula, Maluku Utara","Kabupaten Kepulauan Sula, Maluku Utara",MALUKU UTARA,,Indonesia,,-1.8213645,125.379537,https://maps.google.com/?cid=0x0:0xe09e4eaad10a2087
cafe,Kedai Kopi,Coffee Samudera,"6F7F+9QG, Falabisahaya, Mangoli Utara, Kabupaten Kepulauan Sula, Maluku Utara","Kabupaten Kepulauan Sula, Maluku Utara",MALUKU UTARA,,Indonesia,82348614028.0,-1.7865655,125.4744376,https://maps.google.com/?cid=0x0:0x881e12b1f1f20bcb
cafe,cafe,Warung makan Mentari,"59R4+MP2, Dofa, Kec. Mangoli Bar., Kabupaten Kepulauan Sula, Maluku Utara","Kabupaten Kepulauan Sula, Maluku Utara",MALUKU UTARA,,Indonesia,,-1.8074844,125.3570907,https://maps.google.com/?cid=0x0:0x990291f12acff3b9
cafe,Kedai Kopi,Rumah Kopi Waimaka,"6F6G+9QX Jln. Lorong Plastik, Falabisahaya, Mangoli Utara, Kabupaten Kepulauan Sula, Maluku Utara","Kabupaten Kepulauan Sula, Maluku Utara",MALUKU UTARA,,Indonesia,82271153115.0,-1.7890099,125.4769845,https://maps.google.com/?cid=0x0:0xf8defd6f5204164d
cafe,cafe,Beta Cafe,"586H+PV8, Pelita, Kec. Mangoli Bar., Kabupaten Kepulauan Sula, Maluku Utara","Kabupaten Kepulauan Sula, Maluku Utara",MALUKU UTARA,,Indonesia,,-1.8382359,125.3297321,https://maps.google.com/?cid=0x0:0x355bcb3846c11437
cafe,cafe,Maluku Utara 97795,"Falahu, Kec. Sanana, Kabupaten Kepulauan Sula, Maluku Utara","Kabupaten Kepulauan Sula, Maluku Utara",MALUKU UTARA,,Indonesia,,-2.0613593,125.9823727,https://maps.google.com/?cid=0x0:0x25db49ff4002ccf8
cafe,Kedai Kopi,IN_TIME,"Mangon, Kec. Sanana, Kabupaten Kepulauan Sula, Maluku Utara 97795","Kec. Sanana, Kabupaten Kepulauan Sula",MALUKU UTARA,97795.0,Indonesia,81354636058.0,-2.0613406,125.982371,https://maps.google.com/?cid=0x0:0xec9669d250217c01
cafe,Pabrik Coklat,Serius coklat sula,"WXQM+J65 Al-qaidah, Falahu, Kec. Sanana, Kabupaten Kepulauan Sula, Maluku Utara","Kabupaten Kepulauan Sula, Maluku Utara",MALUKU UTARA,,Indonesia,82291140480.0,-2.0609786,125.9831008,https://maps.google.com/?cid=0x0:0x2bb57127a2f3acf3
cafe,Restoran,Spice Island Cafe,"Nusantara, Banda, Nusantara, Kec. Banda, Central Maluku Regency, Maluku","Central Maluku Regency, Maluku",MALUKU UTARA,,Indonesia,81321585332.0,-4.5254486,129.8971799,https://maps.google.com/?cid=0x0:0xd251109fef3fd171
cafe,Kafetaria,Santui Weda cafe,"8VJG+QQH, Fidi Jaya, Kec. Weda Tengah, Kabupaten Halmahera Tengah, Maluku Utara","Kabupaten Halmahera Tengah, Maluku Utara",MALUKU UTARA,,Indonesia,,0.331947,127.8768595,https://maps.google.com/?cid=0x0:0xb165a3589af98b92
cafe,Kedai Kopi,Mie Begadang Haibusa,"Fatce, Kec. Sanana, Kabupaten Kepulauan Sula, Maluku Utara 97795","Kec. Sanana, Kabupaten Kepulauan Sula",MALUKU UTARA,97795.0,Indonesia,,-2.0613406,125.982371,https://maps.google.com/?cid=0x0:0x506d12946d069858
cafe,Restoran,RM BUNDA,"WXQJ+MQF, Jl. A.K Syahlan, Falahu, Kec. Sanana, Kabupaten Kepulauan Sula, Maluku Utara","Kabupaten Kepulauan Sula, Maluku Utara",MALUKU UTARA,,Indonesia,82296675344.0,-2.0608231,125.9819256,https://maps.google.com/?cid=0x0:0xe8c572014b144ab7
cafe,cafe,Kec. Sulabesi Tengah,"Kabupaten Kepulauan Sula, Maluku Utara","Kabupaten Kepulauan Sula, Maluku Utara",MALUKU UTARA,,Indonesia,,-2.2660437,126.0041676,https://maps.google.com/?cid=0x0:0xfbd0a140fc92e4f2
cafe,Kedai Kopi,WaiBak Coffee,"XX6R+V37, Jl. Desa Pohea, MAN Gega, Kec. Sanana Utara, Kabupaten Kepulauan Sula, Maluku Utara","Kabupaten Kepulauan Sula, Maluku Utara",MALUKU UTARA,,Indonesia,,-2.0378271,125.9901857,https://maps.google.com/?cid=0x0:0xde6d50c390631794
cafe,Kedai Kopi,Kamfa Coffee,"Fatce, Kec. Sanana, Kabupaten Kepulauan Sula, Maluku Utara","Kabupaten Kepulauan Sula, Maluku Utara",MALUKU UTARA,,Indonesia,82393420972.0,-2.0635985,125.9824362,https://maps.google.com/?cid=0x0:0xc09d977959595517
cafe,Kedai Kopi,coffeeshop,"WXMJ+J6H, Jl. Jenderal Besar Soeharto, Fatce, Kec. Sanana, Kabupaten Kepulauan Sula, Maluku Utara","Kabupaten Kepulauan Sula, Maluku Utara",MALUKU UTARA,,Indonesia,82343874574.0,-2.0659349,125.9805966,https://maps.google.com/?cid=0x0:0x37cd2f787b5163de
cafe,Kafe,Js coffee,"WXPJ+H93, Fatce, Kec. Sanana, Kabupaten Kepulauan Sula, Maluku Utara","Kabupaten Kepulauan Sula, Maluku Utara",MALUKU UTARA,,Indonesia,,-2.063607,125.9809162,https://maps.google.com/?cid=0x0:0xc54b2b1e3bc96a81
cafe,Kedai Kopi,L-Ava Tasty,"Jl. R.A. Kartini, Waiguaben, Fogi, Sanana, Kepulauan Sula Regency, North Maluku 97795","Waiguaben, Fogi, Sanana, Kepulauan Sula Regency",MALUKU UTARA,97795.0,Indonesia,82189850788.0,-2.0736282,125.9774696,https://maps.google.com/?cid=0x0:0xa28e023feba67e42
cafe,Kafe,Beta Cafe,"WX7C+5V7, Jln, Wai Ipa, Kec. Sanana, Kabupaten Kepulauan Sula, Maluku Utara","Kabupaten Kepulauan Sula, Maluku Utara",MALUKU UTARA,,Indonesia,,-2.0870838,125.9721743,https://maps.google.com/?cid=0x0:0xc26aa6f70c96a8ff
cafe,Jawa,Rumah makan ibu Nurhayati yoisangadji,"H22J+5XG, Wailia, Kec. Sulabesi Timur, Kabupaten Kepulauan Sula, Maluku Utara","Kabupaten Kepulauan Sula, Maluku Utara",MALUKU UTARA,,Indonesia,,-2.4495613,126.0324596,https://maps.google.com/?cid=0x0:0x58099f871a8dcf45
cafe,Rumah Makan,Warung Bu Salma,"WXJJ+78R depan terminal, Fogi, Kec. Sanana, Kabupaten Kepulauan Sula, Maluku Utara","Kabupaten Kepulauan Sula, Maluku Utara",MALUKU UTARA,,Indonesia,82193777759.0,-2.0692702,125.9807755,https://maps.google.com/?cid=0x0:0xce88059b393e2710
cafe,cafe,Maluku Utara 97795,"Falahu, Kec. Sanana, Kabupaten Kepulauan Sula, Maluku Utara","Kabupaten Kepulauan Sula, Maluku Utara",MALUKU UTARA,,Indonesia,,-2.0613593,125.9823727,https://maps.google.com/?cid=0x0:0x25db49ff4002ccf8
cafe,Pabrik Coklat,Serius coklat sula,"WXQM+J65 Al-qaidah, Falahu, Kec. Sanana, Kabupaten Kepulauan Sula, Maluku Utara","Kabupaten Kepulauan Sula, Maluku Utara",MALUKU UTARA,,Indonesia,82291140480.0,-2.0609786,125.9831008,https://maps.google.com/?cid=0x0:0x2bb57127a2f3acf3
cafe,Kafe,Js coffee,"WXPJ+H93, Fatce, Kec. Sanana, Kabupaten Kepulauan Sula, Maluku Utara","Kabupaten Kepulauan Sula, Maluku Utara",MALUKU UTARA,,Indonesia,,-2.063607,125.9809162,https://maps.google.com/?cid=0x0:0xc54b2b1e3bc96a81
cafe,Kedai Kopi,coffeeshop,"WXMJ+J6H, Jl. Jenderal Besar Soeharto, Fatce, Kec. Sanana, Kabupaten Kepulauan Sula, Maluku Utara","Kabupaten Kepulauan Sula, Maluku Utara",MALUKU UTARA,,Indonesia,82343874574.0,-2.0659349,125.9805966,https://maps.google.com/?cid=0x0:0x37cd2f787b5163de
cafe,cafe,Maluku Utara 97795,"Falahu, Kec. Sanana, Kabupaten Kepulauan Sula, Maluku Utara","Kabupaten Kepulauan Sula, Maluku Utara",MALUKU UTARA,,Indonesia,,-2.0613593,125.9823727,https://maps.google.com/?cid=0x0:0x25db49ff4002ccf8
cafe,Kedai Kopi,IN_TIME,"Mangon, Kec. Sanana, Kabupaten Kepulauan Sula, Maluku Utara 97795","Kec. Sanana, Kabupaten Kepulauan Sula",MALUKU UTARA,97795.0,Indonesia,81354636058.0,-2.0613406,125.982371,https://maps.google.com/?cid=0x0:0xec9669d250217c01
cafe,Pabrik Coklat,Serius coklat sula,"WXQM+J65 Al-qaidah, Falahu, Kec. Sanana, Kabupaten Kepulauan Sula, Maluku Utara","Kabupaten Kepulauan Sula, Maluku Utara",MALUKU UTARA,,Indonesia,82291140480.0,-2.0609786,125.9831008,https://maps.google.com/?cid=0x0:0x2bb57127a2f3acf3
cafe,Kedai Kopi,Mie Begadang Haibusa,"Fatce, Kec. Sanana, Kabupaten Kepulauan Sula, Maluku Utara 97795","Kec. Sanana, Kabupaten Kepulauan Sula",MALUKU UTARA,97795.0,Indonesia,,-2.0613406,125.982371,https://maps.google.com/?cid=0x0:0x506d12946d069858
cafe,Kedai Kopi,coffeeshop,"WXMJ+J6H, Jl. Jenderal Besar Soeharto, Fatce, Kec. Sanana, Kabupaten Kepulauan Sula, Maluku Utara","Kabupaten Kepulauan Sula, Maluku Utara",MALUKU UTARA,,Indonesia,82343874574.0,-2.0659349,125.9805966,https://maps.google.com/?cid=0x0:0x37cd2f787b5163de
cafe,Kedai Kopi,WaiBak Coffee,"XX6R+V37, Jl. Desa Pohea, MAN Gega, Kec. Sanana Utara, Kabupaten Kepulauan Sula, Maluku Utara","Kabupaten Kepulauan Sula, Maluku Utara",MALUKU UTARA,,Indonesia,,-2.0378271,125.9901857,https://maps.google.com/?cid=0x0:0xde6d50c390631794
cafe,cafe,cafe mangoli,"6F7H+XQG, Falabisahaya, Mangoli Utara, Kabupaten Kepulauan Sula, Maluku Utara","Kabupaten Kepulauan Sula, Maluku Utara",MALUKU UTARA,,Indonesia,,-1.785059,125.4794404,https://maps.google.com/?cid=0x0:0x4e37abb8669bd1a1
cafe,cafe,Mangoli Utara,"Kabupaten Kepulauan Sula, Maluku Utara","Kabupaten Kepulauan Sula, Maluku Utara",MALUKU UTARA,,Indonesia,,-1.7870032,125.4804915,https://maps.google.com/?cid=0x0:0x821bd9ab23ff70b4
cafe,Kedai Kopi,Coffee Samudera,"6F7F+9QG, Falabisahaya, Mangoli Utara, Kabupaten Kepulauan Sula, Maluku Utara","Kabupaten Kepulauan Sula, Maluku Utara",MALUKU UTARA,,Indonesia,82348614028.0,-1.7865655,125.4744376,https://maps.google.com/?cid=0x0:0x881e12b1f1f20bcb
cafe,Komplek perumahan,Tempat ayosewa starlink,"6F43+364, Lekosula, Kec. Mangoli Bar., Kabupaten Kepulauan Sula, Maluku Utara","Kabupaten Kepulauan Sula, Maluku Utara",MALUKU UTARA,,Indonesia,,-1.7948549,125.4530787,https://maps.google.com/?cid=0x0:0x4ec50236ce30fba5
cafe,Toko bahan makanan,Kios FALA PUTRA net,"6F6P+V7R, Falabisahaya, Mangoli Utara, Kabupaten Kepulauan Sula, Maluku Utara","Kabupaten Kepulauan Sula, Maluku Utara",MALUKU UTARA,,Indonesia,82394753485.0,-1.7877596,125.48564,https://maps.google.com/?cid=0x0:0x6643158acdd76414
cafe,cafe,Kafe Alo,"6F6H+WM5, Falabisahaya, Mangoli Utara, Kabupaten Kepulauan Sula, Maluku Utara","Kabupaten Kepulauan Sula, Maluku Utara",MALUKU UTARA,,Indonesia,,-1.787748,125.479221,https://maps.google.com/?cid=0x0:0x46bf7ebd35786878
cafe,cafe,Kedai Kopi,"6F7J+43Q, Falabisahaya, Mangoli Utara, Kabupaten Kepulauan Sula, Maluku Utara","Kabupaten Kepulauan Sula, Maluku Utara",MALUKU UTARA,,Indonesia,,-1.7871651,125.4802427,https://maps.google.com/?cid=0x0:0x6e1f9fb1056bffaa
cafe,cafe,RAUF CAFE,"6F8G+PHC, Falabisahaya, Mangoli Utara, Kabupaten Kepulauan Sula, Maluku Utara","Kabupaten Kepulauan Sula, Maluku Utara",MALUKU UTARA,,Indonesia,,-1.783176,125.476395,https://maps.google.com/?cid=0x0:0x98f444838aac7ea4
cafe,cafe,cafe mangoli,"6F7H+XQG, Falabisahaya, Mangoli Utara, Kabupaten Kepulauan Sula, Maluku Utara","Kabupaten Kepulauan Sula, Maluku Utara",MALUKU UTARA,,Indonesia,,-1.785059,125.4794404,https://maps.google.com/?cid=0x0:0x4e37abb8669bd1a1
cafe,cafe,Kec. Mangoli Tengah,"Kabupaten Kepulauan Sula, Maluku Utara","Kabupaten Kepulauan Sula, Maluku Utara",MALUKU UTARA,,Indonesia,,-1.9272257,125.9383491,https://maps.google.com/?cid=0x0:0xa42c94bee3686447
cafe,Toko bahan makanan,KITA MART,"3W9J+6MJ, Jl. Lain, Mangoli, Kec. Mangoli Tengah, Kabupaten Kepulauan Sula, Maluku Utara","Kabupaten Kepulauan Sula, Maluku Utara",MALUKU UTARA,,Indonesia,85293097766.0,-1.9313195,125.9326808,https://maps.google.com/?cid=0x0:0x21ff8b2966d06aef
cafe,Minimarket,TOKO KITA,"3WFP+V4, Mangoli, Kec. Mangoli Tengah, Kabupaten Kepulauan Sula, Maluku Utara","Kabupaten Kepulauan Sula, Maluku Utara",MALUKU UTARA,,Indonesia,81243749219.0,-1.9253205,125.9353555,https://maps.google.com/?cid=0x0:0x4c32ab2f65abce8
cafe,cafe,RM BALAPAN SOLO,"5XGR+JHW, Mangoli, Kec. Mangoli Tengah, Kabupaten Kepulauan Sula, Maluku Utara","Kabupaten Kepulauan Sula, Maluku Utara",MALUKU UTARA,,Indonesia,,-1.8233938,125.9914384,https://maps.google.com/?cid=0x0:0x44b178cbe709f7a5
cafe,Toko bahan makanan,Kios Ayana,"3WCJ+G49, Mangoli, Kec. Mangoli Tengah, Kabupaten Kepulauan Sula, Maluku Utara","Kabupaten Kepulauan Sula, Maluku Utara",MALUKU UTARA,,Indonesia,82195835886.0,-1.9287049,125.9303675,https://maps.google.com/?cid=0x0:0x4446a07228a33cc6
cafe,Warnet,Soamole.net,"3QH9+R6, Baru Akol, Kec. Mangoli Tengah, Kabupaten Kepulauan Sula, Maluku Utara","Kabupaten Kepulauan Sula, Maluku Utara",MALUKU UTARA,,Indonesia,,-1.9204446,125.7680837,https://maps.google.com/?cid=0x0:0xcc5c557da8abbee7
cafe,cafe,Warung Estu Eco,"3WCP+849, Jl. Lain, Mangoli, Kec. Mangoli Tengah, Kabupaten Kepulauan Sula, Maluku Utara","Kabupaten Kepulauan Sula, Maluku Utara",MALUKU UTARA,,Indonesia,,-1.929211,125.9353457,https://maps.google.com/?cid=0x0:0xdee2567d3975754b
cafe,cafe,Toko MATANGTENGIN,"3WCJ+86R, Unnamed Road, Mangoli, Kec. Mangoli Tengah, Kabupaten Kepulauan Sula, Maluku Utara","Kabupaten Kepulauan Sula, Maluku Utara",MALUKU UTARA,,Indonesia,,-1.9291367,125.9305154,https://maps.google.com/?cid=0x0:0x8cb9e21762aae421
cafe,cafe,Warung makan,"3WGQ+2V9 dusun 3, Mangoli, Kec. Mangoli Tengah, Kabupaten Kepulauan Sula, Maluku Utara","Kabupaten Kepulauan Sula, Maluku Utara",MALUKU UTARA,,Indonesia,,-1.9249556,125.9397257,https://maps.google.com/?cid=0x0:0x5664e3244034bc99
cafe,cafe,Mangoli Utara Tim.,"Kabupaten Kepulauan Sula, Maluku Utara","Kabupaten Kepulauan Sula, Maluku Utara",MALUKU UTARA,,Indonesia,,-1.8414454,126.241388,https://maps.google.com/?cid=0x0:0x17e3b0f466e504e3
cafe,Kantor Keselamatan Publik,Tanjung suar dehekolano,"47P7+49Q, Jln. Hi. Daeng Mustafa, Waisakai, Mangoli Utara Tim., Kabupaten Kepulauan Sula, Maluku Utara","Kabupaten Kepulauan Sula, Maluku Utara",MALUKU UTARA,,Indonesia,,-1.8647588,126.2633185,https://maps.google.com/?cid=0x0:0x86555d048bea5ce
cafe,Ayam,Rumah aldy marsaoly,"4496+77W, Wai Tamela, Kec. Mangoli Tim., Kabupaten Kepulauan Sula, Maluku Utara","Kabupaten Kepulauan Sula, Maluku Utara",MALUKU UTARA,,Indonesia,,-1.8821741,126.1126372,https://maps.google.com/?cid=0x0:0x2447e7bc68dc8ed4
cafe,cafe,cafe mangoli,"6F7H+XQG, Falabisahaya, Mangoli Utara, Kabupaten Kepulauan Sula, Maluku Utara","Kabupaten Kepulauan Sula, Maluku Utara",MALUKU UTARA,,Indonesia,,-1.785059,125.4794404,https://maps.google.com/?cid=0x0:0x4e37abb8669bd1a1
cafe,cafe,Maluku Utara 97795,"Falahu, Kec. Sanana, Kabupaten Kepulauan Sula, Maluku Utara","Kabupaten Kepulauan Sula, Maluku Utara",MALUKU UTARA,,Indonesia,,-2.0613593,125.9823727,https://maps.google.com/?cid=0x0:0x25db49ff4002ccf8
cafe,Kafe,Waimua Coffee,"WXQM+FFX, Falahu, Kec. Sanana, Kabupaten Kepulauan Sula, Maluku Utara","Kabupaten Kepulauan Sula, Maluku Utara",MALUKU UTARA,,Indonesia,,-2.0612653,125.9837315,https://maps.google.com/?cid=0x0:0x9e2d7fce3f5b893f
cafe,Kedai Kopi,IN_TIME,"Mangon, Kec. Sanana, Kabupaten Kepulauan Sula, Maluku Utara 97795","Kec. Sanana, Kabupaten Kepulauan Sula",MALUKU UTARA,97795.0,Indonesia,81354636058.0,-2.0613406,125.982371,https://maps.google.com/?cid=0x0:0xec9669d250217c01
cafe,Kedai Kopi,WaiBak Coffee,"XX6R+V37, Jl. Desa Pohea, MAN Gega, Kec. Sanana Utara, Kabupaten Kepulauan Sula, Maluku Utara","Kabupaten Kepulauan Sula, Maluku Utara",MALUKU UTARA,,Indonesia,,-2.0378271,125.9901857,https://maps.google.com/?cid=0x0:0xde6d50c390631794
cafe,Kafe,Cafe Corona Fogi - Sanana,"WXJH+85W, Jl. Jenderal Besar Soeharto, Fogi, Kec. Sanana, Kabupaten Kepulauan Sula, Maluku Utara","Kabupaten Kepulauan Sula, Maluku Utara",MALUKU UTARA,,Indonesia,,-2.0691451,125.9779455,https://maps.google.com/?cid=0x0:0x2c730581a49a66b9
cafe,Kedai Kopi,Kedai aupon,"WXXQ+42C, Jl. Jenderal Besar Soeharto, Mangon, Kec. Sanana, Kabupaten Kepulauan Sula, Maluku Utara","Kabupaten Kepulauan Sula, Maluku Utara",MALUKU UTARA,,Indonesia,,-2.0521885,125.9875044,https://maps.google.com/?cid=0x0:0x7e677a1641849c4b
cafe,Pabrik Coklat,Serius coklat sula,"WXQM+J65 Al-qaidah, Falahu, Kec. Sanana, Kabupaten Kepulauan Sula, Maluku Utara","Kabupaten Kepulauan Sula, Maluku Utara",MALUKU UTARA,,Indonesia,82291140480.0,-2.0609786,125.9831008,https://maps.google.com/?cid=0x0:0x2bb57127a2f3acf3
cafe,Kafe,Js coffee,"WXPJ+H93, Fatce, Kec. Sanana, Kabupaten Kepulauan Sula, Maluku Utara","Kabupaten Kepulauan Sula, Maluku Utara",MALUKU UTARA,,Indonesia,,-2.063607,125.9809162,https://maps.google.com/?cid=0x0:0xc54b2b1e3bc96a81
cafe,Kedai Kopi,Kamfa Coffee,"Fatce, Kec. Sanana, Kabupaten Kepulauan Sula, Maluku Utara","Kabupaten Kepulauan Sula, Maluku Utara",MALUKU UTARA,,Indonesia,82393420972.0,-2.0635985,125.9824362,https://maps.google.com/?cid=0x0:0xc09d977959595517
cafe,Kedai Kopi,Warkop Fina Gauu,"WXQM+W85, Unnamed Road, Falahu, Kec. Sanana, Kabupaten Kepulauan Sula, Maluku Utara","Kabupaten Kepulauan Sula, Maluku Utara",MALUKU UTARA,,Indonesia,81244662066.0,-2.0602441,125.9833636,https://maps.google.com/?cid=0x0:0x69de2e2a68bfda03
cafe,Toko,Alya Mart,"WXRJ+3VG, Falahu, Kec. Sanana, Kabupaten Kepulauan Sula, Maluku Utara","Kabupaten Kepulauan Sula, Maluku Utara",MALUKU UTARA,,Indonesia,,-2.059804,125.9822097,https://maps.google.com/?cid=0x0:0x9f24780a49bf8142
cafe,Restoran,RM BUNDA,"WXQJ+MQF, Jl. A.K Syahlan, Falahu, Kec. Sanana, Kabupaten Kepulauan Sula, Maluku Utara","Kabupaten Kepulauan Sula, Maluku Utara",MALUKU UTARA,,Indonesia,82296675344.0,-2.0608231,125.9819256,https://maps.google.com/?cid=0x0:0xe8c572014b144ab7
cafe,Penginapan,Penginapan Desi,"WXVJ+R5X, Mangon, Kec. Sanana, Kabupaten Kepulauan Sula, Maluku Utara","Kabupaten Kepulauan Sula, Maluku Utara",MALUKU UTARA,,Indonesia,81242213705.0,-2.0553964,125.9804799,https://maps.google.com/?cid=0x0:0xe326f68110ab5c77
cafe,Kedai Kopi,Mie Begadang Haibusa,"Fatce, Kec. Sanana, Kabupaten Kepulauan Sula, Maluku Utara 97795","Kec. Sanana, Kabupaten Kepulauan Sula",MALUKU UTARA,97795.0,Indonesia,,-2.0613406,125.982371,https://maps.google.com/?cid=0x0:0x506d12946d069858
hotel,Pondok,DEVINDA D'COST,"5X95+5G2 Belakang POLRES, Mangoli, Kec. Mangoli Tengah, Kabupaten Kepulauan Sula, Maluku Utara","Kabupaten Kepulauan Sula, Maluku Utara",MALUKU UTARA,,Indonesia,82197218662.0,-1.8321222,125.958777,https://maps.google.com/?cid=0x0:0xca83187a7220410a
hotel,Penginapan,Penginapan Desi,"WXVJ+R5X, Mangon, Kec. Sanana, Kabupaten Kepulauan Sula, Maluku Utara","Kabupaten Kepulauan Sula, Maluku Utara",MALUKU UTARA,,Indonesia,81242213705.0,-2.0553964,125.9804799,https://maps.google.com/?cid=0x0:0xe326f68110ab5c77
hotel,hotel,Maluku Utara 97795,"Falahu, Kec. Sanana, Kabupaten Kepulauan Sula, Maluku Utara","Kabupaten Kepulauan Sula, Maluku Utara",MALUKU UTARA,,Indonesia,,-2.0613593,125.9823727,https://maps.google.com/?cid=0x0:0x25db49ff4002ccf8
hotel,Losmen,Penginapan Yuki Ona,"WXMJ+4PQ, Fatce, Kec. Sanana, Kabupaten Kepulauan Sula, Maluku Utara","Kabupaten Kepulauan Sula, Maluku Utara",MALUKU UTARA,,Indonesia,,-2.0671546,125.9818703,https://maps.google.com/?cid=0x0:0xb8f2c0e09b1988ad
hotel,Penginapan,Penginapan Desi,"WXVJ+R5X, Mangon, Kec. Sanana, Kabupaten Kepulauan Sula, Maluku Utara","Kabupaten Kepulauan Sula, Maluku Utara",MALUKU UTARA,,Indonesia,81242213705.0,-2.0553964,125.9804799,https://maps.google.com/?cid=0x0:0xe326f68110ab5c77
hotel,Guest house,Penginapan Wakatobi 2,"WXRJ+C32, Fagudu, Kec. Sanana, Kabupaten Kepulauan Sula, Maluku Utara","Kabupaten Kepulauan Sula, Maluku Utara",MALUKU UTARA,,Indonesia,82196512332.0,-2.0589942,125.9801436,https://maps.google.com/?cid=0x0:0x666bbbad60dc8855
hotel,hotel,Green Sula Hotel,"WXPJ+2VR, Fatce, Kec. Sanana, Kabupaten Kepulauan Sula, Maluku Utara","Kabupaten Kepulauan Sula, Maluku Utara",MALUKU UTARA,,Indonesia,,-2.064882,125.982128,https://maps.google.com/?cid=0x0:0x1c5747be88715389
hotel,hotel,Juliana Hotel,"Gamsungi, Kec. Tobelo, Kabupaten Halmahera Utara, Maluku Utara","Kabupaten Halmahera Utara, Maluku Utara",MALUKU UTARA,,Indonesia,82191159141.0,1.7272579,128.0105717,https://maps.google.com/?cid=0x0:0x97231ba37bd2cf65
hotel,hotel,Saloi inn,"3FXQ+VR2, Tedeng, Kec. Jailolo, Kabupaten Halmahera Barat, Maluku Utara","Kabupaten Halmahera Barat, Maluku Utara",MALUKU UTARA,,Indonesia,8111020812.0,1.0996348,127.4895301,https://maps.google.com/?cid=0x0:0x1139fc5cb3804c4
hotel,hotel,Maluku Utara 97795,"Falahu, Kec. Sanana, Kabupaten Kepulauan Sula, Maluku Utara","Kabupaten Kepulauan Sula, Maluku Utara",MALUKU UTARA,,Indonesia,,-2.0613593,125.9823727,https://maps.google.com/?cid=0x0:0x25db49ff4002ccf8
hotel,hotel,Saloi inn,"3FXQ+VR2, Tedeng, Kec. Jailolo, Kabupaten Halmahera Barat, Maluku Utara","Kabupaten Halmahera Barat, Maluku Utara",MALUKU UTARA,,Indonesia,8111020812.0,1.0996348,127.4895301,https://maps.google.com/?cid=0x0:0x1139fc5cb3804c4
hotel,hotel,Hotel Astonia Tobelo,"Gosoma, Kec. Tobelo, Kabupaten Halmahera Utara, Maluku Utara","Kabupaten Halmahera Utara, Maluku Utara",MALUKU UTARA,,Indonesia,9242621900.0,1.7223761,127.9947995,https://maps.google.com/?cid=0x0:0x99ff7dd9ff5c49af
hotel,Penginapan,Penginapan Desi,"WXVJ+R5X, Mangon, Kec. Sanana, Kabupaten Kepulauan Sula, Maluku Utara","Kabupaten Kepulauan Sula, Maluku Utara",MALUKU UTARA,,Indonesia,81242213705.0,-2.0553964,125.9804799,https://maps.google.com/?cid=0x0:0xe326f68110ab5c77
hotel,Pondok,Beliga Hotel,"Fagudu, Kec. Sanana, Kabupaten Kepulauan Sula, Maluku Utara","Kabupaten Kepulauan Sula, Maluku Utara",MALUKU UTARA,,Indonesia,82129005813.0,-2.0556949,125.9769118,https://maps.google.com/?cid=0x0:0x7b33914fa4208e39
hotel,Guest house,Penginapan Wakatobi 2,"WXRJ+C32, Fagudu, Kec. Sanana, Kabupaten Kepulauan Sula, Maluku Utara","Kabupaten Kepulauan Sula, Maluku Utara",MALUKU UTARA,,Indonesia,82196512332.0,-2.0589942,125.9801436,https://maps.google.com/?cid=0x0:0x666bbbad60dc8855
hotel,hotel,Green Sula Hotel,"WXPJ+2VR, Fatce, Kec. Sanana, Kabupaten Kepulauan Sula, Maluku Utara","Kabupaten Kepulauan Sula, Maluku Utara",MALUKU UTARA,,Indonesia,,-2.064882,125.982128,https://maps.google.com/?cid=0x0:0x1c5747be88715389
hotel,hotel,Kec. Mangoli Bar.,"Kabupaten Kepulauan Sula, Maluku Utara","Kabupaten Kepulauan Sula, Maluku Utara",MALUKU UTARA,,Indonesia,,-1.8071861,125.3556926,https://maps.google.com/?cid=0x0:0x9235093942d7b06a
hotel,Pondok,Beliga Hotel,"Fagudu, Kec. Sanana, Kabupaten Kepulauan Sula, Maluku Utara","Kabupaten Kepulauan Sula, Maluku Utara",MALUKU UTARA,,Indonesia,82129005813.0,-2.0556949,125.9769118,https://maps.google.com/?cid=0x0:0x7b33914fa4208e39
hotel,Penginapan,Penginapan Desi,"WXVJ+R5X, Mangon, Kec. Sanana, Kabupaten Kepulauan Sula, Maluku Utara","Kabupaten Kepulauan Sula, Maluku Utara",MALUKU UTARA,,Indonesia,81242213705.0,-2.0553964,125.9804799,https://maps.google.com/?cid=0x0:0xe326f68110ab5c77
hotel,Rumah wisata,Penginapan Surya pagi Falabisahaya,"6F6P+V7R, Falabisahaya, Mangoli Utara, Kabupaten Kepulauan Sula, Maluku Utara","Kabupaten Kepulauan Sula, Maluku Utara",MALUKU UTARA,,Indonesia,,-1.7874338,125.485645,https://maps.google.com/?cid=0x0:0x6b54f8c07b8e682d
hotel,hotel,Juliana Hotel,"Gamsungi, Kec. Tobelo, Kabupaten Halmahera Utara, Maluku Utara","Kabupaten Halmahera Utara, Maluku Utara",MALUKU UTARA,,Indonesia,82191159141.0,1.7272579,128.0105717,https://maps.google.com/?cid=0x0:0x97231ba37bd2cf65
hotel,hotel,Maluku Utara 97795,"Falahu, Kec. Sanana, Kabupaten Kepulauan Sula, Maluku Utara","Kabupaten Kepulauan Sula, Maluku Utara",MALUKU UTARA,,Indonesia,,-2.0613593,125.9823727,https://maps.google.com/?cid=0x0:0x25db49ff4002ccf8
hotel,hotel,Saloi inn,"3FXQ+VR2, Tedeng, Kec. Jailolo, Kabupaten Halmahera Barat, Maluku Utara","Kabupaten Halmahera Barat, Maluku Utara",MALUKU UTARA,,Indonesia,8111020812.0,1.0996348,127.4895301,https://maps.google.com/?cid=0x0:0x1139fc5cb3804c4
hotel,hotel,New Elshinta Hotel,"Jl. Pahlawan Revolusi No.58-60, Gamalama, Kec. Ternate Tengah, Kota Ternate, Maluku Utara 97721","Gamalama, Kec. Ternate Tengah, Kota Ternate",MALUKU UTARA,97721.0,Indonesia,9213121059.0,0.7876913,127.3886475,https://maps.google.com/?cid=0x0:0x389548d6595850cd
hotel,hotel,Kec. Sulabesi Tengah,"Kabupaten Kepulauan Sula, Maluku Utara","Kabupaten Kepulauan Sula, Maluku Utara",MALUKU UTARA,,Indonesia,,-2.2660437,126.0041676,https://maps.google.com/?cid=0x0:0xfbd0a140fc92e4f2
hotel,Penginapan,Qit Hotel,"WX79+VR4, Wai Ipa, Kec. Sanana, Kabupaten Kepulauan Sula, Maluku Utara","Kabupaten Kepulauan Sula, Maluku Utara",MALUKU UTARA,,Indonesia,,-2.0853552,125.9695753,https://maps.google.com/?cid=0x0:0x88f1ec1325557eeb
hotel,Losmen,Penginapan Yuki Ona,"WXMJ+4PQ, Fatce, Kec. Sanana, Kabupaten Kepulauan Sula, Maluku Utara","Kabupaten Kepulauan Sula, Maluku Utara",MALUKU UTARA,,Indonesia,,-2.0671546,125.9818703,https://maps.google.com/?cid=0x0:0xb8f2c0e09b1988ad
hotel,Penginapan,Penginapan Desi,"WXVJ+R5X, Mangon, Kec. Sanana, Kabupaten Kepulauan Sula, Maluku Utara","Kabupaten Kepulauan Sula, Maluku Utara",MALUKU UTARA,,Indonesia,81242213705.0,-2.0553964,125.9804799,https://maps.google.com/?cid=0x0:0xe326f68110ab5c77
hotel,Pondok,Beliga Hotel,"Fagudu, Kec. Sanana, Kabupaten Kepulauan Sula, Maluku Utara","Kabupaten Kepulauan Sula, Maluku Utara",MALUKU UTARA,,Indonesia,82129005813.0,-2.0556949,125.9769118,https://maps.google.com/?cid=0x0:0x7b33914fa4208e39
hotel,Gedung Apartemen,CENTRO PARK RESIDENCE,"Jl. Soekarno Hatta No.168, Fatce, Kec. Sanana, Kabupaten Kepulauan Sula, Maluku Utara 97795","Fatce, Kec. Sanana, Kabupaten Kepulauan Sula",MALUKU UTARA,97795.0,Indonesia,,-2.0671663,125.9817329,https://maps.google.com/?cid=0x0:0x554f6abfdc6685d
hotel,Pondok,Penginapan Sulawesi,"WXPM+Q4W, Fatce, Kec. Sanana, Kabupaten Kepulauan Sula, Maluku Utara","Kabupaten Kepulauan Sula, Maluku Utara",MALUKU UTARA,,Indonesia,81241094373.0,-2.0630175,125.9828369,https://maps.google.com/?cid=0x0:0xa68fa63a2b9c242c
hotel,Guest house,Penginapan Wakatobi 2,"WXRJ+C32, Fagudu, Kec. Sanana, Kabupaten Kepulauan Sula, Maluku Utara","Kabupaten Kepulauan Sula, Maluku Utara",MALUKU UTARA,,Indonesia,82196512332.0,-2.0589942,125.9801436,https://maps.google.com/?cid=0x0:0x666bbbad60dc8855
hotel,Hotel,Namrole Wamosisi,"WXHG+3FG, Unnamed Road, Fogi, Kec. Sanana, Kabupaten Kepulauan Sula, Maluku Utara","Kabupaten Kepulauan Sula, Maluku Utara",MALUKU UTARA,,Indonesia,,-2.0723075,125.9762145,https://maps.google.com/?cid=0x0:0x182797a668f8ebb4
hotel,Rumah wisata,Rumahnya Baim,"XXW8+6V5, Pohea, Kec. Sanana Utara, Kabupaten Kepulauan Sula, Maluku Utara","Kabupaten Kepulauan Sula, Maluku Utara",MALUKU UTARA,,Indonesia,,-2.005083,125.9673991,https://maps.google.com/?cid=0x0:0xc3d5e5d62da9ec
hotel,hotel,Kec. Sulabesi Timur,"Kabupaten Kepulauan Sula, Maluku Utara","Kabupaten Kepulauan Sula, Maluku Utara",MALUKU UTARA,,Indonesia,,-2.3972103,126.0597014,https://maps.google.com/?cid=0x0:0xb7e818da71ae9c3d
hotel,Pondok,Beliga Hotel,"Fagudu, Kec. Sanana, Kabupaten Kepulauan Sula, Maluku Utara","Kabupaten Kepulauan Sula, Maluku Utara",MALUKU UTARA,,Indonesia,82129005813.0,-2.0556949,125.9769118,https://maps.google.com/?cid=0x0:0x7b33914fa4208e39
hotel,Penginapan,Penginapan Desi,"WXVJ+R5X, Mangon, Kec. Sanana, Kabupaten Kepulauan Sula, Maluku Utara","Kabupaten Kepulauan Sula, Maluku Utara",MALUKU UTARA,,Indonesia,81242213705.0,-2.0553964,125.9804799,https://maps.google.com/?cid=0x0:0xe326f68110ab5c77
hotel,hotel,Green Sula Hotel,"WXPJ+2VR, Fatce, Kec. Sanana, Kabupaten Kepulauan Sula, Maluku Utara","Kabupaten Kepulauan Sula, Maluku Utara",MALUKU UTARA,,Indonesia,,-2.064882,125.982128,https://maps.google.com/?cid=0x0:0x1c5747be88715389
hotel,hotel,Maluku Utara 97795,"Falahu, Kec. Sanana, Kabupaten Kepulauan Sula, Maluku Utara","Kabupaten Kepulauan Sula, Maluku Utara",MALUKU UTARA,,Indonesia,,-2.0613593,125.9823727,https://maps.google.com/?cid=0x0:0x25db49ff4002ccf8
hotel,hotel,Maluku Utara 97795,"Falahu, Kec. Sanana, Kabupaten Kepulauan Sula, Maluku Utara","Kabupaten Kepulauan Sula, Maluku Utara",MALUKU UTARA,,Indonesia,,-2.0613593,125.9823727,https://maps.google.com/?cid=0x0:0x25db49ff4002ccf8
hotel,Penginapan,Penginapan Desi,"WXVJ+R5X, Mangon, Kec. Sanana, Kabupaten Kepulauan Sula, Maluku Utara","Kabupaten Kepulauan Sula, Maluku Utara",MALUKU UTARA,,Indonesia,81242213705.0,-2.0553964,125.9804799,https://maps.google.com/?cid=0x0:0xe326f68110ab5c77
hotel,Pondok,Beliga Hotel,"Fagudu, Kec. Sanana, Kabupaten Kepulauan Sula, Maluku Utara","Kabupaten Kepulauan Sula, Maluku Utara",MALUKU UTARA,,Indonesia,82129005813.0,-2.0556949,125.9769118,https://maps.google.com/?cid=0x0:0x7b33914fa4208e39
hotel,hotel,Green Sula Hotel,"WXPJ+2VR, Fatce, Kec. Sanana, Kabupaten Kepulauan Sula, Maluku Utara","Kabupaten Kepulauan Sula, Maluku Utara",MALUKU UTARA,,Indonesia,,-2.064882,125.982128,https://maps.google.com/?cid=0x0:0x1c5747be88715389
hotel,hotel,Mangoli Utara,"Kabupaten Kepulauan Sula, Maluku Utara","Kabupaten Kepulauan Sula, Maluku Utara",MALUKU UTARA,,Indonesia,,-1.7870032,125.4804915,https://maps.google.com/?cid=0x0:0x821bd9ab23ff70b4
hotel,hotel,Bianda Hotel,"P2G6+VGM, Jl. Kemakmuran, Gamsungi, Kec. Tobelo, Kabupaten Halmahera Utara, Maluku Utara","Kabupaten Halmahera Utara, Maluku Utara",MALUKU UTARA,,Indonesia,,1.7272204,128.011288,https://maps.google.com/?cid=0x0:0x94545d064d6051e5
hotel,hotel,Juliana Hotel,"Gamsungi, Kec. Tobelo, Kabupaten Halmahera Utara, Maluku Utara","Kabupaten Halmahera Utara, Maluku Utara",MALUKU UTARA,,Indonesia,82191159141.0,1.7272579,128.0105717,https://maps.google.com/?cid=0x0:0x97231ba37bd2cf65
hotel,hotel,Hotel Astonia Tobelo,"Gosoma, Kec. Tobelo, Kabupaten Halmahera Utara, Maluku Utara","Kabupaten Halmahera Utara, Maluku Utara",MALUKU UTARA,,Indonesia,9242621900.0,1.7223761,127.9947995,https://maps.google.com/?cid=0x0:0x99ff7dd9ff5c49af
hotel,hotel,Johana Hotel,"P2F6+F4F, Gosoma, Kec. Tobelo, Kabupaten Halmahera Utara, Maluku Utara","Kabupaten Halmahera Utara, Maluku Utara",MALUKU UTARA,,Indonesia,9242623343.0,1.7236844,128.0102915,https://maps.google.com/?cid=0x0:0x1b997a52170a6c31
hotel,hotel,D'Lodge Village Tobelo,"PXFM+G47, Jl Dukono, Gamsungi, Kec. Tobelo, Kabupaten Halmahera Utara, Maluku Utara","Kabupaten Halmahera Utara, Maluku Utara",MALUKU UTARA,,Indonesia,82187899793.0,1.7237953,127.9828016,https://maps.google.com/?cid=0x0:0x97255e7444041343
hotel,hotel,Wisma Mulia,"P286+P48, Rawajaya, Kec. Tobelo, Kabupaten Halmahera Utara, Maluku Utara","Kabupaten Halmahera Utara, Maluku Utara",MALUKU UTARA,,Indonesia,,1.7167897,128.0103356,https://maps.google.com/?cid=0x0:0x611811aff0d3d758
hotel,Apartemen sewa liburan,WISMA AQUI,"Lokasi Pelabuhan, Falabisahaya",,MALUKU UTARA,,Indonesia,81355777705.0,-1.7885819,125.4837688,https://maps.google.com/?cid=0x0:0xc266b4d4f01f65c0
hotel,hotel,Iman Kost,"6F8J+4FC, Falabisahaya, Mangoli Utara, Kabupaten Kepulauan Sula, Maluku Utara","Kabupaten Kepulauan Sula, Maluku Utara",MALUKU UTARA,,Indonesia,81354689060.0,-1.7835077,125.4805856,https://maps.google.com/?cid=0x0:0xfe52f4c30a5a9f19
hotel,hotel,Kec. Mangoli Tengah,"Kabupaten Kepulauan Sula, Maluku Utara","Kabupaten Kepulauan Sula, Maluku Utara",MALUKU UTARA,,Indonesia,,-1.9272257,125.9383491,https://maps.google.com/?cid=0x0:0xa42c94bee3686447
hotel,Rumah wisata,Kostan ilham,"3WFP+V4, Mangoli, Kec. Mangoli Tengah, Kabupaten Kepulauan Sula, Maluku Utara","Kabupaten Kepulauan Sula, Maluku Utara",MALUKU UTARA,,Indonesia,,-1.9253504,125.9352992,https://maps.google.com/?cid=0x0:0x328109aa5b5ff025
hotel,Pondok,DEVINDA D'COST,"5X95+5G2 Belakang POLRES, Mangoli, Kec. Mangoli Tengah, Kabupaten Kepulauan Sula, Maluku Utara","Kabupaten Kepulauan Sula, Maluku Utara",MALUKU UTARA,,Indonesia,82197218662.0,-1.8321222,125.958777,https://maps.google.com/?cid=0x0:0xca83187a7220410a
hotel,hotel,Johana Hotel,"P2F6+F4F, Gosoma, Kec. Tobelo, Kabupaten Halmahera Utara, Maluku Utara","Kabupaten Halmahera Utara, Maluku Utara",MALUKU UTARA,,Indonesia,9242623343.0,1.7236844,128.0102915,https://maps.google.com/?cid=0x0:0x1b997a52170a6c31
hotel,hotel,Hotel Astonia Tobelo,"Gosoma, Kec. Tobelo, Kabupaten Halmahera Utara, Maluku Utara","Kabupaten Halmahera Utara, Maluku Utara",MALUKU UTARA,,Indonesia,9242621900.0,1.7223761,127.9947995,https://maps.google.com/?cid=0x0:0x99ff7dd9ff5c49af
hotel,Pondok,Penginapan Widy,"WXWH+489, Mangon, Kec. Sanana, Kabupaten Kepulauan Sula, Maluku Utara","Kabupaten Kepulauan Sula, Maluku Utara",MALUKU UTARA,,Indonesia,82297866014.0,-2.0547143,125.9783632,https://maps.google.com/?cid=0x0:0x5c4e5a310d8d2c5a
hotel,Penginapan,Penginapan Desi,"WXVJ+R5X, Mangon, Kec. Sanana, Kabupaten Kepulauan Sula, Maluku Utara","Kabupaten Kepulauan Sula, Maluku Utara",MALUKU UTARA,,Indonesia,81242213705.0,-2.0553964,125.9804799,https://maps.google.com/?cid=0x0:0xe326f68110ab5c77
hotel,Pondok,Beliga Hotel,"Fagudu, Kec. Sanana, Kabupaten Kepulauan Sula, Maluku Utara","Kabupaten Kepulauan Sula, Maluku Utara",MALUKU UTARA,,Indonesia,82129005813.0,-2.0556949,125.9769118,https://maps.google.com/?cid=0x0:0x7b33914fa4208e39
hotel,Pondok,Beliga Hotel,"Fagudu, Kec. Sanana, Kabupaten Kepulauan Sula, Maluku Utara","Kabupaten Kepulauan Sula, Maluku Utara",MALUKU UTARA,,Indonesia,82129005813.0,-2.0556949,125.9769118,https://maps.google.com/?cid=0x0:0x7b33914fa4208e39
hotel,Penginapan,Penginapan Desi,"WXVJ+R5X, Mangon, Kec. Sanana, Kabupaten Kepulauan Sula, Maluku Utara","Kabupaten Kepulauan Sula, Maluku Utara",MALUKU UTARA,,Indonesia,81242213705.0,-2.0553964,125.9804799,https://maps.google.com/?cid=0x0:0xe326f68110ab5c77
hotel,Kios,Kios Finia Beliga,"WXVH+X9C, Fagudu, Kec. Sanana, Kabupaten Kepulauan Sula, Maluku Utara","Kabupaten Kepulauan Sula, Maluku Utara",MALUKU UTARA,,Indonesia,82298879044.0,-2.0558156,125.9784533,https://maps.google.com/?cid=0x0:0x9c227c9870691c2d
hotel,hotel,Maluku Utara 97795,"Falahu, Kec. Sanana, Kabupaten Kepulauan Sula, Maluku Utara","Kabupaten Kepulauan Sula, Maluku Utara",MALUKU UTARA,,Indonesia,,-2.0613593,125.9823727,https://maps.google.com/?cid=0x0:0x25db49ff4002ccf8
hotel,hotel,Bianda Hotel,"P2G6+VGM, Jl. Kemakmuran, Gamsungi, Kec. Tobelo, Kabupaten Halmahera Utara, Maluku Utara","Kabupaten Halmahera Utara, Maluku Utara",MALUKU UTARA,,Indonesia,,1.7272204,128.011288,https://maps.google.com/?cid=0x0:0x94545d064d6051e5
hotel,hotel,Juliana Hotel,"Gamsungi, Kec. Tobelo, Kabupaten Halmahera Utara, Maluku Utara","Kabupaten Halmahera Utara, Maluku Utara",MALUKU UTARA,,Indonesia,82191159141.0,1.7272579,128.0105717,https://maps.google.com/?cid=0x0:0x97231ba37bd2cf65
hotel,hotel,Hotel Astonia Tobelo,"Gosoma, Kec. Tobelo, Kabupaten Halmahera Utara, Maluku Utara","Kabupaten Halmahera Utara, Maluku Utara",MALUKU UTARA,,Indonesia,9242621900.0,1.7223761,127.9947995,https://maps.google.com/?cid=0x0:0x99ff7dd9ff5c49af
hotel,hotel,Saloi inn,"3FXQ+VR2, Tedeng, Kec. Jailolo, Kabupaten Halmahera Barat, Maluku Utara","Kabupaten Halmahera Barat, Maluku Utara",MALUKU UTARA,,Indonesia,8111020812.0,1.0996348,127.4895301,https://maps.google.com/?cid=0x0:0x1139fc5cb3804c4
hotel,hotel,Hotel Elizabeth,"Jl. Kemakmuran, Gura, Kec. Tobelo, Kabupaten Halmahera Utara, Maluku Utara 97762","Gura, Kec. Tobelo, Kabupaten Halmahera Utara",MALUKU UTARA,97762.0,Indonesia,,1.7308941,128.0102163,https://maps.google.com/?cid=0x0:0x64ae6c4240cbb4c7
hotel,hotel,Wisma Mulia,"P286+P48, Rawajaya, Kec. Tobelo, Kabupaten Halmahera Utara, Maluku Utara","Kabupaten Halmahera Utara, Maluku Utara",MALUKU UTARA,,Indonesia,,1.7167897,128.0103356,https://maps.google.com/?cid=0x0:0x611811aff0d3d758
hotel,Penginapan,Penginapan Desi,"WXVJ+R5X, Mangon, Kec. Sanana, Kabupaten Kepulauan Sula, Maluku Utara","Kabupaten Kepulauan Sula, Maluku Utara",MALUKU UTARA,,Indonesia,81242213705.0,-2.0553964,125.9804799,https://maps.google.com/?cid=0x0:0xe326f68110ab5c77
hotel,Losmen,Penginapan Yuki Ona,"WXMJ+4PQ, Fatce, Kec. Sanana, Kabupaten Kepulauan Sula, Maluku Utara","Kabupaten Kepulauan Sula, Maluku Utara",MALUKU UTARA,,Indonesia,,-2.0671546,125.9818703,https://maps.google.com/?cid=0x0:0xb8f2c0e09b1988ad
hotel,Pondok,Beliga Hotel,"Fagudu, Kec. Sanana, Kabupaten Kepulauan Sula, Maluku Utara","Kabupaten Kepulauan Sula, Maluku Utara",MALUKU UTARA,,Indonesia,82129005813.0,-2.0556949,125.9769118,https://maps.google.com/?cid=0x0:0x7b33914fa4208e39
hotel,Guest house,Penginapan Wakatobi 2,"WXRJ+C32, Fagudu, Kec. Sanana, Kabupaten Kepulauan Sula, Maluku Utara","Kabupaten Kepulauan Sula, Maluku Utara",MALUKU UTARA,,Indonesia,82196512332.0,-2.0589942,125.9801436,https://maps.google.com/?cid=0x0:0x666bbbad60dc8855
hotel,hotel,Green Sula Hotel,"WXPJ+2VR, Fatce, Kec. Sanana, Kabupaten Kepulauan Sula, Maluku Utara","Kabupaten Kepulauan Sula, Maluku Utara",MALUKU UTARA,,Indonesia,,-2.064882,125.982128,https://maps.google.com/?cid=0x0:0x1c5747be88715389
restaurant,restaurant,Kec. Mangoli Tim.,"Kabupaten Kepulauan Sula, Maluku Utara","Kabupaten Kepulauan Sula, Maluku Utara",MALUKU UTARA,,Indonesia,,-1.9120347,125.9824503,https://maps.google.com/?cid=0x0:0x8b05f627cf49bd0a
restaurant,restaurant,RM BALAPAN SOLO,"5XGR+JHW, Mangoli, Kec. Mangoli Tengah, Kabupaten Kepulauan Sula, Maluku Utara","Kabupaten Kepulauan Sula, Maluku Utara",MALUKU UTARA,,Indonesia,,-1.8233938,125.9914384,https://maps.google.com/?cid=0x0:0x44b178cbe709f7a5
restaurant,Kedai Kopi,Rumah Al bhory Marsaoly,"4497+F3, Wai Tamela, Kec. Mangoli Tim., Kabupaten Kepulauan Sula, Maluku Utara","Kabupaten Kepulauan Sula, Maluku Utara",MALUKU UTARA,,Indonesia,,-1.8813381,126.1127066,https://maps.google.com/?cid=0x0:0xdfadfd6c7de8bc96
restaurant,restaurant,Warung makan,"3WGQ+2V9 dusun 3, Mangoli, Kec. Mangoli Tengah, Kabupaten Kepulauan Sula, Maluku Utara","Kabupaten Kepulauan Sula, Maluku Utara",MALUKU UTARA,,Indonesia,,-1.9249556,125.9397257,https://maps.google.com/?cid=0x0:0x5664e3244034bc99
restaurant,restaurant,Maluku Utara 97795,"Falahu, Kec. Sanana, Kabupaten Kepulauan Sula, Maluku Utara","Kabupaten Kepulauan Sula, Maluku Utara",MALUKU UTARA,,Indonesia,,-2.0613593,125.9823727,https://maps.google.com/?cid=0x0:0x25db49ff4002ccf8
restaurant,Rumah Makan,Resto Benteng,"WXVJ+Q8F, Mangon, Kec. Sanana, Kabupaten Kepulauan Sula, Maluku Utara","Kabupaten Kepulauan Sula, Maluku Utara",MALUKU UTARA,,Indonesia,,-2.0555533,125.9808036,https://maps.google.com/?cid=0x0:0x5c9c51fdbc5f5028
restaurant,Restoran,RM BUNDA,"WXQJ+MQF, Jl. A.K Syahlan, Falahu, Kec. Sanana, Kabupaten Kepulauan Sula, Maluku Utara","Kabupaten Kepulauan Sula, Maluku Utara",MALUKU UTARA,,Indonesia,82296675344.0,-2.0608231,125.9819256,https://maps.google.com/?cid=0x0:0xe8c572014b144ab7
restaurant,Penginapan,Penginapan Desi,"WXVJ+R5X, Mangon, Kec. Sanana, Kabupaten Kepulauan Sula, Maluku Utara","Kabupaten Kepulauan Sula, Maluku Utara",MALUKU UTARA,,Indonesia,81242213705.0,-2.0553964,125.9804799,https://maps.google.com/?cid=0x0:0xe326f68110ab5c77
restaurant,Kedai Kopi,Mie Begadang Haibusa,"Fatce, Kec. Sanana, Kabupaten Kepulauan Sula, Maluku Utara 97795","Kec. Sanana, Kabupaten Kepulauan Sula",MALUKU UTARA,97795.0,Indonesia,,-2.0613406,125.982371,https://maps.google.com/?cid=0x0:0x506d12946d069858
restaurant,Padang,warung makan mama ani,"WXHH+RQ4, Fogi, Kec. Sanana, lauh, Maluku Utara 97796","Fogi, Kec. Sanana, lauh",MALUKU UTARA,97796.0,Indonesia,,-2.07048,125.9794625,https://maps.google.com/?cid=0x0:0x1d180680fb2734f2
restaurant,Kedai Kopi,WaiBak Coffee,"XX6R+V37, Jl. Desa Pohea, MAN Gega, Kec. Sanana Utara, Kabupaten Kepulauan Sula, Maluku Utara","Kabupaten Kepulauan Sula, Maluku Utara",MALUKU UTARA,,Indonesia,,-2.0378271,125.9901857,https://maps.google.com/?cid=0x0:0xde6d50c390631794
restaurant,restaurant,Maluku Utara 97795,"Falahu, Kec. Sanana, Kabupaten Kepulauan Sula, Maluku Utara","Kabupaten Kepulauan Sula, Maluku Utara",MALUKU UTARA,,Indonesia,,-2.0613593,125.9823727,https://maps.google.com/?cid=0x0:0x25db49ff4002ccf8
restaurant,Restoran,RM BUNDA,"WXQJ+MQF, Jl. A.K Syahlan, Falahu, Kec. Sanana, Kabupaten Kepulauan Sula, Maluku Utara","Kabupaten Kepulauan Sula, Maluku Utara",MALUKU UTARA,,Indonesia,82296675344.0,-2.0608231,125.9819256,https://maps.google.com/?cid=0x0:0xe8c572014b144ab7
restaurant,Kedai Kopi,Mie Begadang Haibusa,"Fatce, Kec. Sanana, Kabupaten Kepulauan Sula, Maluku Utara 97795","Kec. Sanana, Kabupaten Kepulauan Sula",MALUKU UTARA,97795.0,Indonesia,,-2.0613406,125.982371,https://maps.google.com/?cid=0x0:0x506d12946d069858
restaurant,restaurant,Warung makan tradisional sula,"WXQM+H67, Jl. Soekarno Hatta, Falahu, Kec. Sanana, Kabupaten Kepulauan Sula, Maluku Utara","Kabupaten Kepulauan Sula, Maluku Utara",MALUKU UTARA,,Indonesia,,-2.0610853,125.9830369,https://maps.google.com/?cid=0x0:0x33a52a025e77e2ae
restaurant,Padang,Resto aurelya,"falahu, pantai, timbunan, Kec. Sanana, Kabupaten Kepulauan Sula, Maluku Utara 97795","pantai, timbunan, Kec. Sanana, Kabupaten Kepulauan Sula",MALUKU UTARA,97795.0,Indonesia,82176513171.0,-2.0606101,125.9833705,https://maps.google.com/?cid=0x0:0x70d6e199259a54da
restaurant,Rumah Makan,Resto Benteng,"WXVJ+Q8F, Mangon, Kec. Sanana, Kabupaten Kepulauan Sula, Maluku Utara","Kabupaten Kepulauan Sula, Maluku Utara",MALUKU UTARA,,Indonesia,,-2.0555533,125.9808036,https://maps.google.com/?cid=0x0:0x5c9c51fdbc5f5028
restaurant,Jawa,Warung Makan Firdaus,"WXHH+RQQ, Fogi, Kec. Sanana, Kabupaten Kepulauan Sula, Maluku Utara","Kabupaten Kepulauan Sula, Maluku Utara",MALUKU UTARA,,Indonesia,82290573650.0,-2.0704181,125.9794743,https://maps.google.com/?cid=0x0:0x6bbea28e6943ac58
restaurant,Restoran,RM. Ananda,"WXMJ+332, Fatce, Kec. Sanana, Kabupaten Kepulauan Sula, Maluku Utara","Kabupaten Kepulauan Sula, Maluku Utara",MALUKU UTARA,,Indonesia,,-2.0673606,125.9801426,https://maps.google.com/?cid=0x0:0x4636d98de38e8447
restaurant,Restoran,RM. Cita Rasa,"Jl. Trans Sula, Fagudu, Kec. Sanana, Kabupaten Kepulauan Sula, Maluku Utara","Kabupaten Kepulauan Sula, Maluku Utara",MALUKU UTARA,,Indonesia,,-2.05881,125.9806682,https://maps.google.com/?cid=0x0:0xb7c035f9a48d7666
restaurant,Rumah Makan,Warung Makan Lesehan,"WXXR+X2W, Mangon, Kec. Sanana, Kabupaten Kepulauan Sula, Maluku Utara","Kabupaten Kepulauan Sula, Maluku Utara",MALUKU UTARA,,Indonesia,,-2.050005,125.990063,https://maps.google.com/?cid=0x0:0xce9484bfac08f551
restaurant,Padang,RUMAH MAKAN,"WXPJ+9CG, Jl. Jenderal Besar Soeharto, Fatce, Kec. Sanana, Kabupaten Kepulauan Sula, Maluku Utara","Kabupaten Kepulauan Sula, Maluku Utara",MALUKU UTARA,,Indonesia,,-2.0640745,125.9810695,https://maps.google.com/?cid=0x0:0xa913dadf6f0b21b2
restaurant,Jawa,Warung sula sunda,"Jl. Kantor, Pelabuhan, Sanana, Kepulauan Sula Regency, North Maluku 64472","Pelabuhan, Sanana, Kepulauan Sula Regency",MALUKU UTARA,64472.0,Indonesia,85342802360.0,-2.0691681,125.9790065,https://maps.google.com/?cid=0x0:0xbbb8e1cdb66cceb7
restaurant,Rumah Makan,Warung Bu Salma,"WXJJ+78R depan terminal, Fogi, Kec. Sanana, Kabupaten Kepulauan Sula, Maluku Utara","Kabupaten Kepulauan Sula, Maluku Utara",MALUKU UTARA,,Indonesia,82193777759.0,-2.0692702,125.9807755,https://maps.google.com/?cid=0x0:0xce88059b393e2710
restaurant,Jawa,D'Cafe,"Swering, Mangon, Kec. Sanana, Kabupaten Kepulauan Sula, Maluku Utara 97795","Mangon, Kec. Sanana, Kabupaten Kepulauan Sula",MALUKU UTARA,97795.0,Indonesia,82188622959.0,-2.0497225,125.9902172,https://maps.google.com/?cid=0x0:0x6fee1ab6d73f9020
restaurant,restaurant,Warung makan Mentari,"59R4+MP2, Dofa, Kec. Mangoli Bar., Kabupaten Kepulauan Sula, Maluku Utara","Kabupaten Kepulauan Sula, Maluku Utara",MALUKU UTARA,,Indonesia,,-1.8074844,125.3570907,https://maps.google.com/?cid=0x0:0x990291f12acff3b9
restaurant,restaurant,Maluku Utara,,Maluku Utara,MALUKU UTARA,,Indonesia,,1.5709993,127.8087693,https://maps.google.com/?cid=0x0:0x1030bfbcaf71ac0
restaurant,Hidangan Laut,SMORGAN Resto,"PXJV+JGQ, Jl. Pemerintahan, depan KODIM, Halut, Mkcm, Tobelo, North Halmahera Regency, North Maluku","Kabupaten Halmahera Utara, Maluku Utara",MALUKU UTARA,,Indonesia,85201115150.0,1.7315784,127.9938588,https://maps.google.com/?cid=0x0:0xd45d6fcd651f0c5c
restaurant,Hidangan Laut,Rumah Makan Chokent,"P2F6+QJQ, Gamsungi, Kec. Tobelo, Kabupaten Halmahera Utara, Maluku Utara","Kabupaten Halmahera Utara, Maluku Utara",MALUKU UTARA,,Indonesia,85146223636.0,1.7244736,128.0116017,https://maps.google.com/?cid=0x0:0xb2418c82a0f026be
restaurant,Tujuan Wisata,Limau Jiko Eco Culture Resort,"Bobanehena, Kec. Jailolo, Kabupaten Halmahera Barat, Maluku Utara","Kabupaten Halmahera Barat, Maluku Utara",MALUKU UTARA,,Indonesia,82258085588.0,1.051123,127.446605,https://maps.google.com/?cid=0x0:0xbe87d8ffd59d3fd5
restaurant,,Bualawa Resto,"3C3W+4XM, Bobanehena, Kec. Jailolo, Kabupaten Halmahera Barat, Maluku Utara","Kabupaten Halmahera Barat, Maluku Utara",MALUKU UTARA,,Indonesia,,1.0516385,127.4473055,https://maps.google.com/?cid=0x0:0x1072845be258038f
restaurant,restaurant,Kec. Mangoli Bar.,"Kabupaten Kepulauan Sula, Maluku Utara","Kabupaten Kepulauan Sula, Maluku Utara",MALUKU UTARA,,Indonesia,,-1.8071861,125.3556926,https://maps.google.com/?cid=0x0:0x9235093942d7b06a
restaurant,Kedai Kopi,Warini caffee,"Pelita, Kec. Mangoli Bar., Kabupaten Kepulauan Sula, Maluku Utara","Kabupaten Kepulauan Sula, Maluku Utara",MALUKU UTARA,,Indonesia,82187725373.0,-1.8353722,125.3286171,https://maps.google.com/?cid=0x0:0x4e368c759a148cf2
restaurant,restaurant,Taka,"59HH+FR3, Dofa, Kec. Mangoli Bar., Kabupaten Kepulauan Sula, Maluku Utara","Kabupaten Kepulauan Sula, Maluku Utara",MALUKU UTARA,,Indonesia,,-1.8213645,125.379537,https://maps.google.com/?cid=0x0:0xe09e4eaad10a2087
restaurant,Kedai Kopi,Coffee Samudera,"6F7F+9QG, Falabisahaya, Mangoli Utara, Kabupaten Kepulauan Sula, Maluku Utara","Kabupaten Kepulauan Sula, Maluku Utara",MALUKU UTARA,,Indonesia,82348614028.0,-1.7865655,125.4744376,https://maps.google.com/?cid=0x0:0x881e12b1f1f20bcb
restaurant,Kedai Kopi,TUD PAI CAFFE,"59R5+F6M, Dofa, Kec. Mangoli Bar., Kabupaten Kepulauan Sula, Maluku Utara","Kabupaten Kepulauan Sula, Maluku Utara",MALUKU UTARA,,Indonesia,,-1.8093732,125.3580302,https://maps.google.com/?cid=0x0:0xeb9e85fe21ea3025
restaurant,Komplek perumahan,Tempat ayosewa starlink,"6F43+364, Lekosula, Kec. Mangoli Bar., Kabupaten Kepulauan Sula, Maluku Utara","Kabupaten Kepulauan Sula, Maluku Utara",MALUKU UTARA,,Indonesia,,-1.7948549,125.4530787,https://maps.google.com/?cid=0x0:0x4ec50236ce30fba5
restaurant,Kedai Kopi,Rumah Kopi Waimaka,"6F6G+9QX Jln. Lorong Plastik, Falabisahaya, Mangoli Utara, Kabupaten Kepulauan Sula, Maluku Utara","Kabupaten Kepulauan Sula, Maluku Utara",MALUKU UTARA,,Indonesia,82271153115.0,-1.7890099,125.4769845,https://maps.google.com/?cid=0x0:0xf8defd6f5204164d
restaurant,restaurant,Maluku Utara 97795,"Falahu, Kec. Sanana, Kabupaten Kepulauan Sula, Maluku Utara","Kabupaten Kepulauan Sula, Maluku Utara",MALUKU UTARA,,Indonesia,,-2.0613593,125.9823727,https://maps.google.com/?cid=0x0:0x25db49ff4002ccf8
restaurant,Restoran,RM BUNDA,"WXQJ+MQF, Jl. A.K Syahlan, Falahu, Kec. Sanana, Kabupaten Kepulauan Sula, Maluku Utara","Kabupaten Kepulauan Sula, Maluku Utara",MALUKU UTARA,,Indonesia,82296675344.0,-2.0608231,125.9819256,https://maps.google.com/?cid=0x0:0xe8c572014b144ab7
restaurant,Kedai Kopi,Mie Begadang Haibusa,"Fatce, Kec. Sanana, Kabupaten Kepulauan Sula, Maluku Utara 97795","Kec. Sanana, Kabupaten Kepulauan Sula",MALUKU UTARA,97795.0,Indonesia,,-2.0613406,125.982371,https://maps.google.com/?cid=0x0:0x506d12946d069858
restaurant,restaurant,Warung makan tradisional sula,"WXQM+H67, Jl. Soekarno Hatta, Falahu, Kec. Sanana, Kabupaten Kepulauan Sula, Maluku Utara","Kabupaten Kepulauan Sula, Maluku Utara",MALUKU UTARA,,Indonesia,,-2.0610853,125.9830369,https://maps.google.com/?cid=0x0:0x33a52a025e77e2ae
restaurant,restaurant,Kec. Sulabesi Tengah,"Kabupaten Kepulauan Sula, Maluku Utara","Kabupaten Kepulauan Sula, Maluku Utara",MALUKU UTARA,,Indonesia,,-2.2660437,126.0041676,https://maps.google.com/?cid=0x0:0xfbd0a140fc92e4f2
restaurant,Padang,Resto aurelya,"falahu, pantai, timbunan, Kec. Sanana, Kabupaten Kepulauan Sula, Maluku Utara 97795","pantai, timbunan, Kec. Sanana, Kabupaten Kepulauan Sula",MALUKU UTARA,97795.0,Indonesia,82176513171.0,-2.0606101,125.9833705,https://maps.google.com/?cid=0x0:0x70d6e199259a54da
restaurant,Rumah Makan,Rumah Makan Sido Mampir,"WXMJ+W7Q, Fatce, Kec. Sanana, Kabupaten Kepulauan Sula, Maluku Utara","Kabupaten Kepulauan Sula, Maluku Utara",MALUKU UTARA,,Indonesia,,-2.0651511,125.9807437,https://maps.google.com/?cid=0x0:0x412d9d099451d0dd
restaurant,Rumah Makan,Steak 89,"WXQM+36V, Fatce, Kec. Sanana, Kabupaten Kepulauan Sula, Maluku Utara","Kabupaten Kepulauan Sula, Maluku Utara",MALUKU UTARA,,Indonesia,81326228283.0,-2.0622559,125.9830488,https://maps.google.com/?cid=0x0:0x8d0e89789b5697fc
restaurant,Rumah Makan,Resto Benteng,"WXVJ+Q8F, Mangon, Kec. Sanana, Kabupaten Kepulauan Sula, Maluku Utara","Kabupaten Kepulauan Sula, Maluku Utara",MALUKU UTARA,,Indonesia,,-2.0555533,125.9808036,https://maps.google.com/?cid=0x0:0x5c9c51fdbc5f5028
restaurant,Jawa,Warung Makan Firdaus,"WXHH+RQQ, Fogi, Kec. Sanana, Kabupaten Kepulauan Sula, Maluku Utara","Kabupaten Kepulauan Sula, Maluku Utara",MALUKU UTARA,,Indonesia,82290573650.0,-2.0704181,125.9794743,https://maps.google.com/?cid=0x0:0x6bbea28e6943ac58
restaurant,Padang,Rumah Makan PAPEDA,"Fatce, Kec. Sanana, Kabupaten Kepulauan Sula, Maluku Utara","Kabupaten Kepulauan Sula, Maluku Utara",MALUKU UTARA,,Indonesia,82189394030.0,-2.0655095,125.9806588,https://maps.google.com/?cid=0x0:0x86f88cc25d66a585
restaurant,Restoran,Kedai favoritte,"Komplek waigoben, Fogi, Kec. Sanana, Kabupaten Kepulauan Sula, Maluku Utara 97795","Fogi, Kec. Sanana, Kabupaten Kepulauan Sula",MALUKU UTARA,97795.0,Indonesia,89691698539.0,-2.0738987,125.9756673,https://maps.google.com/?cid=0x0:0xbcf9a38ab936700b
restaurant,Brunch,Rm Mbak Chi,"WXHH+F27, Fogi, Kec. Sanana, Kabupaten Kepulauan Sula, Maluku Utara","Kabupaten Kepulauan Sula, Maluku Utara",MALUKU UTARA,,Indonesia,82116305277.0,-2.0713251,125.9775349,https://maps.google.com/?cid=0x0:0x3fd489cf234c0ca9
restaurant,Restoran,Bakso Solo Belakang Benteng,"Mangon, Kec. Sanana, Kabupaten Kepulauan Sula, Maluku Utara","Kabupaten Kepulauan Sula, Maluku Utara",MALUKU UTARA,,Indonesia,82116763738.0,-2.0550743,125.9796446,https://maps.google.com/?cid=0x0:0x429f77b95e7d39f5
restaurant,Jawa,Rumah makan ibu Nurhayati yoisangadji,"H22J+5XG, Wailia, Kec. Sulabesi Timur, Kabupaten Kepulauan Sula, Maluku Utara","Kabupaten Kepulauan Sula, Maluku Utara",MALUKU UTARA,,Indonesia,,-2.4495613,126.0324596,https://maps.google.com/?cid=0x0:0x58099f871a8dcf45
restaurant,Rumah Makan,Warung Bu Salma,"WXJJ+78R depan terminal, Fogi, Kec. Sanana, Kabupaten Kepulauan Sula, Maluku Utara","Kabupaten Kepulauan Sula, Maluku Utara",MALUKU UTARA,,Indonesia,82193777759.0,-2.0692702,125.9807755,https://maps.google.com/?cid=0x0:0xce88059b393e2710
restaurant,restaurant,Maluku Utara 97795,"Falahu, Kec. Sanana, Kabupaten Kepulauan Sula, Maluku Utara","Kabupaten Kepulauan Sula, Maluku Utara",MALUKU UTARA,,Indonesia,,-2.0613593,125.9823727,https://maps.google.com/?cid=0x0:0x25db49ff4002ccf8
restaurant,Kedai Kopi,IN_TIME,"Mangon, Kec. Sanana, Kabupaten Kepulauan Sula, Maluku Utara 97795","Kec. Sanana, Kabupaten Kepulauan Sula",MALUKU UTARA,97795.0,Indonesia,81354636058.0,-2.0613406,125.982371,https://maps.google.com/?cid=0x0:0xec9669d250217c01
restaurant,Kedai Kopi,Mie Begadang Haibusa,"Fatce, Kec. Sanana, Kabupaten Kepulauan Sula, Maluku Utara 97795","Kec. Sanana, Kabupaten Kepulauan Sula",MALUKU UTARA,97795.0,Indonesia,,-2.0613406,125.982371,https://maps.google.com/?cid=0x0:0x506d12946d069858
restaurant,restaurant,Warung makan tradisional sula,"WXQM+H67, Jl. Soekarno Hatta, Falahu, Kec. Sanana, Kabupaten Kepulauan Sula, Maluku Utara","Kabupaten Kepulauan Sula, Maluku Utara",MALUKU UTARA,,Indonesia,,-2.0610853,125.9830369,https://maps.google.com/?cid=0x0:0x33a52a025e77e2ae
restaurant,Padang,Resto aurelya,"falahu, pantai, timbunan, Kec. Sanana, Kabupaten Kepulauan Sula, Maluku Utara 97795","pantai, timbunan, Kec. Sanana, Kabupaten Kepulauan Sula",MALUKU UTARA,97795.0,Indonesia,82176513171.0,-2.0606101,125.9833705,https://maps.google.com/?cid=0x0:0x70d6e199259a54da
restaurant,Rumah Makan,Warung Makan Lesehan,"WXXR+X2W, Mangon, Kec. Sanana, Kabupaten Kepulauan Sula, Maluku Utara","Kabupaten Kepulauan Sula, Maluku Utara",MALUKU UTARA,,Indonesia,,-2.050005,125.990063,https://maps.google.com/?cid=0x0:0xce9484bfac08f551
restaurant,Jawa,D'Cafe,"Swering, Mangon, Kec. Sanana, Kabupaten Kepulauan Sula, Maluku Utara 97795","Mangon, Kec. Sanana, Kabupaten Kepulauan Sula",MALUKU UTARA,97795.0,Indonesia,82188622959.0,-2.0497225,125.9902172,https://maps.google.com/?cid=0x0:0x6fee1ab6d73f9020
restaurant,Restoran,Warung Makan Lida Wub,"WX48+PMW, Jl. Desa Pohea, Wai Ipa, Kec. Sanana, Kabupaten Kepulauan Sula, Maluku Utara","Kabupaten Kepulauan Sula, Maluku Utara",MALUKU UTARA,,Indonesia,82261969878.0,-2.0931431,125.9666895,https://maps.google.com/?cid=0x0:0x90aa85d4d1f1ae7f
restaurant,Pabrik Coklat,Serius coklat sula,"WXQM+J65 Al-qaidah, Falahu, Kec. Sanana, Kabupaten Kepulauan Sula, Maluku Utara","Kabupaten Kepulauan Sula, Maluku Utara",MALUKU UTARA,,Indonesia,82291140480.0,-2.0609786,125.9831008,https://maps.google.com/?cid=0x0:0x2bb57127a2f3acf3
restaurant,Jawa,Warung sula sunda,"Jl. Kantor, Pelabuhan, Sanana, Kepulauan Sula Regency, North Maluku 64472","Pelabuhan, Sanana, Kepulauan Sula Regency",MALUKU UTARA,64472.0,Indonesia,85342802360.0,-2.0691681,125.9790065,https://maps.google.com/?cid=0x0:0xbbb8e1cdb66cceb7
restaurant,restaurant,Maluku Utara 97795,"Falahu, Kec. Sanana, Kabupaten Kepulauan Sula, Maluku Utara","Kabupaten Kepulauan Sula, Maluku Utara",MALUKU UTARA,,Indonesia,,-2.0613593,125.9823727,https://maps.google.com/?cid=0x0:0x25db49ff4002ccf8
restaurant,Restoran,RM BUNDA,"WXQJ+MQF, Jl. A.K Syahlan, Falahu, Kec. Sanana, Kabupaten Kepulauan Sula, Maluku Utara","Kabupaten Kepulauan Sula, Maluku Utara",MALUKU UTARA,,Indonesia,82296675344.0,-2.0608231,125.9819256,https://maps.google.com/?cid=0x0:0xe8c572014b144ab7
restaurant,Kedai Kopi,Mie Begadang Haibusa,"Fatce, Kec. Sanana, Kabupaten Kepulauan Sula, Maluku Utara 97795","Kec. Sanana, Kabupaten Kepulauan Sula",MALUKU UTARA,97795.0,Indonesia,,-2.0613406,125.982371,https://maps.google.com/?cid=0x0:0x506d12946d069858
restaurant,restaurant,Warung makan tradisional sula,"WXQM+H67, Jl. Soekarno Hatta, Falahu, Kec. Sanana, Kabupaten Kepulauan Sula, Maluku Utara","Kabupaten Kepulauan Sula, Maluku Utara",MALUKU UTARA,,Indonesia,,-2.0610853,125.9830369,https://maps.google.com/?cid=0x0:0x33a52a025e77e2ae
restaurant,Jawa,D'Cafe,"Swering, Mangon, Kec. Sanana, Kabupaten Kepulauan Sula, Maluku Utara 97795","Mangon, Kec. Sanana, Kabupaten Kepulauan Sula",MALUKU UTARA,97795.0,Indonesia,82188622959.0,-2.0497225,125.9902172,https://maps.google.com/?cid=0x0:0x6fee1ab6d73f9020
restaurant,Rumah Makan,Warung Makan Lesehan,"WXXR+X2W, Mangon, Kec. Sanana, Kabupaten Kepulauan Sula, Maluku Utara","Kabupaten Kepulauan Sula, Maluku Utara",MALUKU UTARA,,Indonesia,,-2.050005,125.990063,https://maps.google.com/?cid=0x0:0xce9484bfac08f551
restaurant,restaurant,Mangoli Utara,"Kabupaten Kepulauan Sula, Maluku Utara","Kabupaten Kepulauan Sula, Maluku Utara",MALUKU UTARA,,Indonesia,,-1.7870032,125.4804915,https://maps.google.com/?cid=0x0:0x821bd9ab23ff70b4
restaurant,restaurant,Igor crispy chicken,"6F6M+768, Falabisahaya, Kabupaten Kepulauan Sula, Maluku Utara","Kabupaten Kepulauan Sula, Maluku Utara",MALUKU UTARA,,Indonesia,,-1.7895799,125.4831389,https://maps.google.com/?cid=0x0:0xfd166fdbb65f286c
restaurant,Kedai Kopi,Coffee Samudera,"6F7F+9QG, Falabisahaya, Mangoli Utara, Kabupaten Kepulauan Sula, Maluku Utara","Kabupaten Kepulauan Sula, Maluku Utara",MALUKU UTARA,,Indonesia,82348614028.0,-1.7865655,125.4744376,https://maps.google.com/?cid=0x0:0x881e12b1f1f20bcb
restaurant,Kedai Kopi,Rumah Kopi Waimaka,"6F6G+9QX Jln. Lorong Plastik, Falabisahaya, Mangoli Utara, Kabupaten Kepulauan Sula, Maluku Utara","Kabupaten Kepulauan Sula, Maluku Utara",MALUKU UTARA,,Indonesia,82271153115.0,-1.7890099,125.4769845,https://maps.google.com/?cid=0x0:0xf8defd6f5204164d
restaurant,restaurant,cafe mangoli,"6F7H+XQG, Falabisahaya, Mangoli Utara, Kabupaten Kepulauan Sula, Maluku Utara","Kabupaten Kepulauan Sula, Maluku Utara",MALUKU UTARA,,Indonesia,,-1.785059,125.4794404,https://maps.google.com/?cid=0x0:0x4e37abb8669bd1a1
restaurant,restaurant,Kedai Kopi,"6F7J+43Q, Falabisahaya, Mangoli Utara, Kabupaten Kepulauan Sula, Maluku Utara","Kabupaten Kepulauan Sula, Maluku Utara",MALUKU UTARA,,Indonesia,,-1.7871651,125.4802427,https://maps.google.com/?cid=0x0:0x6e1f9fb1056bffaa
restaurant,restaurant,Kafe Alo,"6F6H+WM5, Falabisahaya, Mangoli Utara, Kabupaten Kepulauan Sula, Maluku Utara","Kabupaten Kepulauan Sula, Maluku Utara",MALUKU UTARA,,Indonesia,,-1.787748,125.479221,https://maps.google.com/?cid=0x0:0x46bf7ebd35786878
restaurant,restaurant,Warung makan Mentari,"59R4+MP2, Dofa, Kec. Mangoli Bar., Kabupaten Kepulauan Sula, Maluku Utara","Kabupaten Kepulauan Sula, Maluku Utara",MALUKU UTARA,,Indonesia,,-1.8074844,125.3570907,https://maps.google.com/?cid=0x0:0x990291f12acff3b9
restaurant,restaurant,RAUF CAFE,"6F8G+PHC, Falabisahaya, Mangoli Utara, Kabupaten Kepulauan Sula, Maluku Utara","Kabupaten Kepulauan Sula, Maluku Utara",MALUKU UTARA,,Indonesia,,-1.783176,125.476395,https://maps.google.com/?cid=0x0:0x98f444838aac7ea4
restaurant,restaurant,Kec. Mangoli Tengah,"Kabupaten Kepulauan Sula, Maluku Utara","Kabupaten Kepulauan Sula, Maluku Utara",MALUKU UTARA,,Indonesia,,-1.9272257,125.9383491,https://maps.google.com/?cid=0x0:0xa42c94bee3686447
restaurant,restaurant,RM BALAPAN SOLO,"5XGR+JHW, Mangoli, Kec. Mangoli Tengah, Kabupaten Kepulauan Sula, Maluku Utara","Kabupaten Kepulauan Sula, Maluku Utara",MALUKU UTARA,,Indonesia,,-1.8233938,125.9914384,https://maps.google.com/?cid=0x0:0x44b178cbe709f7a5
restaurant,restaurant,Warung Estu Eco,"3WCP+849, Jl. Lain, Mangoli, Kec. Mangoli Tengah, Kabupaten Kepulauan Sula, Maluku Utara","Kabupaten Kepulauan Sula, Maluku Utara",MALUKU UTARA,,Indonesia,,-1.929211,125.9353457,https://maps.google.com/?cid=0x0:0xdee2567d3975754b
restaurant,restaurant,Warung Makan,"3W9J+5HR, Jl. Lain, Mangoli, Kec. Mangoli Tengah, Kabupaten Kepulauan Sula, Maluku Utara","Kabupaten Kepulauan Sula, Maluku Utara",MALUKU UTARA,,Indonesia,81244489483.0,-1.9320128,125.9313954,https://maps.google.com/?cid=0x0:0x67dbcc01ccacc584
restaurant,Kedai Kopi,Rumah Al bhory Marsaoly,"4497+F3, Wai Tamela, Kec. Mangoli Tim., Kabupaten Kepulauan Sula, Maluku Utara","Kabupaten Kepulauan Sula, Maluku Utara",MALUKU UTARA,,Indonesia,,-1.8813381,126.1127066,https://maps.google.com/?cid=0x0:0xdfadfd6c7de8bc96
restaurant,Ayam,Rumah aldy marsaoly,"4496+77W, Wai Tamela, Kec. Mangoli Tim., Kabupaten Kepulauan Sula, Maluku Utara","Kabupaten Kepulauan Sula, Maluku Utara",MALUKU UTARA,,Indonesia,,-1.8821741,126.1126372,https://maps.google.com/?cid=0x0:0x2447e7bc68dc8ed4
restaurant,restaurant,Kec. Mangoli Sel.,"Kabupaten Kepulauan Sula, Maluku Utara","Kabupaten Kepulauan Sula, Maluku Utara",MALUKU UTARA,,Indonesia,,-1.9281685,125.5811446,https://maps.google.com/?cid=0x0:0xe82e6eef47e4f664
restaurant,restaurant,Maluku Utara 97795,"Falahu, Kec. Sanana, Kabupaten Kepulauan Sula, Maluku Utara","Kabupaten Kepulauan Sula, Maluku Utara",MALUKU UTARA,,Indonesia,,-2.0613593,125.9823727,https://maps.google.com/?cid=0x0:0x25db49ff4002ccf8
restaurant,Restoran,RM BUNDA,"WXQJ+MQF, Jl. A.K Syahlan, Falahu, Kec. Sanana, Kabupaten Kepulauan Sula, Maluku Utara","Kabupaten Kepulauan Sula, Maluku Utara",MALUKU UTARA,,Indonesia,82296675344.0,-2.0608231,125.9819256,https://maps.google.com/?cid=0x0:0xe8c572014b144ab7
restaurant,Kedai Kopi,IN_TIME,"Mangon, Kec. Sanana, Kabupaten Kepulauan Sula, Maluku Utara 97795","Kec. Sanana, Kabupaten Kepulauan Sula",MALUKU UTARA,97795.0,Indonesia,81354636058.0,-2.0613406,125.982371,https://maps.google.com/?cid=0x0:0xec9669d250217c01
restaurant,Padang,warung makan mama ani,"WXHH+RQ4, Fogi, Kec. Sanana, lauh, Maluku Utara 97796","Fogi, Kec. Sanana, lauh",MALUKU UTARA,97796.0,Indonesia,,-2.07048,125.9794625,https://maps.google.com/?cid=0x0:0x1d180680fb2734f2
restaurant,Rumah Makan,Resto Benteng,"WXVJ+Q8F, Mangon, Kec. Sanana, Kabupaten Kepulauan Sula, Maluku Utara","Kabupaten Kepulauan Sula, Maluku Utara",MALUKU UTARA,,Indonesia,,-2.0555533,125.9808036,https://maps.google.com/?cid=0x0:0x5c9c51fdbc5f5028
restaurant,Jawa,D'Cafe,"Swering, Mangon, Kec. Sanana, Kabupaten Kepulauan Sula, Maluku Utara 97795","Mangon, Kec. Sanana, Kabupaten Kepulauan Sula",MALUKU UTARA,97795.0,Indonesia,82188622959.0,-2.0497225,125.9902172,https://maps.google.com/?cid=0x0:0x6fee1ab6d73f9020
restaurant,Penginapan,Penginapan Desi,"WXVJ+R5X, Mangon, Kec. Sanana, Kabupaten Kepulauan Sula, Maluku Utara","Kabupaten Kepulauan Sula, Maluku Utara",MALUKU UTARA,,Indonesia,81242213705.0,-2.0553964,125.9804799,https://maps.google.com/?cid=0x0:0xe326f68110ab5c77
