Category,Real Category,Business Name,Address,City,State,Postal Code,Country,Phone,Latitude,Longitude,Map Link
toko bangunan,Toko Bahan Bangunan,Makmur Utama Supermarket Bahan Bangunan,"Jambula, Kec. Pulau Ternate, Kota Ternate, Maluku Utara","Kota Ternate, Maluku Utara",MALUKU UTARA,,Indonesia,8114313899.0,0.7581804,127.3220409,https://maps.google.com/?cid=0x0:0xe3a01731f7851efa
toko bangunan,toko bangunan,Maluku Utara,,Maluku Utara,MALUKU UTARA,,Indonesia,,1.5709993,127.8087693,https://maps.google.com/?cid=0x0:0x1030bfbcaf71ac0
toko bangunan,Toko Bahan Bangunan,Makmur Utama Supermarket Bahan Bangunan,"Jl. Yasin Gamsungi No.2 Kec. ternate tengah, Kel, Makassar Tim., Makassar Timur, Kota Ternate, Maluku Utara 97724","Kel, Makassar Tim., Makassar Timur, Kota Ternate",MALUKU UTARA,97724.0,Indonesia,8114313799.0,0.7940352,127.3876695,https://maps.google.com/?cid=0x0:0x2f492ae87bf64247
toko bangunan,toko bangunan,Kec. Mangoli Tim.,"Kabupaten Kepulauan Sula, Maluku Utara","Kabupaten Kepulauan Sula, Maluku Utara",MALUKU UTARA,,Indonesia,,-1.9120347,125.9824503,https://maps.google.com/?cid=0x0:0x8b05f627cf49bd0a
toko bangunan,toko bangunan,Maluku Utara 97795,"Falahu, Kec. Sanana, Kabupaten Kepulauan Sula, Maluku Utara","Kabupaten Kepulauan Sula, Maluku Utara",MALUKU UTARA,,Indonesia,,-2.0613593,125.9823727,https://maps.google.com/?cid=0x0:0x25db49ff4002ccf8
toko bangunan,Toko Bahan Bangunan,Bangunan Toko,"WXWG+656, Fagudu, Kec. Sanana, Kabupaten Kepulauan Sula, Maluku Utara","Kabupaten Kepulauan Sula, Maluku Utara",MALUKU UTARA,,Indonesia,92921018.0,-2.054462,125.975403,https://maps.google.com/?cid=0x0:0xe128a2c2968ec91c
toko bangunan,Toko Bahan Bangunan,Toko Central Teknik,"WXRJ+C9C, Fagudu, Kec. Sanana, Kabupaten Kepulauan Sula, Maluku Utara","Kabupaten Kepulauan Sula, Maluku Utara",MALUKU UTARA,,Indonesia,,-2.0589267,125.9808967,https://maps.google.com/?cid=0x0:0xee30f9bd29dada96
toko bangunan,Toko Bahan Bangunan,toko fariasi,"Fagudu, Kec. Sanana, Kabupaten Kepulauan Sula, Maluku Utara 97795","Kec. Sanana, Kabupaten Kepulauan Sula",MALUKU UTARA,97795.0,Indonesia,,-2.0613406,125.982371,https://maps.google.com/?cid=0x0:0xc7d11f3f54634ae8
toko bangunan,Toko Bahan Bangunan,Toko Sejahtera,"WXWJ+556, Mangon, Kec. Sanana, Kabupaten Kepulauan Sula, Maluku Utara","Kabupaten Kepulauan Sula, Maluku Utara",MALUKU UTARA,,Indonesia,,-2.0545963,125.9803939,https://maps.google.com/?cid=0x0:0x9c83e67a40dd0af7
toko bangunan,Toko Barang Pecah Belah,Toko Moro Asih,"WXJJ+9C3, Fatce, Kec. Sanana, Kabupaten Kepulauan Sula, Maluku Utara","Kabupaten Kepulauan Sula, Maluku Utara",MALUKU UTARA,,Indonesia,,-2.0691034,125.981046,https://maps.google.com/?cid=0x0:0x6c709744209ad66c
toko bangunan,Toko bahan makanan,Toko Barokah,"WXVJ+22J, Fagudu, Kec. Sanana, Kabupaten Kepulauan Sula, Maluku Utara","Kabupaten Kepulauan Sula, Maluku Utara",MALUKU UTARA,,Indonesia,,-2.0574225,125.9800215,https://maps.google.com/?cid=0x0:0xdca2a26a27b6bd68
toko bangunan,Toko Bahan Bangunan,TB Santosa,"Jl. Kemang Raya No.9 B, RT.002/RW.002, Jaticempaka, Kec. Pd. Gede, Kota Bks, Jawa Barat 17416","RT.002/RW.002, Jaticempaka, Kec. Pd. Gede, Kota Bks",MALUKU UTARA,17416.0,Indonesia,218473474.0,-6.259941,106.9244765,https://maps.google.com/?cid=0x0:0xe218e7f866cf888b
toko bangunan,Toko Bahan Bangunan,TOKO BANGUNAN (SSA),"QJC7+5W6, Jl. Kelapa Dua Raya, Klp. Dua, Kec. Klp. Dua, Kabupaten Tangerang, Banten 15810","Jl. Kelapa Dua Raya, Klp. Dua, Kec. Klp. Dua, Kabupaten Tangerang",MALUKU UTARA,15810.0,Indonesia,85777881888.0,-6.2294451,106.6147905,https://maps.google.com/?cid=0x0:0x9cdabec24bdbafb8
toko bangunan,,THE Bangunan CIMUNING ( toko alat dan bahan bangunan / toko material),"samping masjid nurul insan, Jl. WR. Supratman, RT.002/RW.006, Cimuning, Kec. Mustika Jaya, Kota Bks, Jawa Barat 17155","Jl. WR. Supratman, RT.002/RW.006, Cimuning, Kec. Mustika Jaya, Kota Bks",MALUKU UTARA,17155.0,Indonesia,2182594213.0,-6.3112924,107.0276565,https://maps.google.com/?cid=0x0:0xdf5471e58ee9279f
toko bangunan,Toko Bahan Bangunan,Toko Bangunan SARINNA,"MF9W+2RW, kp bayawak pojok, RT.022/RW.07, Taban, Kec. Jambe, Kabupaten Tangerang, Banten 15720","kp bayawak pojok, RT.022/RW.07, Taban, Kec. Jambe, Kabupaten Tangerang",MALUKU UTARA,15720.0,Indonesia,85697623157.0,-6.3323985,106.4970667,https://maps.google.com/?cid=0x0:0x9fc9e5bb13670909
toko bangunan,Toko Bahan Bangunan,SAN JAYA BANGUNAN,"Leuweung Kolot, Kec. Cibungbulang, Kabupaten Bogor, Jawa Barat","Kabupaten Bogor, Jawa Barat",MALUKU UTARA,,Indonesia,,-6.564385,106.6767342,https://maps.google.com/?cid=0x0:0x12fe90a86e70adf0
toko bangunan,Toko Bahan Bangunan,Tasan Majubersama,"Jl Prof Dr Latumeten 19 Jelambar Grogol Petamburan Jakarta Barat DKI Jakarta, RT.1/RW.7, Jelambar, Kec. Grogol petamburan, Kota Jakarta Barat, Daerah Khusus Ibukota Jakarta 11460","RT.1/RW.7, Jelambar, Kec. Grogol petamburan, Kota Jakarta Barat",MALUKU UTARA,11460.0,Indonesia,2156958032.0,-6.1570711,106.7916301,https://maps.google.com/?cid=0x0:0x14159aaf33bec139
toko bangunan,Toko Bahan Bangunan,TOKO BUNDANA ð»,"Jl. Kp. Duren Mekar No.56, RW.1, Duren Seribu, Kec. Bojongsari, Kota Depok, Jawa Barat 16518","RW.1, Duren Seribu, Kec. Bojongsari, Kota Depok",MALUKU UTARA,16518.0,Indonesia,,-6.4257531,106.7395337,https://maps.google.com/?cid=0x0:0x1372ce27f29f1b48
toko bangunan,Toko Bahan Bangunan,toko fariasi,"Fagudu, Kec. Sanana, Kabupaten Kepulauan Sula, Maluku Utara 97795","Kec. Sanana, Kabupaten Kepulauan Sula",MALUKU UTARA,97795.0,Indonesia,,-2.0613406,125.982371,https://maps.google.com/?cid=0x0:0xc7d11f3f54634ae8
toko bangunan,Toko Bahan Bangunan,Distributor Semen Conch Sanana,"Jalan Raya, Falahu, Kec. Sanana, Kabupaten Kepulauan Sula, Maluku Utara 97795","Falahu, Kec. Sanana, Kabupaten Kepulauan Sula",MALUKU UTARA,97795.0,Indonesia,82233920834.0,-2.059688,125.9824895,https://maps.google.com/?cid=0x0:0x6eb1605814b08aea
toko bangunan,toko bangunan,Maluku Utara 97795,"Falahu, Kec. Sanana, Kabupaten Kepulauan Sula, Maluku Utara","Kabupaten Kepulauan Sula, Maluku Utara",MALUKU UTARA,,Indonesia,,-2.0613593,125.9823727,https://maps.google.com/?cid=0x0:0x25db49ff4002ccf8
toko bangunan,Toko Bahan Bangunan,Bangunan Toko,"WXWG+656, Fagudu, Kec. Sanana, Kabupaten Kepulauan Sula, Maluku Utara","Kabupaten Kepulauan Sula, Maluku Utara",MALUKU UTARA,,Indonesia,92921018.0,-2.054462,125.975403,https://maps.google.com/?cid=0x0:0xe128a2c2968ec91c
toko bangunan,Toko Bahan Bangunan,Toko Sejahtera,"WXWJ+556, Mangon, Kec. Sanana, Kabupaten Kepulauan Sula, Maluku Utara","Kabupaten Kepulauan Sula, Maluku Utara",MALUKU UTARA,,Indonesia,,-2.0545963,125.9803939,https://maps.google.com/?cid=0x0:0x9c83e67a40dd0af7
toko bangunan,Toko Bahan Bangunan,TB AMANAH JAILOLO,"Acango, Kec. Jailolo, Kabupaten Halmahera Barat, Maluku Utara 99752","Kec. Jailolo, Kabupaten Halmahera Barat",MALUKU UTARA,99752.0,Indonesia,81227841880.0,1.0895967,127.4757615,https://maps.google.com/?cid=0x0:0xe1b54071a553bc0c
toko bangunan,Toko Bahan Bangunan,Toko.Boekit Bangunan,"3FQG+659, Acango, Kec. Jailolo, Kabupaten Halmahera Barat, Maluku Utara","Kabupaten Halmahera Barat, Maluku Utara",MALUKU UTARA,,Indonesia,85166903897.0,1.0882582,127.4754115,https://maps.google.com/?cid=0x0:0x88096a93b702388e
toko bangunan,toko bangunan,Kec. Mangoli Bar.,"Kabupaten Kepulauan Sula, Maluku Utara","Kabupaten Kepulauan Sula, Maluku Utara",MALUKU UTARA,,Indonesia,,-1.8071861,125.3556926,https://maps.google.com/?cid=0x0:0x9235093942d7b06a
toko bangunan,Toko Bahan Bangunan,Toko bangunan / fajar mas luyo,"J48W+RQ9, Mambu, Kec. Luyo, Kabupaten Polewali Mandar, Sulawesi Barat 91353","Mambu, Kec. Luyo, Kabupaten Polewali Mandar",MALUKU UTARA,91353.0,Indonesia,81235237126.0,-3.3829625,119.1469844,https://maps.google.com/?cid=0x0:0x43dbd6f851f54878
toko bangunan,toko bangunan,Maluku Utara 97795,"Falahu, Kec. Sanana, Kabupaten Kepulauan Sula, Maluku Utara","Kabupaten Kepulauan Sula, Maluku Utara",MALUKU UTARA,,Indonesia,,-2.0613593,125.9823727,https://maps.google.com/?cid=0x0:0x25db49ff4002ccf8
toko bangunan,Toko Bahan Bangunan,toko fariasi,"Fagudu, Kec. Sanana, Kabupaten Kepulauan Sula, Maluku Utara 97795","Kec. Sanana, Kabupaten Kepulauan Sula",MALUKU UTARA,97795.0,Indonesia,,-2.0613406,125.982371,https://maps.google.com/?cid=0x0:0xc7d11f3f54634ae8
toko bangunan,Toko Bahan Bangunan,Toko Central Teknik,"WXRJ+C9C, Fagudu, Kec. Sanana, Kabupaten Kepulauan Sula, Maluku Utara","Kabupaten Kepulauan Sula, Maluku Utara",MALUKU UTARA,,Indonesia,,-2.0589267,125.9808967,https://maps.google.com/?cid=0x0:0xee30f9bd29dada96
toko bangunan,Toko Bahan Bangunan,Distributor Semen Conch Sanana,"Jalan Raya, Falahu, Kec. Sanana, Kabupaten Kepulauan Sula, Maluku Utara 97795","Falahu, Kec. Sanana, Kabupaten Kepulauan Sula",MALUKU UTARA,97795.0,Indonesia,82233920834.0,-2.059688,125.9824895,https://maps.google.com/?cid=0x0:0x6eb1605814b08aea
toko bangunan,Toko Bahan Bangunan,Toko Sejahtera,"WXWJ+556, Mangon, Kec. Sanana, Kabupaten Kepulauan Sula, Maluku Utara","Kabupaten Kepulauan Sula, Maluku Utara",MALUKU UTARA,,Indonesia,,-2.0545963,125.9803939,https://maps.google.com/?cid=0x0:0x9c83e67a40dd0af7
toko bangunan,toko bangunan,Kec. Sulabesi Tengah,"Kabupaten Kepulauan Sula, Maluku Utara","Kabupaten Kepulauan Sula, Maluku Utara",MALUKU UTARA,,Indonesia,,-2.2660437,126.0041676,https://maps.google.com/?cid=0x0:0xfbd0a140fc92e4f2
toko bangunan,toko bangunan,Maluku Utara 97795,"Falahu, Kec. Sanana, Kabupaten Kepulauan Sula, Maluku Utara","Kabupaten Kepulauan Sula, Maluku Utara",MALUKU UTARA,,Indonesia,,-2.0613593,125.9823727,https://maps.google.com/?cid=0x0:0x25db49ff4002ccf8
toko bangunan,Toko Bahan Bangunan,toko fariasi,"Fagudu, Kec. Sanana, Kabupaten Kepulauan Sula, Maluku Utara 97795","Kec. Sanana, Kabupaten Kepulauan Sula",MALUKU UTARA,97795.0,Indonesia,,-2.0613406,125.982371,https://maps.google.com/?cid=0x0:0xc7d11f3f54634ae8
toko bangunan,Toko Bahan Bangunan,Toko Central Teknik,"WXRJ+C9C, Fagudu, Kec. Sanana, Kabupaten Kepulauan Sula, Maluku Utara","Kabupaten Kepulauan Sula, Maluku Utara",MALUKU UTARA,,Indonesia,,-2.0589267,125.9808967,https://maps.google.com/?cid=0x0:0xee30f9bd29dada96
toko bangunan,toko bangunan,Kec. Sulabesi Timur,"Kabupaten Kepulauan Sula, Maluku Utara","Kabupaten Kepulauan Sula, Maluku Utara",MALUKU UTARA,,Indonesia,,-2.3972103,126.0597014,https://maps.google.com/?cid=0x0:0xb7e818da71ae9c3d
toko bangunan,toko bangunan,Maluku Utara 97795,"Falahu, Kec. Sanana, Kabupaten Kepulauan Sula, Maluku Utara","Kabupaten Kepulauan Sula, Maluku Utara",MALUKU UTARA,,Indonesia,,-2.0613593,125.9823727,https://maps.google.com/?cid=0x0:0x25db49ff4002ccf8
toko bangunan,Toko Bahan Bangunan,toko fariasi,"Fagudu, Kec. Sanana, Kabupaten Kepulauan Sula, Maluku Utara 97795","Kec. Sanana, Kabupaten Kepulauan Sula",MALUKU UTARA,97795.0,Indonesia,,-2.0613406,125.982371,https://maps.google.com/?cid=0x0:0xc7d11f3f54634ae8
toko bangunan,Toko Bahan Bangunan,Distributor Semen Conch Sanana,"Jalan Raya, Falahu, Kec. Sanana, Kabupaten Kepulauan Sula, Maluku Utara 97795","Falahu, Kec. Sanana, Kabupaten Kepulauan Sula",MALUKU UTARA,97795.0,Indonesia,82233920834.0,-2.059688,125.9824895,https://maps.google.com/?cid=0x0:0x6eb1605814b08aea
toko bangunan,toko bangunan,Mangoli Utara,"Kabupaten Kepulauan Sula, Maluku Utara","Kabupaten Kepulauan Sula, Maluku Utara",MALUKU UTARA,,Indonesia,,-1.7870032,125.4804915,https://maps.google.com/?cid=0x0:0x821bd9ab23ff70b4
toko bangunan,Toko Bahan Bangunan,Makmur Utama Supermarket Bahan Bangunan,"Jl. Yasin Gamsungi No.2 Kec. ternate tengah, Kel, Makassar Tim., Makassar Timur, Kota Ternate, Maluku Utara 97724","Kel, Makassar Tim., Makassar Timur, Kota Ternate",MALUKU UTARA,97724.0,Indonesia,8114313799.0,0.7940352,127.3876695,https://maps.google.com/?cid=0x0:0x2f492ae87bf64247
toko bangunan,toko bangunan,Kec. Mangoli Tengah,"Kabupaten Kepulauan Sula, Maluku Utara","Kabupaten Kepulauan Sula, Maluku Utara",MALUKU UTARA,,Indonesia,,-1.9272257,125.9383491,https://maps.google.com/?cid=0x0:0xa42c94bee3686447
toko bangunan,Toko Bahan Bangunan,Makmur Utama Supermarket Bahan Bangunan,"Jambula, Kec. Pulau Ternate, Kota Ternate, Maluku Utara","Kota Ternate, Maluku Utara",MALUKU UTARA,,Indonesia,8114313899.0,0.7581804,127.3220409,https://maps.google.com/?cid=0x0:0xe3a01731f7851efa
toko bangunan,toko bangunan,Mangoli Utara Tim.,"Kabupaten Kepulauan Sula, Maluku Utara","Kabupaten Kepulauan Sula, Maluku Utara",MALUKU UTARA,,Indonesia,,-1.8414454,126.241388,https://maps.google.com/?cid=0x0:0x17e3b0f466e504e3
toko bangunan,Toko Bahan Bangunan,Toko Sejati Bangunan,"Jalan Raya Wosia, Depan Saro Nifero, Samping Dealer Honda CV.Lion, Mahia, Kec. Tobelo, Maluku Utara 97762","Depan Saro Nifero, Samping Dealer Honda CV.Lion, Mahia, Kec. Tobelo",MALUKU UTARA,97762.0,Indonesia,82195215789.0,1.7063845,128.0084905,https://maps.google.com/?cid=0x0:0xe07acc47d25781c8
toko bangunan,toko bangunan,"Gudang Mangon, Toko Sinar Baru","Jl. Ismail Digul No.Desa, Mangon, Kec. Sanana, Kabupaten Kepulauan Sula, Maluku Utara","Kabupaten Kepulauan Sula, Maluku Utara",MALUKU UTARA,,Indonesia,,-2.0538692,125.9829774,https://maps.google.com/?cid=0x0:0xa366a7a7b129825
toko bangunan,Toko Bahan Bangunan,Toko Duta Bangunan,"Jl. Danau Rana, Namlea, Kec. Namlea, Kabupaten Buru, Maluku","Kabupaten Buru, Maluku",MALUKU UTARA,,Indonesia,91322010.0,-3.269268,127.1034228,https://maps.google.com/?cid=0x0:0x4d2e61629ea407b9
toko bangunan,Toko,TOKO FAJAR MAS,"P3CX+R5Q, Namlea, Kec. Namlea, Kabupaten Buru, Maluku","Kabupaten Buru, Maluku",MALUKU UTARA,,Indonesia,,-3.2779017,127.0979019,https://maps.google.com/?cid=0x0:0xce7d9cbd242800a3
toko bangunan,toko bangunan,Kec. Mangoli Sel.,"Kabupaten Kepulauan Sula, Maluku Utara","Kabupaten Kepulauan Sula, Maluku Utara",MALUKU UTARA,,Indonesia,,-1.9281685,125.5811446,https://maps.google.com/?cid=0x0:0xe82e6eef47e4f664
toko bangunan,toko bangunan,Maluku Utara 97795,"Falahu, Kec. Sanana, Kabupaten Kepulauan Sula, Maluku Utara","Kabupaten Kepulauan Sula, Maluku Utara",MALUKU UTARA,,Indonesia,,-2.0613593,125.9823727,https://maps.google.com/?cid=0x0:0x25db49ff4002ccf8
toko bangunan,Toko Bahan Bangunan,toko fariasi,"Fagudu, Kec. Sanana, Kabupaten Kepulauan Sula, Maluku Utara 97795","Kec. Sanana, Kabupaten Kepulauan Sula",MALUKU UTARA,97795.0,Indonesia,,-2.0613406,125.982371,https://maps.google.com/?cid=0x0:0xc7d11f3f54634ae8
toko bangunan,Toko Bahan Bangunan,Bangunan Toko,"WXWG+656, Fagudu, Kec. Sanana, Kabupaten Kepulauan Sula, Maluku Utara","Kabupaten Kepulauan Sula, Maluku Utara",MALUKU UTARA,,Indonesia,92921018.0,-2.054462,125.975403,https://maps.google.com/?cid=0x0:0xe128a2c2968ec91c
toko bangunan,Toko Bahan Bangunan,Distributor Semen Conch Sanana,"Jalan Raya, Falahu, Kec. Sanana, Kabupaten Kepulauan Sula, Maluku Utara 97795","Falahu, Kec. Sanana, Kabupaten Kepulauan Sula",MALUKU UTARA,97795.0,Indonesia,82233920834.0,-2.059688,125.9824895,https://maps.google.com/?cid=0x0:0x6eb1605814b08aea
toko bangunan,Toko Bahan Bangunan,Toko Sejahtera,"WXWJ+556, Mangon, Kec. Sanana, Kabupaten Kepulauan Sula, Maluku Utara","Kabupaten Kepulauan Sula, Maluku Utara",MALUKU UTARA,,Indonesia,,-2.0545963,125.9803939,https://maps.google.com/?cid=0x0:0x9c83e67a40dd0af7
toko bangunan,Toko Barang Pecah Belah,Toko Moro Asih,"WXJJ+9C3, Fatce, Kec. Sanana, Kabupaten Kepulauan Sula, Maluku Utara","Kabupaten Kepulauan Sula, Maluku Utara",MALUKU UTARA,,Indonesia,,-2.0691034,125.981046,https://maps.google.com/?cid=0x0:0x6c709744209ad66c
toko bangunan,Toko bahan makanan,Toko Barokah,"WXVJ+22J, Fagudu, Kec. Sanana, Kabupaten Kepulauan Sula, Maluku Utara","Kabupaten Kepulauan Sula, Maluku Utara",MALUKU UTARA,,Indonesia,,-2.0574225,125.9800215,https://maps.google.com/?cid=0x0:0xdca2a26a27b6bd68
building materials,building materials,Kec. Mangoli Tim.,"Kabupaten Kepulauan Sula, Maluku Utara","Kabupaten Kepulauan Sula, Maluku Utara",MALUKU UTARA,,Indonesia,,-1.9120347,125.9824503,https://maps.google.com/?cid=0x0:0x8b05f627cf49bd0a
building materials,Toko Bahan Bangunan,Distributor Semen Conch Sanana,"Jalan Raya, Falahu, Kec. Sanana, Kabupaten Kepulauan Sula, Maluku Utara 97795","Falahu, Kec. Sanana, Kabupaten Kepulauan Sula",MALUKU UTARA,97795.0,Indonesia,82233920834.0,-2.059688,125.9824895,https://maps.google.com/?cid=0x0:0x6eb1605814b08aea
building materials,building materials,Maluku Utara 97795,"Falahu, Kec. Sanana, Kabupaten Kepulauan Sula, Maluku Utara","Kabupaten Kepulauan Sula, Maluku Utara",MALUKU UTARA,,Indonesia,,-2.0613593,125.9823727,https://maps.google.com/?cid=0x0:0x25db49ff4002ccf8
building materials,Toko Bahan Bangunan,toko fariasi,"Fagudu, Kec. Sanana, Kabupaten Kepulauan Sula, Maluku Utara 97795","Kec. Sanana, Kabupaten Kepulauan Sula",MALUKU UTARA,97795.0,Indonesia,,-2.0613406,125.982371,https://maps.google.com/?cid=0x0:0xc7d11f3f54634ae8
building materials,Toko Bahan Bangunan,Bangunan Toko,"WXWG+656, Fagudu, Kec. Sanana, Kabupaten Kepulauan Sula, Maluku Utara","Kabupaten Kepulauan Sula, Maluku Utara",MALUKU UTARA,,Indonesia,92921018.0,-2.054462,125.975403,https://maps.google.com/?cid=0x0:0xe128a2c2968ec91c
building materials,building materials,Sanana,"Fagudu, Kec. Sanana, Kabupaten Kepulauan Sula, Maluku Utara","Kabupaten Kepulauan Sula, Maluku Utara",MALUKU UTARA,,Indonesia,,-2.054462,125.975403,https://maps.google.com/?cid=0x0:0x794f7fcc9fc05834
building materials,Toko Bahan Bangunan,Toko Central Teknik,"WXRJ+C9C, Fagudu, Kec. Sanana, Kabupaten Kepulauan Sula, Maluku Utara","Kabupaten Kepulauan Sula, Maluku Utara",MALUKU UTARA,,Indonesia,,-2.0589267,125.9808967,https://maps.google.com/?cid=0x0:0xee30f9bd29dada96
building materials,building materials,Maluku Utara 97795,"Falahu, Kec. Sanana, Kabupaten Kepulauan Sula, Maluku Utara","Kabupaten Kepulauan Sula, Maluku Utara",MALUKU UTARA,,Indonesia,,-2.0613593,125.9823727,https://maps.google.com/?cid=0x0:0x25db49ff4002ccf8
building materials,Toko Bahan Bangunan,toko fariasi,"Fagudu, Kec. Sanana, Kabupaten Kepulauan Sula, Maluku Utara 97795","Kec. Sanana, Kabupaten Kepulauan Sula",MALUKU UTARA,97795.0,Indonesia,,-2.0613406,125.982371,https://maps.google.com/?cid=0x0:0xc7d11f3f54634ae8
building materials,Toko Bahan Bangunan,Distributor Semen Conch Sanana,"Jalan Raya, Falahu, Kec. Sanana, Kabupaten Kepulauan Sula, Maluku Utara 97795","Falahu, Kec. Sanana, Kabupaten Kepulauan Sula",MALUKU UTARA,97795.0,Indonesia,82233920834.0,-2.059688,125.9824895,https://maps.google.com/?cid=0x0:0x6eb1605814b08aea
building materials,building materials,Kec. Mangoli Bar.,"Kabupaten Kepulauan Sula, Maluku Utara","Kabupaten Kepulauan Sula, Maluku Utara",MALUKU UTARA,,Indonesia,,-1.8071861,125.3556926,https://maps.google.com/?cid=0x0:0x9235093942d7b06a
building materials,building materials,PT mangole Timber producers,"5F8Q+2MC, Falabisahaya, dofa mangole barat, Kabupaten Kepulauan Sula, Maluku Utara","Kabupaten Kepulauan Sula, Maluku Utara",MALUKU UTARA,,Indonesia,,-1.8349259,125.489147,https://maps.google.com/?cid=0x0:0x9ce7c4ba52ad11a9
building materials,building materials,Maluku Utara 97795,"Falahu, Kec. Sanana, Kabupaten Kepulauan Sula, Maluku Utara","Kabupaten Kepulauan Sula, Maluku Utara",MALUKU UTARA,,Indonesia,,-2.0613593,125.9823727,https://maps.google.com/?cid=0x0:0x25db49ff4002ccf8
building materials,Toko Bahan Bangunan,toko fariasi,"Fagudu, Kec. Sanana, Kabupaten Kepulauan Sula, Maluku Utara 97795","Kec. Sanana, Kabupaten Kepulauan Sula",MALUKU UTARA,97795.0,Indonesia,,-2.0613406,125.982371,https://maps.google.com/?cid=0x0:0xc7d11f3f54634ae8
building materials,Toko Bahan Bangunan,Distributor Semen Conch Sanana,"Jalan Raya, Falahu, Kec. Sanana, Kabupaten Kepulauan Sula, Maluku Utara 97795","Falahu, Kec. Sanana, Kabupaten Kepulauan Sula",MALUKU UTARA,97795.0,Indonesia,82233920834.0,-2.059688,125.9824895,https://maps.google.com/?cid=0x0:0x6eb1605814b08aea
building materials,building materials,Maluku Utara 97795,"Falahu, Kec. Sanana, Kabupaten Kepulauan Sula, Maluku Utara","Kabupaten Kepulauan Sula, Maluku Utara",MALUKU UTARA,,Indonesia,,-2.0613593,125.9823727,https://maps.google.com/?cid=0x0:0x25db49ff4002ccf8
building materials,building materials,Kec. Sulabesi Timur,"Kabupaten Kepulauan Sula, Maluku Utara","Kabupaten Kepulauan Sula, Maluku Utara",MALUKU UTARA,,Indonesia,,-2.3972103,126.0597014,https://maps.google.com/?cid=0x0:0xb7e818da71ae9c3d
building materials,Toko Bahan Bangunan,Distributor Semen Conch Sanana,"Jalan Raya, Falahu, Kec. Sanana, Kabupaten Kepulauan Sula, Maluku Utara 97795","Falahu, Kec. Sanana, Kabupaten Kepulauan Sula",MALUKU UTARA,97795.0,Indonesia,82233920834.0,-2.059688,125.9824895,https://maps.google.com/?cid=0x0:0x6eb1605814b08aea
building materials,building materials,Maluku Utara 97795,"Falahu, Kec. Sanana, Kabupaten Kepulauan Sula, Maluku Utara","Kabupaten Kepulauan Sula, Maluku Utara",MALUKU UTARA,,Indonesia,,-2.0613593,125.9823727,https://maps.google.com/?cid=0x0:0x25db49ff4002ccf8
building materials,Toko Bahan Bangunan,toko fariasi,"Fagudu, Kec. Sanana, Kabupaten Kepulauan Sula, Maluku Utara 97795","Kec. Sanana, Kabupaten Kepulauan Sula",MALUKU UTARA,97795.0,Indonesia,,-2.0613406,125.982371,https://maps.google.com/?cid=0x0:0xc7d11f3f54634ae8
building materials,Toko Bahan Bangunan,Distributor Semen Conch Sanana,"Jalan Raya, Falahu, Kec. Sanana, Kabupaten Kepulauan Sula, Maluku Utara 97795","Falahu, Kec. Sanana, Kabupaten Kepulauan Sula",MALUKU UTARA,97795.0,Indonesia,82233920834.0,-2.059688,125.9824895,https://maps.google.com/?cid=0x0:0x6eb1605814b08aea
building materials,building materials,Mangoli Utara,"Kabupaten Kepulauan Sula, Maluku Utara","Kabupaten Kepulauan Sula, Maluku Utara",MALUKU UTARA,,Indonesia,,-1.7870032,125.4804915,https://maps.google.com/?cid=0x0:0x821bd9ab23ff70b4
building materials,building materials,Kec. Mangoli Tengah,"Kabupaten Kepulauan Sula, Maluku Utara","Kabupaten Kepulauan Sula, Maluku Utara",MALUKU UTARA,,Indonesia,,-1.9272257,125.9383491,https://maps.google.com/?cid=0x0:0xa42c94bee3686447
building materials,building materials,Mangoli Utara Tim.,"Kabupaten Kepulauan Sula, Maluku Utara","Kabupaten Kepulauan Sula, Maluku Utara",MALUKU UTARA,,Indonesia,,-1.8414454,126.241388,https://maps.google.com/?cid=0x0:0x17e3b0f466e504e3
building materials,building materials,Kec. Mangoli Sel.,"Kabupaten Kepulauan Sula, Maluku Utara","Kabupaten Kepulauan Sula, Maluku Utara",MALUKU UTARA,,Indonesia,,-1.9281685,125.5811446,https://maps.google.com/?cid=0x0:0xe82e6eef47e4f664
building materials,building materials,PT mangole Timber producers,"5F8Q+2MC, Falabisahaya, dofa mangole barat, Kabupaten Kepulauan Sula, Maluku Utara","Kabupaten Kepulauan Sula, Maluku Utara",MALUKU UTARA,,Indonesia,,-1.8349259,125.489147,https://maps.google.com/?cid=0x0:0x9ce7c4ba52ad11a9
hardware store,hardware store,Pulau Mangoli,"Kabupaten Kepulauan Sula, Maluku Utara","Kabupaten Kepulauan Sula, Maluku Utara",MALUKU UTARA,,Indonesia,,-1.8321222,125.958777,https://maps.google.com/?cid=0x0:0xbd9fadcb148e1f3b
hardware store,Toko Bahan Bangunan,Toko.Timur Raya,"8VPJ+29R, Unnamed Road, Fidi Jaya, Kec. Weda, Kabupaten Halmahera Tengah, Maluku Utara","Kabupaten Halmahera Tengah, Maluku Utara",MALUKU UTARA,,Indonesia,,0.3351116,127.8809053,https://maps.google.com/?cid=0x0:0x23faf8ae84e5052a
hardware store,Toko Bahan Bangunan,Toko Royal Berkat,"Fidi Jaya, Kec. Weda, Kabupaten Halmahera Tengah, Maluku Utara","Kabupaten Halmahera Tengah, Maluku Utara",MALUKU UTARA,,Indonesia,,0.3366136,127.8744648,https://maps.google.com/?cid=0x0:0x1ba28ed8202b8f7
hardware store,Toko Bahan Bangunan,toko fariasi,"Fagudu, Kec. Sanana, Kabupaten Kepulauan Sula, Maluku Utara 97795","Kec. Sanana, Kabupaten Kepulauan Sula",MALUKU UTARA,97795.0,Indonesia,,-2.0613406,125.982371,https://maps.google.com/?cid=0x0:0xc7d11f3f54634ae8
hardware store,Toko Bahan Bangunan,Bangunan Toko,"WXWG+656, Fagudu, Kec. Sanana, Kabupaten Kepulauan Sula, Maluku Utara","Kabupaten Kepulauan Sula, Maluku Utara",MALUKU UTARA,,Indonesia,92921018.0,-2.054462,125.975403,https://maps.google.com/?cid=0x0:0xe128a2c2968ec91c
hardware store,Toko Bahan Bangunan,toko fariasi,"Fagudu, Kec. Sanana, Kabupaten Kepulauan Sula, Maluku Utara 97795","Kec. Sanana, Kabupaten Kepulauan Sula",MALUKU UTARA,97795.0,Indonesia,,-2.0613406,125.982371,https://maps.google.com/?cid=0x0:0xc7d11f3f54634ae8
hardware store,Toko Bahan Bangunan,Bangunan Toko,"WXWG+656, Fagudu, Kec. Sanana, Kabupaten Kepulauan Sula, Maluku Utara","Kabupaten Kepulauan Sula, Maluku Utara",MALUKU UTARA,,Indonesia,92921018.0,-2.054462,125.975403,https://maps.google.com/?cid=0x0:0xe128a2c2968ec91c
hardware store,hardware store,Maluku Utara,,Maluku Utara,MALUKU UTARA,,Indonesia,,1.5709993,127.8087693,https://maps.google.com/?cid=0x0:0x1030bfbcaf71ac0
hardware store,Toko Bahan Bangunan,Toko Surya Jaya - Labuha,"9FCJ+69H, Unnamed Road, Labuha, Kec. Bacan, Kabupaten Halmahera Selatan, Maluku Utara","Kabupaten Halmahera Selatan, Maluku Utara",MALUKU UTARA,,Indonesia,9272321732.0,-0.6294262,127.4809969,https://maps.google.com/?cid=0x0:0xdad7b98c88e223e3
hardware store,hardware store,Toko bangunan,"FPQF+JGJ, Pulau, Obi Sel., Kabupaten Halmahera Selatan, Maluku Utara","Kabupaten Halmahera Selatan, Maluku Utara",MALUKU UTARA,,Indonesia,,-1.5109015,127.7237678,https://maps.google.com/?cid=0x0:0xbd7517ef81383967
hardware store,Toko Bahan Bangunan,Toko Fajar Bangunan,"Gufasa, Kec. Jailolo, Kabupaten Halmahera Barat, Maluku Utara","Kabupaten Halmahera Barat, Maluku Utara",MALUKU UTARA,,Indonesia,,1.0627302,127.4677077,https://maps.google.com/?cid=0x0:0x489f67ee1f329e08
hardware store,hardware store,Kec. Mangoli Bar.,"Kabupaten Kepulauan Sula, Maluku Utara","Kabupaten Kepulauan Sula, Maluku Utara",MALUKU UTARA,,Indonesia,,-1.8071861,125.3556926,https://maps.google.com/?cid=0x0:0x9235093942d7b06a
hardware store,Toko Bahan Bangunan,Bangunan Toko,"WXWG+656, Fagudu, Kec. Sanana, Kabupaten Kepulauan Sula, Maluku Utara","Kabupaten Kepulauan Sula, Maluku Utara",MALUKU UTARA,,Indonesia,92921018.0,-2.054462,125.975403,https://maps.google.com/?cid=0x0:0xe128a2c2968ec91c
hardware store,hardware store,Kec. Sulabesi Tengah,"Kabupaten Kepulauan Sula, Maluku Utara","Kabupaten Kepulauan Sula, Maluku Utara",MALUKU UTARA,,Indonesia,,-2.2660437,126.0041676,https://maps.google.com/?cid=0x0:0xfbd0a140fc92e4f2
hardware store,Toko Bahan Bangunan,toko fariasi,"Fagudu, Kec. Sanana, Kabupaten Kepulauan Sula, Maluku Utara 97795","Kec. Sanana, Kabupaten Kepulauan Sula",MALUKU UTARA,97795.0,Indonesia,,-2.0613406,125.982371,https://maps.google.com/?cid=0x0:0xc7d11f3f54634ae8
hardware store,Toko Bahan Bangunan,toko fariasi,"Fagudu, Kec. Sanana, Kabupaten Kepulauan Sula, Maluku Utara 97795","Kec. Sanana, Kabupaten Kepulauan Sula",MALUKU UTARA,97795.0,Indonesia,,-2.0613406,125.982371,https://maps.google.com/?cid=0x0:0xc7d11f3f54634ae8
hardware store,Toko Bahan Bangunan,Bangunan Toko,"WXWG+656, Fagudu, Kec. Sanana, Kabupaten Kepulauan Sula, Maluku Utara","Kabupaten Kepulauan Sula, Maluku Utara",MALUKU UTARA,,Indonesia,92921018.0,-2.054462,125.975403,https://maps.google.com/?cid=0x0:0xe128a2c2968ec91c
hardware store,hardware store,Maluku Utara 97795,"Falahu, Kec. Sanana, Kabupaten Kepulauan Sula, Maluku Utara","Kabupaten Kepulauan Sula, Maluku Utara",MALUKU UTARA,,Indonesia,,-2.0613593,125.9823727,https://maps.google.com/?cid=0x0:0x25db49ff4002ccf8
hardware store,Toko Bahan Bangunan,Bangunan Toko,"WXWG+656, Fagudu, Kec. Sanana, Kabupaten Kepulauan Sula, Maluku Utara","Kabupaten Kepulauan Sula, Maluku Utara",MALUKU UTARA,,Indonesia,92921018.0,-2.054462,125.975403,https://maps.google.com/?cid=0x0:0xe128a2c2968ec91c
hardware store,Toko Bahan Bangunan,toko fariasi,"Fagudu, Kec. Sanana, Kabupaten Kepulauan Sula, Maluku Utara 97795","Kec. Sanana, Kabupaten Kepulauan Sula",MALUKU UTARA,97795.0,Indonesia,,-2.0613406,125.982371,https://maps.google.com/?cid=0x0:0xc7d11f3f54634ae8
hardware store,hardware store,Maluku Utara 97795,"Falahu, Kec. Sanana, Kabupaten Kepulauan Sula, Maluku Utara","Kabupaten Kepulauan Sula, Maluku Utara",MALUKU UTARA,,Indonesia,,-2.0613593,125.9823727,https://maps.google.com/?cid=0x0:0x25db49ff4002ccf8
hardware store,hardware store,Hardware Galala,"PHVH+PHG, galala Sofifi, Galala, Oba Utara, Kota Tidore Kepulauan, Maluku Utara","Kota Tidore Kepulauan, Maluku Utara",MALUKU UTARA,,Indonesia,,0.7443129,127.5789647,https://maps.google.com/?cid=0x0:0x77ec4e639a04a77
hardware store,hardware store,Toko bangunan,"FPQF+JGJ, Pulau, Obi Sel., Kabupaten Halmahera Selatan, Maluku Utara","Kabupaten Halmahera Selatan, Maluku Utara",MALUKU UTARA,,Indonesia,,-1.5109015,127.7237678,https://maps.google.com/?cid=0x0:0xbd7517ef81383967
hardware store,Komplek perumahan,Arpon,"WXWH+FPF, Mangon, Kec. Sanana, Kabupaten Kepulauan Sula, Maluku Utara","Kabupaten Kepulauan Sula, Maluku Utara",MALUKU UTARA,,Indonesia,,-2.054325,125.979051,https://maps.google.com/?cid=0x0:0x344d511ece9997e2
hardware store,Kios,Kompleks Arpon,"WXWH+FPF, Mangon, Kec. Sanana, Kabupaten Kepulauan Sula, Maluku Utara","Kabupaten Kepulauan Sula, Maluku Utara",MALUKU UTARA,,Indonesia,,-2.0538089,125.9792865,https://maps.google.com/?cid=0x0:0xca12095bcea8b05a
hardware store,hardware store,Mangoli Utara,"Kabupaten Kepulauan Sula, Maluku Utara","Kabupaten Kepulauan Sula, Maluku Utara",MALUKU UTARA,,Indonesia,,-1.7870032,125.4804915,https://maps.google.com/?cid=0x0:0x821bd9ab23ff70b4
hardware store,hardware store,Kec. Mangoli Tengah,"Kabupaten Kepulauan Sula, Maluku Utara","Kabupaten Kepulauan Sula, Maluku Utara",MALUKU UTARA,,Indonesia,,-1.9272257,125.9383491,https://maps.google.com/?cid=0x0:0xa42c94bee3686447
hardware store,hardware store,Pulau Mangoli,"Kabupaten Kepulauan Sula, Maluku Utara","Kabupaten Kepulauan Sula, Maluku Utara",MALUKU UTARA,,Indonesia,,-1.8321222,125.958777,https://maps.google.com/?cid=0x0:0xbd9fadcb148e1f3b
hardware store,hardware store,Mangoli Utara Tim.,"Kabupaten Kepulauan Sula, Maluku Utara","Kabupaten Kepulauan Sula, Maluku Utara",MALUKU UTARA,,Indonesia,,-1.8414454,126.241388,https://maps.google.com/?cid=0x0:0x17e3b0f466e504e3
hardware store,hardware store,Kec. Mangoli Sel.,"Kabupaten Kepulauan Sula, Maluku Utara","Kabupaten Kepulauan Sula, Maluku Utara",MALUKU UTARA,,Indonesia,,-1.9281685,125.5811446,https://maps.google.com/?cid=0x0:0xe82e6eef47e4f664
hardware store,Toko Bahan Bangunan,toko fariasi,"Fagudu, Kec. Sanana, Kabupaten Kepulauan Sula, Maluku Utara 97795","Kec. Sanana, Kabupaten Kepulauan Sula",MALUKU UTARA,97795.0,Indonesia,,-2.0613406,125.982371,https://maps.google.com/?cid=0x0:0xc7d11f3f54634ae8
hardware store,Toko Bahan Bangunan,Bangunan Toko,"WXWG+656, Fagudu, Kec. Sanana, Kabupaten Kepulauan Sula, Maluku Utara","Kabupaten Kepulauan Sula, Maluku Utara",MALUKU UTARA,,Indonesia,92921018.0,-2.054462,125.975403,https://maps.google.com/?cid=0x0:0xe128a2c2968ec91c
supermarket bangunan,supermarket bangunan,Kec. Mangoli Tim.,"Kabupaten Kepulauan Sula, Maluku Utara","Kabupaten Kepulauan Sula, Maluku Utara",MALUKU UTARA,,Indonesia,,-1.9120347,125.9824503,https://maps.google.com/?cid=0x0:0x8b05f627cf49bd0a
supermarket bangunan,Toko Bahan Bangunan,Makmur Utama Supermarket Bahan Bangunan,"Jl. Yasin Gamsungi No.2 Kec. ternate tengah, Kel, Makassar Tim., Makassar Timur, Kota Ternate, Maluku Utara 97724","Kel, Makassar Tim., Makassar Timur, Kota Ternate",MALUKU UTARA,97724.0,Indonesia,8114313799.0,0.7940352,127.3876695,https://maps.google.com/?cid=0x0:0x2f492ae87bf64247
supermarket bangunan,Toko Bahan Bangunan,Makmur Utama Supermarket Bahan Bangunan,"Jambula, Kec. Pulau Ternate, Kota Ternate, Maluku Utara","Kota Ternate, Maluku Utara",MALUKU UTARA,,Indonesia,8114313899.0,0.7581804,127.3220409,https://maps.google.com/?cid=0x0:0xe3a01731f7851efa
supermarket bangunan,supermarket bangunan,Maluku Utara 97795,"Falahu, Kec. Sanana, Kabupaten Kepulauan Sula, Maluku Utara","Kabupaten Kepulauan Sula, Maluku Utara",MALUKU UTARA,,Indonesia,,-2.0613593,125.9823727,https://maps.google.com/?cid=0x0:0x25db49ff4002ccf8
supermarket bangunan,Toko Bahan Bangunan,Distributor Semen Conch Sanana,"Jalan Raya, Falahu, Kec. Sanana, Kabupaten Kepulauan Sula, Maluku Utara 97795","Falahu, Kec. Sanana, Kabupaten Kepulauan Sula",MALUKU UTARA,97795.0,Indonesia,82233920834.0,-2.059688,125.9824895,https://maps.google.com/?cid=0x0:0x6eb1605814b08aea
supermarket bangunan,Toko Bahan Bangunan,toko fariasi,"Fagudu, Kec. Sanana, Kabupaten Kepulauan Sula, Maluku Utara 97795","Kec. Sanana, Kabupaten Kepulauan Sula",MALUKU UTARA,97795.0,Indonesia,,-2.0613406,125.982371,https://maps.google.com/?cid=0x0:0xc7d11f3f54634ae8
supermarket bangunan,supermarket bangunan,Maluku Utara 97795,"Falahu, Kec. Sanana, Kabupaten Kepulauan Sula, Maluku Utara","Kabupaten Kepulauan Sula, Maluku Utara",MALUKU UTARA,,Indonesia,,-2.0613593,125.9823727,https://maps.google.com/?cid=0x0:0x25db49ff4002ccf8
supermarket bangunan,Toko Bahan Bangunan,toko fariasi,"Fagudu, Kec. Sanana, Kabupaten Kepulauan Sula, Maluku Utara 97795","Kec. Sanana, Kabupaten Kepulauan Sula",MALUKU UTARA,97795.0,Indonesia,,-2.0613406,125.982371,https://maps.google.com/?cid=0x0:0xc7d11f3f54634ae8
supermarket bangunan,Toko Bahan Bangunan,Bangunan Toko,"WXWG+656, Fagudu, Kec. Sanana, Kabupaten Kepulauan Sula, Maluku Utara","Kabupaten Kepulauan Sula, Maluku Utara",MALUKU UTARA,,Indonesia,92921018.0,-2.054462,125.975403,https://maps.google.com/?cid=0x0:0xe128a2c2968ec91c
supermarket bangunan,supermarket bangunan,Kec. Mangoli Bar.,"Kabupaten Kepulauan Sula, Maluku Utara","Kabupaten Kepulauan Sula, Maluku Utara",MALUKU UTARA,,Indonesia,,-1.8071861,125.3556926,https://maps.google.com/?cid=0x0:0x9235093942d7b06a
supermarket bangunan,supermarket bangunan,Maluku Utara 97795,"Falahu, Kec. Sanana, Kabupaten Kepulauan Sula, Maluku Utara","Kabupaten Kepulauan Sula, Maluku Utara",MALUKU UTARA,,Indonesia,,-2.0613593,125.9823727,https://maps.google.com/?cid=0x0:0x25db49ff4002ccf8
supermarket bangunan,Toko Bahan Bangunan,toko fariasi,"Fagudu, Kec. Sanana, Kabupaten Kepulauan Sula, Maluku Utara 97795","Kec. Sanana, Kabupaten Kepulauan Sula",MALUKU UTARA,97795.0,Indonesia,,-2.0613406,125.982371,https://maps.google.com/?cid=0x0:0xc7d11f3f54634ae8
supermarket bangunan,Toko Bahan Bangunan,Bangunan Toko,"WXWG+656, Fagudu, Kec. Sanana, Kabupaten Kepulauan Sula, Maluku Utara","Kabupaten Kepulauan Sula, Maluku Utara",MALUKU UTARA,,Indonesia,92921018.0,-2.054462,125.975403,https://maps.google.com/?cid=0x0:0xe128a2c2968ec91c
supermarket bangunan,Toko Bahan Bangunan,Toko Sejahtera,"WXWJ+556, Mangon, Kec. Sanana, Kabupaten Kepulauan Sula, Maluku Utara","Kabupaten Kepulauan Sula, Maluku Utara",MALUKU UTARA,,Indonesia,,-2.0545963,125.9803939,https://maps.google.com/?cid=0x0:0x9c83e67a40dd0af7
supermarket bangunan,Toko Bahan Bangunan,Bangunan Toko,"WXWG+656, Fagudu, Kec. Sanana, Kabupaten Kepulauan Sula, Maluku Utara","Kabupaten Kepulauan Sula, Maluku Utara",MALUKU UTARA,,Indonesia,92921018.0,-2.054462,125.975403,https://maps.google.com/?cid=0x0:0xe128a2c2968ec91c
supermarket bangunan,Toko Bahan Bangunan,Toko Sejahtera,"WXWJ+556, Mangon, Kec. Sanana, Kabupaten Kepulauan Sula, Maluku Utara","Kabupaten Kepulauan Sula, Maluku Utara",MALUKU UTARA,,Indonesia,,-2.0545963,125.9803939,https://maps.google.com/?cid=0x0:0x9c83e67a40dd0af7
supermarket bangunan,Toko Perlengkapan Rumah,Supermarket Bahan Bangunan,"2F2F+92V, Teladan, Kec. Toboali, Kabupaten Bangka Selatan, Kepulauan Bangka Belitung 33783","Teladan, Kec. Toboali, Kabupaten Bangka Selatan",MALUKU UTARA,33783.0,Indonesia,82183195877.0,-2.9990211,106.4725558,https://maps.google.com/?cid=0x0:0x3a7d30ee82e20779
supermarket bangunan,supermarket bangunan,Maluku Utara 97795,"Falahu, Kec. Sanana, Kabupaten Kepulauan Sula, Maluku Utara","Kabupaten Kepulauan Sula, Maluku Utara",MALUKU UTARA,,Indonesia,,-2.0613593,125.9823727,https://maps.google.com/?cid=0x0:0x25db49ff4002ccf8
supermarket bangunan,Toko Bahan Bangunan,toko fariasi,"Fagudu, Kec. Sanana, Kabupaten Kepulauan Sula, Maluku Utara 97795","Kec. Sanana, Kabupaten Kepulauan Sula",MALUKU UTARA,97795.0,Indonesia,,-2.0613406,125.982371,https://maps.google.com/?cid=0x0:0xc7d11f3f54634ae8
supermarket bangunan,Toko Bahan Bangunan,Bangunan Toko,"WXWG+656, Fagudu, Kec. Sanana, Kabupaten Kepulauan Sula, Maluku Utara","Kabupaten Kepulauan Sula, Maluku Utara",MALUKU UTARA,,Indonesia,92921018.0,-2.054462,125.975403,https://maps.google.com/?cid=0x0:0xe128a2c2968ec91c
supermarket bangunan,supermarket bangunan,Mangoli Utara,"Kabupaten Kepulauan Sula, Maluku Utara","Kabupaten Kepulauan Sula, Maluku Utara",MALUKU UTARA,,Indonesia,,-1.7870032,125.4804915,https://maps.google.com/?cid=0x0:0x821bd9ab23ff70b4
supermarket bangunan,Toko Bahan Bangunan,Makmur Utama Supermarket Bahan Bangunan,"Jambula, Kec. Pulau Ternate, Kota Ternate, Maluku Utara","Kota Ternate, Maluku Utara",MALUKU UTARA,,Indonesia,8114313899.0,0.7581804,127.3220409,https://maps.google.com/?cid=0x0:0xe3a01731f7851efa
supermarket bangunan,Toko Bahan Bangunan,Makmur Utama Supermarket Bahan Bangunan,"Jl. Yasin Gamsungi No.2 Kec. ternate tengah, Kel, Makassar Tim., Makassar Timur, Kota Ternate, Maluku Utara 97724","Kel, Makassar Tim., Makassar Timur, Kota Ternate",MALUKU UTARA,97724.0,Indonesia,8114313799.0,0.7940352,127.3876695,https://maps.google.com/?cid=0x0:0x2f492ae87bf64247
supermarket bangunan,supermarket bangunan,Kec. Mangoli Tengah,"Kabupaten Kepulauan Sula, Maluku Utara","Kabupaten Kepulauan Sula, Maluku Utara",MALUKU UTARA,,Indonesia,,-1.9272257,125.9383491,https://maps.google.com/?cid=0x0:0xa42c94bee3686447
supermarket bangunan,Toko Bahan Bangunan,Makmur Utama Supermarket Bahan Bangunan,"Jl. Yasin Gamsungi No.2 Kec. ternate tengah, Kel, Makassar Tim., Makassar Timur, Kota Ternate, Maluku Utara 97724","Kel, Makassar Tim., Makassar Timur, Kota Ternate",MALUKU UTARA,97724.0,Indonesia,8114313799.0,0.7940352,127.3876695,https://maps.google.com/?cid=0x0:0x2f492ae87bf64247
supermarket bangunan,supermarket bangunan,Desa Mangoli,"3WGQ+2V9, Mangoli, Kec. Mangoli Tengah, Kabupaten Kepulauan Sula, Maluku Utara","Kabupaten Kepulauan Sula, Maluku Utara",MALUKU UTARA,,Indonesia,,-1.9249556,125.9397257,https://maps.google.com/?cid=0x0:0x1b31c796d71261f5
supermarket bangunan,supermarket bangunan,Mangoli Utara Tim.,"Kabupaten Kepulauan Sula, Maluku Utara","Kabupaten Kepulauan Sula, Maluku Utara",MALUKU UTARA,,Indonesia,,-1.8414454,126.241388,https://maps.google.com/?cid=0x0:0x17e3b0f466e504e3
supermarket bangunan,Toko Bahan Bangunan,Makmur Utama Supermarket Bahan Bangunan,"Jl. Yasin Gamsungi No.2 Kec. ternate tengah, Kel, Makassar Tim., Makassar Timur, Kota Ternate, Maluku Utara 97724","Kel, Makassar Tim., Makassar Timur, Kota Ternate",MALUKU UTARA,97724.0,Indonesia,8114313799.0,0.7940352,127.3876695,https://maps.google.com/?cid=0x0:0x2f492ae87bf64247
supermarket bangunan,Toko Bahan Bangunan,Makmur Utama Supermarket Bahan Bangunan,"Jambula, Kec. Pulau Ternate, Kota Ternate, Maluku Utara","Kota Ternate, Maluku Utara",MALUKU UTARA,,Indonesia,8114313899.0,0.7581804,127.3220409,https://maps.google.com/?cid=0x0:0xe3a01731f7851efa
supermarket bangunan,supermarket bangunan,Kec. Mangoli Sel.,"Kabupaten Kepulauan Sula, Maluku Utara","Kabupaten Kepulauan Sula, Maluku Utara",MALUKU UTARA,,Indonesia,,-1.9281685,125.5811446,https://maps.google.com/?cid=0x0:0xe82e6eef47e4f664
supermarket bangunan,Toko Bahan Bangunan,Makmur Utama Supermarket Bahan Bangunan,"Jl. Yasin Gamsungi No.2 Kec. ternate tengah, Kel, Makassar Tim., Makassar Timur, Kota Ternate, Maluku Utara 97724","Kel, Makassar Tim., Makassar Timur, Kota Ternate",MALUKU UTARA,97724.0,Indonesia,8114313799.0,0.7940352,127.3876695,https://maps.google.com/?cid=0x0:0x2f492ae87bf64247
supermarket bangunan,supermarket bangunan,Toko bangunan,"FPQF+JGJ, Pulau, Obi Sel., Kabupaten Halmahera Selatan, Maluku Utara","Kabupaten Halmahera Selatan, Maluku Utara",MALUKU UTARA,,Indonesia,,-1.5109015,127.7237678,https://maps.google.com/?cid=0x0:0xbd7517ef81383967
supermarket bangunan,supermarket bangunan,Maluku Utara 97795,"Falahu, Kec. Sanana, Kabupaten Kepulauan Sula, Maluku Utara","Kabupaten Kepulauan Sula, Maluku Utara",MALUKU UTARA,,Indonesia,,-2.0613593,125.9823727,https://maps.google.com/?cid=0x0:0x25db49ff4002ccf8
supermarket bangunan,Toko Bahan Bangunan,Distributor Semen Conch Sanana,"Jalan Raya, Falahu, Kec. Sanana, Kabupaten Kepulauan Sula, Maluku Utara 97795","Falahu, Kec. Sanana, Kabupaten Kepulauan Sula",MALUKU UTARA,97795.0,Indonesia,82233920834.0,-2.059688,125.9824895,https://maps.google.com/?cid=0x0:0x6eb1605814b08aea
supermarket bangunan,Toko Bahan Bangunan,toko fariasi,"Fagudu, Kec. Sanana, Kabupaten Kepulauan Sula, Maluku Utara 97795","Kec. Sanana, Kabupaten Kepulauan Sula",MALUKU UTARA,97795.0,Indonesia,,-2.0613406,125.982371,https://maps.google.com/?cid=0x0:0xc7d11f3f54634ae8
supermarket bangunan,Toko Barang Pecah Belah,Toko Moro Asih,"WXJJ+9C3, Fatce, Kec. Sanana, Kabupaten Kepulauan Sula, Maluku Utara","Kabupaten Kepulauan Sula, Maluku Utara",MALUKU UTARA,,Indonesia,,-2.0691034,125.981046,https://maps.google.com/?cid=0x0:0x6c709744209ad66c
