Category,Real Category,Business Name,Address,City,State,Postal Code,Country,Phone,Email,Website,Latitude,Longitude,Map Link,Details Link
toko bangunan,toko bangunan,Sulawesi Utara 95371,"Airmadidi Atas, Kec. Airmadidi, Kabupaten Minahasa Utara, Sulawesi Utara","Kabupaten Minahasa Utara, Sulawesi Utara",SULAWESI UTARA,,Indonesia,,,,14.172.327,1.249.876.821,https://maps.google.com/?cid=0x0:0x80e87fd6189d70fc,
toko bangunan,Toko Bahan Bangunan,Depo Bangunan Baru,"Airmadidi Atas, Kec. Airmadidi, Kabupaten Minahasa Utara, Sulawesi Utara","Kabupaten Minahasa Utara, Sulawesi Utara",SULAWESI UTARA,,Indonesia,08114667779,,,14.209.652,1.249.858.983,https://maps.google.com/?cid=0x0:0x39d09d0fdcf3ce9a,
toko bangunan,Toko Bahan Bangunan,Toko Bangunan Alden,"Jl. SBY No.70, Sukur, Kec. Airmadidi, Kabupaten Minahasa Utara, Sulawesi Utara","Kabupaten Minahasa Utara, Sulawesi Utara",SULAWESI UTARA,,Indonesia,082366436061,,,14.611.442,1.249.666.508,https://maps.google.com/?cid=0x0:0xc92a017c991e4486,
toko bangunan,Toko Bahan Bangunan,"Toko Bahan Bangunan Deandre""""","CXFR+3RH, Unnamed Road, Airmadidi Atas, Kec. Airmadidi, Kabupaten Minahasa Utara, Sulawesi Utara","Kabupaten Minahasa Utara, Sulawesi Utara",SULAWESI UTARA,,Indonesia,,,,14.226.814,1.249.920.987,https://maps.google.com/?cid=0x0:0xae28e79f39bf6c0a,
toko bangunan,Toko Bahan Bangunan,Toko Bahan Bangunan Adel Jaya,"Jl. Arnold Mononutu, Airmadidi Atas, Kec. Airmadidi, Kota Manado, Sulawesi Utara 95371","Airmadidi Atas, Kec. Airmadidi, Kota Manado",SULAWESI UTARA,95371.0,Indonesia,081356527782,,,14.263.083,124.980.685,https://maps.google.com/?cid=0x0:0x99117017828bdce0,
toko bangunan,Toko Bahan Bangunan,Toko bangunan Rejeki Jaya,"CXX5+7G4, Jl. Sukur - Likupang, Sukur, Kec. Airmadidi, Kabupaten Minahasa Utara, Sulawesi Utara","Kabupaten Minahasa Utara, Sulawesi Utara",SULAWESI UTARA,,Indonesia,0811431341,,,14.481.495,1.249.588.422,https://maps.google.com/?cid=0x0:0x30a202e84321b74d,
toko bangunan,Toko Bahan Bangunan,"Cipta Sarana, Sukur, Airmadidi","Jl. Raya Manado - Bitung, Sukur, Kec. Airmadidi, Kabupaten Minahasa Utara, Sulawesi Utara","Kabupaten Minahasa Utara, Sulawesi Utara",SULAWESI UTARA,,Indonesia,,,,14.476.341,1.249.596.084,https://maps.google.com/?cid=0x0:0x666bbfc04e00e06c,
toko bangunan,Toko Bahan Bangunan,Toko Bangunan Pelangi Jaya,"CXCP+8C6, Jl. Arnold Mononutu, Airmadidi Atas, Kec. Airmadidi, Kabupaten Minahasa Utara, Sulawesi Utara","Kabupaten Minahasa Utara, Sulawesi Utara",SULAWESI UTARA,,Indonesia,0431892154,,,14.207.968,1.249.860.006,https://maps.google.com/?cid=0x0:0xfaa036c485707fb1,
toko bangunan,Toko Perlengkapan Rumah,Toko Sumber Meubel Elektronik Bangunan,"Jl. Raya Manado - Bitung, Sarongsong I, Kec. Airmadidi, Kabupaten Minahasa Utara, Sulawesi Utara","Kabupaten Minahasa Utara, Sulawesi Utara",SULAWESI UTARA,,Indonesia,085146472422,,,14.279.751,1.249.791.172,https://maps.google.com/?cid=0x0:0xfe4620b5cfc9b497,
toko bangunan,Toko Bahan Bangunan,Toko Bangunan Palaron,"Jl Wanua ure, Sukur, Kec. Airmadidi, Manado, Sulawesi Utara 95371","Sukur, Kec. Airmadidi, Manado",SULAWESI UTARA,95371.0,Indonesia,085342896522,,,14.366.318,1.249.650.486,https://maps.google.com/?cid=0x0:0x38b999988966bc93,
toko bangunan,Toko,Toko GRAND HARDWARE,"CXJH+22P, Sarongsong I, Kec. Airmadidi, Kabupaten Minahasa Utara, Sulawesi Utara","Kabupaten Minahasa Utara, Sulawesi Utara",SULAWESI UTARA,,Indonesia,,,,14.300.932,1.249.775.741,https://maps.google.com/?cid=0x0:0xd5bea6e4e94329b1,
toko bangunan,Toko Perlengkapan Rumah,MR.DIY,"Jl. Raya Manado - Bitung No.871, Airmadidi Atas, Kec. Airmadidi, Kabupaten Minahasa Utara, Sulawesi Utara","Kabupaten Minahasa Utara, Sulawesi Utara",SULAWESI UTARA,,Indonesia,,,,1.419.665,1.249.877.989,https://maps.google.com/?cid=0x0:0x6b10aff0b5f80bb8,
toko bangunan,Toko Bahan Bangunan,Toko Bangunan Chiko Matungkas,"FXF9+7QQ, Jl. Sukur - Likupang, Matungkas, Kec. Dimembe, Kabupaten Minahasa Utara, Sulawesi Utara","Kabupaten Minahasa Utara, Sulawesi Utara",SULAWESI UTARA,,Indonesia,085340940004,,,14.732.046,1.249.694.978,https://maps.google.com/?cid=0x0:0xb10a524c66bf6d30,
toko bangunan,Toko Bahan Bangunan,TOKO SURYA JAYA,"Matungkas, Kec. Dimembe, Kabupaten Minahasa Utara, Sulawesi Utara","Kabupaten Minahasa Utara, Sulawesi Utara",SULAWESI UTARA,,Indonesia,085761113781,,,14.753.625,1.249.663.016,https://maps.google.com/?cid=0x0:0xeb72aa0f66a8a80b,
toko bangunan,Toko Bahan Bangunan,Tk. Bahan bangunan VIFANLIA,"Jl. Raya Manado - Bitung, Sukur, Kec. Airmadidi, Kabupaten Minahasa Utara, Sulawesi Utara","Kabupaten Minahasa Utara, Sulawesi Utara",SULAWESI UTARA,,Indonesia,085341918984,,,14.491.178,1.249.581.447,https://maps.google.com/?cid=0x0:0xc22266a1dd8ff5c0,
toko bangunan,Toko Bahan Bangunan,TOKO BANGUNAN MS,"Dekat matungkas , kec dimembe, Jl. Raya Likupang, Kec. Airmadidi, Sulawesi Utara 95371","kec dimembe, Jl. Raya Likupang, Kec. Airmadidi",SULAWESI UTARA,95371.0,Indonesia,085396672112,,,14.667.282,124.966.547,https://maps.google.com/?cid=0x0:0x56f7823a657be343,
toko bangunan,Toko Bahan Bangunan,TOKO BANGUNAN RIZKY BADAS,"Kawangkoan, Kec. Kalawat, Kabupaten Minahasa Utara, Sulawesi Utara","Kabupaten Minahasa Utara, Sulawesi Utara",SULAWESI UTARA,,Indonesia,081330119059,,,14.590.841,1.249.327.088,https://maps.google.com/?cid=0x0:0x99b35880d1e58868,
toko bangunan,Toko Alat Tulis Kantor,Toko Trendy Airmadidi,"Rumah Sakit Umum Tonsea, Sarongsong I, Kec. Airmadidi, Kabupaten Minahasa Utara, Sulawesi Utara","Kabupaten Minahasa Utara, Sulawesi Utara",SULAWESI UTARA,,Indonesia,,,,14.273.575,1.249.787.793,https://maps.google.com/?cid=0x0:0xf99c9aa0fefefbbf,
toko bangunan,Toko Bahan Bangunan,Lancar Jaya Bangunan,"CXJG+X2P, Jl. Raya Manado - Bitung, Sarongsong II, Kec. Airmadidi, Kabupaten Minahasa Utara, Sulawesi Utara","Kabupaten Minahasa Utara, Sulawesi Utara",SULAWESI UTARA,,Indonesia,,,,14.324.515,1.249.750.698,https://maps.google.com/?cid=0x0:0x1a5bcb53e44112e8,
toko bangunan,Toko bahan makanan,Toko Lancar Jaya Bangunan  Aneka Plastik,"Jl. Raya Manado - Bitung No.Kel, Sarongsong I, Kec. Airmadidi, Kabupaten Minahasa Utara, Sulawesi Utara","Kabupaten Minahasa Utara, Sulawesi Utara",SULAWESI UTARA,,Indonesia,085100170177,,,14.235.877,1.249.834.191,https://maps.google.com/?cid=0x0:0xc218799e8ebb6215,
toko bangunan,Toko Bahan Bangunan,UD. Ria Jaya,"Sukur, Kec. Airmadidi, Kabupaten Minahasa Utara, Sulawesi Utara","Kabupaten Minahasa Utara, Sulawesi Utara",SULAWESI UTARA,,Indonesia,0811409476,,,14.503.394,1.249.601.121,https://maps.google.com/?cid=0x0:0x7edd56340f1e2460,
toko bangunan,toko bangunan,Sulawesi Utara 95373,"Paniki Atas, Kec. Talawaan, Kabupaten Minahasa Utara, Sulawesi Utara","Kabupaten Minahasa Utara, Sulawesi Utara",SULAWESI UTARA,,Indonesia,,,,14.974.733,1.249.238.636,https://maps.google.com/?cid=0x0:0x3a1e3c0a99b6788f,
toko bangunan,Toko Bahan Bangunan,TOKO SURYA JAYA,"Matungkas, Kec. Dimembe, Kabupaten Minahasa Utara, Sulawesi Utara","Kabupaten Minahasa Utara, Sulawesi Utara",SULAWESI UTARA,,Indonesia,085761113781,,,14.753.625,1.249.663.016,https://maps.google.com/?cid=0x0:0xeb72aa0f66a8a80b,
toko bangunan,Toko Bahan Bangunan,UD.Murni 2 Dimembe - Toko Material dan Bahan Bangunan,"Samping Lorong Olahraga, Jl. Sukur - Likupang, Jaga V, Kec. Dimembe, Kabupaten Minahasa Utara, Sulawesi Utara 95373","Jl. Sukur - Likupang, Jaga V, Kec. Dimembe, Kabupaten Minahasa Utara",SULAWESI UTARA,95373.0,Indonesia,,,,14.907.004,1.249.758.544,https://maps.google.com/?cid=0x0:0xb183ee6014b14e0b,
toko bangunan,Toko Bahan Bangunan,Toko Bangunan Chiko Matungkas,"FXF9+7QQ, Jl. Sukur - Likupang, Matungkas, Kec. Dimembe, Kabupaten Minahasa Utara, Sulawesi Utara","Kabupaten Minahasa Utara, Sulawesi Utara",SULAWESI UTARA,,Indonesia,085340940004,,,14.732.046,1.249.694.978,https://maps.google.com/?cid=0x0:0xb10a524c66bf6d30,
toko bangunan,Toko Bahan Bangunan,Toko Bangunan Malak Matungkas,"FXC9+636, Matungkas Jaga X, Kec. Dimembe, Kabupaten Minahasa Utara, Sulawesi Utara","Kabupaten Minahasa Utara, Sulawesi Utara",SULAWESI UTARA,,Indonesia,081356833133,,,14.705.375,1.249.676.406,https://maps.google.com/?cid=0x0:0x1c9d1d8d885ff988,
toko bangunan,Toko Bahan Bangunan,Toko Bangunan Berkat Anugerah,"FXGC+56F, Matungkas, Kec. Dimembe, Kabupaten Minahasa Utara, Sulawesi Utara","Kabupaten Minahasa Utara, Sulawesi Utara",SULAWESI UTARA,,Indonesia,085166903897,,,14.754.432,1.249.705.573,https://maps.google.com/?cid=0x0:0x5392f2726457469d,
toko bangunan,Toko Perlengkapan Rumah,Toko Bangunan Jaya Tetey,"GXF6+528, Tetey, Kec. Dimembe, Kabupaten Minahasa Utara, Sulawesi Utara","Kabupaten Minahasa Utara, Sulawesi Utara",SULAWESI UTARA,,Indonesia,081356412097,,,15.229.244,1.249.600.769,https://maps.google.com/?cid=0x0:0x5a0684c8b62a34d,
toko bangunan,Toko Bahan Bangunan,Toko Bangunan Agung Abadi,"Zero Point, Depan SPBU, Ruko Bevalue No.3, Matungkas, Kec. Dimembe, Manado, Sulawesi Utara","Manado, Sulawesi Utara",SULAWESI UTARA,,Indonesia,081356769191,,,14.612.429,1.249.665.856,https://maps.google.com/?cid=0x0:0x924560f0b7bf05bd,
toko bangunan,Toko Bahan Bangunan,Duta Bangunan UD,"HX2X+R8M, Wasian, Kec. Dimembe, Kabupaten Minahasa Utara, Sulawesi Utara","Kabupaten Minahasa Utara, Sulawesi Utara",SULAWESI UTARA,,Indonesia,0431893623,,,15.520.905,1.249.982.821,https://maps.google.com/?cid=0x0:0xf6fcbb9443ad3ce9,
toko bangunan,Toko Bahan Bangunan,DeDo Supermarket,"Jl. Raya Manado - Bitung, Maumbi, Kec. Kalawat, Kabupaten Minahasa Utara, Sulawesi Utara","Kabupaten Minahasa Utara, Sulawesi Utara",SULAWESI UTARA,,Indonesia,082363111170,,,14.783.792,1.249.086.253,https://maps.google.com/?cid=0x0:0x2d4a0393891ebb97,
toko bangunan,Toko Bahan Bangunan,TOKO BANGUNAN RIZKY BADAS,"Kawangkoan, Kec. Kalawat, Kabupaten Minahasa Utara, Sulawesi Utara","Kabupaten Minahasa Utara, Sulawesi Utara",SULAWESI UTARA,,Indonesia,081330119059,,,14.590.841,1.249.327.088,https://maps.google.com/?cid=0x0:0x99b35880d1e58868,
toko bangunan,Toko Bahan Bangunan,Triberkat Toko Bangunan,"FV2M+H3P, Sawangan, Kec. Tombulu, Kabupaten Minahasa, Sulawesi Utara","Kabupaten Minahasa, Sulawesi Utara",SULAWESI UTARA,,Indonesia,,,,14.516.151,1.248.823.958,https://maps.google.com/?cid=0x0:0xb1724ee606aad0ec,
toko bangunan,Kios,Toko Bangunan dan Sembako,"FW88+HJJ, Watutumou II, Kec. Kalawat, Kabupaten Minahasa Utara, Sulawesi Utara","Kabupaten Minahasa Utara, Sulawesi Utara",SULAWESI UTARA,,Indonesia,087773953145,,,14.664.691,1.249.165.212,https://maps.google.com/?cid=0x0:0x21990419e38de381,
toko bangunan,Toko Bahan Bangunan,TB.MERIBA (Toko Bangunan),"7WX6+4XP, Taler, Tondano Tim., Kabupaten Minahasa, Sulawesi Utara","Kabupaten Minahasa, Sulawesi Utara",SULAWESI UTARA,,Indonesia,085696259199,,,12.978.375,1.249.124.531,https://maps.google.com/?cid=0x0:0x92ba361f80294412,
toko bangunan,Pemasok Bahan Bangunan,Toko Bangunan Cendrawasih,"Taler, Tondano Tim., Kabupaten Minahasa, Sulawesi Utara","Kabupaten Minahasa, Sulawesi Utara",SULAWESI UTARA,,Indonesia,081343561691,,,12.984.892,1.249.127.644,https://maps.google.com/?cid=0x0:0x563050a595f334a3,
toko bangunan,Toko Bahan Bangunan,Toko Bangunan Sinar Berkat,"Warembungan, Kec. Pineleng, Kabupaten Minahasa, Sulawesi Utara","Kabupaten Minahasa, Sulawesi Utara",SULAWESI UTARA,,Indonesia,082259753525,,,1.417.257,124.821.793,https://maps.google.com/?cid=0x0:0x9454d0623758efea,
toko bangunan,Pasar bahan bangunan,Toko Bangunan Wapon Jaya,"Jl. Sea induk, Sea I, Kec. Pineleng, Kabupaten Minahasa, Sulawesi Utara","Kabupaten Minahasa, Sulawesi Utara",SULAWESI UTARA,,Indonesia,085340309099,,,14.291.092,1.247.997.913,https://maps.google.com/?cid=0x0:0x2216e5af37ff6b7a,
toko bangunan,Grosir,Toko Samudra,"HX3X+HF6, Jl. Sukur - Likupang, Wasian, Kec. Dimembe, Kabupaten Minahasa Utara, Sulawesi Utara","Kabupaten Minahasa Utara, Sulawesi Utara",SULAWESI UTARA,,Indonesia,,,,15.539.114,1.249.986.522,https://maps.google.com/?cid=0x0:0x7a6ca99e7558105b,
toko bangunan,Toko Perlengkapan Rumah,Toko Sumber Meubel Elektronik Bangunan,"Jl. Raya Manado - Bitung, Sarongsong I, Kec. Airmadidi, Kabupaten Minahasa Utara, Sulawesi Utara","Kabupaten Minahasa Utara, Sulawesi Utara",SULAWESI UTARA,,Indonesia,085146472422,,,14.279.751,1.249.791.172,https://maps.google.com/?cid=0x0:0xfe4620b5cfc9b497,
toko bangunan,Toko Bahan Bangunan,Toko Elgio,"G325+5H6 jaga 6, Klabat, Kec. Dimembe, Kabupaten Minahasa Utara, Sulawesi Utara","Kabupaten Minahasa Utara, Sulawesi Utara",SULAWESI UTARA,,Indonesia,,,,15.004.081,1.250.588.788,https://maps.google.com/?cid=0x0:0x91b8dd84ce8d44aa,
toko bangunan,Toko Bahan Bangunan,Depo Bangunan Baru,"Airmadidi Atas, Kec. Airmadidi, Kabupaten Minahasa Utara, Sulawesi Utara","Kabupaten Minahasa Utara, Sulawesi Utara",SULAWESI UTARA,,Indonesia,08114667779,,,14.209.652,1.249.858.983,https://maps.google.com/?cid=0x0:0x39d09d0fdcf3ce9a,
toko bangunan,Kantor Perusahaan,CV Bangunan Karya Mandiri,"Jl. Trans Sulawesi No.mor 88, Tateli, Kec. Mandolang, Kabupaten Minahasa, Sulawesi Utara 95661","Tateli, Kec. Mandolang, Kabupaten Minahasa",SULAWESI UTARA,95661.0,Indonesia,081389898887,,,14.418.019,1.247.530.328,https://maps.google.com/?cid=0x0:0x8c3a90a3b9407031,
toko bangunan,Toko Bahan Bangunan,Toko Sumber Bangunan Pineleng,"CRGQ+VCG, Jl. Raya Manado Tomohon, Pineleng I, Kec. Pineleng, Kabupaten Minahasa, Sulawesi Utara","Kabupaten Minahasa, Sulawesi Utara",SULAWESI UTARA,,Indonesia,,,,14.271.958,1.248.385.828,https://maps.google.com/?cid=0x0:0x5bfd3a32058d5029,
toko bangunan,Toko Bahan Bangunan,Kios Devin,"FX9C+FPX, Matungkas, Kec. Dimembe, Kabupaten Minahasa Utara, Sulawesi Utara","Kabupaten Minahasa Utara, Sulawesi Utara",SULAWESI UTARA,,Indonesia,,,,14.686.889,1.249.717.395,https://maps.google.com/?cid=0x0:0x7c2c40fb8a21903e,
toko bangunan,Toko Bahan Bangunan,Toko Bangunan Sumber Mas,"6VJ7+Q9H, Jl. Tondano - Kakas, Timu, Kec. Remboken, Kabupaten Minahasa, Sulawesi Utara","Kabupaten Minahasa, Sulawesi Utara",SULAWESI UTARA,,Indonesia,082310002528,,,12.319.396,1.248.634.961,https://maps.google.com/?cid=0x0:0x15d858ffa7b9cdcc,
toko bangunan,Toko Bahan Bangunan,Toko Bahan Bangunan,"FRWX+995, Jl. Soputan, Singkil Satu, Kec. Singkil, Kota Manado, Sulawesi Utara","Kota Manado, Sulawesi Utara",SULAWESI UTARA,,Indonesia,,,,14.958.803,1.248.484.916,https://maps.google.com/?cid=0x0:0x87a9bba92591a12e,
toko bangunan,Kios,Toko Bangunan dan Sembako,"FW88+HJJ, Watutumou II, Kec. Kalawat, Kabupaten Minahasa Utara, Sulawesi Utara","Kabupaten Minahasa Utara, Sulawesi Utara",SULAWESI UTARA,,Indonesia,087773953145,,,14.664.691,1.249.165.212,https://maps.google.com/?cid=0x0:0x21990419e38de381,
toko bangunan,Toko Bahan Bangunan,Toko sumber terang,"Jl. Ir. Soekarno No.88, Kolongan Tetempangan, Kec. Kalawat, Kabupaten Minahasa Utara, Sulawesi Utara","Kabupaten Minahasa Utara, Sulawesi Utara",SULAWESI UTARA,,Indonesia,089698079913,,,14.764.815,1.249.366.244,https://maps.google.com/?cid=0x0:0x804c90914228033c,
toko bangunan,Toko Bahan Bangunan,TOKO BANGUNAN RIZKY BADAS,"Kawangkoan, Kec. Kalawat, Kabupaten Minahasa Utara, Sulawesi Utara","Kabupaten Minahasa Utara, Sulawesi Utara",SULAWESI UTARA,,Indonesia,081330119059,,,14.590.841,1.249.327.088,https://maps.google.com/?cid=0x0:0x99b35880d1e58868,
toko bangunan,Toko Bahan Bangunan,Toko Permata Bangunan,"Mapanget, Kec. Talawaan, Kabupaten Minahasa Utara, Sulawesi Utara","Kabupaten Minahasa Utara, Sulawesi Utara",SULAWESI UTARA,,Indonesia,085761113911,,,15.353.249,1.249.290.076,https://maps.google.com/?cid=0x0:0xf49bcf0b466cfbd5,
toko bangunan,Toko Bahan Bangunan,Bersinar,"Jl. Raya Manado - Bitung, Maumbi, Kec. Kalawat, Kabupaten Minahasa Utara, Sulawesi Utara","Kabupaten Minahasa Utara, Sulawesi Utara",SULAWESI UTARA,,Indonesia,,,,14.809.633,1.249.044.372,https://maps.google.com/?cid=0x0:0x72672058ff597ce7,
toko bangunan,Toko Bahan Bangunan,TK SUMBER JAYA,"FW8F+MW6, Jl. Raya Manado - Bitung, Kolongan Tetempangan, Kec. Kalawat, Kabupaten Minahasa Utara, Sulawesi Utara 95370","Jl. Raya Manado - Bitung, Kolongan Tetempangan, Kec. Kalawat, Kabupaten Minahasa Utara",SULAWESI UTARA,95370.0,Indonesia,,,,14.666.655,1.249.247.748,https://maps.google.com/?cid=0x0:0x54f2c34ab9d56f79,
toko bangunan,Toko Bahan Bangunan,Depo Bangunan Baru,"Airmadidi Atas, Kec. Airmadidi, Kabupaten Minahasa Utara, Sulawesi Utara","Kabupaten Minahasa Utara, Sulawesi Utara",SULAWESI UTARA,,Indonesia,08114667779,,,14.209.652,1.249.858.983,https://maps.google.com/?cid=0x0:0x39d09d0fdcf3ce9a,
toko bangunan,Toko Bahan Bangunan,Pyramid,"Jl. Walanda Maramis 2 No.No, Maumbi, Kec. Kalawat, Kabupaten Minahasa Utara, Sulawesi Utara","Kabupaten Minahasa Utara, Sulawesi Utara",SULAWESI UTARA,,Indonesia,,,,148.128,124.904,https://maps.google.com/?cid=0x0:0x36f5086612750e71,
toko bangunan,Toko Bahan Bangunan,TOKO SURYA JAYA,"Matungkas, Kec. Dimembe, Kabupaten Minahasa Utara, Sulawesi Utara","Kabupaten Minahasa Utara, Sulawesi Utara",SULAWESI UTARA,,Indonesia,085761113781,,,14.753.625,1.249.663.016,https://maps.google.com/?cid=0x0:0xeb72aa0f66a8a80b,
toko bangunan,Toko Bahan Bangunan,Toko Bangunan Chiko Matungkas,"FXF9+7QQ, Jl. Sukur - Likupang, Matungkas, Kec. Dimembe, Kabupaten Minahasa Utara, Sulawesi Utara","Kabupaten Minahasa Utara, Sulawesi Utara",SULAWESI UTARA,,Indonesia,085340940004,,,14.732.046,1.249.694.978,https://maps.google.com/?cid=0x0:0xb10a524c66bf6d30,
toko bangunan,Toko Bahan Bangunan,Triberkat Toko Bangunan,"FV2M+H3P, Sawangan, Kec. Tombulu, Kabupaten Minahasa, Sulawesi Utara","Kabupaten Minahasa, Sulawesi Utara",SULAWESI UTARA,,Indonesia,,,,14.516.151,1.248.823.958,https://maps.google.com/?cid=0x0:0xb1724ee606aad0ec,
toko bangunan,Toko Bahan Bangunan,sumber alam,"FWF5+QW2, Watutumou, Kec. Kalawat, Kabupaten Minahasa Utara, Sulawesi Utara","Kabupaten Minahasa Utara, Sulawesi Utara",SULAWESI UTARA,,Indonesia,,,,14.743.901,1.249.097.798,https://maps.google.com/?cid=0x0:0xb63c1f1017ce4433,
toko bangunan,Toko Perlengkapan Rumah,CSA Studio,"Jl. Ring Road, Maumbi, Kec. Kalawat, Kabupaten Minahasa Utara, Sulawesi Utara","Kabupaten Minahasa Utara, Sulawesi Utara",SULAWESI UTARA,,Indonesia,087819545846,,,14.753.199,1.248.896.258,https://maps.google.com/?cid=0x0:0x4875eca3ea872418,
toko bangunan,toko bangunan,Kec. Kauditan,"Kabupaten Minahasa Utara, Sulawesi Utara","Kabupaten Minahasa Utara, Sulawesi Utara",SULAWESI UTARA,,Indonesia,,,,13.931.442,125.042.732,https://maps.google.com/?cid=0x0:0x2d255a96bf594260,
toko bangunan,Toko Bahan Bangunan,Kios IMANUEL,"desa, Kauditan II, Kec. Kauditan, Kabupaten Minahasa Utara, Sulawesi Utara","Kabupaten Minahasa Utara, Sulawesi Utara",SULAWESI UTARA,,Indonesia,082193319910,,,13.910.229,1.250.480.414,https://maps.google.com/?cid=0x0:0x1a0fb236dec656af,
toko bangunan,Komplek perumahan,Kezia home,"CX3V+CGR, Tumaluntung, Kec. Kauditan, Kabupaten Minahasa Utara, Sulawesi Utara","Kabupaten Minahasa Utara, Sulawesi Utara",SULAWESI UTARA,,Indonesia,,,,14.036.121,1.249.937.537,https://maps.google.com/?cid=0x0:0x6ccd979adda3140,
toko bangunan,Agen Tenaga Kerja,PT MANADO BERKAH SEJATI,"Jl. Raya Manado - Bitung, Watudambo Dua, Kec. Kauditan, Kabupaten Minahasa Utara, Sulawesi Utara 95372","Watudambo Dua, Kec. Kauditan, Kabupaten Minahasa Utara",SULAWESI UTARA,95372.0,Indonesia,08114349080,,,14.067.468,1.250.730.119,https://maps.google.com/?cid=0x0:0xfe617a32e3864c80,
toko bangunan,Pusat Perbelanjaan,Tk El Jaya,"93W2+XG4, Unnamed Road, Kauditan I, Kec. Kauditan, Kabupaten Minahasa Utara, Sulawesi Utara","Kabupaten Minahasa Utara, Sulawesi Utara",SULAWESI UTARA,,Indonesia,,,,13.973.834,1.250.513.306,https://maps.google.com/?cid=0x0:0xdf9f22b8961d5f4e,
toko bangunan,Toko Bahan Bangunan,Depo Bangunan Baru,"Airmadidi Atas, Kec. Airmadidi, Kabupaten Minahasa Utara, Sulawesi Utara","Kabupaten Minahasa Utara, Sulawesi Utara",SULAWESI UTARA,,Indonesia,08114667779,,,14.209.652,1.249.858.983,https://maps.google.com/?cid=0x0:0x39d09d0fdcf3ce9a,
toko bangunan,Toko Bahan Bangunan,UD BYU tatalaksana jual holowbrik,"C35J+Q43, Jl. Raya Manado - Bitung, Watudambo Dua, Kec. Matuari, Kota Bitung, Sulawesi Utara","Kota Bitung, Sulawesi Utara",SULAWESI UTARA,,Indonesia,,,,14.093.822,1.250.802.828,https://maps.google.com/?cid=0x0:0x1ef84469adee1112,
toko bangunan,toko bangunan,Toko Bangunan UD. Gloria - MINUT,"Jl. Soekarno No.D-291, Sarongsong II, Kec. Dimembe, Kabupaten Minahasa Utara, Sulawesi Utara 95371","Sarongsong II, Kec. Dimembe, Kabupaten Minahasa Utara",SULAWESI UTARA,95371.0,Indonesia,081350408451,,,14.610.777,1.249.672.777,https://maps.google.com/?cid=0x0:0xd53f015364e010f4,
toko bangunan,Toko Bahan Bangunan,"Toko Bahan Bangunan Deandre""""","CXFR+3RH, Unnamed Road, Airmadidi Atas, Kec. Airmadidi, Kabupaten Minahasa Utara, Sulawesi Utara","Kabupaten Minahasa Utara, Sulawesi Utara",SULAWESI UTARA,,Indonesia,,,,14.226.814,1.249.920.987,https://maps.google.com/?cid=0x0:0xae28e79f39bf6c0a,
toko bangunan,Toko Bahan Bangunan,Toko Bangunan Alden,"Jl. SBY No.70, Sukur, Kec. Airmadidi, Kabupaten Minahasa Utara, Sulawesi Utara","Kabupaten Minahasa Utara, Sulawesi Utara",SULAWESI UTARA,,Indonesia,082366436061,,,14.611.442,1.249.666.508,https://maps.google.com/?cid=0x0:0xc92a017c991e4486,
toko bangunan,Toko Bahan Bangunan,TOKO BANGUNAN RIZKY BADAS,"Kawangkoan, Kec. Kalawat, Kabupaten Minahasa Utara, Sulawesi Utara","Kabupaten Minahasa Utara, Sulawesi Utara",SULAWESI UTARA,,Indonesia,081330119059,,,14.590.841,1.249.327.088,https://maps.google.com/?cid=0x0:0x99b35880d1e58868,
toko bangunan,Toko Bahan Bangunan,Toko Bangunan Chiko Matungkas,"FXF9+7QQ, Jl. Sukur - Likupang, Matungkas, Kec. Dimembe, Kabupaten Minahasa Utara, Sulawesi Utara","Kabupaten Minahasa Utara, Sulawesi Utara",SULAWESI UTARA,,Indonesia,085340940004,,,14.732.046,1.249.694.978,https://maps.google.com/?cid=0x0:0xb10a524c66bf6d30,
toko bangunan,Toko Bahan Bangunan,TOKO SURYA JAYA,"Matungkas, Kec. Dimembe, Kabupaten Minahasa Utara, Sulawesi Utara","Kabupaten Minahasa Utara, Sulawesi Utara",SULAWESI UTARA,,Indonesia,085761113781,,,14.753.625,1.249.663.016,https://maps.google.com/?cid=0x0:0xeb72aa0f66a8a80b,
toko bangunan,Toko Bahan Bangunan,Toko Bahan Bangunan Adel Jaya,"Jl. Arnold Mononutu, Airmadidi Atas, Kec. Airmadidi, Kota Manado, Sulawesi Utara 95371","Airmadidi Atas, Kec. Airmadidi, Kota Manado",SULAWESI UTARA,95371.0,Indonesia,081356527782,,,14.263.083,124.980.685,https://maps.google.com/?cid=0x0:0x99117017828bdce0,
toko bangunan,Toko Perlengkapan Rumah,Tb El Jaya,"jl.trans Jl. Raya Manado - Bitung No.99, Kauditan II, Kec. Airmadidi, Kabupaten Minahasa Utara, Sulawesi Utara","Kabupaten Minahasa Utara, Sulawesi Utara",SULAWESI UTARA,,Indonesia,085240669235,,,13.974.047,1.250.512.824,https://maps.google.com/?cid=0x0:0xee0a9317a6c72e59,
toko bangunan,Toko Bahan Bangunan,Toko Bangunan Bintang Ariska,"3 jl.patiwisata kema 3 kode pos 95372, Kema Dua, Kec. Kema, Kabupaten Minahasa Utara, Sulawesi Utara","Kabupaten Minahasa Utara, Sulawesi Utara",SULAWESI UTARA,,Indonesia,085240401177,,,13.640.032,125.073.831,https://maps.google.com/?cid=0x0:0x599f5134a4ba8da0,
toko bangunan,Toko Bahan Bangunan,UD. Klabat Indah,"Jl. Ir. Soekarno, Jalur Dua, Kec. Airmadidi, Kabupaten Minahasa Utara, Sulawesi Utara 95371","Jalur Dua, Kec. Airmadidi, Kabupaten Minahasa Utara",SULAWESI UTARA,95371.0,Indonesia,,,,14.288.105,1.249.870.974,https://maps.google.com/?cid=0x0:0x4e1cd39a663a68b5,
toko bangunan,Toko Bahan Bangunan,Toko bangunan tetap usaha kamasi 1,"Jl. Kuranga, Talete Dua, Kec. Tomohon Tengah, Kota Tomohon, Sulawesi Utara","Kota Tomohon, Sulawesi Utara",SULAWESI UTARA,,Indonesia,085256670010,,,13.303.169,1.248.348.179,https://maps.google.com/?cid=0x0:0xa51a2dec3d95451d,
toko bangunan,Toko Bahan Bangunan,Toko bangunan Rejeki Jaya,"CXX5+7G4, Jl. Sukur - Likupang, Sukur, Kec. Airmadidi, Kabupaten Minahasa Utara, Sulawesi Utara","Kabupaten Minahasa Utara, Sulawesi Utara",SULAWESI UTARA,,Indonesia,0811431341,,,14.481.495,1.249.588.422,https://maps.google.com/?cid=0x0:0x30a202e84321b74d,
toko bangunan,Toko Bahan Bangunan,Triberkat Toko Bangunan,"FV2M+H3P, Sawangan, Kec. Tombulu, Kabupaten Minahasa, Sulawesi Utara","Kabupaten Minahasa, Sulawesi Utara",SULAWESI UTARA,,Indonesia,,,,14.516.151,1.248.823.958,https://maps.google.com/?cid=0x0:0xb1724ee606aad0ec,
toko bangunan,Jasa Konstruksi dan Bangunan,Hollowbrick RATUBLOCK Watudambo,"C38V+HR7, Manembo-nembo Atas, Kec. Matuari, Kota Bitung, Sulawesi Utara","Kota Bitung, Sulawesi Utara",SULAWESI UTARA,,Indonesia,,,,14.164.146,1.250.945.526,https://maps.google.com/?cid=0x0:0x5086f1f8bfbd2ac8,
toko bangunan,Toko bahan makanan,Bless mart,"CX7X+3X6, Unnamed Road, Tumaluntung, Kec. Kauditan, Kabupaten Minahasa Utara, Sulawesi Utara","Kabupaten Minahasa Utara, Sulawesi Utara",SULAWESI UTARA,,Indonesia,,,,14.126.746,1.249.998.951,https://maps.google.com/?cid=0x0:0x8c1c8c778b2380e3,
toko bangunan,Toko Bahan Bangunan,Sumber Harapan,"Sarongsong I, Kec. Airmadidi, Kabupaten Minahasa Utara, Sulawesi Utara","Kabupaten Minahasa Utara, Sulawesi Utara",SULAWESI UTARA,,Indonesia,082122228701,,,14.284.998,1.249.789.791,https://maps.google.com/?cid=0x0:0x6102f8e8e85ca953,
toko bangunan,toko bangunan,Kec. Kema,"Kabupaten Minahasa Utara, Sulawesi Utara","Kabupaten Minahasa Utara, Sulawesi Utara",SULAWESI UTARA,,Indonesia,,,,13.717.732,1.250.714.941,https://maps.google.com/?cid=0x0:0x9d12383cee2836a3,
toko bangunan,Toko Bahan Bangunan,Toko Bangunan Bintang Ariska,"3 jl.patiwisata kema 3 kode pos 95372, Kema Dua, Kec. Kema, Kabupaten Minahasa Utara, Sulawesi Utara","Kabupaten Minahasa Utara, Sulawesi Utara",SULAWESI UTARA,,Indonesia,085240401177,,,13.640.032,125.073.831,https://maps.google.com/?cid=0x0:0x599f5134a4ba8da0,
toko bangunan,Toko Bahan Bangunan,Kios IMANUEL,"desa, Kauditan II, Kec. Kauditan, Kabupaten Minahasa Utara, Sulawesi Utara","Kabupaten Minahasa Utara, Sulawesi Utara",SULAWESI UTARA,,Indonesia,082193319910,,,13.910.229,1.250.480.414,https://maps.google.com/?cid=0x0:0x1a0fb236dec656af,
toko bangunan,Toko Bahan Bangunan,Toko Bangunan Chiko Matungkas,"FXF9+7QQ, Jl. Sukur - Likupang, Matungkas, Kec. Dimembe, Kabupaten Minahasa Utara, Sulawesi Utara","Kabupaten Minahasa Utara, Sulawesi Utara",SULAWESI UTARA,,Indonesia,085340940004,,,14.732.046,1.249.694.978,https://maps.google.com/?cid=0x0:0xb10a524c66bf6d30,
toko bangunan,Toko Bahan Bangunan,Batako KINORKOR,"92RR+56Q, Kawiley, Kec. Kauditan, Kabupaten Minahasa Utara, Sulawesi Utara","Kabupaten Minahasa Utara, Sulawesi Utara",SULAWESI UTARA,,Indonesia,085240128612,,,13.904.617,1.250.406.034,https://maps.google.com/?cid=0x0:0xa758ea5d29d8dddd,
toko bangunan,Toko Bahan Bangunan,UD BYU tatalaksana jual holowbrik,"C35J+Q43, Jl. Raya Manado - Bitung, Watudambo Dua, Kec. Matuari, Kota Bitung, Sulawesi Utara","Kota Bitung, Sulawesi Utara",SULAWESI UTARA,,Indonesia,,,,14.093.822,1.250.802.828,https://maps.google.com/?cid=0x0:0x1ef84469adee1112,
toko bangunan,Toko Bahan Bangunan,TOKO SURYA JAYA,"Matungkas, Kec. Dimembe, Kabupaten Minahasa Utara, Sulawesi Utara","Kabupaten Minahasa Utara, Sulawesi Utara",SULAWESI UTARA,,Indonesia,085761113781,,,14.753.625,1.249.663.016,https://maps.google.com/?cid=0x0:0xeb72aa0f66a8a80b,
toko bangunan,Toko Bahan Bangunan,TOKO BANGUNAN RIZKY BADAS,"Kawangkoan, Kec. Kalawat, Kabupaten Minahasa Utara, Sulawesi Utara","Kabupaten Minahasa Utara, Sulawesi Utara",SULAWESI UTARA,,Indonesia,081330119059,,,14.590.841,1.249.327.088,https://maps.google.com/?cid=0x0:0x99b35880d1e58868,
toko bangunan,toko bangunan,Kec. Likupang Bar.,"Kabupaten Minahasa Utara, Sulawesi Utara","Kabupaten Minahasa Utara, Sulawesi Utara",SULAWESI UTARA,,Indonesia,,,,1.692.583,1.250.117.119,https://maps.google.com/?cid=0x0:0x4ad9ed2bf8ddc336,
toko bangunan,Toko Bahan Bangunan,Toko bangunan LIKUPANG JAYA,"M395+QRX, Likupang II, Kec. Likupang Tim., Kabupaten Minahasa Utara, Sulawesi Utara","Kabupaten Minahasa Utara, Sulawesi Utara",SULAWESI UTARA,,Indonesia,,,,16.694.616,1.250.597.135,https://maps.google.com/?cid=0x0:0x7aece044884761f5,
toko bangunan,Pasar bahan bangunan,Toko sinar berkat,"Desah, Mubune, Kec. Likupang Bar., Kota manado, Sulawesi Utara 95378","Mubune, Kec. Likupang Bar., Kota manado",SULAWESI UTARA,95378.0,Indonesia,081253583735,,,17.106.689,1.250.110.012,https://maps.google.com/?cid=0x0:0x139ab13effd89977,
toko bangunan,Toko Bahan Bangunan,Toko Bangunan Chiko Matungkas,"FXF9+7QQ, Jl. Sukur - Likupang, Matungkas, Kec. Dimembe, Kabupaten Minahasa Utara, Sulawesi Utara","Kabupaten Minahasa Utara, Sulawesi Utara",SULAWESI UTARA,,Indonesia,085340940004,,,14.732.046,1.249.694.978,https://maps.google.com/?cid=0x0:0xb10a524c66bf6d30,
toko bangunan,Toko Bahan Bangunan,Toko bangunan pak haji pian (Toko Amel),"Likupang II, Kec. Likupang Tim., Kabupaten Minahasa Utara, Sulawesi Utara 95375","Kec. Likupang Tim., Kabupaten Minahasa Utara",SULAWESI UTARA,95375.0,Indonesia,081356520798,,,16.732.482,1.250.612.162,https://maps.google.com/?cid=0x0:0xbcb61ae0385b4a57,
toko bangunan,Toko Bahan Bangunan,Matungkas Jaya (Toko Bangunan),"FXGC+67C, Jl. Sukur - Likupang, Matungkas, Kec. Dimembe, Kabupaten Minahasa Utara, Sulawesi Utara","Kabupaten Minahasa Utara, Sulawesi Utara",SULAWESI UTARA,,Indonesia,082333344765,,,14.755.556,1.249.706.543,https://maps.google.com/?cid=0x0:0x9356ce9cff86f7f2,
toko bangunan,Toko Bahan Bangunan,Toko Amazy,"M376+W6V, Likupang I, Kec. Likupang Tim., Kabupaten Minahasa Utara, Sulawesi Utara","Kabupaten Minahasa Utara, Sulawesi Utara",SULAWESI UTARA,,Indonesia,,,,16.648.723,1.250.605.498,https://maps.google.com/?cid=0x0:0x80cd06f913bf475f,
toko bangunan,Toko Bahan Bangunan,Toko Bangunan HJM Kaweruan,"J22C+G3G, Jl. Airmadidi-Likupang, Kaweruan, Kec. Likupang Sel., Kabupaten Minahasa Utara, Sulawesi Utara","Kabupaten Minahasa Utara, Sulawesi Utara",SULAWESI UTARA,,Indonesia,085747398552,,,16.013.088,1.250.201.892,https://maps.google.com/?cid=0x0:0xf45518c24e5ac7ad,
toko bangunan,Pasar bahan bangunan,Toko Bangunan Wapon Jaya,"Jl. Sea induk, Sea I, Kec. Pineleng, Kabupaten Minahasa, Sulawesi Utara","Kabupaten Minahasa, Sulawesi Utara",SULAWESI UTARA,,Indonesia,085340309099,,,14.291.092,1.247.997.913,https://maps.google.com/?cid=0x0:0x2216e5af37ff6b7a,
toko bangunan,Grosir,Toko Samudra,"HX3X+HF6, Jl. Sukur - Likupang, Wasian, Kec. Dimembe, Kabupaten Minahasa Utara, Sulawesi Utara","Kabupaten Minahasa Utara, Sulawesi Utara",SULAWESI UTARA,,Indonesia,,,,15.539.114,1.249.986.522,https://maps.google.com/?cid=0x0:0x7a6ca99e7558105b,
toko bangunan,Toko Bahan Bangunan,Triberkat Toko Bangunan,"FV2M+H3P, Sawangan, Kec. Tombulu, Kabupaten Minahasa, Sulawesi Utara","Kabupaten Minahasa, Sulawesi Utara",SULAWESI UTARA,,Indonesia,,,,14.516.151,1.248.823.958,https://maps.google.com/?cid=0x0:0xb1724ee606aad0ec,
toko bangunan,Toko Bahan Bangunan,TOKO SURYA JAYA,"Matungkas, Kec. Dimembe, Kabupaten Minahasa Utara, Sulawesi Utara","Kabupaten Minahasa Utara, Sulawesi Utara",SULAWESI UTARA,,Indonesia,085761113781,,,14.753.625,1.249.663.016,https://maps.google.com/?cid=0x0:0xeb72aa0f66a8a80b,
toko bangunan,Toko bahan makanan,Toko Berkat Usaha,"Jaga 4, Pontoh, Wori, Kabupaten Minahasa Utara, Sulawesi Utara 95376","Pontoh, Wori, Kabupaten Minahasa Utara",SULAWESI UTARA,95376.0,Indonesia,082196763582,,,16.399.345,1.249.220.934,https://maps.google.com/?cid=0x0:0x1b87281e083dfc2b,
toko bangunan,Toko Bahan Bangunan,Toko SDT Tanah putih,"PX8H+8XJ, Tanah Putih, Kec. Likupang Bar., Kabupaten Minahasa Utara, Sulawesi Utara","Kabupaten Minahasa Utara, Sulawesi Utara",SULAWESI UTARA,,Indonesia,,,,17.158.179,1.249.799.621,https://maps.google.com/?cid=0x0:0xd48eabd95b5536da,
toko bangunan,Toko Bahan Bangunan,TOKO BANGUNAN RIZKY BADAS,"Kawangkoan, Kec. Kalawat, Kabupaten Minahasa Utara, Sulawesi Utara","Kabupaten Minahasa Utara, Sulawesi Utara",SULAWESI UTARA,,Indonesia,081330119059,,,14.590.841,1.249.327.088,https://maps.google.com/?cid=0x0:0x99b35880d1e58868,
toko bangunan,Toko Bahan Bangunan,TOKO BANGUNAN MS,"Dekat matungkas , kec dimembe, Jl. Raya Likupang, Kec. Airmadidi, Sulawesi Utara 95371","kec dimembe, Jl. Raya Likupang, Kec. Airmadidi",SULAWESI UTARA,95371.0,Indonesia,085396672112,,,14.667.282,124.966.547,https://maps.google.com/?cid=0x0:0x56f7823a657be343,
toko bangunan,Pemasok Bahan Bangunan,Toko Bangunan Cendrawasih,"Taler, Tondano Tim., Kabupaten Minahasa, Sulawesi Utara","Kabupaten Minahasa, Sulawesi Utara",SULAWESI UTARA,,Indonesia,081343561691,,,12.984.892,1.249.127.644,https://maps.google.com/?cid=0x0:0x563050a595f334a3,
toko bangunan,Toko Bahan Bangunan,Dhea Jaya,"Dekat, Wineru, Kec. Likupang Tim., Kabupaten Minahasa Utara, Sulawesi Utara 95375","Wineru, Kec. Likupang Tim., Kabupaten Minahasa Utara",SULAWESI UTARA,95375.0,Indonesia,,,,1.660.173,1.251.055.555,https://maps.google.com/?cid=0x0:0x10b842c850f1fcbb,
toko bangunan,Toko Bahan Bangunan,"Toko Bangunan KARTIKA""""","5RFC+69P, Jl. Raya Tompaso, Paslaten, Kec. Langowan Bar., Kabupaten Minahasa, Sulawesi Utara","Kabupaten Minahasa, Sulawesi Utara",SULAWESI UTARA,,Indonesia,08114376335,,,11.730.861,1.248.209.648,https://maps.google.com/?cid=0x0:0x1227a3251ffa40e7,
toko bangunan,toko bangunan,Kec. Likupang Sel.,"Kabupaten Minahasa Utara, Sulawesi Utara","Kabupaten Minahasa Utara, Sulawesi Utara",SULAWESI UTARA,,Indonesia,,,,16.154.658,1.250.277.057,https://maps.google.com/?cid=0x0:0x1c90d6707d558a25,
toko bangunan,Toko Bahan Bangunan,Toko bangunan LIKUPANG JAYA,"M395+QRX, Likupang II, Kec. Likupang Tim., Kabupaten Minahasa Utara, Sulawesi Utara","Kabupaten Minahasa Utara, Sulawesi Utara",SULAWESI UTARA,,Indonesia,,,,16.694.616,1.250.597.135,https://maps.google.com/?cid=0x0:0x7aece044884761f5,
toko bangunan,Toko Bahan Bangunan,Toko bangunan pak haji pian (Toko Amel),"Likupang II, Kec. Likupang Tim., Kabupaten Minahasa Utara, Sulawesi Utara 95375","Kec. Likupang Tim., Kabupaten Minahasa Utara",SULAWESI UTARA,95375.0,Indonesia,081356520798,,,16.732.482,1.250.612.162,https://maps.google.com/?cid=0x0:0xbcb61ae0385b4a57,
toko bangunan,Toko Bahan Bangunan,Toko Bangunan Chiko Matungkas,"FXF9+7QQ, Jl. Sukur - Likupang, Matungkas, Kec. Dimembe, Kabupaten Minahasa Utara, Sulawesi Utara","Kabupaten Minahasa Utara, Sulawesi Utara",SULAWESI UTARA,,Indonesia,085340940004,,,14.732.046,1.249.694.978,https://maps.google.com/?cid=0x0:0xb10a524c66bf6d30,
toko bangunan,Toko Bahan Bangunan,Matungkas Jaya (Toko Bangunan),"FXGC+67C, Jl. Sukur - Likupang, Matungkas, Kec. Dimembe, Kabupaten Minahasa Utara, Sulawesi Utara","Kabupaten Minahasa Utara, Sulawesi Utara",SULAWESI UTARA,,Indonesia,082333344765,,,14.755.556,1.249.706.543,https://maps.google.com/?cid=0x0:0x9356ce9cff86f7f2,
toko bangunan,Toko Bahan Bangunan,Toko Amazy,"M376+W6V, Likupang I, Kec. Likupang Tim., Kabupaten Minahasa Utara, Sulawesi Utara","Kabupaten Minahasa Utara, Sulawesi Utara",SULAWESI UTARA,,Indonesia,,,,16.648.723,1.250.605.498,https://maps.google.com/?cid=0x0:0x80cd06f913bf475f,
toko bangunan,Grosir,Toko Samudra,"HX3X+HF6, Jl. Sukur - Likupang, Wasian, Kec. Dimembe, Kabupaten Minahasa Utara, Sulawesi Utara","Kabupaten Minahasa Utara, Sulawesi Utara",SULAWESI UTARA,,Indonesia,,,,15.539.114,1.249.986.522,https://maps.google.com/?cid=0x0:0x7a6ca99e7558105b,
toko bangunan,Toko Perlengkapan Rumah,Toko calista,"Jl. Sukur - Likupang, Wasian, Kec. Dimembe, Kabupaten Minahasa Utara, Sulawesi Utara","Kabupaten Minahasa Utara, Sulawesi Utara",SULAWESI UTARA,,Indonesia,085340002225,,,15.573.416,1.249.992.117,https://maps.google.com/?cid=0x0:0x1699510a19e62861,
toko bangunan,Pasar bahan bangunan,Toko Bangunan Wapon Jaya,"Jl. Sea induk, Sea I, Kec. Pineleng, Kabupaten Minahasa, Sulawesi Utara","Kabupaten Minahasa, Sulawesi Utara",SULAWESI UTARA,,Indonesia,085340309099,,,14.291.092,1.247.997.913,https://maps.google.com/?cid=0x0:0x2216e5af37ff6b7a,
toko bangunan,Minimarket,Toko Shine Likupang,"Likupang II, Kec. Likupang Tim., Kabupaten Minahasa Utara, Sulawesi Utara","Kabupaten Minahasa Utara, Sulawesi Utara",SULAWESI UTARA,,Indonesia,04317003033,,,16.718.258,1.250.599.058,https://maps.google.com/?cid=0x0:0x8787e69005b49ed9,
toko bangunan,Pasar bahan bangunan,Toko sinar berkat,"Desah, Mubune, Kec. Likupang Bar., Kota manado, Sulawesi Utara 95378","Mubune, Kec. Likupang Bar., Kota manado",SULAWESI UTARA,95378.0,Indonesia,081253583735,,,17.106.689,1.250.110.012,https://maps.google.com/?cid=0x0:0x139ab13effd89977,
toko bangunan,Toko Bahan Bangunan,Toko bahan bangunan dang listrik EXGLO Tarabitan,"PXPQ+XMX, Tarabitan, Kec. Likupang Bar., Kabupaten Minahasa Utara, Sulawesi Utara","Kabupaten Minahasa Utara, Sulawesi Utara",SULAWESI UTARA,,Indonesia,,,,17.374.822,1.249.892.412,https://maps.google.com/?cid=0x0:0x6f4146ae206562af,
toko bangunan,Toko Bahan Bangunan,Triberkat Toko Bangunan,"FV2M+H3P, Sawangan, Kec. Tombulu, Kabupaten Minahasa, Sulawesi Utara","Kabupaten Minahasa, Sulawesi Utara",SULAWESI UTARA,,Indonesia,,,,14.516.151,1.248.823.958,https://maps.google.com/?cid=0x0:0xb1724ee606aad0ec,
toko bangunan,toko bangunan,Kec. Likupang Tim.,"Kabupaten Minahasa Utara, Sulawesi Utara","Kabupaten Minahasa Utara, Sulawesi Utara",SULAWESI UTARA,,Indonesia,,,,16.567.027,1.251.102.134,https://maps.google.com/?cid=0x0:0xfb7b50a78e0c1b1b,
toko bangunan,Toko Bahan Bangunan,Toko bangunan LIKUPANG JAYA,"M395+QRX, Likupang II, Kec. Likupang Tim., Kabupaten Minahasa Utara, Sulawesi Utara","Kabupaten Minahasa Utara, Sulawesi Utara",SULAWESI UTARA,,Indonesia,,,,16.694.616,1.250.597.135,https://maps.google.com/?cid=0x0:0x7aece044884761f5,
toko bangunan,Toko Bahan Bangunan,Toko bangunan pak haji pian (Toko Amel),"Likupang II, Kec. Likupang Tim., Kabupaten Minahasa Utara, Sulawesi Utara 95375","Kec. Likupang Tim., Kabupaten Minahasa Utara",SULAWESI UTARA,95375.0,Indonesia,081356520798,,,16.732.482,1.250.612.162,https://maps.google.com/?cid=0x0:0xbcb61ae0385b4a57,
toko bangunan,Toko Bahan Bangunan,Toko Bangunan Chiko Matungkas,"FXF9+7QQ, Jl. Sukur - Likupang, Matungkas, Kec. Dimembe, Kabupaten Minahasa Utara, Sulawesi Utara","Kabupaten Minahasa Utara, Sulawesi Utara",SULAWESI UTARA,,Indonesia,085340940004,,,14.732.046,1.249.694.978,https://maps.google.com/?cid=0x0:0xb10a524c66bf6d30,
toko bangunan,Toko Bahan Bangunan,Dhea Jaya,"Dekat, Wineru, Kec. Likupang Tim., Kabupaten Minahasa Utara, Sulawesi Utara 95375","Wineru, Kec. Likupang Tim., Kabupaten Minahasa Utara",SULAWESI UTARA,95375.0,Indonesia,,,,1.660.173,1.251.055.555,https://maps.google.com/?cid=0x0:0x10b842c850f1fcbb,
toko bangunan,Toko Bahan Bangunan,Matungkas Jaya (Toko Bangunan),"FXGC+67C, Jl. Sukur - Likupang, Matungkas, Kec. Dimembe, Kabupaten Minahasa Utara, Sulawesi Utara","Kabupaten Minahasa Utara, Sulawesi Utara",SULAWESI UTARA,,Indonesia,082333344765,,,14.755.556,1.249.706.543,https://maps.google.com/?cid=0x0:0x9356ce9cff86f7f2,
toko bangunan,Toko Bahan Bangunan,Toko Bangunan HJM Kaweruan,"J22C+G3G, Jl. Airmadidi-Likupang, Kaweruan, Kec. Likupang Sel., Kabupaten Minahasa Utara, Sulawesi Utara","Kabupaten Minahasa Utara, Sulawesi Utara",SULAWESI UTARA,,Indonesia,085747398552,,,16.013.088,1.250.201.892,https://maps.google.com/?cid=0x0:0xf45518c24e5ac7ad,
toko bangunan,Tukang Kayu,mebel Zivilia,"M584+XM6, Kinunang, Kec. Likupang Tim., Kabupaten Minahasa Utara, Sulawesi Utara","Kabupaten Minahasa Utara, Sulawesi Utara",SULAWESI UTARA,,Indonesia,,,,16.674.233,1.251.566.395,https://maps.google.com/?cid=0x0:0xc6c70cafe36421a,
toko bangunan,Grosir,Toko Samudra,"HX3X+HF6, Jl. Sukur - Likupang, Wasian, Kec. Dimembe, Kabupaten Minahasa Utara, Sulawesi Utara","Kabupaten Minahasa Utara, Sulawesi Utara",SULAWESI UTARA,,Indonesia,,,,15.539.114,1.249.986.522,https://maps.google.com/?cid=0x0:0x7a6ca99e7558105b,
toko bangunan,Toko Alat Pancing,TEKNIK JAYA LIKUPANG,"Jalan Raya Likupang No.1, Kabupaten Minahasa Utara, Sulawesi Utara 95375",Kabupaten Minahasa Utara,SULAWESI UTARA,95375.0,Indonesia,085255555715,,,16.729.649,1.250.614.948,https://maps.google.com/?cid=0x0:0x99522b354f5e90bf,
toko bangunan,Pasar bahan bangunan,Toko sinar berkat,"Desah, Mubune, Kec. Likupang Bar., Kota manado, Sulawesi Utara 95378","Mubune, Kec. Likupang Bar., Kota manado",SULAWESI UTARA,95378.0,Indonesia,081253583735,,,17.106.689,1.250.110.012,https://maps.google.com/?cid=0x0:0x139ab13effd89977,
toko bangunan,Pusat Perbelanjaan,Pasar Likupang Dua (JN),"M3F6+M8J, Tim., Likupang II, Kec. Likupang Tim., Kabupaten Minahasa Utara, Sulawesi Utara","Kabupaten Minahasa Utara, Sulawesi Utara",SULAWESI UTARA,,Indonesia,081210472740,,,16.742.095,125.060.757,https://maps.google.com/?cid=0x0:0x8273c77a322c461d,
toko bangunan,Toko Perlengkapan Rumah,Toko calista,"Jl. Sukur - Likupang, Wasian, Kec. Dimembe, Kabupaten Minahasa Utara, Sulawesi Utara","Kabupaten Minahasa Utara, Sulawesi Utara",SULAWESI UTARA,,Indonesia,085340002225,,,15.573.416,1.249.992.117,https://maps.google.com/?cid=0x0:0x1699510a19e62861,
toko bangunan,Minimarket,Toko Shine Likupang,"Likupang II, Kec. Likupang Tim., Kabupaten Minahasa Utara, Sulawesi Utara","Kabupaten Minahasa Utara, Sulawesi Utara",SULAWESI UTARA,,Indonesia,04317003033,,,16.718.258,1.250.599.058,https://maps.google.com/?cid=0x0:0x8787e69005b49ed9,
toko bangunan,toko bangunan,Sulawesi Utara 95373,"Paniki Atas, Kec. Talawaan, Kabupaten Minahasa Utara, Sulawesi Utara","Kabupaten Minahasa Utara, Sulawesi Utara",SULAWESI UTARA,,Indonesia,,,,14.974.733,1.249.238.636,https://maps.google.com/?cid=0x0:0x3a1e3c0a99b6788f,
toko bangunan,Toko Bahan Bangunan,Toko Permata Bangunan,"Mapanget, Kec. Talawaan, Kabupaten Minahasa Utara, Sulawesi Utara","Kabupaten Minahasa Utara, Sulawesi Utara",SULAWESI UTARA,,Indonesia,085761113911,,,15.353.249,1.249.290.076,https://maps.google.com/?cid=0x0:0xf49bcf0b466cfbd5,
toko bangunan,Toko Bahan Bangunan,Toko. Berkat Usaha Jaya,"Jl. Raya Paniki Atas, Paniki Atas, Kec. Talawaan, Kabupaten Minahasa Utara, Sulawesi Utara","Kabupaten Minahasa Utara, Sulawesi Utara",SULAWESI UTARA,,Indonesia,,,,14.969.998,124.922.084,https://maps.google.com/?cid=0x0:0x12a224968b717703,
toko bangunan,Pasar bahan bangunan,Toko Kolongan Jaya,"FW8G+69M, Jl. Raya Manado - Bitung, Kolongan, Kec. Kalawat, Kabupaten Minahasa Utara, Sulawesi Utara","Kabupaten Minahasa Utara, Sulawesi Utara",SULAWESI UTARA,,Indonesia,085240515970,,,1.465.596,1.249.259.371,https://maps.google.com/?cid=0x0:0x7f97f6ae08991b58,
toko bangunan,Toko Bahan Bangunan,TOKO BANGUNAN RIZKY BADAS,"Kawangkoan, Kec. Kalawat, Kabupaten Minahasa Utara, Sulawesi Utara","Kabupaten Minahasa Utara, Sulawesi Utara",SULAWESI UTARA,,Indonesia,081330119059,,,14.590.841,1.249.327.088,https://maps.google.com/?cid=0x0:0x99b35880d1e58868,
toko bangunan,Toko Bahan Bangunan,Toko sumber terang,"Jl. Ir. Soekarno No.88, Kolongan Tetempangan, Kec. Kalawat, Kabupaten Minahasa Utara, Sulawesi Utara","Kabupaten Minahasa Utara, Sulawesi Utara",SULAWESI UTARA,,Indonesia,089698079913,,,14.764.815,1.249.366.244,https://maps.google.com/?cid=0x0:0x804c90914228033c,
toko bangunan,Toko Bahan Bangunan,Toko Bangunan Chiko Matungkas,"FXF9+7QQ, Jl. Sukur - Likupang, Matungkas, Kec. Dimembe, Kabupaten Minahasa Utara, Sulawesi Utara","Kabupaten Minahasa Utara, Sulawesi Utara",SULAWESI UTARA,,Indonesia,085340940004,,,14.732.046,1.249.694.978,https://maps.google.com/?cid=0x0:0xb10a524c66bf6d30,
toko bangunan,Toko Bahan Bangunan,DeDo Supermarket,"Jl. Raya Manado - Bitung, Maumbi, Kec. Kalawat, Kabupaten Minahasa Utara, Sulawesi Utara","Kabupaten Minahasa Utara, Sulawesi Utara",SULAWESI UTARA,,Indonesia,082363111170,,,14.783.792,1.249.086.253,https://maps.google.com/?cid=0x0:0x2d4a0393891ebb97,
toko bangunan,Toko Bahan Bangunan,Toko Bangunan RACHELY,"Jl. Mapanget Raya No.33, Paniki Dua, Kec. Mapanget, Kota Manado, Sulawesi Utara","Kota Manado, Sulawesi Utara",SULAWESI UTARA,,Indonesia,04317241325,,,15.146.498,1.249.196.768,https://maps.google.com/?cid=0x0:0xaa4d26e978e285df,
toko bangunan,Pasar bahan bangunan,Toko Bangunan Wapon Jaya,"Jl. Sea induk, Sea I, Kec. Pineleng, Kabupaten Minahasa, Sulawesi Utara","Kabupaten Minahasa, Sulawesi Utara",SULAWESI UTARA,,Indonesia,085340309099,,,14.291.092,1.247.997.913,https://maps.google.com/?cid=0x0:0x2216e5af37ff6b7a,
toko bangunan,Toko Bahan Bangunan,Triberkat Toko Bangunan,"FV2M+H3P, Sawangan, Kec. Tombulu, Kabupaten Minahasa, Sulawesi Utara","Kabupaten Minahasa, Sulawesi Utara",SULAWESI UTARA,,Indonesia,,,,14.516.151,1.248.823.958,https://maps.google.com/?cid=0x0:0xb1724ee606aad0ec,
toko bangunan,Toko Bahan Bangunan,TOKO BANGUNAN BRIX JAYA MAPANGET,"Jl. Teterusan Mapanget, Mapanget, Kec. Talawaan, Kabupaten Minahasa Utara, Sulawesi Utara","Kabupaten Minahasa Utara, Sulawesi Utara",SULAWESI UTARA,,Indonesia,081242624864,,,1.533.872,124.934.101,https://maps.google.com/?cid=0x0:0xa7608e60ecd2801c,
toko bangunan,Pemasok Bahan Bangunan,Toko Bangunan Cendrawasih,"Taler, Tondano Tim., Kabupaten Minahasa, Sulawesi Utara","Kabupaten Minahasa, Sulawesi Utara",SULAWESI UTARA,,Indonesia,081343561691,,,12.984.892,1.249.127.644,https://maps.google.com/?cid=0x0:0x563050a595f334a3,
toko bangunan,Toko Bahan Bangunan,Toko Bangunan HARAPAN BERKAT Jl. Lenkeng C no 15 GPI,"Perum GPI, Jl. Lengkeng C No.15, Kima Atas, Kec. Mapanget, Kota Manado, Sulawesi Utara","Kota Manado, Sulawesi Utara",SULAWESI UTARA,,Indonesia,081355863161,,,15.468.356,1.248.976.381,https://maps.google.com/?cid=0x0:0xdea2f61d23f1497a,
toko bangunan,Toko Bahan Bangunan,TB.MERIBA (Toko Bangunan),"7WX6+4XP, Taler, Tondano Tim., Kabupaten Minahasa, Sulawesi Utara","Kabupaten Minahasa, Sulawesi Utara",SULAWESI UTARA,,Indonesia,085696259199,,,12.978.375,1.249.124.531,https://maps.google.com/?cid=0x0:0x92ba361f80294412,
toko bangunan,Kios,Toko Bangunan dan Sembako,"FW88+HJJ, Watutumou II, Kec. Kalawat, Kabupaten Minahasa Utara, Sulawesi Utara","Kabupaten Minahasa Utara, Sulawesi Utara",SULAWESI UTARA,,Indonesia,087773953145,,,14.664.691,1.249.165.212,https://maps.google.com/?cid=0x0:0x21990419e38de381,
toko bangunan,Toko Swalayan,Dembet Jaya,"GXH4+4MX, Talawaan, Kec. Talawaan, Kabupaten Minahasa Utara, Sulawesi Utara","Kabupaten Minahasa Utara, Sulawesi Utara",SULAWESI UTARA,,Indonesia,,,,15.278.509,1.249.567.664,https://maps.google.com/?cid=0x0:0xf981b524bc22af6c,
toko bangunan,Toko Bahan Bangunan,Toko Bangunan Sinar Berkat,"Warembungan, Kec. Pineleng, Kabupaten Minahasa, Sulawesi Utara","Kabupaten Minahasa, Sulawesi Utara",SULAWESI UTARA,,Indonesia,082259753525,,,1.417.257,124.821.793,https://maps.google.com/?cid=0x0:0x9454d0623758efea,
toko bangunan,Toko Bahan Bangunan,Toko Bahan Bangunan Cendrawasi Teling,"Jl. 14 Februari No.72, Teling Atas, Kec. Wanea, Kota Manado, Sulawesi Utara","Kota Manado, Sulawesi Utara",SULAWESI UTARA,,Indonesia,081340809138,,,14.690.181,1.248.478.735,https://maps.google.com/?cid=0x0:0xb5d5da22cbab2ba5,
toko bangunan,Toko Bahan Bangunan,Toko Bahan Bangunan,"FRWX+995, Jl. Soputan, Singkil Satu, Kec. Singkil, Kota Manado, Sulawesi Utara","Kota Manado, Sulawesi Utara",SULAWESI UTARA,,Indonesia,,,,14.958.803,1.248.484.916,https://maps.google.com/?cid=0x0:0x87a9bba92591a12e,
toko bangunan,toko bangunan,Wori,"Kabupaten Minahasa Utara, Sulawesi Utara","Kabupaten Minahasa Utara, Sulawesi Utara",SULAWESI UTARA,,Indonesia,,,,15.986.509,1.248.599.034,https://maps.google.com/?cid=0x0:0x1e44c8cf84925b11,
toko bangunan,Toko Bahan Bangunan,Berkat Mandiri Ochang Tk. Bangunan,"Jl. Raya Manado - Wori, Wori, Kabupaten Minahasa Utara, Sulawesi Utara","Kabupaten Minahasa Utara, Sulawesi Utara",SULAWESI UTARA,,Indonesia,085298722828,,,15.782.949,1.248.653.078,https://maps.google.com/?cid=0x0:0x864cde40bfb6c0b4,
toko bangunan,Toko Bahan Bangunan,BERDIKARI Toko Bangunan dan Batako,"HVGC+WQ9, Wori, Kabupaten Minahasa Utara, Sulawesi Utara","Kabupaten Minahasa Utara, Sulawesi Utara",SULAWESI UTARA,,Indonesia,,,,15.772.974,1.248.719.727,https://maps.google.com/?cid=0x0:0x1055786722e03420,
hardware store,hardware store,Sulawesi Utara 95371,"Airmadidi Atas, Kec. Airmadidi, Kabupaten Minahasa Utara, Sulawesi Utara","Kabupaten Minahasa Utara, Sulawesi Utara",SULAWESI UTARA,,Indonesia,,,,14.172.327,1.249.876.821,https://maps.google.com/?cid=0x0:0x80e87fd6189d70fc,
hardware store,Toko,Toko GRAND HARDWARE,"CXJH+22P, Sarongsong I, Kec. Airmadidi, Kabupaten Minahasa Utara, Sulawesi Utara","Kabupaten Minahasa Utara, Sulawesi Utara",SULAWESI UTARA,,Indonesia,,,,14.300.932,1.249.775.741,https://maps.google.com/?cid=0x0:0xd5bea6e4e94329b1,
hardware store,Toko Perlengkapan Rumah,MR.DIY,"Jl. Raya Manado - Bitung No.871, Airmadidi Atas, Kec. Airmadidi, Kabupaten Minahasa Utara, Sulawesi Utara","Kabupaten Minahasa Utara, Sulawesi Utara",SULAWESI UTARA,,Indonesia,,,,1.419.665,1.249.877.989,https://maps.google.com/?cid=0x0:0x6b10aff0b5f80bb8,
hardware store,Toko Alat Tulis Kantor,Toko Trendy Airmadidi,"Rumah Sakit Umum Tonsea, Sarongsong I, Kec. Airmadidi, Kabupaten Minahasa Utara, Sulawesi Utara","Kabupaten Minahasa Utara, Sulawesi Utara",SULAWESI UTARA,,Indonesia,,,,14.273.575,1.249.787.793,https://maps.google.com/?cid=0x0:0xf99c9aa0fefefbbf,
hardware store,Toko Bahan Bangunan,Toko Bangunan Alden,"Jl. SBY No.70, Sukur, Kec. Airmadidi, Kabupaten Minahasa Utara, Sulawesi Utara","Kabupaten Minahasa Utara, Sulawesi Utara",SULAWESI UTARA,,Indonesia,082366436061,,,14.611.442,1.249.666.508,https://maps.google.com/?cid=0x0:0xc92a017c991e4486,
hardware store,Toko Perkakas,Erafone | Ruko Airmadidi,"CXFM+G5P, Airmadidi Atas, Kec. Airmadidi, Kabupaten Minahasa Utara, Sulawesi Utara","Kabupaten Minahasa Utara, Sulawesi Utara",SULAWESI UTARA,,Indonesia,0211500372,,,14.239.434,1.249.830.195,https://maps.google.com/?cid=0x0:0xd86a74b2d32470e7,
hardware store,Toko Bahan Bangunan,UD. Ria Jaya,"Sukur, Kec. Airmadidi, Kabupaten Minahasa Utara, Sulawesi Utara","Kabupaten Minahasa Utara, Sulawesi Utara",SULAWESI UTARA,,Indonesia,0811409476,,,14.503.394,1.249.601.121,https://maps.google.com/?cid=0x0:0x7edd56340f1e2460,
hardware store,Toko Bahan Bangunan,Toko Bahan Bangunan Adel Jaya,"Jl. Arnold Mononutu, Airmadidi Atas, Kec. Airmadidi, Kota Manado, Sulawesi Utara 95371","Airmadidi Atas, Kec. Airmadidi, Kota Manado",SULAWESI UTARA,95371.0,Indonesia,081356527782,,,14.263.083,124.980.685,https://maps.google.com/?cid=0x0:0x99117017828bdce0,
hardware store,Toko bahan makanan,Oni Ning Airmadidi,"CXFJ+4CW, Airmadidi Bawah, Kec. Airmadidi, Kabupaten Minahasa Utara, Sulawesi Utara","Kabupaten Minahasa Utara, Sulawesi Utara",SULAWESI UTARA,,Indonesia,085255318825,,,14.230.926,1.249.809.347,https://maps.google.com/?cid=0x0:0x41f6100c501cdb33,
hardware store,Toko Elektronik,"Kios BERKAT CELL"" Airmadidi (Sarongsong 1)""","CXHH+C9M, Sarongsong I, Kec. Airmadidi, Kabupaten Minahasa Utara, Sulawesi Utara","Kabupaten Minahasa Utara, Sulawesi Utara",SULAWESI UTARA,,Indonesia,,,,14.285.832,1.249.784.189,https://maps.google.com/?cid=0x0:0x22fbdd0f192493a5,
hardware store,Tempat Biliar,Ruko,"CXCP+4RC, Jl. Raya Manado - Bitung, Airmadidi Atas, Kec. Airmadidi, Kabupaten Minahasa Utara, Sulawesi Utara","Kabupaten Minahasa Utara, Sulawesi Utara",SULAWESI UTARA,,Indonesia,,,,14.203.226,1.249.870.097,https://maps.google.com/?cid=0x0:0x23f91e6846b03337,
hardware store,Toko Bahan Bangunan,TOKO BANGUNAN MS,"Dekat matungkas , kec dimembe, Jl. Raya Likupang, Kec. Airmadidi, Sulawesi Utara 95371","kec dimembe, Jl. Raya Likupang, Kec. Airmadidi",SULAWESI UTARA,95371.0,Indonesia,085396672112,,,14.667.282,124.966.547,https://maps.google.com/?cid=0x0:0x56f7823a657be343,
hardware store,hardware store,Sulawesi Utara 95373,"Paniki Atas, Kec. Talawaan, Kabupaten Minahasa Utara, Sulawesi Utara","Kabupaten Minahasa Utara, Sulawesi Utara",SULAWESI UTARA,,Indonesia,,,,14.974.733,1.249.238.636,https://maps.google.com/?cid=0x0:0x3a1e3c0a99b6788f,
hardware store,Toko Bahan Bangunan,UD.Murni 2 Dimembe - Toko Material dan Bahan Bangunan,"Samping Lorong Olahraga, Jl. Sukur - Likupang, Jaga V, Kec. Dimembe, Kabupaten Minahasa Utara, Sulawesi Utara 95373","Jl. Sukur - Likupang, Jaga V, Kec. Dimembe, Kabupaten Minahasa Utara",SULAWESI UTARA,95373.0,Indonesia,,,,14.907.004,1.249.758.544,https://maps.google.com/?cid=0x0:0xb183ee6014b14e0b,
hardware store,Toko,Toko GRAND HARDWARE,"CXJH+22P, Sarongsong I, Kec. Airmadidi, Kabupaten Minahasa Utara, Sulawesi Utara","Kabupaten Minahasa Utara, Sulawesi Utara",SULAWESI UTARA,,Indonesia,,,,14.300.932,1.249.775.741,https://maps.google.com/?cid=0x0:0xd5bea6e4e94329b1,
hardware store,Toko Perlengkapan Rumah,Grand Hardware,"Komplek Marina Plaza Blok B No. 7-10, Jl. Piere Tendean Boulevard,manado, Manado, Sulawesi Utara, 95111","Jl. Piere Tendean Boulevard,manado, Manado",SULAWESI UTARA,95111.0,Indonesia,085255443510,,,14.924.543,124.838.346,https://maps.google.com/?cid=0x0:0x513c63d19209ca5,
hardware store,Toko Bahan Bangunan,TOKO BANGUNAN MS,"Dekat matungkas , kec dimembe, Jl. Raya Likupang, Kec. Airmadidi, Sulawesi Utara 95371","kec dimembe, Jl. Raya Likupang, Kec. Airmadidi",SULAWESI UTARA,95371.0,Indonesia,085396672112,,,14.667.282,124.966.547,https://maps.google.com/?cid=0x0:0x56f7823a657be343,
hardware store,hardware store,Kec. Dimembe,"Kabupaten Minahasa Utara, Sulawesi Utara","Kabupaten Minahasa Utara, Sulawesi Utara",SULAWESI UTARA,,Indonesia,,,,1.528.553,1.249.927.382,https://maps.google.com/?cid=0x0:0x3bd2dc6d44a266a9,
hardware store,hardware store,Toko Bangunan UD. Gloria - MINUT,"Jl. Soekarno No.D-291, Sarongsong II, Kec. Dimembe, Kabupaten Minahasa Utara, Sulawesi Utara 95371","Sarongsong II, Kec. Dimembe, Kabupaten Minahasa Utara",SULAWESI UTARA,95371.0,Indonesia,081350408451,,,14.610.777,1.249.672.777,https://maps.google.com/?cid=0x0:0xd53f015364e010f4,
hardware store,Toko Bahan Bangunan,Toko Bintang Klabat Pusat Baja Ringan,"Matungkas, Kec. Dimembe, Kabupaten Minahasa Utara, Sulawesi Utara 95373","Kec. Dimembe, Kabupaten Minahasa Utara",SULAWESI UTARA,95373.0,Indonesia,082396732432,,,14.691.659,1.249.672.677,https://maps.google.com/?cid=0x0:0xf7a7af35aeb789b7,
hardware store,Toko Bahan Bangunan,Toko Bangunan Chiko Matungkas,"FXF9+7QQ, Jl. Sukur - Likupang, Matungkas, Kec. Dimembe, Kabupaten Minahasa Utara, Sulawesi Utara","Kabupaten Minahasa Utara, Sulawesi Utara",SULAWESI UTARA,,Indonesia,085340940004,,,14.732.046,1.249.694.978,https://maps.google.com/?cid=0x0:0xb10a524c66bf6d30,
hardware store,Toko Bahan Bangunan,Matungkas Jaya (Toko Bangunan),"FXGC+67C, Jl. Sukur - Likupang, Matungkas, Kec. Dimembe, Kabupaten Minahasa Utara, Sulawesi Utara","Kabupaten Minahasa Utara, Sulawesi Utara",SULAWESI UTARA,,Indonesia,082333344765,,,14.755.556,1.249.706.543,https://maps.google.com/?cid=0x0:0x9356ce9cff86f7f2,
hardware store,Pusat Perbelanjaan,UD Diareta,"GXFQ+MWR, Jl. Sukur - Likupang, Warukapas, Kec. Dimembe, Kabupaten Minahasa Utara, Sulawesi Utara","Kabupaten Minahasa Utara, Sulawesi Utara",SULAWESI UTARA,,Indonesia,085298625599,,,15.242.496,1.249.897.575,https://maps.google.com/?cid=0x0:0xf0abc32cc10421a4,
hardware store,Toko Bahan Bangunan,Toko sumber terang,"Jl. Ir. Soekarno No.88, Kolongan Tetempangan, Kec. Kalawat, Kabupaten Minahasa Utara, Sulawesi Utara","Kabupaten Minahasa Utara, Sulawesi Utara",SULAWESI UTARA,,Indonesia,089698079913,,,14.764.815,1.249.366.244,https://maps.google.com/?cid=0x0:0x804c90914228033c,
hardware store,Toko bahan makanan,Kel.Malendes.Tumpia (bule/rinto),"Kolongan, Kec. Kalawat, Kabupaten Minahasa Utara, Sulawesi Utara","Kabupaten Minahasa Utara, Sulawesi Utara",SULAWESI UTARA,,Indonesia,089612231389,,,1.450.796,1.249.422.676,https://maps.google.com/?cid=0x0:0xaae9bb0e7f8f1704,
hardware store,Grosir,Toko Samudra,"HX3X+HF6, Jl. Sukur - Likupang, Wasian, Kec. Dimembe, Kabupaten Minahasa Utara, Sulawesi Utara","Kabupaten Minahasa Utara, Sulawesi Utara",SULAWESI UTARA,,Indonesia,,,,15.539.114,1.249.986.522,https://maps.google.com/?cid=0x0:0x7a6ca99e7558105b,
hardware store,Pasar bahan bangunan,Toko Kolongan Jaya,"FW8G+69M, Jl. Raya Manado - Bitung, Kolongan, Kec. Kalawat, Kabupaten Minahasa Utara, Sulawesi Utara","Kabupaten Minahasa Utara, Sulawesi Utara",SULAWESI UTARA,,Indonesia,085240515970,,,1.465.596,1.249.259.371,https://maps.google.com/?cid=0x0:0x7f97f6ae08991b58,
hardware store,Toko Bahan Bangunan,Toko sumber terang,"Jl. Ir. Soekarno No.88, Kolongan Tetempangan, Kec. Kalawat, Kabupaten Minahasa Utara, Sulawesi Utara","Kabupaten Minahasa Utara, Sulawesi Utara",SULAWESI UTARA,,Indonesia,089698079913,,,14.764.815,1.249.366.244,https://maps.google.com/?cid=0x0:0x804c90914228033c,
hardware store,Toko,Toko GRAND HARDWARE,"CXJH+22P, Sarongsong I, Kec. Airmadidi, Kabupaten Minahasa Utara, Sulawesi Utara","Kabupaten Minahasa Utara, Sulawesi Utara",SULAWESI UTARA,,Indonesia,,,,14.300.932,1.249.775.741,https://maps.google.com/?cid=0x0:0xd5bea6e4e94329b1,
hardware store,Toko Bahan Bangunan,DeDo Supermarket,"Jl. Raya Manado - Bitung, Maumbi, Kec. Kalawat, Kabupaten Minahasa Utara, Sulawesi Utara","Kabupaten Minahasa Utara, Sulawesi Utara",SULAWESI UTARA,,Indonesia,082363111170,,,14.783.792,1.249.086.253,https://maps.google.com/?cid=0x0:0x2d4a0393891ebb97,
hardware store,Toko Bahan Bangunan,GranD Prima Manado,"Kompleks MonacoBay, Jl. Piere Tendean No.1 Blok A, Kota Manado, Sulawesi Utara 95111","Jl. Piere Tendean No.1 Blok A, Kota Manado",SULAWESI UTARA,95111.0,Indonesia,081244158352,,,1.487.165,124.836.687,https://maps.google.com/?cid=0x0:0x7138f00ecfef2196,
hardware store,Toko Obat,GShop Kalawat,"jaga 3 Kolongan, Kawangkoan, Kec. Kalawat, Kabupaten Minahasa Utara, Sulawesi Utara 95378","Kawangkoan, Kec. Kalawat, Kabupaten Minahasa Utara",SULAWESI UTARA,95378.0,Indonesia,082156633305,,,14.534.904,1.249.329.351,https://maps.google.com/?cid=0x0:0x1c661e9567103107,
hardware store,hardware store,Kec. Kauditan,"Kabupaten Minahasa Utara, Sulawesi Utara","Kabupaten Minahasa Utara, Sulawesi Utara",SULAWESI UTARA,,Indonesia,,,,13.931.442,125.042.732,https://maps.google.com/?cid=0x0:0x2d255a96bf594260,
hardware store,Toko Bahan Bangunan,Kios IMANUEL,"desa, Kauditan II, Kec. Kauditan, Kabupaten Minahasa Utara, Sulawesi Utara","Kabupaten Minahasa Utara, Sulawesi Utara",SULAWESI UTARA,,Indonesia,082193319910,,,13.910.229,1.250.480.414,https://maps.google.com/?cid=0x0:0x1a0fb236dec656af,
hardware store,Toko,Toko GRAND HARDWARE,"CXJH+22P, Sarongsong I, Kec. Airmadidi, Kabupaten Minahasa Utara, Sulawesi Utara","Kabupaten Minahasa Utara, Sulawesi Utara",SULAWESI UTARA,,Indonesia,,,,14.300.932,1.249.775.741,https://maps.google.com/?cid=0x0:0xd5bea6e4e94329b1,
hardware store,Komplek perumahan,Kezia home,"CX3V+CGR, Tumaluntung, Kec. Kauditan, Kabupaten Minahasa Utara, Sulawesi Utara","Kabupaten Minahasa Utara, Sulawesi Utara",SULAWESI UTARA,,Indonesia,,,,14.036.121,1.249.937.537,https://maps.google.com/?cid=0x0:0x6ccd979adda3140,
hardware store,Toko Bahan Bangunan,Grand Hardware,"C4PC+9FV, Jl. Raya Manado - Bitung, Girian Weru Dua, Kec. Girian, Kota Bitung, Sulawesi Utara 95864","Jl. Raya Manado - Bitung, Girian Weru Dua, Kec. Girian, Kota Bitung",SULAWESI UTARA,95864.0,Indonesia,,,,14.359.832,125.121.166,https://maps.google.com/?cid=0x0:0x19a823dd6e850cfd,
hardware store,Toko Bahan Bangunan,Sumber Harapan,"Sarongsong I, Kec. Airmadidi, Kabupaten Minahasa Utara, Sulawesi Utara","Kabupaten Minahasa Utara, Sulawesi Utara",SULAWESI UTARA,,Indonesia,082122228701,,,14.284.998,1.249.789.791,https://maps.google.com/?cid=0x0:0x6102f8e8e85ca953,
hardware store,hardware store,Toko Bangunan UD. Gloria - MINUT,"Jl. Soekarno No.D-291, Sarongsong II, Kec. Dimembe, Kabupaten Minahasa Utara, Sulawesi Utara 95371","Sarongsong II, Kec. Dimembe, Kabupaten Minahasa Utara",SULAWESI UTARA,95371.0,Indonesia,081350408451,,,14.610.777,1.249.672.777,https://maps.google.com/?cid=0x0:0xd53f015364e010f4,
hardware store,Kios,Kauditan,"92H3+J62, Lembean, Kec. Kauditan, Kabupaten Minahasa Utara, Sulawesi Utara","Kabupaten Minahasa Utara, Sulawesi Utara",SULAWESI UTARA,,Indonesia,,,,1.379.006,125.003.015,https://maps.google.com/?cid=0x0:0xa5a1586cc74ca547,
hardware store,Toko Fotokopi,Greybell Fotocopy And Stationary,"Jl. Arnold Mononutu, Kaasar, Kec. Kauditan, Kabupaten Minahasa Utara, Sulawesi Utara","Kabupaten Minahasa Utara, Sulawesi Utara",SULAWESI UTARA,,Indonesia,081355688717,,,13.989.345,1.250.121.661,https://maps.google.com/?cid=0x0:0x7f6a0d3510f647d2,
hardware store,Toko Perlengkapan Rumah,MR.DIY,"Jl. Raya Manado - Bitung No.871, Airmadidi Atas, Kec. Airmadidi, Kabupaten Minahasa Utara, Sulawesi Utara","Kabupaten Minahasa Utara, Sulawesi Utara",SULAWESI UTARA,,Indonesia,,,,1.419.665,1.249.877.989,https://maps.google.com/?cid=0x0:0x6b10aff0b5f80bb8,
hardware store,Toko Bahan Bangunan,Depo Bangunan Baru,"Airmadidi Atas, Kec. Airmadidi, Kabupaten Minahasa Utara, Sulawesi Utara","Kabupaten Minahasa Utara, Sulawesi Utara",SULAWESI UTARA,,Indonesia,08114667779,,,14.209.652,1.249.858.983,https://maps.google.com/?cid=0x0:0x39d09d0fdcf3ce9a,
hardware store,Toko Bahan Bangunan,"Cipta Sarana, Sukur, Airmadidi","Jl. Raya Manado - Bitung, Sukur, Kec. Airmadidi, Kabupaten Minahasa Utara, Sulawesi Utara","Kabupaten Minahasa Utara, Sulawesi Utara",SULAWESI UTARA,,Indonesia,,,,14.476.341,1.249.596.084,https://maps.google.com/?cid=0x0:0x666bbfc04e00e06c,
hardware store,Toko Bahan Bangunan,Toko Bintang Klabat Pusat Baja Ringan,"Matungkas, Kec. Dimembe, Kabupaten Minahasa Utara, Sulawesi Utara 95373","Kec. Dimembe, Kabupaten Minahasa Utara",SULAWESI UTARA,95373.0,Indonesia,082396732432,,,14.691.659,1.249.672.677,https://maps.google.com/?cid=0x0:0xf7a7af35aeb789b7,
hardware store,Toko Bunga,KEMBANG DEISY AIRMADIDI,"Airmadidi Atas, Kec. Airmadidi, Kabupaten Minahasa Utara, Sulawesi Utara","Kabupaten Minahasa Utara, Sulawesi Utara",SULAWESI UTARA,,Indonesia,081244008888,,,14.226.343,1.249.843.667,https://maps.google.com/?cid=0x0:0x6db8531055389581,
hardware store,Toko Perlengkapan Rumah,Toko Sumber Meubel Elektronik Bangunan,"Jl. Raya Manado - Bitung, Sarongsong I, Kec. Airmadidi, Kabupaten Minahasa Utara, Sulawesi Utara","Kabupaten Minahasa Utara, Sulawesi Utara",SULAWESI UTARA,,Indonesia,085146472422,,,14.279.751,1.249.791.172,https://maps.google.com/?cid=0x0:0xfe4620b5cfc9b497,
hardware store,Toko Perlengkapan Rumah,Grand Hardware,"Komplek Marina Plaza Blok B No. 7-10, Jl. Piere Tendean Boulevard,manado, Manado, Sulawesi Utara, 95111","Jl. Piere Tendean Boulevard,manado, Manado",SULAWESI UTARA,95111.0,Indonesia,085255443510,,,14.924.543,124.838.346,https://maps.google.com/?cid=0x0:0x513c63d19209ca5,
hardware store,Toko Bahan Bangunan,Toko Bangunan Imanuel,"Girian Indah, Kec. Girian, Kota Bitung, Sulawesi Utara","Kota Bitung, Sulawesi Utara",SULAWESI UTARA,,Indonesia,082347833391,,,14.404.342,1.251.246.168,https://maps.google.com/?cid=0x0:0xcb39ef8127bda51b,
hardware store,Toko Alat Tulis Kantor,Toko Trendy Airmadidi,"Rumah Sakit Umum Tonsea, Sarongsong I, Kec. Airmadidi, Kabupaten Minahasa Utara, Sulawesi Utara","Kabupaten Minahasa Utara, Sulawesi Utara",SULAWESI UTARA,,Indonesia,,,,14.273.575,1.249.787.793,https://maps.google.com/?cid=0x0:0xf99c9aa0fefefbbf,
hardware store,Toko Bahan Bangunan,Toko Bahan Bangunan Adel Jaya,"Jl. Arnold Mononutu, Airmadidi Atas, Kec. Airmadidi, Kota Manado, Sulawesi Utara 95371","Airmadidi Atas, Kec. Airmadidi, Kota Manado",SULAWESI UTARA,95371.0,Indonesia,081356527782,,,14.263.083,124.980.685,https://maps.google.com/?cid=0x0:0x99117017828bdce0,
hardware store,Toko Bahan Bangunan,TOKO BANGUNAN MS,"Dekat matungkas , kec dimembe, Jl. Raya Likupang, Kec. Airmadidi, Sulawesi Utara 95371","kec dimembe, Jl. Raya Likupang, Kec. Airmadidi",SULAWESI UTARA,95371.0,Indonesia,085396672112,,,14.667.282,124.966.547,https://maps.google.com/?cid=0x0:0x56f7823a657be343,
hardware store,Toko,Home JhanLee Manenda,"CXVC+5PV, Sukur, Kec. Airmadidi, Kabupaten Minahasa Utara, Sulawesi Utara","Kabupaten Minahasa Utara, Sulawesi Utara",SULAWESI UTARA,,Indonesia,089507929299,,,14.429.902,1.249.717.939,https://maps.google.com/?cid=0x0:0x537118f517954acf,
hardware store,Kantor Perusahaan,Toko Christopher,"92VR+3RR, Jl. Arnold Mononutu, Kawiley, Kec. Kauditan, Kabupaten Minahasa Utara, Sulawesi Utara","Kabupaten Minahasa Utara, Sulawesi Utara",SULAWESI UTARA,,Indonesia,08124889278,,,13.927.745,1.250.420.047,https://maps.google.com/?cid=0x0:0xf9946406078e5cd,
hardware store,Pemasok Bahan Bangunan,ELDEMA,"Luaan, Tondano Tim., Kabupaten Minahasa, Sulawesi Utara 95614","Tondano Tim., Kabupaten Minahasa",SULAWESI UTARA,95614.0,Indonesia,085159411023,,,12.952.559,1.249.547.967,https://maps.google.com/?cid=0x0:0x389181ef0a747f78,
hardware store,Toko Alat Tulis,Zerina Colection,"Kawiley, Kec. Kauditan, Kabupaten Minahasa Utara, Sulawesi Utara","Kabupaten Minahasa Utara, Sulawesi Utara",SULAWESI UTARA,,Indonesia,08114381859,,,13.901.591,1.250.381.208,https://maps.google.com/?cid=0x0:0x516d724a0c1201ee,
hardware store,hardware store,Kec. Kema,"Kabupaten Minahasa Utara, Sulawesi Utara","Kabupaten Minahasa Utara, Sulawesi Utara",SULAWESI UTARA,,Indonesia,,,,13.717.732,1.250.714.941,https://maps.google.com/?cid=0x0:0x9d12383cee2836a3,
hardware store,Toko,Toko GRAND HARDWARE,"CXJH+22P, Sarongsong I, Kec. Airmadidi, Kabupaten Minahasa Utara, Sulawesi Utara","Kabupaten Minahasa Utara, Sulawesi Utara",SULAWESI UTARA,,Indonesia,,,,14.300.932,1.249.775.741,https://maps.google.com/?cid=0x0:0xd5bea6e4e94329b1,
hardware store,Toko Bahan Bangunan,Grand Hardware,"C4PC+9FV, Jl. Raya Manado - Bitung, Girian Weru Dua, Kec. Girian, Kota Bitung, Sulawesi Utara 95864","Jl. Raya Manado - Bitung, Girian Weru Dua, Kec. Girian, Kota Bitung",SULAWESI UTARA,95864.0,Indonesia,,,,14.359.832,125.121.166,https://maps.google.com/?cid=0x0:0x19a823dd6e850cfd,
hardware store,Toko Perlengkapan Rumah,Grand Hardware,"FR58+3RF, Malalayang Satu, Kec. Malalayang, Kota Manado, Sulawesi Utara","Kota Manado, Sulawesi Utara",SULAWESI UTARA,,Indonesia,,,,14.576.853,1.248.170.507,https://maps.google.com/?cid=0x0:0xfd46d3ac7a01670e,
hardware store,Toko Alat Tulis,Zerina Colection,"Kawiley, Kec. Kauditan, Kabupaten Minahasa Utara, Sulawesi Utara","Kabupaten Minahasa Utara, Sulawesi Utara",SULAWESI UTARA,,Indonesia,08114381859,,,13.901.591,1.250.381.208,https://maps.google.com/?cid=0x0:0x516d724a0c1201ee,
hardware store,hardware store,J7c-aMLqFdGXxc8PubKA-QY,,,SULAWESI UTARA,,Indonesia,082177722268,,,1.411.088,125.110.178,https://maps.google.com/?cid=0x0:0xcd23475ab54686af,
hardware store,hardware store,Toko baut screw,"jaga v, Kema Tiga, Kema, North Minahasa Regency, North Sulawesi 95379","Kema Tiga, Kema, North Minahasa Regency",SULAWESI UTARA,95379.0,Indonesia,,,,13.600.815,1.250.743.913,https://maps.google.com/?cid=0x0:0x83ce317f232a0b2b,
hardware store,Toko Perlengkapan Rumah,Grand Hardware,"Komplek Marina Plaza Blok B No. 7-10, Jl. Piere Tendean Boulevard,manado, Manado, Sulawesi Utara, 95111","Jl. Piere Tendean Boulevard,manado, Manado",SULAWESI UTARA,95111.0,Indonesia,085255443510,,,14.924.543,124.838.346,https://maps.google.com/?cid=0x0:0x513c63d19209ca5,
hardware store,Toko Perlengkapan Rumah,Toko Sumber Meubel Elektronik Bangunan,"Jl. Raya Manado - Bitung, Sarongsong I, Kec. Airmadidi, Kabupaten Minahasa Utara, Sulawesi Utara","Kabupaten Minahasa Utara, Sulawesi Utara",SULAWESI UTARA,,Indonesia,085146472422,,,14.279.751,1.249.791.172,https://maps.google.com/?cid=0x0:0xfe4620b5cfc9b497,
hardware store,Toko Bahan Bangunan,GranD Prima Manado,"Kompleks MonacoBay, Jl. Piere Tendean No.1 Blok A, Kota Manado, Sulawesi Utara 95111","Jl. Piere Tendean No.1 Blok A, Kota Manado",SULAWESI UTARA,95111.0,Indonesia,081244158352,,,1.487.165,124.836.687,https://maps.google.com/?cid=0x0:0x7138f00ecfef2196,
hardware store,Toko Bahan Bangunan,TB.MERIBA (Toko Bangunan),"7WX6+4XP, Taler, Tondano Tim., Kabupaten Minahasa, Sulawesi Utara","Kabupaten Minahasa, Sulawesi Utara",SULAWESI UTARA,,Indonesia,085696259199,,,12.978.375,1.249.124.531,https://maps.google.com/?cid=0x0:0x92ba361f80294412,
hardware store,Toko Bahan Bangunan,Toko Bangunan Tandengan,"Jl. Tondano - Kakas, Tandengan, Kec. Eris, Kabupaten Minahasa, Sulawesi Utara","Kabupaten Minahasa, Sulawesi Utara",SULAWESI UTARA,,Indonesia,,,,12.356.425,1.249.243.613,https://maps.google.com/?cid=0x0:0x5da871fb5996e1d4,
hardware store,Pemasok Bahan Bangunan,Toko Bangunan Cendrawasih,"Taler, Tondano Tim., Kabupaten Minahasa, Sulawesi Utara","Kabupaten Minahasa, Sulawesi Utara",SULAWESI UTARA,,Indonesia,081343561691,,,12.984.892,1.249.127.644,https://maps.google.com/?cid=0x0:0x563050a595f334a3,
hardware store,Toko Elektronik,PT. INDOTEKNIK DOTCOM GEMILANG,"3, Jl. Bandengan Utara Raya No.85A, RW.16, Penjaringan, Kec. Penjaringan, Jkt Utara, Daerah Khusus Ibukota Jakarta 14440","Jl. Bandengan Utara Raya No.85A, RW.16, Penjaringan, Kec. Penjaringan, Jkt Utara",SULAWESI UTARA,14440.0,Indonesia,02129338828,,,-61.369.179,10.679.436,https://maps.google.com/?cid=0x0:0xf51b4dc3900205ce,
hardware store,Toko Alat-Alat,Indo Teknik,"Duta Indah Square 2 Blok F No.2, Jl. Teluk Gong Raya, RT.6/RW.9, Pejagalan, Kec. Penjaringan, Jkt Utara, Daerah Khusus Ibukota Jakarta 14450","Jl. Teluk Gong Raya, RT.6/RW.9, Pejagalan, Kec. Penjaringan, Jkt Utara",SULAWESI UTARA,14450.0,Indonesia,02166606979,,,-61.362.434,106.780.681,https://maps.google.com/?cid=0x0:0x9b158796839ddf70,
hardware store,hardware store,Kec. Likupang Bar.,"Kabupaten Minahasa Utara, Sulawesi Utara","Kabupaten Minahasa Utara, Sulawesi Utara",SULAWESI UTARA,,Indonesia,,,,1.692.583,1.250.117.119,https://maps.google.com/?cid=0x0:0x4ad9ed2bf8ddc336,
hardware store,Pasar bahan bangunan,Toko sinar berkat,"Desah, Mubune, Kec. Likupang Bar., Kota manado, Sulawesi Utara 95378","Mubune, Kec. Likupang Bar., Kota manado",SULAWESI UTARA,95378.0,Indonesia,081253583735,,,17.106.689,1.250.110.012,https://maps.google.com/?cid=0x0:0x139ab13effd89977,
hardware store,Toko Bahan Bangunan,Toko bangunan LIKUPANG JAYA,"M395+QRX, Likupang II, Kec. Likupang Tim., Kabupaten Minahasa Utara, Sulawesi Utara","Kabupaten Minahasa Utara, Sulawesi Utara",SULAWESI UTARA,,Indonesia,,,,16.694.616,1.250.597.135,https://maps.google.com/?cid=0x0:0x7aece044884761f5,
hardware store,Toko Alat Pancing,TEKNIK JAYA LIKUPANG,"Jalan Raya Likupang No.1, Kabupaten Minahasa Utara, Sulawesi Utara 95375",Kabupaten Minahasa Utara,SULAWESI UTARA,95375.0,Indonesia,085255555715,,,16.729.649,1.250.614.948,https://maps.google.com/?cid=0x0:0x99522b354f5e90bf,
hardware store,Toko Fotokopi,BINTANG FOTOCOPY,"Unnamed Road, Munte, Kec. Likupang Bar., Kabupaten Minahasa Utara, Sulawesi Utara","Kabupaten Minahasa Utara, Sulawesi Utara",SULAWESI UTARA,,Indonesia,085282679714,,,16.919.724,1.250.111.858,https://maps.google.com/?cid=0x0:0xb75ee33645030b1c,
hardware store,Toko,Cahaya Fotocopy,"Jln. Likupang Jaga IV, Serei, Wori, Kabupaten Minahasa Utara, Sulawesi Utara 95377","Serei, Wori, Kabupaten Minahasa Utara",SULAWESI UTARA,95377.0,Indonesia,082345985049,,,1.736.035,125.007.788,https://maps.google.com/?cid=0x0:0x114b29d5e72d3ec6,
hardware store,Toko Bahan Bangunan,Dhea Jaya,"Dekat, Wineru, Kec. Likupang Tim., Kabupaten Minahasa Utara, Sulawesi Utara 95375","Wineru, Kec. Likupang Tim., Kabupaten Minahasa Utara",SULAWESI UTARA,95375.0,Indonesia,,,,1.660.173,1.251.055.555,https://maps.google.com/?cid=0x0:0x10b842c850f1fcbb,
hardware store,hardware store,Kec. Likupang Sel.,"Kabupaten Minahasa Utara, Sulawesi Utara","Kabupaten Minahasa Utara, Sulawesi Utara",SULAWESI UTARA,,Indonesia,,,,16.154.658,1.250.277.057,https://maps.google.com/?cid=0x0:0x1c90d6707d558a25,
hardware store,Toko Bahan Bangunan,Toko bangunan pak haji pian (Toko Amel),"Likupang II, Kec. Likupang Tim., Kabupaten Minahasa Utara, Sulawesi Utara 95375","Kec. Likupang Tim., Kabupaten Minahasa Utara",SULAWESI UTARA,95375.0,Indonesia,081356520798,,,16.732.482,1.250.612.162,https://maps.google.com/?cid=0x0:0xbcb61ae0385b4a57,
hardware store,Toko Bahan Bangunan,Toko bangunan LIKUPANG JAYA,"M395+QRX, Likupang II, Kec. Likupang Tim., Kabupaten Minahasa Utara, Sulawesi Utara","Kabupaten Minahasa Utara, Sulawesi Utara",SULAWESI UTARA,,Indonesia,,,,16.694.616,1.250.597.135,https://maps.google.com/?cid=0x0:0x7aece044884761f5,
hardware store,Grosir,Toko Samudra,"HX3X+HF6, Jl. Sukur - Likupang, Wasian, Kec. Dimembe, Kabupaten Minahasa Utara, Sulawesi Utara","Kabupaten Minahasa Utara, Sulawesi Utara",SULAWESI UTARA,,Indonesia,,,,15.539.114,1.249.986.522,https://maps.google.com/?cid=0x0:0x7a6ca99e7558105b,
hardware store,Toko Fotokopi,BINTANG FOTOCOPY,"Unnamed Road, Munte, Kec. Likupang Bar., Kabupaten Minahasa Utara, Sulawesi Utara","Kabupaten Minahasa Utara, Sulawesi Utara",SULAWESI UTARA,,Indonesia,085282679714,,,16.919.724,1.250.111.858,https://maps.google.com/?cid=0x0:0xb75ee33645030b1c,
hardware store,Minimarket,Toko Shine Likupang,"Likupang II, Kec. Likupang Tim., Kabupaten Minahasa Utara, Sulawesi Utara","Kabupaten Minahasa Utara, Sulawesi Utara",SULAWESI UTARA,,Indonesia,04317003033,,,16.718.258,1.250.599.058,https://maps.google.com/?cid=0x0:0x8787e69005b49ed9,
hardware store,Toko,Toko GRAND HARDWARE,"CXJH+22P, Sarongsong I, Kec. Airmadidi, Kabupaten Minahasa Utara, Sulawesi Utara","Kabupaten Minahasa Utara, Sulawesi Utara",SULAWESI UTARA,,Indonesia,,,,14.300.932,1.249.775.741,https://maps.google.com/?cid=0x0:0xd5bea6e4e94329b1,
hardware store,hardware store,Kec. Likupang Tim.,"Kabupaten Minahasa Utara, Sulawesi Utara","Kabupaten Minahasa Utara, Sulawesi Utara",SULAWESI UTARA,,Indonesia,,,,16.567.027,1.251.102.134,https://maps.google.com/?cid=0x0:0xfb7b50a78e0c1b1b,
hardware store,Toko Bahan Bangunan,Toko bangunan pak haji pian (Toko Amel),"Likupang II, Kec. Likupang Tim., Kabupaten Minahasa Utara, Sulawesi Utara 95375","Kec. Likupang Tim., Kabupaten Minahasa Utara",SULAWESI UTARA,95375.0,Indonesia,081356520798,,,16.732.482,1.250.612.162,https://maps.google.com/?cid=0x0:0xbcb61ae0385b4a57,
hardware store,Toko Bahan Bangunan,Toko bangunan LIKUPANG JAYA,"M395+QRX, Likupang II, Kec. Likupang Tim., Kabupaten Minahasa Utara, Sulawesi Utara","Kabupaten Minahasa Utara, Sulawesi Utara",SULAWESI UTARA,,Indonesia,,,,16.694.616,1.250.597.135,https://maps.google.com/?cid=0x0:0x7aece044884761f5,
hardware store,Toko Bahan Bangunan,Dhea Jaya,"Dekat, Wineru, Kec. Likupang Tim., Kabupaten Minahasa Utara, Sulawesi Utara 95375","Wineru, Kec. Likupang Tim., Kabupaten Minahasa Utara",SULAWESI UTARA,95375.0,Indonesia,,,,1.660.173,1.251.055.555,https://maps.google.com/?cid=0x0:0x10b842c850f1fcbb,
hardware store,Toko Alat Tulis,Fotocopy Attarrauf,"Maen, Kec. Likupang Tim., Kabupaten Minahasa Utara, Sulawesi Utara 95375","Kec. Likupang Tim., Kabupaten Minahasa Utara",SULAWESI UTARA,95375.0,Indonesia,085256356306,,,16.570.906,1.251.102.326,https://maps.google.com/?cid=0x0:0x7e666a59f38531b7,
hardware store,Pasar bahan bangunan,Toko sinar berkat,"Desah, Mubune, Kec. Likupang Bar., Kota manado, Sulawesi Utara 95378","Mubune, Kec. Likupang Bar., Kota manado",SULAWESI UTARA,95378.0,Indonesia,081253583735,,,17.106.689,1.250.110.012,https://maps.google.com/?cid=0x0:0x139ab13effd89977,
hardware store,hardware store,Sulawesi Utara 95373,"Paniki Atas, Kec. Talawaan, Kabupaten Minahasa Utara, Sulawesi Utara","Kabupaten Minahasa Utara, Sulawesi Utara",SULAWESI UTARA,,Indonesia,,,,14.974.733,1.249.238.636,https://maps.google.com/?cid=0x0:0x3a1e3c0a99b6788f,
hardware store,Toko,Toko GRAND HARDWARE,"CXJH+22P, Sarongsong I, Kec. Airmadidi, Kabupaten Minahasa Utara, Sulawesi Utara","Kabupaten Minahasa Utara, Sulawesi Utara",SULAWESI UTARA,,Indonesia,,,,14.300.932,1.249.775.741,https://maps.google.com/?cid=0x0:0xd5bea6e4e94329b1,
hardware store,Toko Perlengkapan Rumah,Grand Hardware,"Komplek Marina Plaza Blok B No. 7-10, Jl. Piere Tendean Boulevard,manado, Manado, Sulawesi Utara, 95111","Jl. Piere Tendean Boulevard,manado, Manado",SULAWESI UTARA,95111.0,Indonesia,085255443510,,,14.924.543,124.838.346,https://maps.google.com/?cid=0x0:0x513c63d19209ca5,
hardware store,hardware store,Kec. Tebet,"Kota Jakarta Selatan, Daerah Khusus Ibukota Jakarta","Kota Jakarta Selatan, Daerah Khusus Ibukota Jakarta",SULAWESI UTARA,,Indonesia,,,,-62.251.223,1.068.549.881,https://maps.google.com/?cid=0x0:0xd575e31c807295f9,
hardware store,hardware store,Wori,"Kabupaten Minahasa Utara, Sulawesi Utara","Kabupaten Minahasa Utara, Sulawesi Utara",SULAWESI UTARA,,Indonesia,,,,15.986.509,1.248.599.034,https://maps.google.com/?cid=0x0:0x1e44c8cf84925b11,
hardware store,Toko,Toko GRAND HARDWARE,"CXJH+22P, Sarongsong I, Kec. Airmadidi, Kabupaten Minahasa Utara, Sulawesi Utara","Kabupaten Minahasa Utara, Sulawesi Utara",SULAWESI UTARA,,Indonesia,,,,14.300.932,1.249.775.741,https://maps.google.com/?cid=0x0:0xd5bea6e4e94329b1,
hardware store,Toko Perlengkapan Rumah,Grand Hardware,"Komplek Marina Plaza Blok B No. 7-10, Jl. Piere Tendean Boulevard,manado, Manado, Sulawesi Utara, 95111","Jl. Piere Tendean Boulevard,manado, Manado",SULAWESI UTARA,95111.0,Indonesia,085255443510,,,14.924.543,124.838.346,https://maps.google.com/?cid=0x0:0x513c63d19209ca5,
hardware store,Toko bahan makanan,Toko Berkat Usaha,"Jaga 4, Pontoh, Wori, Kabupaten Minahasa Utara, Sulawesi Utara 95376","Pontoh, Wori, Kabupaten Minahasa Utara",SULAWESI UTARA,95376.0,Indonesia,082196763582,,,16.399.345,1.249.220.934,https://maps.google.com/?cid=0x0:0x1b87281e083dfc2b,
hardware store,Toko,Toko Lorenzo Jaya,"Pandu, Kec. Mapanget, Kota Manado, Sulawesi Utara","Kota Manado, Sulawesi Utara",SULAWESI UTARA,,Indonesia,082188106410,,,15.675.409,1.248.742.613,https://maps.google.com/?cid=0x0:0x683151a533bde6d5,
hardware store,Pasar bahan bangunan,Toko sinar berkat,"Desah, Mubune, Kec. Likupang Bar., Kota manado, Sulawesi Utara 95378","Mubune, Kec. Likupang Bar., Kota manado",SULAWESI UTARA,95378.0,Indonesia,081253583735,,,17.106.689,1.250.110.012,https://maps.google.com/?cid=0x0:0x139ab13effd89977,
hardware store,Toko Bahan Bangunan,"UD. WENANG PERKASA - Building Material, Tools  Hardware","Jl. Adipura Raya, Kima Atas, Kec. Mapanget, Kota Manado, Sulawesi Utara","Kota Manado, Sulawesi Utara",SULAWESI UTARA,,Indonesia,082188228866,,,15.402.988,1.249.127.666,https://maps.google.com/?cid=0x0:0x162cd36145df143,
hardware store,hardware store,MR.STEEL,"Jl. A.A. Maramis No.332, Paniki Bawah, Kec. Mapanget, Kota Manado, Sulawesi Utara","Kota Manado, Sulawesi Utara",SULAWESI UTARA,,Indonesia,087823472253,,,1.525.177,1.249.211.557,https://maps.google.com/?cid=0x0:0x5aaccb80d4b77d08,
hardware store,Toko Bahan Bangunan,Toko Bangunan RR Djaya Abadi Pandu,"Jl. Pandu 2, Pandu, Kec. Mapanget, Kota Manado, Sulawesi Utara 95242","Pandu, Kec. Mapanget, Kota Manado",SULAWESI UTARA,95242.0,Indonesia,087872209969,,,15.653.684,1.248.720.056,https://maps.google.com/?cid=0x0:0xa8efe64d1bc65b5e,
hardware store,Toko Bahan Bangunan,TOKO BERKAT SAUDARA,"GW67+C5J, Jl. A.A. Maramis, Paniki Bawah, Kec. Mapanget, Kota Manado, Sulawesi Utara 95256","Jl. A.A. Maramis, Paniki Bawah, Kec. Mapanget, Kota Manado",SULAWESI UTARA,95256.0,Indonesia,082189277348,,,15.110.625,1.249.129.375,https://maps.google.com/?cid=0x0:0x5576ec1ee953dc56,
hardware store,Toko Bahan Bangunan,UD MARKOLINK,"Paniki Dua, Kec. Mapanget, Kota Manado, Sulawesi Utara","Kota Manado, Sulawesi Utara",SULAWESI UTARA,,Indonesia,085256732552,,,15.171.433,1.249.257.762,https://maps.google.com/?cid=0x0:0xdadcfef9d0d96e4b,
hardware store,Toko Alat Tulis,731.Com Pandu,"RW, Lingkungan 6, Pandu, Kec. Bunaken, Kota Manado, Sulawesi Utara","Kota Manado, Sulawesi Utara",SULAWESI UTARA,,Indonesia,085399990038,,,15.691.887,1.248.747.813,https://maps.google.com/?cid=0x0:0x9ae6f50cd0ca2bdb,
hardware store,Toko,Cahaya Fotocopy,"Jln. Likupang Jaga IV, Serei, Wori, Kabupaten Minahasa Utara, Sulawesi Utara 95377","Serei, Wori, Kabupaten Minahasa Utara",SULAWESI UTARA,95377.0,Indonesia,082345985049,,,1.736.035,125.007.788,https://maps.google.com/?cid=0x0:0x114b29d5e72d3ec6,
hardware store,Toko Bahan Bangunan,Toko Bangunan HARAPAN BERKAT Jl. Lenkeng C no 15 GPI,"Perum GPI, Jl. Lengkeng C No.15, Kima Atas, Kec. Mapanget, Kota Manado, Sulawesi Utara","Kota Manado, Sulawesi Utara",SULAWESI UTARA,,Indonesia,081355863161,,,15.468.356,1.248.976.381,https://maps.google.com/?cid=0x0:0xdea2f61d23f1497a,
hardware store,Toko Bahan Bangunan,UK Home Solution (Utama Karya),"Jl. Yos Sudarso No.2, Kairagi Weru, Kec. Paal Dua, Kota Manado, Sulawesi Utara 95129","Kairagi Weru, Kec. Paal Dua, Kota Manado",SULAWESI UTARA,95129.0,Indonesia,081222882323,,,14.967.511,1.248.771.159,https://maps.google.com/?cid=0x0:0x53122109844f7011,
hardware store,Toko Bahan Bangunan,UD CINDRA,"Jl. Koka Jl. Raya Mapanget, Mapanget Bar., Kec. Mapanget, Kota Manado, Sulawesi Utara 95370","Mapanget Bar., Kec. Mapanget, Kota Manado",SULAWESI UTARA,95370.0,Indonesia,081354995948,,,15.500.134,1.249.195.503,https://maps.google.com/?cid=0x0:0x347197f6feaa58bc,
hardware store,Toko Bahan Bangunan,Van's Ace Hardware,"2695 N Tracy Blvd, Tracy, CA 95376, Amerika Serikat","Tracy, CA",SULAWESI UTARA,95376.0,Indonesia,12098358286,,,377.560.602,-1.214.357.551,https://maps.google.com/?cid=0x0:0xe01dae5870bcff4a,
hardware store,Toko Bahan Bangunan,Harbor Freight,"3021 N Tracy Blvd, Tracy, CA 95376, Amerika Serikat","Tracy, CA",SULAWESI UTARA,95376.0,Indonesia,12098398418,,,37.759.985,-1.214.357.888,https://maps.google.com/?cid=0x0:0xf5baee0d739a02ac,
hardware store,hardware store,Orchard Supply Hardware,"1975 W 11th St, Tracy, CA 95376, Amerika Serikat","Tracy, CA",SULAWESI UTARA,95376.0,Indonesia,12098342808,,,377.407.518,-1.214.521.889,https://maps.google.com/?cid=0x0:0x18275be9b616004,
