Category,Real Category,Business Name,Address,City,State,Postal Code,Country,Phone,Email,Website,Latitude,Longitude,Map Link,Details Link
mall,mall,Sulawesi Utara 95371,"Airmadidi Atas, Kec. Airmadidi, Kabupaten Minahasa Utara, Sulawesi Utara","Kabupaten Minahasa Utara, Sulawesi Utara",SULAWESI UTARA,,Indonesia,,,,14.172.327,1.249.876.821,https://maps.google.com/?cid=0x0:0x80e87fd6189d70fc,
mall,Taman,Pasar Airmadidi,"CXGH+2VX, Sarongsong I, Kec. Airmadidi, Kabupaten Minahasa Utara, Sulawesi Utara","Kabupaten Minahasa Utara, Sulawesi Utara",SULAWESI UTARA,,Indonesia,,,,14.251.155,1.249.797.295,https://maps.google.com/?cid=0x0:0xec601ddc826c1656,
mall,Pusat Perbelanjaan,Miniso Airmadidi,"CXCP+6Q9, Jl. Raya Manado - Bitung, Airmadidi Atas, Kec. Airmadidi, Kabupaten Minahasa Utara, Sulawesi Utara","Kabupaten Minahasa Utara, Sulawesi Utara",SULAWESI UTARA,,Indonesia,088804603018,,,1.420.532,1.249.869.805,https://maps.google.com/?cid=0x0:0xc1a633ef1983367e,
mall,Toko Perlengkapan Rumah,MR.DIY,"Jl. Raya Manado - Bitung No.871, Airmadidi Atas, Kec. Airmadidi, Kabupaten Minahasa Utara, Sulawesi Utara","Kabupaten Minahasa Utara, Sulawesi Utara",SULAWESI UTARA,,Indonesia,,,,1.419.665,1.249.877.989,https://maps.google.com/?cid=0x0:0x6b10aff0b5f80bb8,
mall,Pusat Perbelanjaan,D'PARFUME MINUT (AIRMADIDI),"Sarongsong I, Kec. Airmadidi, Kabupaten Minahasa Utara, Sulawesi Utara","Kabupaten Minahasa Utara, Sulawesi Utara",SULAWESI UTARA,,Indonesia,089654472273,,,14.246.468,1.249.789.159,https://maps.google.com/?cid=0x0:0x62daaef5d6bd6ff9,
mall,Toko Pakaian,I AM Fashion Store Airmadidi,"CXCP+C9H, Airmadidi Atas, Kec. Airmadidi, Kabupaten Minahasa Utara, Sulawesi Utara","Kabupaten Minahasa Utara, Sulawesi Utara",SULAWESI UTARA,,Indonesia,081285596337,,,14.210.636,1.249.859.974,https://maps.google.com/?cid=0x0:0x49747e89233a4904,
mall,Tempat Biliar,Ruko,"CXCP+4RC, Jl. Raya Manado - Bitung, Airmadidi Atas, Kec. Airmadidi, Kabupaten Minahasa Utara, Sulawesi Utara","Kabupaten Minahasa Utara, Sulawesi Utara",SULAWESI UTARA,,Indonesia,,,,14.203.226,1.249.870.097,https://maps.google.com/?cid=0x0:0x23f91e6846b03337,
mall,Toko,Toko GRAND HARDWARE,"CXJH+22P, Sarongsong I, Kec. Airmadidi, Kabupaten Minahasa Utara, Sulawesi Utara","Kabupaten Minahasa Utara, Sulawesi Utara",SULAWESI UTARA,,Indonesia,,,,14.300.932,1.249.775.741,https://maps.google.com/?cid=0x0:0xd5bea6e4e94329b1,
mall,Toko Pakaian,Pinky Kitty Shop,"C282+QJQ, Perumahan Agape Griya Tumaluntung F7/02, Airmadidi Atas, Kec. Airmadidi, Kabupaten Minahasa Utara, Sulawesi Utara 95371","Perumahan Agape Griya Tumaluntung F7/02, Airmadidi Atas, Kec. Airmadidi, Kabupaten Minahasa Utara",SULAWESI UTARA,95371.0,Indonesia,085240523030,,,14.159.295,1.250.011.146,https://maps.google.com/?cid=0x0:0x371ca521ce4bfddf,
mall,Minimarket,Indomaret Airmadidi,"CXHH+6R5, Jl. Raya Manado - Bitung, Sarongsong I, Kec. Airmadidi, Kabupaten Minahasa Utara, Sulawesi Utara 95372","Jl. Raya Manado - Bitung, Sarongsong I, Kec. Airmadidi, Kabupaten Minahasa Utara",SULAWESI UTARA,95372.0,Indonesia,081368063240,,,14.280.074,1.249.796.029,https://maps.google.com/?cid=0x0:0xdef56c098d7ceb76,
mall,Pusat Perbelanjaan,Tumaluntung Square Mall,"CX7V+FCC, Airmadidi Atas, Kec. Airmadidi, Kabupaten Minahasa Utara, Sulawesi Utara","Kabupaten Minahasa Utara, Sulawesi Utara",SULAWESI UTARA,,Indonesia,,,,14.136.942,1.249.935.273,https://maps.google.com/?cid=0x0:0x4fba53d66448aaf5,
mall,Toko bahan makanan,Oni Ning Airmadidi,"CXFJ+4CW, Airmadidi Bawah, Kec. Airmadidi, Kabupaten Minahasa Utara, Sulawesi Utara","Kabupaten Minahasa Utara, Sulawesi Utara",SULAWESI UTARA,,Indonesia,085255318825,,,14.230.926,1.249.809.347,https://maps.google.com/?cid=0x0:0x41f6100c501cdb33,
mall,Toko bahan makanan,Reseller Macora Airmadidi,"9XX6+3M3, Sawangan, Kec. Airmadidi, Kabupaten Minahasa Utara, Sulawesi Utara","Kabupaten Minahasa Utara, Sulawesi Utara",SULAWESI UTARA,,Indonesia,082292471060,,,13.976.339,1.249.616.867,https://maps.google.com/?cid=0x0:0xae1a01112ce62656,
mall,mall,Sulawesi Utara 95373,"Paniki Atas, Kec. Talawaan, Kabupaten Minahasa Utara, Sulawesi Utara","Kabupaten Minahasa Utara, Sulawesi Utara",SULAWESI UTARA,,Indonesia,,,,14.974.733,1.249.238.636,https://maps.google.com/?cid=0x0:0x3a1e3c0a99b6788f,
mall,Toko bahan makanan,Kios Blessing Dimembe,"FXVG+8Q7, Jl. Sukur - Likupang, Dimembe, Kec. Dimembe, Kabupaten Minahasa Utara, Sulawesi Utara","Kabupaten Minahasa Utara, Sulawesi Utara",SULAWESI UTARA,,Indonesia,,,,14.932.949,1.249.769.329,https://maps.google.com/?cid=0x0:0x2f2afca2491268a4,
mall,Toko,Kembang DIVA,"GX4H+9WR, Jl. Sukur - Likupang, Dimembe, Kec. Dimembe, Kabupaten Minahasa Utara, Sulawesi Utara","Kabupaten Minahasa Utara, Sulawesi Utara",SULAWESI UTARA,,Indonesia,082187314466,,,1.505.987,1.249.797.738,https://maps.google.com/?cid=0x0:0x15df271374bb32ab,
mall,Pusat Perbelanjaan,Megamall Manado,"Kawasan Megamas, Kantor Pengelola Megamall, Jl. Piere Tendean, Wenang Sel., Kec. Wenang, Kota Manado, Sulawesi Utara 95234","Kantor Pengelola Megamall, Jl. Piere Tendean, Wenang Sel., Kec. Wenang, Kota Manado",SULAWESI UTARA,95234.0,Indonesia,0431879889,,,14.839.687,1.248.348.372,https://maps.google.com/?cid=0x0:0xfcc9b9fa2283700,
mall,Pusat Perbelanjaan,BELVANIA CARD (MINUT),"FXF8+VM6, Unnamed Road, Matungkas, Kec. Dimembe, Kabupaten Minahasa Utara, Sulawesi Utara","Kabupaten Minahasa Utara, Sulawesi Utara",SULAWESI UTARA,,Indonesia,085242370637,,,14.746.625,1.249.666.393,https://maps.google.com/?cid=0x0:0x5a4f1caab07b802e,
mall,Pusat Perbelanjaan,Manado Town Square,"Jl. Piere Tendean, Kota Manado, Sulawesi Utara 95114",Kota Manado,SULAWESI UTARA,95114.0,Indonesia,,,,14.723.227,1.248.319.485,https://maps.google.com/?cid=0x0:0xea03227619d4f862,
mall,Toko bahan makanan,Kios Gabrielle,"FXJC+8PJ, Jl. Sukur - Likupang, Matungkas, Kec. Dimembe, Kabupaten Minahasa Utara, Sulawesi Utara","Kabupaten Minahasa Utara, Sulawesi Utara",SULAWESI UTARA,,Indonesia,,,,14.808.465,1.249.717.579,https://maps.google.com/?cid=0x0:0xcd6891f98ce3c8f7,
mall,,Mandagi-dondok,"Jl. Raya Talawaan - Tatelu No.5, Talawaan, Kec. Dimembe, Kabupaten Minahasa Utara, Sulawesi Utara","Kabupaten Minahasa Utara, Sulawesi Utara",SULAWESI UTARA,,Indonesia,,,,15.312.129,1.249.716.631,https://maps.google.com/?cid=0x0:0xeb712a37514587ad,
mall,Toko bahan makanan,TOKO MITRA ANDA,"GX7P+QWP, Warukapas, Kec. Dimembe, Kabupaten Minahasa Utara, Sulawesi Utara","Kabupaten Minahasa Utara, Sulawesi Utara",SULAWESI UTARA,,Indonesia,,,,1.514.462,1.249.873.178,https://maps.google.com/?cid=0x0:0xe364a932990e5ece,
mall,Pengembang Realestat,Grand Kawanua City Walk,"Grand Kawanua International City Blok C No. 23, Jalan A.A. Maramis, Paniki Bawah, Mapanget, Paniki Bawah, Kec. Mapanget, Kota Manado, Sulawesi Utara 95254","Jalan A.A. Maramis, Paniki Bawah, Mapanget, Paniki Bawah, Kec. Mapanget, Kota Manado",SULAWESI UTARA,95254.0,Indonesia,0431818919,,,15.040.583,1.249.004.702,https://maps.google.com/?cid=0x0:0x2258ad1a1764290e,
mall,Kantor Perusahaan,Marina Plaza,"Wenang Utara, Kec. Wenang, Kota Manado, Sulawesi Utara","Kota Manado, Sulawesi Utara",SULAWESI UTARA,,Indonesia,,,,14.936.133,1.248.390.128,https://maps.google.com/?cid=0x0:0xba42287db275afb3,
mall,Kios,KIOS MARCELLO,"FXC9+G9G, Matungkas, Kec. Dimembe, Kabupaten Minahasa Utara, Sulawesi Utara","Kabupaten Minahasa Utara, Sulawesi Utara",SULAWESI UTARA,,Indonesia,085256136133,,,14.713.069,1.249.684.578,https://maps.google.com/?cid=0x0:0xa4357d59993a928c,
mall,Toko bahan makanan,Kios Imanuel,"G333+857, Jl. Raya Klabat, Klabat, Kec. Dimembe, Kabupaten Minahasa Utara, Sulawesi Utara","Kabupaten Minahasa Utara, Sulawesi Utara",SULAWESI UTARA,,Indonesia,,,,14.995.701,1.250.598.858,https://maps.google.com/?cid=0x0:0xe26093e3174c22dd,
mall,Pusat Perbelanjaan,Mega Trade Centre Megamas,"Kawasan Megamas, Jl. Piere Tendean, Titiwungan Utara, Kec. Sario, Kota Manado, Sulawesi Utara 95113","Jl. Piere Tendean, Titiwungan Utara, Kec. Sario, Kota Manado",SULAWESI UTARA,95113.0,Indonesia,04318819368,,,14.800.651,1.248.344.294,https://maps.google.com/?cid=0x0:0xffcd124469c9e8c1,
mall,Pusat Perbelanjaan,Kawasan Megamas Manado,"Kawasan Megamas, Jl. Piere Tendean No.1 Blok 2B2, Kota Manado, Sulawesi Utara 95111","Jl. Piere Tendean No.1 Blok 2B2, Kota Manado",SULAWESI UTARA,95111.0,Indonesia,04318881888,,,14.852.638,1.248.308.189,https://maps.google.com/?cid=0x0:0x670cdd279400252f,
mall,Pusat Perbelanjaan,KIOS APOY,"FXJH+65M, Matungkas, Kec. Dimembe, Kabupaten Minahasa Utara, Sulawesi Utara","Kabupaten Minahasa Utara, Sulawesi Utara",SULAWESI UTARA,,Indonesia,085757598163,,,14.805.886,1.249.779.099,https://maps.google.com/?cid=0x0:0x8de151dc9742aff3,
mall,Kios,KIOS ROONEY,"Jaga XI, Matungkas, Kec. Dimembe, Kabupaten Minahasa Utara, Sulawesi Utara","Kabupaten Minahasa Utara, Sulawesi Utara",SULAWESI UTARA,,Indonesia,081523803683,,,14.669.116,1.249.702.179,https://maps.google.com/?cid=0x0:0xf8fe85640832e092,
mall,mall,Kec. Dimembe,"Kabupaten Minahasa Utara, Sulawesi Utara","Kabupaten Minahasa Utara, Sulawesi Utara",SULAWESI UTARA,,Indonesia,,,,1.528.553,1.249.927.382,https://maps.google.com/?cid=0x0:0x3bd2dc6d44a266a9,
mall,Pusat Perbelanjaan,JESSICA COLLECTION,"greenville villa, Blk. D3 No.5, Matungkas, Dimembe, North Minahasa Regency, North Sulawesi","Kabupaten Minahasa Utara, Sulawesi Utara",SULAWESI UTARA,,Indonesia,089691995236,,,14.740.749,1.249.653.913,https://maps.google.com/?cid=0x0:0x4f05f65d704d9e7d,
mall,Toko Pakaian,Kios RAVA,"Jl. Sukur - Likupang, Dimembe, Kec. Dimembe, Kabupaten Minahasa Utara, Sulawesi Utara","Kabupaten Minahasa Utara, Sulawesi Utara",SULAWESI UTARA,,Indonesia,08990302305,,,1.495.871,1.249.783.257,https://maps.google.com/?cid=0x0:0x7b6de473dadc4cb6,
mall,Toko,Vhelery M S,"Jl. Seruni No.91, Matungkas, Kec. Dimembe, Kabupaten Minahasa Utara, Sulawesi Utara","Kabupaten Minahasa Utara, Sulawesi Utara",SULAWESI UTARA,,Indonesia,085298137865,,,14.769.899,1.249.624.762,https://maps.google.com/?cid=0x0:0x872eccfb3bff1b55,
mall,Komplek perumahan,Matungkas,"FXFF+9GC, Matungkas, Kec. Dimembe, Kabupaten Minahasa Utara, Sulawesi Utara","Kabupaten Minahasa Utara, Sulawesi Utara",SULAWESI UTARA,,Indonesia,08884707835,,,14.734.355,1.249.737.619,https://maps.google.com/?cid=0x0:0xb1c5467909f891f0,
mall,Kios,Warung Gift,"G325+63G, Jl. Raya Klabat, Klabat, Kec. Dimembe, Kabupaten Minahasa Utara, Sulawesi Utara","Kabupaten Minahasa Utara, Sulawesi Utara",SULAWESI UTARA,,Indonesia,081288654665,,,1.500.555,1.250.576.988,https://maps.google.com/?cid=0x0:0x18ecaedd0c1b1f9f,
mall,Komplek perumahan,Ud.Meras Indah,"Tetey, Kec. Dimembe, Kabupaten Minahasa Utara, Sulawesi Utara","Kabupaten Minahasa Utara, Sulawesi Utara",SULAWESI UTARA,,Indonesia,082291466622,,,1.507.809,124.981.444,https://maps.google.com/?cid=0x0:0x80458923008f9690,
mall,Toko bahan makanan,Citra Usaha Toko,"GXMR+4VR, Tatelu Rondor, Kec. Dimembe, Kabupaten Minahasa Utara, Sulawesi Utara","Kabupaten Minahasa Utara, Sulawesi Utara",SULAWESI UTARA,,Indonesia,,,,15.328.593,1.249.921.294,https://maps.google.com/?cid=0x0:0x874948a760f1ea,
mall,Toko Pakaian,Glory  Jen Gallery,"FXQG+52G, Laikit, Kec. Dimembe, Kabupaten Minahasa Utara, Sulawesi Utara","Kabupaten Minahasa Utara, Sulawesi Utara",SULAWESI UTARA,,Indonesia,085399986316,,,14.879.287,1.249.750.672,https://maps.google.com/?cid=0x0:0x80a47ebb33f127a2,
mall,Pusat Perbelanjaan,Depot MARON(warukapas),"GX6P+RQJ, Warukapas, Kec. Dimembe, Kabupaten Minahasa Utara, Sulawesi Utara","Kabupaten Minahasa Utara, Sulawesi Utara",SULAWESI UTARA,,Indonesia,085255574908,,,15.120.926,1.249.868.812,https://maps.google.com/?cid=0x0:0x43e88f045e2e316e,
mall,Pusat Perbelanjaan,TB DIARETA,"Toko Bangunan CV DIARETA, Warukapas, Kec. Dimembe, Kabupaten Minahasa Utara, Sulawesi Utara 95370","Warukapas, Kec. Dimembe, Kabupaten Minahasa Utara",SULAWESI UTARA,95370.0,Indonesia,,,,15.243.457,1.249.896.893,https://maps.google.com/?cid=0x0:0x59ed798b436f2eb6,
mall,Pembangunan Perumahan,Beben Home (Perum Giovanni Mas Blok B21),"Matungkas, Kec. Dimembe, Kabupaten Minahasa Utara, Sulawesi Utara","Kabupaten Minahasa Utara, Sulawesi Utara",SULAWESI UTARA,,Indonesia,08973689667,,,14.716.624,1.249.856.394,https://maps.google.com/?cid=0x0:0x40c57cb5170d3f02,
mall,mall,Kec. Kauditan,"Kabupaten Minahasa Utara, Sulawesi Utara","Kabupaten Minahasa Utara, Sulawesi Utara",SULAWESI UTARA,,Indonesia,,,,13.931.442,125.042.732,https://maps.google.com/?cid=0x0:0x2d255a96bf594260,
mall,Pusat Perbelanjaan,Tumaluntung Square Mall,"CX7V+FCC, Airmadidi Atas, Kec. Airmadidi, Kabupaten Minahasa Utara, Sulawesi Utara","Kabupaten Minahasa Utara, Sulawesi Utara",SULAWESI UTARA,,Indonesia,,,,14.136.942,1.249.935.273,https://maps.google.com/?cid=0x0:0x4fba53d66448aaf5,
mall,Toko umum,ANUGRAH,"C395+564, Kauditan II, Kec. Kauditan, Kabupaten Minahasa Utara, Sulawesi Utara","Kabupaten Minahasa Utara, Sulawesi Utara",SULAWESI UTARA,,Indonesia,,,,14.178.919,1.250.580.878,https://maps.google.com/?cid=0x0:0x153fd055888209f3,
mall,Kafe,Depot Selera,"C272+X82, Unnamed Road, Tumaluntung, Kec. Kauditan, Kabupaten Minahasa Utara, Sulawesi Utara","Kabupaten Minahasa Utara, Sulawesi Utara",SULAWESI UTARA,,Indonesia,085397066067,,,14.148.876,1.250.007.687,https://maps.google.com/?cid=0x0:0xbe6b16372ea20128,
mall,Komplek perumahan,Dendeng pasulatan,"92RG+RQF, Kaima, Kec. Kauditan, Kabupaten Minahasa Utara, Sulawesi Utara","Kabupaten Minahasa Utara, Sulawesi Utara",SULAWESI UTARA,,Indonesia,082343852755,,,13.920.736,1.250.269.167,https://maps.google.com/?cid=0x0:0x43186ccf74d58cd9,
mall,Toko Suvenir,Michelle Lucia House,"CX4M+CP8, Tumaluntung, Kec. Kauditan, Kabupaten Minahasa Utara, Sulawesi Utara","Kabupaten Minahasa Utara, Sulawesi Utara",SULAWESI UTARA,,Indonesia,,,,14.060.462,1.249.843.419,https://maps.google.com/?cid=0x0:0xce35d5233e78e89c,
mall,Toko bahan makanan,SCOUT CELL,"92RR+XM4, Kawiley, Kec. Kauditan, Kabupaten Minahasa Utara, Sulawesi Utara","Kabupaten Minahasa Utara, Sulawesi Utara",SULAWESI UTARA,,Indonesia,082187295724,,,13.923.913,125.041.712,https://maps.google.com/?cid=0x0:0xc977508c8bbd848b,
mall,Toko Kesehatan dan Kecantikan,Vike-ASC KK INDONESIA-KAUDITAN,"92RQ+8M5, Jl. Isak Pangemanan, Kawiley, Kec. Kauditan, Kabupaten Minahasa Utara, Sulawesi Utara","Kabupaten Minahasa Utara, Sulawesi Utara",SULAWESI UTARA,,Indonesia,081243500445,,,13.907.719,1.250.392.271,https://maps.google.com/?cid=0x0:0xfba0d64334124f46,
mall,Minimarket,Warung Tante Dum,"92RG+C8M, Kaima, Kec. Kauditan, Kabupaten Minahasa Utara, Sulawesi Utara","Kabupaten Minahasa Utara, Sulawesi Utara",SULAWESI UTARA,,Indonesia,082195355871,,,13.910.785,1.250.257.817,https://maps.google.com/?cid=0x0:0x667d709ee8312d1f,
mall,Gudang,BPT PT. Megahmitra Sarana Energi,"Jl. Raya Manado - Bitung No.28, Karegesan, Kec. Kauditan, Kabupaten Minahasa Utara, Sulawesi Utara","Kabupaten Minahasa Utara, Sulawesi Utara",SULAWESI UTARA,,Indonesia,,,,13.995.907,1.250.230.976,https://maps.google.com/?cid=0x0:0x8e13e63e24bd3afd,
mall,Grosir,Imanuel Travel,"CXGH+XQG Oke Google Terminal, Sarongsong I, Kec. Airmadidi, Kabupaten Minahasa Utara, Sulawesi Utara","Kabupaten Minahasa Utara, Sulawesi Utara",SULAWESI UTARA,,Indonesia,085340297875,,,14.274.299,1.249.794.529,https://maps.google.com/?cid=0x0:0x8499ffd3d4f18a9e,
mall,Toko Pakaian,Triexy collex,"Karegesan, Kec. Kauditan, Kabupaten Minahasa Utara, Sulawesi Utara 95372","Kec. Kauditan, Kabupaten Minahasa Utara",SULAWESI UTARA,95372.0,Indonesia,089660977253,,,13.972.367,1.250.217.129,https://maps.google.com/?cid=0x0:0x933a8aeee0e22dd5,
mall,Toko,Hely Sampe,"CX4V+5W2, Tumaluntung, Kec. Kauditan, Kabupaten Minahasa Utara, Sulawesi Utara","Kabupaten Minahasa Utara, Sulawesi Utara",SULAWESI UTARA,,Indonesia,082190200150,,,14.053.758,1.249.947.773,https://maps.google.com/?cid=0x0:0x6f02a334042f8e8,
mall,Pusat Perbelanjaan,Kinanti Chandra,"CXHM+542, Unnamed Road, Airmadidi Atas, Kec. Airmadidi, Kabupaten Minahasa Utara, Sulawesi Utara","Kabupaten Minahasa Utara, Sulawesi Utara",SULAWESI UTARA,,Indonesia,,,,1.427.883,1.249.827.556,https://maps.google.com/?cid=0x0:0xfc30066fa08f9a1b,
mall,mall,HVT Pig farm,"CXF9+52M, Rap-Rap, Kec. Airmadidi, Kabupaten Minahasa Utara, Sulawesi Utara","Kabupaten Minahasa Utara, Sulawesi Utara",SULAWESI UTARA,,Indonesia,,,,14.229.517,1.249.675.348,https://maps.google.com/?cid=0x0:0xd380b3fda188fc59,
mall,Minimarket,Toko MSI,"93Q5+HMF, tontalete, jaga7, Kec. Kema, Kabupaten Minahasa Utara, Sulawesi Utara","Kabupaten Minahasa Utara, Sulawesi Utara",SULAWESI UTARA,,Indonesia,085345194563,,,1.388.943,1.250.591.754,https://maps.google.com/?cid=0x0:0xb2518110ee4a456e,
mall,Toko bahan makanan,Indomaret Kauditan 1,"92VV+767, Kawiley, Kec. Kauditan, Kabupaten Minahasa Utara, Sulawesi Utara","Kabupaten Minahasa Utara, Sulawesi Utara",SULAWESI UTARA,,Indonesia,,,,13.931.667,1.250.430.598,https://maps.google.com/?cid=0x0:0xf2cd37d04b5fbe9d,
mall,Toko Makanan,Warung Oma raffa,"92RG+82Q, Kaima, Kec. Kauditan, Kabupaten Minahasa Utara, Sulawesi Utara","Kabupaten Minahasa Utara, Sulawesi Utara",SULAWESI UTARA,,Indonesia,,,,13.908.318,1.250.250.977,https://maps.google.com/?cid=0x0:0x336c8a95fe0b97ad,
mall,Kantor Perusahaan,Naomi aluminium,"Jl. Raya Manado - Bitung jaga Ix, Kauditan II, Kec. Kauditan, Kabupaten Minahasa Utara, Sulawesi Utara 95372","Kauditan II, Kec. Kauditan, Kabupaten Minahasa Utara",SULAWESI UTARA,95372.0,Indonesia,085298510300,,,13.985.656,1.250.539.904,https://maps.google.com/?cid=0x0:0x171d80effd90aa85,
mall,Toko Perlengkapan Rumah,Kios Orin,"92X7+9V2, Kaasar, Kec. Kauditan, Kabupaten Minahasa Utara, Sulawesi Utara","Kabupaten Minahasa Utara, Sulawesi Utara",SULAWESI UTARA,,Indonesia,,,,13.983.794,1.250.146.471,https://maps.google.com/?cid=0x0:0xa4f8774a5c3ad088,
mall,Rumah Kaca,Reyke Nursery,"CX4R+8P4, Tumaluntung, Kec. Kauditan, Kabupaten Minahasa Utara, Sulawesi Utara","Kabupaten Minahasa Utara, Sulawesi Utara",SULAWESI UTARA,,Indonesia,085241716788,,,14.057.653,124.991.819,https://maps.google.com/?cid=0x0:0x289b75480af3b3b8,
mall,Toko Kosmetik,Scarlett Whitening Minut,"93P5+RX4, Tontalete, Kec. Kema, Kabupaten Minahasa Utara, Sulawesi Utara","Kabupaten Minahasa Utara, Sulawesi Utara",SULAWESI UTARA,,Indonesia,081243438017,,,13.870.018,1.250.599.419,https://maps.google.com/?cid=0x0:0xa6b5e59101bc6b9,
mall,Minimarket,Alfamart Kauditan I,"92VW+78P, Jl. Raya Manado - Bitung, Kauditan I, Kec. Kauditan, Kabupaten Minahasa Utara, Sulawesi Utara 95372","Jl. Raya Manado - Bitung, Kauditan I, Kec. Kauditan, Kabupaten Minahasa Utara",SULAWESI UTARA,95372.0,Indonesia,1500959,,,13.955.427,1.250.463.777,https://maps.google.com/?cid=0x0:0xcd7de1e4f3170d21,
mall,Toko Swalayan,langganan ATK,"92VV+RGM, Jl. Raya Manado - Bitung, Kauditan I, Kec. Kauditan, Kota Bitung, Sulawesi Utara","Kota Bitung, Sulawesi Utara",SULAWESI UTARA,,Indonesia,,,,13.945.932,1.250.437.941,https://maps.google.com/?cid=0x0:0x2bc0a82503148f94,
mall,mall,Kec. Kema,"Kabupaten Minahasa Utara, Sulawesi Utara","Kabupaten Minahasa Utara, Sulawesi Utara",SULAWESI UTARA,,Indonesia,,,,13.717.732,1.250.714.941,https://maps.google.com/?cid=0x0:0x9d12383cee2836a3,
mall,Minimarket,Toko MSI,"93Q5+HMF, tontalete, jaga7, Kec. Kema, Kabupaten Minahasa Utara, Sulawesi Utara","Kabupaten Minahasa Utara, Sulawesi Utara",SULAWESI UTARA,,Indonesia,085345194563,,,1.388.943,1.250.591.754,https://maps.google.com/?cid=0x0:0xb2518110ee4a456e,
mall,Rumah singgah,Rahmat Aqiqah Kema,"Jaga 12, di belakang SMA Alkhairaat, Kema Tiga, Kec. Kema, Kabupaten Minahasa Utara, Sulawesi Utara 95379","di belakang SMA Alkhairaat, Kema Tiga, Kec. Kema, Kabupaten Minahasa Utara",SULAWESI UTARA,95379.0,Indonesia,085256638428,,,13.617.164,1.250.727.103,https://maps.google.com/?cid=0x0:0x91def3c6dcaa90b1,
mall,Toko umum,Ci chella,"93FC+X8W, Kema Satu, Kec. Kema, Kabupaten Minahasa Utara, Sulawesi Utara","Kabupaten Minahasa Utara, Sulawesi Utara",SULAWESI UTARA,,Indonesia,0882021140711,,,13.749.769,1.250.708.397,https://maps.google.com/?cid=0x0:0xae13addd1ac056cb,
mall,Toko Kosmetik,Scarlett Whitening Minut,"93P5+RX4, Tontalete, Kec. Kema, Kabupaten Minahasa Utara, Sulawesi Utara","Kabupaten Minahasa Utara, Sulawesi Utara",SULAWESI UTARA,,Indonesia,081243438017,,,13.870.018,1.250.599.419,https://maps.google.com/?cid=0x0:0xa6b5e59101bc6b9,
mall,Sekolah,Tk. Mutiara Kema,"Kema - Makalisung, Kema Tiga, Kec. Kema, Kabupaten Minahasa Utara, Sulawesi Utara","Kabupaten Minahasa Utara, Sulawesi Utara",SULAWESI UTARA,,Indonesia,082196636755,,,13.621.971,1.250.702.013,https://maps.google.com/?cid=0x0:0xb8cd17b32699fe7d,
mall,Kedai Kopi,Warong Twins,"93FC+242, Kema Satu, Kec. Kema, Kabupaten Minahasa Utara, Sulawesi Utara","Kabupaten Minahasa Utara, Sulawesi Utara",SULAWESI UTARA,,Indonesia,081354535125,,,13.725.203,1.250.702.546,https://maps.google.com/?cid=0x0:0xdfc9eb3d88233b8f,
mall,Toko,RIVANA BAWOLE,KEMA 3 JAGA 13 JLN KEMA-LANGSOT,"Kabupaten Minahasa Utara, Sulawesi Utara",SULAWESI UTARA,,Indonesia,,,,13.898.883,1.250.613.871,https://maps.google.com/?cid=0x0:0x3bc8b2170984bcdd,
mall,Toko Perlengkapan Rumah,Tb El Jaya,"jl.trans Jl. Raya Manado - Bitung No.99, Kauditan II, Kec. Airmadidi, Kabupaten Minahasa Utara, Sulawesi Utara","Kabupaten Minahasa Utara, Sulawesi Utara",SULAWESI UTARA,,Indonesia,085240669235,,,13.974.047,1.250.512.824,https://maps.google.com/?cid=0x0:0xee0a9317a6c72e59,
mall,Pusat Perbelanjaan,RAMLIA AGEN MS GLOW MINUT,"93Q5+CX4, Tontalete, Kec. Kema, Kabupaten Minahasa Utara, Sulawesi Utara","Kabupaten Minahasa Utara, Sulawesi Utara",SULAWESI UTARA,,Indonesia,082293463607,,,13.885.245,1.250.599.584,https://maps.google.com/?cid=0x0:0x740f12aa14a37832,
mall,Toko Kesehatan dan Kecantikan,Vike-ASC KK INDONESIA-KAUDITAN,"92RQ+8M5, Jl. Isak Pangemanan, Kawiley, Kec. Kauditan, Kabupaten Minahasa Utara, Sulawesi Utara","Kabupaten Minahasa Utara, Sulawesi Utara",SULAWESI UTARA,,Indonesia,081243500445,,,13.907.719,1.250.392.271,https://maps.google.com/?cid=0x0:0xfba0d64334124f46,
mall,Toko bahan makanan,SCOUT CELL,"92RR+XM4, Kawiley, Kec. Kauditan, Kabupaten Minahasa Utara, Sulawesi Utara","Kabupaten Minahasa Utara, Sulawesi Utara",SULAWESI UTARA,,Indonesia,082187295724,,,13.923.913,125.041.712,https://maps.google.com/?cid=0x0:0xc977508c8bbd848b,
mall,Pusat Perbelanjaan,Manado Town Square,"Jl. Piere Tendean, Kota Manado, Sulawesi Utara 95114",Kota Manado,SULAWESI UTARA,95114.0,Indonesia,,,,14.723.227,1.248.319.485,https://maps.google.com/?cid=0x0:0xea03227619d4f862,
mall,Komplek perumahan,Dendeng pasulatan,"92RG+RQF, Kaima, Kec. Kauditan, Kabupaten Minahasa Utara, Sulawesi Utara","Kabupaten Minahasa Utara, Sulawesi Utara",SULAWESI UTARA,,Indonesia,082343852755,,,13.920.736,1.250.269.167,https://maps.google.com/?cid=0x0:0x43186ccf74d58cd9,
mall,Pasar,PASAR RAKYAT KAUDITAN,"92WW+GR4, Jl. Raya Manado - Bitung, Belakang Terminal, Kec. Kauditan, Kabupaten Minahasa Utara, Sulawesi Utara","Kabupaten Minahasa Utara, Sulawesi Utara",SULAWESI UTARA,,Indonesia,,,,13.962.654,1.250.470.633,https://maps.google.com/?cid=0x0:0xa519fabd7d826496,
mall,Toko umum,ANUGRAH,"C395+564, Kauditan II, Kec. Kauditan, Kabupaten Minahasa Utara, Sulawesi Utara","Kabupaten Minahasa Utara, Sulawesi Utara",SULAWESI UTARA,,Indonesia,,,,14.178.919,1.250.580.878,https://maps.google.com/?cid=0x0:0x153fd055888209f3,
mall,Pengembang Realestat,Grand Kawanua City Walk,"Grand Kawanua International City Blok C No. 23, Jalan A.A. Maramis, Paniki Bawah, Mapanget, Paniki Bawah, Kec. Mapanget, Kota Manado, Sulawesi Utara 95254","Jalan A.A. Maramis, Paniki Bawah, Mapanget, Paniki Bawah, Kec. Mapanget, Kota Manado",SULAWESI UTARA,95254.0,Indonesia,0431818919,,,15.040.583,1.249.004.702,https://maps.google.com/?cid=0x0:0x2258ad1a1764290e,
mall,Pembangunan Perumahan,Bahu Mall,"FR6G+W4J, Bahu Mall, R.W., Jl. Wolter Monginsidi, Bahu, Malalayang, Manado City, North Sulawesi","Kota Manado, Sulawesi Utara",SULAWESI UTARA,,Indonesia,1500125,,,14.623.338,1.248.252.763,https://maps.google.com/?cid=0x0:0x75b15af9becce842,
mall,Minimarket,Warung Tante Dum,"92RG+C8M, Kaima, Kec. Kauditan, Kabupaten Minahasa Utara, Sulawesi Utara","Kabupaten Minahasa Utara, Sulawesi Utara",SULAWESI UTARA,,Indonesia,082195355871,,,13.910.785,1.250.257.817,https://maps.google.com/?cid=0x0:0x667d709ee8312d1f,
mall,Kantor Perusahaan,Naomi aluminium,"Jl. Raya Manado - Bitung jaga Ix, Kauditan II, Kec. Kauditan, Kabupaten Minahasa Utara, Sulawesi Utara 95372","Kauditan II, Kec. Kauditan, Kabupaten Minahasa Utara",SULAWESI UTARA,95372.0,Indonesia,085298510300,,,13.985.656,1.250.539.904,https://maps.google.com/?cid=0x0:0x171d80effd90aa85,
mall,Pusat Perbelanjaan,Megamall Manado,"Kawasan Megamas, Kantor Pengelola Megamall, Jl. Piere Tendean, Wenang Sel., Kec. Wenang, Kota Manado, Sulawesi Utara 95234","Kantor Pengelola Megamall, Jl. Piere Tendean, Wenang Sel., Kec. Wenang, Kota Manado",SULAWESI UTARA,95234.0,Indonesia,0431879889,,,14.839.687,1.248.348.372,https://maps.google.com/?cid=0x0:0xfcc9b9fa2283700,
mall,Toko Swalayan,langganan ATK,"92VV+RGM, Jl. Raya Manado - Bitung, Kauditan I, Kec. Kauditan, Kota Bitung, Sulawesi Utara","Kota Bitung, Sulawesi Utara",SULAWESI UTARA,,Indonesia,,,,13.945.932,1.250.437.941,https://maps.google.com/?cid=0x0:0x2bc0a82503148f94,
mall,Pusat Perbelanjaan,Kuningan Citymall,"Jl. Prof. DR. Satrio No.Kav. 18, Kuningan, Karet Kuningan, Kecamatan Setiabudi, Kota Jakarta Selatan, Daerah Khusus Ibukota Jakarta 12940","Kuningan, Karet Kuningan, Kecamatan Setiabudi, Kota Jakarta Selatan",SULAWESI UTARA,12940.0,Indonesia,02157905555,,,-62.250.136,106.829.553,https://maps.google.com/?cid=0x0:0x420d8f1dfd4d9452,
mall,Pusat Perbelanjaan,Mall Kota Kasablanka,"Jl. Raya Casablanca No.Kav 88, Menteng Dalam, Kec. Tebet, Kota Jakarta Selatan, Daerah Khusus Ibukota Jakarta 12870","Menteng Dalam, Kec. Tebet, Kota Jakarta Selatan",SULAWESI UTARA,12870.0,Indonesia,02129465000,,,-62.240.353,1.068.425.979,https://maps.google.com/?cid=0x0:0xaf54cb631563acce,
mall,Pusat Perbelanjaan,ITC Kuningan,"Jl. Prof. DR. Satrio No.18, RT.11/RW.4, Kuningan, Kecamatan Setiabudi, Kota Jakarta Selatan, Daerah Khusus Ibukota Jakarta 12940","RT.11/RW.4, Kuningan, Kecamatan Setiabudi, Kota Jakarta Selatan",SULAWESI UTARA,12940.0,Indonesia,02157933888,,,-62.237.137,1.068.258.572,https://maps.google.com/?cid=0x0:0x1c82784a92dd79ba,
mall,Pusat Perbelanjaan,Lotte Shopping Avenue Mall,"Jl. Prof. DR. Satrio No.Kav.3, RW.5, Kuningan, Karet Kuningan, Kecamatan Setiabudi, Kota Jakarta Selatan, Daerah Khusus Ibukota Jakarta 12940","RW.5, Kuningan, Karet Kuningan, Kecamatan Setiabudi, Kota Jakarta Selatan",SULAWESI UTARA,12940.0,Indonesia,02129889292,,,-62.233.644,1.068.232.981,https://maps.google.com/?cid=0x0:0xe8323175da8b9770,
mall,Toko Roti,Breadlife Kuningan City,"Kuningan City Lantai LG 122, Jalan Prof. DR. Satrio Kav. 18, Kuningan, Setiabudi, RT.14/RW.4, Kuningan, Karet Kuningan, Kecamatan Setiabudi, Kota Jakarta Selatan, Daerah Khusus Ibukota Jakarta 12940","Jalan Prof. DR. Satrio Kav. 18, Kuningan, Setiabudi, RT.14/RW.4, Kuningan, Karet Kuningan, Kecamatan Setiabudi, Kota Jakarta Selatan",SULAWESI UTARA,12940.0,Indonesia,02130480737,,,-62.245.082,1.068.293.899,https://maps.google.com/?cid=0x0:0x8ab4ab287c189270,
mall,Indonesia,PorkVille Kuningan City,"Jl. Prof. DR. Satrio No.Kav. 18, Kuningan, Karet Kuningan, Kecamatan Setiabudi, Kota Jakarta Selatan, Daerah Khusus Ibukota Jakarta 12940","Kuningan, Karet Kuningan, Kecamatan Setiabudi, Kota Jakarta Selatan",SULAWESI UTARA,12940.0,Indonesia,08161181111,,,-62.246.343,1.068.297.437,https://maps.google.com/?cid=0x0:0x38edf7dd14ab8007,
mall,mall,Kec. Likupang Bar.,"Kabupaten Minahasa Utara, Sulawesi Utara","Kabupaten Minahasa Utara, Sulawesi Utara",SULAWESI UTARA,,Indonesia,,,,1.692.583,1.250.117.119,https://maps.google.com/?cid=0x0:0x4ad9ed2bf8ddc336,
mall,Pasar,PASAR LIKUPANG,"M3F6+G76, Likupang II, Kec. Likupang Tim., Kabupaten Minahasa Utara, Sulawesi Utara","Kabupaten Minahasa Utara, Sulawesi Utara",SULAWESI UTARA,,Indonesia,,,,16.737.788,1.250.606.445,https://maps.google.com/?cid=0x0:0x325dc11a1bb50138,
mall,Pusat Perbelanjaan,Special Zone Of Likupang,"M3C6+657, Perempatan, Likupang II, Likupang Timur, North Minahasa Regency, North Sulawesi","Kabupaten Minahasa Utara, Sulawesi Utara",SULAWESI UTARA,,Indonesia,,,,16.705.336,1.250.604.365,https://maps.google.com/?cid=0x0:0x11768a6114b31133,
mall,Toko,ANUGERAHkios,"PX8H+2JR, Tanah Putih, Kec. Likupang Bar., Kabupaten Minahasa Utara, Sulawesi Utara","Kabupaten Minahasa Utara, Sulawesi Utara",SULAWESI UTARA,,Indonesia,,,,17.151.185,1.249.790.037,https://maps.google.com/?cid=0x0:0xa3aeb18444e2d21b,
mall,Terminal Feri,Terminal Likupang,"M3C6+P38, Likupang II, Kec. Likupang Bar., Kabupaten Minahasa Utara, Sulawesi Utara","Kabupaten Minahasa Utara, Sulawesi Utara",SULAWESI UTARA,,Indonesia,,,,16.717.945,1.250.602.091,https://maps.google.com/?cid=0x0:0x64b6b5202ccaf377,
mall,Toko Bahan Bangunan,Toko SDT Tanah putih,"PX8H+8XJ, Tanah Putih, Kec. Likupang Bar., Kabupaten Minahasa Utara, Sulawesi Utara","Kabupaten Minahasa Utara, Sulawesi Utara",SULAWESI UTARA,,Indonesia,,,,17.158.179,1.249.799.621,https://maps.google.com/?cid=0x0:0xd48eabd95b5536da,
mall,Pasar,Kios Sairaf,"P256+QF, Mubune, Kec. Likupang Bar., Kabupaten Minahasa Utara, Sulawesi Utara","Kabupaten Minahasa Utara, Sulawesi Utara",SULAWESI UTARA,,Indonesia,085343513770,,,17.093.858,1.250.111.184,https://maps.google.com/?cid=0x0:0xc24c8bfe0f7f4693,
mall,Minimarket,Alfamidi Likupang Dua,"M3C6+P9C, Unnamed Road, Likupang II, Kec. Likupang Tim., Kabupaten Minahasa Utara, Sulawesi Utara","Kabupaten Minahasa Utara, Sulawesi Utara",SULAWESI UTARA,,Indonesia,,,,16.718.223,1.250.608.784,https://maps.google.com/?cid=0x0:0xbc9cb17d9604588a,
mall,Toko bahan makanan,Warong ta'yeni,"J27H+C44, Kokoleh Dua, Kec. Likupang Sel., Kabupaten Minahasa Utara, Sulawesi Utara","Kabupaten Minahasa Utara, Sulawesi Utara",SULAWESI UTARA,,Indonesia,,,,16.135.065,1.250.278.163,https://maps.google.com/?cid=0x0:0x47082bd626787259,
mall,Pusat Perbelanjaan,Bok GOROPA,"M366+2QW, Likupang I, Kec. Likupang Tim., Kabupaten Minahasa Utara, Sulawesi Utara","Kabupaten Minahasa Utara, Sulawesi Utara",SULAWESI UTARA,,Indonesia,085756546155,,,16.601.137,1.250.619.613,https://maps.google.com/?cid=0x0:0x99a9c1b2cdb75e31,
mall,Pusat Perbelanjaan,Lippo Plaza Manado,"Jl. A.A. Maramis, Kairagi Dua, Kec. Mapanget, Kota Manado, Sulawesi Utara","Kota Manado, Sulawesi Utara",SULAWESI UTARA,,Indonesia,04317210014,,,15.010.104,124.891.802,https://maps.google.com/?cid=0x0:0x821ac8faa8ec92f,
mall,mall,La Merry Resort,"QX2V+45P, Tarabitan, Kec. Likupang Bar., Kabupaten Minahasa Utara, Sulawesi Utara","Kabupaten Minahasa Utara, Sulawesi Utara",SULAWESI UTARA,,Indonesia,081340419234,,,17.503.278,1.249.929.679,https://maps.google.com/?cid=0x0:0x1b3e37cc6b5c249e,
mall,mall,Urbanest Inn Castle Resort,"PXXW+8VW, Tarabitan, Kec. Likupang Bar., Kabupaten Minahasa Utara, Sulawesi Utara","Kabupaten Minahasa Utara, Sulawesi Utara",SULAWESI UTARA,,Indonesia,,,,17.483.732,1.249.972.093,https://maps.google.com/?cid=0x0:0x8bbd3584e4b0652e,
mall,mall,Gangga Island Resort  Spa,"Pulau Gangga, Gangga Satu, Likupang Barat, North Minahasa Regency, North Sulawesi 95375","Gangga Satu, Likupang Barat, North Minahasa Regency",SULAWESI UTARA,95375.0,Indonesia,085738508344,,,17.600.066,1.250.508.721,https://maps.google.com/?cid=0x0:0x2ec8e12ca4532894,
mall,mall,Lihaga Beach Club,"Q26P+JPM, Gangga Satu, Kec. Likupang Bar., Kabupaten Minahasa Utara, Sulawesi Utara","Kabupaten Minahasa Utara, Sulawesi Utara",SULAWESI UTARA,,Indonesia,081355603033,,,1.761.577,1.250.367.868,https://maps.google.com/?cid=0x0:0x1716d22e20a3b3f7,
mall,mall,Kinaari Resort,"PXXQ+QWF, Tarabitan, Kec. Likupang Bar., Kabupaten Minahasa Utara, Sulawesi Utara","Kabupaten Minahasa Utara, Sulawesi Utara",SULAWESI UTARA,,Indonesia,085340238807,,,17.494.444,1.249.898,https://maps.google.com/?cid=0x0:0x78df03636e727e38,
mall,Toko,Toko Amel,"M3C4+R47, Likupang II, Kec. Likupang Tim., Kabupaten Minahasa Utara, Sulawesi Utara","Kabupaten Minahasa Utara, Sulawesi Utara",SULAWESI UTARA,,Indonesia,081543288599,,,1.672.033,125.055.298,https://maps.google.com/?cid=0x0:0x6cab9ef9530751f,
mall,mall,Batu,"Kec. Likupang Sel., Kabupaten Minahasa Utara, Sulawesi Utara","Kabupaten Minahasa Utara, Sulawesi Utara",SULAWESI UTARA,,Indonesia,,,,16.486.439,1.250.112.782,https://maps.google.com/?cid=0x0:0xca5749fd8c36a0e9,
mall,Toko,KONTER Indhy Cell,"M3G3+PHW, Likupang II, Kec. Likupang Tim., Kabupaten Minahasa Utara, Sulawesi Utara","Kabupaten Minahasa Utara, Sulawesi Utara",SULAWESI UTARA,,Indonesia,081243431798,,,16.768.667,1.250.539.586,https://maps.google.com/?cid=0x0:0xc111bb41c2b9df23,
mall,Toko,Kios Michelle,"MX93+XX2, Kulu, Wori, Kabupaten Minahasa Utara, Sulawesi Utara","Kabupaten Minahasa Utara, Sulawesi Utara",SULAWESI UTARA,,Indonesia,,,,16.698.789,1.249.548.832,https://maps.google.com/?cid=0x0:0x75d0cd1f345fd779,
mall,Toko,Kios Rendani,"Belakang Alfamnart, Likupang II Jaga 1, Likupang Timur, Likupang II, Kec. Likupang Tim., Kabupaten Minahasa Utara, Sulawesi Utara","Kabupaten Minahasa Utara, Sulawesi Utara",SULAWESI UTARA,,Indonesia,089507528870,,,16.708.409,1.250.599.288,https://maps.google.com/?cid=0x0:0x53b4264febb19e4e,
mall,mall,Home meylodi pusung,"M347+CHW, Likupang I, Kec. Likupang Tim., Kabupaten Minahasa Utara, Sulawesi Utara","Kabupaten Minahasa Utara, Sulawesi Utara",SULAWESI UTARA,,Indonesia,,,,16.561.011,1.250.639.632,https://maps.google.com/?cid=0x0:0x23519351ae40f510,
mall,Pusat Perbelanjaan,Nancy Shop,"M395+W2C, Likupang II, Kec. Likupang Tim., Kabupaten Minahasa Utara, Sulawesi Utara","Kabupaten Minahasa Utara, Sulawesi Utara",SULAWESI UTARA,,Indonesia,082197484554,,,16.698.172,1.250.575.008,https://maps.google.com/?cid=0x0:0xf5cc709278557bc7,
mall,Pusat Perbelanjaan,KIOS FINNO,"M26V+GJF, Serawet, Kec. Likupang Tim., Kabupaten Minahasa Utara, Sulawesi Utara","Kabupaten Minahasa Utara, Sulawesi Utara",SULAWESI UTARA,,Indonesia,,,,16.617.334,1.250.452.278,https://maps.google.com/?cid=0x0:0x802982ce7da54403,
mall,Pusat Perbelanjaan,Toko Ummul Khairah Bakri,"M3C4+R47, kompleks pertokoan, Likupang II, Kec. Likupang Tim., Kabupaten Minahasa Utara, Sulawesi Utara","Kabupaten Minahasa Utara, Sulawesi Utara",SULAWESI UTARA,,Indonesia,085298209997,,,1.672.033,125.055.298,https://maps.google.com/?cid=0x0:0x5e2a3197a795a993,
mall,Pusat Perbelanjaan,Kios GOROPA/TERIMA KOST,"Likupang I, Kec. Likupang Tim., Kabupaten Minahasa Utara, Sulawesi Utara","Kabupaten Minahasa Utara, Sulawesi Utara",SULAWESI UTARA,,Indonesia,081245469155,,,16.602.661,1.250.619.992,https://maps.google.com/?cid=0x0:0x30b3f8125d7d92e4,
mall,Pusat Perbelanjaan,Arvi Mart,"M3F6+7GP, Likupang II",,SULAWESI UTARA,,Indonesia,,,,16.732.225,1.250.613.171,https://maps.google.com/?cid=0x0:0x492fe598440d132d,
mall,mall,Kec. Likupang Sel.,"Kabupaten Minahasa Utara, Sulawesi Utara","Kabupaten Minahasa Utara, Sulawesi Utara",SULAWESI UTARA,,Indonesia,,,,16.154.658,1.250.277.057,https://maps.google.com/?cid=0x0:0x1c90d6707d558a25,
mall,Pasar,PASAR LIKUPANG,"M3F6+G76, Likupang II, Kec. Likupang Tim., Kabupaten Minahasa Utara, Sulawesi Utara","Kabupaten Minahasa Utara, Sulawesi Utara",SULAWESI UTARA,,Indonesia,,,,16.737.788,1.250.606.445,https://maps.google.com/?cid=0x0:0x325dc11a1bb50138,
mall,Pusat Perbelanjaan,Special Zone Of Likupang,"M3C6+657, Perempatan, Likupang II, Likupang Timur, North Minahasa Regency, North Sulawesi","Kabupaten Minahasa Utara, Sulawesi Utara",SULAWESI UTARA,,Indonesia,,,,16.705.336,1.250.604.365,https://maps.google.com/?cid=0x0:0x11768a6114b31133,
mall,Minimarket,Alfamidi Likupang Dua,"M3C6+P9C, Unnamed Road, Likupang II, Kec. Likupang Tim., Kabupaten Minahasa Utara, Sulawesi Utara","Kabupaten Minahasa Utara, Sulawesi Utara",SULAWESI UTARA,,Indonesia,,,,16.718.223,1.250.608.784,https://maps.google.com/?cid=0x0:0xbc9cb17d9604588a,
mall,Tempat pembelian tiket kereta api,Master Kios Pulsa,"H2V8+C5C, Jl. Sukur - Likupang, Wangurer, Kec. Likupang Sel., Kabupaten Minahasa Utara, Sulawesi Utara","Kabupaten Minahasa Utara, Sulawesi Utara",SULAWESI UTARA,,Indonesia,,,,1.593.561,125.015.398,https://maps.google.com/?cid=0x0:0x84a825bdab1d66cb,
mall,Toko bahan makanan,Warong ta'yeni,"J27H+C44, Kokoleh Dua, Kec. Likupang Sel., Kabupaten Minahasa Utara, Sulawesi Utara","Kabupaten Minahasa Utara, Sulawesi Utara",SULAWESI UTARA,,Indonesia,,,,16.135.065,1.250.278.163,https://maps.google.com/?cid=0x0:0x47082bd626787259,
mall,Toko,KONTER Indhy Cell,"M3G3+PHW, Likupang II, Kec. Likupang Tim., Kabupaten Minahasa Utara, Sulawesi Utara","Kabupaten Minahasa Utara, Sulawesi Utara",SULAWESI UTARA,,Indonesia,081243431798,,,16.768.667,1.250.539.586,https://maps.google.com/?cid=0x0:0xc111bb41c2b9df23,
mall,Toko,Toko Amel,"M3C4+R47, Likupang II, Kec. Likupang Tim., Kabupaten Minahasa Utara, Sulawesi Utara","Kabupaten Minahasa Utara, Sulawesi Utara",SULAWESI UTARA,,Indonesia,081543288599,,,1.672.033,125.055.298,https://maps.google.com/?cid=0x0:0x6cab9ef9530751f,
mall,mall,Batu,"Kec. Likupang Sel., Kabupaten Minahasa Utara, Sulawesi Utara","Kabupaten Minahasa Utara, Sulawesi Utara",SULAWESI UTARA,,Indonesia,,,,16.486.439,1.250.112.782,https://maps.google.com/?cid=0x0:0xca5749fd8c36a0e9,
mall,Komplek perumahan,Kioz kevin,"J2JM+3G4, Jl. Sukur - Likupang, Paslaten, Kec. Likupang Sel., Kabupaten Minahasa Utara, Sulawesi Utara","Kabupaten Minahasa Utara, Sulawesi Utara",SULAWESI UTARA,,Indonesia,,,,16.301.466,1.250.338.423,https://maps.google.com/?cid=0x0:0x4372e95accffc9a4,
mall,mall,Home meylodi pusung,"M347+CHW, Likupang I, Kec. Likupang Tim., Kabupaten Minahasa Utara, Sulawesi Utara","Kabupaten Minahasa Utara, Sulawesi Utara",SULAWESI UTARA,,Indonesia,,,,16.561.011,1.250.639.632,https://maps.google.com/?cid=0x0:0x23519351ae40f510,
mall,Pusat Perbelanjaan,Bok GOROPA,"M366+2QW, Likupang I, Kec. Likupang Tim., Kabupaten Minahasa Utara, Sulawesi Utara","Kabupaten Minahasa Utara, Sulawesi Utara",SULAWESI UTARA,,Indonesia,085756546155,,,16.601.137,1.250.619.613,https://maps.google.com/?cid=0x0:0x99a9c1b2cdb75e31,
mall,Kios,"Kios KEMBAR ALIN""""","H2M6+6JW, Jl. Sukur - Likupang, Lumpias, Kec. Dimembe, Kabupaten Minahasa Utara, Sulawesi Utara","Kabupaten Minahasa Utara, Sulawesi Utara",SULAWESI UTARA,,Indonesia,085341718078,,,15.831.206,1.250.115.769,https://maps.google.com/?cid=0x0:0xedb6fff5c464fa67,
mall,Toko,Kios Rendani,"Belakang Alfamnart, Likupang II Jaga 1, Likupang Timur, Likupang II, Kec. Likupang Tim., Kabupaten Minahasa Utara, Sulawesi Utara","Kabupaten Minahasa Utara, Sulawesi Utara",SULAWESI UTARA,,Indonesia,089507528870,,,16.708.409,1.250.599.288,https://maps.google.com/?cid=0x0:0x53b4264febb19e4e,
mall,Pusat Perbelanjaan,Arvi Mart,"M3F6+7GP, Likupang II",,SULAWESI UTARA,,Indonesia,,,,16.732.225,1.250.613.171,https://maps.google.com/?cid=0x0:0x492fe598440d132d,
mall,Pusat Perbelanjaan,Toko Ummul Khairah Bakri,"M3C4+R47, kompleks pertokoan, Likupang II, Kec. Likupang Tim., Kabupaten Minahasa Utara, Sulawesi Utara","Kabupaten Minahasa Utara, Sulawesi Utara",SULAWESI UTARA,,Indonesia,085298209997,,,1.672.033,125.055.298,https://maps.google.com/?cid=0x0:0x5e2a3197a795a993,
mall,Pusat Perbelanjaan,Nancy Shop,"M395+W2C, Likupang II, Kec. Likupang Tim., Kabupaten Minahasa Utara, Sulawesi Utara","Kabupaten Minahasa Utara, Sulawesi Utara",SULAWESI UTARA,,Indonesia,082197484554,,,16.698.172,1.250.575.008,https://maps.google.com/?cid=0x0:0xf5cc709278557bc7,
mall,Pusat Perbelanjaan,KIOS AFIRO BARITO,"Likupang 2 jaga 8, Kompleks batuwoka, dusun 8, Likupang II, Sulawesi Utara 95375","Kompleks batuwoka, dusun 8, Likupang II",SULAWESI UTARA,95375.0,Indonesia,085256566611,,,1.672.033,125.055.298,https://maps.google.com/?cid=0x0:0xcda00e343977aea,
mall,Toko bahan makanan,Kios nizham,"M3G3+PHW, Likupang II, Kec. Likupang Tim., Kabupaten Minahasa Utara, Sulawesi Utara","Kabupaten Minahasa Utara, Sulawesi Utara",SULAWESI UTARA,,Indonesia,,,,16.768.666,1.250.539.586,https://maps.google.com/?cid=0x0:0x9647dea61f2509a9,
mall,Terminal Feri,Terminal Likupang,"M3C6+P38, Likupang II, Kec. Likupang Bar., Kabupaten Minahasa Utara, Sulawesi Utara","Kabupaten Minahasa Utara, Sulawesi Utara",SULAWESI UTARA,,Indonesia,,,,16.717.945,1.250.602.091,https://maps.google.com/?cid=0x0:0x64b6b5202ccaf377,
mall,Minimarket,Toko Shine Likupang,"Likupang II, Kec. Likupang Tim., Kabupaten Minahasa Utara, Sulawesi Utara","Kabupaten Minahasa Utara, Sulawesi Utara",SULAWESI UTARA,,Indonesia,04317003033,,,16.718.258,1.250.599.058,https://maps.google.com/?cid=0x0:0x8787e69005b49ed9,
mall,mall,Kec. Likupang Tim.,"Kabupaten Minahasa Utara, Sulawesi Utara","Kabupaten Minahasa Utara, Sulawesi Utara",SULAWESI UTARA,,Indonesia,,,,16.567.027,1.251.102.134,https://maps.google.com/?cid=0x0:0xfb7b50a78e0c1b1b,
mall,Pasar,PASAR LIKUPANG,"M3F6+G76, Likupang II, Kec. Likupang Tim., Kabupaten Minahasa Utara, Sulawesi Utara","Kabupaten Minahasa Utara, Sulawesi Utara",SULAWESI UTARA,,Indonesia,,,,16.737.788,1.250.606.445,https://maps.google.com/?cid=0x0:0x325dc11a1bb50138,
mall,Pusat Perbelanjaan,Special Zone Of Likupang,"M3C6+657, Perempatan, Likupang II, Likupang Timur, North Minahasa Regency, North Sulawesi","Kabupaten Minahasa Utara, Sulawesi Utara",SULAWESI UTARA,,Indonesia,,,,16.705.336,1.250.604.365,https://maps.google.com/?cid=0x0:0x11768a6114b31133,
mall,Minimarket,Alfamidi Likupang Dua,"M3C6+P9C, Unnamed Road, Likupang II, Kec. Likupang Tim., Kabupaten Minahasa Utara, Sulawesi Utara","Kabupaten Minahasa Utara, Sulawesi Utara",SULAWESI UTARA,,Indonesia,,,,16.718.223,1.250.608.784,https://maps.google.com/?cid=0x0:0xbc9cb17d9604588a,
mall,Pusat Perbelanjaan,Bok GOROPA,"M366+2QW, Likupang I, Kec. Likupang Tim., Kabupaten Minahasa Utara, Sulawesi Utara","Kabupaten Minahasa Utara, Sulawesi Utara",SULAWESI UTARA,,Indonesia,085756546155,,,16.601.137,1.250.619.613,https://maps.google.com/?cid=0x0:0x99a9c1b2cdb75e31,
mall,Toko,Kios Rendani,"Belakang Alfamnart, Likupang II Jaga 1, Likupang Timur, Likupang II, Kec. Likupang Tim., Kabupaten Minahasa Utara, Sulawesi Utara","Kabupaten Minahasa Utara, Sulawesi Utara",SULAWESI UTARA,,Indonesia,089507528870,,,16.708.409,1.250.599.288,https://maps.google.com/?cid=0x0:0x53b4264febb19e4e,
mall,mall,Home meylodi pusung,"M347+CHW, Likupang I, Kec. Likupang Tim., Kabupaten Minahasa Utara, Sulawesi Utara","Kabupaten Minahasa Utara, Sulawesi Utara",SULAWESI UTARA,,Indonesia,,,,16.561.011,1.250.639.632,https://maps.google.com/?cid=0x0:0x23519351ae40f510,
mall,Toko,KONTER Indhy Cell,"M3G3+PHW, Likupang II, Kec. Likupang Tim., Kabupaten Minahasa Utara, Sulawesi Utara","Kabupaten Minahasa Utara, Sulawesi Utara",SULAWESI UTARA,,Indonesia,081243431798,,,16.768.667,1.250.539.586,https://maps.google.com/?cid=0x0:0xc111bb41c2b9df23,
mall,Toko bahan makanan,Warong ta'yeni,"J27H+C44, Kokoleh Dua, Kec. Likupang Sel., Kabupaten Minahasa Utara, Sulawesi Utara","Kabupaten Minahasa Utara, Sulawesi Utara",SULAWESI UTARA,,Indonesia,,,,16.135.065,1.250.278.163,https://maps.google.com/?cid=0x0:0x47082bd626787259,
mall,Toko,Toko Amel,"M3C4+R47, Likupang II, Kec. Likupang Tim., Kabupaten Minahasa Utara, Sulawesi Utara","Kabupaten Minahasa Utara, Sulawesi Utara",SULAWESI UTARA,,Indonesia,081543288599,,,1.672.033,125.055.298,https://maps.google.com/?cid=0x0:0x6cab9ef9530751f,
mall,Pusat Perbelanjaan,Nancy Shop,"M395+W2C, Likupang II, Kec. Likupang Tim., Kabupaten Minahasa Utara, Sulawesi Utara","Kabupaten Minahasa Utara, Sulawesi Utara",SULAWESI UTARA,,Indonesia,082197484554,,,16.698.172,1.250.575.008,https://maps.google.com/?cid=0x0:0xf5cc709278557bc7,
mall,Pusat Perbelanjaan,Arvi Mart,"M3F6+7GP, Likupang II",,SULAWESI UTARA,,Indonesia,,,,16.732.225,1.250.613.171,https://maps.google.com/?cid=0x0:0x492fe598440d132d,
mall,Toko Pakaian,toko,"J4R3+6PV, Winuri, Kec. Likupang Tim., Kabupaten Minahasa Utara, Sulawesi Utara","Kabupaten Minahasa Utara, Sulawesi Utara",SULAWESI UTARA,,Indonesia,,,,16.406.133,1.251.042.881,https://maps.google.com/?cid=0x0:0xf1cd10f08d90ba69,
mall,Pusat Perbelanjaan,KIOS FINNO,"M26V+GJF, Serawet, Kec. Likupang Tim., Kabupaten Minahasa Utara, Sulawesi Utara","Kabupaten Minahasa Utara, Sulawesi Utara",SULAWESI UTARA,,Indonesia,,,,16.617.334,1.250.452.278,https://maps.google.com/?cid=0x0:0x802982ce7da54403,
mall,Tempat pembelian tiket kereta api,Master Kios Pulsa,"H2V8+C5C, Jl. Sukur - Likupang, Wangurer, Kec. Likupang Sel., Kabupaten Minahasa Utara, Sulawesi Utara","Kabupaten Minahasa Utara, Sulawesi Utara",SULAWESI UTARA,,Indonesia,,,,1.593.561,125.015.398,https://maps.google.com/?cid=0x0:0x84a825bdab1d66cb,
mall,Minimarket,Alfamart Likupang Timur,"M386+83G, Likupang I, Kec. Likupang Tim., Kabupaten Minahasa Utara, Sulawesi Utara","Kabupaten Minahasa Utara, Sulawesi Utara",SULAWESI UTARA,,Indonesia,,,,1.665.807,1.250.602.102,https://maps.google.com/?cid=0x0:0x8a9515befdf2d669,
mall,Kios,"Kios KEMBAR ALIN""""","H2M6+6JW, Jl. Sukur - Likupang, Lumpias, Kec. Dimembe, Kabupaten Minahasa Utara, Sulawesi Utara","Kabupaten Minahasa Utara, Sulawesi Utara",SULAWESI UTARA,,Indonesia,085341718078,,,15.831.206,1.250.115.769,https://maps.google.com/?cid=0x0:0xedb6fff5c464fa67,
mall,Pusat Perbelanjaan,Kios GOROPA/TERIMA KOST,"Likupang I, Kec. Likupang Tim., Kabupaten Minahasa Utara, Sulawesi Utara","Kabupaten Minahasa Utara, Sulawesi Utara",SULAWESI UTARA,,Indonesia,081245469155,,,16.602.661,1.250.619.992,https://maps.google.com/?cid=0x0:0x30b3f8125d7d92e4,
mall,Toko,ANUGERAHkios,"PX8H+2JR, Tanah Putih, Kec. Likupang Bar., Kabupaten Minahasa Utara, Sulawesi Utara","Kabupaten Minahasa Utara, Sulawesi Utara",SULAWESI UTARA,,Indonesia,,,,17.151.185,1.249.790.037,https://maps.google.com/?cid=0x0:0xa3aeb18444e2d21b,
mall,Pusat Perbelanjaan,KIOS AFIRO BARITO,"Likupang 2 jaga 8, Kompleks batuwoka, dusun 8, Likupang II, Sulawesi Utara 95375","Kompleks batuwoka, dusun 8, Likupang II",SULAWESI UTARA,95375.0,Indonesia,085256566611,,,1.672.033,125.055.298,https://maps.google.com/?cid=0x0:0xcda00e343977aea,
mall,Terminal Feri,Terminal Likupang,"M3C6+P38, Likupang II, Kec. Likupang Bar., Kabupaten Minahasa Utara, Sulawesi Utara","Kabupaten Minahasa Utara, Sulawesi Utara",SULAWESI UTARA,,Indonesia,,,,16.717.945,1.250.602.091,https://maps.google.com/?cid=0x0:0x64b6b5202ccaf377,
mall,Pusat Perbelanjaan,Toko Ummul Khairah Bakri,"M3C4+R47, kompleks pertokoan, Likupang II, Kec. Likupang Tim., Kabupaten Minahasa Utara, Sulawesi Utara","Kabupaten Minahasa Utara, Sulawesi Utara",SULAWESI UTARA,,Indonesia,085298209997,,,1.672.033,125.055.298,https://maps.google.com/?cid=0x0:0x5e2a3197a795a993,
mall,Komplek perumahan,Zivara House,"M3F6+769, Unnamed Road, Likupang II, Kec. Likupang Tim., Kabupaten Minahasa Utara, Sulawesi Utara","Kabupaten Minahasa Utara, Sulawesi Utara",SULAWESI UTARA,,Indonesia,089694884332,,,16.731.729,1.250.605.953,https://maps.google.com/?cid=0x0:0xa25740c0b2b7b748,
mall,Toko bahan makanan,Kios nizham,"M3G3+PHW, Likupang II, Kec. Likupang Tim., Kabupaten Minahasa Utara, Sulawesi Utara","Kabupaten Minahasa Utara, Sulawesi Utara",SULAWESI UTARA,,Indonesia,,,,16.768.666,1.250.539.586,https://maps.google.com/?cid=0x0:0x9647dea61f2509a9,
mall,mall,Sulawesi Utara 95373,"Paniki Atas, Kec. Talawaan, Kabupaten Minahasa Utara, Sulawesi Utara","Kabupaten Minahasa Utara, Sulawesi Utara",SULAWESI UTARA,,Indonesia,,,,14.974.733,1.249.238.636,https://maps.google.com/?cid=0x0:0x3a1e3c0a99b6788f,
mall,Komplek perumahan,Aviva T Home,"FWVF+Q4H, Paniki Atas, Kec. Talawaan, Kabupaten Minahasa Utara, Sulawesi Utara","Kabupaten Minahasa Utara, Sulawesi Utara",SULAWESI UTARA,,Indonesia,,,,14.944.318,1.249.228.489,https://maps.google.com/?cid=0x0:0xe9f0e09b3f84610a,
mall,Komplek perumahan,MILEA TANGKA,"Kolongan, Kec. Talawaan, Kabupaten Minahasa Utara, Sulawesi Utara 95373","Kec. Talawaan, Kabupaten Minahasa Utara",SULAWESI UTARA,95373.0,Indonesia,0895422122300,,,15.241.968,1.249.484.653,https://maps.google.com/?cid=0x0:0x59e63133fccc06b,
mall,Kantor Perusahaan,Elora Shop,"FWRP+FQQ, Paniki Atas, Kec. Talawaan, Kabupaten Minahasa Utara, Sulawesi Utara","Kabupaten Minahasa Utara, Sulawesi Utara",SULAWESI UTARA,,Indonesia,085256763004,,,1.491.218,1.249.369.727,https://maps.google.com/?cid=0x0:0xbc6bfc1d780c5112,
mall,Bengkel Motor Skuter,Talawaan Motor,"GXH4+8R7, Talawaan, Kec. Talawaan, Kabupaten Minahasa Utara, Sulawesi Utara","Kabupaten Minahasa Utara, Sulawesi Utara",SULAWESI UTARA,,Indonesia,082189722277,,,15.282.967,1.249.570.571,https://maps.google.com/?cid=0x0:0xe84c71dd66a48fd7,
mall,Toko,Warung Since Erat,"GXM7+8F6, Talawaan, Kec. Talawaan, Kabupaten Minahasa Utara, Sulawesi Utara","Kabupaten Minahasa Utara, Sulawesi Utara",SULAWESI UTARA,,Indonesia,,,,1.533.447,1.249.635.018,https://maps.google.com/?cid=0x0:0xcc9d0ef7a62880cd,
mall,,Mandagi-dondok,"Jl. Raya Talawaan - Tatelu No.5, Talawaan, Kec. Dimembe, Kabupaten Minahasa Utara, Sulawesi Utara","Kabupaten Minahasa Utara, Sulawesi Utara",SULAWESI UTARA,,Indonesia,,,,15.312.129,1.249.716.631,https://maps.google.com/?cid=0x0:0xeb712a37514587ad,
mall,Pengembang Realestat,Grand Kawanua City Walk,"Grand Kawanua International City Blok C No. 23, Jalan A.A. Maramis, Paniki Bawah, Mapanget, Paniki Bawah, Kec. Mapanget, Kota Manado, Sulawesi Utara 95254","Jalan A.A. Maramis, Paniki Bawah, Mapanget, Paniki Bawah, Kec. Mapanget, Kota Manado",SULAWESI UTARA,95254.0,Indonesia,0431818919,,,15.040.583,1.249.004.702,https://maps.google.com/?cid=0x0:0x2258ad1a1764290e,
mall,Pusat Perbelanjaan,Rumah depan Kios timothi,"GWJM+Q7X, Mapanget, Kec. Talawaan, Kabupaten Minahasa Utara, Sulawesi Utara","Kabupaten Minahasa Utara, Sulawesi Utara",SULAWESI UTARA,,Indonesia,,,,15.319.993,124.933.236,https://maps.google.com/?cid=0x0:0x8fa65d67b8ed28a6,
mall,Pusat Perbelanjaan,Lippo Plaza Manado,"Jl. A.A. Maramis, Kairagi Dua, Kec. Mapanget, Kota Manado, Sulawesi Utara","Kota Manado, Sulawesi Utara",SULAWESI UTARA,,Indonesia,04317210014,,,15.010.104,124.891.802,https://maps.google.com/?cid=0x0:0x821ac8faa8ec92f,
mall,Toko,VL Cell,"Jl. Raya Kolongan No.139, Kolongan, Kec. Talawaan, Kabupaten Minahasa Utara, Sulawesi Utara","Kabupaten Minahasa Utara, Sulawesi Utara",SULAWESI UTARA,,Indonesia,085322187520,,,15.268.601,1.249.519.135,https://maps.google.com/?cid=0x0:0xbfe7c7bebf0af83,
mall,Kedai Kopi,KIOS EL,"Jl. Korpri 5 No.41, Mapanget, Kec. Talawaan, Kabupaten Minahasa Utara, Sulawesi Utara","Kabupaten Minahasa Utara, Sulawesi Utara",SULAWESI UTARA,,Indonesia,081901848003,,,15.288.873,1.249.309.126,https://maps.google.com/?cid=0x0:0x52733af3f26fb4c2,
supermarket,supermarket,Sulawesi Utara 95371,"Airmadidi Atas, Kec. Airmadidi, Kabupaten Minahasa Utara, Sulawesi Utara","Kabupaten Minahasa Utara, Sulawesi Utara",SULAWESI UTARA,,Indonesia,,,,14.172.327,1.249.876.821,https://maps.google.com/?cid=0x0:0x80e87fd6189d70fc,
supermarket,Toko Pakaian,FRESHMART EXPRESS AIRMADIDI,"Sarongsong I, Kec. Airmadidi, Kabupaten Minahasa Utara, Sulawesi Utara 95371","Kec. Airmadidi, Kabupaten Minahasa Utara",SULAWESI UTARA,95371.0,Indonesia,,,,14.283.051,1.249.792.492,https://maps.google.com/?cid=0x0:0x972217e733639d1,
supermarket,Pusat Perbelanjaan,Trufarm Airmadidi,"CXFM+2WH, Jl. Raya Manado - Bitung, Airmadidi Atas, Kec. Airmadidi, Kabupaten Minahasa Utara, Sulawesi Utara","Kabupaten Minahasa Utara, Sulawesi Utara",SULAWESI UTARA,,Indonesia,,,,14.225.176,1.249.851.432,https://maps.google.com/?cid=0x0:0xcd9867b062db26a5,
supermarket,Minimarket,Indomaret Sukarno Airmadidi Atas,"CXCR+HW5, Airmadidi Atas, Kec. Airmadidi, Kabupaten Minahasa Utara, Sulawesi Utara","Kabupaten Minahasa Utara, Sulawesi Utara",SULAWESI UTARA,,Indonesia,,,,14.213.854,1.249.923.586,https://maps.google.com/?cid=0x0:0xbe42fd22f7599ab5,
supermarket,Toko bahan makanan,Oni Ning Airmadidi,"CXFJ+4CW, Airmadidi Bawah, Kec. Airmadidi, Kabupaten Minahasa Utara, Sulawesi Utara","Kabupaten Minahasa Utara, Sulawesi Utara",SULAWESI UTARA,,Indonesia,085255318825,,,14.230.926,1.249.809.347,https://maps.google.com/?cid=0x0:0x41f6100c501cdb33,
supermarket,Toko,Toko Alfamart,"Jl. Raya Manado - Bitung, Airmadidi Atas, Kec. Airmadidi, Kabupaten Minahasa Utara, Sulawesi Utara 95374","Airmadidi Atas, Kec. Airmadidi, Kabupaten Minahasa Utara",SULAWESI UTARA,95374.0,Indonesia,1500959,,,14.264.666,1.249.810.249,https://maps.google.com/?cid=0x0:0x4fbdccd87d2e8bde,
supermarket,Taman,Pasar Airmadidi,"CXGH+2VX, Sarongsong I, Kec. Airmadidi, Kabupaten Minahasa Utara, Sulawesi Utara","Kabupaten Minahasa Utara, Sulawesi Utara",SULAWESI UTARA,,Indonesia,,,,14.251.155,1.249.797.295,https://maps.google.com/?cid=0x0:0xec601ddc826c1656,
supermarket,Minimarket,Indomaret Airmadidi Atas,"CXCP+CHM, Jl. Airmadidi Atas, Airmadidi Bawah, Kec. Airmadidi, Kabupaten Minahasa Utara, Sulawesi Utara","Kabupaten Minahasa Utara, Sulawesi Utara",SULAWESI UTARA,,Indonesia,,,,14.210.801,1.249.864.263,https://maps.google.com/?cid=0x0:0xaae8f3db5cb4e791,
supermarket,Minimarket,Alfamart Sukur(1YD7),"Jl. Raya Manado - Bitung, Sukur, Kec. Airmadidi, Kabupaten Minahasa Utara, Sulawesi Utara 95371","Sukur, Kec. Airmadidi, Kabupaten Minahasa Utara",SULAWESI UTARA,95371.0,Indonesia,1500959,,,14.485.348,1.249.585.216,https://maps.google.com/?cid=0x0:0xa6fb1a0811b396dc,
supermarket,Minimarket,Indomaret Airmadidi,"CXHH+6R5, Jl. Raya Manado - Bitung, Sarongsong I, Kec. Airmadidi, Kabupaten Minahasa Utara, Sulawesi Utara 95372","Jl. Raya Manado - Bitung, Sarongsong I, Kec. Airmadidi, Kabupaten Minahasa Utara",SULAWESI UTARA,95372.0,Indonesia,081368063240,,,14.280.074,1.249.796.029,https://maps.google.com/?cid=0x0:0xdef56c098d7ceb76,
supermarket,Toko,Toko GRAND HARDWARE,"CXJH+22P, Sarongsong I, Kec. Airmadidi, Kabupaten Minahasa Utara, Sulawesi Utara","Kabupaten Minahasa Utara, Sulawesi Utara",SULAWESI UTARA,,Indonesia,,,,14.300.932,1.249.775.741,https://maps.google.com/?cid=0x0:0xd5bea6e4e94329b1,
supermarket,Toko,Alfamart Sarongsong I,"Jl. Airmadidi Atas Akses Tondano No.Kel, Sarongsong I, Kec. Airmadidi, Kabupaten Minahasa Utara, Sulawesi Utara 95371","Sarongsong I, Kec. Airmadidi, Kabupaten Minahasa Utara",SULAWESI UTARA,95371.0,Indonesia,1500959,,,14.244.041,1.249.791.581,https://maps.google.com/?cid=0x0:0xa4c99429c73c0e7,
supermarket,Toko Perlengkapan Rumah,MR.DIY,"Jl. Raya Manado - Bitung No.871, Airmadidi Atas, Kec. Airmadidi, Kabupaten Minahasa Utara, Sulawesi Utara","Kabupaten Minahasa Utara, Sulawesi Utara",SULAWESI UTARA,,Indonesia,,,,1.419.665,1.249.877.989,https://maps.google.com/?cid=0x0:0x6b10aff0b5f80bb8,
supermarket,Gudang,toko nico airmadidi,"CXGH+5MP, Pasar, Airmadidi Atas, Kec. Airmadidi, Kabupaten Minahasa Utara, Sulawesi Utara","Kabupaten Minahasa Utara, Sulawesi Utara",SULAWESI UTARA,,Indonesia,089697946951,,,14.254.507,1.249.792.007,https://maps.google.com/?cid=0x0:0x49a671f660da735,
supermarket,Toko,Alfamart Agape Griya,"CX6X+J56, Jl. Raya Manado - Bitung, Airmadidi Atas, Kec. Airmadidi, Kabupaten Minahasa Utara, Sulawesi Utara","Kabupaten Minahasa Utara, Sulawesi Utara",SULAWESI UTARA,,Indonesia,,,,14.115.377,124.997.884,https://maps.google.com/?cid=0x0:0x2c035856b33d0d6,
supermarket,Tempat Biliar,Ruko,"CXCP+4RC, Jl. Raya Manado - Bitung, Airmadidi Atas, Kec. Airmadidi, Kabupaten Minahasa Utara, Sulawesi Utara","Kabupaten Minahasa Utara, Sulawesi Utara",SULAWESI UTARA,,Indonesia,,,,14.203.226,1.249.870.097,https://maps.google.com/?cid=0x0:0x23f91e6846b03337,
supermarket,supermarket,Corner Market,"CX8P+FFV, Jl. Arnold Mononutu, Airmadidi Atas, Kec. Airmadidi, Kabupaten Minahasa Utara, Sulawesi Utara","Kabupaten Minahasa Utara, Sulawesi Utara",SULAWESI UTARA,,Indonesia,0431893619,,,14.162.396,1.249.861.756,https://maps.google.com/?cid=0x0:0xaba2e5a30eeadeb0,
supermarket,supermarket,Sulawesi Utara 95373,"Paniki Atas, Kec. Talawaan, Kabupaten Minahasa Utara, Sulawesi Utara","Kabupaten Minahasa Utara, Sulawesi Utara",SULAWESI UTARA,,Indonesia,,,,14.974.733,1.249.238.636,https://maps.google.com/?cid=0x0:0x3a1e3c0a99b6788f,
supermarket,Kios,Triple J Mart,"Jl. Giovanni Mas, Matungkas, Kec. Dimembe, Kabupaten Minahasa Utara, Sulawesi Utara 95373","Matungkas, Kec. Dimembe, Kabupaten Minahasa Utara",SULAWESI UTARA,95373.0,Indonesia,,,,14.721.854,1.249.848.811,https://maps.google.com/?cid=0x0:0x3f19baa16fe33c5e,
supermarket,Toko bahan makanan,kios Lino,"FXRG+H93, Dimembe, Kec. Dimembe, Kabupaten Minahasa Utara, Sulawesi Utara","Kabupaten Minahasa Utara, Sulawesi Utara",SULAWESI UTARA,,Indonesia,081244297062,,,14.913.853,1.249.759.134,https://maps.google.com/?cid=0x0:0x9b310d4f9a4e28a0,
supermarket,Toko Bahan Bangunan,DeDo Supermarket,"Jl. Raya Manado - Bitung, Maumbi, Kec. Kalawat, Kabupaten Minahasa Utara, Sulawesi Utara","Kabupaten Minahasa Utara, Sulawesi Utara",SULAWESI UTARA,,Indonesia,082363111170,,,14.783.792,1.249.086.253,https://maps.google.com/?cid=0x0:0x2d4a0393891ebb97,
supermarket,Pasar,Pasar Dimembe,"GX2J+QC5, Dimembe, Kec. Dimembe, Kabupaten Minahasa Utara, Sulawesi Utara","Kabupaten Minahasa Utara, Sulawesi Utara",SULAWESI UTARA,,Indonesia,,,,15.018.807,1.249.811.222,https://maps.google.com/?cid=0x0:0x108e84172fe7a4ee,
supermarket,Minimarket,Kompi M,"FXHC+4M9 jaga 6, Matungkas, Kec. Dimembe, Kabupaten Minahasa Utara, Sulawesi Utara","Kabupaten Minahasa Utara, Sulawesi Utara",SULAWESI UTARA,,Indonesia,082111899991,,,14.777.754,1.249.717.307,https://maps.google.com/?cid=0x0:0xf67df09edc648564,
supermarket,Toko Swalayan,Cocoy,"FXRG+WWW, Unnamed Road, Dimembe, Kec. Dimembe, Kabupaten Minahasa Utara, Sulawesi Utara","Kabupaten Minahasa Utara, Sulawesi Utara",SULAWESI UTARA,,Indonesia,085240785760,,,14.923.612,1.249.773.433,https://maps.google.com/?cid=0x0:0x998bbba0823e8713,
supermarket,Toko Swalayan,Jumbo Pasar Swalayan  Restaurant Manado,"Jl. Suprapto No.1, Pinaesaan, Kec. Wenang, Kota Manado, Sulawesi Utara 95122","Pinaesaan, Kec. Wenang, Kota Manado",SULAWESI UTARA,95122.0,Indonesia,,,,14.927.865,1.248.393.618,https://maps.google.com/?cid=0x0:0x2121652adb7d61d0,
supermarket,Toko outlet,Depo cell and minimarket,"FXJF+C37, Matungkas, Kec. Dimembe, Kabupaten Minahasa Utara, Sulawesi Utara","Kabupaten Minahasa Utara, Sulawesi Utara",SULAWESI UTARA,,Indonesia,081242143763,,,14.810.262,1.249.726.833,https://maps.google.com/?cid=0x0:0x570cbbf8a2507c63,
supermarket,Toko bahan makanan,KIOS FHARIA DIMEMBE,"GX9Q+62W, Jl. Sukur - Likupang, Warukapas, Kec. Dimembe, Kabupaten Minahasa Utara, Sulawesi Utara","Kabupaten Minahasa Utara, Sulawesi Utara",SULAWESI UTARA,,Indonesia,,,,15.181.186,1.249.875.887,https://maps.google.com/?cid=0x0:0x4a900283206097a8,
supermarket,Toko bahan makanan,Cherry mini shop  sembako,"De Premium, Blk. B5 No.35, Matungkas, Kec. Dimembe, Kabupaten Minahasa Utara, Sulawesi Utara 95373","Blk. B5 No.35, Matungkas, Kec. Dimembe, Kabupaten Minahasa Utara",SULAWESI UTARA,95373.0,Indonesia,,,,14.761.832,1.249.761.216,https://maps.google.com/?cid=0x0:0x255f5eb1b6cb1324,
supermarket,Toko bahan makanan,Warung,"Jaga 1, Pinilih, Kec. Dimembe, Kabupaten Minahasa Utara, Sulawesi Utara 95373","Pinilih, Kec. Dimembe, Kabupaten Minahasa Utara",SULAWESI UTARA,95373.0,Indonesia,085340289997,,,15.056.731,1.250.342.216,https://maps.google.com/?cid=0x0:0xc9ea0cef18385ada,
supermarket,Pusat Perbelanjaan,Trufarm Airmadidi,"CXFM+2WH, Jl. Raya Manado - Bitung, Airmadidi Atas, Kec. Airmadidi, Kabupaten Minahasa Utara, Sulawesi Utara","Kabupaten Minahasa Utara, Sulawesi Utara",SULAWESI UTARA,,Indonesia,,,,14.225.176,1.249.851.432,https://maps.google.com/?cid=0x0:0xcd9867b062db26a5,
supermarket,Minimarket,Alfamart Dimembe,"GX4H+JXQ, Dimembe, Kec. Dimembe, Kabupaten Minahasa Utara, Sulawesi Utara","Kabupaten Minahasa Utara, Sulawesi Utara",SULAWESI UTARA,,Indonesia,,,,15.065.853,1.249.799.836,https://maps.google.com/?cid=0x0:0x800fb37508c05cc1,
supermarket,Kios,Kios kai jay,"FXJC+JQV, Matungkas, Kec. Dimembe, Kabupaten Minahasa Utara, Sulawesi Utara","Kabupaten Minahasa Utara, Sulawesi Utara",SULAWESI UTARA,,Indonesia,,,,14.815.963,1.249.718.605,https://maps.google.com/?cid=0x0:0x64bc165cfc354483,
supermarket,Toko bahan makanan,Warung Memey,"FV2M+2CX, Unnamed Road, Sawangan, Kec. Tombulu, Kabupaten Minahasa, Sulawesi Utara","Kabupaten Minahasa, Sulawesi Utara",SULAWESI UTARA,,Indonesia,085247584607,,,14.501.234,12.488.361,https://maps.google.com/?cid=0x0:0xf5645933b7bbbcb6,
supermarket,supermarket,Toko Putri,"FXHG+XX6, Matungkas, Kec. Dimembe, Kabupaten Minahasa Utara, Sulawesi Utara","Kabupaten Minahasa Utara, Sulawesi Utara",SULAWESI UTARA,,Indonesia,,,,14.799.146,1.249.773.916,https://maps.google.com/?cid=0x0:0xa802dab1e8417e3c,
supermarket,Toko,Alfamart Dimembe Minut,"FXMF+RHC, Laikit, Kec. Dimembe, Kabupaten Minahasa Utara, Sulawesi Utara","Kabupaten Minahasa Utara, Sulawesi Utara",SULAWESI UTARA,,Indonesia,,,,14.845.712,1.249.738.785,https://maps.google.com/?cid=0x0:0xa6514a303d2d97a6,
supermarket,Toko Swalayan,Trufarm,"Jl. Piere Tendean, Lingkungan 1, Wenang Sel., Kec. Wenang, Kota Manado, Sulawesi Utara","Kota Manado, Sulawesi Utara",SULAWESI UTARA,,Indonesia,,,,14.816.044,12.483.517,https://maps.google.com/?cid=0x0:0x38a05442f3db26be,
supermarket,supermarket,Kec. Dimembe,"Kabupaten Minahasa Utara, Sulawesi Utara","Kabupaten Minahasa Utara, Sulawesi Utara",SULAWESI UTARA,,Indonesia,,,,1.528.553,1.249.927.382,https://maps.google.com/?cid=0x0:0x3bd2dc6d44a266a9,
supermarket,Toko Bahan Bangunan,Mini Market Dembet Jaya Talawaan,"GXH4+5PG, Talawaan, Kec. Talawaan, Kabupaten Minahasa Utara, Sulawesi Utara","Kabupaten Minahasa Utara, Sulawesi Utara",SULAWESI UTARA,,Indonesia,0431817591,,,1.527.931,124.956.838,https://maps.google.com/?cid=0x0:0xb9c81453db77b644,
supermarket,Toko bahan makanan,Alfamart,"Jl. Airmadidi - Tatelu, Matungkas, Kec. Dimembe, Kabupaten Minahasa Utara, Sulawesi Utara 95373","Matungkas, Kec. Dimembe, Kabupaten Minahasa Utara",SULAWESI UTARA,95373.0,Indonesia,1500959,,,14.789.957,1.249.721.089,https://maps.google.com/?cid=0x0:0xbbbc5625a4d8d70b,
supermarket,Minimarket,Kios Nanchy Dimembe,"FXRG+253, Dimembe, Kec. Dimembe, Kabupaten Minahasa Utara, Sulawesi Utara","Kabupaten Minahasa Utara, Sulawesi Utara",SULAWESI UTARA,,Indonesia,,,,14.900.067,1.249.754.145,https://maps.google.com/?cid=0x0:0x6349cdd45c39aff6,
supermarket,Toko umum,Kios Mantos,"H2H6+8FH, Lumpias, Kec. Dimembe, Kabupaten Minahasa Utara, Sulawesi Utara","Kabupaten Minahasa Utara, Sulawesi Utara",SULAWESI UTARA,,Indonesia,082141886675,,,15.783.069,1.250.112.297,https://maps.google.com/?cid=0x0:0x415a9e5b78ff63a2,
supermarket,Toko bahan makanan,Warong Tengah,"G325+57C, Jl. Raya Klabat, Klabat, Kec. Dimembe, Kabupaten Minahasa Utara, Sulawesi Utara","Kabupaten Minahasa Utara, Sulawesi Utara",SULAWESI UTARA,,Indonesia,,,,15.004.419,1.250.581.321,https://maps.google.com/?cid=0x0:0x11c48f8a7bf7c33,
supermarket,Minimarket,Alfamart,"Jl. Airmadidi-Likupang, Tatelu Satu, Kec. Dimembe, Kabupaten Minahasa Utara, Sulawesi Utara 95361","Tatelu Satu, Kec. Dimembe, Kabupaten Minahasa Utara",SULAWESI UTARA,95361.0,Indonesia,1500959,,,15.270.756,1.249.922.033,https://maps.google.com/?cid=0x0:0xd2ec540025675981,
supermarket,Toko umum,GodBless kios,"FXH5+9HX, Matungkas, Kec. Dimembe, Kabupaten Minahasa Utara, Sulawesi Utara","Kabupaten Minahasa Utara, Sulawesi Utara",SULAWESI UTARA,,Indonesia,0896396502165,,,14.784.787,1.249.589.773,https://maps.google.com/?cid=0x0:0xa5028b1d2e8fa792,
supermarket,Minimarket,Indomaret Warukapas,"GXFQ+RXW, Warukapas, Kec. Dimembe, Kabupaten Minahasa Utara, Sulawesi Utara","Kabupaten Minahasa Utara, Sulawesi Utara",SULAWESI UTARA,,Indonesia,,,,1.524.622,1.249.899.594,https://maps.google.com/?cid=0x0:0xb2e6dd4419e87824,
supermarket,Toko bahan makanan,Indomaret Wasian,"Wasian, Kec. Dimembe, Kabupaten Minahasa Utara, Sulawesi Utara","Kabupaten Minahasa Utara, Sulawesi Utara",SULAWESI UTARA,,Indonesia,,,,15.540.898,1.249.987.292,https://maps.google.com/?cid=0x0:0x309bac6c28a68e6b,
supermarket,Supermarket Diskon,Coco Mart,"Watutumou II, Kec. Kalawat, Kota Manado, Sulawesi Utara","Kota Manado, Sulawesi Utara",SULAWESI UTARA,,Indonesia,08114322394,,,14.716.498,1.249.174.856,https://maps.google.com/?cid=0x0:0x629ab022cd1610b2,
supermarket,Supermarket Diskon,GuGu,"FW67+WQX, Watutumou II, Kec. Kalawat, Kabupaten Minahasa Utara, Sulawesi Utara","Kabupaten Minahasa Utara, Sulawesi Utara",SULAWESI UTARA,,Indonesia,0895359409118,,,1.462.375,1.249.144.854,https://maps.google.com/?cid=0x0:0x50493fc3211ef1e6,
supermarket,Minimarket,Alfamart,"Jl Ins. Sukarno, Watutumou, Kec. Kalawat, Kabupaten Minahasa Utara, Sulawesi Utara 95378","Watutumou, Kec. Kalawat, Kabupaten Minahasa Utara",SULAWESI UTARA,95378.0,Indonesia,1500959,,,14.613.437,1.249.309.448,https://maps.google.com/?cid=0x0:0xb685b845b1f19732,
supermarket,Toko umum,DC HWI SILVIA MAUMBI,"FW96+WGM Perum viola watutumou, Watutumou, Kec. Kalawat, Kabupaten Minahasa Utara, Sulawesi Utara","Kabupaten Minahasa Utara, Sulawesi Utara",SULAWESI UTARA,,Indonesia,082344119560,,,14.698.304,1.249.112.999,https://maps.google.com/?cid=0x0:0x2a53025de431cbb6,
supermarket,Pasar Petani,Pasar Kalawat,"FW6G+29H, Kalawat, Kec. Kalawat, Kabupaten Minahasa Utara, Sulawesi Utara","Kabupaten Minahasa Utara, Sulawesi Utara",SULAWESI UTARA,,Indonesia,,,,14.600.704,1.249.259.867,https://maps.google.com/?cid=0x0:0x7cce0cd08451d8b8,
supermarket,Toko Swalayan,Tk Piedro,"FWGC+97F, Unnamed Road, Watutumou III, Kec. Kalawat, Kabupaten Minahasa Utara, Sulawesi Utara","Kabupaten Minahasa Utara, Sulawesi Utara",SULAWESI UTARA,,Indonesia,082329462323,,,14.759.386,1.249.206.738,https://maps.google.com/?cid=0x0:0x9fe325dfb64ec0e6,
supermarket,Toko bahan makanan,Kios Liviando,"FW68+X62, Watutumou II, Kec. Kalawat, Kabupaten Minahasa Utara, Sulawesi Utara","Kabupaten Minahasa Utara, Sulawesi Utara",SULAWESI UTARA,,Indonesia,,,,14.623.786,124.915.522,https://maps.google.com/?cid=0x0:0x24a16d17a54307d7,
supermarket,Toko bahan makanan,Kios Koko,"Perum Viola No.114 Blok C, Jaga XII, Watutumou, Kec. Kalawat, Kabupaten Minahasa Utara, Sulawesi Utara 95378","Jaga XII, Watutumou, Kec. Kalawat, Kabupaten Minahasa Utara",SULAWESI UTARA,95378.0,Indonesia,085823010877,,,14.701.216,1.249.087.617,https://maps.google.com/?cid=0x0:0xbde58a9149e19295,
supermarket,Minimarket,Indomaret Watutumou Kalawat,"FWF8+6GJ, Watutumou, Kec. Kalawat, Kabupaten Minahasa Utara, Sulawesi Utara","Kabupaten Minahasa Utara, Sulawesi Utara",SULAWESI UTARA,,Indonesia,,,,14.728.889,1.249.162.381,https://maps.google.com/?cid=0x0:0x28c0e35fcad3dd3f,
supermarket,Toko Bahan Bangunan,DeDo Supermarket,"Jl. Raya Manado - Bitung, Maumbi, Kec. Kalawat, Kabupaten Minahasa Utara, Sulawesi Utara","Kabupaten Minahasa Utara, Sulawesi Utara",SULAWESI UTARA,,Indonesia,082363111170,,,14.783.792,1.249.086.253,https://maps.google.com/?cid=0x0:0x2d4a0393891ebb97,
supermarket,Toko bahan makanan,Alfamart Kolongan Asabri Minut,"Jaya, Jl. Raya Manado - Bitung, Kolongan, Kec. Kalawat, Kabupaten Minahasa Utara, Sulawesi Utara 95378","Jl. Raya Manado - Bitung, Kolongan, Kec. Kalawat, Kabupaten Minahasa Utara",SULAWESI UTARA,95378.0,Indonesia,1500959,,,14.648.559,1.249.267.169,https://maps.google.com/?cid=0x0:0x97ba11b43706838a,
supermarket,Toko bahan makanan,Alfamart Kolongan Minut,"Jl. Raya Manado - Bitung, Kolongan, Kec. Kalawat, Kabupaten Minahasa Utara, Sulawesi Utara","Kabupaten Minahasa Utara, Sulawesi Utara",SULAWESI UTARA,,Indonesia,,,,14.551.835,1.249.394.782,https://maps.google.com/?cid=0x0:0xd36e13bf32066c35,
supermarket,Minimarket,Alfamart Watutumou Minut,"Jl. Raya Manado - Bitung, Watutumou, Kec. Kalawat, Kabupaten Minahasa Utara, Sulawesi Utara 95378","Watutumou, Kec. Kalawat, Kabupaten Minahasa Utara",SULAWESI UTARA,95378.0,Indonesia,1500959,,,14.767.694,1.249.099.585,https://maps.google.com/?cid=0x0:0x496f1c3fce46a973,
supermarket,Minimarket,Alfamart Maumbi Minut,"Maumbi, Kec. Kalawat, Kabupaten Minahasa Utara, Sulawesi Utara","Kabupaten Minahasa Utara, Sulawesi Utara",SULAWESI UTARA,,Indonesia,1500959,,,14.807.421,1.249.045.938,https://maps.google.com/?cid=0x0:0xdf7251cc0d2bb14,
supermarket,Toko bahan makanan,PT Agro Boga Utama Cabang Manado,"Komp. Pergudangan Angtropolis G-2 Kel, Watutumou III, Kalawat, North Minahasa Regency, North Sulawesi 95378","Watutumou III, Kalawat, North Minahasa Regency",SULAWESI UTARA,95378.0,Indonesia,081119004000,,,14.713.095,1.249.210.357,https://maps.google.com/?cid=0x0:0xde64030b52946f4b,
supermarket,Toko Obat,GShop Kalawat,"jaga 3 Kolongan, Kawangkoan, Kec. Kalawat, Kabupaten Minahasa Utara, Sulawesi Utara 95378","Kawangkoan, Kec. Kalawat, Kabupaten Minahasa Utara",SULAWESI UTARA,95378.0,Indonesia,082156633305,,,14.534.904,1.249.329.351,https://maps.google.com/?cid=0x0:0x1c661e9567103107,
supermarket,Toko Swalayan,Wijaya Mart,"FW77+3VG, Watutumou II, Kec. Kalawat, Kabupaten Minahasa Utara, Sulawesi Utara","Kabupaten Minahasa Utara, Sulawesi Utara",SULAWESI UTARA,,Indonesia,,,,14.626.787,1.249.147,https://maps.google.com/?cid=0x0:0xcf2aeed423556cce,
supermarket,Toko bahan makanan,NadineNaura,"FW5X+WXM, Suwaan, Kec. Kalawat, Kabupaten Minahasa Utara, Sulawesi Utara","Kabupaten Minahasa Utara, Sulawesi Utara",SULAWESI UTARA,,Indonesia,089871735224,,,14.598.324,1.249.499.311,https://maps.google.com/?cid=0x0:0x99608b9aab4ce2a0,
supermarket,Supermarket Diskon,Kios arshop,"FWG3+9QQ, Maumbi, Kec. Kalawat, Kabupaten Minahasa Utara, Sulawesi Utara","Kabupaten Minahasa Utara, Sulawesi Utara",SULAWESI UTARA,,Indonesia,,,,14.759.663,1.249.044.717,https://maps.google.com/?cid=0x0:0xc447876a4410d080,
supermarket,Toko Daging,DND MEAT SHOP,"Jl. Madrasah II RT 09/10 No.42, RT.9/RW.10, Duren Sawit, Kec. Duren Sawit, Kota Jakarta Timur, Daerah Khusus Ibukota Jakarta 13440","RT.9/RW.10, Duren Sawit, Kec. Duren Sawit, Kota Jakarta Timur",SULAWESI UTARA,13440.0,Indonesia,087784406268,,,-62.223.671,106.921.882,https://maps.google.com/?cid=0x0:0xfd58fd9f481f1b7c,
supermarket,Minimarket,KIOS A3,"Jl. Ir. Soekarno, Kolongan Tetempangan, Kec. Kalawat, Kabupaten Minahasa Utara, Sulawesi Utara 95378","Kolongan Tetempangan, Kec. Kalawat, Kabupaten Minahasa Utara",SULAWESI UTARA,95378.0,Indonesia,082292025003,,,14.774.837,1.249.344.101,https://maps.google.com/?cid=0x0:0x5394dfc12840f284,
supermarket,Toko Makanan,Distributor Frozen food bogor,"Pilar 1, Jalan, RT.02/RW.06, Sindangbarang, Bogor Barat, Bogor City, West Java 16117","Jalan, RT.02/RW.06, Sindangbarang, Bogor Barat, Bogor City",SULAWESI UTARA,16117.0,Indonesia,085772936818,,,-65.749.213,1.067.615.543,https://maps.google.com/?cid=0x0:0x40094597443560d1,
supermarket,Toko Swalayan,Kios Lydia,"Perum Bumi Blok B No.386Kawangkoan Baru, Kalawat, Kec. Kalawat, Kabupaten Minahasa Utara, Sulawesi Utara 95378","Kalawat, Kec. Kalawat, Kabupaten Minahasa Utara",SULAWESI UTARA,95378.0,Indonesia,,,,14.585.096,1.249.253.754,https://maps.google.com/?cid=0x0:0xcf4f3e823395aa84,
supermarket,Minimarket,Alfamart Kauditan I,"92VW+78P, Jl. Raya Manado - Bitung, Kauditan I, Kec. Kauditan, Kabupaten Minahasa Utara, Sulawesi Utara 95372","Jl. Raya Manado - Bitung, Kauditan I, Kec. Kauditan, Kabupaten Minahasa Utara",SULAWESI UTARA,95372.0,Indonesia,1500959,,,13.955.427,1.250.463.777,https://maps.google.com/?cid=0x0:0xcd7de1e4f3170d21,
supermarket,Minimarket,Alfamart Karegesan Minut,"Jl. Arnold Mononutu, Kauditan I, Kec. Kauditan, Kabupaten Minahasa Utara, Sulawesi Utara 95372","Kauditan I, Kec. Kauditan, Kabupaten Minahasa Utara",SULAWESI UTARA,95372.0,Indonesia,1500959,,,13.958.138,1.250.200.654,https://maps.google.com/?cid=0x0:0xfad6cf291d2cccf6,
supermarket,supermarket,Kec. Kauditan,"Kabupaten Minahasa Utara, Sulawesi Utara","Kabupaten Minahasa Utara, Sulawesi Utara",SULAWESI UTARA,,Indonesia,,,,13.931.442,125.042.732,https://maps.google.com/?cid=0x0:0x2d255a96bf594260,
supermarket,Toko bahan makanan,Indomaret Kauditan 1,"92VV+767, Kawiley, Kec. Kauditan, Kabupaten Minahasa Utara, Sulawesi Utara","Kabupaten Minahasa Utara, Sulawesi Utara",SULAWESI UTARA,,Indonesia,,,,13.931.667,1.250.430.598,https://maps.google.com/?cid=0x0:0xf2cd37d04b5fbe9d,
supermarket,Minimarket,Indomaret Kauditan II,"92WX+846, Kauditan II, Kec. Kauditan, Kabupaten Minahasa Utara, Sulawesi Utara","Kabupaten Minahasa Utara, Sulawesi Utara",SULAWESI UTARA,,Indonesia,,,,13.957.862,125.047.766,https://maps.google.com/?cid=0x0:0x31008f44dbeacec3,
supermarket,Toko bahan makanan,TOKO ATI,"93V2+8VF, Unnamed Road, Kauditan II, Kec. Kauditan, Kabupaten Minahasa Utara, Sulawesi Utara","Kabupaten Minahasa Utara, Sulawesi Utara",SULAWESI UTARA,,Indonesia,,,,13.933.032,1.250.521.681,https://maps.google.com/?cid=0x0:0xba21f1e5efa9b181,
supermarket,Toko bahan makanan,Kios AMANDA (ROS),"Unnamed Road, Kauditan II, Kec. Kauditan, Kabupaten Minahasa Utara, Sulawesi Utara 95372","Kauditan II, Kec. Kauditan, Kabupaten Minahasa Utara",SULAWESI UTARA,95372.0,Indonesia,085340062789,,,14.002.193,1.250.607.051,https://maps.google.com/?cid=0x0:0xb0d1ce60825cdda2,
supermarket,Minimarket,Boke Mart Kauditan,"Kauditan II, Kec. Kauditan, Kabupaten Minahasa Utara, Sulawesi Utara","Kabupaten Minahasa Utara, Sulawesi Utara",SULAWESI UTARA,,Indonesia,085394312668,,,13.979.436,1.250.524.545,https://maps.google.com/?cid=0x0:0xc1833f6bdee2e11f,
supermarket,Minimarket,Alfamart,"Jl. Manado - Kema, Kauditan I, Kec. Kauditan, Kabupaten Minahasa Utara, Sulawesi Utara 95372","Kauditan I, Kec. Kauditan, Kabupaten Minahasa Utara",SULAWESI UTARA,95372.0,Indonesia,1500959,,,13.923.498,1.250.459.549,https://maps.google.com/?cid=0x0:0x9ea8fdde81527559,
supermarket,Toko bahan makanan,Kios Evans,"92RJ+RM7, Jl. Arnold Mononutu, Treman, Kec. Kauditan, Kabupaten Minahasa Utara, Sulawesi Utara","Kabupaten Minahasa Utara, Sulawesi Utara",SULAWESI UTARA,,Indonesia,081354841769,,,13.920.385,1.250.316.768,https://maps.google.com/?cid=0x0:0xd032da67e4efbf83,
supermarket,Toko bahan makanan,TOMAT MURAH,"93X4+P9P, Kauditan II, Kec. Kauditan, Kabupaten Minahasa Utara, Sulawesi Utara","Kabupaten Minahasa Utara, Sulawesi Utara",SULAWESI UTARA,,Indonesia,,,,13.993.386,1.250.559.478,https://maps.google.com/?cid=0x0:0x1755847caaea55ad,
supermarket,Toko Perlengkapan Rumah,Kios Earlangga,"92X9+678, Karegesan, Kec. Kauditan, Kabupaten Minahasa Utara, Sulawesi Utara","Kabupaten Minahasa Utara, Sulawesi Utara",SULAWESI UTARA,,Indonesia,085156456947,,,13.980.371,1.250.181.876,https://maps.google.com/?cid=0x0:0xbc055a07b512fbef,
supermarket,Toko,Miktam Mart Paslaten (TMI),"Jl. Arnold Mononutu, Paslaten, Kec. Kauditan, Kabupaten Minahasa Utara, Sulawesi Utara","Kabupaten Minahasa Utara, Sulawesi Utara",SULAWESI UTARA,,Indonesia,,,,14.030.248,1.250.003.558,https://maps.google.com/?cid=0x0:0xd6d59a977c880fbc,
supermarket,Toko,Toko,"CX4V+CCG, Jl. Arnold Mononutu, Tumaluntung, Kec. Kauditan, Kabupaten Minahasa Utara, Sulawesi Utara","Kabupaten Minahasa Utara, Sulawesi Utara",SULAWESI UTARA,,Indonesia,085298597200,,,14.060.706,1.249.935.677,https://maps.google.com/?cid=0x0:0x19b1e97cc2c9f558,
supermarket,Kios,Kauditan,"92H3+J62, Lembean, Kec. Kauditan, Kabupaten Minahasa Utara, Sulawesi Utara","Kabupaten Minahasa Utara, Sulawesi Utara",SULAWESI UTARA,,Indonesia,,,,1.379.006,125.003.015,https://maps.google.com/?cid=0x0:0xa5a1586cc74ca547,
supermarket,Toko bahan makanan,Fortune Mart,"Treman, Kec. Kauditan, Kabupaten Minahasa Utara, Sulawesi Utara 95372","Kec. Kauditan, Kabupaten Minahasa Utara",SULAWESI UTARA,95372.0,Indonesia,,,,13.919.841,1.250.290.964,https://maps.google.com/?cid=0x0:0x6c2335fe05bcf94c,
supermarket,Toko Bahan Bangunan,Kios IMANUEL,"desa, Kauditan II, Kec. Kauditan, Kabupaten Minahasa Utara, Sulawesi Utara","Kabupaten Minahasa Utara, Sulawesi Utara",SULAWESI UTARA,,Indonesia,082193319910,,,13.910.229,1.250.480.414,https://maps.google.com/?cid=0x0:0x1a0fb236dec656af,
supermarket,Minimarket,Alfamart,"Jl. Arnold Mononutu, Lembean, Kec. Kauditan, Kabupaten Minahasa Utara, Sulawesi Utara 95372","Lembean, Kec. Kauditan, Kabupaten Minahasa Utara",SULAWESI UTARA,95372.0,Indonesia,1500959,,,14.013.393,1.250.060.251,https://maps.google.com/?cid=0x0:0x93465abd5ec6b2e6,
supermarket,Toko,Alfamart,"Jl. Kauditan - Kema, Kema Satu, Kec. Kema, Kabupaten Minahasa Utara, Sulawesi Utara 95372","Kema Satu, Kec. Kema, Kabupaten Minahasa Utara",SULAWESI UTARA,95372.0,Indonesia,1500959,,,13.715.976,125.072.197,https://maps.google.com/?cid=0x0:0x3ee533db15be37e1,
supermarket,Minimarket,Indomaret Tumaluntung,"CX4V+6VH, Tumaluntung, Kec. Kauditan, Kabupaten Minahasa Utara, Sulawesi Utara","Kabupaten Minahasa Utara, Sulawesi Utara",SULAWESI UTARA,,Indonesia,,,,14.055.707,1.249.947.226,https://maps.google.com/?cid=0x0:0x97661337933e9325,
supermarket,Toko,Alfamart,"Jl. Kauditan - Kema No.Kel, Kema Dua, Kec. Kema, Kabupaten Minahasa Utara, Sulawesi Utara 95372","Kema Dua, Kec. Kema, Kabupaten Minahasa Utara",SULAWESI UTARA,95372.0,Indonesia,1500959,,,13.644.898,1.250.735.431,https://maps.google.com/?cid=0x0:0xb1df5e502844aa59,
supermarket,Minimarket,Alfamart Raya Kauditan Satu,"92VV+568, Kawiley, Kec. Kauditan, Kabupaten Minahasa Utara, Sulawesi Utara","Kabupaten Minahasa Utara, Sulawesi Utara",SULAWESI UTARA,,Indonesia,,,,13.929.095,1.250.430.896,https://maps.google.com/?cid=0x0:0xe8f7cdd5da658545,
supermarket,Komplek perumahan,Perempatan Kawiley,"92VV+735, Jl. Raya Manado - Bitung, Kawiley, Kec. Kauditan, Kabupaten Minahasa Utara, Sulawesi Utara","Kabupaten Minahasa Utara, Sulawesi Utara",SULAWESI UTARA,,Indonesia,,,,13.931.415,1.250.427.322,https://maps.google.com/?cid=0x0:0x6f42ac10faa30072,
supermarket,Toko bahan makanan,Toko Depot Damai Sejahtra,"Toko/Depot DamaiSejahtera, Treman, Kec. Kauditan, Kabupaten Minahasa Utara, Sulawesi Utara 95372","Treman, Kec. Kauditan, Kabupaten Minahasa Utara",SULAWESI UTARA,95372.0,Indonesia,085325283737,,,13.746.541,1.250.250.484,https://maps.google.com/?cid=0x0:0xbf8776208b73893f,
supermarket,Toko bahan makanan,Bless mart,"CX7X+3X6, Unnamed Road, Tumaluntung, Kec. Kauditan, Kabupaten Minahasa Utara, Sulawesi Utara","Kabupaten Minahasa Utara, Sulawesi Utara",SULAWESI UTARA,,Indonesia,,,,14.126.746,1.249.998.951,https://maps.google.com/?cid=0x0:0x8c1c8c778b2380e3,
supermarket,Minimarket,Alfamart Kawiley minut,"92RP+HQX, Kawiley, Kec. Kauditan, Kabupaten Minahasa Utara, Sulawesi Utara","Kabupaten Minahasa Utara, Sulawesi Utara",SULAWESI UTARA,,Indonesia,,,,1.391.495,1.250.369.767,https://maps.google.com/?cid=0x0:0x7c1e3d28ad06439c,
supermarket,Toko Swalayan,KIOS Veyun,"92RJ+RGV, Treman, Kec. Kauditan, Kabupaten Minahasa Utara, Sulawesi Utara","Kabupaten Minahasa Utara, Sulawesi Utara",SULAWESI UTARA,,Indonesia,,,,13.921.022,1.250.312.824,https://maps.google.com/?cid=0x0:0xb7b163f6057badbd,
supermarket,supermarket,Kec. Kema,"Kabupaten Minahasa Utara, Sulawesi Utara","Kabupaten Minahasa Utara, Sulawesi Utara",SULAWESI UTARA,,Indonesia,,,,13.717.732,1.250.714.941,https://maps.google.com/?cid=0x0:0x9d12383cee2836a3,
supermarket,Toko,Indomaret,"93CC+MMJ, Jl. Kema-Makalisung, Kema Satu, Kec. Kema, Kabupaten Minahasa Utara, Sulawesi Utara","Kabupaten Minahasa Utara, Sulawesi Utara",SULAWESI UTARA,,Indonesia,,,,13.717.008,125.071.638,https://maps.google.com/?cid=0x0:0xa56380e89ef9603,
supermarket,Minimarket,ALFAMIDI KEMA 1,"93CC+MGQ, Kema Satu, Kec. Kema, Kabupaten Minahasa Utara, Sulawesi Utara","Kabupaten Minahasa Utara, Sulawesi Utara",SULAWESI UTARA,,Indonesia,,,,13.717.053,1.250.713.492,https://maps.google.com/?cid=0x0:0x97efb81226d5e8c2,
supermarket,Toko,Alfamart,"Jl. Kauditan - Kema No.Kel, Kema Dua, Kec. Kema, Kabupaten Minahasa Utara, Sulawesi Utara 95372","Kema Dua, Kec. Kema, Kabupaten Minahasa Utara",SULAWESI UTARA,95372.0,Indonesia,1500959,,,13.644.898,1.250.735.431,https://maps.google.com/?cid=0x0:0xb1df5e502844aa59,
supermarket,Toko bahan makanan,Indomaret,"Kema - Makalisung No.16, Kema Dua, Kec. Kema, Kabupaten Minahasa Utara, Sulawesi Utara","Kabupaten Minahasa Utara, Sulawesi Utara",SULAWESI UTARA,,Indonesia,,,,13.646.743,1.250.738.827,https://maps.google.com/?cid=0x0:0x7e48afcf7583ede3,
supermarket,Toko,Grosir sembako NIA,"939F+WRC, Kema - Makalisung, Kema Dua, Kec. Kema, Kabupaten Minahasa Utara, Sulawesi Utara","Kabupaten Minahasa Utara, Sulawesi Utara",SULAWESI UTARA,,Indonesia,,,,13.698.128,1.250.745.078,https://maps.google.com/?cid=0x0:0x9e1eca44db612474,
supermarket,Minimarket,Alfamart Kauditan I,"92VW+78P, Jl. Raya Manado - Bitung, Kauditan I, Kec. Kauditan, Kabupaten Minahasa Utara, Sulawesi Utara 95372","Jl. Raya Manado - Bitung, Kauditan I, Kec. Kauditan, Kabupaten Minahasa Utara",SULAWESI UTARA,95372.0,Indonesia,1500959,,,13.955.427,1.250.463.777,https://maps.google.com/?cid=0x0:0xcd7de1e4f3170d21,
supermarket,Minimarket,Alfamart,"Jl. Manado - Kema, Kauditan I, Kec. Kauditan, Kabupaten Minahasa Utara, Sulawesi Utara 95372","Kauditan I, Kec. Kauditan, Kabupaten Minahasa Utara",SULAWESI UTARA,95372.0,Indonesia,1500959,,,13.923.498,1.250.459.549,https://maps.google.com/?cid=0x0:0x9ea8fdde81527559,
supermarket,supermarket,TOKO NORA KEMA,"937F+PF6, Kema Dua, Kec. Kema, Kabupaten Minahasa Utara, Sulawesi Utara","Kabupaten Minahasa Utara, Sulawesi Utara",SULAWESI UTARA,,Indonesia,,,,13.642.189,1.250.736.393,https://maps.google.com/?cid=0x0:0x64913daf5fb7adc8,
supermarket,Toko Kelontong Asia,Sola Gratia Mart,"83G8+Q82, Makalisung, Kema, North Minahasa Regency, North Sulawesi","Kabupaten Minahasa Utara, Sulawesi Utara",SULAWESI UTARA,,Indonesia,,,,13.270.893,1.250.654.032,https://maps.google.com/?cid=0x0:0xd6a2aa755420ef3f,
supermarket,Toko bahan makanan,Kios Evans,"92RJ+RM7, Jl. Arnold Mononutu, Treman, Kec. Kauditan, Kabupaten Minahasa Utara, Sulawesi Utara","Kabupaten Minahasa Utara, Sulawesi Utara",SULAWESI UTARA,,Indonesia,081354841769,,,13.920.385,1.250.316.768,https://maps.google.com/?cid=0x0:0xd032da67e4efbf83,
supermarket,Martabak,Martabak Merdeka Kema,"Kema - Makalisung, Kema Dua, Kec. Kema, Kabupaten Minahasa Utara, Sulawesi Utara 95379","Kema Dua, Kec. Kema, Kabupaten Minahasa Utara",SULAWESI UTARA,95379.0,Indonesia,085962325165,,,13.659.613,1.250.740.697,https://maps.google.com/?cid=0x0:0x854e61c2770a6f1b,
supermarket,Toko bahan makanan,TOMAT MURAH,"93X4+P9P, Kauditan II, Kec. Kauditan, Kabupaten Minahasa Utara, Sulawesi Utara","Kabupaten Minahasa Utara, Sulawesi Utara",SULAWESI UTARA,,Indonesia,,,,13.993.386,1.250.559.478,https://maps.google.com/?cid=0x0:0x1755847caaea55ad,
supermarket,Toko bahan makanan,TOKO ATI,"93V2+8VF, Unnamed Road, Kauditan II, Kec. Kauditan, Kabupaten Minahasa Utara, Sulawesi Utara","Kabupaten Minahasa Utara, Sulawesi Utara",SULAWESI UTARA,,Indonesia,,,,13.933.032,1.250.521.681,https://maps.google.com/?cid=0x0:0xba21f1e5efa9b181,
supermarket,Minimarket,Alfamart,"Jl. Worang Bay Pass, Karegesan, Kec. Kauditan, Kabupaten Minahasa Utara, Sulawesi Utara 95372","Karegesan, Kec. Kauditan, Kabupaten Minahasa Utara",SULAWESI UTARA,95372.0,Indonesia,1500959,,,13.996.563,125.020.955,https://maps.google.com/?cid=0x0:0xe9310f113d64f55f,
supermarket,Toko Swalayan,Golden Pasar Swalayan,"Ruko Boulevard, Jl. Piere Tendean No.5, Wenang Utara, Kec. Wenang, Kota Manado, Sulawesi Utara","Kota Manado, Sulawesi Utara",SULAWESI UTARA,,Indonesia,,,,14.884.317,1.248.379.329,https://maps.google.com/?cid=0x0:0x2d4fb94562e6ef96,
supermarket,Minimarket,Alfamart Karegesan Minut,"Jl. Arnold Mononutu, Kauditan I, Kec. Kauditan, Kabupaten Minahasa Utara, Sulawesi Utara 95372","Kauditan I, Kec. Kauditan, Kabupaten Minahasa Utara",SULAWESI UTARA,95372.0,Indonesia,1500959,,,13.958.138,1.250.200.654,https://maps.google.com/?cid=0x0:0xfad6cf291d2cccf6,
supermarket,Toko,Miktam Mart Paslaten (TMI),"Jl. Arnold Mononutu, Paslaten, Kec. Kauditan, Kabupaten Minahasa Utara, Sulawesi Utara","Kabupaten Minahasa Utara, Sulawesi Utara",SULAWESI UTARA,,Indonesia,,,,14.030.248,1.250.003.558,https://maps.google.com/?cid=0x0:0xd6d59a977c880fbc,
supermarket,Toko Perlengkapan Rumah,Kios Earlangga,"92X9+678, Karegesan, Kec. Kauditan, Kabupaten Minahasa Utara, Sulawesi Utara","Kabupaten Minahasa Utara, Sulawesi Utara",SULAWESI UTARA,,Indonesia,085156456947,,,13.980.371,1.250.181.876,https://maps.google.com/?cid=0x0:0xbc055a07b512fbef,
supermarket,Toko Swalayan,Jumbo Pasar Swalayan  Restaurant Manado,"Jl. Suprapto No.1, Pinaesaan, Kec. Wenang, Kota Manado, Sulawesi Utara 95122","Pinaesaan, Kec. Wenang, Kota Manado",SULAWESI UTARA,95122.0,Indonesia,,,,14.927.865,1.248.393.618,https://maps.google.com/?cid=0x0:0x2121652adb7d61d0,
supermarket,Toko bahan makanan,Kios Aulya (sabtu) 16,"C39X+R4M, Jl. Raya Manado - Bitung, Manembo-nembo Tengah, Kec. Matuari, Kota Bitung, Sulawesi Utara","Kota Bitung, Sulawesi Utara",SULAWESI UTARA,,Indonesia,085241163293,,,14.195.996,1.250.977.919,https://maps.google.com/?cid=0x0:0xde36d32b334f3079,
supermarket,Toko,Toko Twins,"Perum helena linggua nomor 55, Watudambo","Kota Bitung, Sulawesi Utara",SULAWESI UTARA,,Indonesia,082341888900,,,14.268.189,1.250.860.284,https://maps.google.com/?cid=0x0:0xf31e1acd966d80ff,
supermarket,supermarket,Pangkalan 70,"93P5+9VF, Jl. Kauditan - Kema, Tontalete, Kec. Kema, Kabupaten Minahasa Utara, Sulawesi Utara","Kabupaten Minahasa Utara, Sulawesi Utara",SULAWESI UTARA,,Indonesia,,,,13.860.432,1.250.595.165,https://maps.google.com/?cid=0x0:0x80834f0f6580cfd2,
supermarket,Toko Swalayan,Kem Chicks,"Lt. LG, The Mansion At Kemang, Jl. Kemang Raya No.3-5, Bangka, Kec. Mampang Prpt., Kota Jakarta Selatan, Daerah Khusus Ibukota Jakarta 12730","The Mansion At Kemang, Jl. Kemang Raya No.3-5, Bangka, Kec. Mampang Prpt., Kota Jakarta Selatan",SULAWESI UTARA,12730.0,Indonesia,02171790065,,,-62.549.519,106.810.279,https://maps.google.com/?cid=0x0:0x87c197520738a90f,
supermarket,Toko bahan makanan,Kem Chicks Pacific Place,"Pacific Place Lt. LG-99 SCBD Lot 35, Jalan Jend. Sudirman No.52-53, Senayan, Kebayoran Baru, RT.5/RW.3, Senayan, Kec. Kby. Baru, Kota Jakarta Selatan, Daerah Khusus Ibukota Jakarta 12190","Jalan Jend. Sudirman No.52-53, Senayan, Kebayoran Baru, RT.5/RW.3, Senayan, Kec. Kby. Baru, Kota Jakarta Selatan",SULAWESI UTARA,12190.0,Indonesia,02157973435,,,-62.244.806,1.068.096.616,https://maps.google.com/?cid=0x0:0x6d2e3eee9be8895f,
supermarket,Toko Swalayan,GS THE FRESH JATIBENING,"Jl. Caman Raya No.7-24, RT.004/RW.003, Jatibening, Kec. Pd. Gede, Kota Bks, Jawa Barat 17412","RT.004/RW.003, Jatibening, Kec. Pd. Gede, Kota Bks",SULAWESI UTARA,17412.0,Indonesia,02184982211,,,-62.676.455,1.069.436.409,https://maps.google.com/?cid=0x0:0x2cdb50c3ee3206c,
supermarket,Toko Swalayan,GS The Fresh Mampang,"Jl. Buncit Raya No.301, Duren Tiga, Kec. Pancoran, Kota Jakarta Selatan, Daerah Khusus Ibukota Jakarta 12760","Duren Tiga, Kec. Pancoran, Kota Jakarta Selatan",SULAWESI UTARA,12760.0,Indonesia,02126961986,,,-6.256.991,106.828.987,https://maps.google.com/?cid=0x0:0x47a84d3b86619147,
supermarket,Toko Minuman Keras,Kem Chicks PIK,"Orchestra Beach 1, 14460",,SULAWESI UTARA,,Indonesia,,,,-60.937.175,1.067.399.547,https://maps.google.com/?cid=0x0:0x72cab7f89391bf1d,
supermarket,Toko Swalayan,Super Indo Pulo Mas,"Jl. Kayu Putih Raya No.16, Kayu Putih, Kec. Pulo Gadung, Kota Jakarta Timur, Daerah Khusus Ibukota Jakarta 13210","Kayu Putih, Kec. Pulo Gadung, Kota Jakarta Timur",SULAWESI UTARA,13210.0,Indonesia,0214710929,,,-6.184.116,106.890.883,https://maps.google.com/?cid=0x0:0xec13e46ae4163d32,
supermarket,supermarket,Kec. Likupang Bar.,"Kabupaten Minahasa Utara, Sulawesi Utara","Kabupaten Minahasa Utara, Sulawesi Utara",SULAWESI UTARA,,Indonesia,,,,1.692.583,1.250.117.119,https://maps.google.com/?cid=0x0:0x4ad9ed2bf8ddc336,
supermarket,Pusat Perbelanjaan,Toko Sahabat Baru,"Likupang Dua Jg I, Likupang II, Kec. Likupang Tim., Kabupaten Minahasa Utara, Sulawesi Utara","Kabupaten Minahasa Utara, Sulawesi Utara",SULAWESI UTARA,,Indonesia,,,,16.713.488,1.250.602.889,https://maps.google.com/?cid=0x0:0x72de372dfa51ceba,
supermarket,Toko Swalayan,TOKO MUJI,"M3C6+H38, Likupang II, Kec. Likupang Tim., Kabupaten Minahasa Utara, Sulawesi Utara","Kabupaten Minahasa Utara, Sulawesi Utara",SULAWESI UTARA,,Indonesia,,,,16.714.053,1.250.601.986,https://maps.google.com/?cid=0x0:0xd129e3ac82199993,
supermarket,Toko Pakaian,Toko Vinsky,"M3F6+HHW, Likupang II, Kec. Likupang Tim., Kabupaten Minahasa Utara, Sulawesi Utara","Kabupaten Minahasa Utara, Sulawesi Utara",SULAWESI UTARA,,Indonesia,,,,16.739.796,1.250.614.456,https://maps.google.com/?cid=0x0:0x6494a3b779ffc5f2,
supermarket,Toko Bahan Bangunan,Toko Samudera,"M3C6+RF8, Unnamed Road, Tim., Likupang II, Kec. Likupang Tim., Kabupaten Minahasa Utara, Sulawesi Utara","Kabupaten Minahasa Utara, Sulawesi Utara",SULAWESI UTARA,,Indonesia,,,,16.720.264,1.250.611.998,https://maps.google.com/?cid=0x0:0xb91fa7ba64081cff,
supermarket,Kios,Kios Mark,"M376+C5R, Jl. Likupang-Girian, Likupang I, Kec. Likupang Tim., Kabupaten Minahasa Utara, Sulawesi Utara","Kabupaten Minahasa Utara, Sulawesi Utara",SULAWESI UTARA,,Indonesia,,,,16.636.041,1.250.603.839,https://maps.google.com/?cid=0x0:0x9f5150cd8504f3b5,
supermarket,Perhimpunan Pengembang Perumahan,Likupang barat munte,"M2W2+R46, Munte, Kec. Likupang Bar., Kabupaten Minahasa Utara, Sulawesi Utara","Kabupaten Minahasa Utara, Sulawesi Utara",SULAWESI UTARA,,Indonesia,,,,16.970.476,1.250.002.604,https://maps.google.com/?cid=0x0:0x9b3bc029c4de6de3,
supermarket,Minimarket,Toko Bella,"Jl. Raya Likupang, Likupang II, Kec. Likupang Tim., Kabupaten Minahasa Utara, Sulawesi Utara","Kabupaten Minahasa Utara, Sulawesi Utara",SULAWESI UTARA,,Indonesia,082139328093,,,16.705.823,1.250.604.742,https://maps.google.com/?cid=0x0:0x5e541a44913e09f,
supermarket,Minimarket,Indomaret,"Unnamed Road, II, Likupang II, Kec. Likupang Tim., Kabupaten Minahasa Utara, Sulawesi Utara","Kabupaten Minahasa Utara, Sulawesi Utara",SULAWESI UTARA,,Indonesia,085256868835,,,16.710.957,1.250.608.004,https://maps.google.com/?cid=0x0:0xd1a3c1debf90fc99,
supermarket,Area Rekreasi Alam,Kawasan Ekonomi Khusus Likupang,"M5J4+3XH, Pulisan, Kec. Likupang Tim., Kabupaten Minahasa Utara, Sulawesi Utara","Kabupaten Minahasa Utara, Sulawesi Utara",SULAWESI UTARA,,Indonesia,0215359758,,,16.801.855,1.251.574.818,https://maps.google.com/?cid=0x0:0xe96d6bb768da8c59,
supermarket,Bengkel Mobil,MUNTE jaga 1 likupang barat,"M2P5+VJX, Munte, Kec. Likupang Bar., Kabupaten Minahasa Utara, Sulawesi Utara","Kabupaten Minahasa Utara, Sulawesi Utara",SULAWESI UTARA,,Indonesia,,,,1.687.139,125.007.643,https://maps.google.com/?cid=0x0:0xa0e20517f92a43fb,
supermarket,Minimarket,Toko Shine Likupang,"Likupang II, Kec. Likupang Tim., Kabupaten Minahasa Utara, Sulawesi Utara","Kabupaten Minahasa Utara, Sulawesi Utara",SULAWESI UTARA,,Indonesia,04317003033,,,16.718.258,1.250.599.058,https://maps.google.com/?cid=0x0:0x8787e69005b49ed9,
supermarket,Toko Swalayan,Golden Pasar Swalayan,"Ruko Boulevard, Jl. Piere Tendean No.5, Wenang Utara, Kec. Wenang, Kota Manado, Sulawesi Utara","Kota Manado, Sulawesi Utara",SULAWESI UTARA,,Indonesia,,,,14.884.317,1.248.379.329,https://maps.google.com/?cid=0x0:0x2d4fb94562e6ef96,
supermarket,Toko bahan makanan,ELJIREH SHOP,"J2Q8+R8W, Desa Batu Jaga Vl Liksel, Batu, Kec. Likupang Sel., Kabupaten Minahasa Utara, Sulawesi Utara","Kabupaten Minahasa Utara, Sulawesi Utara",SULAWESI UTARA,,Indonesia,,,,16.396.045,1.250.158.342,https://maps.google.com/?cid=0x0:0xa1aba4262b1b9fee,
supermarket,Toko,Tasya-yang Cell,"JW8G+23F, Jaga II, Kampung Baru, Warisa, Kec. Talawaan, Kabupaten Minahasa Utara, Sulawesi Utara","Kabupaten Minahasa Utara, Sulawesi Utara",SULAWESI UTARA,,Indonesia,087810860474,,,16.150.576,124.925.167,https://maps.google.com/?cid=0x0:0x9466cc637cf8e618,
supermarket,supermarket,Warung rohani,"M2V6+3M3, Munte, Kec. Likupang Bar., Kabupaten Minahasa Utara, Sulawesi Utara","Kabupaten Minahasa Utara, Sulawesi Utara",SULAWESI UTARA,,Indonesia,,,,16.926.263,1.250.116.679,https://maps.google.com/?cid=0x0:0x4ef694008bca41ce,
supermarket,supermarket,Rico,"Jl. Sukur - Likupang No.7, Likupang I, Kec. Likupang Tim., Kabupaten Minahasa Utara, Sulawesi Utara","Kabupaten Minahasa Utara, Sulawesi Utara",SULAWESI UTARA,,Indonesia,,,,16.574.298,1.250.626.421,https://maps.google.com/?cid=0x0:0x26a60f0d130c8d63,
supermarket,supermarket,OYO Homes 91148 Homesstay Desa Wisata Bahoi Near Ekowisata Mangrove Desa Bahoi,"Jalan Desa Ekowisata, Bahoi, Likupang Barat, Kabupaten Minahasa Utara, Sulawe Jalan Desa Ekowisata, Bahoi, Likupang Barat, Kabupaten Minahasa Utara, Sulawe, Manado, Sulawesi Utara 95377","Bahoi, Likupang Barat, Kabupaten Minahasa Utara, Sulawe Jalan Desa Ekowisata, Bahoi, Likupang Barat, Kabupaten Minahasa Utara, Sulawe, Manado",SULAWESI UTARA,95377.0,Indonesia,02129707601,,,17.205.147,1.250.193.345,https://maps.google.com/?cid=0x0:0x34da320775a34ed9,
supermarket,supermarket,Pantai Paal,"Kec. Likupang Tim., Kabupaten Minahasa Utara, Sulawesi Utara","Kabupaten Minahasa Utara, Sulawesi Utara",SULAWESI UTARA,,Indonesia,,,,16.515.069,1.251.618.811,https://maps.google.com/?cid=0x0:0xc6fde198deb15181,
supermarket,Toko bahan makanan,Alfamart Tanah Putih,"PX8J+62H, Tanah Putih, Kec. Likupang Bar., Kabupaten Minahasa Utara, Sulawesi Utara","Kabupaten Minahasa Utara, Sulawesi Utara",SULAWESI UTARA,,Indonesia,,,,17.155.741,124.980.119,https://maps.google.com/?cid=0x0:0xcb6ab9ff63395f99,
supermarket,Minimarket,Indomaret Munte,"M2R6+XJF, Unnamed Road, Munte, Kec. Likupang Bar., Kabupaten Minahasa Utara, Sulawesi Utara","Kabupaten Minahasa Utara, Sulawesi Utara",SULAWESI UTARA,,Indonesia,,,,16.924.393,1.250.115.325,https://maps.google.com/?cid=0x0:0x2d39a42f54e83176,
supermarket,Minimarket,Alfamart munte likupang,"Alfamart, Munte, Kec. Likupang Bar., Kabupaten Minahasa Utara, Sulawesi Utara","Kabupaten Minahasa Utara, Sulawesi Utara",SULAWESI UTARA,,Indonesia,081295519912,,,16.923.876,1.250.113.946,https://maps.google.com/?cid=0x0:0xda84aad4ae4567f2,
supermarket,Kios,Kios Eklesia,"Q392+CJG, Gangga Satu, Kec. Likupang Bar., Kabupaten Minahasa Utara, Sulawesi Utara","Kabupaten Minahasa Utara, Sulawesi Utara",SULAWESI UTARA,,Indonesia,081241600044,,,17.685.558,1.250.515.627,https://maps.google.com/?cid=0x0:0x3345b2a3d7049c63,
supermarket,Toko bahan makanan,Toko Vinsky,"Q3C2+6XH, Desa Gangga Satu, jaga III, Pulau Gangga, Kec. Likupang Bar., Kabupaten Minahasa Utara, Sulawesi Utara","Kabupaten Minahasa Utara, Sulawesi Utara",SULAWESI UTARA,,Indonesia,085341918660,,,17.705.712,1.250.524.853,https://maps.google.com/?cid=0x0:0x19b03ebcfe1c619,
supermarket,Kios,Kios Naira,"MX67+2CQ, Palaes, Kec. Likupang Bar., Kabupaten Minahasa Utara, Sulawesi Utara","Kabupaten Minahasa Utara, Sulawesi Utara",SULAWESI UTARA,,Indonesia,,,,16.600.855,1.249.635.976,https://maps.google.com/?cid=0x0:0x1d18d7a514cfb16a,
supermarket,Toko bahan makanan,Kios missyla,"PXPQ+XMX, Tarabitan, Kec. Likupang Bar., Kabupaten Minahasa Utara, Sulawesi Utara","Kabupaten Minahasa Utara, Sulawesi Utara",SULAWESI UTARA,,Indonesia,,,,17.374.822,1.249.892.412,https://maps.google.com/?cid=0x0:0x80ba2ac2b577ae5a,
supermarket,supermarket,Warung hijau Azam  Izam,"M2V6+54P, Munte, Kec. Likupang Bar., Kabupaten Minahasa Utara, Sulawesi Utara","Kabupaten Minahasa Utara, Sulawesi Utara",SULAWESI UTARA,,Indonesia,,,,16.929.517,1.250.103.278,https://maps.google.com/?cid=0x0:0xd3162092446f0afa,
supermarket,Kios,Nanda sadondang,"JXQ6+6P7, Palaes, Kec. Likupang Bar., Kabupaten Minahasa Utara, Sulawesi Utara","Kabupaten Minahasa Utara, Sulawesi Utara",SULAWESI UTARA,,Indonesia,,,,1.638.049,1.249.618.046,https://maps.google.com/?cid=0x0:0xf94353be3dcaa6cc,
supermarket,Minimarket,Warung Intan,"MX4W+29V, Werot, Kec. Likupang Sel., Kabupaten Minahasa Utara, Sulawesi Utara","Kabupaten Minahasa Utara, Sulawesi Utara",SULAWESI UTARA,,Indonesia,082193167816,,,16.551.081,1.249.959.246,https://maps.google.com/?cid=0x0:0x845a5e345c887bcd,
supermarket,supermarket,Kec. Likupang Sel.,"Kabupaten Minahasa Utara, Sulawesi Utara","Kabupaten Minahasa Utara, Sulawesi Utara",SULAWESI UTARA,,Indonesia,,,,16.154.658,1.250.277.057,https://maps.google.com/?cid=0x0:0x1c90d6707d558a25,
supermarket,Pusat Perbelanjaan,Toko Sahabat Baru,"Likupang Dua Jg I, Likupang II, Kec. Likupang Tim., Kabupaten Minahasa Utara, Sulawesi Utara","Kabupaten Minahasa Utara, Sulawesi Utara",SULAWESI UTARA,,Indonesia,,,,16.713.488,1.250.602.889,https://maps.google.com/?cid=0x0:0x72de372dfa51ceba,
supermarket,Toko,Alfamart,"Jl. Sukur - Likupang No.Kel, Likupang II, Kec. Likupang Tim., Kabupaten Minahasa Utara, Sulawesi Utara 95375","Likupang II, Kec. Likupang Tim., Kabupaten Minahasa Utara",SULAWESI UTARA,95375.0,Indonesia,1500959,,,16.705.229,1.250.602.491,https://maps.google.com/?cid=0x0:0xeacff43f5abbfb3c,
supermarket,Toko Pakaian,Toko Vinsky,"M3F6+HHW, Likupang II, Kec. Likupang Tim., Kabupaten Minahasa Utara, Sulawesi Utara","Kabupaten Minahasa Utara, Sulawesi Utara",SULAWESI UTARA,,Indonesia,,,,16.739.796,1.250.614.456,https://maps.google.com/?cid=0x0:0x6494a3b779ffc5f2,
supermarket,Toko Bahan Bangunan,Toko Samudera,"M3C6+RF8, Unnamed Road, Tim., Likupang II, Kec. Likupang Tim., Kabupaten Minahasa Utara, Sulawesi Utara","Kabupaten Minahasa Utara, Sulawesi Utara",SULAWESI UTARA,,Indonesia,,,,16.720.264,1.250.611.998,https://maps.google.com/?cid=0x0:0xb91fa7ba64081cff,
supermarket,Toko bahan makanan,ELJIREH SHOP,"J2Q8+R8W, Desa Batu Jaga Vl Liksel, Batu, Kec. Likupang Sel., Kabupaten Minahasa Utara, Sulawesi Utara","Kabupaten Minahasa Utara, Sulawesi Utara",SULAWESI UTARA,,Indonesia,,,,16.396.045,1.250.158.342,https://maps.google.com/?cid=0x0:0xa1aba4262b1b9fee,
supermarket,Minimarket,Toko Bella,"Jl. Raya Likupang, Likupang II, Kec. Likupang Tim., Kabupaten Minahasa Utara, Sulawesi Utara","Kabupaten Minahasa Utara, Sulawesi Utara",SULAWESI UTARA,,Indonesia,082139328093,,,16.705.823,1.250.604.742,https://maps.google.com/?cid=0x0:0x5e541a44913e09f,
supermarket,Minimarket,Indomaret,"Unnamed Road, II, Likupang II, Kec. Likupang Tim., Kabupaten Minahasa Utara, Sulawesi Utara","Kabupaten Minahasa Utara, Sulawesi Utara",SULAWESI UTARA,,Indonesia,085256868835,,,16.710.957,1.250.608.004,https://maps.google.com/?cid=0x0:0xd1a3c1debf90fc99,
supermarket,Kios,Kios Mark,"M376+C5R, Jl. Likupang-Girian, Likupang I, Kec. Likupang Tim., Kabupaten Minahasa Utara, Sulawesi Utara","Kabupaten Minahasa Utara, Sulawesi Utara",SULAWESI UTARA,,Indonesia,,,,16.636.041,1.250.603.839,https://maps.google.com/?cid=0x0:0x9f5150cd8504f3b5,
supermarket,supermarket,Warong Faithfull,"J2R8+648, Desa Batu Jaga Vl Liksel, Batu, Kec. Likupang Sel., Kabupaten Minahasa Utara, Sulawesi Utara","Kabupaten Minahasa Utara, Sulawesi Utara",SULAWESI UTARA,,Indonesia,081243476963,,,16.405.365,1.250.153.432,https://maps.google.com/?cid=0x0:0x290be2e895025c1,
supermarket,supermarket,Warung rohani,"M2V6+3M3, Munte, Kec. Likupang Bar., Kabupaten Minahasa Utara, Sulawesi Utara","Kabupaten Minahasa Utara, Sulawesi Utara",SULAWESI UTARA,,Indonesia,,,,16.926.263,1.250.116.679,https://maps.google.com/?cid=0x0:0x4ef694008bca41ce,
supermarket,Minimarket,Toko Shine Likupang,"Likupang II, Kec. Likupang Tim., Kabupaten Minahasa Utara, Sulawesi Utara","Kabupaten Minahasa Utara, Sulawesi Utara",SULAWESI UTARA,,Indonesia,04317003033,,,16.718.258,1.250.599.058,https://maps.google.com/?cid=0x0:0x8787e69005b49ed9,
supermarket,Toko,Alfamart,"Jl. Sukur - Likupang No.Kel, Likupang II, Kec. Likupang Tim., Kabupaten Minahasa Utara, Sulawesi Utara 95375","Likupang II, Kec. Likupang Tim., Kabupaten Minahasa Utara",SULAWESI UTARA,95375.0,Indonesia,1500959,,,16.705.229,1.250.602.491,https://maps.google.com/?cid=0x0:0xeacff43f5abbfb3c,
supermarket,supermarket,Kec. Likupang Tim.,"Kabupaten Minahasa Utara, Sulawesi Utara","Kabupaten Minahasa Utara, Sulawesi Utara",SULAWESI UTARA,,Indonesia,,,,16.567.027,1.251.102.134,https://maps.google.com/?cid=0x0:0xfb7b50a78e0c1b1b,
supermarket,Pusat Perbelanjaan,Toko Sahabat Baru,"Likupang Dua Jg I, Likupang II, Kec. Likupang Tim., Kabupaten Minahasa Utara, Sulawesi Utara","Kabupaten Minahasa Utara, Sulawesi Utara",SULAWESI UTARA,,Indonesia,,,,16.713.488,1.250.602.889,https://maps.google.com/?cid=0x0:0x72de372dfa51ceba,
supermarket,Toko Bahan Bangunan,Toko Samudera,"M3C6+RF8, Unnamed Road, Tim., Likupang II, Kec. Likupang Tim., Kabupaten Minahasa Utara, Sulawesi Utara","Kabupaten Minahasa Utara, Sulawesi Utara",SULAWESI UTARA,,Indonesia,,,,16.720.264,1.250.611.998,https://maps.google.com/?cid=0x0:0xb91fa7ba64081cff,
supermarket,Toko Pakaian,Toko Vinsky,"M3F6+HHW, Likupang II, Kec. Likupang Tim., Kabupaten Minahasa Utara, Sulawesi Utara","Kabupaten Minahasa Utara, Sulawesi Utara",SULAWESI UTARA,,Indonesia,,,,16.739.796,1.250.614.456,https://maps.google.com/?cid=0x0:0x6494a3b779ffc5f2,
supermarket,Minimarket,Indomaret,"Unnamed Road, II, Likupang II, Kec. Likupang Tim., Kabupaten Minahasa Utara, Sulawesi Utara","Kabupaten Minahasa Utara, Sulawesi Utara",SULAWESI UTARA,,Indonesia,085256868835,,,16.710.957,1.250.608.004,https://maps.google.com/?cid=0x0:0xd1a3c1debf90fc99,
supermarket,Kios,Kios Mark,"M376+C5R, Jl. Likupang-Girian, Likupang I, Kec. Likupang Tim., Kabupaten Minahasa Utara, Sulawesi Utara","Kabupaten Minahasa Utara, Sulawesi Utara",SULAWESI UTARA,,Indonesia,,,,16.636.041,1.250.603.839,https://maps.google.com/?cid=0x0:0x9f5150cd8504f3b5,
supermarket,Minimarket,Toko Bella,"Jl. Raya Likupang, Likupang II, Kec. Likupang Tim., Kabupaten Minahasa Utara, Sulawesi Utara","Kabupaten Minahasa Utara, Sulawesi Utara",SULAWESI UTARA,,Indonesia,082139328093,,,16.705.823,1.250.604.742,https://maps.google.com/?cid=0x0:0x5e541a44913e09f,
supermarket,Area Rekreasi Alam,Kawasan Ekonomi Khusus Likupang,"M5J4+3XH, Pulisan, Kec. Likupang Tim., Kabupaten Minahasa Utara, Sulawesi Utara","Kabupaten Minahasa Utara, Sulawesi Utara",SULAWESI UTARA,,Indonesia,0215359758,,,16.801.855,1.251.574.818,https://maps.google.com/?cid=0x0:0xe96d6bb768da8c59,
supermarket,Minimarket,Alfamart Likupang Timur,"M386+83G, Likupang I, Kec. Likupang Tim., Kabupaten Minahasa Utara, Sulawesi Utara","Kabupaten Minahasa Utara, Sulawesi Utara",SULAWESI UTARA,,Indonesia,,,,1.665.807,1.250.602.102,https://maps.google.com/?cid=0x0:0x8a9515befdf2d669,
supermarket,Minimarket,Toko Shine Likupang,"Likupang II, Kec. Likupang Tim., Kabupaten Minahasa Utara, Sulawesi Utara","Kabupaten Minahasa Utara, Sulawesi Utara",SULAWESI UTARA,,Indonesia,04317003033,,,16.718.258,1.250.599.058,https://maps.google.com/?cid=0x0:0x8787e69005b49ed9,
supermarket,Kantor Perusahaan,PLTS Likupang,"M35W+GH9, Jl. Likupang-Girian, Wineru, Kec. Likupang Tim., Kabupaten Minahasa Utara, Sulawesi Utara","Kabupaten Minahasa Utara, Sulawesi Utara",SULAWESI UTARA,,Indonesia,,,,16.587.981,1.250.964.794,https://maps.google.com/?cid=0x0:0xd7187fc216beb02f,
supermarket,Toko bahan makanan,ELJIREH SHOP,"J2Q8+R8W, Desa Batu Jaga Vl Liksel, Batu, Kec. Likupang Sel., Kabupaten Minahasa Utara, Sulawesi Utara","Kabupaten Minahasa Utara, Sulawesi Utara",SULAWESI UTARA,,Indonesia,,,,16.396.045,1.250.158.342,https://maps.google.com/?cid=0x0:0xa1aba4262b1b9fee,
supermarket,supermarket,Rico,"Jl. Sukur - Likupang No.7, Likupang I, Kec. Likupang Tim., Kabupaten Minahasa Utara, Sulawesi Utara","Kabupaten Minahasa Utara, Sulawesi Utara",SULAWESI UTARA,,Indonesia,,,,16.574.298,1.250.626.421,https://maps.google.com/?cid=0x0:0x26a60f0d130c8d63,
supermarket,Pusat Perbelanjaan,Pasar Likupang Dua (JN),"M3F6+M8J, Tim., Likupang II, Kec. Likupang Tim., Kabupaten Minahasa Utara, Sulawesi Utara","Kabupaten Minahasa Utara, Sulawesi Utara",SULAWESI UTARA,,Indonesia,081210472740,,,16.742.095,125.060.757,https://maps.google.com/?cid=0x0:0x8273c77a322c461d,
supermarket,Toko,Kios Rendani,"Belakang Alfamnart, Likupang II Jaga 1, Likupang Timur, Likupang II, Kec. Likupang Tim., Kabupaten Minahasa Utara, Sulawesi Utara","Kabupaten Minahasa Utara, Sulawesi Utara",SULAWESI UTARA,,Indonesia,089507528870,,,16.708.409,1.250.599.288,https://maps.google.com/?cid=0x0:0x53b4264febb19e4e,
supermarket,Kios,Kios Zandra,"M348+Q4C, Jl. Likupang-Girian, Likupang I, Kec. Likupang Tim., Kabupaten Minahasa Utara, Sulawesi Utara","Kabupaten Minahasa Utara, Sulawesi Utara",SULAWESI UTARA,,Indonesia,,,,16.569.483,1.250.652.656,https://maps.google.com/?cid=0x0:0x5bb423f5adaf2f74,
supermarket,Minimarket,Indomaret Munte,"M2R6+XJF, Unnamed Road, Munte, Kec. Likupang Bar., Kabupaten Minahasa Utara, Sulawesi Utara","Kabupaten Minahasa Utara, Sulawesi Utara",SULAWESI UTARA,,Indonesia,,,,16.924.393,1.250.115.325,https://maps.google.com/?cid=0x0:0x2d39a42f54e83176,
supermarket,Toko bahan makanan,Kios Yudha,"Likupang II, Kec. Likupang Tim., Kabupaten Minahasa Utara, Sulawesi Utara","Kabupaten Minahasa Utara, Sulawesi Utara",SULAWESI UTARA,,Indonesia,,,,16.699.575,1.250.602.368,https://maps.google.com/?cid=0x0:0x13cded5d7e85ab63,
supermarket,Sesuai untuk keluarga,Kios Dave,"Marinsow, Kec. Likupang Tim., Kabupaten Minahasa Utara, Sulawesi Utara","Kabupaten Minahasa Utara, Sulawesi Utara",SULAWESI UTARA,,Indonesia,081244124413,,,16.527.707,1.251.408.495,https://maps.google.com/?cid=0x0:0x10c73ee20a7e0919,
supermarket,Toko Swalayan,Delpdng,"M454+VF6, Wineru, Kec. Likupang Tim., Kabupaten Minahasa Utara, Sulawesi Utara","Kabupaten Minahasa Utara, Sulawesi Utara",SULAWESI UTARA,,Indonesia,,,,16.596.626,1.251.061.393,https://maps.google.com/?cid=0x0:0xac308502c5d9ae40,
supermarket,Toko bahan makanan,Kios Vitha,"TK Al-furqon, Desa Likupang 2 Jaga 5 Dekat, Likupang II, Kec. Likupang Tim., Kabupaten Minahasa Utara, Sulawesi Utara","Kabupaten Minahasa Utara, Sulawesi Utara",SULAWESI UTARA,,Indonesia,082191489394,,,16.736.809,1.250.600.575,https://maps.google.com/?cid=0x0:0xb66c6635fc6a7525,
supermarket,Minimarket,Alfamart munte likupang,"Alfamart, Munte, Kec. Likupang Bar., Kabupaten Minahasa Utara, Sulawesi Utara","Kabupaten Minahasa Utara, Sulawesi Utara",SULAWESI UTARA,,Indonesia,081295519912,,,16.923.876,1.250.113.946,https://maps.google.com/?cid=0x0:0xda84aad4ae4567f2,
supermarket,supermarket,Kios Rinaldy,"J44H+Q8G, Jl. Likupang-Girian, Pinasungkulan, Kec. Likupang Tim., Kota Bitung, Sulawesi Utara","Kota Bitung, Sulawesi Utara",SULAWESI UTARA,,Indonesia,,,,1.607.376,125.128.957,https://maps.google.com/?cid=0x0:0xc499b2dec53f8cf1,
supermarket,Minimarket,Waroeng Junior,"J4W3+9VP, jg 5, Winuri, Kec. Likupang Tim., Kabupaten Minahasa Utara, Sulawesi Utara","Kabupaten Minahasa Utara, Sulawesi Utara",SULAWESI UTARA,,Indonesia,,,,1.645.951,1.251.047.104,https://maps.google.com/?cid=0x0:0x7668aab3a24e4afe,
supermarket,supermarket,Home mey pusung,"M344+848, Likupang I, Kec. Likupang Tim., Kabupaten Minahasa Utara, Sulawesi Utara","Kabupaten Minahasa Utara, Sulawesi Utara",SULAWESI UTARA,,Indonesia,,,,16.557.763,125.055.335,https://maps.google.com/?cid=0x0:0xc9ecf1cb4715e8d7,
supermarket,Toko Bahan Bangunan,Mini Market Dembet Jaya Talawaan,"GXH4+5PG, Talawaan, Kec. Talawaan, Kabupaten Minahasa Utara, Sulawesi Utara","Kabupaten Minahasa Utara, Sulawesi Utara",SULAWESI UTARA,,Indonesia,0431817591,,,1.527.931,124.956.838,https://maps.google.com/?cid=0x0:0xb9c81453db77b644,
supermarket,supermarket,Sulawesi Utara 95373,"Paniki Atas, Kec. Talawaan, Kabupaten Minahasa Utara, Sulawesi Utara","Kabupaten Minahasa Utara, Sulawesi Utara",SULAWESI UTARA,,Indonesia,,,,14.974.733,1.249.238.636,https://maps.google.com/?cid=0x0:0x3a1e3c0a99b6788f,
supermarket,Minimarket,Indomaret Paniki Talawaan,"FWVC+9P7, Jl. Raya Paniki Atas, Paniki Atas, Kec. Talawaan, Kabupaten Minahasa Utara, Sulawesi Utara","Kabupaten Minahasa Utara, Sulawesi Utara",SULAWESI UTARA,,Indonesia,1500280,,,14.934.075,1.249.218.047,https://maps.google.com/?cid=0x0:0x76999cac45dae33f,
supermarket,Toko Swalayan,ALFA MART,"Jl. Raya Kolongan, Kolongan, Kec. Talawaan, Kabupaten Minahasa Utara, Sulawesi Utara 95378","Kolongan, Kec. Talawaan, Kabupaten Minahasa Utara",SULAWESI UTARA,95378.0,Indonesia,1500959,,,15.286.517,1.249.453.852,https://maps.google.com/?cid=0x0:0x762f6ec317b684c6,
supermarket,Toko Swalayan,Golden Pasar Swalayan,"Ruko Boulevard, Jl. Piere Tendean No.5, Wenang Utara, Kec. Wenang, Kota Manado, Sulawesi Utara","Kota Manado, Sulawesi Utara",SULAWESI UTARA,,Indonesia,,,,14.884.317,1.248.379.329,https://maps.google.com/?cid=0x0:0x2d4fb94562e6ef96,
supermarket,Toko Swalayan,Alfamart,"Jl. Kolongan Mapanget, Jaga Vii, Kolongan, Kec. Talawaan, Kabupaten Minahasa Utara, Sulawesi Utara 95378","Jaga Vii, Kolongan, Kec. Talawaan, Kabupaten Minahasa Utara",SULAWESI UTARA,95378.0,Indonesia,1500959,,,15.261.168,1.249.555.264,https://maps.google.com/?cid=0x0:0x8e65a8f22d014fb9,
supermarket,Toko Bahan Bangunan,DeDo Supermarket,"Jl. Raya Manado - Bitung, Maumbi, Kec. Kalawat, Kabupaten Minahasa Utara, Sulawesi Utara","Kabupaten Minahasa Utara, Sulawesi Utara",SULAWESI UTARA,,Indonesia,082363111170,,,14.783.792,1.249.086.253,https://maps.google.com/?cid=0x0:0x2d4a0393891ebb97,
supermarket,Toko Swalayan,Jumbo Pasar Swalayan  Restaurant Manado,"Jl. Suprapto No.1, Pinaesaan, Kec. Wenang, Kota Manado, Sulawesi Utara 95122","Pinaesaan, Kec. Wenang, Kota Manado",SULAWESI UTARA,95122.0,Indonesia,,,,14.927.865,1.248.393.618,https://maps.google.com/?cid=0x0:0x2121652adb7d61d0,
supermarket,Pusat Perbelanjaan,Trufarm Airmadidi,"CXFM+2WH, Jl. Raya Manado - Bitung, Airmadidi Atas, Kec. Airmadidi, Kabupaten Minahasa Utara, Sulawesi Utara","Kabupaten Minahasa Utara, Sulawesi Utara",SULAWESI UTARA,,Indonesia,,,,14.225.176,1.249.851.432,https://maps.google.com/?cid=0x0:0xcd9867b062db26a5,
supermarket,Toko,Dapur Mimiko,"perumahan villa mutiara blok B01-21, Paniki Atas, Kec. Talawaan, Kabupaten Minahasa Utara, Sulawesi Utara","Kabupaten Minahasa Utara, Sulawesi Utara",SULAWESI UTARA,,Indonesia,085240344898,,,14.965.379,1.249.241.623,https://maps.google.com/?cid=0x0:0x717d5c5d1b40188a,
supermarket,Toko bahan makanan,Indomaret Paniki Atas,"GW29+CGV, Paniki Atas, Kec. Talawaan, Kabupaten Minahasa Utara, Sulawesi Utara","Kabupaten Minahasa Utara, Sulawesi Utara",SULAWESI UTARA,,Indonesia,,,,15.011.025,1.249.188.021,https://maps.google.com/?cid=0x0:0xad3e96b9e4226d6e,
supermarket,Toko bahan makanan,Minimarket Leticia,"GXM6+J6X, Talawaan, Kec. Talawaan, Kabupaten Minahasa Utara, Sulawesi Utara","Kabupaten Minahasa Utara, Sulawesi Utara",SULAWESI UTARA,,Indonesia,085212213979,,,1.533.847,124.960.126,https://maps.google.com/?cid=0x0:0x6eb14cdcf5f06b06,
supermarket,Minimarket,Alfamart Wori,"HVX6+P43 Gazza, jalur, Wori, North Minahasa Regency, North Sulawesi","Kabupaten Minahasa Utara, Sulawesi Utara",SULAWESI UTARA,,Indonesia,,,,159.927,1.248.603.012,https://maps.google.com/?cid=0x0:0x9837e059348e9f29,
supermarket,Toko,Indomaret raya manado wori,"JVFW+46R, Budo, Wori, Kabupaten Minahasa Utara, Sulawesi Utara","Kabupaten Minahasa Utara, Sulawesi Utara",SULAWESI UTARA,,Indonesia,,,,16.228.606,1.248.955.195,https://maps.google.com/?cid=0x0:0xfc92d51fff7f60fc,
supermarket,Minimarket,Alfamart Raya Wori,"HVW4+928, Wori, Kabupaten Minahasa Utara, Sulawesi Utara","Kabupaten Minahasa Utara, Sulawesi Utara",SULAWESI UTARA,,Indonesia,,,,15.959.155,124.855.088,https://maps.google.com/?cid=0x0:0x1fed245581da7496,
supermarket,Toko Swalayan,Golden Pasar Swalayan,"Ruko Boulevard, Jl. Piere Tendean No.5, Wenang Utara, Kec. Wenang, Kota Manado, Sulawesi Utara","Kota Manado, Sulawesi Utara",SULAWESI UTARA,,Indonesia,,,,14.884.317,1.248.379.329,https://maps.google.com/?cid=0x0:0x2d4fb94562e6ef96,
supermarket,Toko umum,TOKO MEILLY,"Dermaga, Tiwoho, Wori, Kabupaten Minahasa Utara, Sulawesi Utara","Kabupaten Minahasa Utara, Sulawesi Utara",SULAWESI UTARA,,Indonesia,082378893818,,,15.931.502,1.248.383.893,https://maps.google.com/?cid=0x0:0x46134feb74b77c75,
supermarket,supermarket,Wori,"Kabupaten Minahasa Utara, Sulawesi Utara","Kabupaten Minahasa Utara, Sulawesi Utara",SULAWESI UTARA,,Indonesia,,,,15.986.509,1.248.599.034,https://maps.google.com/?cid=0x0:0x1e44c8cf84925b11,
supermarket,Toko bahan makanan,Ading mart,"JV2C+748, Unnamed Road, Minaesa, Wori, Kabupaten Minahasa Utara, Sulawesi Utara","Kabupaten Minahasa Utara, Sulawesi Utara",SULAWESI UTARA,,Indonesia,,,,16.006.695,1.248.703.383,https://maps.google.com/?cid=0x0:0xab533ad6224be1d5,
supermarket,Toko bahan makanan,Warung Chusnul,"JV8F+8HR, Jaga IX, Minaesa, Wori, Kabupaten Minahasa Utara, Sulawesi Utara","Kabupaten Minahasa Utara, Sulawesi Utara",SULAWESI UTARA,,Indonesia,085256415978,,,16.158.656,1.248.738.922,https://maps.google.com/?cid=0x0:0xd98b2758fe546caf,
supermarket,Minimarket,Alfamart Pandu,"HV8F+QHJ, Jl. Raya Manado - Wori, Pandu, Kec. Bunaken, Kota Manado, Sulawesi Utara 95249","Jl. Raya Manado - Wori, Pandu, Kec. Bunaken, Kota Manado",SULAWESI UTARA,95249.0,Indonesia,1500959,,,1.566.771,1.248.744.539,https://maps.google.com/?cid=0x0:0xd32eac107d3a04e,
supermarket,Toko,Indomaret Pandu,"HV8F+XQ8, Jl. Wori Kel Pandu, Pandu, Wori, Kabupaten Minahasa Utara, Sulawesi Utara","Kabupaten Minahasa Utara, Sulawesi Utara",SULAWESI UTARA,,Indonesia,,,,15.674.027,1.248.744.474,https://maps.google.com/?cid=0x0:0x91065aee9c12a55b,
supermarket,Kios,Kios selvi,"HVVG+PMH, Talawaan Bantik, Wori, Kabupaten Minahasa Utara, Sulawesi Utara","Kabupaten Minahasa Utara, Sulawesi Utara",SULAWESI UTARA,,Indonesia,,,,15.943.158,1.248.767.326,https://maps.google.com/?cid=0x0:0xc2ab46cf78606aab,
supermarket,Kios,Kios Villa,"HRRQ+H2C, Tiwoho, Wori, Kabupaten Minahasa Utara, Sulawesi Utara","Kabupaten Minahasa Utara, Sulawesi Utara",SULAWESI UTARA,,Indonesia,,,,15.914.345,1.248.375.189,https://maps.google.com/?cid=0x0:0x50334088988cec6c,
supermarket,Toko bahan makanan,warung Nikita,"HVH9+2G5, Wori, Kabupaten Minahasa Utara, Sulawesi Utara","Kabupaten Minahasa Utara, Sulawesi Utara",SULAWESI UTARA,,Indonesia,0895632866791,,,15.775.018,1.248.688.683,https://maps.google.com/?cid=0x0:0x7be9d81a9842fdd6,
supermarket,Toko Swalayan,Toko Hj Zenap Ali,"JV7C+W8J, Minaesa, Wori, Kabupaten Minahasa Utara, Sulawesi Utara","Kabupaten Minahasa Utara, Sulawesi Utara",SULAWESI UTARA,,Indonesia,081355629263,,,16.148.414,1.248.707.674,https://maps.google.com/?cid=0x0:0xdcfce0c7a353fb58,
supermarket,Toko umum,Toko Sembako Merry Mulia,"Jl. Likupang, Kima Bajo, Wori, Kabupaten Minahasa Utara, Sulawesi Utara 95376","Kima Bajo, Wori, Kabupaten Minahasa Utara",SULAWESI UTARA,95376.0,Indonesia,082143008028,,,15.910.189,1.248.775.179,https://maps.google.com/?cid=0x0:0x820874b2e78aff31,
supermarket,Toko Perlengkapan Rumah,Kios Alvarez,"HRRR+44H, Tiwoho, Wori, Kabupaten Minahasa Utara, Sulawesi Utara","Kabupaten Minahasa Utara, Sulawesi Utara",SULAWESI UTARA,,Indonesia,,,,15.903.202,124.840.375,https://maps.google.com/?cid=0x0:0x312c9ec191ab607b,
supermarket,Minimarket,Alfarizqi,"HV8F+4WC, Jl. Raya Manado - Wori, Pandu, Kec. Bunaken, Kota Manado, Sulawesi Utara 95249","Jl. Raya Manado - Wori, Pandu, Kec. Bunaken, Kota Manado",SULAWESI UTARA,95249.0,Indonesia,082290151564,,,15.653.116,1.248.747.538,https://maps.google.com/?cid=0x0:0x451cb9554d6d7192,
supermarket,Toko bahan makanan,Warung andini,"JV2C+828, Minaesa, Wori, Kabupaten Minahasa Utara, Sulawesi Utara","Kabupaten Minahasa Utara, Sulawesi Utara",SULAWESI UTARA,,Indonesia,082194962225,,,16.007.909,1.248.700.762,https://maps.google.com/?cid=0x0:0x1e2c9c95558fdb4,
supermarket,Toko bahan makanan,Warung tity,"Unnamed Road, Minaesa, Wori, Kabupaten Minahasa Utara, Sulawesi Utara","Kabupaten Minahasa Utara, Sulawesi Utara",SULAWESI UTARA,,Indonesia,082293084250,,,16.161.905,1.248.716.071,https://maps.google.com/?cid=0x0:0xcc699a6bdf250acf,
supermarket,Toko Swalayan,Warunk ciacio,"HV9G+RM3, Pandu, Kec. Mapanget, Kota Manado, Sulawesi Utara","Kota Manado, Sulawesi Utara",SULAWESI UTARA,,Indonesia,0817210517,,,15.695.015,1.248.766.679,https://maps.google.com/?cid=0x0:0x76588c21a8775f7d,
supermarket,supermarket,Geo yohanis,"HVH8+34J, Wori, Kabupaten Minahasa Utara, Sulawesi Utara","Kabupaten Minahasa Utara, Sulawesi Utara",SULAWESI UTARA,,Indonesia,,,,15.777.486,1.248.652.092,https://maps.google.com/?cid=0x0:0xfb925265fc29,
supermarket,Toko bahan makanan,New Indian Supermarket,"3250 N Tracy Blvd, Tracy, CA 95376, Amerika Serikat","Tracy, CA",SULAWESI UTARA,95376.0,Indonesia,12092372939,,,377.598.754,-1.214.334.363,https://maps.google.com/?cid=0x0:0x9f3bf5a5c944fd7e,
supermarket,Toko bahan makanan,Indian Grocery Store Tracy Spice and Sweets,"1401 W 11th St B, Tracy, CA 95376, Amerika Serikat","Tracy, CA",SULAWESI UTARA,95376.0,Indonesia,12098321103,,,37.740.314,-1.214.426.307,https://maps.google.com/?cid=0x0:0x9ebd76c7f8ee3e64,
supermarket,Toko bahan makanan,Indian grocery store Punjabi bazaar,"450 E 11th St, Tracy, CA 95376, Amerika Serikat","Tracy, CA",SULAWESI UTARA,95376.0,Indonesia,12098337180,,,377.395.726,-1.214.179.857,https://maps.google.com/?cid=0x0:0x6f87c1150d328981,
supermarket,Pusat Perbelanjaan,Valley SHOPPING Center,"3262 N Tracy Blvd, Tracy, CA 95376, Amerika Serikat","Tracy, CA",SULAWESI UTARA,95376.0,Indonesia,,,,377.605.342,-1.214.340.376,https://maps.google.com/?cid=0x0:0xd0868f71abb98e08,
supermarket,Toko Kelontong India,Indian Spices Inc.,"2242 Grant Line Rd #107, Tracy, CA 95377, Amerika Serikat","Tracy, CA",SULAWESI UTARA,95377.0,Indonesia,12098324141,,,377.533.734,-1.214.583.629,https://maps.google.com/?cid=0x0:0x336f4418bd71452a,
