ï»¿Category,Real Category,Business Name,Address,City,State,Postal Code,Country,Phone,Email,Website,Latitude,Longitude,Map Link,Details Link,Category
,mall,Kec. Amurang,"Kabupaten Minahasa Selatan, Sulawesi Utara","Kabupaten Minahasa Selatan, Sulawesi Utara",SULAWESI UTARA,,Indonesia,,,,11.846.911,124.575.545,https://maps.google.com/?cid=0x0:0xc0ecc4637a3a0d02,,mall
,Toko,VOLTUS AMURANG,"5HMF+RFR, Jalan, Uwuran Satu, Amurang, South Minahasa Regency, North Sulawesi","Kabupaten Minahasa Selatan, Sulawesi Utara",SULAWESI UTARA,,Indonesia,4302429175.0,,,11.846.028,1.245.736.455,https://maps.google.com/?cid=0x0:0x57de7ad4287bc9d9,,mall
,Toko Perlengkapan Rumah,Toko MK Houseware Amurang,"5HJ9+P85, Buyungon, Kec. Amurang, Kabupaten Minahasa Selatan, Sulawesi Utara","Kabupaten Minahasa Selatan, Sulawesi Utara",SULAWESI UTARA,,Indonesia,8114342288.0,,,11.817.873,1.245.684.345,https://maps.google.com/?cid=0x0:0x6c6d08f8d8454cd6,,mall
,Pasar Grosir Sayur,Pasar Ikan Amurang,"5HMF+RFR, Jalan Pasar No.15, Ranoyapo, Amurang, Jalan, Uwuran Satu, Kec. Amurang, Kabupaten Minahasa Selatan, Sulawesi Utara","Kabupaten Minahasa Selatan, Sulawesi Utara",SULAWESI UTARA,,Indonesia,,,,11.856.506,1.245.724.531,https://maps.google.com/?cid=0x0:0x85cba4ebc83764eb,,mall
,Toko Akuarium,Amurang Reptile,"5HPF+4WW, Jl. Sindulang, Uwuran Satu, Kec. Amurang, Kabupaten Minahasa Selatan, Sulawesi Utara","Kabupaten Minahasa Selatan, Sulawesi Utara",SULAWESI UTARA,,Indonesia,81344909460.0,,,11.853.516,1.245.748.232,https://maps.google.com/?cid=0x0:0x8f77a73845a93978,,mall
,Bank,UNIVERSITAS MANDIRI AMURANG,"5HMF+XHF, Uwuran Satu, Kec. Amurang, Kabupaten Minahasa Selatan, Sulawesi Utara","Kabupaten Minahasa Selatan, Sulawesi Utara",SULAWESI UTARA,,Indonesia,81342294470.0,,,11.849.393,1.245.739.265,https://maps.google.com/?cid=0x0:0xeb882a187bf0a41d,,mall
,Minimarket,Sakura Mart,"Jl. Pasar No.15, Buyungon, Kec. Amurang, Kabupaten Minahasa Selatan, Sulawesi Utara","Kabupaten Minahasa Selatan, Sulawesi Utara",SULAWESI UTARA,,Indonesia,,,,11.834.614,1.245.718.686,https://maps.google.com/?cid=0x0:0x478febc656de2698,,mall
,Pusat Perbelanjaan,Triple'A,"4HVM+QMJ, Buyungon, Kec. Amurang, Kabupaten Minahasa Selatan, Sulawesi Utara","Kabupaten Minahasa Selatan, Sulawesi Utara",SULAWESI UTARA,,Indonesia,,,,11.444.691,1.245.841.365,https://maps.google.com/?cid=0x0:0x4d58aea9e0726f3f,,mall
,Kantor Perusahaan,KAWASAN HIMALAYA AMURANG,"6JH6+HPM, Lopana, Kec. Amurang Tim., Kabupaten Minahasa Selatan, Sulawesi Utara","Kabupaten Minahasa Selatan, Sulawesi Utara",SULAWESI UTARA,,Indonesia,8114800155.0,,,12.289.736,1.246.117.917,https://maps.google.com/?cid=0x0:0x77b97ee81ce56216,,mall
,Toko,Ikha_Shop Amurang,"5HJ8+5HQ, Jl. Trans Sulawesi, Buyungon, Kec. Amurang, Kabupaten Minahasa Selatan, Sulawesi Utara","Kabupaten Minahasa Selatan, Sulawesi Utara",SULAWESI UTARA,,Indonesia,85340166082.0,,,11.804.733,1.245.664.791,https://maps.google.com/?cid=0x0:0x2366de577c66e3c7,,mall
,Toko Ponsel,Parafone Amurang,"Uwuran Satu, Kec. Amurang, Kabupaten Minahasa Selatan, Sulawesi Utara","Kabupaten Minahasa Selatan, Sulawesi Utara",SULAWESI UTARA,,Indonesia,,,,11.834.153,1.245.726.427,https://maps.google.com/?cid=0x0:0xb6afca104e4db09e,,mall
,Toko bahan makanan,Frama Cell  Travel,"5HJJ+HHW, Uwuran Dua, Kec. Amurang, Kabupaten Minahasa Selatan, Sulawesi Utara","Kabupaten Minahasa Selatan, Sulawesi Utara",SULAWESI UTARA,,Indonesia,81344325352.0,,,11.814.946,1.245.814.614,https://maps.google.com/?cid=0x0:0x79259435aed5c57c,,mall
,Pusat Perbelanjaan,Meivy-DISTRIBUTOR KK INDONESIA-PONDANG,"6H4R+5M6, Pondang, Kec. Amurang Tim., Kabupaten Minahasa Selatan, Sulawesi Utara","Kabupaten Minahasa Selatan, Sulawesi Utara",SULAWESI UTARA,,Indonesia,81244317455.0,,,12.054.047,1.245.916.425,https://maps.google.com/?cid=0x0:0x54379b79de580e6f,,mall
,Toko,AnekaPlastik Amurang Cab. Lewet,"5HMH+R88, Lewet, Kec. Amurang, Kabupaten Minahasa Selatan, Sulawesi Utara","Kabupaten Minahasa Selatan, Sulawesi Utara",SULAWESI UTARA,,Indonesia,85242566723.0,,,11.845.386,1.245.783.228,https://maps.google.com/?cid=0x0:0x112351c2c10b7c72,,mall
,Komplek perumahan,Pepah lombok,"6H3V+C5M, Pondang, Kec. Amurang Tim., Kabupaten Minahasa Selatan, Sulawesi Utara","Kabupaten Minahasa Selatan, Sulawesi Utara",SULAWESI UTARA,,Indonesia,,,,12.035.937,1.245.929.338,https://maps.google.com/?cid=0x0:0xb96afc5c69674622,,mall
,Taman,Taman Amurang,"Jl. Pasar No.15, Uwuran Satu, Kec. Amurang, Kabupaten Minahasa Selatan, Sulawesi Utara","Kabupaten Minahasa Selatan, Sulawesi Utara",SULAWESI UTARA,,Indonesia,,,,11.844.827,1.245.725.748,https://maps.google.com/?cid=0x0:0xf00169f8d3048038,,mall
,Seniman Balon,balon gas amurang,"Uwuran Dua, Kec. Amurang, Kabupaten Minahasa Selatan, Sulawesi Utara","Kabupaten Minahasa Selatan, Sulawesi Utara",SULAWESI UTARA,,Indonesia,82346497448.0,,,11.851.642,1.245.758.062,https://maps.google.com/?cid=0x0:0xed4a178fb29a30c8,,mall
,Pusat Perbelanjaan,Counter SHANIA SELULAR,"Jalan Pasar Ranoiapo Kompleks Pertokoan Pasar 54, Ranoyapo, Kec. Amurang, Kabupaten Minahasa Selatan, Sulawesi Utara","Kabupaten Minahasa Selatan, Sulawesi Utara",SULAWESI UTARA,,Indonesia,85340509999.0,,,11.845.295,1.245.717.771,https://maps.google.com/?cid=0x0:0xda3f3bf3611a5ece,,mall
,Kios,Sanjaya cutting sticker amurang,"5HPG+387, Uwuran Satu, Kec. Amurang, Kabupaten Minahasa Selatan, Sulawesi Utara","Kabupaten Minahasa Selatan, Sulawesi Utara",SULAWESI UTARA,,Indonesia,85813888884.0,,,11.849.949,1.245.757.117,https://maps.google.com/?cid=0x0:0xb94058ec05a63149,,mall
,Toko Akuarium,ABG PET SHOP AMURANG,"5HWP+5FF, Jl. Trans Sulawesi, Ranomea, Kec. Amurang Tim., Kabupaten Minahasa Selatan, Sulawesi Utara","Kabupaten Minahasa Selatan, Sulawesi Utara",SULAWESI UTARA,,Indonesia,8114301107.0,,,11.954.258,1.245.861.638,https://maps.google.com/?cid=0x0:0xe5032e0ea4793495,,mall
,Toko bahan makanan,Warung Anugerah AEA Tumbelaka,"5HJJ+3VF, Jl. Amurang-Ratahan, Uwuran Dua, Kec. Amurang, Kabupaten Minahasa Selatan, Sulawesi Utara","Kabupaten Minahasa Selatan, Sulawesi Utara",SULAWESI UTARA,,Indonesia,895801371169.0,,,11.801.918,1.245.821.849,https://maps.google.com/?cid=0x0:0x4fd6097e003f61ed,,mall
,Toko,Ikan Hias Amurang (Gold Fish),"5HMF+FGM, Jl. Trans Sulawesi, Uwuran Satu, Kec. Amurang, Kabupaten Minahasa Selatan, Sulawesi Utara","Kabupaten Minahasa Selatan, Sulawesi Utara",SULAWESI UTARA,,Indonesia,81354345673.0,,,11.836.326,1.245.736.739,https://maps.google.com/?cid=0x0:0x43e2a3a9fbf99ac,,mall
,mall,Kec. Amurang Bar.,"Kabupaten Minahasa Selatan, Sulawesi Utara","Kabupaten Minahasa Selatan, Sulawesi Utara",SULAWESI UTARA,,Indonesia,,,,11.867.785,1.245.164.503,https://maps.google.com/?cid=0x0:0x96cf76748db66f92,,mall
,Toko,VOLTUS AMURANG,"5HMF+RFR, Jalan, Uwuran Satu, Amurang, South Minahasa Regency, North Sulawesi","Kabupaten Minahasa Selatan, Sulawesi Utara",SULAWESI UTARA,,Indonesia,4302429175.0,,,11.846.028,1.245.736.455,https://maps.google.com/?cid=0x0:0x57de7ad4287bc9d9,,mall
,Toko Perlengkapan Rumah,Toko MK Houseware Amurang,"5HJ9+P85, Buyungon, Kec. Amurang, Kabupaten Minahasa Selatan, Sulawesi Utara","Kabupaten Minahasa Selatan, Sulawesi Utara",SULAWESI UTARA,,Indonesia,8114342288.0,,,11.817.873,1.245.684.345,https://maps.google.com/?cid=0x0:0x6c6d08f8d8454cd6,,mall
,Kios,Markas,"Jl aer skolah jaga 4, Kec. Amurang Bar.","Kabupaten Minahasa Selatan, Sulawesi Utara",SULAWESI UTARA,,Indonesia,,,,11.867.075,1.245.164.741,https://maps.google.com/?cid=0x0:0xadf4c7ccf8c630fc,,mall
,Pasar Grosir Sayur,Pasar Ikan Amurang,"5HMF+RFR, Jalan Pasar No.15, Ranoyapo, Amurang, Jalan, Uwuran Satu, Kec. Amurang, Kabupaten Minahasa Selatan, Sulawesi Utara","Kabupaten Minahasa Selatan, Sulawesi Utara",SULAWESI UTARA,,Indonesia,,,,11.856.506,1.245.724.531,https://maps.google.com/?cid=0x0:0x85cba4ebc83764eb,,mall
,Pusat Perbelanjaan,Syela Allshop,"4GQ8+987, Tewasen, Kec. Amurang Bar., Kabupaten Minahasa Selatan, Sulawesi Utara","Kabupaten Minahasa Selatan, Sulawesi Utara",SULAWESI UTARA,,Indonesia,,,,11.384.051,1.245.157.909,https://maps.google.com/?cid=0x0:0xdcdf217feb003ce6,,mall
,Pusat Perbelanjaan,Charla Sumual Allshop,"4GQ8+C6F, Tewasen, Kec. Amurang Bar., Kabupaten Minahasa Selatan, Sulawesi Utara","Kabupaten Minahasa Selatan, Sulawesi Utara",SULAWESI UTARA,,Indonesia,82290147022.0,,,1.138.561,1.245.155.588,https://maps.google.com/?cid=0x0:0xc6ac4004ebae1aa5,,mall
,Bank,UNIVERSITAS MANDIRI AMURANG,"5HMF+XHF, Uwuran Satu, Kec. Amurang, Kabupaten Minahasa Selatan, Sulawesi Utara","Kabupaten Minahasa Selatan, Sulawesi Utara",SULAWESI UTARA,,Indonesia,81342294470.0,,,11.849.393,1.245.739.265,https://maps.google.com/?cid=0x0:0xeb882a187bf0a41d,,mall
,Pusat Perbelanjaan,Triple'A,"4HVM+QMJ, Buyungon, Kec. Amurang, Kabupaten Minahasa Selatan, Sulawesi Utara","Kabupaten Minahasa Selatan, Sulawesi Utara",SULAWESI UTARA,,Indonesia,,,,11.444.691,1.245.841.365,https://maps.google.com/?cid=0x0:0x4d58aea9e0726f3f,,mall
,Toko,Ikha_Shop Amurang,"5HJ8+5HQ, Jl. Trans Sulawesi, Buyungon, Kec. Amurang, Kabupaten Minahasa Selatan, Sulawesi Utara","Kabupaten Minahasa Selatan, Sulawesi Utara",SULAWESI UTARA,,Indonesia,85340166082.0,,,11.804.733,1.245.664.791,https://maps.google.com/?cid=0x0:0x2366de577c66e3c7,,mall
,Toko Akuarium,Amurang Reptile,"5HPF+4WW, Jl. Sindulang, Uwuran Satu, Kec. Amurang, Kabupaten Minahasa Selatan, Sulawesi Utara","Kabupaten Minahasa Selatan, Sulawesi Utara",SULAWESI UTARA,,Indonesia,81344909460.0,,,11.853.516,1.245.748.232,https://maps.google.com/?cid=0x0:0x8f77a73845a93978,,mall
,Minimarket,Sakura Mart,"Jl. Pasar No.15, Buyungon, Kec. Amurang, Kabupaten Minahasa Selatan, Sulawesi Utara","Kabupaten Minahasa Selatan, Sulawesi Utara",SULAWESI UTARA,,Indonesia,,,,11.834.614,1.245.718.686,https://maps.google.com/?cid=0x0:0x478febc656de2698,,mall
,Toko,Kios Cakalang Gepe Om Anto,"5GRF+4M2, Jl. Trans Sulawesi, Kawangkoan Bawah, Kec. Amurang Bar., Kabupaten Minahasa Selatan, Sulawesi Utara","Kabupaten Minahasa Selatan, Sulawesi Utara",SULAWESI UTARA,,Indonesia,81355883113.0,,,11.902.651,1.245.241.323,https://maps.google.com/?cid=0x0:0x5ac4a0cf201c4582,,mall
,Toko umum,"Sendhy Shop Kosmetik Amurang""""","5HW2+WMJ, Jl. Trans Sulawesi, Kawangkoan Bawah, Kec. Amurang Bar., Kabupaten Minahasa Selatan, Sulawesi Utara","Kabupaten Minahasa Selatan, Sulawesi Utara",SULAWESI UTARA,,Indonesia,82347304751.0,,,11.973.423,1.245.516.329,https://maps.google.com/?cid=0x0:0x6987d56eed125ef4,,mall
,Pusat Perbelanjaan,BLACKPRINT,"5GQ9+PWM, Unnamed Road, Kapitu, Kec. Amurang Bar., Kabupaten Minahasa Selatan, Sulawesi Utara","Kabupaten Minahasa Selatan, Sulawesi Utara",SULAWESI UTARA,,Indonesia,82290652609.0,,,11.893.448,1.245.198.028,https://maps.google.com/?cid=0x0:0xdfe64eca748dfd20,,mall
,Toko,AnekaPlastik Amurang Cab. Lewet,"5HMH+R88, Lewet, Kec. Amurang, Kabupaten Minahasa Selatan, Sulawesi Utara","Kabupaten Minahasa Selatan, Sulawesi Utara",SULAWESI UTARA,,Indonesia,85242566723.0,,,11.845.386,1.245.783.228,https://maps.google.com/?cid=0x0:0x112351c2c10b7c72,,mall
,Toko bahan makanan,Frama Cell  Travel,"5HJJ+HHW, Uwuran Dua, Kec. Amurang, Kabupaten Minahasa Selatan, Sulawesi Utara","Kabupaten Minahasa Selatan, Sulawesi Utara",SULAWESI UTARA,,Indonesia,81344325352.0,,,11.814.946,1.245.814.614,https://maps.google.com/?cid=0x0:0x79259435aed5c57c,,mall
,Kios,Warung Selvi Lesar,"4GP7+JVF, Jl. Amurang - Kotamobagu, Tewasen, Kec. Amurang Bar., Kabupaten Minahasa Selatan, Sulawesi Utara","Kabupaten Minahasa Selatan, Sulawesi Utara",SULAWESI UTARA,,Indonesia,85342111713.0,,,11.365.711,1.245.146.799,https://maps.google.com/?cid=0x0:0x2db09a0d376cf439,,mall
,Toko bahan makanan,Warung Anugerah AEA Tumbelaka,"5HJJ+3VF, Jl. Amurang-Ratahan, Uwuran Dua, Kec. Amurang, Kabupaten Minahasa Selatan, Sulawesi Utara","Kabupaten Minahasa Selatan, Sulawesi Utara",SULAWESI UTARA,,Indonesia,895801371169.0,,,11.801.918,1.245.821.849,https://maps.google.com/?cid=0x0:0x4fd6097e003f61ed,,mall
,Pusat Perbelanjaan,Counter SHANIA SELULAR,"Jalan Pasar Ranoiapo Kompleks Pertokoan Pasar 54, Ranoyapo, Kec. Amurang, Kabupaten Minahasa Selatan, Sulawesi Utara","Kabupaten Minahasa Selatan, Sulawesi Utara",SULAWESI UTARA,,Indonesia,85340509999.0,,,11.845.295,1.245.717.771,https://maps.google.com/?cid=0x0:0xda3f3bf3611a5ece,,mall
,Seniman Balon,balon gas amurang,"Uwuran Dua, Kec. Amurang, Kabupaten Minahasa Selatan, Sulawesi Utara","Kabupaten Minahasa Selatan, Sulawesi Utara",SULAWESI UTARA,,Indonesia,82346497448.0,,,11.851.642,1.245.758.062,https://maps.google.com/?cid=0x0:0xed4a178fb29a30c8,,mall
,mall,Kec. Kumelembuai,"Kabupaten Minahasa Selatan, Sulawesi Utara","Kabupaten Minahasa Selatan, Sulawesi Utara",SULAWESI UTARA,,Indonesia,,,,10.871.129,1.244.894.698,https://maps.google.com/?cid=0x0:0xa2d03c63ae50dad,,mall
,Minimarket,Alfamart Motoling Minsel (1Y83),"2FRJ+27H, Motoling, Kec. Motoling, Kabupaten Minahasa Selatan, Sulawesi Utara","Kabupaten Minahasa Selatan, Sulawesi Utara",SULAWESI UTARA,,Indonesia,,,,10.400.545,1.244.807.453,https://maps.google.com/?cid=0x0:0x504fc4e65471a7e2,,mall
,Pusat Perbelanjaan,Cleo shope,"2CWP+V85, Raanan Baru II, Kec. Motoling Bar., Kabupaten Minahasa Selatan, Sulawesi Utara","Kabupaten Minahasa Selatan, Sulawesi Utara",SULAWESI UTARA,,Indonesia,,,,10.471.341,124.435.862,https://maps.google.com/?cid=0x0:0x1415ad655915987b,,mall
,mall,Meydi langi,"2FJ7+QPM, Raanan Lama, Kec. Motoling, Kabupaten Minahasa Selatan, Sulawesi Utara","Kabupaten Minahasa Selatan, Sulawesi Utara",SULAWESI UTARA,,Indonesia,,,,10.319.729,1.244.643.083,https://maps.google.com/?cid=0x0:0x1d2a6c9412e4c8b3,,mall
,Pusat Perbelanjaan,Megamall Manado,"Kawasan Megamas, Kantor Pengelola Megamall, Jl. Piere Tendean, Wenang Sel., Kec. Wenang, Kota Manado, Sulawesi Utara 95234","Kantor Pengelola Megamall, Jl. Piere Tendean, Wenang Sel., Kec. Wenang, Kota Manado",SULAWESI UTARA,95234.0,Indonesia,431879889.0,,,14.839.687,1.248.348.372,https://maps.google.com/?cid=0x0:0xfcc9b9fa2283700,,mall
,Toko,Toko messya  kaffe,"2FQG+FXH, Motoling Satu, Kec. Motoling, Kabupaten Minahasa Selatan, Sulawesi Utara","Kabupaten Minahasa Selatan, Sulawesi Utara",SULAWESI UTARA,,Indonesia,,,,10.386.852,1.244.774.935,https://maps.google.com/?cid=0x0:0xe9cbb83c3839b3c2,,mall
,Toko umum,Toko Bading,"2CWP+8M7, Raanan Baru II, Kec. Motoling Bar., Kabupaten Minahasa Selatan, Sulawesi Utara","Kabupaten Minahasa Selatan, Sulawesi Utara",SULAWESI UTARA,,Indonesia,85218156674.0,,,10.457.817,1.244.366.795,https://maps.google.com/?cid=0x0:0x249dd5973a5d5af2,,mall
,Pusat Perbelanjaan,Syela Allshop,"4GQ8+987, Tewasen, Kec. Amurang Bar., Kabupaten Minahasa Selatan, Sulawesi Utara","Kabupaten Minahasa Selatan, Sulawesi Utara",SULAWESI UTARA,,Indonesia,,,,11.384.051,1.245.157.909,https://maps.google.com/?cid=0x0:0xdcdf217feb003ce6,,mall
,Pusat Perbelanjaan,Chylan  Christiany,"2GP7+RG7, Jl. Jaga 4, Picuan, Kec. Motoling Tim., Kabupaten Minahasa Selatan, Sulawesi Utara","Kabupaten Minahasa Selatan, Sulawesi Utara",SULAWESI UTARA,,Indonesia,85256433227.0,,,103.703,1.245.138.079,https://maps.google.com/?cid=0x0:0x9db8b6480801e4e,,mall
,Pusat Perbelanjaan,Charla Sumual Allshop,"4GQ8+C6F, Tewasen, Kec. Amurang Bar., Kabupaten Minahasa Selatan, Sulawesi Utara","Kabupaten Minahasa Selatan, Sulawesi Utara",SULAWESI UTARA,,Indonesia,82290147022.0,,,1.138.561,1.245.155.588,https://maps.google.com/?cid=0x0:0xc6ac4004ebae1aa5,,mall
,Toko Fotokopi,Tondi-Tondi Cell FotoCopy,"2CXP+37W, Raanan Baru II, Kec. Motoling Bar., Kabupaten Minahasa Selatan, Sulawesi Utara","Kabupaten Minahasa Selatan, Sulawesi Utara",SULAWESI UTARA,,Indonesia,82166555721.0,,,10.477.341,1.244.357.054,https://maps.google.com/?cid=0x0:0x49e01567d1806a4e,,mall
,Kios,Warung Selvi Lesar,"4GP7+JVF, Jl. Amurang - Kotamobagu, Tewasen, Kec. Amurang Bar., Kabupaten Minahasa Selatan, Sulawesi Utara","Kabupaten Minahasa Selatan, Sulawesi Utara",SULAWESI UTARA,,Indonesia,85342111713.0,,,11.365.711,1.245.146.799,https://maps.google.com/?cid=0x0:0x2db09a0d376cf439,,mall
,Bengkel Sepeda Motor,Shoroom Andre Motor Motoling,"2FRJ+447, Motoling, Kec. Motoling, Kabupaten Minahasa Selatan, Sulawesi Utara","Kabupaten Minahasa Selatan, Sulawesi Utara",SULAWESI UTARA,,Indonesia,82189626165.0,,,10.402.895,1.244.803,https://maps.google.com/?cid=0x0:0x226f5483432c517a,,mall
,Toko,Warung Wenda,"4C5J+XQG, Sula, Pakuure satu, Kec. Tenga, Kabupaten Minahasa Selatan, Sulawesi Utara","Kabupaten Minahasa Selatan, Sulawesi Utara",SULAWESI UTARA,,Indonesia,,,,11.099.308,1.244.319.461,https://maps.google.com/?cid=0x0:0x88b280fe12469a2f,,mall
,Toko,KIOS KEREN cell,"4CFH+JRH jg 3, Pakuure, Kec. Tenga, Kabupaten Minahasa Selatan, Sulawesi Utara","Kabupaten Minahasa Selatan, Sulawesi Utara",SULAWESI UTARA,,Indonesia,,,,11.240.523,1.244.296.234,https://maps.google.com/?cid=0x0:0xf31962ff6703c071,,mall
,Toko Suvenir,KIOS GJ Collection,"2CWP+X9G, Raanan Baru II, Kec. Motoling Bar., Kabupaten Minahasa Selatan, Sulawesi Utara","Kabupaten Minahasa Selatan, Sulawesi Utara",SULAWESI UTARA,,Indonesia,82191204007.0,,,10.474.347,1.244.359.553,https://maps.google.com/?cid=0x0:0x6085ae8c417623fc,,mall
,Pusat Perbelanjaan,Manado Town Square,"Jl. Piere Tendean, Kota Manado, Sulawesi Utara 95114",Kota Manado,SULAWESI UTARA,95114.0,Indonesia,,,,14.723.227,1.248.319.485,https://maps.google.com/?cid=0x0:0xea03227619d4f862,,mall
,Pusat Perbelanjaan,Kawasan Megamas Manado,"Kawasan Megamas, Jl. Piere Tendean No.1 Blok 2B2, Kota Manado, Sulawesi Utara 95111","Jl. Piere Tendean No.1 Blok 2B2, Kota Manado",SULAWESI UTARA,95111.0,Indonesia,4318881888.0,,,14.852.638,1.248.308.189,https://maps.google.com/?cid=0x0:0x670cdd279400252f,,mall
,Toko,Double'K,"CR6F+PQ6, Warembungan, jaga X, Kabupaten Minahasa, Sulawesi Utara","Kabupaten Minahasa, Sulawesi Utara",SULAWESI UTARA,,Indonesia,895802953817.0,,,1.411.776,1.248.244.061,https://maps.google.com/?cid=0x0:0x116310a7395322a5,,mall
,mall,Kios Aurelia mtg,"2FQF+F5P, Unnamed Road, Motoling Dua, Kec. Motoling, Kabupaten Minahasa Selatan, Sulawesi Utara","Kabupaten Minahasa Selatan, Sulawesi Utara",SULAWESI UTARA,,Indonesia,,,,10.387.179,1.244.729.655,https://maps.google.com/?cid=0x0:0x23d4917df3888b20,,mall
,,Mawar Mart,"7R66+G4V, Jl. kawangkoan-Tomohon, Leilem Tiga, Kec. Sonder, Kabupaten Minahasa, Sulawesi Utara","Kabupaten Minahasa, Sulawesi Utara",SULAWESI UTARA,,Indonesia,,,,12.613.718,1.248.103.057,https://maps.google.com/?cid=0x0:0x553662dc883279e3,,mall
,mall,Kec. Maesaan,"Kabupaten Minahasa Selatan, Sulawesi Utara","Kabupaten Minahasa Selatan, Sulawesi Utara",SULAWESI UTARA,,Indonesia,,,,0.8779406,1.244.741.741,https://maps.google.com/?cid=0x0:0x7b9cfccbb759dc4d,,mall
,Pusat Perbelanjaan,Cherise Cell,"VFWF+J8F, Tumani, Kec. Maesaan, Kabupaten Minahasa Selatan, Sulawesi Utara","Kabupaten Minahasa Selatan, Sulawesi Utara",SULAWESI UTARA,,Indonesia,85299116579.0,,,0.896573,1.244.732.842,https://maps.google.com/?cid=0x0:0xb0b77771cc6374a4,,mall
,Toko Pakaian Bekas,Chonaroom digital Wi-Fi  Samuel Cell,"Tambelang, Maesaan, Tambelang, Kec. Maesaan, Kabupaten Minahasa Selatan, Sulawesi Utara","Kabupaten Minahasa Selatan, Sulawesi Utara",SULAWESI UTARA,,Indonesia,89698555123.0,,,0.8695474,1.244.674.233,https://maps.google.com/?cid=0x0:0x6c244636d272f971,,mall
,Pusat Perbelanjaan,Miss Cell,"Temboan, Kec. Maesaan, Kabupaten Minahasa Selatan, Sulawesi Utara","Kabupaten Minahasa Selatan, Sulawesi Utara",SULAWESI UTARA,,Indonesia,85225213717.0,,,0.8970253,1.244.415.646,https://maps.google.com/?cid=0x0:0x9f86d93eb9e55a9c,,mall
,Perhimpunan Pengembang Perumahan,Fildalula home,"WFC9+RJ4, Tompaso Baru Satu, Kec. Tompaso Baru, Kabupaten Minahasa Selatan, Sulawesi Utara","Kabupaten Minahasa Selatan, Sulawesi Utara",SULAWESI UTARA,,Indonesia,8971582628.0,,,0.9220122,1.244.690.835,https://maps.google.com/?cid=0x0:0x4968fb3e06e3445f,,mall
,Toko Ponsel,VR shop,"Tumani, Kec. Maesaan, Kabupaten Minahasa Selatan, Sulawesi Utara","Kabupaten Minahasa Selatan, Sulawesi Utara",SULAWESI UTARA,,Indonesia,85340001903.0,,,0.9062017,1.244.715.871,https://maps.google.com/?cid=0x0:0x3208d79f06e6174d,,mall
,Toko bahan makanan,Kios Thomas,"VFC7+6Q2, Tambelang, Kec. Maesaan, Kabupaten Minahasa Selatan, Sulawesi Utara","Kabupaten Minahasa Selatan, Sulawesi Utara",SULAWESI UTARA,,Indonesia,85145023549.0,,,0.8705238,1.244.643.784,https://maps.google.com/?cid=0x0:0x7967d97dd7daf9f2,,mall
,Kios,ModoX.foodshop,"QFR8+XF7, Unnamed Road, Kakenturan, Kec. Modoinding, Kabupaten Minahasa Selatan, Sulawesi Utara","Kabupaten Minahasa Selatan, Sulawesi Utara",SULAWESI UTARA,,Indonesia,,,,0.7924076,1.244.661.627,https://maps.google.com/?cid=0x0:0x515d6e332ea90fce,,mall
,Toko,UD.Khenkimm,"WF55+2WM, Lowian, Kec. Maesaan, Kabupaten Minahasa Selatan, Sulawesi Utara","Kabupaten Minahasa Selatan, Sulawesi Utara",SULAWESI UTARA,,Indonesia,85757120223.0,,,0.9075807,1.244.598.024,https://maps.google.com/?cid=0x0:0x217fafbd03f243ad,,mall
,Komplek perumahan,Kel.Woruntu-Monintja,"WF4C+VG6, Jl. Amurang - Kotamobagu, Tumani, Kec. Maesaan, Kabupaten Minahasa Selatan, Sulawesi Utara","Kabupaten Minahasa Selatan, Sulawesi Utara",SULAWESI UTARA,,Indonesia,85397153755.0,,,0.907163,1.244.712.567,https://maps.google.com/?cid=0x0:0x2b750edfc7914058,,mall
,Toko,Livv'Shopp (Jl. Aer Panas Jaga V),"WFG9+5QH, Tompaso Baru Satu, Kec. Tompaso Baru, Kabupaten Minahasa Selatan, Sulawesi Utara","Kabupaten Minahasa Selatan, Sulawesi Utara",SULAWESI UTARA,,Indonesia,82196443698.0,,,0.9254459,1.244.694.902,https://maps.google.com/?cid=0x0:0x32c153a35a22827f,,mall
,,UD. RYLGUIRA,"WF45+JVH, Lowian, Kec. Maesaan, Kabupaten Minahasa Selatan, Sulawesi Utara","Kabupaten Minahasa Selatan, Sulawesi Utara",SULAWESI UTARA,,Indonesia,,,,0.9065514,124.459.744,https://maps.google.com/?cid=0x0:0x59eedfbf18e9f929,,mall
,Toko bahan makanan,Oland mart online,"WF98+3FV, Tompaso Baru Dua, Kec. Tompaso Baru, Kabupaten Minahasa Selatan, Sulawesi Utara","Kabupaten Minahasa Selatan, Sulawesi Utara",SULAWESI UTARA,,Indonesia,,,,0.9177476,1.244.661.652,https://maps.google.com/?cid=0x0:0x5695633b9ff3952d,,mall
,mall,Distributor PT NASA Manado,"WF99+RWF, Tompaso Baru Dua, Kec. Tompaso Baru, Kabupaten Minahasa Selatan, Sulawesi Utara","Kabupaten Minahasa Selatan, Sulawesi Utara",SULAWESI UTARA,,Indonesia,,,,0.9195541,1.244.697.673,https://maps.google.com/?cid=0x0:0xec89a6ecad0c965d,,mall
,Toko,Counter Pulsa Jonathan Cell,"WF89+9WH, Tompaso Baru Dua, Kec. Tompaso Baru, Kabupaten Minahasa Selatan, Sulawesi Utara","Kabupaten Minahasa Selatan, Sulawesi Utara",SULAWESI UTARA,,Indonesia,,,,0.9159363,1.244.698.534,https://maps.google.com/?cid=0x0:0xeeaa972cc4bd82a6,,mall
,Toko Ponsel,B'Link Cell,"RC2X+V3J, Jl. Amurang - Kotamobagu, Makaaruyen, Kec. Modoinding, Kabupaten Minahasa Selatan, Sulawesi Utara","Kabupaten Minahasa Selatan, Sulawesi Utara",SULAWESI UTARA,,Indonesia,85340066206.0,,,0.8022137,1.244.476.335,https://maps.google.com/?cid=0x0:0xa29e5ddfc1a5ccae,,mall
,Pusat Perbelanjaan,Depot Ektin Gaul,"WF99+W8J, Tompaso Baru Dua, Kec. Tompaso Baru, Kabupaten Minahasa Selatan, Sulawesi Utara","Kabupaten Minahasa Selatan, Sulawesi Utara",SULAWESI UTARA,,Indonesia,,,,0.9198373,1.244.682.678,https://maps.google.com/?cid=0x0:0x9c816f11b503ac57,,mall
,Komplek perumahan,Sumampow Tuju,"WFG9+GQC, Jl. Aer Panas, Tompaso Baru Satu, Kec. Tompaso Baru, Kabupaten Minahasa Selatan, Sulawesi Utara","Kabupaten Minahasa Selatan, Sulawesi Utara",SULAWESI UTARA,,Indonesia,,,,0.9263041,124.469.376,https://maps.google.com/?cid=0x0:0xd4b5ab1551c8641e,,mall
,Toko umum,Dhea,"XFQM+GRC, Unnamed Road, Poopo Bar., Kec. Ranoyapo, Kabupaten Minahasa Selatan, Sulawesi Utara","Kabupaten Minahasa Selatan, Sulawesi Utara",SULAWESI UTARA,,Indonesia,,,,0.9888202,1.244.845.095,https://maps.google.com/?cid=0x0:0xa296c2d71561e14e,,mall
,Toko umum,Kios Meyne,"XF9W+343, Ranoiapo, Kec. Ranoyapo, Kabupaten Minahasa Selatan, Sulawesi Utara","Kabupaten Minahasa Selatan, Sulawesi Utara",SULAWESI UTARA,,Indonesia,,,,0.9669655,1.244.950.082,https://maps.google.com/?cid=0x0:0x41591b926c5bea9a,,mall
,Pusat Perbelanjaan,Megamall Manado,"Kawasan Megamas, Kantor Pengelola Megamall, Jl. Piere Tendean, Wenang Sel., Kec. Wenang, Kota Manado, Sulawesi Utara 95234","Kantor Pengelola Megamall, Jl. Piere Tendean, Wenang Sel., Kec. Wenang, Kota Manado",SULAWESI UTARA,95234.0,Indonesia,431879889.0,,,14.839.687,1.248.348.372,https://maps.google.com/?cid=0x0:0xfcc9b9fa2283700,,mall
,Pusat Perbelanjaan,Mega Trade Centre Megamas,"Kawasan Megamas, Jl. Piere Tendean, Titiwungan Utara, Kec. Sario, Kota Manado, Sulawesi Utara 95113","Jl. Piere Tendean, Titiwungan Utara, Kec. Sario, Kota Manado",SULAWESI UTARA,95113.0,Indonesia,4318819368.0,,,14.800.651,1.248.344.294,https://maps.google.com/?cid=0x0:0xffcd124469c9e8c1,,mall
,Perusahaan air mineral,Depot Air Genji,"WFPH+9QX, Torout, Kec. Tompaso Baru, Kabupaten Minahasa Selatan, Sulawesi Utara","Kabupaten Minahasa Selatan, Sulawesi Utara",SULAWESI UTARA,,Indonesia,82291855393.0,,,0.9359972,1.244.794.738,https://maps.google.com/?cid=0x0:0x522694728f6ae64b,,mall
,Toko umum,Kios CintaZackly,"XGX2+7PC, Pontak Satu, Kec. Ranoyapo, Kabupaten Minahasa Selatan, Sulawesi Utara","Kabupaten Minahasa Selatan, Sulawesi Utara",SULAWESI UTARA,,Indonesia,,,,0.9981928,1.245.017.591,https://maps.google.com/?cid=0x0:0xc170d3278dedf9a3,,mall
,Komplek perumahan,Sarajar-Kawatu Home,"Poopo, Kec. Ranoyapo, Kabupaten Minahasa Selatan, Sulawesi Utara","Kabupaten Minahasa Selatan, Sulawesi Utara",SULAWESI UTARA,,Indonesia,,,,0.9883263,1.244.896.209,https://maps.google.com/?cid=0x0:0xe9ab407da4db2ba1,,mall
,mall,Kec. Modoinding,"Kabupaten Minahasa Selatan, Sulawesi Utara","Kabupaten Minahasa Selatan, Sulawesi Utara",SULAWESI UTARA,,Indonesia,,,,0.7934377,1.244.536.411,https://maps.google.com/?cid=0x0:0xd408c5df1a05e95c,,mall
,Kios,ModoX.foodshop,"QFR8+XF7, Unnamed Road, Kakenturan, Kec. Modoinding, Kabupaten Minahasa Selatan, Sulawesi Utara","Kabupaten Minahasa Selatan, Sulawesi Utara",SULAWESI UTARA,,Indonesia,,,,0.7924076,1.244.661.627,https://maps.google.com/?cid=0x0:0x515d6e332ea90fce,,mall
,Vila,Wisata Modoinding,"RF23+Q6H, Pinasungkulan, Kec. Modoinding, Kabupaten Minahasa Selatan, Sulawesi Utara","Kabupaten Minahasa Selatan, Sulawesi Utara",SULAWESI UTARA,,Indonesia,,,,0.801945,1.244.530.968,https://maps.google.com/?cid=0x0:0x2a28e6db00acd188,,mall
,Toko Ponsel,B'Link Cell,"RC2X+V3J, Jl. Amurang - Kotamobagu, Makaaruyen, Kec. Modoinding, Kabupaten Minahasa Selatan, Sulawesi Utara","Kabupaten Minahasa Selatan, Sulawesi Utara",SULAWESI UTARA,,Indonesia,85340066206.0,,,0.8022137,1.244.476.335,https://maps.google.com/?cid=0x0:0xa29e5ddfc1a5ccae,,mall
,Tujuan Wisata,Kampoeng Wisata,"RF54+GFP, Pinasungkulan, Kec. Modoinding, Kabupaten Minahasa Selatan, Sulawesi Utara","Kabupaten Minahasa Selatan, Sulawesi Utara",SULAWESI UTARA,,Indonesia,,,,0.8088258,1.244.561.998,https://maps.google.com/?cid=0x0:0x2a90876b5c319fda,,mall
,Toko Pakaian Bekas,Chonaroom digital Wi-Fi  Samuel Cell,"Tambelang, Maesaan, Tambelang, Kec. Maesaan, Kabupaten Minahasa Selatan, Sulawesi Utara","Kabupaten Minahasa Selatan, Sulawesi Utara",SULAWESI UTARA,,Indonesia,89698555123.0,,,0.8695474,1.244.674.233,https://maps.google.com/?cid=0x0:0x6c244636d272f971,,mall
,Minimarket,Alfamart.Bongkudai Utara,"QC8V+5FW, Bongkudai Utara, Kec. Modayag, Kabupaten Bolaang Mongondow Timur, Sulawesi Utara","Kabupaten Bolaang Mongondow Timur, Sulawesi Utara",SULAWESI UTARA,,Indonesia,,,,0.7654895,1.244.436.898,https://maps.google.com/?cid=0x0:0x7bb1dfde91c5910d,,mall
,Kios,Kios Saprodi,"QC9X+H9C, Guaan, Kec. Modayag, Kabupaten Bolaang Mongondow Timur, Sulawesi Utara","Kabupaten Bolaang Mongondow Timur, Sulawesi Utara",SULAWESI UTARA,,Indonesia,82343043824.0,,,0.7689466,1.244.483.857,https://maps.google.com/?cid=0x0:0x16753bb587b4299a,,mall
,Toko bahan makanan,Pertamini  Warung Blessing,"RC3W+5Q3, Makaaruyen, Kec. Modoinding, Kabupaten Minahasa Selatan, Sulawesi Utara","Kabupaten Minahasa Selatan, Sulawesi Utara",SULAWESI UTARA,,Indonesia,85145464767.0,,,0.8028823,1.244.469.149,https://maps.google.com/?cid=0x0:0x50f79c25961d7e64,,mall
,Pusat Perbelanjaan,KiosPink NeiMart 10,"VF8H+C2Q, Kinamang Satu, Kec. Maesaan, Kabupaten Minahasa Selatan, Sulawesi Utara","Kabupaten Minahasa Selatan, Sulawesi Utara",SULAWESI UTARA,,Indonesia,82238120030.0,,,0.8660822,1.244.776.241,https://maps.google.com/?cid=0x0:0xb171e45ba170d312,,mall
,Toko,Warung Gisela,"RF35+2W6, Linelean, Kec. Modoinding, Kabupaten Minahasa Selatan, Sulawesi Utara","Kabupaten Minahasa Selatan, Sulawesi Utara",SULAWESI UTARA,,Indonesia,,,,0.802539,1.244.597.506,https://maps.google.com/?cid=0x0:0xc224766189e63eae,,mall
,Pusat Perbelanjaan,Savior Mart,"QC9X+96R, Desa Mototompiaan, Moat, Kec. Modayag, Kabupaten Bolaang Mongondow Timur, Sulawesi Utara","Kabupaten Bolaang Mongondow Timur, Sulawesi Utara",SULAWESI UTARA,,Indonesia,,,,0.7684911,1.244.480.223,https://maps.google.com/?cid=0x0:0x53c5949402d104b7,,mall
,mall,Kec. Motoling Bar.,"Kabupaten Minahasa Selatan, Sulawesi Utara","Kabupaten Minahasa Selatan, Sulawesi Utara",SULAWESI UTARA,,Indonesia,,,,10.414.558,1.244.413.862,https://maps.google.com/?cid=0x0:0x6c6cffd8f0e2995b,,mall
,Minimarket,Alfamart Motoling Minsel (1Y83),"2FRJ+27H, Motoling, Kec. Motoling, Kabupaten Minahasa Selatan, Sulawesi Utara","Kabupaten Minahasa Selatan, Sulawesi Utara",SULAWESI UTARA,,Indonesia,,,,10.400.545,1.244.807.453,https://maps.google.com/?cid=0x0:0x504fc4e65471a7e2,,mall
,Toko umum,Toko Bading,"2CWP+8M7, Raanan Baru II, Kec. Motoling Bar., Kabupaten Minahasa Selatan, Sulawesi Utara","Kabupaten Minahasa Selatan, Sulawesi Utara",SULAWESI UTARA,,Indonesia,85218156674.0,,,10.457.817,1.244.366.795,https://maps.google.com/?cid=0x0:0x249dd5973a5d5af2,,mall
,Toko,Kalangi Wongkar,"29XP+7WM, Tondei, Kec. Motoling Bar., Kabupaten Minahasa Selatan, Sulawesi Utara","Kabupaten Minahasa Selatan, Sulawesi Utara",SULAWESI UTARA,,Indonesia,85340077257.0,,,10.482.192,1.243.872.878,https://maps.google.com/?cid=0x0:0xa2d6287704ad80ce,,mall
,Pusat Perbelanjaan,Cleo shope,"2CWP+V85, Raanan Baru II, Kec. Motoling Bar., Kabupaten Minahasa Selatan, Sulawesi Utara","Kabupaten Minahasa Selatan, Sulawesi Utara",SULAWESI UTARA,,Indonesia,,,,10.471.341,124.435.862,https://maps.google.com/?cid=0x0:0x1415ad655915987b,,mall
,Toko,Toko messya  kaffe,"2FQG+FXH, Motoling Satu, Kec. Motoling, Kabupaten Minahasa Selatan, Sulawesi Utara","Kabupaten Minahasa Selatan, Sulawesi Utara",SULAWESI UTARA,,Indonesia,,,,10.386.852,1.244.774.935,https://maps.google.com/?cid=0x0:0xe9cbb83c3839b3c2,,mall
,Toko Fotokopi,Tondi-Tondi Cell FotoCopy,"2CXP+37W, Raanan Baru II, Kec. Motoling Bar., Kabupaten Minahasa Selatan, Sulawesi Utara","Kabupaten Minahasa Selatan, Sulawesi Utara",SULAWESI UTARA,,Indonesia,82166555721.0,,,10.477.341,1.244.357.054,https://maps.google.com/?cid=0x0:0x49e01567d1806a4e,,mall
,Bengkel Sepeda Motor,Shoroom Andre Motor Motoling,"2FRJ+447, Motoling, Kec. Motoling, Kabupaten Minahasa Selatan, Sulawesi Utara","Kabupaten Minahasa Selatan, Sulawesi Utara",SULAWESI UTARA,,Indonesia,82189626165.0,,,10.402.895,1.244.803,https://maps.google.com/?cid=0x0:0x226f5483432c517a,,mall
,mall,Novena Mandey,"2FC8+FQG, Raanan Lama, Kec. Motoling, Kabupaten Minahasa Selatan, Sulawesi Utara","Kabupaten Minahasa Selatan, Sulawesi Utara",SULAWESI UTARA,,Indonesia,,,,10.211.976,1.244.669.566,https://maps.google.com/?cid=0x0:0x9543cf6e3cda2daf,,mall
,Toko Suvenir,KIOS GJ Collection,"2CWP+X9G, Raanan Baru II, Kec. Motoling Bar., Kabupaten Minahasa Selatan, Sulawesi Utara","Kabupaten Minahasa Selatan, Sulawesi Utara",SULAWESI UTARA,,Indonesia,82191204007.0,,,10.474.347,1.244.359.553,https://maps.google.com/?cid=0x0:0x6085ae8c417623fc,,mall
,mall,Kec. Motoling Tim.,"Kabupaten Minahasa Selatan, Sulawesi Utara","Kabupaten Minahasa Selatan, Sulawesi Utara",SULAWESI UTARA,,Indonesia,,,,10.658.557,1.244.966.035,https://maps.google.com/?cid=0x0:0xc31c83b5c58d6f0d,,mall
,Minimarket,Alfamart Motoling Minsel (1Y83),"2FRJ+27H, Motoling, Kec. Motoling, Kabupaten Minahasa Selatan, Sulawesi Utara","Kabupaten Minahasa Selatan, Sulawesi Utara",SULAWESI UTARA,,Indonesia,,,,10.400.545,1.244.807.453,https://maps.google.com/?cid=0x0:0x504fc4e65471a7e2,,mall
,Pusat Perbelanjaan,Chylan  Christiany,"2GP7+RG7, Jl. Jaga 4, Picuan, Kec. Motoling Tim., Kabupaten Minahasa Selatan, Sulawesi Utara","Kabupaten Minahasa Selatan, Sulawesi Utara",SULAWESI UTARA,,Indonesia,85256433227.0,,,103.703,1.245.138.079,https://maps.google.com/?cid=0x0:0x9db8b6480801e4e,,mall
,mall,Meydi langi,"2FJ7+QPM, Raanan Lama, Kec. Motoling, Kabupaten Minahasa Selatan, Sulawesi Utara","Kabupaten Minahasa Selatan, Sulawesi Utara",SULAWESI UTARA,,Indonesia,,,,10.319.729,1.244.643.083,https://maps.google.com/?cid=0x0:0x1d2a6c9412e4c8b3,,mall
,Toko,Toko messya  kaffe,"2FQG+FXH, Motoling Satu, Kec. Motoling, Kabupaten Minahasa Selatan, Sulawesi Utara","Kabupaten Minahasa Selatan, Sulawesi Utara",SULAWESI UTARA,,Indonesia,,,,10.386.852,1.244.774.935,https://maps.google.com/?cid=0x0:0xe9cbb83c3839b3c2,,mall
,Bengkel Sepeda Motor,Shoroom Andre Motor Motoling,"2FRJ+447, Motoling, Kec. Motoling, Kabupaten Minahasa Selatan, Sulawesi Utara","Kabupaten Minahasa Selatan, Sulawesi Utara",SULAWESI UTARA,,Indonesia,82189626165.0,,,10.402.895,1.244.803,https://maps.google.com/?cid=0x0:0x226f5483432c517a,,mall
,Toko umum,Toko Bading,"2CWP+8M7, Raanan Baru II, Kec. Motoling Bar., Kabupaten Minahasa Selatan, Sulawesi Utara","Kabupaten Minahasa Selatan, Sulawesi Utara",SULAWESI UTARA,,Indonesia,85218156674.0,,,10.457.817,1.244.366.795,https://maps.google.com/?cid=0x0:0x249dd5973a5d5af2,,mall
,mall,KIOS,"2GP7+MQ8, Picuan, Kec. Motoling Tim., Kabupaten Minahasa Selatan, Sulawesi Utara","Kabupaten Minahasa Selatan, Sulawesi Utara",SULAWESI UTARA,,Indonesia,,,,10.366.705,1.245.144.618,https://maps.google.com/?cid=0x0:0x9f95aed8f5759e3b,,mall
,mall,Novena Mandey,"2FC8+FQG, Raanan Lama, Kec. Motoling, Kabupaten Minahasa Selatan, Sulawesi Utara","Kabupaten Minahasa Selatan, Sulawesi Utara",SULAWESI UTARA,,Indonesia,,,,10.211.976,1.244.669.566,https://maps.google.com/?cid=0x0:0x9543cf6e3cda2daf,,mall
,mall,Kec. Motoling Tim.,"Kabupaten Minahasa Selatan, Sulawesi Utara","Kabupaten Minahasa Selatan, Sulawesi Utara",SULAWESI UTARA,,Indonesia,,,,10.658.557,1.244.966.035,https://maps.google.com/?cid=0x0:0xc31c83b5c58d6f0d,,mall
,Minimarket,Alfamart Motoling Minsel (1Y83),"2FRJ+27H, Motoling, Kec. Motoling, Kabupaten Minahasa Selatan, Sulawesi Utara","Kabupaten Minahasa Selatan, Sulawesi Utara",SULAWESI UTARA,,Indonesia,,,,10.400.545,1.244.807.453,https://maps.google.com/?cid=0x0:0x504fc4e65471a7e2,,mall
,Pusat Perbelanjaan,"Warung Ci Meylan Aping""""","3GVG+4JR, Karimbow Talikuran, Kec. Motoling Tim., Kabupaten Minahasa Selatan, Sulawesi Utara","Kabupaten Minahasa Selatan, Sulawesi Utara",SULAWESI UTARA,,Indonesia,81242073730.0,,,10.928.665,124.526.529,https://maps.google.com/?cid=0x0:0x83b050f60f2e43a4,,mall
,Toko,Toko messya  kaffe,"2FQG+FXH, Motoling Satu, Kec. Motoling, Kabupaten Minahasa Selatan, Sulawesi Utara","Kabupaten Minahasa Selatan, Sulawesi Utara",SULAWESI UTARA,,Indonesia,,,,10.386.852,1.244.774.935,https://maps.google.com/?cid=0x0:0xe9cbb83c3839b3c2,,mall
,mall,Meydi langi,"2FJ7+QPM, Raanan Lama, Kec. Motoling, Kabupaten Minahasa Selatan, Sulawesi Utara","Kabupaten Minahasa Selatan, Sulawesi Utara",SULAWESI UTARA,,Indonesia,,,,10.319.729,1.244.643.083,https://maps.google.com/?cid=0x0:0x1d2a6c9412e4c8b3,,mall
,mall,Novena Mandey,"2FC8+FQG, Raanan Lama, Kec. Motoling, Kabupaten Minahasa Selatan, Sulawesi Utara","Kabupaten Minahasa Selatan, Sulawesi Utara",SULAWESI UTARA,,Indonesia,,,,10.211.976,1.244.669.566,https://maps.google.com/?cid=0x0:0x9543cf6e3cda2daf,,mall
,Bengkel Sepeda Motor,Shoroom Andre Motor Motoling,"2FRJ+447, Motoling, Kec. Motoling, Kabupaten Minahasa Selatan, Sulawesi Utara","Kabupaten Minahasa Selatan, Sulawesi Utara",SULAWESI UTARA,,Indonesia,82189626165.0,,,10.402.895,1.244.803,https://maps.google.com/?cid=0x0:0x226f5483432c517a,,mall
,mall,KIOS,"2GP7+MQ8, Picuan, Kec. Motoling Tim., Kabupaten Minahasa Selatan, Sulawesi Utara","Kabupaten Minahasa Selatan, Sulawesi Utara",SULAWESI UTARA,,Indonesia,,,,10.366.705,1.245.144.618,https://maps.google.com/?cid=0x0:0x9f95aed8f5759e3b,,mall
,mall,Kec. Ranoyapo,"Kabupaten Minahasa Selatan, Sulawesi Utara","Kabupaten Minahasa Selatan, Sulawesi Utara",SULAWESI UTARA,,Indonesia,,,,0.9993883,1.244.993.385,https://maps.google.com/?cid=0x0:0x1e005a1bf0ed1cb7,,mall
,Toko umum,Dhea,"XFQM+GRC, Unnamed Road, Poopo Bar., Kec. Ranoyapo, Kabupaten Minahasa Selatan, Sulawesi Utara","Kabupaten Minahasa Selatan, Sulawesi Utara",SULAWESI UTARA,,Indonesia,,,,0.9888202,1.244.845.095,https://maps.google.com/?cid=0x0:0xa296c2d71561e14e,,mall
,Toko umum,Kios Meyne,"XF9W+343, Ranoiapo, Kec. Ranoyapo, Kabupaten Minahasa Selatan, Sulawesi Utara","Kabupaten Minahasa Selatan, Sulawesi Utara",SULAWESI UTARA,,Indonesia,,,,0.9669655,1.244.950.082,https://maps.google.com/?cid=0x0:0x41591b926c5bea9a,,mall
,Toko Suku Cadang Motor,Pajesty Motor,"XFWV+6W9, Poopo Utara, Kec. Ranoyapo, Kabupaten Minahasa Selatan, Sulawesi Utara","Kabupaten Minahasa Selatan, Sulawesi Utara",SULAWESI UTARA,,Indonesia,,,,0.9955273,1.244.948.553,https://maps.google.com/?cid=0x0:0xaee9326b4bf4742e,,mall
,Toko umum,Anugrah tendean,"2G4V+3XW, Powalutan, Kec. Ranoyapo, Kabupaten Minahasa Selatan, Sulawesi Utara","Kabupaten Minahasa Selatan, Sulawesi Utara",SULAWESI UTARA,,Indonesia,,,,1.004.372,124.544.596,https://maps.google.com/?cid=0x0:0x55888a30d1b3a7f7,,mall
,mall,Novena Mandey,"2FC8+FQG, Raanan Lama, Kec. Motoling, Kabupaten Minahasa Selatan, Sulawesi Utara","Kabupaten Minahasa Selatan, Sulawesi Utara",SULAWESI UTARA,,Indonesia,,,,10.211.976,1.244.669.566,https://maps.google.com/?cid=0x0:0x9543cf6e3cda2daf,,mall
,Toko bahan makanan,UD DAMAI,"XFWW+87X, Jl. Perbatasan, Poopo, Pontak, Kec. Ranoyapo, Kabupaten Minahasa Selatan, Sulawesi Utara","Kabupaten Minahasa Selatan, Sulawesi Utara",SULAWESI UTARA,,Indonesia,85399684215.0,,,0.9958683,1.244.957.283,https://maps.google.com/?cid=0x0:0xae6b0e02a3b09cb4,,mall
,Toko umum,Kios CintaZackly,"XGX2+7PC, Pontak Satu, Kec. Ranoyapo, Kabupaten Minahasa Selatan, Sulawesi Utara","Kabupaten Minahasa Selatan, Sulawesi Utara",SULAWESI UTARA,,Indonesia,,,,0.9981928,1.245.017.591,https://maps.google.com/?cid=0x0:0xc170d3278dedf9a3,,mall
,Pembangunan Perumahan,PLAZA RATAHAN,"3R32+43J, Tosuraya Sel., Kec. Ratahan, Kabupaten Minahasa Tenggara, Sulawesi Utara","Kabupaten Minahasa Tenggara, Sulawesi Utara",SULAWESI UTARA,,Indonesia,,,,10.528.486,1.248.001.409,https://maps.google.com/?cid=0x0:0xc2d3ab5c2e3ae3c0,,mall
,Pusat Perbelanjaan,Home Kaat-Tompodung,"XGW8+W9W, Jl. Kabupaten, Mopolo, Kec. Ranoyapo, Kabupaten Minahasa Selatan, Sulawesi Utara","Kabupaten Minahasa Selatan, Sulawesi Utara",SULAWESI UTARA,,Indonesia,,,,0.9973609,1.245.159.564,https://maps.google.com/?cid=0x0:0xa88b9fd9a6176310,,mall
,Bengkel Elektronik,Eng Bengkel  Kioz,"XFWX+R8F, Pontak, Kec. Ranoyapo, Kabupaten Minahasa Selatan, Sulawesi Utara","Kabupaten Minahasa Selatan, Sulawesi Utara",SULAWESI UTARA,,Indonesia,89697923588.0,,,0.9970632,1.244.982.918,https://maps.google.com/?cid=0x0:0x504ed396e16634e2,,mall
,Minimarket,Alfamart Motoling Minsel (1Y83),"2FRJ+27H, Motoling, Kec. Motoling, Kabupaten Minahasa Selatan, Sulawesi Utara","Kabupaten Minahasa Selatan, Sulawesi Utara",SULAWESI UTARA,,Indonesia,,,,10.400.545,1.244.807.453,https://maps.google.com/?cid=0x0:0x504fc4e65471a7e2,,mall
,mall,Meydi langi,"2FJ7+QPM, Raanan Lama, Kec. Motoling, Kabupaten Minahasa Selatan, Sulawesi Utara","Kabupaten Minahasa Selatan, Sulawesi Utara",SULAWESI UTARA,,Indonesia,,,,10.319.729,1.244.643.083,https://maps.google.com/?cid=0x0:0x1d2a6c9412e4c8b3,,mall
,Toko umum,Warung Gloria,"Poopo Utara, Kec. Ranoyapo, Kabupaten Minahasa Selatan, Sulawesi Utara","Kabupaten Minahasa Selatan, Sulawesi Utara",SULAWESI UTARA,,Indonesia,,,,0.9947592,1.244.940.481,https://maps.google.com/?cid=0x0:0x273e9c18f8d30cdc,,mall
,mall,Kios Hero,"XFQR+53M, Poopo, Kec. Ranoyapo, Kabupaten Minahasa Selatan, Sulawesi Utara","Kabupaten Minahasa Selatan, Sulawesi Utara",SULAWESI UTARA,,Indonesia,,,,0.9879612,1.244.901.758,https://maps.google.com/?cid=0x0:0x31da630c074ead8,,mall
,mall,Kec. Sinonsayang,"Kabupaten Minahasa Selatan, Sulawesi Utara","Kabupaten Minahasa Selatan, Sulawesi Utara",SULAWESI UTARA,,Indonesia,,,,10.964.547,1.243.480.233,https://maps.google.com/?cid=0x0:0x459f24c060a3cdba,,mall
,Perhimpunan Pengembang Perumahan,Pasar Minggu Desa Tanamon,"28F5+289, Poigar II, Kec. Sinonsayang, Kabupaten Minahasa Selatan, Sulawesi Utara","Kabupaten Minahasa Selatan, Sulawesi Utara",SULAWESI UTARA,,Indonesia,,,,10.225.473,1.243.083.534,https://maps.google.com/?cid=0x0:0xf47563a6b1e15d58,,mall
,Toko,Arsyil Cell,"28G5+C8W, Poigar II, Kec. Sinonsayang, Kabupaten Minahasa Selatan, Sulawesi Utara","Kabupaten Minahasa Selatan, Sulawesi Utara",SULAWESI UTARA,,Indonesia,85397335358.0,,,10.261.065,1.243.083.227,https://maps.google.com/?cid=0x0:0xa461fc58c2eeda5f,,mall
,Toko umum,Rumah mocca mama key,"28G5+M2J, Unnamed Road, Poigar II, Kec. Sinonsayang, Kabupaten Minahasa Selatan, Sulawesi Utara","Kabupaten Minahasa Selatan, Sulawesi Utara",SULAWESI UTARA,,Indonesia,81356368489.0,,,10.267.218,1.243.075.299,https://maps.google.com/?cid=0x0:0x6cb24ca6177a2eb7,,mall
,Minimarket,Alfamart Motoling Minsel (1Y83),"2FRJ+27H, Motoling, Kec. Motoling, Kabupaten Minahasa Selatan, Sulawesi Utara","Kabupaten Minahasa Selatan, Sulawesi Utara",SULAWESI UTARA,,Indonesia,,,,10.400.545,1.244.807.453,https://maps.google.com/?cid=0x0:0x504fc4e65471a7e2,,mall
,Sekolah,Pasar Desa Nanasi Timur,"X8X5+GQJ, Nanasi Tim., Kec. Poigar, Kabupaten Bolaang Mongondow, Sulawesi Utara","Kabupaten Bolaang Mongondow, Sulawesi Utara",SULAWESI UTARA,,Indonesia,,,,0.99884,1.243.093.845,https://maps.google.com/?cid=0x0:0x357814b454d025be,,mall
,Toko,Kalangi Wongkar,"29XP+7WM, Tondei, Kec. Motoling Bar., Kabupaten Minahasa Selatan, Sulawesi Utara","Kabupaten Minahasa Selatan, Sulawesi Utara",SULAWESI UTARA,,Indonesia,85340077257.0,,,10.482.192,1.243.872.878,https://maps.google.com/?cid=0x0:0xa2d6287704ad80ce,,mall
,Pusat Perbelanjaan,Cleo shope,"2CWP+V85, Raanan Baru II, Kec. Motoling Bar., Kabupaten Minahasa Selatan, Sulawesi Utara","Kabupaten Minahasa Selatan, Sulawesi Utara",SULAWESI UTARA,,Indonesia,,,,10.471.341,124.435.862,https://maps.google.com/?cid=0x0:0x1415ad655915987b,,mall
,Pembangunan Perumahan,Pasar Tenga,"5C6P+346, Tenga, Kec. Tenga, Kabupaten Minahasa Selatan, Sulawesi Utara","Kabupaten Minahasa Selatan, Sulawesi Utara",SULAWESI UTARA,,Indonesia,85398408821.0,,,11.601.642,1.244.352.722,https://maps.google.com/?cid=0x0:0x1a3edb5d252c45d5,,mall
,Toko,KIOS KEREN cell,"4CFH+JRH jg 3, Pakuure, Kec. Tenga, Kabupaten Minahasa Selatan, Sulawesi Utara","Kabupaten Minahasa Selatan, Sulawesi Utara",SULAWESI UTARA,,Indonesia,,,,11.240.523,1.244.296.234,https://maps.google.com/?cid=0x0:0xf31962ff6703c071,,mall
,Toko umum,Toko Bading,"2CWP+8M7, Raanan Baru II, Kec. Motoling Bar., Kabupaten Minahasa Selatan, Sulawesi Utara","Kabupaten Minahasa Selatan, Sulawesi Utara",SULAWESI UTARA,,Indonesia,85218156674.0,,,10.457.817,1.244.366.795,https://maps.google.com/?cid=0x0:0x249dd5973a5d5af2,,mall
,mall,ALn Mart,"28G5+9MH, Poigar II, Kec. Sinonsayang, Kabupaten Minahasa Selatan, Sulawesi Utara","Kabupaten Minahasa Selatan, Sulawesi Utara",SULAWESI UTARA,,Indonesia,,,,10.259.262,1.243.092.336,https://maps.google.com/?cid=0x0:0x7158777ff22ea969,,mall
,mall,Toko Oshin,"28F5+R7R, Poigar II, Kec. Sinonsayang, Kabupaten Minahasa Selatan, Sulawesi Utara","Kabupaten Minahasa Selatan, Sulawesi Utara",SULAWESI UTARA,,Indonesia,,,,10.246.246,1.243.081.397,https://maps.google.com/?cid=0x0:0xd7e8c230bc6a25c3,,mall
,mall,sinage cell,"28G6+274, Poigar II, Kec. Sinonsayang, Kabupaten Minahasa Selatan, Sulawesi Utara","Kabupaten Minahasa Selatan, Sulawesi Utara",SULAWESI UTARA,,Indonesia,,,,10.250.159,12.431.069,https://maps.google.com/?cid=0x0:0x7ad3d3411d54c6be,,mall
,mall,Toko Karya Baru,"28F6+Q2W, Poigar II, Kec. Sinonsayang, Kabupaten Minahasa Selatan, Sulawesi Utara","Kabupaten Minahasa Selatan, Sulawesi Utara",SULAWESI UTARA,,Indonesia,,,,10.244.997,124.310.077,https://maps.google.com/?cid=0x0:0x1a80e4f339d27646,,mall
,mall,Kec. Tareran,"Kabupaten Minahasa Selatan, Sulawesi Utara","Kabupaten Minahasa Selatan, Sulawesi Utara",SULAWESI UTARA,,Indonesia,,,,12.295.372,1.247.372.988,https://maps.google.com/?cid=0x0:0xac5d2c923abab162,,mall
,Pusat Perbelanjaan,KLikaShop,"Rumoong Atas jaga.5 Kompleks perempatan Pokal, Rumoong Atas, Kec. Tareran, Kabupaten Minahasa Selatan, Sulawesi Utara","Kabupaten Minahasa Selatan, Sulawesi Utara",SULAWESI UTARA,,Indonesia,85656328887.0,,,12.288.301,1.247.351.925,https://maps.google.com/?cid=0x0:0x7f7ed4f9387e9d6b,,mall
,Pusat Perbelanjaan,FULLBRICK,"Tumaluntung, Kec. Tareran, Kabupaten Minahasa Selatan, Sulawesi Utara","Kabupaten Minahasa Selatan, Sulawesi Utara",SULAWESI UTARA,,Indonesia,82346943804.0,,,12.116.033,1.247.128.308,https://maps.google.com/?cid=0x0:0x129a91a623e2df34,,mall
,Pusat Perbelanjaan,(FULLBRICK)padat,"Tumaluntung, Kec. Tareran, Kabupaten Minahasa Selatan, Sulawesi Utara","Kabupaten Minahasa Selatan, Sulawesi Utara",SULAWESI UTARA,,Indonesia,85299696785.0,,,12.116.015,1.247.128.209,https://maps.google.com/?cid=0x0:0xe5633ac78413bff6,,mall
,Pembangunan Perumahan,PLAZA RATAHAN,"3R32+43J, Tosuraya Sel., Kec. Ratahan, Kabupaten Minahasa Tenggara, Sulawesi Utara","Kabupaten Minahasa Tenggara, Sulawesi Utara",SULAWESI UTARA,,Indonesia,,,,10.528.486,1.248.001.409,https://maps.google.com/?cid=0x0:0xc2d3ab5c2e3ae3c0,,mall
,Pusat Perbelanjaan,Kenzi home,"6MQ9+HJV, Pinamorongan, Kec. Tareran, Kabupaten Minahasa Selatan, Sulawesi Utara","Kabupaten Minahasa Selatan, Sulawesi Utara",SULAWESI UTARA,,Indonesia,,,,12.389.841,1.246.690.605,https://maps.google.com/?cid=0x0:0x4a3ee8449a490db4,,mall
,Pusat Perbelanjaan,Megamall Manado,"Kawasan Megamas, Kantor Pengelola Megamall, Jl. Piere Tendean, Wenang Sel., Kec. Wenang, Kota Manado, Sulawesi Utara 95234","Kantor Pengelola Megamall, Jl. Piere Tendean, Wenang Sel., Kec. Wenang, Kota Manado",SULAWESI UTARA,95234.0,Indonesia,431879889.0,,,14.839.687,1.248.348.372,https://maps.google.com/?cid=0x0:0xfcc9b9fa2283700,,mall
,Kios,7 Mart,"7Q4F+XX6, Talikuran, Kec. Sonder, Kabupaten Minahasa, Sulawesi Utara","Kabupaten Minahasa, Sulawesi Utara",SULAWESI UTARA,,Indonesia,,,,12.574.197,1.247.748.786,https://maps.google.com/?cid=0x0:0xd4b0196667dde32e,,mall
,Pusat Perbelanjaan,Khenzy s home,"6MX5+2Q6, Pinamorongan, Kec. Tareran, Kabupaten Minahasa Selatan, Sulawesi Utara","Kabupaten Minahasa Selatan, Sulawesi Utara",SULAWESI UTARA,,Indonesia,,,,12.475.785,1.246.593.456,https://maps.google.com/?cid=0x0:0x1ae882c8a4766111,,mall
,Toko Pakaian,Airell Shop,"7Q5F+482, Unnamed Road, Talikuran, Kec. Sonder, Kabupaten Minahasa, Sulawesi Utara","Kabupaten Minahasa, Sulawesi Utara",SULAWESI UTARA,,Indonesia,82187344121.0,,,12.577.718,1.247.732.536,https://maps.google.com/?cid=0x0:0x91a71c16ff52bb1f,,mall
,Pasar,Pasar Rakyat Sapalalum,"7MFP+6GH, Pinapalangkow, Sulta, Kabupaten Minahasa Selatan, Sulawesi Utara","Kabupaten Minahasa Selatan, Sulawesi Utara",SULAWESI UTARA,,Indonesia,82189629486.0,,,12.730.637,1.246.863.464,https://maps.google.com/?cid=0x0:0x28dfd7ae62d857d,,mall
,Minimarket,waroengRuth,"6Q3F+PV8, Uner, Kec. Kawangkoan Utara, Kabupaten Minahasa, Sulawesi Utara","Kabupaten Minahasa, Sulawesi Utara",SULAWESI UTARA,,Indonesia,85240673285.0,,,12.042.834,1.247.747.184,https://maps.google.com/?cid=0x0:0xd911e0ffd560598a,,mall
,Pusat Perbelanjaan,Manado Town Square,"Jl. Piere Tendean, Kota Manado, Sulawesi Utara 95114",Kota Manado,SULAWESI UTARA,95114.0,Indonesia,,,,14.723.227,1.248.319.485,https://maps.google.com/?cid=0x0:0xea03227619d4f862,,mall
,Kios,Kios Echa,"7JJV+R4F, Lelema, Kec. Tumpaan, Kabupaten Minahasa Selatan, Sulawesi Utara","Kabupaten Minahasa Selatan, Sulawesi Utara",SULAWESI UTARA,,Indonesia,85756005611.0,,,1.282.051,1.246.428.108,https://maps.google.com/?cid=0x0:0x5db00e5052dec14c,,mall
,Kios,Kios Lorin,"7Q3F+WM3, Tounelet, Kec. Sonder, Kabupaten Minahasa, Sulawesi Utara","Kabupaten Minahasa, Sulawesi Utara",SULAWESI UTARA,,Indonesia,85211336461.0,,,12.547.607,1.247.741.579,https://maps.google.com/?cid=0x0:0x3eae097825318384,,mall
,Vila,JavEza Shop,"7Q5F+383, Talikuran, Kec. Sonder, Kabupaten Minahasa, Sulawesi Utara","Kabupaten Minahasa, Sulawesi Utara",SULAWESI UTARA,,Indonesia,,,,12.576.381,1.247.733.124,https://maps.google.com/?cid=0x0:0x2ee85f00687edc77,,mall
,Pusat Perbelanjaan,Kios Dotulong,"Depan Alfamart, Tounelet, Kec. Sonder, Kabupaten Minahasa, Sulawesi Utara 95691","Tounelet, Kec. Sonder, Kabupaten Minahasa",SULAWESI UTARA,95691.0,Indonesia,85825502533.0,,,12.583.475,1.247.773.712,https://maps.google.com/?cid=0x0:0x648a27443b218115,,mall
,Kios,Jual mie Along,"7Q6G+59G, Unnamed Road, Talikuran, Kec. Sonder, Kabupaten Minahasa, Sulawesi Utara","Kabupaten Minahasa, Sulawesi Utara",SULAWESI UTARA,,Indonesia,85240484562.0,,,12.604.306,1.247.759.534,https://maps.google.com/?cid=0x0:0x64b0913b0884a90c,,mall
,Toko umum,CaeTam,"6Q3Q+MQH, Kinali Satu, Kec. Kawangkoan, Kabupaten Minahasa, Sulawesi Utara","Kabupaten Minahasa, Sulawesi Utara",SULAWESI UTARA,,Indonesia,81285611011.0,,,12.041.783,1.247.894.938,https://maps.google.com/?cid=0x0:0x93e8073a188976a0,,mall
,Toko,Vonnie R. Kapoya Jg3,"7M49+53G, Kapoya, Sulta, Kabupaten Minahasa Selatan, Sulawesi Utara","Kabupaten Minahasa Selatan, Sulawesi Utara",SULAWESI UTARA,,Indonesia,85240808848.0,,,1.255.429,124.667.707,https://maps.google.com/?cid=0x0:0x5a41017935c16184,,mall
,Toko umum,Vonny Shop,"7Q3H+G7X, Sendangan, Kec. Sonder, Kabupaten Minahasa, Sulawesi Utara","Kabupaten Minahasa, Sulawesi Utara",SULAWESI UTARA,,Indonesia,85394943636.0,,,12.538.722,1.247.782.238,https://maps.google.com/?cid=0x0:0x234192a02db39269,,mall
,mall,Kec. Tatapaan,"Kabupaten Minahasa Selatan, Sulawesi Utara","Kabupaten Minahasa Selatan, Sulawesi Utara",SULAWESI UTARA,,Indonesia,,,,12.864.443,1.246.016.444,https://maps.google.com/?cid=0x0:0x2764afda0dd2b42d,,mall
,Pusat Perbelanjaan,Tanjung Berkat,"9HF6+WCV, Rap-Rap, Kec. Tatapaan, Kabupaten Minahasa Selatan, Sulawesi Utara","Kabupaten Minahasa Selatan, Sulawesi Utara",SULAWESI UTARA,,Indonesia,,,,13.747.373,1.245.610.075,https://maps.google.com/?cid=0x0:0xe8b03647782423ad,,mall
,Toko Swalayan,Indomaret Popontolen,"7JFH+95X, Popontolen, Kec. Tumpaan, Kabupaten Minahasa Selatan, Sulawesi Utara","Kabupaten Minahasa Selatan, Sulawesi Utara",SULAWESI UTARA,,Indonesia,,,,12.734.829,1.246.279.866,https://maps.google.com/?cid=0x0:0x65a3df578eae27ff,,mall
,Toko,Warung Nathanael(Kel.Mardesa Matindas),"9HF6+R93, Rap-Rap, Kec. Tatapaan, Kabupaten Minahasa Selatan, Sulawesi Utara","Kabupaten Minahasa Selatan, Sulawesi Utara",SULAWESI UTARA,,Indonesia,85249790545.0,,,13.745.176,1.245.609.245,https://maps.google.com/?cid=0x0:0xa66ac712a4ea9423,,mall
,Pusat Perbelanjaan,Wulan Cell,"9HG4+WMF, Unnamed Road, Arakan, Kec. Tatapaan, Kabupaten Minahasa Selatan, Sulawesi Utara","Kabupaten Minahasa Selatan, Sulawesi Utara",SULAWESI UTARA,,Indonesia,81245301377.0,,,1.377.318,1.245.566.671,https://maps.google.com/?cid=0x0:0xe5e9d0913871d576,,mall
,Kios,Kios Echa,"7JJV+R4F, Lelema, Kec. Tumpaan, Kabupaten Minahasa Selatan, Sulawesi Utara","Kabupaten Minahasa Selatan, Sulawesi Utara",SULAWESI UTARA,,Indonesia,85756005611.0,,,1.282.051,1.246.428.108,https://maps.google.com/?cid=0x0:0x5db00e5052dec14c,,mall
,Toko,Warung v'love,"7HPW+XFQ, Paslaten Satu, Kec. Tatapaan, Kabupaten Minahasa Selatan, Sulawesi Utara","Kabupaten Minahasa Selatan, Sulawesi Utara",SULAWESI UTARA,,Indonesia,,,,12.884.017,1.245.960.203,https://maps.google.com/?cid=0x0:0xd90f1b02eb0e0ef9,,mall
,Pusat Perbelanjaan,Megamall Manado,"Kawasan Megamas, Kantor Pengelola Megamall, Jl. Piere Tendean, Wenang Sel., Kec. Wenang, Kota Manado, Sulawesi Utara 95234","Kantor Pengelola Megamall, Jl. Piere Tendean, Wenang Sel., Kec. Wenang, Kota Manado",SULAWESI UTARA,95234.0,Indonesia,431879889.0,,,14.839.687,1.248.348.372,https://maps.google.com/?cid=0x0:0xfcc9b9fa2283700,,mall
,Pusat Perbelanjaan,Maya Cell,"9HH5+533, Arakan, Kec. Tatapaan, Kabupaten Minahasa Selatan, Sulawesi Utara","Kabupaten Minahasa Selatan, Sulawesi Utara",SULAWESI UTARA,,Indonesia,,,,13.778.863,1.245.576.634,https://maps.google.com/?cid=0x0:0xf462f5834c01bf87,,mall
,Pembangunan Perumahan,PLAZA RATAHAN,"3R32+43J, Tosuraya Sel., Kec. Ratahan, Kabupaten Minahasa Tenggara, Sulawesi Utara","Kabupaten Minahasa Tenggara, Sulawesi Utara",SULAWESI UTARA,,Indonesia,,,,10.528.486,1.248.001.409,https://maps.google.com/?cid=0x0:0xc2d3ab5c2e3ae3c0,,mall
,Pusat Perbelanjaan,Aisyah Cell,"lingkungan No.4, Arakan, Kec. Tatapaan, Kabupaten Minahasa Selatan, Sulawesi Utara 95351","Arakan, Kec. Tatapaan, Kabupaten Minahasa Selatan",SULAWESI UTARA,95351.0,Indonesia,82386152559.0,,,13.755.168,1.245.542.232,https://maps.google.com/?cid=0x0:0x4f61fd8f37919727,,mall
,Toko,PERMATASARI CELL,"7MQ3+RHW, Lelema, Kec. Tumpaan, Kabupaten Minahasa Selatan, Sulawesi Utara","Kabupaten Minahasa Selatan, Sulawesi Utara",SULAWESI UTARA,,Indonesia,82291515927.0,,,12.896.098,1.246.539.588,https://maps.google.com/?cid=0x0:0x2e5ab9487c8eb27,,mall
,Pusat Perbelanjaan,jihan cell,"8G99+W5P, Wawontulap, Kec. Tatapaan, Kabupaten Minahasa Selatan, Sulawesi Utara","Kabupaten Minahasa Selatan, Sulawesi Utara",SULAWESI UTARA,,Indonesia,,,,13.198.373,1.245.179.553,https://maps.google.com/?cid=0x0:0x602a1c66273417e,,mall
,Pusat Perbelanjaan,Febre Shop,"Paslaten, Kec. Tatapaan, Kabupaten Minahasa Selatan, Sulawesi Utara","Kabupaten Minahasa Selatan, Sulawesi Utara",SULAWESI UTARA,,Indonesia,81356403969.0,,,12.868.175,1.246.008.441,https://maps.google.com/?cid=0x0:0xb1221c69bd8e88d5,,mall
,Rumah Makan,"WARUNG DOUBLE_D""""","7JHR+R3Q, Lelema, Kec. Tumpaan, Kabupaten Minahasa Selatan, Sulawesi Utara","Kabupaten Minahasa Selatan, Sulawesi Utara",SULAWESI UTARA,,Indonesia,,,,12.795.809,1.246.402.252,https://maps.google.com/?cid=0x0:0x955d6607b019541b,,mall
,Pusat Perbelanjaan,WARUNG KETAPANG LELEMA19,"7JPX+8CM, Lelema, Kec. Tumpaan, Kabupaten Minahasa Selatan, Sulawesi Utara","Kabupaten Minahasa Selatan, Sulawesi Utara",SULAWESI UTARA,,Indonesia,,,,1.285.843,124.648.541,https://maps.google.com/?cid=0x0:0xd0f2f83d2320489,,mall
,Toko Elektronik,CENTER Victory cell,"7JMV+5WF, Lelema, Kec. Tumpaan, Kabupaten Minahasa Selatan, Sulawesi Utara","Kabupaten Minahasa Selatan, Sulawesi Utara",SULAWESI UTARA,,Indonesia,85757038880.0,,,12.829.262,1.246.447.935,https://maps.google.com/?cid=0x0:0x8f58fe49b2674011,,mall
,Toko umum,Kios pulsa all oprator,"7JMV+5WF, Lelema, Kec. Tumpaan, Kabupaten Minahasa Selatan, Sulawesi Utara","Kabupaten Minahasa Selatan, Sulawesi Utara",SULAWESI UTARA,,Indonesia,85757038880.0,,,1.282.925,124.644.801,https://maps.google.com/?cid=0x0:0xb9cb64a8a5f04b5b,,mall
,Pembangunan Perumahan,Bahu Mall,"FR6G+W4J, Bahu Mall, R.W., Jl. Wolter Monginsidi, Bahu, Malalayang, Manado City, North Sulawesi","Kota Manado, Sulawesi Utara",SULAWESI UTARA,,Indonesia,1500125.0,,,14.623.338,1.248.252.763,https://maps.google.com/?cid=0x0:0x75b15af9becce842,,mall
,Toko Pakaian,Patricia,"8M78+5HQ, Munte, Kec. Tumpaan, Kabupaten Minahasa Selatan, Sulawesi Utara","Kabupaten Minahasa Selatan, Sulawesi Utara",SULAWESI UTARA,,Indonesia,85242870100.0,,,13.129.632,1.246.664.954,https://maps.google.com/?cid=0x0:0x40930dffa1aca6a1,,mall
,Pusat Perbelanjaan,Warung IMANUEL Lelema,"7JMV+5XV, Lelema, Kec. Tumpaan, Kabupaten Minahasa Selatan, Sulawesi Utara","Kabupaten Minahasa Selatan, Sulawesi Utara",SULAWESI UTARA,,Indonesia,82393174081.0,,,12.829.859,1.246.449.245,https://maps.google.com/?cid=0x0:0xfbd965f36a54487e,,mall
,mall,Sulawesi Utara 95355,"Pakuweru, Kec. Tenga, Kabupaten Minahasa Selatan, Sulawesi Utara","Kabupaten Minahasa Selatan, Sulawesi Utara",SULAWESI UTARA,,Indonesia,,,,11.636.763,1.244.326.123,https://maps.google.com/?cid=0x0:0x19db91f9dd28ea10,,mall
,Pembangunan Perumahan,Pasar Tenga,"5C6P+346, Tenga, Kec. Tenga, Kabupaten Minahasa Selatan, Sulawesi Utara","Kabupaten Minahasa Selatan, Sulawesi Utara",SULAWESI UTARA,,Indonesia,85398408821.0,,,11.601.642,1.244.352.722,https://maps.google.com/?cid=0x0:0x1a3edb5d252c45d5,,mall
,Pusat Perbelanjaan,Megamall Manado,"Kawasan Megamas, Kantor Pengelola Megamall, Jl. Piere Tendean, Wenang Sel., Kec. Wenang, Kota Manado, Sulawesi Utara 95234","Kantor Pengelola Megamall, Jl. Piere Tendean, Wenang Sel., Kec. Wenang, Kota Manado",SULAWESI UTARA,95234.0,Indonesia,431879889.0,,,14.839.687,1.248.348.372,https://maps.google.com/?cid=0x0:0xfcc9b9fa2283700,,mall
,Toko Swalayan,AEON Mall Tanjung Barat,"Jl. Raya Tj. Barat No.163, RT.12/RW.4, Tj. Bar., Kec. Jagakarsa, Kota Jakarta Selatan, Daerah Khusus Ibukota Jakarta 12530","RT.12/RW.4, Tj. Bar., Kec. Jagakarsa, Kota Jakarta Selatan",SULAWESI UTARA,12530.0,Indonesia,2150959888.0,,,-63.067.712,1.068.398.711,https://maps.google.com/?cid=0x0:0x5ce799145dbf8630,,mall
,Pusat Perbelanjaan,Advance store AEON tanjung barat,"2, Jl. Raya Tj. Barat No.160, RT.2/RW.9, Tj. Bar., Kec. Jagakarsa, Kota Jakarta Selatan, Daerah Khusus Ibukota Jakarta 12530","Jl. Raya Tj. Barat No.160, RT.2/RW.9, Tj. Bar., Kec. Jagakarsa, Kota Jakarta Selatan",SULAWESI UTARA,12530.0,Indonesia,,,,-63.057.591,1.068.407.046,https://maps.google.com/?cid=0x0:0x69e1eea4c6518ba7,,mall
,Pusat Perbelanjaan,Urban Republic Aeon Mall Tanjung Barat,"Raya, Jl. Raya Tj. Barat No.163, RT.12/RW.4, Tj. Bar., Kec. Jagakarsa, Daerah Khusus Ibukota Jakarta 12530","Jl. Raya Tj. Barat No.163, RT.12/RW.4, Tj. Bar., Kec. Jagakarsa",SULAWESI UTARA,12530.0,Indonesia,,,,-63.056.095,1.068.399.574,https://maps.google.com/?cid=0x0:0x4695e3243425328,,mall
,Pusat Perbelanjaan,AEON Tanjung Barat,"Aeon Mall, Jl. Raya Tj. Barat, West Tanjung, Jagakarsa, South Jakarta City, Jakarta 12530","Jl. Raya Tj. Barat, West Tanjung, Jagakarsa, South Jakarta City",SULAWESI UTARA,12530.0,Indonesia,2150942633.0,,,-63.055.928,1.068.408.289,https://maps.google.com/?cid=0x0:0xeb3a1f226b5911d8,,mall
,Padang,Rumah Makan Hikmah Fajar,"2 No 06, Ruko Grand Purnama Jalan Raya Cikuda Wanaherang, Wanaherang, Kec. Gn. Putri, Kabupaten Bogor, Jawa Barat 16965","Ruko Grand Purnama Jalan Raya Cikuda Wanaherang, Wanaherang, Kec. Gn. Putri, Kabupaten Bogor",SULAWESI UTARA,16965.0,Indonesia,81316418442.0,,,-63.060.667,1.068.403.046,https://maps.google.com/?cid=0x0:0xc25913f8dda592c3,,mall
,Toko Pakaian,HM - ÆON Mall Tanjung Barat,"Jl. Raya Tj. Barat No.163, Pejaten Timur, Ps. Minggu, Kota Jakarta Selatan, Daerah Khusus Ibukota Jakarta 12660","Pejaten Timur, Ps. Minggu, Kota Jakarta Selatan",SULAWESI UTARA,12660.0,Indonesia,,,,-6.306.171,1.068.404.173,https://maps.google.com/?cid=0x0:0x49d7e36787e3497f,,mall
,Restoran,HokBen - ÆON Mall Tanjung Barat,"Jl. Dapur Susu No.11 2, RT.2/RW.9, Tj. Bar., Kec. Jagakarsa, Kota Jakarta Selatan, Daerah Khusus Ibukota Jakarta 12530","RT.2/RW.9, Tj. Bar., Kec. Jagakarsa, Kota Jakarta Selatan",SULAWESI UTARA,12530.0,Indonesia,,,,-63.067.412,1.068.400.086,https://maps.google.com/?cid=0x0:0xdbda0099fea8220,,mall
,mall,Kec. Tompaso Baru,"Kabupaten Minahasa Selatan, Sulawesi Utara","Kabupaten Minahasa Selatan, Sulawesi Utara",SULAWESI UTARA,,Indonesia,,,,0.919931,124.469.716,https://maps.google.com/?cid=0x0:0xd34cfb653da52844,,mall
,Kedai Kopi,Pasar Tompaso Baru,"WF98+MH6, Pinaesaan, Kec. Tompaso Baru, Kabupaten Minahasa Selatan, Sulawesi Utara","Kabupaten Minahasa Selatan, Sulawesi Utara",SULAWESI UTARA,,Indonesia,,,,0.9191603,1.244.663.832,https://maps.google.com/?cid=0x0:0xa7f6acc54f935cbf,,mall
,Komplek perumahan,Sumampow Tuju,"WFG9+GQC, Jl. Aer Panas, Tompaso Baru Satu, Kec. Tompaso Baru, Kabupaten Minahasa Selatan, Sulawesi Utara","Kabupaten Minahasa Selatan, Sulawesi Utara",SULAWESI UTARA,,Indonesia,,,,0.9263041,124.469.376,https://maps.google.com/?cid=0x0:0xd4b5ab1551c8641e,,mall
,Perhimpunan Pengembang Perumahan,Fildalula home,"WFC9+RJ4, Tompaso Baru Satu, Kec. Tompaso Baru, Kabupaten Minahasa Selatan, Sulawesi Utara","Kabupaten Minahasa Selatan, Sulawesi Utara",SULAWESI UTARA,,Indonesia,8971582628.0,,,0.9220122,1.244.690.835,https://maps.google.com/?cid=0x0:0x4968fb3e06e3445f,,mall
,mall,Distributor PT NASA Manado,"WF99+RWF, Tompaso Baru Dua, Kec. Tompaso Baru, Kabupaten Minahasa Selatan, Sulawesi Utara","Kabupaten Minahasa Selatan, Sulawesi Utara",SULAWESI UTARA,,Indonesia,,,,0.9195541,1.244.697.673,https://maps.google.com/?cid=0x0:0xec89a6ecad0c965d,,mall
,Toko bahan makanan,Oland mart online,"WF98+3FV, Tompaso Baru Dua, Kec. Tompaso Baru, Kabupaten Minahasa Selatan, Sulawesi Utara","Kabupaten Minahasa Selatan, Sulawesi Utara",SULAWESI UTARA,,Indonesia,,,,0.9177476,1.244.661.652,https://maps.google.com/?cid=0x0:0x5695633b9ff3952d,,mall
,Toko,Counter Pulsa Jonathan Cell,"WF89+9WH, Tompaso Baru Dua, Kec. Tompaso Baru, Kabupaten Minahasa Selatan, Sulawesi Utara","Kabupaten Minahasa Selatan, Sulawesi Utara",SULAWESI UTARA,,Indonesia,,,,0.9159363,1.244.698.534,https://maps.google.com/?cid=0x0:0xeeaa972cc4bd82a6,,mall
,Perusahaan air mineral,Depot Air Genji,"WFPH+9QX, Torout, Kec. Tompaso Baru, Kabupaten Minahasa Selatan, Sulawesi Utara","Kabupaten Minahasa Selatan, Sulawesi Utara",SULAWESI UTARA,,Indonesia,82291855393.0,,,0.9359972,1.244.794.738,https://maps.google.com/?cid=0x0:0x522694728f6ae64b,,mall
,Kios,AR CELL,"Tompaso Baru Dua Jaga 3, Jalan Kartini Lorong Lumpesak 2, Tompaso Baru Dua, Kec. Tompaso Baru, Kabupaten Minahasa Selatan, Sulawesi Utara","Kabupaten Minahasa Selatan, Sulawesi Utara",SULAWESI UTARA,,Indonesia,81245683774.0,,,0.9176573,1.244.681.966,https://maps.google.com/?cid=0x0:0x5a261d8e626c3705,,mall
,Pasar tradisional,Pasar central Tompaso baru,"WF99+XVG, Tompaso Baru Dua, Kec. Tompaso Baru, Kabupaten Minahasa Selatan, Sulawesi Utara","Kabupaten Minahasa Selatan, Sulawesi Utara",SULAWESI UTARA,,Indonesia,,,,0.919931,124.469.716,https://maps.google.com/?cid=0x0:0x96e949a1ffc1d20f,,mall
,Minimarket,Alfamart Tompasobaru Dua,"WF99+9RG, Jl. Amurang - Kotamobagu, Tompaso Baru Dua, Kec. Tompaso Baru, Kabupaten Minahasa Selatan, Sulawesi Utara 95357","Jl. Amurang - Kotamobagu, Tompaso Baru Dua, Kec. Tompaso Baru, Kabupaten Minahasa Selatan",SULAWESI UTARA,95357.0,Indonesia,1500959.0,,,0.9178208,1.244.699.173,https://maps.google.com/?cid=0x0:0xccb7a16f1c01841a,,mall
,Minimarket,Indomaret Tompaso Baru Satu,"WFFC+RGF, Tompaso Baru Satu, Kec. Tompaso Baru, Kabupaten Minahasa Selatan, Sulawesi Utara","Kabupaten Minahasa Selatan, Sulawesi Utara",SULAWESI UTARA,,Indonesia,211500580.0,,,0.924572,1.244.713.086,https://maps.google.com/?cid=0x0:0x5f763af84cf5a6f0,,mall
,Pusat Perbelanjaan,Depot Ektin Gaul,"WF99+W8J, Tompaso Baru Dua, Kec. Tompaso Baru, Kabupaten Minahasa Selatan, Sulawesi Utara","Kabupaten Minahasa Selatan, Sulawesi Utara",SULAWESI UTARA,,Indonesia,,,,0.9198373,1.244.682.678,https://maps.google.com/?cid=0x0:0x9c816f11b503ac57,,mall
,Toko umum,Kios Meyne,"XF9W+343, Ranoiapo, Kec. Ranoyapo, Kabupaten Minahasa Selatan, Sulawesi Utara","Kabupaten Minahasa Selatan, Sulawesi Utara",SULAWESI UTARA,,Indonesia,,,,0.9669655,1.244.950.082,https://maps.google.com/?cid=0x0:0x41591b926c5bea9a,,mall
,Toko umum,Dhea,"XFQM+GRC, Unnamed Road, Poopo Bar., Kec. Ranoyapo, Kabupaten Minahasa Selatan, Sulawesi Utara","Kabupaten Minahasa Selatan, Sulawesi Utara",SULAWESI UTARA,,Indonesia,,,,0.9888202,1.244.845.095,https://maps.google.com/?cid=0x0:0xa296c2d71561e14e,,mall
,Pusat Perbelanjaan,Cherise Cell,"VFWF+J8F, Tumani, Kec. Maesaan, Kabupaten Minahasa Selatan, Sulawesi Utara","Kabupaten Minahasa Selatan, Sulawesi Utara",SULAWESI UTARA,,Indonesia,85299116579.0,,,0.896573,1.244.732.842,https://maps.google.com/?cid=0x0:0xb0b77771cc6374a4,,mall
,Komplek perumahan,Kel.Woruntu-Monintja,"WF4C+VG6, Jl. Amurang - Kotamobagu, Tumani, Kec. Maesaan, Kabupaten Minahasa Selatan, Sulawesi Utara","Kabupaten Minahasa Selatan, Sulawesi Utara",SULAWESI UTARA,,Indonesia,85397153755.0,,,0.907163,1.244.712.567,https://maps.google.com/?cid=0x0:0x2b750edfc7914058,,mall
,Masjid,Mesjid Babussalam,"WF99+62W, Tompaso Baru Dua, Kec. Tompaso Baru, Kabupaten Minahasa Selatan, Sulawesi Utara","Kabupaten Minahasa Selatan, Sulawesi Utara",SULAWESI UTARA,,Indonesia,,,,0.9181134,1.244.675.707,https://maps.google.com/?cid=0x0:0x73169bc0ece3a00f,,mall
,Toko Pakaian Bekas,Chonaroom digital Wi-Fi  Samuel Cell,"Tambelang, Maesaan, Tambelang, Kec. Maesaan, Kabupaten Minahasa Selatan, Sulawesi Utara","Kabupaten Minahasa Selatan, Sulawesi Utara",SULAWESI UTARA,,Indonesia,89698555123.0,,,0.8695474,1.244.674.233,https://maps.google.com/?cid=0x0:0x6c244636d272f971,,mall
,Pusat Perbelanjaan,Miss Cell,"Temboan, Kec. Maesaan, Kabupaten Minahasa Selatan, Sulawesi Utara","Kabupaten Minahasa Selatan, Sulawesi Utara",SULAWESI UTARA,,Indonesia,85225213717.0,,,0.8970253,1.244.415.646,https://maps.google.com/?cid=0x0:0x9f86d93eb9e55a9c,,mall
,Toko Swalayan,Toko OKSPEL Tompasobaru,"WF99+CRW, Tompaso Baru Dua, Kec. Tompaso Baru, Kabupaten Minahasa Selatan, Sulawesi Utara","Kabupaten Minahasa Selatan, Sulawesi Utara",SULAWESI UTARA,,Indonesia,,,,0.9186182,1.244.695.701,https://maps.google.com/?cid=0x0:0xff5f6dc1c3c3a95,,mall
,Toko,UD.Khenkimm,"WF55+2WM, Lowian, Kec. Maesaan, Kabupaten Minahasa Selatan, Sulawesi Utara","Kabupaten Minahasa Selatan, Sulawesi Utara",SULAWESI UTARA,,Indonesia,85757120223.0,,,0.9075807,1.244.598.024,https://maps.google.com/?cid=0x0:0x217fafbd03f243ad,,mall
,Pembangunan Perumahan,PLAZA RATAHAN,"3R32+43J, Tosuraya Sel., Kec. Ratahan, Kabupaten Minahasa Tenggara, Sulawesi Utara","Kabupaten Minahasa Tenggara, Sulawesi Utara",SULAWESI UTARA,,Indonesia,,,,10.528.486,1.248.001.409,https://maps.google.com/?cid=0x0:0xc2d3ab5c2e3ae3c0,,mall
,Pembangunan Perumahan,Ratahan,"3R42+4MM, Tosuraya, Kec. Ratahan, Kabupaten Minahasa Tenggara, Sulawesi Utara","Kabupaten Minahasa Tenggara, Sulawesi Utara",SULAWESI UTARA,,Indonesia,,,,10.553.393,1.248.016.565,https://maps.google.com/?cid=0x0:0xa38c7340a0ca7762,,mall
,Minimarket,Alfamart Plaza Ratahan,"3Q3X+5XF Link.2, Plaza, Tosuraya Barat, Tosuraya, Kec. Ratahan, Kabupaten Minahasa Tenggara, Sulawesi Utara","Kabupaten Minahasa Tenggara, Sulawesi Utara",SULAWESI UTARA,,Indonesia,,,,105.295,1.247.999.288,https://maps.google.com/?cid=0x0:0x51c3a6965efc0e96,,mall
,Toko,Jovanka shop,"Tumpaan Baru, Kec. Tumpaan, Kabupaten Minahasa Selatan, Sulawesi Utara","Kabupaten Minahasa Selatan, Sulawesi Utara",SULAWESI UTARA,,Indonesia,,,,12.457.559,1.246.161.566,https://maps.google.com/?cid=0x0:0x2fee7a8b5ddc0e87,,mall
,mall,Kec. Tumpaan,"Kabupaten Minahasa Selatan, Sulawesi Utara","Kabupaten Minahasa Selatan, Sulawesi Utara",SULAWESI UTARA,,Indonesia,,,,1.240.458,124.614.157,https://maps.google.com/?cid=0x0:0xa0e1e47c9e0fd41f,,mall
,Kios,Kios Echa,"7JJV+R4F, Lelema, Kec. Tumpaan, Kabupaten Minahasa Selatan, Sulawesi Utara","Kabupaten Minahasa Selatan, Sulawesi Utara",SULAWESI UTARA,,Indonesia,85756005611.0,,,1.282.051,1.246.428.108,https://maps.google.com/?cid=0x0:0x5db00e5052dec14c,,mall
,Pusat Perbelanjaan,Manado Town Square,"Jl. Piere Tendean, Kota Manado, Sulawesi Utara 95114",Kota Manado,SULAWESI UTARA,95114.0,Indonesia,,,,14.723.227,1.248.319.485,https://maps.google.com/?cid=0x0:0xea03227619d4f862,,mall
,Toko,PERMATASARI CELL,"7MQ3+RHW, Lelema, Kec. Tumpaan, Kabupaten Minahasa Selatan, Sulawesi Utara","Kabupaten Minahasa Selatan, Sulawesi Utara",SULAWESI UTARA,,Indonesia,82291515927.0,,,12.896.098,1.246.539.588,https://maps.google.com/?cid=0x0:0x2e5ab9487c8eb27,,mall
,Kantor Perusahaan,KAWASAN HIMALAYA AMURANG,"6JH6+HPM, Lopana, Kec. Amurang Tim., Kabupaten Minahasa Selatan, Sulawesi Utara","Kabupaten Minahasa Selatan, Sulawesi Utara",SULAWESI UTARA,,Indonesia,8114800155.0,,,12.289.736,1.246.117.917,https://maps.google.com/?cid=0x0:0x77b97ee81ce56216,,mall
,Pasar,Pasar Rakyat Sapalalum,"7MFP+6GH, Pinapalangkow, Sulta, Kabupaten Minahasa Selatan, Sulawesi Utara","Kabupaten Minahasa Selatan, Sulawesi Utara",SULAWESI UTARA,,Indonesia,82189629486.0,,,12.730.637,1.246.863.464,https://maps.google.com/?cid=0x0:0x28dfd7ae62d857d,,mall
,Toko,Shinshine10cp,"7PGW+P46, Tincep, jaga III, Kabupaten Minahasa, Sulawesi Utara","Kabupaten Minahasa, Sulawesi Utara",SULAWESI UTARA,,Indonesia,,,,12.767.863,1.247.452.748,https://maps.google.com/?cid=0x0:0xedfcdfaa7e85f53b,,mall
,Pembangunan Perumahan,Bahu Mall,"FR6G+W4J, Bahu Mall, R.W., Jl. Wolter Monginsidi, Bahu, Malalayang, Manado City, North Sulawesi","Kota Manado, Sulawesi Utara",SULAWESI UTARA,,Indonesia,1500125.0,,,14.623.338,1.248.252.763,https://maps.google.com/?cid=0x0:0x75b15af9becce842,,mall
,Toko Pakaian,Patricia,"8M78+5HQ, Munte, Kec. Tumpaan, Kabupaten Minahasa Selatan, Sulawesi Utara","Kabupaten Minahasa Selatan, Sulawesi Utara",SULAWESI UTARA,,Indonesia,85242870100.0,,,13.129.632,1.246.664.954,https://maps.google.com/?cid=0x0:0x40930dffa1aca6a1,,mall
,Toko Swalayan,Indomaret Popontolen,"7JFH+95X, Popontolen, Kec. Tumpaan, Kabupaten Minahasa Selatan, Sulawesi Utara","Kabupaten Minahasa Selatan, Sulawesi Utara",SULAWESI UTARA,,Indonesia,,,,12.734.829,1.246.279.866,https://maps.google.com/?cid=0x0:0x65a3df578eae27ff,,mall
,Rumah Makan,"WARUNG DOUBLE_D""""","7JHR+R3Q, Lelema, Kec. Tumpaan, Kabupaten Minahasa Selatan, Sulawesi Utara","Kabupaten Minahasa Selatan, Sulawesi Utara",SULAWESI UTARA,,Indonesia,,,,12.795.809,1.246.402.252,https://maps.google.com/?cid=0x0:0x955d6607b019541b,,mall
,Kios,Kios Revan,"7MV8+XCR, Jl. Trans Sulawesi, Lelema, Kec. Tumpaan, Kabupaten Minahasa Selatan, Sulawesi Utara","Kabupaten Minahasa Selatan, Sulawesi Utara",SULAWESI UTARA,,Indonesia,,,,12.949.938,124.666.025,https://maps.google.com/?cid=0x0:0xdd6318601ddb3498,,mall
,Pusat Perbelanjaan,Raja Kodok Minahasa,"7PGW+7V5, Tincep, Kec. Sonder, Kabupaten Minahasa, Sulawesi Utara","Kabupaten Minahasa, Sulawesi Utara",SULAWESI UTARA,,Indonesia,85241207409.0,,,12.756.483,1.247.472.279,https://maps.google.com/?cid=0x0:0x9350ac6ad2f5c3ba,,mall
,Pusat Perbelanjaan,GreyndyCell,"8P22+VVQ, Tangkunei, Kec. Tumpaan, Kabupaten Minahasa Selatan, Sulawesi Utara","Kabupaten Minahasa Selatan, Sulawesi Utara",SULAWESI UTARA,,Indonesia,,,,13.022.232,1.247.022.382,https://maps.google.com/?cid=0x0:0x45744a973a06187c,,mall
,Pusat Perbelanjaan,WARUNG KETAPANG LELEMA19,"7JPX+8CM, Lelema, Kec. Tumpaan, Kabupaten Minahasa Selatan, Sulawesi Utara","Kabupaten Minahasa Selatan, Sulawesi Utara",SULAWESI UTARA,,Indonesia,,,,1.285.843,124.648.541,https://maps.google.com/?cid=0x0:0xd0f2f83d2320489,,mall
,Pusat Perbelanjaan,King OlShop,"7MMW+H9Q, Suluun Satu, Sulta, Kabupaten Minahasa Selatan, Sulawesi Utara","Kabupaten Minahasa Selatan, Sulawesi Utara",SULAWESI UTARA,,Indonesia,81527772252.0,,,12.839.741,1.246.959.774,https://maps.google.com/?cid=0x0:0x7f207f927c6c6963,,mall
,Pusat Perbelanjaan,KLikaShop,"Rumoong Atas jaga.5 Kompleks perempatan Pokal, Rumoong Atas, Kec. Tareran, Kabupaten Minahasa Selatan, Sulawesi Utara","Kabupaten Minahasa Selatan, Sulawesi Utara",SULAWESI UTARA,,Indonesia,85656328887.0,,,12.288.301,1.247.351.925,https://maps.google.com/?cid=0x0:0x7f7ed4f9387e9d6b,,mall
,Pusat Perbelanjaan,Kediaman Lesly Saroinsong - Mantur,"7MJW+3CG, Unnamed Road, Suluun Satu, Sulta, Kabupaten Minahasa Selatan, Sulawesi Utara","Kabupaten Minahasa Selatan, Sulawesi Utara",SULAWESI UTARA,,Indonesia,85397014425.0,,,12.801.804,124.696.092,https://maps.google.com/?cid=0x0:0xe5f66ccfe67b3f8a,,mall
,Pusat Perbelanjaan,GWEN Cell,"9P4C+9GH, Lolah Tiga, Kec. Tombariri Timur, Kabupaten Minahasa, Sulawesi Utara","Kabupaten Minahasa, Sulawesi Utara",SULAWESI UTARA,,Indonesia,,,,13.559.386,1.247.213.633,https://maps.google.com/?cid=0x0:0x3d3f835f5f6c5b72,,mall
,Toko Elektronik,CENTER Victory cell,"7JMV+5WF, Lelema, Kec. Tumpaan, Kabupaten Minahasa Selatan, Sulawesi Utara","Kabupaten Minahasa Selatan, Sulawesi Utara",SULAWESI UTARA,,Indonesia,85757038880.0,,,12.829.262,1.246.447.935,https://maps.google.com/?cid=0x0:0x8f58fe49b2674011,,mall
,supermarket,Kec. Amurang,"Kabupaten Minahasa Selatan, Sulawesi Utara","Kabupaten Minahasa Selatan, Sulawesi Utara",SULAWESI UTARA,,Indonesia,,,,11.846.911,124.575.545,https://maps.google.com/?cid=0x0:0xc0ecc4637a3a0d02,,supermarket
,Minimarket,Sakura Mart,"Jl. Pasar No.15, Buyungon, Kec. Amurang, Kabupaten Minahasa Selatan, Sulawesi Utara","Kabupaten Minahasa Selatan, Sulawesi Utara",SULAWESI UTARA,,Indonesia,,,,11.834.614,1.245.718.686,https://maps.google.com/?cid=0x0:0x478febc656de2698,,supermarket
,Minimarket,Alfamart,"Jl. Trans Sulawesi, Uwuran Satu, Kec. Amurang, Kabupaten Minahasa Selatan, Sulawesi Utara 95693","Uwuran Satu, Kec. Amurang, Kabupaten Minahasa Selatan",SULAWESI UTARA,95693.0,Indonesia,1500959.0,,,11.838.281,1.245.740.421,https://maps.google.com/?cid=0x0:0x5ca9bee395332a47,,supermarket
,Minimarket,alfamidi pondang,"6H3R+W78, Pondang, Kec. Amurang Tim., Kabupaten Minahasa Selatan, Sulawesi Utara","Kabupaten Minahasa Selatan, Sulawesi Utara",SULAWESI UTARA,,Indonesia,,,,12.047.964,1.245.907.181,https://maps.google.com/?cid=0x0:0x899a94f611ac6ecf,,supermarket
,Minimarket,Alfamart,"Jl. Trans Sulawesi, Pondang, Kec. Amurang Tim., Kabupaten Minahasa Selatan, Sulawesi Utara 95693","Pondang, Kec. Amurang Tim., Kabupaten Minahasa Selatan",SULAWESI UTARA,95693.0,Indonesia,1500959.0,,,12.089.382,1.245.940.613,https://maps.google.com/?cid=0x0:0x73a6f7b1af84db5a,,supermarket
,Minimarket,Alfamart Kel. Bitung Amurang,"Jl. Trans Sulawesi, Bitung, Kec. Amurang, Kabupaten Minahasa Selatan, Sulawesi Utara 95871","Bitung, Kec. Amurang, Kabupaten Minahasa Selatan",SULAWESI UTARA,95871.0,Indonesia,1500959.0,,,11.927.777,1.245.831.571,https://maps.google.com/?cid=0x0:0xfd6f991577f512a9,,supermarket
,Minimarket,Alfamart Kawangkoan Bawah,"Jl. Trans Sulawesi No.Kel, Kawangkoan Bawah, Kec. Amurang Bar., Kabupaten Minahasa Selatan, Sulawesi Utara 95353","Kawangkoan Bawah, Kec. Amurang Bar., Kabupaten Minahasa Selatan",SULAWESI UTARA,95353.0,Indonesia,1500959.0,,,11.855.202,1.245.603.058,https://maps.google.com/?cid=0x0:0x9ebcee406237d0a3,,supermarket
,Pasar Grosir Sayur,Pasar Ikan Amurang,"5HMF+RFR, Jalan Pasar No.15, Ranoyapo, Amurang, Jalan, Uwuran Satu, Kec. Amurang, Kabupaten Minahasa Selatan, Sulawesi Utara","Kabupaten Minahasa Selatan, Sulawesi Utara",SULAWESI UTARA,,Indonesia,,,,11.856.506,1.245.724.531,https://maps.google.com/?cid=0x0:0x85cba4ebc83764eb,,supermarket
,Toko,CV ERTIGA / TOKO JEMMY,"Jl. Pasar, Ranoyapo, Kec. Amurang, Kabupaten Minahasa Selatan, Sulawesi Utara","Kabupaten Minahasa Selatan, Sulawesi Utara",SULAWESI UTARA,,Indonesia,81341034535.0,,,11.840.435,1.245.707.624,https://maps.google.com/?cid=0x0:0xc73a285d86dfdf01,,supermarket
,Kios,Amplang Ang Dapur Ijo - Jual Amplang Ikan Tenggiri Manado,"Lingkungan 2, Bitung, Kec. Amurang, Kabupaten Minahasa Selatan, Sulawesi Utara 95954","Bitung, Kec. Amurang, Kabupaten Minahasa Selatan",SULAWESI UTARA,95954.0,Indonesia,82297163015.0,,,11.912.728,1.245.823.608,https://maps.google.com/?cid=0x0:0xa8b192b8400588cd,,supermarket
,Toko bahan makanan,Mekar Store,"Uwuran Satu, Kec. Amurang, Kabupaten Minahasa Selatan, Sulawesi Utara","Kabupaten Minahasa Selatan, Sulawesi Utara",SULAWESI UTARA,,Indonesia,81356291613.0,,,11.836.319,1.245.736.835,https://maps.google.com/?cid=0x0:0xe50c3522a245117d,,supermarket
,Minimarket,Indomaret Pasar Amurang,"5HMC+QRW, Area Pasar, Ranoyapo, Amurang, South Minahasa Regency, North Sulawesi","Kabupaten Minahasa Selatan, Sulawesi Utara",SULAWESI UTARA,,Indonesia,,,,11.844.961,1.245.720.773,https://maps.google.com/?cid=0x0:0xe3c8546c5c36c860,,supermarket
,Toko bahan makanan,Toko DIFRAN,"5HPF+3CG, Uwuran Satu, Kec. Amurang, Kabupaten Minahasa Selatan, Sulawesi Utara","Kabupaten Minahasa Selatan, Sulawesi Utara",SULAWESI UTARA,,Indonesia,85395629998.0,,,11.851.972,1.245.735.874,https://maps.google.com/?cid=0x0:0x55871aad101daf02,,supermarket
,Minimarket,Indomaret Uwuran,"5HMG+P44, Uwuran Dua, Kec. Amurang, Kabupaten Minahasa Selatan, Sulawesi Utara","Kabupaten Minahasa Selatan, Sulawesi Utara",SULAWESI UTARA,,Indonesia,1500580.0,,,11.842.609,1.245.753.327,https://maps.google.com/?cid=0x0:0x8e27efc3304dd124,,supermarket
,Minimarket,Alfamidi Uwuran,"5HMG+P2M, Jl. Trans Sulawesi, Uwuran Satu, Kec. Amurang, Kabupaten Minahasa Selatan, Sulawesi Utara","Kabupaten Minahasa Selatan, Sulawesi Utara",SULAWESI UTARA,,Indonesia,,,,11.843.268,1.245.750.402,https://maps.google.com/?cid=0x0:0x8089b10155b7bb26,,supermarket
,Kios,JUSTICE CELL,"5HXP+64V, Ranomea, Kec. Amurang Tim., Kabupaten Minahasa Selatan, Sulawesi Utara","Kabupaten Minahasa Selatan, Sulawesi Utara",SULAWESI UTARA,,Indonesia,81394558756.0,,,11.981.121,1.245.852.922,https://maps.google.com/?cid=0x0:0x6b13d57dfb65f60f,,supermarket
,Pusat Perbelanjaan,DAngel Print,"5HPG+CQ9, Unnamed Road, Lewet, Kec. Amurang, Kabupaten Minahasa Selatan, Sulawesi Utara","Kabupaten Minahasa Selatan, Sulawesi Utara",SULAWESI UTARA,,Indonesia,81340376420.0,,,11.860.388,1.245.769.733,https://maps.google.com/?cid=0x0:0xeb5044901f1b1116,,supermarket
,Minimarket,Alfamart Lopana Satu,"Jl. Trans Sulawesi Satu, Lopana, Kec. Amurang Tim., Kabupaten Minahasa Selatan, Sulawesi Utara 95693","Lopana, Kec. Amurang Tim., Kabupaten Minahasa Selatan",SULAWESI UTARA,95693.0,Indonesia,1500959.0,,,1.216.743,1.246.021.334,https://maps.google.com/?cid=0x0:0x464e931c8c7db6ad,,supermarket
,Toko Swalayan,Alfamidi Kapitu,"5GQC+42J, Kapitu, Kec. Amurang Bar., Kabupaten Minahasa Selatan, Sulawesi Utara","Kabupaten Minahasa Selatan, Sulawesi Utara",SULAWESI UTARA,,Indonesia,,,,11.878.855,1.245.200.484,https://maps.google.com/?cid=0x0:0xfdde1a351711d517,,supermarket
,Pasar,Pasar 54 Amurang,"Jl. Pasar kelurahan: Uwuran 1 No.54, kecamatan:, Kec. Amurang, Kabupaten Minahasa Selatan, Sulawesi Utara","Kabupaten Minahasa Selatan, Sulawesi Utara",SULAWESI UTARA,,Indonesia,81340598282.0,,,1.185.371,124.573,https://maps.google.com/?cid=0x0:0xaadb7146cd6cd6d7,,supermarket
,supermarket,Kec. Amurang Bar.,"Kabupaten Minahasa Selatan, Sulawesi Utara","Kabupaten Minahasa Selatan, Sulawesi Utara",SULAWESI UTARA,,Indonesia,,,,11.867.785,1.245.164.503,https://maps.google.com/?cid=0x0:0x96cf76748db66f92,,supermarket
,Minimarket,Sakura Mart,"Jl. Pasar No.15, Buyungon, Kec. Amurang, Kabupaten Minahasa Selatan, Sulawesi Utara","Kabupaten Minahasa Selatan, Sulawesi Utara",SULAWESI UTARA,,Indonesia,,,,11.834.614,1.245.718.686,https://maps.google.com/?cid=0x0:0x478febc656de2698,,supermarket
,Minimarket,Alfamart,"Jl. Trans Sulawesi, Uwuran Satu, Kec. Amurang, Kabupaten Minahasa Selatan, Sulawesi Utara 95693","Uwuran Satu, Kec. Amurang, Kabupaten Minahasa Selatan",SULAWESI UTARA,95693.0,Indonesia,1500959.0,,,11.838.281,1.245.740.421,https://maps.google.com/?cid=0x0:0x5ca9bee395332a47,,supermarket
,Toko Swalayan,Alfamidi Kapitu,"5GQC+42J, Kapitu, Kec. Amurang Bar., Kabupaten Minahasa Selatan, Sulawesi Utara","Kabupaten Minahasa Selatan, Sulawesi Utara",SULAWESI UTARA,,Indonesia,,,,11.878.855,1.245.200.484,https://maps.google.com/?cid=0x0:0xfdde1a351711d517,,supermarket
,Minimarket,Alfamart Buyungon Minsel,"Jl. Trans Sulawesi, Buyungon, Kec. Amurang, Kabupaten Minahasa Selatan, Sulawesi Utara 95954","Buyungon, Kec. Amurang, Kabupaten Minahasa Selatan",SULAWESI UTARA,95954.0,Indonesia,1500959.0,,,11.814.013,1.245.680.356,https://maps.google.com/?cid=0x0:0x593de89fa78a8d18,,supermarket
,Pasar Grosir Sayur,Pasar Ikan Amurang,"5HMF+RFR, Jalan Pasar No.15, Ranoyapo, Amurang, Jalan, Uwuran Satu, Kec. Amurang, Kabupaten Minahasa Selatan, Sulawesi Utara","Kabupaten Minahasa Selatan, Sulawesi Utara",SULAWESI UTARA,,Indonesia,,,,11.856.506,1.245.724.531,https://maps.google.com/?cid=0x0:0x85cba4ebc83764eb,,supermarket
,Minimarket,INDOMARET KAPITU,"5GQ9+2X3, Jl. Trans Sulawesi, Kapitu, Kec. Amurang Bar., Kabupaten Minahasa Selatan, Sulawesi Utara","Kabupaten Minahasa Selatan, Sulawesi Utara",SULAWESI UTARA,,Indonesia,,,,1.187.514,1.245.199.166,https://maps.google.com/?cid=0x0:0x1d57b68a78e1138f,,supermarket
,Minimarket,Alfamart Kel. Bitung Amurang,"Jl. Trans Sulawesi, Bitung, Kec. Amurang, Kabupaten Minahasa Selatan, Sulawesi Utara 95871","Bitung, Kec. Amurang, Kabupaten Minahasa Selatan",SULAWESI UTARA,95871.0,Indonesia,1500959.0,,,11.927.777,1.245.831.571,https://maps.google.com/?cid=0x0:0xfd6f991577f512a9,,supermarket
,Toko bahan makanan,Mekar Store,"Uwuran Satu, Kec. Amurang, Kabupaten Minahasa Selatan, Sulawesi Utara","Kabupaten Minahasa Selatan, Sulawesi Utara",SULAWESI UTARA,,Indonesia,81356291613.0,,,11.836.319,1.245.736.835,https://maps.google.com/?cid=0x0:0xe50c3522a245117d,,supermarket
,Toko,CV ERTIGA / TOKO JEMMY,"Jl. Pasar, Ranoyapo, Kec. Amurang, Kabupaten Minahasa Selatan, Sulawesi Utara","Kabupaten Minahasa Selatan, Sulawesi Utara",SULAWESI UTARA,,Indonesia,81341034535.0,,,11.840.435,1.245.707.624,https://maps.google.com/?cid=0x0:0xc73a285d86dfdf01,,supermarket
,Minimarket,Indomaret Pasar Amurang,"5HMC+QRW, Area Pasar, Ranoyapo, Amurang, South Minahasa Regency, North Sulawesi","Kabupaten Minahasa Selatan, Sulawesi Utara",SULAWESI UTARA,,Indonesia,,,,11.844.961,1.245.720.773,https://maps.google.com/?cid=0x0:0xe3c8546c5c36c860,,supermarket
,Toko bahan makanan,Toko DIFRAN,"5HPF+3CG, Uwuran Satu, Kec. Amurang, Kabupaten Minahasa Selatan, Sulawesi Utara","Kabupaten Minahasa Selatan, Sulawesi Utara",SULAWESI UTARA,,Indonesia,85395629998.0,,,11.851.972,1.245.735.874,https://maps.google.com/?cid=0x0:0x55871aad101daf02,,supermarket
,Minimarket,Alfamidi Uwuran,"5HMG+P2M, Jl. Trans Sulawesi, Uwuran Satu, Kec. Amurang, Kabupaten Minahasa Selatan, Sulawesi Utara","Kabupaten Minahasa Selatan, Sulawesi Utara",SULAWESI UTARA,,Indonesia,,,,11.843.268,1.245.750.402,https://maps.google.com/?cid=0x0:0x8089b10155b7bb26,,supermarket
,Minimarket,Alfamart,"Jl. Trans Sulawesi, Pondang, Kec. Amurang Tim., Kabupaten Minahasa Selatan, Sulawesi Utara 95693","Pondang, Kec. Amurang Tim., Kabupaten Minahasa Selatan",SULAWESI UTARA,95693.0,Indonesia,1500959.0,,,12.089.382,1.245.940.613,https://maps.google.com/?cid=0x0:0x73a6f7b1af84db5a,,supermarket
,Minimarket,alfamidi pondang,"6H3R+W78, Pondang, Kec. Amurang Tim., Kabupaten Minahasa Selatan, Sulawesi Utara","Kabupaten Minahasa Selatan, Sulawesi Utara",SULAWESI UTARA,,Indonesia,,,,12.047.964,1.245.907.181,https://maps.google.com/?cid=0x0:0x899a94f611ac6ecf,,supermarket
,Kantor Perusahaan,PT. Cargill Indonesia,"5HR4+864, Jl. Trans Sulawesi, Kawangkoan Bawah, Kec. Amurang Bar., Kabupaten Minahasa Selatan, Sulawesi Utara","Kabupaten Minahasa Selatan, Sulawesi Utara",SULAWESI UTARA,,Indonesia,43022688.0,,,11.907.747,1.245.555.715,https://maps.google.com/?cid=0x0:0x443d0390fec7c7d1,,supermarket
,Kios,Amplang Ang Dapur Ijo - Jual Amplang Ikan Tenggiri Manado,"Lingkungan 2, Bitung, Kec. Amurang, Kabupaten Minahasa Selatan, Sulawesi Utara 95954","Bitung, Kec. Amurang, Kabupaten Minahasa Selatan",SULAWESI UTARA,95954.0,Indonesia,82297163015.0,,,11.912.728,1.245.823.608,https://maps.google.com/?cid=0x0:0xa8b192b8400588cd,,supermarket
,Pusat Perbelanjaan,DAngel Print,"5HPG+CQ9, Unnamed Road, Lewet, Kec. Amurang, Kabupaten Minahasa Selatan, Sulawesi Utara","Kabupaten Minahasa Selatan, Sulawesi Utara",SULAWESI UTARA,,Indonesia,81340376420.0,,,11.860.388,1.245.769.733,https://maps.google.com/?cid=0x0:0xeb5044901f1b1116,,supermarket
,Pasar,Pasar 54 Amurang,"Jl. Pasar kelurahan: Uwuran 1 No.54, kecamatan:, Kec. Amurang, Kabupaten Minahasa Selatan, Sulawesi Utara","Kabupaten Minahasa Selatan, Sulawesi Utara",SULAWESI UTARA,,Indonesia,81340598282.0,,,1.185.371,124.573,https://maps.google.com/?cid=0x0:0xaadb7146cd6cd6d7,,supermarket
,Minimarket,Alfamart,"Jl. Trans Sulawesi Jaga Iii, Kec, Kec. Amurang, Kabupaten Minahasa Selatan, Jawa Barat 95354","Kec, Kec. Amurang, Kabupaten Minahasa Selatan",SULAWESI UTARA,95354.0,Indonesia,1500959.0,,,11.714.838,1.244.476.037,https://maps.google.com/?cid=0x0:0xd798b7038bf73378,,supermarket
,Toko Roti,HOLLAND BAKERY AMURANG,"Jl. Trans Sulawesi, Uwuran Satu, Kec. Amurang, Kabupaten Minahasa Selatan, Sulawesi Utara 95855","Uwuran Satu, Kec. Amurang, Kabupaten Minahasa Selatan",SULAWESI UTARA,95855.0,Indonesia,81243331323.0,,,11.837.036,1.245.737.554,https://maps.google.com/?cid=0x0:0x70abf18a12965a75,,supermarket
,Toko bahan makanan,Sukses - Pusat Grosir,"Jl. Trans Sulawesi No.184, Rumoong Bawah, Kec. Amurang Bar., Kabupaten Minahasa Selatan, Sulawesi Utara","Kabupaten Minahasa Selatan, Sulawesi Utara",SULAWESI UTARA,,Indonesia,,,,11.823.508,124.569.437,https://maps.google.com/?cid=0x0:0x39d97a1849adc8c2,,supermarket
,Toko grosir,UD RICHI JUAL SEMBAKO GROSIR/ECER,"5GQC+895, Kapitu, Kec. Amurang Bar., Kabupaten Minahasa Selatan, Sulawesi Utara","Kabupaten Minahasa Selatan, Sulawesi Utara",SULAWESI UTARA,,Indonesia,,,,11.882.574,1.245.209.765,https://maps.google.com/?cid=0x0:0xbd16dc1a9ceb8a65,,supermarket
,Pusat Perbelanjaan,Warung Anugerah,"5HJJ+2RV, Jl. Amurang-Ratahan, Uwuran Dua, Kec. Amurang, Kabupaten Minahasa Selatan, Sulawesi Utara","Kabupaten Minahasa Selatan, Sulawesi Utara",SULAWESI UTARA,,Indonesia,82187292945.0,,,11.801.128,12.458.206,https://maps.google.com/?cid=0x0:0xb46fe5316206d075,,supermarket
,Toko bahan makanan,Toko Bintang 3,"Uwuran Satu, Kec. Amurang, Kabupaten Minahasa Selatan, Sulawesi Utara","Kabupaten Minahasa Selatan, Sulawesi Utara",SULAWESI UTARA,,Indonesia,81340467519.0,,,11.840.987,1.245.726.037,https://maps.google.com/?cid=0x0:0x5a80ab6427b1ac2c,,supermarket
,Toko,Warong Tator,"Jl. Trans Sulawesi No.184, Rumoong Bawah, Kec. Amurang Bar., Kabupaten Minahasa Selatan, Sulawesi Utara 95354","Rumoong Bawah, Kec. Amurang Bar., Kabupaten Minahasa Selatan",SULAWESI UTARA,95354.0,Indonesia,85394959998.0,,,11.825.638,1.245.614.632,https://maps.google.com/?cid=0x0:0xe7ed11b12de6e149,,supermarket
,Minimarket,Kios jajanan,"Jl. Trans Sulawesi, Kawangkoan Bawah, Kec. Amurang Bar., Kabupaten Minahasa Selatan, Sulawesi Utara","Kabupaten Minahasa Selatan, Sulawesi Utara",SULAWESI UTARA,,Indonesia,85248417312.0,,,11.930.919,1.245.534.961,https://maps.google.com/?cid=0x0:0xb0de8e76e4d7b1d3,,supermarket
,Toko bahan makanan,Kios astuti,"5GXX+VHQ, Kawangkoan Bawah, Kec. Amurang Bar., Kabupaten Minahasa Selatan, Sulawesi Utara","Kabupaten Minahasa Selatan, Sulawesi Utara",SULAWESI UTARA,,Indonesia,,,,1.199.712,1.245.489.875,https://maps.google.com/?cid=0x0:0x7f99d530856730bf,,supermarket
,Kios,Toko Minahasa,"Jl. Trans Sulawesi, Buyungon, Kec. Amurang, Kabupaten Minahasa Selatan, Sulawesi Utara","Kabupaten Minahasa Selatan, Sulawesi Utara",SULAWESI UTARA,,Indonesia,85256422990.0,,,11.825.815,1.245.715.635,https://maps.google.com/?cid=0x0:0xb32054edb40d1b57,,supermarket
,supermarket,Kec. Amurang Tim.,"Kabupaten Minahasa Selatan, Sulawesi Utara","Kabupaten Minahasa Selatan, Sulawesi Utara",SULAWESI UTARA,,Indonesia,,,,11.982.239,1.245.867.155,https://maps.google.com/?cid=0x0:0xb4cfe2dd829f0d3b,,supermarket
,Minimarket,Alfamart,"Jl. Trans Sulawesi, Pondang, Kec. Amurang Tim., Kabupaten Minahasa Selatan, Sulawesi Utara 95693","Pondang, Kec. Amurang Tim., Kabupaten Minahasa Selatan",SULAWESI UTARA,95693.0,Indonesia,1500959.0,,,12.089.382,1.245.940.613,https://maps.google.com/?cid=0x0:0x73a6f7b1af84db5a,,supermarket
,Minimarket,Sakura Mart,"Jl. Pasar No.15, Buyungon, Kec. Amurang, Kabupaten Minahasa Selatan, Sulawesi Utara","Kabupaten Minahasa Selatan, Sulawesi Utara",SULAWESI UTARA,,Indonesia,,,,11.834.614,1.245.718.686,https://maps.google.com/?cid=0x0:0x478febc656de2698,,supermarket
,Minimarket,Indomaret Raya Pondang Selatan,"6H2Q+C35, Pondang, Kec. Amurang Tim., Kabupaten Minahasa Selatan, Sulawesi Utara","Kabupaten Minahasa Selatan, Sulawesi Utara",SULAWESI UTARA,,Indonesia,1500580.0,,,12.010.221,1.245.877.267,https://maps.google.com/?cid=0x0:0x36881f2405d11e09,,supermarket
,Minimarket,Alfamart Lopana Satu,"Jl. Trans Sulawesi Satu, Lopana, Kec. Amurang Tim., Kabupaten Minahasa Selatan, Sulawesi Utara 95693","Lopana, Kec. Amurang Tim., Kabupaten Minahasa Selatan",SULAWESI UTARA,95693.0,Indonesia,1500959.0,,,1.216.743,1.246.021.334,https://maps.google.com/?cid=0x0:0x464e931c8c7db6ad,,supermarket
,Minimarket,Alfamart Kel. Bitung Amurang,"Jl. Trans Sulawesi, Bitung, Kec. Amurang, Kabupaten Minahasa Selatan, Sulawesi Utara 95871","Bitung, Kec. Amurang, Kabupaten Minahasa Selatan",SULAWESI UTARA,95871.0,Indonesia,1500959.0,,,11.927.777,1.245.831.571,https://maps.google.com/?cid=0x0:0xfd6f991577f512a9,,supermarket
,Minimarket,Alfamart,"Jl. Trans Sulawesi, Uwuran Satu, Kec. Amurang, Kabupaten Minahasa Selatan, Sulawesi Utara 95693","Uwuran Satu, Kec. Amurang, Kabupaten Minahasa Selatan",SULAWESI UTARA,95693.0,Indonesia,1500959.0,,,11.838.281,1.245.740.421,https://maps.google.com/?cid=0x0:0x5ca9bee395332a47,,supermarket
,Toko Kelontong Asia,Toko Nova Novi,"6H5V+42P, Jl. Trans Sulawesi, Ranomea, Kec. Amurang Tim., Kabupaten Minahasa Selatan, Sulawesi Utara","Kabupaten Minahasa Selatan, Sulawesi Utara",SULAWESI UTARA,,Indonesia,,,,12.078.373,1.245.925.714,https://maps.google.com/?cid=0x0:0x86d4cff06ddda4a5,,supermarket
,Toko bahan makanan,Sukses - Pusat Grosir,"Jl. Trans Sulawesi No.184, Rumoong Bawah, Kec. Amurang Bar., Kabupaten Minahasa Selatan, Sulawesi Utara","Kabupaten Minahasa Selatan, Sulawesi Utara",SULAWESI UTARA,,Indonesia,,,,11.823.508,124.569.437,https://maps.google.com/?cid=0x0:0x39d97a1849adc8c2,,supermarket
,Minimarket,Indomaret Amurang Timur,"6JG6+VQF, Jl. Trans Sulawesi, Lopana, Kec. Amurang Tim., Kabupaten Minahasa Selatan, Sulawesi Utara","Kabupaten Minahasa Selatan, Sulawesi Utara",SULAWESI UTARA,,Indonesia,,,,12.271.767,1.246.119.254,https://maps.google.com/?cid=0x0:0x9e2a835432ff8ff0,,supermarket
,Kios,JUSTICE CELL,"5HXP+64V, Ranomea, Kec. Amurang Tim., Kabupaten Minahasa Selatan, Sulawesi Utara","Kabupaten Minahasa Selatan, Sulawesi Utara",SULAWESI UTARA,,Indonesia,81394558756.0,,,11.981.121,1.245.852.922,https://maps.google.com/?cid=0x0:0x6b13d57dfb65f60f,,supermarket
,Toko Aksesori Ponsel,Singal Mini Mart,"5HXP+5H9, Ranomea, Kec. Amurang Tim., Kabupaten Minahasa Selatan, Sulawesi Utara","Kabupaten Minahasa Selatan, Sulawesi Utara",SULAWESI UTARA,,Indonesia,81241060282.0,,,1.197.914,1.245.864.988,https://maps.google.com/?cid=0x0:0x528bac1359acdab2,,supermarket
,Kios,Amplang Ang Dapur Ijo - Jual Amplang Ikan Tenggiri Manado,"Lingkungan 2, Bitung, Kec. Amurang, Kabupaten Minahasa Selatan, Sulawesi Utara 95954","Bitung, Kec. Amurang, Kabupaten Minahasa Selatan",SULAWESI UTARA,95954.0,Indonesia,82297163015.0,,,11.912.728,1.245.823.608,https://maps.google.com/?cid=0x0:0xa8b192b8400588cd,,supermarket
,Minimarket,Alfamart Buyungon Minsel,"Jl. Trans Sulawesi, Buyungon, Kec. Amurang, Kabupaten Minahasa Selatan, Sulawesi Utara 95954","Buyungon, Kec. Amurang, Kabupaten Minahasa Selatan",SULAWESI UTARA,95954.0,Indonesia,1500959.0,,,11.814.013,1.245.680.356,https://maps.google.com/?cid=0x0:0x593de89fa78a8d18,,supermarket
,Pembangunan Perumahan,My home chelsea,"6H3R+9XW, Jl. Perum Pondang, Pondang, Kec. Amurang Tim., Kabupaten Minahasa Selatan, Sulawesi Utara","Kabupaten Minahasa Selatan, Sulawesi Utara",SULAWESI UTARA,,Indonesia,85240545884.0,,,12.031.157,1.245.922.532,https://maps.google.com/?cid=0x0:0xcc0ae3dc2370e045,,supermarket
,Pasar Grosir Sayur,Pasar Ikan Amurang,"5HMF+RFR, Jalan Pasar No.15, Ranoyapo, Amurang, Jalan, Uwuran Satu, Kec. Amurang, Kabupaten Minahasa Selatan, Sulawesi Utara","Kabupaten Minahasa Selatan, Sulawesi Utara",SULAWESI UTARA,,Indonesia,,,,11.856.506,1.245.724.531,https://maps.google.com/?cid=0x0:0x85cba4ebc83764eb,,supermarket
,Toko,CV ERTIGA / TOKO JEMMY,"Jl. Pasar, Ranoyapo, Kec. Amurang, Kabupaten Minahasa Selatan, Sulawesi Utara","Kabupaten Minahasa Selatan, Sulawesi Utara",SULAWESI UTARA,,Indonesia,81341034535.0,,,11.840.435,1.245.707.624,https://maps.google.com/?cid=0x0:0xc73a285d86dfdf01,,supermarket
,,Toko IRVON,"6JR7+FQ2, Tumpaan Baru, Kec. Tumpaan, Kabupaten Minahasa Selatan, Sulawesi Utara","Kabupaten Minahasa Selatan, Sulawesi Utara",SULAWESI UTARA,,Indonesia,,,,12.411.456,1.246.143.952,https://maps.google.com/?cid=0x0:0xa285b9a8c075d06f,,supermarket
,Toko bahan makanan,Toko DIFRAN,"5HPF+3CG, Uwuran Satu, Kec. Amurang, Kabupaten Minahasa Selatan, Sulawesi Utara","Kabupaten Minahasa Selatan, Sulawesi Utara",SULAWESI UTARA,,Indonesia,85395629998.0,,,11.851.972,1.245.735.874,https://maps.google.com/?cid=0x0:0x55871aad101daf02,,supermarket
,Pusat Perbelanjaan,Indomaret Tumpaan,"6JR7+XQJ, Tumpaan Baru, Kec. Tumpaan, Kabupaten Minahasa Selatan, Sulawesi Utara","Kabupaten Minahasa Selatan, Sulawesi Utara",SULAWESI UTARA,,Indonesia,1500580.0,,,1.242.468,1.246.143.938,https://maps.google.com/?cid=0x0:0xc1335ea5e04b04e4,,supermarket
,Minimarket,"Alfamart, Tumpaan","Jl. Trans Sulawesi, Tumpaan Satu, Kec. Tumpaan, Kabupaten Minahasa Selatan, Sulawesi Utara 95352","Tumpaan Satu, Kec. Tumpaan, Kabupaten Minahasa Selatan",SULAWESI UTARA,95352.0,Indonesia,1500959.0,,,12.397.869,1.246.143.033,https://maps.google.com/?cid=0x0:0xc7f283af107b71fd,,supermarket
,Toko bahan makanan,Mekar Store,"Uwuran Satu, Kec. Amurang, Kabupaten Minahasa Selatan, Sulawesi Utara","Kabupaten Minahasa Selatan, Sulawesi Utara",SULAWESI UTARA,,Indonesia,81356291613.0,,,11.836.319,1.245.736.835,https://maps.google.com/?cid=0x0:0xe50c3522a245117d,,supermarket
,Pusat Perbelanjaan,DAngel Print,"5HPG+CQ9, Unnamed Road, Lewet, Kec. Amurang, Kabupaten Minahasa Selatan, Sulawesi Utara","Kabupaten Minahasa Selatan, Sulawesi Utara",SULAWESI UTARA,,Indonesia,81340376420.0,,,11.860.388,1.245.769.733,https://maps.google.com/?cid=0x0:0xeb5044901f1b1116,,supermarket
,Minimarket,Indomaret Pasar Amurang,"5HMC+QRW, Area Pasar, Ranoyapo, Amurang, South Minahasa Regency, North Sulawesi","Kabupaten Minahasa Selatan, Sulawesi Utara",SULAWESI UTARA,,Indonesia,,,,11.844.961,1.245.720.773,https://maps.google.com/?cid=0x0:0xe3c8546c5c36c860,,supermarket
,Minimarket,Alfamart Kawangkoan Bawah,"Jl. Trans Sulawesi No.Kel, Kawangkoan Bawah, Kec. Amurang Bar., Kabupaten Minahasa Selatan, Sulawesi Utara 95353","Kawangkoan Bawah, Kec. Amurang Bar., Kabupaten Minahasa Selatan",SULAWESI UTARA,95353.0,Indonesia,1500959.0,,,11.855.202,1.245.603.058,https://maps.google.com/?cid=0x0:0x9ebcee406237d0a3,,supermarket
,supermarket,Mirai shoop,"6JC3+R4H, Lopana, Kec. Amurang Tim., Kabupaten Minahasa Selatan, Sulawesi Utara","Kabupaten Minahasa Selatan, Sulawesi Utara",SULAWESI UTARA,,Indonesia,,,,1.222.071,1.246.028.447,https://maps.google.com/?cid=0x0:0x725b10b07cd52c5c,,supermarket
,Makanan Kecil,Kios Vicktor,"6H4R+38F, Pondang, Kec. Amurang Tim., Kabupaten Minahasa Selatan, Sulawesi Utara","Kabupaten Minahasa Selatan, Sulawesi Utara",SULAWESI UTARA,,Indonesia,,,,12.051.918,1.245.908.054,https://maps.google.com/?cid=0x0:0xbcb459e7b836a84d,,supermarket
,supermarket,Kec. Kumelembuai,"Kabupaten Minahasa Selatan, Sulawesi Utara","Kabupaten Minahasa Selatan, Sulawesi Utara",SULAWESI UTARA,,Indonesia,,,,10.871.129,1.244.894.698,https://maps.google.com/?cid=0x0:0xa2d03c63ae50dad,,supermarket
,Toko Daging Premium,Tim's Store,"Jaga 3, Malola, Kumelembuai, Kec. Motoling, Kabupaten Minahasa Selatan, Sulawesi Utara","Kabupaten Minahasa Selatan, Sulawesi Utara",SULAWESI UTARA,,Indonesia,81270072992.0,,,1.062.429,1.244.787.169,https://maps.google.com/?cid=0x0:0xeadfa72fe2ae9ff4,,supermarket
,Toko bahan makanan,Toko QR,"3GG4+HHV, Tokin Baru, Kec. Motoling Tim., Kabupaten Minahasa Selatan, Sulawesi Utara","Kabupaten Minahasa Selatan, Sulawesi Utara",SULAWESI UTARA,,Indonesia,85340522555.0,,,10.764.965,1.245.064.217,https://maps.google.com/?cid=0x0:0x47c8ca8137b0cca3,,supermarket
,Pusat Perbelanjaan,Alfamart Raya Motoling,"Jl. Raya Jaga Iii No.Desa, Motoling, South Minahasa Regency, North Sulawesi 95351","Motoling, South Minahasa Regency",SULAWESI UTARA,95351.0,Indonesia,1500959.0,,,10.395.324,1.244.797.611,https://maps.google.com/?cid=0x0:0xdb5ba7621aca7005,,supermarket
,Toko,Toko Nola Kiel,"2FXP+7CX, Jl. Amurang - Kotamobagu, Picuan Baru, Kec. Motoling, Kabupaten Minahasa Selatan, Sulawesi Utara","Kabupaten Minahasa Selatan, Sulawesi Utara",SULAWESI UTARA,,Indonesia,82395333117.0,,,1.048.234,1.244.861.242,https://maps.google.com/?cid=0x0:0x64488fec01fd4b4f,,supermarket
,Toko bahan makanan,Warung,"3F55+HFR Jaga 1, Malola, Kec. Kumelembuai, Kabupaten Minahasa Selatan, Sulawesi Utara","Kabupaten Minahasa Selatan, Sulawesi Utara",SULAWESI UTARA,,Indonesia,,,,10.589.976,124.458.641,https://maps.google.com/?cid=0x0:0xa6d276bac0639eb3,,supermarket
,Toko umum,toko yuda,"2CQR+XJF, Unnamed Road, Raanan Baru I, Kec. Motoling Bar., Kabupaten Minahasa Selatan, Sulawesi Utara","Kabupaten Minahasa Selatan, Sulawesi Utara",SULAWESI UTARA,,Indonesia,82296610664.0,,,1.039.939,1.244.415.475,https://maps.google.com/?cid=0x0:0x5fdb9c4f2d579e4c,,supermarket
,Toko,Indomaret leilem,"7R77+2GR, Leilem Dua, Kec. Sonder, Kabupaten Minahasa, Sulawesi Utara","Kabupaten Minahasa, Sulawesi Utara",SULAWESI UTARA,,Indonesia,,,,12.626.171,1.248.137.587,https://maps.google.com/?cid=0x0:0x19053d03d83c43c1,,supermarket
,Toko Swalayan,Alfamart Pinasungkulan,"Jl. Raya Pinasungkulan Utara No.Kel, Pinasungkulan, Kec. Modoinding, Kabupaten Minahasa Selatan, Sulawesi Utara 95696","Pinasungkulan, Kec. Modoinding, Kabupaten Minahasa Selatan",SULAWESI UTARA,95696.0,Indonesia,1500959.0,,,0.7963795,1.244.516.236,https://maps.google.com/?cid=0x0:0x1b70c354c7833653,,supermarket
,Agen Gas Elpiji,Pangkalan Gas Etny Muyu,"2FJ8+G43, Unnamed Road, Raanan Lama, Kec. Motoling, Kabupaten Minahasa Selatan, Sulawesi Utara","Kabupaten Minahasa Selatan, Sulawesi Utara",SULAWESI UTARA,,Indonesia,,,,10.312.561,1.244.653.104,https://maps.google.com/?cid=0x0:0x6b7df509c4635ffa,,supermarket
,supermarket,Syela Mart,"3FQW+M78, Kumelembuai I, Kec. Kumelembuai, Kabupaten Minahasa Selatan, Sulawesi Utara","Kabupaten Minahasa Selatan, Sulawesi Utara",SULAWESI UTARA,,Indonesia,,,,10.891.722,1.244.957.172,https://maps.google.com/?cid=0x0:0x66b03329d705d324,,supermarket
,Pertanian,Eleyes Farm,"3FQV+4C4, Kumelembuai, Kec. Kumelembuai, Kabupaten Minahasa Selatan, Sulawesi Utara","Kabupaten Minahasa Selatan, Sulawesi Utara",SULAWESI UTARA,,Indonesia,,,,10.877.719,1.244.935.663,https://maps.google.com/?cid=0x0:0x27d27e9096db88f1,,supermarket
,Komplek perumahan,Kios jomas (S.L),"Makasili, Kec. Kumelembuai, Manado, Sulawesi Utara 95956","Kec. Kumelembuai, Manado",SULAWESI UTARA,95956.0,Indonesia,,,,10.944.962,1.244.637.152,https://maps.google.com/?cid=0x0:0xc42dd90d47126c9b,,supermarket
,Toko bahan makanan,Warung KeyKev,"3F6J+M66, Malola, Kec. Kumelembuai, Kabupaten Minahasa Selatan, Sulawesi Utara","Kabupaten Minahasa Selatan, Sulawesi Utara",SULAWESI UTARA,,Indonesia,,,,10.616.418,1.244.805.328,https://maps.google.com/?cid=0x0:0xb7811e0efed75dff,,supermarket
,Pembangunan Perumahan,Kaligis Turangan,"3GJG+7M6, Tokin, Kec. Motoling Tim., Kabupaten Minahasa Selatan, Sulawesi Utara","Kabupaten Minahasa Selatan, Sulawesi Utara",SULAWESI UTARA,,Indonesia,85256425612.0,,,10.806.569,1.245.266.409,https://maps.google.com/?cid=0x0:0x9cc05cf23a893b35,,supermarket
,Toko Kue,Jimmy Workshop,"3GR2+9C8, Kumelembuai, Kec. Kumelembuai, Kabupaten Minahasa Selatan, Sulawesi Utara","Kabupaten Minahasa Selatan, Sulawesi Utara",SULAWESI UTARA,,Indonesia,,,,10.909.186,1.245.010.685,https://maps.google.com/?cid=0x0:0xc357678341ee865c,,supermarket
,Minimarket,Toni pongantung,"Jl. Tahun Depan No.133, Kumelembuai I, Kec. Kumelembuai, Kabupaten Minahasa Selatan, Sulawesi Utara","Kabupaten Minahasa Selatan, Sulawesi Utara",SULAWESI UTARA,,Indonesia,,,,10.895.926,1.244.964.277,https://maps.google.com/?cid=0x0:0x7074f2f8ca132336,,supermarket
,Kios,Kios REVA,"3GG7+G35, Tokin Baru, Kec. Motoling Tim., Kabupaten Minahasa Selatan, Sulawesi Utara","Kabupaten Minahasa Selatan, Sulawesi Utara",SULAWESI UTARA,,Indonesia,,,,10.765.181,1.245.127.673,https://maps.google.com/?cid=0x0:0x459874ed113328c2,,supermarket
,Toko bahan makanan,Manuel's SHOP,"Motoling Dua, Kec. Motoling, Kabupaten Minahasa Selatan, Sulawesi Utara","Kabupaten Minahasa Selatan, Sulawesi Utara",SULAWESI UTARA,,Indonesia,81343604412.0,,,10.383.845,1.244.731.061,https://maps.google.com/?cid=0x0:0x1c4f0de7b154629,,supermarket
,Toko bahan makanan,Kios RAVATA,"2FXP+4C6, Picuan Baru, Kec. Motoling, Kabupaten Minahasa Selatan, Sulawesi Utara","Kabupaten Minahasa Selatan, Sulawesi Utara",SULAWESI UTARA,,Indonesia,85145796251.0,,,10.477.757,1.244.860.312,https://maps.google.com/?cid=0x0:0x57f192d15ecc2406,,supermarket
,Toko,Kios IPEY,"2FQH+X2J, Motoling Satu, Kec. Motoling, Kabupaten Minahasa Selatan, Sulawesi Utara","Kabupaten Minahasa Selatan, Sulawesi Utara",SULAWESI UTARA,,Indonesia,82259383693.0,,,10.399.648,1.244.775.211,https://maps.google.com/?cid=0x0:0x183174a4ad3dcfed,,supermarket
,Kios,Kios Achiera,"jaga 2, Tokin, Kec. Motoling Tim., Kabupaten Minahasa Selatan, Sulawesi Utara 95956","Tokin, Kec. Motoling Tim., Kabupaten Minahasa Selatan",SULAWESI UTARA,95956.0,Indonesia,8976419352.0,,,10.806.624,1.245.210.203,https://maps.google.com/?cid=0x0:0x42c4a8db6ebfe8f9,,supermarket
,Minimarket,Kios hillary,"3GG6+CH7, Ranotana, Kec. Sario, Kota Manado, Sulawesi Utara","Kota Manado, Sulawesi Utara",SULAWESI UTARA,,Indonesia,,,,10.760.413,1.245.114.275,https://maps.google.com/?cid=0x0:0x70f290503c6e02a9,,supermarket
,Toko bahan makanan,Kel.Paat - Tombeng,"2FQH+6PV, Motoling, Kec. Motoling, Kabupaten Minahasa Selatan, Sulawesi Utara","Kabupaten Minahasa Selatan, Sulawesi Utara",SULAWESI UTARA,,Indonesia,,,,10.381.147,1.244.793.071,https://maps.google.com/?cid=0x0:0x373cbb35bc10c283,,supermarket
,supermarket,Kec. Maesaan,"Kabupaten Minahasa Selatan, Sulawesi Utara","Kabupaten Minahasa Selatan, Sulawesi Utara",SULAWESI UTARA,,Indonesia,,,,0.8779406,1.244.741.741,https://maps.google.com/?cid=0x0:0x7b9cfccbb759dc4d,,supermarket
,Toko Swalayan,TOKO LOURDES MULIA,"WF99+RWF, Tompaso Baru Dua, Kec. Tompaso Baru, Kabupaten Minahasa Selatan, Sulawesi Utara","Kabupaten Minahasa Selatan, Sulawesi Utara",SULAWESI UTARA,,Indonesia,811422273.0,,,0.9195512,1.244.697.817,https://maps.google.com/?cid=0x0:0x59f423fbdbf05f6,,supermarket
,Toko bahan makanan,toko Nor,"VF98+PWM, Tambelang, Kec. Maesaan, Kabupaten Minahasa Selatan, Sulawesi Utara","Kabupaten Minahasa Selatan, Sulawesi Utara",SULAWESI UTARA,,Indonesia,8971662081.0,,,0.8693304,1.244.672.944,https://maps.google.com/?cid=0x0:0xf0094660f82fb450,,supermarket
,Komplek perumahan,Alfamart Tumani,"Jl. Trans Sulawesi Utara, Tumani, Kec. Maesaan, Kabupaten Minahasa Selatan, Sulawesi Utara 95691","Tumani, Kec. Maesaan, Kabupaten Minahasa Selatan",SULAWESI UTARA,95691.0,Indonesia,1500959.0,,,0.9035442,124.472.235,https://maps.google.com/?cid=0x0:0xf5913f261f6b7ce,,supermarket
,Minimarket,Alfamart Tompasobaru Dua,"WF99+9RG, Jl. Amurang - Kotamobagu, Tompaso Baru Dua, Kec. Tompaso Baru, Kabupaten Minahasa Selatan, Sulawesi Utara 95357","Jl. Amurang - Kotamobagu, Tompaso Baru Dua, Kec. Tompaso Baru, Kabupaten Minahasa Selatan",SULAWESI UTARA,95357.0,Indonesia,1500959.0,,,0.9178208,1.244.699.173,https://maps.google.com/?cid=0x0:0xccb7a16f1c01841a,,supermarket
,Toko Swalayan,Kios jelita,"RCRP+GRR, Mokobang, Kec. Modoinding, Kabupaten Minahasa Selatan, Sulawesi Utara","Kabupaten Minahasa Selatan, Sulawesi Utara",SULAWESI UTARA,,Indonesia,,,,0.8410228,1.244.367.656,https://maps.google.com/?cid=0x0:0x9fc431fd31e2038c,,supermarket
,Toko Sepatu,Toko Sepatu Remitha,"WF99+WQW, Unnamed Road, Tompaso Baru Dua, Kec. Tompaso Baru, Kabupaten Minahasa Selatan, Sulawesi Utara","Kabupaten Minahasa Selatan, Sulawesi Utara",SULAWESI UTARA,,Indonesia,81373056665.0,,,0.9198665,1.244.694.477,https://maps.google.com/?cid=0x0:0xb624963f1663973e,,supermarket
,Toko Swalayan,Toko OKSPEL Tompasobaru,"WF99+CRW, Tompaso Baru Dua, Kec. Tompaso Baru, Kabupaten Minahasa Selatan, Sulawesi Utara","Kabupaten Minahasa Selatan, Sulawesi Utara",SULAWESI UTARA,,Indonesia,,,,0.9186182,1.244.695.701,https://maps.google.com/?cid=0x0:0xff5f6dc1c3c3a95,,supermarket
,Minimarket,Alfamidi Pinasungkulan,"QFV3+R3G, Pinasungkulan, Kec. Modoinding, Kabupaten Minahasa Selatan, Sulawesi Utara","Kabupaten Minahasa Selatan, Sulawesi Utara",SULAWESI UTARA,,Indonesia,,,,0.7945535,1.244.526.908,https://maps.google.com/?cid=0x0:0x79f4c4ff8708a405,,supermarket
,Toko Swalayan,Alfamart Pinasungkulan,"Jl. Raya Pinasungkulan Utara No.Kel, Pinasungkulan, Kec. Modoinding, Kabupaten Minahasa Selatan, Sulawesi Utara 95696","Pinasungkulan, Kec. Modoinding, Kabupaten Minahasa Selatan",SULAWESI UTARA,95696.0,Indonesia,1500959.0,,,0.7963795,1.244.516.236,https://maps.google.com/?cid=0x0:0x1b70c354c7833653,,supermarket
,Minimarket,Indomaret Tompaso Baru Satu,"WFFC+RGF, Tompaso Baru Satu, Kec. Tompaso Baru, Kabupaten Minahasa Selatan, Sulawesi Utara","Kabupaten Minahasa Selatan, Sulawesi Utara",SULAWESI UTARA,,Indonesia,211500580.0,,,0.924572,1.244.713.086,https://maps.google.com/?cid=0x0:0x5f763af84cf5a6f0,,supermarket
,Toko Swalayan,Kios Om Jeri,"RC6M+75G, Wulurmaatus, Kec. Modoinding, Kabupaten Minahasa Selatan, Sulawesi Utara","Kabupaten Minahasa Selatan, Sulawesi Utara",SULAWESI UTARA,,Indonesia,,,,0.8107615,1.244.329.112,https://maps.google.com/?cid=0x0:0x5ff36f631a46e6e3,,supermarket
,Toko Swalayan,Toko Anna,"38WW+8X8, Ongkaw II, Kec. Sinonsayang, Kabupaten Minahasa Selatan, Sulawesi Utara","Kabupaten Minahasa Selatan, Sulawesi Utara",SULAWESI UTARA,,Indonesia,,,,10.958,12.434.745,https://maps.google.com/?cid=0x0:0x1ecf58fa226a8a49,,supermarket
,Toko Swalayan,Kios Jelowa,"QFV3+23F, Pinasungkulan, Kec. Modoinding, Kabupaten Minahasa Selatan, Sulawesi Utara","Kabupaten Minahasa Selatan, Sulawesi Utara",SULAWESI UTARA,,Indonesia,,,,0.7925615,1.244.526.791,https://maps.google.com/?cid=0x0:0x9ae29f8f5fba7d8b,,supermarket
,Toko Swalayan,"Kios TOMBAK""""","jaga 5, Tompaso Baru Satu, Kec. Tompaso Baru, Kabupaten Minahasa Selatan, Sulawesi Utara 95358","Tompaso Baru Satu, Kec. Tompaso Baru, Kabupaten Minahasa Selatan",SULAWESI UTARA,95358.0,Indonesia,85757335138.0,,,0.9253398,1.244.709.056,https://maps.google.com/?cid=0x0:0xe5fee159e8760582,,supermarket
,Minimarket,Alfamart Sinisir,"Jl. Protokol, Sinisir, Kec. Modoinding, Kabupaten Minahasa Selatan, Sulawesi Utara 95358","Sinisir, Kec. Modoinding, Kabupaten Minahasa Selatan",SULAWESI UTARA,95358.0,Indonesia,1500959.0,,,0.7858006,1.244.539.758,https://maps.google.com/?cid=0x0:0x58292ec03ddc63b6,,supermarket
,Toko Swalayan,UD SUNNY,"WF2C+QWH, Tumani, Kec. Maesaan, Kabupaten Minahasa Selatan, Sulawesi Utara","Kabupaten Minahasa Selatan, Sulawesi Utara",SULAWESI UTARA,,Indonesia,82189272226.0,,,0.9019362,1.244.723.704,https://maps.google.com/?cid=0x0:0x709433dc198dc4f0,,supermarket
,Toko,Arham Store,"VFRF+MP4, Kinaweruan, Kec. Maesaan, Kabupaten Minahasa Selatan, Sulawesi Utara","Kabupaten Minahasa Selatan, Sulawesi Utara",SULAWESI UTARA,,Indonesia,81242479092.0,,,0.8916419,1.244.743.389,https://maps.google.com/?cid=0x0:0xff24f9ad4267420c,,supermarket
,Toko,warung edelweiss,"VCWR+PHQ, Temboan, Kec. Maesaan, Kabupaten Minahasa Selatan, Sulawesi Utara","Kabupaten Minahasa Selatan, Sulawesi Utara",SULAWESI UTARA,,Indonesia,81523847190.0,,,0.8968404,1.244.414.738,https://maps.google.com/?cid=0x0:0xaf8c42cc7aad219b,,supermarket
,Kios,Kios geral,"VF99+W64, Jl. Amurang - Kotamobagu, Tambelang, Kec. Maesaan, Kabupaten Minahasa Selatan, Sulawesi Utara","Kabupaten Minahasa Selatan, Sulawesi Utara",SULAWESI UTARA,,Indonesia,,,,0.869756,124.468.086,https://maps.google.com/?cid=0x0:0x122b8702cc9f2c9e,,supermarket
,Toko,Kios Cici,"WF2F+828, Tumani, Kec. Maesaan, Kabupaten Minahasa Selatan, Sulawesi Utara","Kabupaten Minahasa Selatan, Sulawesi Utara",SULAWESI UTARA,,Indonesia,,,,0.9007895,1.244.725.824,https://maps.google.com/?cid=0x0:0x45307300a79497c7,,supermarket
,Toko bahan makanan,Kios Anugrah Desa Tambelang,"VFGF+VJG, desa, Tambelang, Kec. Maesaan, Kabupaten Minahasa Selatan, Sulawesi Utara","Kabupaten Minahasa Selatan, Sulawesi Utara",SULAWESI UTARA,,Indonesia,81523975439.0,,,0.8771896,1.244.740.663,https://maps.google.com/?cid=0x0:0xc8479d87131a2cc2,,supermarket
,Toko Swalayan,Kios Mark,"WC2V+4QP, Temboan, Kec. Maesaan, Kabupaten Minahasa Selatan, Sulawesi Utara","Kabupaten Minahasa Selatan, Sulawesi Utara",SULAWESI UTARA,,Indonesia,,,,0.9003322,1.244.444.427,https://maps.google.com/?cid=0x0:0x8612c0f2ccc866d3,,supermarket
,Minimarket,"Kios Ken""Agen Mandiri (BPNT)""","Kinaweruan, Kec. Maesaan, Kabupaten Minahasa Selatan, Sulawesi Utara","Kabupaten Minahasa Selatan, Sulawesi Utara",SULAWESI UTARA,,Indonesia,,,,0.8919174,1.244.746.768,https://maps.google.com/?cid=0x0:0x8e6dc5c958334e00,,supermarket
,Toko bahan makanan,Kios Oma Yen,"WFC8+HR2, Pinaesaan, Kec. Tompaso Baru, Kabupaten Minahasa Selatan, Sulawesi Utara","Kabupaten Minahasa Selatan, Sulawesi Utara",SULAWESI UTARA,,Indonesia,,,,0.9212241,124.466.926,https://maps.google.com/?cid=0x0:0x29072fecb4b98586,,supermarket
,Minimarket,Chenzya Mart,"QFV3+C9W, Jl. Amurang - Kotamobagu, Pinasungkulan, Kec. Modoinding, Kabupaten Minahasa Selatan, Sulawesi Utara","Kabupaten Minahasa Selatan, Sulawesi Utara",SULAWESI UTARA,,Indonesia,85256367700.0,,,0.793602,1.244.534.507,https://maps.google.com/?cid=0x0:0x11282c733760865b,,supermarket
,Minimarket,Toko Kishy,"RC4W+44M, desa makaaroyen, depan balai, Kec. Modoinding, Kabupaten Minahasa Selatan, Sulawesi Utara","Kabupaten Minahasa Selatan, Sulawesi Utara",SULAWESI UTARA,,Indonesia,81244707954.0,,,0.8053282,1.244.453,https://maps.google.com/?cid=0x0:0xf900075b653c46e5,,supermarket
,supermarket,Kec. Modoinding,"Kabupaten Minahasa Selatan, Sulawesi Utara","Kabupaten Minahasa Selatan, Sulawesi Utara",SULAWESI UTARA,,Indonesia,,,,0.7934377,1.244.536.411,https://maps.google.com/?cid=0x0:0xd408c5df1a05e95c,,supermarket
,Toko Swalayan,Alfamart Pinasungkulan,"Jl. Raya Pinasungkulan Utara No.Kel, Pinasungkulan, Kec. Modoinding, Kabupaten Minahasa Selatan, Sulawesi Utara 95696","Pinasungkulan, Kec. Modoinding, Kabupaten Minahasa Selatan",SULAWESI UTARA,95696.0,Indonesia,1500959.0,,,0.7963795,1.244.516.236,https://maps.google.com/?cid=0x0:0x1b70c354c7833653,,supermarket
,Minimarket,Alfamidi Pinasungkulan,"QFV3+R3G, Pinasungkulan, Kec. Modoinding, Kabupaten Minahasa Selatan, Sulawesi Utara","Kabupaten Minahasa Selatan, Sulawesi Utara",SULAWESI UTARA,,Indonesia,,,,0.7945535,1.244.526.908,https://maps.google.com/?cid=0x0:0x79f4c4ff8708a405,,supermarket
,Pasar,Pasar modoinding,"RF84+H83, Pinasungkulan, Kec. Modoinding, Kabupaten Minahasa Selatan, Sulawesi Utara","Kabupaten Minahasa Selatan, Sulawesi Utara",SULAWESI UTARA,,Indonesia,,,,0.8163754,1.244.557.858,https://maps.google.com/?cid=0x0:0xd5bcc3e1c54ad54f,,supermarket
,Toko Swalayan,Kios Jelowa,"QFV3+23F, Pinasungkulan, Kec. Modoinding, Kabupaten Minahasa Selatan, Sulawesi Utara","Kabupaten Minahasa Selatan, Sulawesi Utara",SULAWESI UTARA,,Indonesia,,,,0.7925615,1.244.526.791,https://maps.google.com/?cid=0x0:0x9ae29f8f5fba7d8b,,supermarket
,Toko Swalayan,Kios Om Jeri,"RC6M+75G, Wulurmaatus, Kec. Modoinding, Kabupaten Minahasa Selatan, Sulawesi Utara","Kabupaten Minahasa Selatan, Sulawesi Utara",SULAWESI UTARA,,Indonesia,,,,0.8107615,1.244.329.112,https://maps.google.com/?cid=0x0:0x5ff36f631a46e6e3,,supermarket
,Minimarket,Alfamart Sinisir,"Jl. Protokol, Sinisir, Kec. Modoinding, Kabupaten Minahasa Selatan, Sulawesi Utara 95358","Sinisir, Kec. Modoinding, Kabupaten Minahasa Selatan",SULAWESI UTARA,95358.0,Indonesia,1500959.0,,,0.7858006,1.244.539.758,https://maps.google.com/?cid=0x0:0x58292ec03ddc63b6,,supermarket
,Toko bahan makanan,toko Nor,"VF98+PWM, Tambelang, Kec. Maesaan, Kabupaten Minahasa Selatan, Sulawesi Utara","Kabupaten Minahasa Selatan, Sulawesi Utara",SULAWESI UTARA,,Indonesia,8971662081.0,,,0.8693304,1.244.672.944,https://maps.google.com/?cid=0x0:0xf0094660f82fb450,,supermarket
,Minimarket,Chenzya Mart,"QFV3+C9W, Jl. Amurang - Kotamobagu, Pinasungkulan, Kec. Modoinding, Kabupaten Minahasa Selatan, Sulawesi Utara","Kabupaten Minahasa Selatan, Sulawesi Utara",SULAWESI UTARA,,Indonesia,85256367700.0,,,0.793602,1.244.534.507,https://maps.google.com/?cid=0x0:0x11282c733760865b,,supermarket
,Minimarket,Toko Kishy,"RC4W+44M, desa makaaroyen, depan balai, Kec. Modoinding, Kabupaten Minahasa Selatan, Sulawesi Utara","Kabupaten Minahasa Selatan, Sulawesi Utara",SULAWESI UTARA,,Indonesia,81244707954.0,,,0.8053282,1.244.453,https://maps.google.com/?cid=0x0:0xf900075b653c46e5,,supermarket
,Toko Kelontong Asia,Toko Sacro,"RC2X+54, Makaaruyen, Kec. Modoinding, Kabupaten Minahasa Selatan, Sulawesi Utara 95958","Makaaruyen, Kec. Modoinding, Kabupaten Minahasa Selatan",SULAWESI UTARA,95958.0,Indonesia,,,,0.8003743,1.244.476.995,https://maps.google.com/?cid=0x0:0xb1161ce0d01dea23,,supermarket
,Toko,Pangkalan LPG Woldy Pinasang,"RC4P+FX2, Palelon, Kec. Modoinding, Kabupaten Minahasa Selatan, Sulawesi Utara","Kabupaten Minahasa Selatan, Sulawesi Utara",SULAWESI UTARA,,Indonesia,,,,0.8061368,1.244.373.932,https://maps.google.com/?cid=0x0:0x815abe912776718f,,supermarket
,Pusat Perbelanjaan,Pertamini  Kios CLARA,"RC3W+3V8, Jl. Amurang - Kotamobagu, Makaaruyen, Kec. Modoinding, Kabupaten Minahasa Selatan, Sulawesi Utara","Kabupaten Minahasa Selatan, Sulawesi Utara",SULAWESI UTARA,,Indonesia,85242353336.0,,,0.8026717,124.447.196,https://maps.google.com/?cid=0x0:0x884bfadd90ce2729,,supermarket
,supermarket,Kec. Motoling Bar.,"Kabupaten Minahasa Selatan, Sulawesi Utara","Kabupaten Minahasa Selatan, Sulawesi Utara",SULAWESI UTARA,,Indonesia,,,,10.414.558,1.244.413.862,https://maps.google.com/?cid=0x0:0x6c6cffd8f0e2995b,,supermarket
,Pusat Perbelanjaan,Alfamart Raya Motoling,"Jl. Raya Jaga Iii No.Desa, Motoling, South Minahasa Regency, North Sulawesi 95351","Motoling, South Minahasa Regency",SULAWESI UTARA,95351.0,Indonesia,1500959.0,,,10.395.324,1.244.797.611,https://maps.google.com/?cid=0x0:0xdb5ba7621aca7005,,supermarket
,Toko,Toko X.Y Motoling,"2FRH+3W2, Motoling, Kec. Motoling, Kabupaten Minahasa Selatan, Sulawesi Utara","Kabupaten Minahasa Selatan, Sulawesi Utara",SULAWESI UTARA,,Indonesia,81356837203.0,,,10.401.424,1.244.797.799,https://maps.google.com/?cid=0x0:0xec4541f259849cf3,,supermarket
,Toko umum,toko yuda,"2CQR+XJF, Unnamed Road, Raanan Baru I, Kec. Motoling Bar., Kabupaten Minahasa Selatan, Sulawesi Utara","Kabupaten Minahasa Selatan, Sulawesi Utara",SULAWESI UTARA,,Indonesia,82296610664.0,,,1.039.939,1.244.415.475,https://maps.google.com/?cid=0x0:0x5fdb9c4f2d579e4c,,supermarket
,Toko bahan makanan,Warung Mega,"Jalan lopana Permai,jaga 6, Motoling Dua","Kabupaten Minahasa Selatan, Sulawesi Utara",SULAWESI UTARA,,Indonesia,,,,10.412.744,1.244.638.948,https://maps.google.com/?cid=0x0:0xa232348e28338a65,,supermarket
,Toko bahan makanan,Manuel's SHOP,"Motoling Dua, Kec. Motoling, Kabupaten Minahasa Selatan, Sulawesi Utara","Kabupaten Minahasa Selatan, Sulawesi Utara",SULAWESI UTARA,,Indonesia,81343604412.0,,,10.383.845,1.244.731.061,https://maps.google.com/?cid=0x0:0x1c4f0de7b154629,,supermarket
,Toko,Kios IPEY,"2FQH+X2J, Motoling Satu, Kec. Motoling, Kabupaten Minahasa Selatan, Sulawesi Utara","Kabupaten Minahasa Selatan, Sulawesi Utara",SULAWESI UTARA,,Indonesia,82259383693.0,,,10.399.648,1.244.775.211,https://maps.google.com/?cid=0x0:0x183174a4ad3dcfed,,supermarket
,Toko bahan makanan,Toko QR,"3GG4+HHV, Tokin Baru, Kec. Motoling Tim., Kabupaten Minahasa Selatan, Sulawesi Utara","Kabupaten Minahasa Selatan, Sulawesi Utara",SULAWESI UTARA,,Indonesia,85340522555.0,,,10.764.965,1.245.064.217,https://maps.google.com/?cid=0x0:0x47c8ca8137b0cca3,,supermarket
,Toko,Toko Nola Kiel,"2FXP+7CX, Jl. Amurang - Kotamobagu, Picuan Baru, Kec. Motoling, Kabupaten Minahasa Selatan, Sulawesi Utara","Kabupaten Minahasa Selatan, Sulawesi Utara",SULAWESI UTARA,,Indonesia,82395333117.0,,,1.048.234,1.244.861.242,https://maps.google.com/?cid=0x0:0x64488fec01fd4b4f,,supermarket
,Toko Daging Premium,Tim's Store,"Jaga 3, Malola, Kumelembuai, Kec. Motoling, Kabupaten Minahasa Selatan, Sulawesi Utara","Kabupaten Minahasa Selatan, Sulawesi Utara",SULAWESI UTARA,,Indonesia,81270072992.0,,,1.062.429,1.244.787.169,https://maps.google.com/?cid=0x0:0xeadfa72fe2ae9ff4,,supermarket
,Komplek perumahan,Indomaret Raanan Baru,"Raanan Baru, Kec. Motoling Bar., Kabupaten Minahasa Selatan, Sulawesi Utara 95942","Kec. Motoling Bar., Kabupaten Minahasa Selatan",SULAWESI UTARA,95942.0,Indonesia,,,,10.416.632,1.244.413.461,https://maps.google.com/?cid=0x0:0xf472b765f346e01b,,supermarket
,Toko,Kios Kr2,"29XQ+FWJ, Tondei Dua, Kec. Motoling Bar., Kabupaten Minahasa Selatan, Sulawesi Utara","Kabupaten Minahasa Selatan, Sulawesi Utara",SULAWESI UTARA,,Indonesia,81241111670.0,,,10.487.244,1.243.897.812,https://maps.google.com/?cid=0x0:0x17af6ee7998d7425,,supermarket
,Toko bahan makanan,Kel.Paat - Tombeng,"2FQH+6PV, Motoling, Kec. Motoling, Kabupaten Minahasa Selatan, Sulawesi Utara","Kabupaten Minahasa Selatan, Sulawesi Utara",SULAWESI UTARA,,Indonesia,,,,10.381.147,1.244.793.071,https://maps.google.com/?cid=0x0:0x373cbb35bc10c283,,supermarket
,Agen Gas Elpiji,Pangkalan Gas Etny Muyu,"2FJ8+G43, Unnamed Road, Raanan Lama, Kec. Motoling, Kabupaten Minahasa Selatan, Sulawesi Utara","Kabupaten Minahasa Selatan, Sulawesi Utara",SULAWESI UTARA,,Indonesia,,,,10.312.561,1.244.653.104,https://maps.google.com/?cid=0x0:0x6b7df509c4635ffa,,supermarket
,Komplek perumahan,Glowhomes,"jaga 7, Jl. Raya Tondei No.2, Tondei Dua, Kec. Motoling Bar., Kabupaten Minahasa Selatan, Sulawesi Utara","Kabupaten Minahasa Selatan, Sulawesi Utara",SULAWESI UTARA,,Indonesia,,,,1.049.491,1.243.887.147,https://maps.google.com/?cid=0x0:0xa789aa149b56ef59,,supermarket
,Toko bahan makanan,Kios RAVATA,"2FXP+4C6, Picuan Baru, Kec. Motoling, Kabupaten Minahasa Selatan, Sulawesi Utara","Kabupaten Minahasa Selatan, Sulawesi Utara",SULAWESI UTARA,,Indonesia,85145796251.0,,,10.477.757,1.244.860.312,https://maps.google.com/?cid=0x0:0x57f192d15ecc2406,,supermarket
,Minimarket,Alfamart Ongkaw II,"Jl. Trans Sulawesi No.Desa, Ongkaw Dua, Kec. Sinonsayang, Kabupaten Minahasa Selatan, Sulawesi Utara 95356","Ongkaw Dua, Kec. Sinonsayang, Kabupaten Minahasa Selatan",SULAWESI UTARA,95356.0,Indonesia,1500959.0,,,1.091.871,1.243.414.379,https://maps.google.com/?cid=0x0:0x86ee4191f4f497c6,,supermarket
,Toko Swalayan,Toko Anna,"38WW+8X8, Ongkaw II, Kec. Sinonsayang, Kabupaten Minahasa Selatan, Sulawesi Utara","Kabupaten Minahasa Selatan, Sulawesi Utara",SULAWESI UTARA,,Indonesia,,,,10.958,12.434.745,https://maps.google.com/?cid=0x0:0x1ecf58fa226a8a49,,supermarket
,Toko Ponsel,FENDI Cell,"Bar, Tondei Dua, Motoling Barat, South Minahasa Regency, North Sulawesi","Kabupaten Minahasa Selatan, Sulawesi Utara",SULAWESI UTARA,,Indonesia,81340093866.0,,,104.813,1.243.896.942,https://maps.google.com/?cid=0x0:0x1a472beff1dfebd6,,supermarket
,Toko bahan makanan,Warung,"3F55+HFR Jaga 1, Malola, Kec. Kumelembuai, Kabupaten Minahasa Selatan, Sulawesi Utara","Kabupaten Minahasa Selatan, Sulawesi Utara",SULAWESI UTARA,,Indonesia,,,,10.589.976,124.458.641,https://maps.google.com/?cid=0x0:0xa6d276bac0639eb3,,supermarket
,supermarket,Kec. Motoling Tim.,"Kabupaten Minahasa Selatan, Sulawesi Utara","Kabupaten Minahasa Selatan, Sulawesi Utara",SULAWESI UTARA,,Indonesia,,,,10.658.557,1.244.966.035,https://maps.google.com/?cid=0x0:0xc31c83b5c58d6f0d,,supermarket
,Toko bahan makanan,Toko QR,"3GG4+HHV, Tokin Baru, Kec. Motoling Tim., Kabupaten Minahasa Selatan, Sulawesi Utara","Kabupaten Minahasa Selatan, Sulawesi Utara",SULAWESI UTARA,,Indonesia,85340522555.0,,,10.764.965,1.245.064.217,https://maps.google.com/?cid=0x0:0x47c8ca8137b0cca3,,supermarket
,Toko Daging Premium,Tim's Store,"Jaga 3, Malola, Kumelembuai, Kec. Motoling, Kabupaten Minahasa Selatan, Sulawesi Utara","Kabupaten Minahasa Selatan, Sulawesi Utara",SULAWESI UTARA,,Indonesia,81270072992.0,,,1.062.429,1.244.787.169,https://maps.google.com/?cid=0x0:0xeadfa72fe2ae9ff4,,supermarket
,Pusat Perbelanjaan,Alfamart Raya Motoling,"Jl. Raya Jaga Iii No.Desa, Motoling, South Minahasa Regency, North Sulawesi 95351","Motoling, South Minahasa Regency",SULAWESI UTARA,95351.0,Indonesia,1500959.0,,,10.395.324,1.244.797.611,https://maps.google.com/?cid=0x0:0xdb5ba7621aca7005,,supermarket
,Kios,Kios REVA,"3GG7+G35, Tokin Baru, Kec. Motoling Tim., Kabupaten Minahasa Selatan, Sulawesi Utara","Kabupaten Minahasa Selatan, Sulawesi Utara",SULAWESI UTARA,,Indonesia,,,,10.765.181,1.245.127.673,https://maps.google.com/?cid=0x0:0x459874ed113328c2,,supermarket
,Toko,Toko Nola Kiel,"2FXP+7CX, Jl. Amurang - Kotamobagu, Picuan Baru, Kec. Motoling, Kabupaten Minahasa Selatan, Sulawesi Utara","Kabupaten Minahasa Selatan, Sulawesi Utara",SULAWESI UTARA,,Indonesia,82395333117.0,,,1.048.234,1.244.861.242,https://maps.google.com/?cid=0x0:0x64488fec01fd4b4f,,supermarket
,Toko,Toko X.Y Motoling,"2FRH+3W2, Motoling, Kec. Motoling, Kabupaten Minahasa Selatan, Sulawesi Utara","Kabupaten Minahasa Selatan, Sulawesi Utara",SULAWESI UTARA,,Indonesia,81356837203.0,,,10.401.424,1.244.797.799,https://maps.google.com/?cid=0x0:0xec4541f259849cf3,,supermarket
,Minimarket,INDOMARET RAYA MOTOLING,"2FQH+RXG, Jl. Amurang - Kotamobagu, Motoling, Kec. Motoling, Kabupaten Minahasa Selatan, Sulawesi Utara","Kabupaten Minahasa Selatan, Sulawesi Utara",SULAWESI UTARA,,Indonesia,,,,10.395.589,1.244.799.459,https://maps.google.com/?cid=0x0:0x283edda3665c1359,,supermarket
,Pusat Perbelanjaan,Depot Patricia Tan,"2GP7+W98, Unnamed Road, Picuan, Tim., Picuan, Kec. Motoling, Kabupaten Minahasa Selatan, Sulawesi Utara","Kabupaten Minahasa Selatan, Sulawesi Utara",SULAWESI UTARA,,Indonesia,82292754489.0,,,1.037.278,1.245.134.634,https://maps.google.com/?cid=0x0:0x9bf20f5c7f5975a1,,supermarket
,Kios,Kios Achiera,"jaga 2, Tokin, Kec. Motoling Tim., Kabupaten Minahasa Selatan, Sulawesi Utara 95956","Tokin, Kec. Motoling Tim., Kabupaten Minahasa Selatan",SULAWESI UTARA,95956.0,Indonesia,8976419352.0,,,10.806.624,1.245.210.203,https://maps.google.com/?cid=0x0:0x42c4a8db6ebfe8f9,,supermarket
,Toko bahan makanan,Kios RAVATA,"2FXP+4C6, Picuan Baru, Kec. Motoling, Kabupaten Minahasa Selatan, Sulawesi Utara","Kabupaten Minahasa Selatan, Sulawesi Utara",SULAWESI UTARA,,Indonesia,85145796251.0,,,10.477.757,1.244.860.312,https://maps.google.com/?cid=0x0:0x57f192d15ecc2406,,supermarket
,Toko,Kios IPEY,"2FQH+X2J, Motoling Satu, Kec. Motoling, Kabupaten Minahasa Selatan, Sulawesi Utara","Kabupaten Minahasa Selatan, Sulawesi Utara",SULAWESI UTARA,,Indonesia,82259383693.0,,,10.399.648,1.244.775.211,https://maps.google.com/?cid=0x0:0x183174a4ad3dcfed,,supermarket
,Minimarket,Toni pongantung,"Jl. Tahun Depan No.133, Kumelembuai I, Kec. Kumelembuai, Kabupaten Minahasa Selatan, Sulawesi Utara","Kabupaten Minahasa Selatan, Sulawesi Utara",SULAWESI UTARA,,Indonesia,,,,10.895.926,1.244.964.277,https://maps.google.com/?cid=0x0:0x7074f2f8ca132336,,supermarket
,Toko bahan makanan,Manuel's SHOP,"Motoling Dua, Kec. Motoling, Kabupaten Minahasa Selatan, Sulawesi Utara","Kabupaten Minahasa Selatan, Sulawesi Utara",SULAWESI UTARA,,Indonesia,81343604412.0,,,10.383.845,1.244.731.061,https://maps.google.com/?cid=0x0:0x1c4f0de7b154629,,supermarket
,Pertanian,Eleyes Farm,"3FQV+4C4, Kumelembuai, Kec. Kumelembuai, Kabupaten Minahasa Selatan, Sulawesi Utara","Kabupaten Minahasa Selatan, Sulawesi Utara",SULAWESI UTARA,,Indonesia,,,,10.877.719,1.244.935.663,https://maps.google.com/?cid=0x0:0x27d27e9096db88f1,,supermarket
,Toko bahan makanan,Kel.Paat - Tombeng,"2FQH+6PV, Motoling, Kec. Motoling, Kabupaten Minahasa Selatan, Sulawesi Utara","Kabupaten Minahasa Selatan, Sulawesi Utara",SULAWESI UTARA,,Indonesia,,,,10.381.147,1.244.793.071,https://maps.google.com/?cid=0x0:0x373cbb35bc10c283,,supermarket
,Sekolah menengah,SMA NEGERI 1 MOTOLING TIMUR,"3GHC+574, Tokin, Kec. Motoling Tim., Kabupaten Minahasa Selatan, Sulawesi Utara","Kabupaten Minahasa Selatan, Sulawesi Utara",SULAWESI UTARA,,Indonesia,,,,1.077.875,124.520.717,https://maps.google.com/?cid=0x0:0xfae5411f740f7c71,,supermarket
,Gereja,GMIM IMMANUEL TOKIN,"3GHC+F28, Tokin, Kec. Motoling Tim., Kabupaten Minahasa Selatan, Sulawesi Utara","Kabupaten Minahasa Selatan, Sulawesi Utara",SULAWESI UTARA,,Indonesia,,,,10.786.528,1.245.200.746,https://maps.google.com/?cid=0x0:0xe278559c3ef9dba9,,supermarket
,Toko umum,toko yuda,"2CQR+XJF, Unnamed Road, Raanan Baru I, Kec. Motoling Bar., Kabupaten Minahasa Selatan, Sulawesi Utara","Kabupaten Minahasa Selatan, Sulawesi Utara",SULAWESI UTARA,,Indonesia,82296610664.0,,,1.039.939,1.244.415.475,https://maps.google.com/?cid=0x0:0x5fdb9c4f2d579e4c,,supermarket
,Minimarket,Kios hillary,"3GG6+CH7, Ranotana, Kec. Sario, Kota Manado, Sulawesi Utara","Kota Manado, Sulawesi Utara",SULAWESI UTARA,,Indonesia,,,,10.760.413,1.245.114.275,https://maps.google.com/?cid=0x0:0x70f290503c6e02a9,,supermarket
,Toko Kue,Jimmy Workshop,"3GR2+9C8, Kumelembuai, Kec. Kumelembuai, Kabupaten Minahasa Selatan, Sulawesi Utara","Kabupaten Minahasa Selatan, Sulawesi Utara",SULAWESI UTARA,,Indonesia,,,,10.909.186,1.245.010.685,https://maps.google.com/?cid=0x0:0xc357678341ee865c,,supermarket
,Agen Gas Elpiji,Pangkalan Gas Etny Muyu,"2FJ8+G43, Unnamed Road, Raanan Lama, Kec. Motoling, Kabupaten Minahasa Selatan, Sulawesi Utara","Kabupaten Minahasa Selatan, Sulawesi Utara",SULAWESI UTARA,,Indonesia,,,,10.312.561,1.244.653.104,https://maps.google.com/?cid=0x0:0x6b7df509c4635ffa,,supermarket
,Toko bahan makanan,Warung KeyKev,"3F6J+M66, Malola, Kec. Kumelembuai, Kabupaten Minahasa Selatan, Sulawesi Utara","Kabupaten Minahasa Selatan, Sulawesi Utara",SULAWESI UTARA,,Indonesia,,,,10.616.418,1.244.805.328,https://maps.google.com/?cid=0x0:0xb7811e0efed75dff,,supermarket
,supermarket,Kec. Motoling Tim.,"Kabupaten Minahasa Selatan, Sulawesi Utara","Kabupaten Minahasa Selatan, Sulawesi Utara",SULAWESI UTARA,,Indonesia,,,,10.658.557,1.244.966.035,https://maps.google.com/?cid=0x0:0xc31c83b5c58d6f0d,,supermarket
,Toko bahan makanan,Toko QR,"3GG4+HHV, Tokin Baru, Kec. Motoling Tim., Kabupaten Minahasa Selatan, Sulawesi Utara","Kabupaten Minahasa Selatan, Sulawesi Utara",SULAWESI UTARA,,Indonesia,85340522555.0,,,10.764.965,1.245.064.217,https://maps.google.com/?cid=0x0:0x47c8ca8137b0cca3,,supermarket
,Toko Daging Premium,Tim's Store,"Jaga 3, Malola, Kumelembuai, Kec. Motoling, Kabupaten Minahasa Selatan, Sulawesi Utara","Kabupaten Minahasa Selatan, Sulawesi Utara",SULAWESI UTARA,,Indonesia,81270072992.0,,,1.062.429,1.244.787.169,https://maps.google.com/?cid=0x0:0xeadfa72fe2ae9ff4,,supermarket
,Pembangunan Perumahan,Kaligis Turangan,"3GJG+7M6, Tokin, Kec. Motoling Tim., Kabupaten Minahasa Selatan, Sulawesi Utara","Kabupaten Minahasa Selatan, Sulawesi Utara",SULAWESI UTARA,,Indonesia,85256425612.0,,,10.806.569,1.245.266.409,https://maps.google.com/?cid=0x0:0x9cc05cf23a893b35,,supermarket
,Pusat Perbelanjaan,Alfamart Raya Motoling,"Jl. Raya Jaga Iii No.Desa, Motoling, South Minahasa Regency, North Sulawesi 95351","Motoling, South Minahasa Regency",SULAWESI UTARA,95351.0,Indonesia,1500959.0,,,10.395.324,1.244.797.611,https://maps.google.com/?cid=0x0:0xdb5ba7621aca7005,,supermarket
,Kios,Kios REVA,"3GG7+G35, Tokin Baru, Kec. Motoling Tim., Kabupaten Minahasa Selatan, Sulawesi Utara","Kabupaten Minahasa Selatan, Sulawesi Utara",SULAWESI UTARA,,Indonesia,,,,10.765.181,1.245.127.673,https://maps.google.com/?cid=0x0:0x459874ed113328c2,,supermarket
,Pusat Perbelanjaan,Depot Patricia Tan,"2GP7+W98, Unnamed Road, Picuan, Tim., Picuan, Kec. Motoling, Kabupaten Minahasa Selatan, Sulawesi Utara","Kabupaten Minahasa Selatan, Sulawesi Utara",SULAWESI UTARA,,Indonesia,82292754489.0,,,1.037.278,1.245.134.634,https://maps.google.com/?cid=0x0:0x9bf20f5c7f5975a1,,supermarket
,Minimarket,INDOMARET RAYA MOTOLING,"2FQH+RXG, Jl. Amurang - Kotamobagu, Motoling, Kec. Motoling, Kabupaten Minahasa Selatan, Sulawesi Utara","Kabupaten Minahasa Selatan, Sulawesi Utara",SULAWESI UTARA,,Indonesia,,,,10.395.589,1.244.799.459,https://maps.google.com/?cid=0x0:0x283edda3665c1359,,supermarket
,Toko,Toko Nola Kiel,"2FXP+7CX, Jl. Amurang - Kotamobagu, Picuan Baru, Kec. Motoling, Kabupaten Minahasa Selatan, Sulawesi Utara","Kabupaten Minahasa Selatan, Sulawesi Utara",SULAWESI UTARA,,Indonesia,82395333117.0,,,1.048.234,1.244.861.242,https://maps.google.com/?cid=0x0:0x64488fec01fd4b4f,,supermarket
,Kios,Kios Achiera,"jaga 2, Tokin, Kec. Motoling Tim., Kabupaten Minahasa Selatan, Sulawesi Utara 95956","Tokin, Kec. Motoling Tim., Kabupaten Minahasa Selatan",SULAWESI UTARA,95956.0,Indonesia,8976419352.0,,,10.806.624,1.245.210.203,https://maps.google.com/?cid=0x0:0x42c4a8db6ebfe8f9,,supermarket
,Toko bahan makanan,Manuel's SHOP,"Motoling Dua, Kec. Motoling, Kabupaten Minahasa Selatan, Sulawesi Utara","Kabupaten Minahasa Selatan, Sulawesi Utara",SULAWESI UTARA,,Indonesia,81343604412.0,,,10.383.845,1.244.731.061,https://maps.google.com/?cid=0x0:0x1c4f0de7b154629,,supermarket
,Toko Swalayan,Golden Pasar Swalayan,"Ruko Boulevard, Jl. Piere Tendean No.5, Wenang Utara, Kec. Wenang, Kota Manado, Sulawesi Utara","Kota Manado, Sulawesi Utara",SULAWESI UTARA,,Indonesia,,,,14.884.317,1.248.379.329,https://maps.google.com/?cid=0x0:0x2d4fb94562e6ef96,,supermarket
,Toko Swalayan,Cool Supermarket,"8R7Q+J6R, Jl. Babe Palar, Walian, Kec. Tomohon Sel., Kota Tomohon, Sulawesi Utara","Kota Tomohon, Sulawesi Utara",SULAWESI UTARA,,Indonesia,431351252.0,,,1.314.119,1.248.380.117,https://maps.google.com/?cid=0x0:0x37eb35a3e5b2af17,,supermarket
,Toko,Kios IPEY,"2FQH+X2J, Motoling Satu, Kec. Motoling, Kabupaten Minahasa Selatan, Sulawesi Utara","Kabupaten Minahasa Selatan, Sulawesi Utara",SULAWESI UTARA,,Indonesia,82259383693.0,,,10.399.648,1.244.775.211,https://maps.google.com/?cid=0x0:0x183174a4ad3dcfed,,supermarket
,Toko umum,toko yuda,"2CQR+XJF, Unnamed Road, Raanan Baru I, Kec. Motoling Bar., Kabupaten Minahasa Selatan, Sulawesi Utara","Kabupaten Minahasa Selatan, Sulawesi Utara",SULAWESI UTARA,,Indonesia,82296610664.0,,,1.039.939,1.244.415.475,https://maps.google.com/?cid=0x0:0x5fdb9c4f2d579e4c,,supermarket
,Toko bahan makanan,Kel.Paat - Tombeng,"2FQH+6PV, Motoling, Kec. Motoling, Kabupaten Minahasa Selatan, Sulawesi Utara","Kabupaten Minahasa Selatan, Sulawesi Utara",SULAWESI UTARA,,Indonesia,,,,10.381.147,1.244.793.071,https://maps.google.com/?cid=0x0:0x373cbb35bc10c283,,supermarket
,Toko bahan makanan,Kios RAVATA,"2FXP+4C6, Picuan Baru, Kec. Motoling, Kabupaten Minahasa Selatan, Sulawesi Utara","Kabupaten Minahasa Selatan, Sulawesi Utara",SULAWESI UTARA,,Indonesia,85145796251.0,,,10.477.757,1.244.860.312,https://maps.google.com/?cid=0x0:0x57f192d15ecc2406,,supermarket
,Minimarket,Toni pongantung,"Jl. Tahun Depan No.133, Kumelembuai I, Kec. Kumelembuai, Kabupaten Minahasa Selatan, Sulawesi Utara","Kabupaten Minahasa Selatan, Sulawesi Utara",SULAWESI UTARA,,Indonesia,,,,10.895.926,1.244.964.277,https://maps.google.com/?cid=0x0:0x7074f2f8ca132336,,supermarket
,Pertanian,Eleyes Farm,"3FQV+4C4, Kumelembuai, Kec. Kumelembuai, Kabupaten Minahasa Selatan, Sulawesi Utara","Kabupaten Minahasa Selatan, Sulawesi Utara",SULAWESI UTARA,,Indonesia,,,,10.877.719,1.244.935.663,https://maps.google.com/?cid=0x0:0x27d27e9096db88f1,,supermarket
,Minimarket,Kios hillary,"3GG6+CH7, Ranotana, Kec. Sario, Kota Manado, Sulawesi Utara","Kota Manado, Sulawesi Utara",SULAWESI UTARA,,Indonesia,,,,10.760.413,1.245.114.275,https://maps.google.com/?cid=0x0:0x70f290503c6e02a9,,supermarket
,Agen Gas Elpiji,Pangkalan Gas Etny Muyu,"2FJ8+G43, Unnamed Road, Raanan Lama, Kec. Motoling, Kabupaten Minahasa Selatan, Sulawesi Utara","Kabupaten Minahasa Selatan, Sulawesi Utara",SULAWESI UTARA,,Indonesia,,,,10.312.561,1.244.653.104,https://maps.google.com/?cid=0x0:0x6b7df509c4635ffa,,supermarket
,Toko Kue,Jimmy Workshop,"3GR2+9C8, Kumelembuai, Kec. Kumelembuai, Kabupaten Minahasa Selatan, Sulawesi Utara","Kabupaten Minahasa Selatan, Sulawesi Utara",SULAWESI UTARA,,Indonesia,,,,10.909.186,1.245.010.685,https://maps.google.com/?cid=0x0:0xc357678341ee865c,,supermarket
,Toko bahan makanan,Warung KeyKev,"3F6J+M66, Malola, Kec. Kumelembuai, Kabupaten Minahasa Selatan, Sulawesi Utara","Kabupaten Minahasa Selatan, Sulawesi Utara",SULAWESI UTARA,,Indonesia,,,,10.616.418,1.244.805.328,https://maps.google.com/?cid=0x0:0xb7811e0efed75dff,,supermarket
,supermarket,Kec. Ranoyapo,"Kabupaten Minahasa Selatan, Sulawesi Utara","Kabupaten Minahasa Selatan, Sulawesi Utara",SULAWESI UTARA,,Indonesia,,,,0.9993883,1.244.993.385,https://maps.google.com/?cid=0x0:0x1e005a1bf0ed1cb7,,supermarket
,Minimarket,Alfamart Pontak,"Jl. Raya Amurang - Tompaso Baru, Pontak, Kec. Ranoyapo, Kabupaten Minahasa Selatan, Sulawesi Utara 95694","Pontak, Kec. Ranoyapo, Kabupaten Minahasa Selatan",SULAWESI UTARA,95694.0,Indonesia,1500959.0,,,0.9995863,1.244.994.498,https://maps.google.com/?cid=0x0:0x2c3358b7f2091ffb,,supermarket
,Minimarket,Alfa Mart,"XFQR+MFG, Jl. Amurang - Kotamobagu, Poopo, Kec. Ranoyapo, Kabupaten Minahasa Selatan, Sulawesi Utara","Kabupaten Minahasa Selatan, Sulawesi Utara",SULAWESI UTARA,,Indonesia,,,,0.9891838,1.244.912.119,https://maps.google.com/?cid=0x0:0x64be151e06171796,,supermarket
,Toko umum,Toko Natania Neke,"XFC5+PF2, Poopo Bar., Kec. Ranoyapo, Kabupaten Minahasa Selatan, Sulawesi Utara","Kabupaten Minahasa Selatan, Sulawesi Utara",SULAWESI UTARA,,Indonesia,82188460913.0,,,0.9717595,124.458.641,https://maps.google.com/?cid=0x0:0xca603a86f633547a,,supermarket
,Toko,Toko Nola Kiel,"2FXP+7CX, Jl. Amurang - Kotamobagu, Picuan Baru, Kec. Motoling, Kabupaten Minahasa Selatan, Sulawesi Utara","Kabupaten Minahasa Selatan, Sulawesi Utara",SULAWESI UTARA,,Indonesia,82395333117.0,,,1.048.234,1.244.861.242,https://maps.google.com/?cid=0x0:0x64488fec01fd4b4f,,supermarket
,Toko bahan makanan,Steven Kawan Mujair,"XFQR+CM6, Poopo, Kec. Ranoyapo, Kabupaten Minahasa Selatan, Sulawesi Utara","Kabupaten Minahasa Selatan, Sulawesi Utara",SULAWESI UTARA,,Indonesia,,,,0.9885467,1.244.916.278,https://maps.google.com/?cid=0x0:0x2f286e237433fe3b,,supermarket
,Pusat Perbelanjaan,Alfamart Raya Motoling,"Jl. Raya Jaga Iii No.Desa, Motoling, South Minahasa Regency, North Sulawesi 95351","Motoling, South Minahasa Regency",SULAWESI UTARA,95351.0,Indonesia,1500959.0,,,10.395.324,1.244.797.611,https://maps.google.com/?cid=0x0:0xdb5ba7621aca7005,,supermarket
,Toko Sepatu,Toko Sepatu Remitha,"WF99+WQW, Unnamed Road, Tompaso Baru Dua, Kec. Tompaso Baru, Kabupaten Minahasa Selatan, Sulawesi Utara","Kabupaten Minahasa Selatan, Sulawesi Utara",SULAWESI UTARA,,Indonesia,81373056665.0,,,0.9198665,1.244.694.477,https://maps.google.com/?cid=0x0:0xb624963f1663973e,,supermarket
,Agen Gas Elpiji,Pangkalan Gas Etny Muyu,"2FJ8+G43, Unnamed Road, Raanan Lama, Kec. Motoling, Kabupaten Minahasa Selatan, Sulawesi Utara","Kabupaten Minahasa Selatan, Sulawesi Utara",SULAWESI UTARA,,Indonesia,,,,10.312.561,1.244.653.104,https://maps.google.com/?cid=0x0:0x6b7df509c4635ffa,,supermarket
,Toko Swalayan,TOKO LOURDES MULIA,"WF99+RWF, Tompaso Baru Dua, Kec. Tompaso Baru, Kabupaten Minahasa Selatan, Sulawesi Utara","Kabupaten Minahasa Selatan, Sulawesi Utara",SULAWESI UTARA,,Indonesia,811422273.0,,,0.9195512,1.244.697.817,https://maps.google.com/?cid=0x0:0x59f423fbdbf05f6,,supermarket
,Restoran,R. Piri Tamboto Family,"6PHP+WC8, Rumoong Atas, Kec. Tareran, Kabupaten Minahasa Selatan, Sulawesi Utara","Kabupaten Minahasa Selatan, Sulawesi Utara",SULAWESI UTARA,,Indonesia,,,,12.297.904,12.473.607,https://maps.google.com/?cid=0x0:0x8a29ffd4a77a9dfa,,supermarket
,Minimarket,Alfamart Tompasobaru Dua,"WF99+9RG, Jl. Amurang - Kotamobagu, Tompaso Baru Dua, Kec. Tompaso Baru, Kabupaten Minahasa Selatan, Sulawesi Utara 95357","Jl. Amurang - Kotamobagu, Tompaso Baru Dua, Kec. Tompaso Baru, Kabupaten Minahasa Selatan",SULAWESI UTARA,95357.0,Indonesia,1500959.0,,,0.9178208,1.244.699.173,https://maps.google.com/?cid=0x0:0xccb7a16f1c01841a,,supermarket
,Toko umum,toko yuda,"2CQR+XJF, Unnamed Road, Raanan Baru I, Kec. Motoling Bar., Kabupaten Minahasa Selatan, Sulawesi Utara","Kabupaten Minahasa Selatan, Sulawesi Utara",SULAWESI UTARA,,Indonesia,82296610664.0,,,1.039.939,1.244.415.475,https://maps.google.com/?cid=0x0:0x5fdb9c4f2d579e4c,,supermarket
,Toko umum,Kios Kirei,"XFQP+5HP, Poopo Bar., Kec. Ranoyapo, Kabupaten Minahasa Selatan, Sulawesi Utara","Kabupaten Minahasa Selatan, Sulawesi Utara",SULAWESI UTARA,,Indonesia,,,,0.9879612,1.244.864.394,https://maps.google.com/?cid=0x0:0x9a6fdca782d2b10d,,supermarket
,Toko Swalayan,Multimart Ranotana,"Jl. Stadion Klabat, Ranotana, Kec. Sario, Kota Manado, Sulawesi Utara 95114","Ranotana, Kec. Sario, Kota Manado",SULAWESI UTARA,95114.0,Indonesia,,,,14.593.079,124.837.613,https://maps.google.com/?cid=0x0:0x92248971a0c4fc9a,,supermarket
,Kios,Kios Pulsa Sumangkut-Masinambow,"XGX2+HF5, Pontak Satu, Kec. Ranoyapo, Kabupaten Minahasa Selatan, Sulawesi Utara","Kabupaten Minahasa Selatan, Sulawesi Utara",SULAWESI UTARA,,Indonesia,82343332806.0,,,0.9988798,1.245.012.297,https://maps.google.com/?cid=0x0:0x242b04be92b01aa,,supermarket
,Toko bahan makanan,Kios RAVATA,"2FXP+4C6, Picuan Baru, Kec. Motoling, Kabupaten Minahasa Selatan, Sulawesi Utara","Kabupaten Minahasa Selatan, Sulawesi Utara",SULAWESI UTARA,,Indonesia,85145796251.0,,,10.477.757,1.244.860.312,https://maps.google.com/?cid=0x0:0x57f192d15ecc2406,,supermarket
,Komplek perumahan,Rumah sindy menajang,"XFPM+JV4, Poopo Bar., Kec. Ranoyapo, Kabupaten Minahasa Selatan, Sulawesi Utara","Kabupaten Minahasa Selatan, Sulawesi Utara",SULAWESI UTARA,,Indonesia,,,,0.9865015,1.244.847.009,https://maps.google.com/?cid=0x0:0x427b2b62c00fecdd,,supermarket
,Toko Buah dan Sayur,Kios pisang WMK,"2F9R+HQ6, Lompad Baru, Kec. Ranoyapo, Kabupaten Minahasa Selatan, Sulawesi Utara","Kabupaten Minahasa Selatan, Sulawesi Utara",SULAWESI UTARA,,Indonesia,,,,10.198.655,12.449.218,https://maps.google.com/?cid=0x0:0xfbe7c51fe704abd2,,supermarket
,Toko Buah dan Sayur,Aneka pisang Imbing,"XFVV+56H, Poopo Utara, Kec. Ranoyapo, Kabupaten Minahasa Selatan, Sulawesi Utara","Kabupaten Minahasa Selatan, Sulawesi Utara",SULAWESI UTARA,,Indonesia,,,,0.992921,124.493.104,https://maps.google.com/?cid=0x0:0x4eebedf48f15d00d,,supermarket
,Pusat Perbelanjaan,Depot Patricia Tan,"2GP7+W98, Unnamed Road, Picuan, Tim., Picuan, Kec. Motoling, Kabupaten Minahasa Selatan, Sulawesi Utara","Kabupaten Minahasa Selatan, Sulawesi Utara",SULAWESI UTARA,,Indonesia,82292754489.0,,,1.037.278,1.245.134.634,https://maps.google.com/?cid=0x0:0x9bf20f5c7f5975a1,,supermarket
,Toko,Kios IPEY,"2FQH+X2J, Motoling Satu, Kec. Motoling, Kabupaten Minahasa Selatan, Sulawesi Utara","Kabupaten Minahasa Selatan, Sulawesi Utara",SULAWESI UTARA,,Indonesia,82259383693.0,,,10.399.648,1.244.775.211,https://maps.google.com/?cid=0x0:0x183174a4ad3dcfed,,supermarket
,supermarket,Kec. Sinonsayang,"Kabupaten Minahasa Selatan, Sulawesi Utara","Kabupaten Minahasa Selatan, Sulawesi Utara",SULAWESI UTARA,,Indonesia,,,,10.964.547,1.243.480.233,https://maps.google.com/?cid=0x0:0x459f24c060a3cdba,,supermarket
,Minimarket,Alfamart Ongkaw II,"Jl. Trans Sulawesi No.Desa, Ongkaw Dua, Kec. Sinonsayang, Kabupaten Minahasa Selatan, Sulawesi Utara 95356","Ongkaw Dua, Kec. Sinonsayang, Kabupaten Minahasa Selatan",SULAWESI UTARA,95356.0,Indonesia,1500959.0,,,1.091.871,1.243.414.379,https://maps.google.com/?cid=0x0:0x86ee4191f4f497c6,,supermarket
,Minimarket,Sinonsayang Indomaret,"2885+H83, Jl. Trans Sulawesi, Poigar II, Kec. Sinonsayang, Kabupaten Minahasa Selatan, Sulawesi Utara","Kabupaten Minahasa Selatan, Sulawesi Utara",SULAWESI UTARA,,Indonesia,,,,10.163.996,1.243.082.982,https://maps.google.com/?cid=0x0:0xce06ae064d573dca,,supermarket
,Toko,Kios Selfy,"38XV+3WF, Ongkaw II, Kec. Sinonsayang, Kabupaten Minahasa Selatan, Sulawesi Utara","Kabupaten Minahasa Selatan, Sulawesi Utara",SULAWESI UTARA,,Indonesia,81242064290.0,,,10.976.962,1.243.447.924,https://maps.google.com/?cid=0x0:0xa1d57c1468ace52f,,supermarket
,Pasar,PigFarm Ongkaw,"38RR+3QJ, Ongkaw II, Kec. Sinonsayang, Kabupaten Minahasa Selatan, Sulawesi Utara","Kabupaten Minahasa Selatan, Sulawesi Utara",SULAWESI UTARA,,Indonesia,81241637263.0,,,10.902.105,1.243.418.845,https://maps.google.com/?cid=0x0:0x2817eeabfcf24653,,supermarket
,Grosir Barang Kelontong,Toko Winvalentine,"38WX+93W, Jl. Trans Sulawesi, Ongkaw II, Kec. Sinonsayang, Kabupaten Minahasa Selatan, Sulawesi Utara","Kabupaten Minahasa Selatan, Sulawesi Utara",SULAWESI UTARA,,Indonesia,81354996409.0,,,10.959.978,1.243.477.011,https://maps.google.com/?cid=0x0:0x9965560eb33f51cb,,supermarket
,Toko bahan makanan,Kios Senjiro,"484W+P57, Boyonpante, Kec. Sinonsayang, Kabupaten Minahasa Selatan, Sulawesi Utara","Kabupaten Minahasa Selatan, Sulawesi Utara",SULAWESI UTARA,,Indonesia,,,,11.067.751,1.243.454.329,https://maps.google.com/?cid=0x0:0x8c745e25545032a9,,supermarket
,Kios,Kios Charis,"482X+HMM, Unnamed Road, Jl. Trans Sulawesi, Boyonpante, Sinonsayang, South Minahasa Regency, North Sulawesi","Kabupaten Minahasa Selatan, Sulawesi Utara",SULAWESI UTARA,,Indonesia,,,,11.014.674,124.349.158,https://maps.google.com/?cid=0x0:0xda26f3a08a040bc0,,supermarket
,Toko bahan makanan,Kios NM,"Boyong pante 2, Kabupaten Minahasa Selatan, Sulawesi Utara 95959",Kabupaten Minahasa Selatan,SULAWESI UTARA,95959.0,Indonesia,,,,1.110.893,1.243.426.283,https://maps.google.com/?cid=0x0:0xd088c20e28c9e358,,supermarket
,Pasar,Pasar Ongkaw,"38RQ+JP8, Ongkaw II, Kec. Sinonsayang, Kabupaten Minahasa Selatan, Sulawesi Utara","Kabupaten Minahasa Selatan, Sulawesi Utara",SULAWESI UTARA,,Indonesia,81343501790.0,,,10.915.259,1.243.393.334,https://maps.google.com/?cid=0x0:0x197b77b39d6817f,,supermarket
,Toko Alat Pancing,Toko Anugerah Pancing,"2895+MV7, Poigar II, Kec. Sinonsayang, Kabupaten Minahasa Selatan, Sulawesi Utara","Kabupaten Minahasa Selatan, Sulawesi Utara",SULAWESI UTARA,,Indonesia,82299208202.0,,,10.191.704,1.243.096.875,https://maps.google.com/?cid=0x0:0x8cff864052093c2b,,supermarket
,Makanan Kecil,Warung Umay,"28F5+486, Kompleks pasar minggu, Tanamon, Kec. Sinonsayang, Kabupaten Minahasa Selatan, Sulawesi Utara","Kabupaten Minahasa Selatan, Sulawesi Utara",SULAWESI UTARA,,Indonesia,,,,10.227.778,1.243.082.783,https://maps.google.com/?cid=0x0:0xe45686df763c7ff5,,supermarket
,Toko Elektronik,Michaela Cell,"484W+C45, Jl. Garuda, Boyonpante, Kec. Sinonsayang, Kabupaten Minahasa Selatan, Sulawesi Utara","Kabupaten Minahasa Selatan, Sulawesi Utara",SULAWESI UTARA,,Indonesia,85256770257.0,,,11.060.041,1.243.453.693,https://maps.google.com/?cid=0x0:0x169751b7f7b4e61d,,supermarket
,Toko,Kios Treysia,"2895+VX9, Jl. Trans Sulawesi, Poigar II, Kec. Sinonsayang, Kabupaten Minahasa Selatan, Sulawesi Utara","Kabupaten Minahasa Selatan, Sulawesi Utara",SULAWESI UTARA,,Indonesia,,,,10.196.736,1.243.099.747,https://maps.google.com/?cid=0x0:0x478e4b8344e4b04a,,supermarket
,Toko bahan makanan,KIOS KARUNIA,"II, Boyonpante, Kec. Sinonsayang, Kabupaten Minahasa Selatan, Sulawesi Utara","Kabupaten Minahasa Selatan, Sulawesi Utara",SULAWESI UTARA,,Indonesia,82290811133.0,,,11.116.208,1.243.428.634,https://maps.google.com/?cid=0x0:0x516382ddb67f5b40,,supermarket
,Toko bahan makanan,Kios Ramla,"483W+JQJ, Jl. Trans Sulawesi, Boyonpante, Kec. Sinonsayang, Kabupaten Minahasa Selatan, Sulawesi Utara","Kabupaten Minahasa Selatan, Sulawesi Utara",SULAWESI UTARA,,Indonesia,,,,11.040.845,1.243.468.826,https://maps.google.com/?cid=0x0:0x6d300f4986f08343,,supermarket
,Toko,Alfamart Poigar II,"Jl. Trans Sulawesi No.Desa, Poigar II, Kec. Poigar, Kabupaten Bolaang Mongondow, Sulawesi Utara 95753","Poigar II, Kec. Poigar, Kabupaten Bolaang Mongondow",SULAWESI UTARA,95753.0,Indonesia,1500959.0,,,0.9987894,124.289.409,https://maps.google.com/?cid=0x0:0xb6eb02060fc3e742,,supermarket
,Toko bahan makanan,Kios Tante Dei,"38XX+499, Jl. Trans Sulawesi, Ongkaw II, Kec. Sinonsayang, Kabupaten Minahasa Selatan, Sulawesi Utara","Kabupaten Minahasa Selatan, Sulawesi Utara",SULAWESI UTARA,,Indonesia,,,,10.977.766,1.243.484.998,https://maps.google.com/?cid=0x0:0x23973c8c2c62b416,,supermarket
,supermarket,Kec. Tareran,"Kabupaten Minahasa Selatan, Sulawesi Utara","Kabupaten Minahasa Selatan, Sulawesi Utara",SULAWESI UTARA,,Indonesia,,,,12.295.372,1.247.372.988,https://maps.google.com/?cid=0x0:0xac5d2c923abab162,,supermarket
,Restoran,R. Piri Tamboto Family,"6PHP+WC8, Rumoong Atas, Kec. Tareran, Kabupaten Minahasa Selatan, Sulawesi Utara","Kabupaten Minahasa Selatan, Sulawesi Utara",SULAWESI UTARA,,Indonesia,,,,12.297.904,12.473.607,https://maps.google.com/?cid=0x0:0x8a29ffd4a77a9dfa,,supermarket
,Pasar,Pasar 45 Lansot Tareran,"6PHP+VWJ, Lansot, Kec. Tareran, Kabupaten Minahasa Selatan, Sulawesi Utara","Kabupaten Minahasa Selatan, Sulawesi Utara",SULAWESI UTARA,,Indonesia,,,,12.297.146,1.247.372.809,https://maps.google.com/?cid=0x0:0xc48fafe27e7fb679,,supermarket
,Minimarket,Shope Grosir Tareran,"6PCP+9PW, Rumoong Atas, Kec. Tareran, Kabupaten Minahasa Selatan, Sulawesi Utara","Kabupaten Minahasa Selatan, Sulawesi Utara",SULAWESI UTARA,,Indonesia,89694985994.0,,,12.209.906,1.247.368.226,https://maps.google.com/?cid=0x0:0xc8c685d402b0119c,,supermarket
,Toko Swalayan,Indomaret Tareran,"6PHP+QP9, Rumoong Atas, Kec. Tareran, Kabupaten Minahasa Selatan, Sulawesi Utara","Kabupaten Minahasa Selatan, Sulawesi Utara",SULAWESI UTARA,,Indonesia,,,,1.229.447,1.247.368.672,https://maps.google.com/?cid=0x0:0xee39b352efea4b52,,supermarket
,Toko Swalayan,Erdita Mart,"6Q2Q+FG6, Kinali, Kec. Kawangkoan, Kabupaten Minahasa, Sulawesi Utara","Kabupaten Minahasa, Sulawesi Utara",SULAWESI UTARA,,Indonesia,,,,12.011.529,1.247.887.598,https://maps.google.com/?cid=0x0:0x7b92f8e809e4f40f,,supermarket
,Minimarket,Warung Imanuel New,"7Q5G+PQ2, Talikuran, Kec. Sonder, Kabupaten Minahasa, Sulawesi Utara","Kabupaten Minahasa, Sulawesi Utara",SULAWESI UTARA,,Indonesia,,,,12.594.016,1.247.769.461,https://maps.google.com/?cid=0x0:0xd43632fdbb00dd6e,,supermarket
,Toko,Bintang Timur,"Kinali, Kec. Kawangkoan, Kabupaten Minahasa, Sulawesi Utara","Kabupaten Minahasa, Sulawesi Utara",SULAWESI UTARA,,Indonesia,,,,12.007.269,1.247.899.112,https://maps.google.com/?cid=0x0:0x58ec0b4ff4890627,,supermarket
,Toko Kelontong Asia,Warung,"Rumoong Atas, Kec. Tareran, Manado, Sulawesi Utara 95353","Kec. Tareran, Manado",SULAWESI UTARA,95353.0,Indonesia,,,,12.291.469,1.247.363.115,https://maps.google.com/?cid=0x0:0x63cae65a22a75daf,,supermarket
,Toko Swalayan,Angelashop,"7Q5M+R48, Tounelet, Kec. Sonder, Kabupaten Minahasa, Sulawesi Utara","Kabupaten Minahasa, Sulawesi Utara",SULAWESI UTARA,,Indonesia,,,,12.592.772,1.247.833.274,https://maps.google.com/?cid=0x0:0x9eebfc11d11a7030,,supermarket
,Minimarket,RELITA JAYA,"Pinamorongan, Kec. Tareran, Kabupaten Minahasa Selatan, Sulawesi Utara 95953","Kec. Tareran, Kabupaten Minahasa Selatan",SULAWESI UTARA,95953.0,Indonesia,85337165884.0,,,12.472.031,1.246.628.421,https://maps.google.com/?cid=0x0:0xfb4b39a523801924,,supermarket
,supermarket,Sondakh sorongan,"6PM3+G3H, Wuwuk, Kec. Tareran, Kabupaten Minahasa Selatan, Sulawesi Utara","Kabupaten Minahasa Selatan, Sulawesi Utara",SULAWESI UTARA,,Indonesia,,,,1.233.402,124.702.166,https://maps.google.com/?cid=0x0:0x785cbd59a588a9db,,supermarket
,Kios,"Depot Air Isi Ulang  Air Terang""""","6PJR+55W, Lansot, Kec. Tareran, Kabupaten Minahasa Selatan, Sulawesi Utara","Kabupaten Minahasa Selatan, Sulawesi Utara",SULAWESI UTARA,,Indonesia,81244770002.0,,,12.304.875,1.247.404.531,https://maps.google.com/?cid=0x0:0xe36e33e4668a5a34,,supermarket
,Toko bahan makanan,Toko Senduk Somba,"6PRM+3MP, Unnamed Road, Wiau Lapi, Tareran, South Minahasa Regency, North Sulawesi","Kabupaten Minahasa Selatan, Sulawesi Utara",SULAWESI UTARA,,Indonesia,,,,12.402.123,1.247.341.903,https://maps.google.com/?cid=0x0:0xdf930c9dd228b530,,supermarket
,Toko,Kios Gwen,"6PHQ+W67, Lansot, Kec. Tareran, Kabupaten Minahasa Selatan, Sulawesi Utara","Kabupaten Minahasa Selatan, Sulawesi Utara",SULAWESI UTARA,,Indonesia,,,,12.297.787,1.247.380.517,https://maps.google.com/?cid=0x0:0x8e17ac0ab5b27dee,,supermarket
,Restoran,Warung Masye,"6PHP+3JX, Jl. Tumpaan - Kawangkoan, Rumoong Atas, Kec. Tareran, Kabupaten Minahasa Selatan, Sulawesi Utara","Kabupaten Minahasa Selatan, Sulawesi Utara",SULAWESI UTARA,,Indonesia,85240884261.0,,,1.227.734,1.247.365.971,https://maps.google.com/?cid=0x0:0x6dfa0a834df679d3,,supermarket
,Toko bahan makanan,WARUNG CHRISCHA,"6P58+PF4, Tumaluntung, Kec. Tareran, Kabupaten Minahasa Selatan, Sulawesi Utara","Kabupaten Minahasa Selatan, Sulawesi Utara",SULAWESI UTARA,,Indonesia,,,,12.092.569,1.247.162.079,https://maps.google.com/?cid=0x0:0x51c424196b2fb74a,,supermarket
,Toko bahan makanan,Somba Tumbel,"6PRJ+2P6, Wiau Lapi, barat, Kabupaten Minahasa Selatan, Sulawesi Utara","Kabupaten Minahasa Selatan, Sulawesi Utara",SULAWESI UTARA,,Indonesia,81242228836.0,,,124.004,1.247.317.727,https://maps.google.com/?cid=0x0:0x92ade71a2386508,,supermarket
,supermarket,SASA CM KIOS,"7P4M+X48, Utara, Talaitad, Sulta, Kabupaten Minahasa Selatan, Sulawesi Utara","Kabupaten Minahasa Selatan, Sulawesi Utara",SULAWESI UTARA,,Indonesia,85800001978.0,,,12.547.154,1.247.284.821,https://maps.google.com/?cid=0x0:0xe4f47909e6556b09,,supermarket
,Toko bahan makanan,Pabrik Tahu Lita,"6PQR+8HH, Wiau Lapi, Kec. Tareran, Kabupaten Minahasa Selatan, Sulawesi Utara","Kabupaten Minahasa Selatan, Sulawesi Utara",SULAWESI UTARA,,Indonesia,,,,12.383.627,1.247.415.029,https://maps.google.com/?cid=0x0:0x6c128924b53393da,,supermarket
,Toko bahan makanan,Dauhanbeni Momongan Sarajar,"7P2G+GVW, Talaitad, Sulta, Kabupaten Minahasa Selatan, Sulawesi Utara","Kabupaten Minahasa Selatan, Sulawesi Utara",SULAWESI UTARA,,Indonesia,,,,12.513.736,1.247.272.153,https://maps.google.com/?cid=0x0:0x438ef1443804b434,,supermarket
,Toko bahan makanan,Kios Ferari,"7Q2J+88X, Kolongan Atas, Kec. Sonder, Kabupaten Minahasa, Sulawesi Utara","Kabupaten Minahasa, Sulawesi Utara",SULAWESI UTARA,,Indonesia,,,,12.508.594,1.247.808.545,https://maps.google.com/?cid=0x0:0x185e2f08caeff759,,supermarket
,Komplek perumahan,Pioh . Pongoh,"6QXM+33H, Jl. kawangkoan-Tomohon, Kolongan Atas, Kec. Sonder, Kabupaten Minahasa, Sulawesi Utara","Kabupaten Minahasa, Sulawesi Utara",SULAWESI UTARA,,Indonesia,85157101157.0,,,12.476.892,124.782.729,https://maps.google.com/?cid=0x0:0xf7a4868f493c7681,,supermarket
,supermarket,Kec. Tatapaan,"Kabupaten Minahasa Selatan, Sulawesi Utara","Kabupaten Minahasa Selatan, Sulawesi Utara",SULAWESI UTARA,,Indonesia,,,,12.864.443,1.246.016.444,https://maps.google.com/?cid=0x0:0x2764afda0dd2b42d,,supermarket
,Toko Swalayan,Indomaret Tatapaan,"7JP2+HW6, Paslaten, Kec. Tatapaan, Kabupaten Minahasa Selatan, Sulawesi Utara","Kabupaten Minahasa Selatan, Sulawesi Utara",SULAWESI UTARA,,Indonesia,,,,12.864.036,1.246.022.664,https://maps.google.com/?cid=0x0:0xb0841fb4bb86eb34,,supermarket
,Minimarket,Indomaret Matani Satu,"7J36+XPP, Matani Satu, Kec. Tumpaan, Kabupaten Minahasa Selatan, Sulawesi Utara","Kabupaten Minahasa Selatan, Sulawesi Utara",SULAWESI UTARA,,Indonesia,,,,12.549.637,1.246.118.381,https://maps.google.com/?cid=0x0:0xc8bba905b0614522,,supermarket
,Toko,UD Brafely,"7JP2+GMG, Unnamed Road, Paslaten, Kec. Tatapaan, Kabupaten Minahasa Selatan, Sulawesi Utara","Kabupaten Minahasa Selatan, Sulawesi Utara",SULAWESI UTARA,,Indonesia,81340008277.0,,,12.863.016,1.246.017.054,https://maps.google.com/?cid=0x0:0x37bb8e1991f2696a,,supermarket
,Toko Kelontong Asia,Warung oma non lengkong,"9HG6+VPV, Unnamed Road, Rap-Rap, Kec. Tatapaan, Kabupaten Minahasa Selatan, Sulawesi Utara","Kabupaten Minahasa Selatan, Sulawesi Utara",SULAWESI UTARA,,Indonesia,82197045564.0,,,1.377.226,124.561.799,https://maps.google.com/?cid=0x0:0xf2f3faf3b5bd0097,,supermarket
,Toko bahan makanan,toko Srikandi,"9HH5+4G5, Ds Arakan, jaga 1, Kec. Tatapaan, Kabupaten Minahasa Selatan, Sulawesi Utara","Kabupaten Minahasa Selatan, Sulawesi Utara",SULAWESI UTARA,,Indonesia,85244636606.0,,,13.777.706,1.245.588.685,https://maps.google.com/?cid=0x0:0xb0db40b480581bb6,,supermarket
,Toko bahan makanan,Warung Rasit Pangumpia,"9HG3+6M5, Desa :Arakan kec. : Tatapaan kab. :, Arakan, Kec. Tatapaan, Kabupaten Minahasa Selatan, Sulawesi Utara","Kabupaten Minahasa Selatan, Sulawesi Utara",SULAWESI UTARA,,Indonesia,82191011478.0,,,13.755.168,1.245.542.232,https://maps.google.com/?cid=0x0:0x8b10beb723fc64fe,,supermarket
,Toko,Kios isabelle,"8J4C+5RV jaga 4, Sulu, Kec. Tatapaan, Kabupaten Minahasa Selatan, Sulawesi Utara","Kabupaten Minahasa Selatan, Sulawesi Utara",SULAWESI UTARA,,Indonesia,,,,13.054.794,1.246.220.371,https://maps.google.com/?cid=0x0:0x43d2e162d47d439c,,supermarket
,Minimarket,KIOS ATHENA CELL,"Lelema, Kec. Tumpaan, Kabupaten Minahasa Selatan, Sulawesi Utara","Kabupaten Minahasa Selatan, Sulawesi Utara",SULAWESI UTARA,,Indonesia,85656643425.0,,,12.800.873,1.246.387.698,https://maps.google.com/?cid=0x0:0x939cc926588f4e9b,,supermarket
,Toko bahan makanan,Marchel rantung,"7J46+9FJ, Matani, Kec. Tumpaan, Kabupaten Minahasa Selatan, Sulawesi Utara","Kabupaten Minahasa Selatan, Sulawesi Utara",SULAWESI UTARA,,Indonesia,,,,12.560.309,1.246.111.174,https://maps.google.com/?cid=0x0:0x986a1d626eb6d2be,,supermarket
,Minimarket,Kios Noldi Dian,"7JJR+QX2, Lelema, Kec. Tumpaan, Kabupaten Minahasa Selatan, Sulawesi Utara","Kabupaten Minahasa Selatan, Sulawesi Utara",SULAWESI UTARA,,Indonesia,82345034750.0,,,1.281.882,12.464.238,https://maps.google.com/?cid=0x0:0xc2c2b07e2f037a7,,supermarket
,Toko Elektronik,Kios JST Cell Popontolen,"7JGF+MP6, Unnamed Road, Popontolen, Kec. Tumpaan, Kabupaten Minahasa Selatan, Sulawesi Utara","Kabupaten Minahasa Selatan, Sulawesi Utara",SULAWESI UTARA,,Indonesia,,,,12.766.577,1.246.242.779,https://maps.google.com/?cid=0x0:0x86ea23d2274b5819,,supermarket
,Toko bahan makanan,Toko Rachel Penesen,"Jl. Trans Sulawesi, Munte, Kec. Tumpaan, Kabupaten Minahasa Selatan, Sulawesi Utara 95352","Munte, Kec. Tumpaan, Kabupaten Minahasa Selatan",SULAWESI UTARA,95352.0,Indonesia,85298258558.0,,,13.228.287,1.246.672.772,https://maps.google.com/?cid=0x0:0xbceb152b1cb9329f,,supermarket
,Pemasok Telur,Markas telur balap,"7JMR+3XF, Lelema, Kec. Tumpaan, Kabupaten Minahasa Selatan, Sulawesi Utara","Kabupaten Minahasa Selatan, Sulawesi Utara",SULAWESI UTARA,,Indonesia,,,,12.826.936,1.246.424.342,https://maps.google.com/?cid=0x0:0x63c43ea5bfa48843,,supermarket
,supermarket,SIPER MART,"5C7R+M79, Unnamed Road, Tenga, Kec. Tenga, Kabupaten Minahasa Selatan, Sulawesi Utara","Kabupaten Minahasa Selatan, Sulawesi Utara",SULAWESI UTARA,,Indonesia,82120333000.0,,,11.641.597,1.244.407.413,https://maps.google.com/?cid=0x0:0x1000fb2fecb4d5ad,,supermarket
,supermarket,Sulawesi Utara 95355,"Pakuweru, Kec. Tenga, Kabupaten Minahasa Selatan, Sulawesi Utara","Kabupaten Minahasa Selatan, Sulawesi Utara",SULAWESI UTARA,,Indonesia,,,,11.636.763,1.244.326.123,https://maps.google.com/?cid=0x0:0x19db91f9dd28ea10,,supermarket
,Toko Swalayan,Golden Pasar Swalayan,"Ruko Boulevard, Jl. Piere Tendean No.5, Wenang Utara, Kec. Wenang, Kota Manado, Sulawesi Utara","Kota Manado, Sulawesi Utara",SULAWESI UTARA,,Indonesia,,,,14.884.317,1.248.379.329,https://maps.google.com/?cid=0x0:0x2d4fb94562e6ef96,,supermarket
,Toko Swalayan,Multi Mart Modern,"Jalan Sam Ratulangi No.6Jalan, Jl. Sam Ratulangi No.6, Wenang Utara, Kec. Wenang, Kota Manado, Sulawesi Utara","Kota Manado, Sulawesi Utara",SULAWESI UTARA,,Indonesia,,,,149.387,124.840.147,https://maps.google.com/?cid=0x0:0xcb1fd34eb0d46af1,,supermarket
,Minimarket,Alfamart Buyungon Minsel,"Jl. Trans Sulawesi, Buyungon, Kec. Amurang, Kabupaten Minahasa Selatan, Sulawesi Utara 95954","Buyungon, Kec. Amurang, Kabupaten Minahasa Selatan",SULAWESI UTARA,95954.0,Indonesia,1500959.0,,,11.814.013,1.245.680.356,https://maps.google.com/?cid=0x0:0x593de89fa78a8d18,,supermarket
,supermarket,"Modesto, California 95355","Modesto, California, Amerika Serikat","Modesto, California, Amerika Serikat",SULAWESI UTARA,,Indonesia,,,,376.704.504,-1.209.302.603,https://maps.google.com/?cid=0x0:0x42956776a227ac5c,,supermarket
,supermarket,DoubleTree by Hilton Hotel Modesto,"1150 9th St, Modesto, CA 95354, Amerika Serikat","Modesto, CA",SULAWESI UTARA,95354.0,Indonesia,12095266000.0,,,376.417.301,-121.002.812,https://maps.google.com/?cid=0x0:0x1e822495d6664891,,supermarket
,supermarket,Kec. Tompaso Baru,"Kabupaten Minahasa Selatan, Sulawesi Utara","Kabupaten Minahasa Selatan, Sulawesi Utara",SULAWESI UTARA,,Indonesia,,,,0.919931,124.469.716,https://maps.google.com/?cid=0x0:0xd34cfb653da52844,,supermarket
,Toko Swalayan,TOKO LOURDES MULIA,"WF99+RWF, Tompaso Baru Dua, Kec. Tompaso Baru, Kabupaten Minahasa Selatan, Sulawesi Utara","Kabupaten Minahasa Selatan, Sulawesi Utara",SULAWESI UTARA,,Indonesia,811422273.0,,,0.9195512,1.244.697.817,https://maps.google.com/?cid=0x0:0x59f423fbdbf05f6,,supermarket
,Minimarket,Alfamart Tompasobaru Dua,"WF99+9RG, Jl. Amurang - Kotamobagu, Tompaso Baru Dua, Kec. Tompaso Baru, Kabupaten Minahasa Selatan, Sulawesi Utara 95357","Jl. Amurang - Kotamobagu, Tompaso Baru Dua, Kec. Tompaso Baru, Kabupaten Minahasa Selatan",SULAWESI UTARA,95357.0,Indonesia,1500959.0,,,0.9178208,1.244.699.173,https://maps.google.com/?cid=0x0:0xccb7a16f1c01841a,,supermarket
,Kedai Kopi,Pasar Tompaso Baru,"WF98+MH6, Pinaesaan, Kec. Tompaso Baru, Kabupaten Minahasa Selatan, Sulawesi Utara","Kabupaten Minahasa Selatan, Sulawesi Utara",SULAWESI UTARA,,Indonesia,,,,0.9191603,1.244.663.832,https://maps.google.com/?cid=0x0:0xa7f6acc54f935cbf,,supermarket
,Toko Sepatu,Toko Sepatu Remitha,"WF99+WQW, Unnamed Road, Tompaso Baru Dua, Kec. Tompaso Baru, Kabupaten Minahasa Selatan, Sulawesi Utara","Kabupaten Minahasa Selatan, Sulawesi Utara",SULAWESI UTARA,,Indonesia,81373056665.0,,,0.9198665,1.244.694.477,https://maps.google.com/?cid=0x0:0xb624963f1663973e,,supermarket
,Minimarket,Indomaret Tompaso Baru Satu,"WFFC+RGF, Tompaso Baru Satu, Kec. Tompaso Baru, Kabupaten Minahasa Selatan, Sulawesi Utara","Kabupaten Minahasa Selatan, Sulawesi Utara",SULAWESI UTARA,,Indonesia,211500580.0,,,0.924572,1.244.713.086,https://maps.google.com/?cid=0x0:0x5f763af84cf5a6f0,,supermarket
,Toko Swalayan,"Kios TOMBAK""""","jaga 5, Tompaso Baru Satu, Kec. Tompaso Baru, Kabupaten Minahasa Selatan, Sulawesi Utara 95358","Tompaso Baru Satu, Kec. Tompaso Baru, Kabupaten Minahasa Selatan",SULAWESI UTARA,95358.0,Indonesia,85757335138.0,,,0.9253398,1.244.709.056,https://maps.google.com/?cid=0x0:0xe5fee159e8760582,,supermarket
,Toko Swalayan,KIOS AYAM TOMPASOBARU,"WFC9+6PP, Jl. Siswa, Tompaso Baru Dua, Kec. Tompaso Baru, Kabupaten Minahasa Selatan, Sulawesi Utara","Kabupaten Minahasa Selatan, Sulawesi Utara",SULAWESI UTARA,,Indonesia,89679067799.0,,,0.9205795,1.244.693.366,https://maps.google.com/?cid=0x0:0x85560a184cf5daee,,supermarket
,Toko bahan makanan,FROZEN FOOD TOMPASOBARU,"WFFC+29C, Tompaso Baru Satu, Kec. Tompaso Baru, Kabupaten Minahasa Selatan, Sulawesi Utara","Kabupaten Minahasa Selatan, Sulawesi Utara",SULAWESI UTARA,,Indonesia,,,,0.9225569,1.244.708.934,https://maps.google.com/?cid=0x0:0x53fe4e18e792c007,,supermarket
,Pasar tradisional,Pasar central Tompaso baru,"WF99+XVG, Tompaso Baru Dua, Kec. Tompaso Baru, Kabupaten Minahasa Selatan, Sulawesi Utara","Kabupaten Minahasa Selatan, Sulawesi Utara",SULAWESI UTARA,,Indonesia,,,,0.919931,124.469.716,https://maps.google.com/?cid=0x0:0x96e949a1ffc1d20f,,supermarket
,Toko bahan makanan,Kios Oma Yen,"WFC8+HR2, Pinaesaan, Kec. Tompaso Baru, Kabupaten Minahasa Selatan, Sulawesi Utara","Kabupaten Minahasa Selatan, Sulawesi Utara",SULAWESI UTARA,,Indonesia,,,,0.9212241,124.466.926,https://maps.google.com/?cid=0x0:0x29072fecb4b98586,,supermarket
,Toko,Toko Ester,"WF99+GWG, Jl. Amurang - Kotamobagu, Tompaso Baru Dua, Kec. Tompaso Baru, Kabupaten Minahasa Selatan, Sulawesi Utara","Kabupaten Minahasa Selatan, Sulawesi Utara",SULAWESI UTARA,,Indonesia,,,,0.9188077,1.244.698.142,https://maps.google.com/?cid=0x0:0x3cdf9171dc3b6e0f,,supermarket
,Toko Swalayan,Sondakh turang,"WFFC+444, Tompaso Baru Satu, Kec. Tompaso Baru, Kabupaten Minahasa Selatan, Sulawesi Utara","Kabupaten Minahasa Selatan, Sulawesi Utara",SULAWESI UTARA,,Indonesia,,,,0.9227819,124.470.289,https://maps.google.com/?cid=0x0:0xfedd5ee7c21c0850,,supermarket
,Toko bahan makanan,KIOS Rudy Kaware,"WF52+9Q, Raraatean, Kec. Tompaso Baru, Kabupaten Minahasa Selatan, Sulawesi Utara","Kabupaten Minahasa Selatan, Sulawesi Utara",SULAWESI UTARA,,Indonesia,,,,0.908397,124.451.967,https://maps.google.com/?cid=0x0:0x12443c95a20a7faa,,supermarket
,Toko bahan makanan,Kios Geby,"VFXF+P39, Jl. Amurang - Kotamobagu, Tumani, Kec. Maesaan, Kabupaten Minahasa Selatan, Sulawesi Utara","Kabupaten Minahasa Selatan, Sulawesi Utara",SULAWESI UTARA,,Indonesia,,,,0.8992783,1.244.727.351,https://maps.google.com/?cid=0x0:0x404b77b66709d6d7,,supermarket
,Toko bahan makanan,Greity Feiby,"WFQ9+XVQ, Torout, Kec. Tompaso Baru, Kabupaten Minahasa Selatan, Sulawesi Utara","Kabupaten Minahasa Selatan, Sulawesi Utara",SULAWESI UTARA,,Indonesia,,,,0.9399669,1.244.697.283,https://maps.google.com/?cid=0x0:0xc0612995494e5de,,supermarket
,Komplek perumahan,Alfamart Tumani,"Jl. Trans Sulawesi Utara, Tumani, Kec. Maesaan, Kabupaten Minahasa Selatan, Sulawesi Utara 95691","Tumani, Kec. Maesaan, Kabupaten Minahasa Selatan",SULAWESI UTARA,95691.0,Indonesia,1500959.0,,,0.9035442,124.472.235,https://maps.google.com/?cid=0x0:0xf5913f261f6b7ce,,supermarket
,Pertanian,Rumah Kel. Lioso-Tampang,"WF96+3RJ, Sion, Kec. Tompaso Baru, Kabupaten Minahasa Selatan, Sulawesi Utara","Kabupaten Minahasa Selatan, Sulawesi Utara",SULAWESI UTARA,,Indonesia,,,,0.9179598,1.244.617.688,https://maps.google.com/?cid=0x0:0xc3c7cebb81f7c6f0,,supermarket
,supermarket,Tumpaan,"Tumpaan, Kec. Tumpaan, Kabupaten Minahasa Selatan, Sulawesi Utara","Kabupaten Minahasa Selatan, Sulawesi Utara",SULAWESI UTARA,,Indonesia,,,,1.238.996,1.246.175,https://maps.google.com/?cid=0x0:0xa5bfed7e82c26c62,,supermarket
,Minimarket,"Alfamart, Tumpaan","Jl. Trans Sulawesi, Tumpaan Satu, Kec. Tumpaan, Kabupaten Minahasa Selatan, Sulawesi Utara 95352","Tumpaan Satu, Kec. Tumpaan, Kabupaten Minahasa Selatan",SULAWESI UTARA,95352.0,Indonesia,1500959.0,,,12.397.869,1.246.143.033,https://maps.google.com/?cid=0x0:0xc7f283af107b71fd,,supermarket
,Pusat Perbelanjaan,Indomaret Tumpaan,"6JR7+XQJ, Tumpaan Baru, Kec. Tumpaan, Kabupaten Minahasa Selatan, Sulawesi Utara","Kabupaten Minahasa Selatan, Sulawesi Utara",SULAWESI UTARA,,Indonesia,1500580.0,,,1.242.468,1.246.143.938,https://maps.google.com/?cid=0x0:0xc1335ea5e04b04e4,,supermarket
,Minimarket,Alfamidi Tumpaan,"6JR7+VPP, Jl. Trans Sulawesi, Tumpaan Satu, Kec. Tumpaan, Kabupaten Minahasa Selatan, Sulawesi Utara","Kabupaten Minahasa Selatan, Sulawesi Utara",SULAWESI UTARA,,Indonesia,,,,12.422.034,1.246.143.379,https://maps.google.com/?cid=0x0:0xd61c98ee9c797267,,supermarket
,Minimarket,Indomaret Matani Satu,"7J36+XPP, Matani Satu, Kec. Tumpaan, Kabupaten Minahasa Selatan, Sulawesi Utara","Kabupaten Minahasa Selatan, Sulawesi Utara",SULAWESI UTARA,,Indonesia,,,,12.549.637,1.246.118.381,https://maps.google.com/?cid=0x0:0xc8bba905b0614522,,supermarket
,supermarket,Kec. Tumpaan,"Kabupaten Minahasa Selatan, Sulawesi Utara","Kabupaten Minahasa Selatan, Sulawesi Utara",SULAWESI UTARA,,Indonesia,,,,1.240.458,124.614.157,https://maps.google.com/?cid=0x0:0xa0e1e47c9e0fd41f,,supermarket
,,Toko IRVON,"6JR7+FQ2, Tumpaan Baru, Kec. Tumpaan, Kabupaten Minahasa Selatan, Sulawesi Utara","Kabupaten Minahasa Selatan, Sulawesi Utara",SULAWESI UTARA,,Indonesia,,,,12.411.456,1.246.143.952,https://maps.google.com/?cid=0x0:0xa285b9a8c075d06f,,supermarket
,Toko umum,Paman's,"6JP7+RWP, Tumpaan, Kec. Tumpaan, Kabupaten Minahasa Selatan, Sulawesi Utara","Kabupaten Minahasa Selatan, Sulawesi Utara",SULAWESI UTARA,,Indonesia,85332422229.0,,,12.370.823,1.246.148.197,https://maps.google.com/?cid=0x0:0x1793718a5855a0e3,,supermarket
,Toko bahan makanan,Toko Rachel Penesen,"Jl. Trans Sulawesi, Munte, Kec. Tumpaan, Kabupaten Minahasa Selatan, Sulawesi Utara 95352","Munte, Kec. Tumpaan, Kabupaten Minahasa Selatan",SULAWESI UTARA,95352.0,Indonesia,85298258558.0,,,13.228.287,1.246.672.772,https://maps.google.com/?cid=0x0:0xbceb152b1cb9329f,,supermarket
,Toko bahan makanan,Toko Angin Timur,"Tumpaan Satu, Kec. Tumpaan, Kabupaten Minahasa Selatan, Sulawesi Utara","Kabupaten Minahasa Selatan, Sulawesi Utara",SULAWESI UTARA,,Indonesia,82190338399.0,,,12.408.273,1.246.142.707,https://maps.google.com/?cid=0x0:0xb01e99a5ba6adc5d,,supermarket
,Toko bahan makanan,Marchel rantung,"7J46+9FJ, Matani, Kec. Tumpaan, Kabupaten Minahasa Selatan, Sulawesi Utara","Kabupaten Minahasa Selatan, Sulawesi Utara",SULAWESI UTARA,,Indonesia,,,,12.560.309,1.246.111.174,https://maps.google.com/?cid=0x0:0x986a1d626eb6d2be,,supermarket
,Pemasok Produk Makanan,Kripik Bakunya Rame-Rame,"Jaga V, Tumpaan Dua, Kec. Tumpaan, Kabupaten Minahasa Selatan, Sulawesi Utara 95352","Tumpaan Dua, Kec. Tumpaan, Kabupaten Minahasa Selatan",SULAWESI UTARA,95352.0,Indonesia,85761370347.0,,,12.326.177,1.246.173.683,https://maps.google.com/?cid=0x0:0xe76e7f71fa4f5c71,,supermarket
,Toko bahan makanan,Compas ¹,"8M78+WH4, Jl. Trans Sulawesi, Munte, Kec. Tumpaan, Kabupaten Minahasa Selatan, Sulawesi Utara","Kabupaten Minahasa Selatan, Sulawesi Utara",SULAWESI UTARA,,Indonesia,82212129912.0,,,13.147.689,124.666.463,https://maps.google.com/?cid=0x0:0x27b0574fd7406893,,supermarket
,Pusat Perbelanjaan,RVlove Shop,"Jaga 1, Jl. Jacob Rantung, Tumpaan Dua, Kec. Tumpaan, Kabupaten Minahasa Selatan, Sulawesi Utara 95352","Jl. Jacob Rantung, Tumpaan Dua, Kec. Tumpaan, Kabupaten Minahasa Selatan",SULAWESI UTARA,95352.0,Indonesia,81340300316.0,,,12.357.334,124.613.019,https://maps.google.com/?cid=0x0:0xbf3d62a31c9efb70,,supermarket
,,Toko Jenny (BEDLIEM),"6JM8+GJ7, Tumpaan, Kec. Tumpaan, Kabupaten Minahasa Selatan, Sulawesi Utara","Kabupaten Minahasa Selatan, Sulawesi Utara",SULAWESI UTARA,,Indonesia,,,,12.337.895,1.246.165.393,https://maps.google.com/?cid=0x0:0xc0e6d1a7a966ec6a,,supermarket
,Minimarket,RELITA JAYA,"Pinamorongan, Kec. Tareran, Kabupaten Minahasa Selatan, Sulawesi Utara 95953","Kec. Tareran, Kabupaten Minahasa Selatan",SULAWESI UTARA,95953.0,Indonesia,85337165884.0,,,12.472.031,1.246.628.421,https://maps.google.com/?cid=0x0:0xfb4b39a523801924,,supermarket
,Minimarket,KIOS ATHENA CELL,"Lelema, Kec. Tumpaan, Kabupaten Minahasa Selatan, Sulawesi Utara","Kabupaten Minahasa Selatan, Sulawesi Utara",SULAWESI UTARA,,Indonesia,85656643425.0,,,12.800.873,1.246.387.698,https://maps.google.com/?cid=0x0:0x939cc926588f4e9b,,supermarket
,Indonesia,BAKSO IKAN TUNA TUMPAAN BARU,"Tumpaan Baru, Kec. Tumpaan, Kabupaten Minahasa Selatan, Sulawesi Utara","Kabupaten Minahasa Selatan, Sulawesi Utara",SULAWESI UTARA,,Indonesia,81245306199.0,,,12.475.309,1.246.190.263,https://maps.google.com/?cid=0x0:0xe80a3204ad0d6acd,,supermarket
,Grosir,Jill Store,"8M5W+78Q, Tangkunei, Kec. Tumpaan, Kabupaten Minahasa Selatan, Sulawesi Utara","Kabupaten Minahasa Selatan, Sulawesi Utara",SULAWESI UTARA,,Indonesia,,,,13.082.231,1.246.958.549,https://maps.google.com/?cid=0x0:0xc54d130e8c15e33f,,supermarket
,Komplek perumahan,Rumah Es Tumpaan,"6JP7+QHR, Tumpaan Dua, Kec. Tumpaan, Kabupaten Minahasa Selatan, Sulawesi Utara","Kabupaten Minahasa Selatan, Sulawesi Utara",SULAWESI UTARA,,Indonesia,,,,12.369.931,1.246.138.953,https://maps.google.com/?cid=0x0:0x719b6baafb280596,,supermarket
,Minimarket,Alfamart Lopana Satu,"Jl. Trans Sulawesi Satu, Lopana, Kec. Amurang Tim., Kabupaten Minahasa Selatan, Sulawesi Utara 95693","Lopana, Kec. Amurang Tim., Kabupaten Minahasa Selatan",SULAWESI UTARA,95693.0,Indonesia,1500959.0,,,1.216.743,1.246.021.334,https://maps.google.com/?cid=0x0:0x464e931c8c7db6ad,,supermarket
,Toko umum,Toko Sofire (sermy-odi) - Grosir  Eceran,"Suluun Dua, Sulta, Kabupaten Minahasa Selatan, Sulawesi Utara","Kabupaten Minahasa Selatan, Sulawesi Utara",SULAWESI UTARA,,Indonesia,,,,12.813.809,1.246.958.831,https://maps.google.com/?cid=0x0:0x84c68abaa4cd0990,,supermarket
