Category,Real Category,Business Name,Address,City,State,Postal Code,Country,Phone,Latitude,Longitude,Map Link
cafe,cafe,Kecamatan Kayoa Selatan,"Kabupaten Halmahera Selatan, Maluku Utara","Kabupaten Halmahera Selatan, Maluku Utara",MALUKU UTARA,,Indonesia,,-0.0404558,127.4257645,https://maps.google.com/?cid=0x0:0x611025dc11fc6411
cafe,Balai masyarakat,Pasar Umum Laluin,"XC6G+4WH, Laluin, Kecamatan Kayoa Selatan, Kabupaten Halmahera Selatan, Maluku Utara","Kabupaten Halmahera Selatan, Maluku Utara",MALUKU UTARA,,Indonesia,,-0.0396863,127.4273562,https://maps.google.com/?cid=0x0:0x246bb3110e6a2a9f
cafe,Pasar,Rumah Izhar Asnan,"Laluin, Kecamatan Kayoa Selatan, Kabupaten Halmahera Selatan, Maluku Utara","Kabupaten Halmahera Selatan, Maluku Utara",MALUKU UTARA,,Indonesia,,-0.040033,127.4272003,https://maps.google.com/?cid=0x0:0xd92ce2eb310ec5e0
cafe,cafe,Anak COMUNITY,"XC7G+4MG, Laluin, Kecamatan Kayoa Selatan, Kabupaten Halmahera Selatan, Maluku Utara","Kabupaten Halmahera Selatan, Maluku Utara",MALUKU UTARA,,Indonesia,,-0.0371794,127.426693,https://maps.google.com/?cid=0x0:0xeb5f180b83a0d83b
cafe,Rumah Makan,Setia Malam,"XC6G+JMP, Laluin, Kecamatan Kayoa Selatan, Kabupaten Halmahera Selatan, Maluku Utara","Kabupaten Halmahera Selatan, Maluku Utara",MALUKU UTARA,,Indonesia,,-0.0387606,127.4256982,https://maps.google.com/?cid=0x0:0xa0c29180c272aa6
cafe,cafe,Anak party,"XC3F+F4C, Laluin, Kecamatan Kayoa Selatan, Kabupaten Halmahera Selatan, Maluku Utara","Kabupaten Halmahera Selatan, Maluku Utara",MALUKU UTARA,,Indonesia,,-0.0463231,127.4227751,https://maps.google.com/?cid=0x0:0x3524cd99d4bf2a72
cafe,Restoran,Garage.Coffee,"Jl. Iyantoa RT/RW 001, 001, Sailal, Kec. Maba, Kabupaten Halmahera Timur, Maluku Utara","Kabupaten Halmahera Timur, Maluku Utara",MALUKU UTARA,,Indonesia,85340031999.0,0.8801648,128.2951792,https://maps.google.com/?cid=0x0:0x9cf91ef80cd4283f
cafe,Kafe,K.A Coffeeshop  Roastery Perumnas,"Jl. Raya Perumnas No.16 - 17 Blok B, Sukaluyu, Telukjambe Timur, Karawang, Jawa Barat 41361","Sukaluyu, Telukjambe Timur, Karawang",MALUKU UTARA,41361.0,Indonesia,81287274370.0,-6.3362333,107.2807304,https://maps.google.com/?cid=0x0:0x7aebb92f5be421fe
cafe,Kedai Kopi,zona cafe,"FW99+X4, Lelilef Waibulan, Kec. Weda Tengah, Kabupaten Halmahera Tengah, Maluku Utara","Kabupaten Halmahera Tengah, Maluku Utara",MALUKU UTARA,,Indonesia,,0.4699768,127.9177833,https://maps.google.com/?cid=0x0:0x184af3561b5222e9
cafe,Kedai Kopi,K.A Coffeeshop  Roastery Puri,"Jl. Perum Puri Blk. C1 - C2 No.16, Sirnabaya, Telukjambe Timur, Karawang, Jawa Barat 41361","Sirnabaya, Telukjambe Timur, Karawang",MALUKU UTARA,41361.0,Indonesia,81287274370.0,-6.3345649,107.3020596,https://maps.google.com/?cid=0x0:0xb0a0a82600597601
cafe,cafe,Kec. Gane Tim. Sel.,"Kabupaten Halmahera Selatan, Maluku Utara","Kabupaten Halmahera Selatan, Maluku Utara",MALUKU UTARA,,Indonesia,,-0.7047222,128.2191774,https://maps.google.com/?cid=0x0:0x5d731fac62ca9680
cafe,Kedai Kopi,Lemo-lemo,"83Q3+P2W, Lemo Lemo, Kec. Gane Bar., Kabupaten Halmahera Selatan, Maluku Utara","Kabupaten Halmahera Selatan, Maluku Utara",MALUKU UTARA,,Indonesia,82187593688.0,-0.6606259,128.0525654,https://maps.google.com/?cid=0x0:0xf753f67d428ec720
cafe,Toko Swalayan,Toko Antaress Gane Dalam,"66H9+XXF, Gane Dalam, Kec. Gane Bar. Sel., Kabupaten Halmahera Selatan, Maluku Utara","Kabupaten Halmahera Selatan, Maluku Utara",MALUKU UTARA,,Indonesia,,-0.7700703,128.2199308,https://maps.google.com/?cid=0x0:0xf3a541bc877a55cc
cafe,Area Wi-Fi,Tower bhakti yamly,"679C+3GP, Gane Luar, Kec. Gane Tim. Sel., Kabupaten Halmahera Selatan, Maluku Utara","Kabupaten Halmahera Selatan, Maluku Utara",MALUKU UTARA,,Indonesia,,-0.7822897,128.2713306,https://maps.google.com/?cid=0x0:0x79f474f29fd790d9
cafe,cafe,resort widi,"CC4C+C67, Pulau, Kec. Gane Tim. Sel., Kabupaten Halmahera Selatan, Maluku Utara","Kabupaten Halmahera Selatan, Maluku Utara",MALUKU UTARA,,Indonesia,85340343030.0,-0.5939676,128.420542,https://maps.google.com/?cid=0x0:0xf417b15a298a652f
cafe,cafe,Kec. Gane Bar. Sel.,"Kabupaten Halmahera Selatan, Maluku Utara","Kabupaten Halmahera Selatan, Maluku Utara",MALUKU UTARA,,Indonesia,,-0.762002,128.203222,https://maps.google.com/?cid=0x0:0x53c8be4d55503c6d
cafe,Toko Swalayan,Toko Antaress Gane Dalam,"66H9+XXF, Gane Dalam, Kec. Gane Bar. Sel., Kabupaten Halmahera Selatan, Maluku Utara","Kabupaten Halmahera Selatan, Maluku Utara",MALUKU UTARA,,Indonesia,,-0.7700703,128.2199308,https://maps.google.com/?cid=0x0:0xf3a541bc877a55cc
cafe,Kedai Kopi,Lemo-lemo,"83Q3+P2W, Lemo Lemo, Kec. Gane Bar., Kabupaten Halmahera Selatan, Maluku Utara","Kabupaten Halmahera Selatan, Maluku Utara",MALUKU UTARA,,Indonesia,82187593688.0,-0.6606259,128.0525654,https://maps.google.com/?cid=0x0:0xf753f67d428ec720
cafe,Toko sembako pemerintah,Pasar GMM,"47W7+FGQ, Yamly, Kec. Gane Bar. Sel., Kabupaten Halmahera Selatan, Maluku Utara","Kabupaten Halmahera Selatan, Maluku Utara",MALUKU UTARA,,Indonesia,,-0.8537949,128.2638539,https://maps.google.com/?cid=0x0:0xba7e560714ba1496
cafe,Area Wi-Fi,Tower bhakti yamly,"679C+3GP, Gane Luar, Kec. Gane Tim. Sel., Kabupaten Halmahera Selatan, Maluku Utara","Kabupaten Halmahera Selatan, Maluku Utara",MALUKU UTARA,,Indonesia,,-0.7822897,128.2713306,https://maps.google.com/?cid=0x0:0x79f474f29fd790d9
cafe,Kedai Kopi,Semilir Senja Cafe,"X39G+PV3, Jl. Ahmad Yani, Kedaleman, Kec. Cibeber, Kota Cilegon, Banten","Kota Cilegon, Banten",MALUKU UTARA,,Indonesia,,-6.0306502,106.0771445,https://maps.google.com/?cid=0x0:0x12961133a820a65
cafe,Kedai Kopi,Kedai bacarita kampung,"MQFM+PG, Koititi, Kec. Gane Bar., Kabupaten Halmahera Selatan, Maluku Utara","Kabupaten Halmahera Selatan, Maluku Utara",MALUKU UTARA,,Indonesia,85283729586.0,-0.3255738,127.7839034,https://maps.google.com/?cid=0x0:0xd47025807a9a4a81
cafe,Kedai Kopi,X Coffee,"7JF5+59R, Wayaloar, Obi Sel., Kabupaten Halmahera Selatan, Maluku Utara","Kabupaten Halmahera Selatan, Maluku Utara",MALUKU UTARA,,Indonesia,,-1.7259855,127.608246,https://maps.google.com/?cid=0x0:0x5da3a36854fca20a
cafe,cafe,Obi Sel.,"Kabupaten Halmahera Selatan, Maluku Utara","Kabupaten Halmahera Selatan, Maluku Utara",MALUKU UTARA,,Indonesia,,-1.6047188,127.681228,https://maps.google.com/?cid=0x0:0xee55ecd0b3e7ac39
cafe,Pusat Perbelanjaan,CAFE NYALA  HOP MART,"FC39+5J6, Kawasi, Kec. Obi, Kabupaten Halmahera Selatan, Maluku Utara","Kabupaten Halmahera Selatan, Maluku Utara",MALUKU UTARA,,Indonesia,,-1.5463512,127.4189369,https://maps.google.com/?cid=0x0:0xabc7af0a55a84b6d
cafe,Kedai Kopi,Kafe tanjung ðâ,"FC54+W8P, Kawasi, Kec. Obi, Kabupaten Halmahera Selatan, Maluku Utara","Kabupaten Halmahera Selatan, Maluku Utara",MALUKU UTARA,,Indonesia,,-1.5401548,127.4058281,https://maps.google.com/?cid=0x0:0x388455f63fe03754
cafe,Kedai Kopi,Cafe Humaka Marahai,"Kawasi, Kec. Obi, Maluku Utara, 12345",Kec. Obi,MALUKU UTARA,12345.0,Indonesia,82199883830.0,-1.5847164,127.4143262,https://maps.google.com/?cid=0x0:0x9f81035dcac112f7
cafe,Kedai Kopi,Bakso kampung tengah,"8M2V+FJH, Gambaru, Obi Sel., Kabupaten Halmahera Selatan, Maluku Utara","Kabupaten Halmahera Selatan, Maluku Utara",MALUKU UTARA,,Indonesia,,-1.6985412,127.6947937,https://maps.google.com/?cid=0x0:0xb66eb97f665d91a9
cafe,Kedai Kopi,MAXX Coffee HJF,"Kawasi, Kec. Obi, Kabupaten Halmahera Selatan, Maluku Utara 97792","Kec. Obi, Kabupaten Halmahera Selatan",MALUKU UTARA,97792.0,Indonesia,8976029539.0,-1.5631211,127.4467952,https://maps.google.com/?cid=0x0:0xa986589fb75a0b27
cafe,cafe,LABUHA,"FPQF+JGJ, Anggai, Kec. Obi, Kabupaten Halmahera Selatan, Maluku Utara","Kabupaten Halmahera Selatan, Maluku Utara",MALUKU UTARA,,Indonesia,,-1.5109015,127.7237678,https://maps.google.com/?cid=0x0:0xfc2d77b2ca5c147c
cafe,cafe,Starlink kopi,"7JF5+59R, Wayaloar, Obi Sel., Kabupaten Halmahera Selatan, Maluku Utara","Kabupaten Halmahera Selatan, Maluku Utara",MALUKU UTARA,,Indonesia,81398616005.0,-1.7259855,127.608246,https://maps.google.com/?cid=0x0:0xf0ab107bafe23ccc
cafe,Kedai Kopi,Kafe tanjung ðâ,"FC54+W8P, Kawasi, Kec. Obi, Kabupaten Halmahera Selatan, Maluku Utara","Kabupaten Halmahera Selatan, Maluku Utara",MALUKU UTARA,,Indonesia,,-1.5401548,127.4058281,https://maps.google.com/?cid=0x0:0x388455f63fe03754
cafe,Dapur Umum,RM Pantura,"CCP7+6CR, Kawasi, Kec. Obi, Kabupaten Halmahera Selatan, Maluku Utara","Kabupaten Halmahera Selatan, Maluku Utara",MALUKU UTARA,,Indonesia,,-1.5643891,127.4135153,https://maps.google.com/?cid=0x0:0xdf4f2166f9c78c7a
cafe,Bar,Kios Basanohi,"FC36+3JX, Kawasi, Kec. Obi, Kabupaten Halmahera Selatan, Maluku Utara","Kabupaten Halmahera Selatan, Maluku Utara",MALUKU UTARA,,Indonesia,,-1.5470892,127.4111895,https://maps.google.com/?cid=0x0:0x2058203a36ca81f2
cafe,Kedai Kopi,X Coffee,"7JF5+59R, Wayaloar, Obi Sel., Kabupaten Halmahera Selatan, Maluku Utara","Kabupaten Halmahera Selatan, Maluku Utara",MALUKU UTARA,,Indonesia,,-1.7259855,127.608246,https://maps.google.com/?cid=0x0:0x5da3a36854fca20a
cafe,Kedai Kopi,MAXX Coffee HJF,"Kawasi, Kec. Obi, Kabupaten Halmahera Selatan, Maluku Utara 97792","Kec. Obi, Kabupaten Halmahera Selatan",MALUKU UTARA,97792.0,Indonesia,8976029539.0,-1.5631211,127.4467952,https://maps.google.com/?cid=0x0:0xa986589fb75a0b27
cafe,Pusat Perbelanjaan,CAFE NYALA  HOP MART,"FC39+5J6, Kawasi, Kec. Obi, Kabupaten Halmahera Selatan, Maluku Utara","Kabupaten Halmahera Selatan, Maluku Utara",MALUKU UTARA,,Indonesia,,-1.5463512,127.4189369,https://maps.google.com/?cid=0x0:0xabc7af0a55a84b6d
cafe,Kafe,Kafe Obi,"8F2X+G34, blok Jl. Krandon, Kaliwulu, Kec. Plered, Kabupaten Cirebon, Jawa Barat 45154","blok Jl. Krandon, Kaliwulu, Kec. Plered, Kabupaten Cirebon",MALUKU UTARA,45154.0,Indonesia,82318316444.0,-6.698731,108.497709,https://maps.google.com/?cid=0x0:0x479a43a85fcd0193
cafe,Kedai Kopi,Obie Cafe  Space,"Jl. Pogung Raya, Pogung Kidul, Sinduadi, Kec. Mlati, Kabupaten Sleman, Daerah Istimewa Yogyakarta 55284","Pogung Kidul, Sinduadi, Kec. Mlati, Kabupaten Sleman",MALUKU UTARA,55284.0,Indonesia,87776437207.0,-7.7565308,110.3749286,https://maps.google.com/?cid=0x0:0xbf477d64b6059943
cafe,Kedai Kopi,Kedai Obic coffee,"Jl. H. Ahmad, RT.05/RW.08, Jatikramat, Kec. Jatiasih, Kota Bks, Jawa Barat 17421","RT.05/RW.08, Jatikramat, Kec. Jatiasih, Kota Bks",MALUKU UTARA,17421.0,Indonesia,89517936382.0,-6.2766149,106.946507,https://maps.google.com/?cid=0x0:0xe6dcc101df8fcb4d
cafe,Warnet,Obi halmahera selatan,"QMG2+52, Madapolo, Kec. Obi Utara, Kabupaten Halmahera Selatan, Maluku Utara","Kabupaten Halmahera Selatan, Maluku Utara",MALUKU UTARA,,Indonesia,81355342459.0,-1.2245404,127.6499804,https://maps.google.com/?cid=0x0:0x8d6fae62566f917a
cafe,cafe,LABUHA,"FPQF+JGJ, Anggai, Kec. Obi, Kabupaten Halmahera Selatan, Maluku Utara","Kabupaten Halmahera Selatan, Maluku Utara",MALUKU UTARA,,Indonesia,,-1.5109015,127.7237678,https://maps.google.com/?cid=0x0:0xfc2d77b2ca5c147c
cafe,Kedai Kopi,Obi,"C9XM+R9C, Guwa Lor, Kec. Kaliwedi, Kabupaten Cirebon, Jawa Barat 45165","Guwa Lor, Kec. Kaliwedi, Kabupaten Cirebon",MALUKU UTARA,45165.0,Indonesia,,-6.5504457,108.3833929,https://maps.google.com/?cid=0x0:0x7f86f6664dc3acf5
cafe,cafe,Kec. Bacan Tim. Sel.,"Kabupaten Halmahera Selatan, Maluku Utara","Kabupaten Halmahera Selatan, Maluku Utara",MALUKU UTARA,,Indonesia,,-0.8138816,127.872846,https://maps.google.com/?cid=0x0:0x10b732e030ec504d
cafe,Kedai Kopi,Carema Cafe and Resto,"Jl. Raya Mandaong, Pantai, Mandaong, Kec. Bacan Sel., Kabupaten Halmahera Selatan, Maluku Utara 97791","Pantai, Mandaong, Kec. Bacan Sel., Kabupaten Halmahera Selatan",MALUKU UTARA,97791.0,Indonesia,,-0.6487869,127.4783807,https://maps.google.com/?cid=0x0:0x18a48dca73af43da
cafe,Kafe,Cafe bungalow 1,"9G97+7RH, Marabose, Kec. Bacan, Kabupaten Halmahera Selatan, Maluku Utara","Kabupaten Halmahera Selatan, Maluku Utara",MALUKU UTARA,,Indonesia,82193581285.0,-0.6318104,127.5145943,https://maps.google.com/?cid=0x0:0xdc36837a72f449a2
cafe,Kafe,SABIJI COFFEE,"Jl Pantai mongga, Mandaong, Kec. Bacan, Kabupaten Halmahera Selatan, Maluku Utara","Kabupaten Halmahera Selatan, Maluku Utara",MALUKU UTARA,,Indonesia,81340442525.0,-0.6428741,127.4792318,https://maps.google.com/?cid=0x0:0xf058a5590d67413
cafe,Kedai Kopi,Outer Space Coffee,"9F4V+V2C, Jl. Kebun Karet, Tomori, Kec. Bacan, Kabupaten Halmahera Selatan, Maluku Utara","Kabupaten Halmahera Selatan, Maluku Utara",MALUKU UTARA,,Indonesia,,-0.6428035,127.4925116,https://maps.google.com/?cid=0x0:0x18929ab9aa0c4893
cafe,Kedai Kopi,Stereckcoffee,"Jl. Daniel Kabenti, Mandaong, Kec. Bacan Sel., Kabupaten Halmahera Selatan, Maluku Utara","Kabupaten Halmahera Selatan, Maluku Utara",MALUKU UTARA,,Indonesia,82137243418.0,-0.6462252,127.4815004,https://maps.google.com/?cid=0x0:0xc5bf2bc72a731aae
cafe,Grosir Kopi,COFFEE SHOP 88,"9F6P+RW7, Tomori, Kec. Bacan, Kabupaten Halmahera Selatan, Maluku Utara","Kabupaten Halmahera Selatan, Maluku Utara",MALUKU UTARA,,Indonesia,,-0.638038,127.487155,https://maps.google.com/?cid=0x0:0xd7e1598e84cbdcd8
cafe,Kedai Kopi,Bilqis coffe shop,"9FCJ+VCR, Jl. Tomori - Labuha, Tomori, Kec. Bacan, Kabupaten Halmahera Selatan, Maluku Utara","Kabupaten Halmahera Selatan, Maluku Utara",MALUKU UTARA,,Indonesia,81333355591.0,-0.627762,127.481014,https://maps.google.com/?cid=0x0:0x234639d4dd5ee237
cafe,Kafe,Cafe Incana,"9G89+H5M, Jl. Raya Babang, Marabose, Kec. Bacan, Kabupaten Halmahera Selatan, Maluku Utara","Kabupaten Halmahera Selatan, Maluku Utara",MALUKU UTARA,,Indonesia,81221509922.0,-0.633534,127.5179165,https://maps.google.com/?cid=0x0:0xd9aa467f8b5d4ac6
cafe,Kafe,NYAMANcaffe,"Mandaong, Kec. Bacan Sel., Kabupaten Halmahera Selatan, Maluku Utara","Kabupaten Halmahera Selatan, Maluku Utara",MALUKU UTARA,,Indonesia,81256385459.0,-0.6446989,127.4803848,https://maps.google.com/?cid=0x0:0xdecfb95b527022f7
cafe,Kafe,Kharisma Caffe,"Jl. Utama Labuha, Babang, Kec. Bacan, Kabupaten Halmahera Selatan, Maluku Utara 97791","Babang, Kec. Bacan, Kabupaten Halmahera Selatan",MALUKU UTARA,97791.0,Indonesia,,-0.6341258,127.5267571,https://maps.google.com/?cid=0x0:0xcb98c644538acb80
cafe,Kafe,Lexy Conte Cafe,"9F5H+9M4, swering pantai, Labuha, Kec. Bacan, Kabupaten Halmahera Selatan, Maluku Utara","Kabupaten Halmahera Selatan, Maluku Utara",MALUKU UTARA,,Indonesia,,-0.6416038,127.4792005,https://maps.google.com/?cid=0x0:0xcd1a1a256d9b698
cafe,Kedai Kopi,Cafe Tors,"8FWP+F5X, Mandaong, Kec. Bacan Sel., Kabupaten Halmahera Selatan, Maluku Utara","Kabupaten Halmahera Selatan, Maluku Utara",MALUKU UTARA,,Indonesia,81392317228.0,-0.6537586,127.4854978,https://maps.google.com/?cid=0x0:0xa3611d86e40c3aee
cafe,Kafe,Randy Coffee Shop,"9JF3+9GG, Babang, Kec. Bacan Tim., Kabupaten Halmahera Selatan, Maluku Utara","Kabupaten Halmahera Selatan, Maluku Utara",MALUKU UTARA,,Indonesia,,-0.6265625,127.6038281,https://maps.google.com/?cid=0x0:0x292640ef8c84d467
cafe,Kios,VAPE STORE BACAN,"Tomori, Kec. Bacan, Kabupaten Halmahera Selatan, Maluku Utara","Kabupaten Halmahera Selatan, Maluku Utara",MALUKU UTARA,,Indonesia,82221282412.0,-0.6442473,127.4866675,https://maps.google.com/?cid=0x0:0x229107ca37ab5df2
cafe,Toko Rokok Elektrik,BACAN VAPOR IAN SERGIO,"Tuokona, Kec. Bacan Sel., Kabupaten Halmahera Selatan, Maluku Utara 97791","Kec. Bacan Sel., Kabupaten Halmahera Selatan",MALUKU UTARA,97791.0,Indonesia,82130479097.0,-0.6806342,127.4758027,https://maps.google.com/?cid=0x0:0x67a24fa76ceacc73
cafe,Kafe,Destinasi Coffee  Eatery,"FRRM+GC6, Jl. Alternatif GOR Pemda, Nanggewer Mekar, Kec. Cibinong, Kabupaten Bogor, Jawa Barat 16912","Jl. Alternatif GOR Pemda, Nanggewer Mekar, Kec. Cibinong, Kabupaten Bogor",MALUKU UTARA,16912.0,Indonesia,81932829588.0,-6.5087084,106.8335263,https://maps.google.com/?cid=0x0:0xa7b9f28df991a0c0
cafe,Kedai Kopi,V888,"J86X+3F, Kusubibi, Kec. Bacan Bar., Kabupaten Halmahera Selatan, Maluku Utara","Kabupaten Halmahera Selatan, Maluku Utara",MALUKU UTARA,,Indonesia,,-0.389749,127.3486324,https://maps.google.com/?cid=0x0:0x2cec082ce23de156
cafe,cafe,Bacan,"Kabupaten Halmahera Selatan, Maluku Utara","Kabupaten Halmahera Selatan, Maluku Utara",MALUKU UTARA,,Indonesia,,-0.5673945,127.5108091,https://maps.google.com/?cid=0x0:0x8820e3d40e67325c
cafe,Kafe,Cafe bungalow 1,"9G97+7RH, Marabose, Kec. Bacan, Kabupaten Halmahera Selatan, Maluku Utara","Kabupaten Halmahera Selatan, Maluku Utara",MALUKU UTARA,,Indonesia,82193581285.0,-0.6318104,127.5145943,https://maps.google.com/?cid=0x0:0xdc36837a72f449a2
cafe,cafe,Kedai Bumi Desa kusubibi,"J83M+R92, Kusubibi, Kec. Bacan Bar., Kabupaten Halmahera Selatan, Maluku Utara","Kabupaten Halmahera Selatan, Maluku Utara",MALUKU UTARA,,Indonesia,,-0.3954813,127.3333887,https://maps.google.com/?cid=0x0:0x5144ff90dd1aa299
cafe,Kedai Kopi,Warung aca,"J995+GMF, Kusubibi, Kec. Bacan Bar., Kabupaten Halmahera Selatan, Maluku Utara","Kabupaten Halmahera Selatan, Maluku Utara",MALUKU UTARA,,Indonesia,,-0.3811931,127.3591815,https://maps.google.com/?cid=0x0:0x4b93e2db58293612
cafe,Kedai Kopi,Carema Cafe and Resto,"Jl. Raya Mandaong, Pantai, Mandaong, Kec. Bacan Sel., Kabupaten Halmahera Selatan, Maluku Utara 97791","Pantai, Mandaong, Kec. Bacan Sel., Kabupaten Halmahera Selatan",MALUKU UTARA,97791.0,Indonesia,,-0.6487869,127.4783807,https://maps.google.com/?cid=0x0:0x18a48dca73af43da
cafe,Kafe,Destinasi Coffee  Eatery,"FRRM+GC6, Jl. Alternatif GOR Pemda, Nanggewer Mekar, Kec. Cibinong, Kabupaten Bogor, Jawa Barat 16912","Jl. Alternatif GOR Pemda, Nanggewer Mekar, Kec. Cibinong, Kabupaten Bogor",MALUKU UTARA,16912.0,Indonesia,81932829588.0,-6.5087084,106.8335263,https://maps.google.com/?cid=0x0:0xa7b9f28df991a0c0
cafe,Kios,VAPE STORE BACAN,"Tomori, Kec. Bacan, Kabupaten Halmahera Selatan, Maluku Utara","Kabupaten Halmahera Selatan, Maluku Utara",MALUKU UTARA,,Indonesia,82221282412.0,-0.6442473,127.4866675,https://maps.google.com/?cid=0x0:0x229107ca37ab5df2
cafe,Kafe,Kharisma Caffe,"Jl. Utama Labuha, Babang, Kec. Bacan, Kabupaten Halmahera Selatan, Maluku Utara 97791","Babang, Kec. Bacan, Kabupaten Halmahera Selatan",MALUKU UTARA,97791.0,Indonesia,,-0.6341258,127.5267571,https://maps.google.com/?cid=0x0:0xcb98c644538acb80
cafe,Grosir Kopi,COFFEE SHOP 88,"9F6P+RW7, Tomori, Kec. Bacan, Kabupaten Halmahera Selatan, Maluku Utara","Kabupaten Halmahera Selatan, Maluku Utara",MALUKU UTARA,,Indonesia,,-0.638038,127.487155,https://maps.google.com/?cid=0x0:0xd7e1598e84cbdcd8
cafe,Kedai Kopi,Stereckcoffee,"9F2W+9CJ sekitar puskesmas lurus terus dari utara, Jl sadar alam, Tomori, South Bacan, South Halmahera Regency, North Maluku","Kabupaten Halmahera Selatan, Maluku Utara",MALUKU UTARA,,Indonesia,82137243418.0,-0.6490378,127.4960157,https://maps.google.com/?cid=0x0:0xefc3e330642ff8a3
cafe,Kedai Kopi,Stereckcoffee,"Jl. Daniel Kabenti, Mandaong, Kec. Bacan Sel., Kabupaten Halmahera Selatan, Maluku Utara","Kabupaten Halmahera Selatan, Maluku Utara",MALUKU UTARA,,Indonesia,82137243418.0,-0.6462252,127.4815004,https://maps.google.com/?cid=0x0:0xc5bf2bc72a731aae
cafe,Kedai Kopi,ICHA,"9FFG+W9R, Amasing Kota, Kec. Bacan, Kabupaten Halmahera Selatan, Maluku Utara","Kabupaten Halmahera Selatan, Maluku Utara",MALUKU UTARA,,Indonesia,8693153896.0,-0.6251495,127.4759058,https://maps.google.com/?cid=0x0:0x9d8162bab6039c21
cafe,Kedai Kopi,Cafe Tors,"8FWP+F5X, Mandaong, Kec. Bacan Sel., Kabupaten Halmahera Selatan, Maluku Utara","Kabupaten Halmahera Selatan, Maluku Utara",MALUKU UTARA,,Indonesia,81392317228.0,-0.6537586,127.4854978,https://maps.google.com/?cid=0x0:0xa3611d86e40c3aee
cafe,cafe,Pulau Makian,"Kabupaten Halmahera Selatan, Maluku Utara","Kabupaten Halmahera Selatan, Maluku Utara",MALUKU UTARA,,Indonesia,,0.3127237,127.4040871,https://maps.google.com/?cid=0x0:0x7d9868f2e9dd90f6
cafe,cafe,Kec. Makian Bar.,"Kabupaten Halmahera Selatan, Maluku Utara","Kabupaten Halmahera Selatan, Maluku Utara",MALUKU UTARA,,Indonesia,,0.3281416,127.3464815,https://maps.google.com/?cid=0x0:0x45fdc116119553a4
cafe,cafe,PT KARIOJAYA BUMI LESTRAI,"9C8C+926, Kota, Kec. Pulau Makian, Kabupaten Halmahera Selatan, Maluku Utara","Kabupaten Halmahera Selatan, Maluku Utara",MALUKU UTARA,,Indonesia,,0.3659024,127.4200122,https://maps.google.com/?cid=0x0:0xf491dc518cbaf35c
cafe,cafe,Pulau Makian,"Kabupaten Halmahera Selatan, Maluku Utara","Kabupaten Halmahera Selatan, Maluku Utara",MALUKU UTARA,,Indonesia,,0.3127237,127.4040871,https://maps.google.com/?cid=0x0:0x7d9868f2e9dd90f6
cafe,Taman pedesaan,Gunung Kie Besi,"89HW+RXP, JL. Peleri, Samsuma, Makian, Kabupaten Halmahera Selatan, Maluku Utara","Kabupaten Halmahera Selatan, Maluku Utara",MALUKU UTARA,,Indonesia,,0.329588,127.397461,https://maps.google.com/?cid=0x0:0x12b031dbb4ec7a5e
cafe,Kantor Pemerintah,desa waikyon,"9CF6+7J4, Jl. Pulau Makian, Rabutdaio, Kec. Pulau Makian, Kabupaten Halmahera Selatan, Maluku Utara","Kabupaten Halmahera Selatan, Maluku Utara",MALUKU UTARA,,Indonesia,,0.3731399,127.4115631,https://maps.google.com/?cid=0x0:0x6d438cce6788c504
cafe,Restoran,Garage.Coffee,"Jl. Iyantoa RT/RW 001, 001, Sailal, Kec. Maba, Kabupaten Halmahera Timur, Maluku Utara","Kabupaten Halmahera Timur, Maluku Utara",MALUKU UTARA,,Indonesia,85340031999.0,0.8801648,128.2951792,https://maps.google.com/?cid=0x0:0x9cf91ef80cd4283f
cafe,Indonesia,D'Cocoles Coffee,"V7HQ+G34, Unnamed Road, Buli Karya, Maba, East Halmahera Regency, North Maluku","Kabupaten Halmahera Timur, Maluku Utara",MALUKU UTARA,,Indonesia,,0.8787581,128.2877176,https://maps.google.com/?cid=0x0:0xcffa0a4b08de4050
cafe,cafe,,,,MALUKU UTARA,,Indonesia,,,,https://maps.google.com/?cid=0x0:0x9cf91ef80cd4283fu0026onu003dKopiu0026midu003d/g/11g07_7g6b
cafe,cafe,,,,MALUKU UTARA,,Indonesia,,,,https://maps.google.com/?cid=0x0:0x9cf91ef80cd4283fu0026onu003dCapuccinou0026midu003d/g/11g07_7g6b
cafe,cafe,,,,MALUKU UTARA,,Indonesia,,,,https://maps.google.com/?cid=0x0:0x9cf91ef80cd4283fu0026onu003dTiramissyouu0026midu003d/g/11g07_7g6b
cafe,cafe,,,,MALUKU UTARA,,Indonesia,,,,https://maps.google.com/?cid=0x0:0x9cf91ef80cd4283fu0026onu003dCoffee+Americanou0026midu003d/g/11g07_7g6b
cafe,cafe,,,,MALUKU UTARA,,Indonesia,,,,https://maps.google.com/?cid=0x0:0x9cf91ef80cd4283fu0026onu0026midu003d/g/11g07_7g6b
cafe,cafe,Kec. Kayoa Bar.,"Kabupaten Halmahera Selatan, Maluku Utara","Kabupaten Halmahera Selatan, Maluku Utara",MALUKU UTARA,,Indonesia,,-0.2310159,127.0981869,https://maps.google.com/?cid=0x0:0x6b6f3901f6430a7f
cafe,cafe,Anak COMUNITY,"XC7G+4MG, Laluin, Kecamatan Kayoa Selatan, Kabupaten Halmahera Selatan, Maluku Utara","Kabupaten Halmahera Selatan, Maluku Utara",MALUKU UTARA,,Indonesia,,-0.0371794,127.426693,https://maps.google.com/?cid=0x0:0xeb5f180b83a0d83b
cafe,cafe,Kecamatan Kayoa Selatan,"Kabupaten Halmahera Selatan, Maluku Utara","Kabupaten Halmahera Selatan, Maluku Utara",MALUKU UTARA,,Indonesia,,-0.0404558,127.4257645,https://maps.google.com/?cid=0x0:0x611025dc11fc6411
cafe,Restoran,Garage.Coffee,"Jl. Iyantoa RT/RW 001, 001, Sailal, Kec. Maba, Kabupaten Halmahera Timur, Maluku Utara","Kabupaten Halmahera Timur, Maluku Utara",MALUKU UTARA,,Indonesia,85340031999.0,0.8801648,128.2951792,https://maps.google.com/?cid=0x0:0x9cf91ef80cd4283f
cafe,Balai masyarakat,Pasar Umum Laluin,"XC6G+4WH, Laluin, Kecamatan Kayoa Selatan, Kabupaten Halmahera Selatan, Maluku Utara","Kabupaten Halmahera Selatan, Maluku Utara",MALUKU UTARA,,Indonesia,,-0.0396863,127.4273562,https://maps.google.com/?cid=0x0:0x246bb3110e6a2a9f
cafe,Rumah Makan,Setia Malam,"XC6G+JMP, Laluin, Kecamatan Kayoa Selatan, Kabupaten Halmahera Selatan, Maluku Utara","Kabupaten Halmahera Selatan, Maluku Utara",MALUKU UTARA,,Indonesia,,-0.0387606,127.4256982,https://maps.google.com/?cid=0x0:0xa0c29180c272aa6
cafe,Hotel,Rumah eka sayg,"2C66+798, Guruapin, Kec. Kayoa, Kabupaten Halmahera Selatan, Maluku Utara","Kabupaten Halmahera Selatan, Maluku Utara",MALUKU UTARA,,Indonesia,,0.0106578,127.4109679,https://maps.google.com/?cid=0x0:0xfbff5062bc1293a0
cafe,cafe,Anak party,"XC3F+F4C, Laluin, Kecamatan Kayoa Selatan, Kabupaten Halmahera Selatan, Maluku Utara","Kabupaten Halmahera Selatan, Maluku Utara",MALUKU UTARA,,Indonesia,,-0.0463231,127.4227751,https://maps.google.com/?cid=0x0:0x3524cd99d4bf2a72
cafe,cafe,Anak COMUNITY,"XC7G+4MG, Laluin, Kecamatan Kayoa Selatan, Kabupaten Halmahera Selatan, Maluku Utara","Kabupaten Halmahera Selatan, Maluku Utara",MALUKU UTARA,,Indonesia,,-0.0371794,127.426693,https://maps.google.com/?cid=0x0:0xeb5f180b83a0d83b
cafe,cafe,Kayoa Halmahera selatan,"6W6C+292, Sei Pinang, Mandau Talawang, Kabupaten Kapuas, Kalimantan Tengah","Kabupaten Kapuas, Kalimantan Tengah",MALUKU UTARA,,Indonesia,,-0.7899851,113.9208764,https://maps.google.com/?cid=0x0:0x32b601827f10f3e0
cafe,Kedai Kopi,zona cafe,"FW99+X4, Lelilef Waibulan, Kec. Weda Tengah, Kabupaten Halmahera Tengah, Maluku Utara","Kabupaten Halmahera Tengah, Maluku Utara",MALUKU UTARA,,Indonesia,,0.4699768,127.9177833,https://maps.google.com/?cid=0x0:0x184af3561b5222e9
cafe,cafe,Kec. Kayoa Utara,"Kabupaten Halmahera Selatan, Maluku Utara","Kabupaten Halmahera Selatan, Maluku Utara",MALUKU UTARA,,Indonesia,,0.1242204,127.4471181,https://maps.google.com/?cid=0x0:0xd99a2feb58f3015d
cafe,Kafe,Qiarono Coffee  Books,"Depan Kampus Universitas Halmahera, Jl.trans Tobelo-Galela, Wari Ino, Kec. Tobelo, Kabupaten Halmahera Utara, Maluku Utara 97762","Jl.trans Tobelo-Galela, Wari Ino, Kec. Tobelo, Kabupaten Halmahera Utara",MALUKU UTARA,97762.0,Indonesia,82291572605.0,1.7509862,127.9920358,https://maps.google.com/?cid=0x0:0x799b40c250d82e2b
cafe,Hotel,Rumah eka sayg,"2C66+798, Guruapin, Kec. Kayoa, Kabupaten Halmahera Selatan, Maluku Utara","Kabupaten Halmahera Selatan, Maluku Utara",MALUKU UTARA,,Indonesia,,0.0106578,127.4109679,https://maps.google.com/?cid=0x0:0xfbff5062bc1293a0
cafe,Restoran,Garage.Coffee,"Jl. Iyantoa RT/RW 001, 001, Sailal, Kec. Maba, Kabupaten Halmahera Timur, Maluku Utara","Kabupaten Halmahera Timur, Maluku Utara",MALUKU UTARA,,Indonesia,85340031999.0,0.8801648,128.2951792,https://maps.google.com/?cid=0x0:0x9cf91ef80cd4283f
cafe,cafe,Rm.BAROKAH (mbak jawa),"Guruapin, Kec. Kayoa, Kabupaten Halmahera Selatan, Maluku Utara","Kabupaten Halmahera Selatan, Maluku Utara",MALUKU UTARA,,Indonesia,,0.0105922,127.4099191,https://maps.google.com/?cid=0x0:0xe55e136c187500bc
cafe,Kedai Kopi,Cafe Humaka Marahai,"Kawasi, Kec. Obi, Maluku Utara, 12345",Kec. Obi,MALUKU UTARA,12345.0,Indonesia,82199883830.0,-1.5847164,127.4143262,https://maps.google.com/?cid=0x0:0x9f81035dcac112f7
cafe,Rumah wisata,RUMAH GILANG,"2C65+59M, Guruapin, Kec. Kayoa, Kabupaten Halmahera Selatan, Maluku Utara","Kabupaten Halmahera Selatan, Maluku Utara",MALUKU UTARA,,Indonesia,,0.0104707,127.4084067,https://maps.google.com/?cid=0x0:0x2393232dab05f90b
cafe,cafe,Kec. Bacan Bar. Utara,"Kabupaten Halmahera Selatan, Maluku Utara","Kabupaten Halmahera Selatan, Maluku Utara",MALUKU UTARA,,Indonesia,,-0.348747,127.4004871,https://maps.google.com/?cid=0x0:0x3b3491e8d2fae80
cafe,Kedai Kopi,V888,"J86X+3F, Kusubibi, Kec. Bacan Bar., Kabupaten Halmahera Selatan, Maluku Utara","Kabupaten Halmahera Selatan, Maluku Utara",MALUKU UTARA,,Indonesia,,-0.389749,127.3486324,https://maps.google.com/?cid=0x0:0x2cec082ce23de156
cafe,Kedai Kopi,Carema Cafe and Resto,"Jl. Raya Mandaong, Pantai, Mandaong, Kec. Bacan Sel., Kabupaten Halmahera Selatan, Maluku Utara 97791","Pantai, Mandaong, Kec. Bacan Sel., Kabupaten Halmahera Selatan",MALUKU UTARA,97791.0,Indonesia,,-0.6487869,127.4783807,https://maps.google.com/?cid=0x0:0x18a48dca73af43da
cafe,Kafe,Cafe bungalow 1,"9G97+7RH, Marabose, Kec. Bacan, Kabupaten Halmahera Selatan, Maluku Utara","Kabupaten Halmahera Selatan, Maluku Utara",MALUKU UTARA,,Indonesia,82193581285.0,-0.6318104,127.5145943,https://maps.google.com/?cid=0x0:0xdc36837a72f449a2
cafe,Kafe,Kharisma Caffe,"Jl. Utama Labuha, Babang, Kec. Bacan, Kabupaten Halmahera Selatan, Maluku Utara 97791","Babang, Kec. Bacan, Kabupaten Halmahera Selatan",MALUKU UTARA,97791.0,Indonesia,,-0.6341258,127.5267571,https://maps.google.com/?cid=0x0:0xcb98c644538acb80
cafe,Kedai Kopi,Stereckcoffee,"9F2W+9CJ sekitar puskesmas lurus terus dari utara, Jl sadar alam, Tomori, South Bacan, South Halmahera Regency, North Maluku","Kabupaten Halmahera Selatan, Maluku Utara",MALUKU UTARA,,Indonesia,82137243418.0,-0.6490378,127.4960157,https://maps.google.com/?cid=0x0:0xefc3e330642ff8a3
cafe,Kedai Kopi,Warung aca,"J995+GMF, Kusubibi, Kec. Bacan Bar., Kabupaten Halmahera Selatan, Maluku Utara","Kabupaten Halmahera Selatan, Maluku Utara",MALUKU UTARA,,Indonesia,,-0.3811931,127.3591815,https://maps.google.com/?cid=0x0:0x4b93e2db58293612
cafe,Kedai Kopi,Cafe Tors,"8FWP+F5X, Mandaong, Kec. Bacan Sel., Kabupaten Halmahera Selatan, Maluku Utara","Kabupaten Halmahera Selatan, Maluku Utara",MALUKU UTARA,,Indonesia,81392317228.0,-0.6537586,127.4854978,https://maps.google.com/?cid=0x0:0xa3611d86e40c3aee
cafe,Kedai Kopi,Stereckcoffee,"Jl. Daniel Kabenti, Mandaong, Kec. Bacan Sel., Kabupaten Halmahera Selatan, Maluku Utara","Kabupaten Halmahera Selatan, Maluku Utara",MALUKU UTARA,,Indonesia,82137243418.0,-0.6462252,127.4815004,https://maps.google.com/?cid=0x0:0xc5bf2bc72a731aae
cafe,Kafe,Sunset Cafe,"9F5H+RV6, Labuha, Kec. Bacan, Kabupaten Halmahera Selatan, Maluku Utara","Kabupaten Halmahera Selatan, Maluku Utara",MALUKU UTARA,,Indonesia,,-0.6404369,127.4796833,https://maps.google.com/?cid=0x0:0xa44b6795469e7e04
cafe,cafe,Kedai Bumi Desa kusubibi,"J83M+R92, Kusubibi, Kec. Bacan Bar., Kabupaten Halmahera Selatan, Maluku Utara","Kabupaten Halmahera Selatan, Maluku Utara",MALUKU UTARA,,Indonesia,,-0.3954813,127.3333887,https://maps.google.com/?cid=0x0:0x5144ff90dd1aa299
cafe,Kios,VAPE STORE BACAN,"Tomori, Kec. Bacan, Kabupaten Halmahera Selatan, Maluku Utara","Kabupaten Halmahera Selatan, Maluku Utara",MALUKU UTARA,,Indonesia,82221282412.0,-0.6442473,127.4866675,https://maps.google.com/?cid=0x0:0x229107ca37ab5df2
cafe,Kedai Kopi,Outer Space Coffee,"9F4V+V2C, Jl. Kebun Karet, Tomori, Kec. Bacan, Kabupaten Halmahera Selatan, Maluku Utara","Kabupaten Halmahera Selatan, Maluku Utara",MALUKU UTARA,,Indonesia,,-0.6428035,127.4925116,https://maps.google.com/?cid=0x0:0x18929ab9aa0c4893
cafe,Grosir Kopi,COFFEE SHOP 88,"9F6P+RW7, Tomori, Kec. Bacan, Kabupaten Halmahera Selatan, Maluku Utara","Kabupaten Halmahera Selatan, Maluku Utara",MALUKU UTARA,,Indonesia,,-0.638038,127.487155,https://maps.google.com/?cid=0x0:0xd7e1598e84cbdcd8
cafe,cafe,Kec. Kasiruta Bar.,"Kabupaten Halmahera Selatan, Maluku Utara","Kabupaten Halmahera Selatan, Maluku Utara",MALUKU UTARA,,Indonesia,,-0.3806491,127.1198267,https://maps.google.com/?cid=0x0:0xc58e8733bd2d1bfb
cafe,cafe,Ruma pak Acho choker,"P6R6+J6X, Tawa Bacan Bar., Kasiruta Tim., Kabupaten Halmahera Selatan, Maluku Utara","Kabupaten Halmahera Selatan, Maluku Utara",MALUKU UTARA,,Indonesia,,-0.258388,127.210607,https://maps.google.com/?cid=0x0:0x387b84027441c2a3
cafe,cafe,Kec. Bacan Sel.,"Kabupaten Halmahera Selatan, Maluku Utara","Kabupaten Halmahera Selatan, Maluku Utara",MALUKU UTARA,,Indonesia,,-0.6527457,127.4833566,https://maps.google.com/?cid=0x0:0xad48e5ee740e417c
cafe,Kafe,SABIJI COFFEE,"Jl Pantai mongga, Mandaong, Kec. Bacan, Kabupaten Halmahera Selatan, Maluku Utara","Kabupaten Halmahera Selatan, Maluku Utara",MALUKU UTARA,,Indonesia,81340442525.0,-0.6428741,127.4792318,https://maps.google.com/?cid=0x0:0xf058a5590d67413
cafe,Kedai Kopi,Carema Cafe and Resto,"Jl. Raya Mandaong, Pantai, Mandaong, Kec. Bacan Sel., Kabupaten Halmahera Selatan, Maluku Utara 97791","Pantai, Mandaong, Kec. Bacan Sel., Kabupaten Halmahera Selatan",MALUKU UTARA,97791.0,Indonesia,,-0.6487869,127.4783807,https://maps.google.com/?cid=0x0:0x18a48dca73af43da
cafe,Kedai Kopi,Outer Space Coffee,"9F4V+V2C, Jl. Kebun Karet, Tomori, Kec. Bacan, Kabupaten Halmahera Selatan, Maluku Utara","Kabupaten Halmahera Selatan, Maluku Utara",MALUKU UTARA,,Indonesia,,-0.6428035,127.4925116,https://maps.google.com/?cid=0x0:0x18929ab9aa0c4893
cafe,Kedai Kopi,Stereckcoffee,"Jl. Daniel Kabenti, Mandaong, Kec. Bacan Sel., Kabupaten Halmahera Selatan, Maluku Utara","Kabupaten Halmahera Selatan, Maluku Utara",MALUKU UTARA,,Indonesia,82137243418.0,-0.6462252,127.4815004,https://maps.google.com/?cid=0x0:0xc5bf2bc72a731aae
cafe,Grosir Kopi,COFFEE SHOP 88,"9F6P+RW7, Tomori, Kec. Bacan, Kabupaten Halmahera Selatan, Maluku Utara","Kabupaten Halmahera Selatan, Maluku Utara",MALUKU UTARA,,Indonesia,,-0.638038,127.487155,https://maps.google.com/?cid=0x0:0xd7e1598e84cbdcd8
cafe,Kafe,Cafe bungalow 1,"9G97+7RH, Marabose, Kec. Bacan, Kabupaten Halmahera Selatan, Maluku Utara","Kabupaten Halmahera Selatan, Maluku Utara",MALUKU UTARA,,Indonesia,82193581285.0,-0.6318104,127.5145943,https://maps.google.com/?cid=0x0:0xdc36837a72f449a2
cafe,Kafe,NYAMANcaffe,"Mandaong, Kec. Bacan Sel., Kabupaten Halmahera Selatan, Maluku Utara","Kabupaten Halmahera Selatan, Maluku Utara",MALUKU UTARA,,Indonesia,81256385459.0,-0.6446989,127.4803848,https://maps.google.com/?cid=0x0:0xdecfb95b527022f7
cafe,Kedai Kopi,Bilqis coffe shop,"9FCJ+VCR, Jl. Tomori - Labuha, Tomori, Kec. Bacan, Kabupaten Halmahera Selatan, Maluku Utara","Kabupaten Halmahera Selatan, Maluku Utara",MALUKU UTARA,,Indonesia,81333355591.0,-0.627762,127.481014,https://maps.google.com/?cid=0x0:0x234639d4dd5ee237
cafe,Kafe,Cafe Incana,"9G89+H5M, Jl. Raya Babang, Marabose, Kec. Bacan, Kabupaten Halmahera Selatan, Maluku Utara","Kabupaten Halmahera Selatan, Maluku Utara",MALUKU UTARA,,Indonesia,81221509922.0,-0.633534,127.5179165,https://maps.google.com/?cid=0x0:0xd9aa467f8b5d4ac6
cafe,Kedai Kopi,Cafe Tors,"8FWP+F5X, Mandaong, Kec. Bacan Sel., Kabupaten Halmahera Selatan, Maluku Utara","Kabupaten Halmahera Selatan, Maluku Utara",MALUKU UTARA,,Indonesia,81392317228.0,-0.6537586,127.4854978,https://maps.google.com/?cid=0x0:0xa3611d86e40c3aee
cafe,Kafe,Lexy Conte Cafe,"9F5H+9M4, swering pantai, Labuha, Kec. Bacan, Kabupaten Halmahera Selatan, Maluku Utara","Kabupaten Halmahera Selatan, Maluku Utara",MALUKU UTARA,,Indonesia,,-0.6416038,127.4792005,https://maps.google.com/?cid=0x0:0xcd1a1a256d9b698
cafe,Komplek perumahan,Cafe Kupal,"8FPG+2GX, Kupal, Kec. Bacan Sel., Kabupaten Halmahera Selatan, Maluku Utara","Kabupaten Halmahera Selatan, Maluku Utara",MALUKU UTARA,,Indonesia,,-0.664896,127.4763695,https://maps.google.com/?cid=0x0:0xd0e07b4fffd8515f
cafe,Kafe,Basigaro Cafe,"9F4V+6MF, Kp. Makian, Kec. Bacan Sel., Kabupaten Halmahera Selatan, Maluku Utara","Kabupaten Halmahera Selatan, Maluku Utara",MALUKU UTARA,,Indonesia,,-0.6444393,127.4941765,https://maps.google.com/?cid=0x0:0x9e39f1bb37940988
cafe,Rumah Makan,resto tapping innana,"9F2J+GH5, Mandaong, Kec. Bacan Sel., Kabupaten Halmahera Selatan, Maluku Utara","Kabupaten Halmahera Selatan, Maluku Utara",MALUKU UTARA,,Indonesia,,-0.6487413,127.4814766,https://maps.google.com/?cid=0x0:0x1ccfcd49e60f678b
cafe,Kafe,Forganza Resto  Cafe,"Kelanit, Kec. Kei Kecil, Kabupaten Maluku Tenggara, Maluku","Kabupaten Maluku Tenggara, Maluku",MALUKU UTARA,,Indonesia,82231789845.0,-5.6575049,132.7029619,https://maps.google.com/?cid=0x0:0x35e7e74d6d2279bc
cafe,cafe,Kec. Kepulauan Botang Lomang,"Kabupaten Halmahera Selatan, Maluku Utara","Kabupaten Halmahera Selatan, Maluku Utara",MALUKU UTARA,,Indonesia,,-0.6551716,127.3965666,https://maps.google.com/?cid=0x0:0x6b1042a5e2595523
cafe,Toko bahan makanan,Kios Nurul  AgenBRILink,"Bajo, Sangkuang, Kabupaten Halmahera Selatan, Maluku Utara 97790","Sangkuang, Kabupaten Halmahera Selatan",MALUKU UTARA,97790.0,Indonesia,81244060377.0,-0.6216207,127.3953524,https://maps.google.com/?cid=0x0:0x9bccd86d469fc0de
cafe,cafe,T.Dirham Resto,"Desa Bajo, Kec. Kep, Bajo, Kec. Kepulauan Botang Lomang, Kabupaten Halmahera Selatan, Maluku Utara 97791","Kec. Kep, Bajo, Kec. Kepulauan Botang Lomang, Kabupaten Halmahera Selatan",MALUKU UTARA,97791.0,Indonesia,81292802317.0,-0.6218979,127.3980053,https://maps.google.com/?cid=0x0:0xe43bc7d6b41a8be0
cafe,cafe,WARKOP MAMA TIA,"99HW+M54, Bajo, Kec. Kepulauan Botang Lomang, Kabupaten Halmahera Selatan, Maluku Utara","Kabupaten Halmahera Selatan, Maluku Utara",MALUKU UTARA,,Indonesia,,-0.6208703,127.3954563,https://maps.google.com/?cid=0x0:0xe41b297ff1d5bac9
cafe,cafe,Kec. Mandioli Sel.,"Kabupaten Halmahera Selatan, Maluku Utara","Kabupaten Halmahera Selatan, Maluku Utara",MALUKU UTARA,,Indonesia,,-0.7822039,127.2796254,https://maps.google.com/?cid=0x0:0x97b7f19576981b91
cafe,Pembangunan Perumahan,Mandioli Utara,"96Q8+R3F, Loleongusu, Kec. Mandioli Utara, Kabupaten Halmahera Selatan, Maluku Utara","Kabupaten Halmahera Selatan, Maluku Utara",MALUKU UTARA,,Indonesia,81344421908.0,-0.6104327,127.2151696,https://maps.google.com/?cid=0x0:0x97b1e39821278796
cafe,Komplek perumahan,Desa Loleongusu,"96Q8+P3C, Loleongusu, Kec. Mandioli Utara, Kabupaten Halmahera Selatan, Maluku Utara","Kabupaten Halmahera Selatan, Maluku Utara",MALUKU UTARA,,Indonesia,,-0.6106835,127.2151264,https://maps.google.com/?cid=0x0:0x975ba2afb495da09
cafe,Pembangunan Perumahan,Mandioli Utara,"96Q8+R3F, Loleongusu, Kec. Mandioli Utara, Kabupaten Halmahera Selatan, Maluku Utara","Kabupaten Halmahera Selatan, Maluku Utara",MALUKU UTARA,,Indonesia,81344421908.0,-0.6104327,127.2151696,https://maps.google.com/?cid=0x0:0x97b1e39821278796
cafe,Komplek perumahan,Desa Loleongusu,"96Q8+P3C, Loleongusu, Kec. Mandioli Utara, Kabupaten Halmahera Selatan, Maluku Utara","Kabupaten Halmahera Selatan, Maluku Utara",MALUKU UTARA,,Indonesia,,-0.6106835,127.2151264,https://maps.google.com/?cid=0x0:0x975ba2afb495da09
cafe,Pembangunan Perumahan,Mandioli Utara,"96Q8+R3F, Loleongusu, Kec. Mandioli Utara, Kabupaten Halmahera Selatan, Maluku Utara","Kabupaten Halmahera Selatan, Maluku Utara",MALUKU UTARA,,Indonesia,81344421908.0,-0.6104327,127.2151696,https://maps.google.com/?cid=0x0:0x97b1e39821278796
cafe,Komplek perumahan,Desa Loleongusu,"96Q8+P3C, Loleongusu, Kec. Mandioli Utara, Kabupaten Halmahera Selatan, Maluku Utara","Kabupaten Halmahera Selatan, Maluku Utara",MALUKU UTARA,,Indonesia,,-0.6106835,127.2151264,https://maps.google.com/?cid=0x0:0x975ba2afb495da09
cafe,cafe,Kec. Bacan Tim. Sel.,"Kabupaten Halmahera Selatan, Maluku Utara","Kabupaten Halmahera Selatan, Maluku Utara",MALUKU UTARA,,Indonesia,,-0.8138816,127.872846,https://maps.google.com/?cid=0x0:0x10b732e030ec504d
cafe,Kedai Kopi,Carema Cafe and Resto,"Jl. Raya Mandaong, Pantai, Mandaong, Kec. Bacan Sel., Kabupaten Halmahera Selatan, Maluku Utara 97791","Pantai, Mandaong, Kec. Bacan Sel., Kabupaten Halmahera Selatan",MALUKU UTARA,97791.0,Indonesia,,-0.6487869,127.4783807,https://maps.google.com/?cid=0x0:0x18a48dca73af43da
cafe,Kafe,Cafe bungalow 1,"9G97+7RH, Marabose, Kec. Bacan, Kabupaten Halmahera Selatan, Maluku Utara","Kabupaten Halmahera Selatan, Maluku Utara",MALUKU UTARA,,Indonesia,82193581285.0,-0.6318104,127.5145943,https://maps.google.com/?cid=0x0:0xdc36837a72f449a2
cafe,Kedai Kopi,Stereckcoffee,"Jl. Daniel Kabenti, Mandaong, Kec. Bacan Sel., Kabupaten Halmahera Selatan, Maluku Utara","Kabupaten Halmahera Selatan, Maluku Utara",MALUKU UTARA,,Indonesia,82137243418.0,-0.6462252,127.4815004,https://maps.google.com/?cid=0x0:0xc5bf2bc72a731aae
cafe,Kedai Kopi,Stereckcoffee,"9F2W+9CJ sekitar puskesmas lurus terus dari utara, Jl sadar alam, Tomori, South Bacan, South Halmahera Regency, North Maluku","Kabupaten Halmahera Selatan, Maluku Utara",MALUKU UTARA,,Indonesia,82137243418.0,-0.6490378,127.4960157,https://maps.google.com/?cid=0x0:0xefc3e330642ff8a3
cafe,Kafe,SABIJI COFFEE,"Jl Pantai mongga, Mandaong, Kec. Bacan, Kabupaten Halmahera Selatan, Maluku Utara","Kabupaten Halmahera Selatan, Maluku Utara",MALUKU UTARA,,Indonesia,81340442525.0,-0.6428741,127.4792318,https://maps.google.com/?cid=0x0:0xf058a5590d67413
cafe,Kedai Kopi,Bilqis coffe shop,"9FCJ+VCR, Jl. Tomori - Labuha, Tomori, Kec. Bacan, Kabupaten Halmahera Selatan, Maluku Utara","Kabupaten Halmahera Selatan, Maluku Utara",MALUKU UTARA,,Indonesia,81333355591.0,-0.627762,127.481014,https://maps.google.com/?cid=0x0:0x234639d4dd5ee237
cafe,Kedai Kopi,Outer Space Coffee,"9F4V+V2C, Jl. Kebun Karet, Tomori, Kec. Bacan, Kabupaten Halmahera Selatan, Maluku Utara","Kabupaten Halmahera Selatan, Maluku Utara",MALUKU UTARA,,Indonesia,,-0.6428035,127.4925116,https://maps.google.com/?cid=0x0:0x18929ab9aa0c4893
cafe,Grosir Kopi,COFFEE SHOP 88,"9F6P+RW7, Tomori, Kec. Bacan, Kabupaten Halmahera Selatan, Maluku Utara","Kabupaten Halmahera Selatan, Maluku Utara",MALUKU UTARA,,Indonesia,,-0.638038,127.487155,https://maps.google.com/?cid=0x0:0xd7e1598e84cbdcd8
cafe,Kafe,Kharisma Caffe,"Jl. Utama Labuha, Babang, Kec. Bacan, Kabupaten Halmahera Selatan, Maluku Utara 97791","Babang, Kec. Bacan, Kabupaten Halmahera Selatan",MALUKU UTARA,97791.0,Indonesia,,-0.6341258,127.5267571,https://maps.google.com/?cid=0x0:0xcb98c644538acb80
cafe,Kafe,NYAMANcaffe,"Mandaong, Kec. Bacan Sel., Kabupaten Halmahera Selatan, Maluku Utara","Kabupaten Halmahera Selatan, Maluku Utara",MALUKU UTARA,,Indonesia,81256385459.0,-0.6446989,127.4803848,https://maps.google.com/?cid=0x0:0xdecfb95b527022f7
cafe,Kafe,Lexy Conte Cafe,"9F5H+9M4, swering pantai, Labuha, Kec. Bacan, Kabupaten Halmahera Selatan, Maluku Utara","Kabupaten Halmahera Selatan, Maluku Utara",MALUKU UTARA,,Indonesia,,-0.6416038,127.4792005,https://maps.google.com/?cid=0x0:0xcd1a1a256d9b698
cafe,Kedai Kopi,Cafe Tors,"8FWP+F5X, Mandaong, Kec. Bacan Sel., Kabupaten Halmahera Selatan, Maluku Utara","Kabupaten Halmahera Selatan, Maluku Utara",MALUKU UTARA,,Indonesia,81392317228.0,-0.6537586,127.4854978,https://maps.google.com/?cid=0x0:0xa3611d86e40c3aee
cafe,Komplek perumahan,Cafe Kupal,"8FPG+2GX, Kupal, Kec. Bacan Sel., Kabupaten Halmahera Selatan, Maluku Utara","Kabupaten Halmahera Selatan, Maluku Utara",MALUKU UTARA,,Indonesia,,-0.664896,127.4763695,https://maps.google.com/?cid=0x0:0xd0e07b4fffd8515f
cafe,cafe,Kec. Bacan Tim. Tengah,"Kabupaten Halmahera Selatan, Maluku Utara","Kabupaten Halmahera Selatan, Maluku Utara",MALUKU UTARA,,Indonesia,,-0.6921114,127.7318506,https://maps.google.com/?cid=0x0:0xc2cd01a3dd86df14
cafe,Kafe,SABIJI COFFEE,"Jl Pantai mongga, Mandaong, Kec. Bacan, Kabupaten Halmahera Selatan, Maluku Utara","Kabupaten Halmahera Selatan, Maluku Utara",MALUKU UTARA,,Indonesia,81340442525.0,-0.6428741,127.4792318,https://maps.google.com/?cid=0x0:0xf058a5590d67413
cafe,Kedai Kopi,Carema Cafe and Resto,"Jl. Raya Mandaong, Pantai, Mandaong, Kec. Bacan Sel., Kabupaten Halmahera Selatan, Maluku Utara 97791","Pantai, Mandaong, Kec. Bacan Sel., Kabupaten Halmahera Selatan",MALUKU UTARA,97791.0,Indonesia,,-0.6487869,127.4783807,https://maps.google.com/?cid=0x0:0x18a48dca73af43da
cafe,Kedai Kopi,Stereckcoffee,"9F2W+9CJ sekitar puskesmas lurus terus dari utara, Jl sadar alam, Tomori, South Bacan, South Halmahera Regency, North Maluku","Kabupaten Halmahera Selatan, Maluku Utara",MALUKU UTARA,,Indonesia,82137243418.0,-0.6490378,127.4960157,https://maps.google.com/?cid=0x0:0xefc3e330642ff8a3
cafe,Kedai Kopi,Outer Space Coffee,"9F4V+V2C, Jl. Kebun Karet, Tomori, Kec. Bacan, Kabupaten Halmahera Selatan, Maluku Utara","Kabupaten Halmahera Selatan, Maluku Utara",MALUKU UTARA,,Indonesia,,-0.6428035,127.4925116,https://maps.google.com/?cid=0x0:0x18929ab9aa0c4893
cafe,Kafe,Cafe bungalow 1,"9G97+7RH, Marabose, Kec. Bacan, Kabupaten Halmahera Selatan, Maluku Utara","Kabupaten Halmahera Selatan, Maluku Utara",MALUKU UTARA,,Indonesia,82193581285.0,-0.6318104,127.5145943,https://maps.google.com/?cid=0x0:0xdc36837a72f449a2
cafe,Kedai Kopi,Stereckcoffee,"Jl. Daniel Kabenti, Mandaong, Kec. Bacan Sel., Kabupaten Halmahera Selatan, Maluku Utara","Kabupaten Halmahera Selatan, Maluku Utara",MALUKU UTARA,,Indonesia,82137243418.0,-0.6462252,127.4815004,https://maps.google.com/?cid=0x0:0xc5bf2bc72a731aae
cafe,Grosir Kopi,COFFEE SHOP 88,"9F6P+RW7, Tomori, Kec. Bacan, Kabupaten Halmahera Selatan, Maluku Utara","Kabupaten Halmahera Selatan, Maluku Utara",MALUKU UTARA,,Indonesia,,-0.638038,127.487155,https://maps.google.com/?cid=0x0:0xd7e1598e84cbdcd8
cafe,Kedai Kopi,Bilqis coffe shop,"9FCJ+VCR, Jl. Tomori - Labuha, Tomori, Kec. Bacan, Kabupaten Halmahera Selatan, Maluku Utara","Kabupaten Halmahera Selatan, Maluku Utara",MALUKU UTARA,,Indonesia,81333355591.0,-0.627762,127.481014,https://maps.google.com/?cid=0x0:0x234639d4dd5ee237
cafe,Kafe,Randy Coffee Shop,"9JF3+9GG, Babang, Kec. Bacan Tim., Kabupaten Halmahera Selatan, Maluku Utara","Kabupaten Halmahera Selatan, Maluku Utara",MALUKU UTARA,,Indonesia,,-0.6265625,127.6038281,https://maps.google.com/?cid=0x0:0x292640ef8c84d467
cafe,Kafe,Kharisma Caffe,"Jl. Utama Labuha, Babang, Kec. Bacan, Kabupaten Halmahera Selatan, Maluku Utara 97791","Babang, Kec. Bacan, Kabupaten Halmahera Selatan",MALUKU UTARA,97791.0,Indonesia,,-0.6341258,127.5267571,https://maps.google.com/?cid=0x0:0xcb98c644538acb80
cafe,Kafe,NYAMANcaffe,"Mandaong, Kec. Bacan Sel., Kabupaten Halmahera Selatan, Maluku Utara","Kabupaten Halmahera Selatan, Maluku Utara",MALUKU UTARA,,Indonesia,81256385459.0,-0.6446989,127.4803848,https://maps.google.com/?cid=0x0:0xdecfb95b527022f7
cafe,Kedai Kopi,Cafe Tors,"8FWP+F5X, Mandaong, Kec. Bacan Sel., Kabupaten Halmahera Selatan, Maluku Utara","Kabupaten Halmahera Selatan, Maluku Utara",MALUKU UTARA,,Indonesia,81392317228.0,-0.6537586,127.4854978,https://maps.google.com/?cid=0x0:0xa3611d86e40c3aee
cafe,Kafe,Lexy Conte Cafe,"9F5H+9M4, swering pantai, Labuha, Kec. Bacan, Kabupaten Halmahera Selatan, Maluku Utara","Kabupaten Halmahera Selatan, Maluku Utara",MALUKU UTARA,,Indonesia,,-0.6416038,127.4792005,https://maps.google.com/?cid=0x0:0xcd1a1a256d9b698
cafe,cafe,Kec. Gane Bar. Sel.,"Kabupaten Halmahera Selatan, Maluku Utara","Kabupaten Halmahera Selatan, Maluku Utara",MALUKU UTARA,,Indonesia,,-0.762002,128.203222,https://maps.google.com/?cid=0x0:0x53c8be4d55503c6d
cafe,Toko Swalayan,Toko Antaress Gane Dalam,"66H9+XXF, Gane Dalam, Kec. Gane Bar. Sel., Kabupaten Halmahera Selatan, Maluku Utara","Kabupaten Halmahera Selatan, Maluku Utara",MALUKU UTARA,,Indonesia,,-0.7700703,128.2199308,https://maps.google.com/?cid=0x0:0xf3a541bc877a55cc
cafe,Kedai Kopi,Lemo-lemo,"83Q3+P2W, Lemo Lemo, Kec. Gane Bar., Kabupaten Halmahera Selatan, Maluku Utara","Kabupaten Halmahera Selatan, Maluku Utara",MALUKU UTARA,,Indonesia,82187593688.0,-0.6606259,128.0525654,https://maps.google.com/?cid=0x0:0xf753f67d428ec720
cafe,Area Wi-Fi,Tower bhakti yamly,"679C+3GP, Gane Luar, Kec. Gane Tim. Sel., Kabupaten Halmahera Selatan, Maluku Utara","Kabupaten Halmahera Selatan, Maluku Utara",MALUKU UTARA,,Indonesia,,-0.7822897,128.2713306,https://maps.google.com/?cid=0x0:0x79f474f29fd790d9
cafe,Kedai Kopi,Kedai bacarita kampung,"MQFM+PG, Koititi, Kec. Gane Bar., Kabupaten Halmahera Selatan, Maluku Utara","Kabupaten Halmahera Selatan, Maluku Utara",MALUKU UTARA,,Indonesia,85283729586.0,-0.3255738,127.7839034,https://maps.google.com/?cid=0x0:0xd47025807a9a4a81
cafe,cafe,Kec. Gane Bar. Utara,"Kabupaten Halmahera Selatan, Maluku Utara","Kabupaten Halmahera Selatan, Maluku Utara",MALUKU UTARA,,Indonesia,,-0.2711433,127.6958246,https://maps.google.com/?cid=0x0:0x99a01612ac04691e
cafe,Kedai Kopi,Kedai bacarita kampung,"MQFM+PG, Koititi, Kec. Gane Bar., Kabupaten Halmahera Selatan, Maluku Utara","Kabupaten Halmahera Selatan, Maluku Utara",MALUKU UTARA,,Indonesia,85283729586.0,-0.3255738,127.7839034,https://maps.google.com/?cid=0x0:0xd47025807a9a4a81
cafe,Komplek perumahan,Wifi area,"XQ74+67R, Gumira, Kec. Gane Bar. Utara, Kabupaten Halmahera Selatan, Maluku Utara","Kabupaten Halmahera Selatan, Maluku Utara",MALUKU UTARA,,Indonesia,,-0.0368875,127.7556556,https://maps.google.com/?cid=0x0:0x7c70ec8795d3b301
cafe,cafe,Pulau Joronga,"Kec. Kepulauan Joronga, Kabupaten Halmahera Selatan, Maluku Utara","Kabupaten Halmahera Selatan, Maluku Utara",MALUKU UTARA,,Indonesia,,-1.0939334,128.3692495,https://maps.google.com/?cid=0x0:0xcc70cd24bdde223b
cafe,cafe,Kec. Gane Tim. Sel.,"Kabupaten Halmahera Selatan, Maluku Utara","Kabupaten Halmahera Selatan, Maluku Utara",MALUKU UTARA,,Indonesia,,-0.7047222,128.2191774,https://maps.google.com/?cid=0x0:0x5d731fac62ca9680
cafe,Toko Swalayan,Karim jaya,"76W9+W96, Gane Luar, Kec. Gane Tim. Sel., Kabupaten Halmahera Selatan, Maluku Utara","Kabupaten Halmahera Selatan, Maluku Utara",MALUKU UTARA,,Indonesia,,-0.701929,128.217981,https://maps.google.com/?cid=0x0:0x33fe092ea78907ef
cafe,Toko Swalayan,Toko Antaress Gane Dalam,"66H9+XXF, Gane Dalam, Kec. Gane Bar. Sel., Kabupaten Halmahera Selatan, Maluku Utara","Kabupaten Halmahera Selatan, Maluku Utara",MALUKU UTARA,,Indonesia,,-0.7700703,128.2199308,https://maps.google.com/?cid=0x0:0xf3a541bc877a55cc
cafe,Kedai Kopi,Lemo-lemo,"83Q3+P2W, Lemo Lemo, Kec. Gane Bar., Kabupaten Halmahera Selatan, Maluku Utara","Kabupaten Halmahera Selatan, Maluku Utara",MALUKU UTARA,,Indonesia,82187593688.0,-0.6606259,128.0525654,https://maps.google.com/?cid=0x0:0xf753f67d428ec720
cafe,Rumah Makan,Kedai Dela,"2VRQ+W66, Waimili, Kec. Gane Tim., Kabupaten Halmahera Selatan, Maluku Utara","Kabupaten Halmahera Selatan, Maluku Utara",MALUKU UTARA,,Indonesia,,0.0424189,127.887972,https://maps.google.com/?cid=0x0:0x79049e03ff7070ad
cafe,Area Wi-Fi,Tower bhakti yamly,"679C+3GP, Gane Luar, Kec. Gane Tim. Sel., Kabupaten Halmahera Selatan, Maluku Utara","Kabupaten Halmahera Selatan, Maluku Utara",MALUKU UTARA,,Indonesia,,-0.7822897,128.2713306,https://maps.google.com/?cid=0x0:0x79f474f29fd790d9
cafe,cafe,resort widi,"CC4C+C67, Pulau, Kec. Gane Tim. Sel., Kabupaten Halmahera Selatan, Maluku Utara","Kabupaten Halmahera Selatan, Maluku Utara",MALUKU UTARA,,Indonesia,85340343030.0,-0.5939676,128.420542,https://maps.google.com/?cid=0x0:0xf417b15a298a652f
cafe,cafe,KEDAI DHELA,"2RPR+P6Q, Kebun Raja, Kec. Gane Tim., Kabupaten Halmahera Selatan, Maluku Utara","Kabupaten Halmahera Selatan, Maluku Utara",MALUKU UTARA,,Indonesia,,0.0368451,127.840618,https://maps.google.com/?cid=0x0:0xc9eb2af4fd14d08c
cafe,cafe,Kec. Gane Tim. Tengah,"Kabupaten Halmahera Selatan, Maluku Utara","Kabupaten Halmahera Selatan, Maluku Utara",MALUKU UTARA,,Indonesia,,-0.4042848,128.027071,https://maps.google.com/?cid=0x0:0x4f9ff030214dfb8c
cafe,Rumah Makan,RUMAH MAKAN PADAIDI,"M2G8+73, Matuting, Kec. Gane Tim. Tengah, Kabupaten Halmahera Selatan, Maluku Utara","Kabupaten Halmahera Selatan, Maluku Utara",MALUKU UTARA,,Indonesia,,-0.3252143,128.0154648,https://maps.google.com/?cid=0x0:0x8cdc592214d27575
cafe,Sesuai untuk keluarga,RM GUDANG RASA,"M2F8+PFX, Matuting, Kec. Gane Tim. Tengah, Kabupaten Halmahera Selatan, Maluku Utara","Kabupaten Halmahera Selatan, Maluku Utara",MALUKU UTARA,,Indonesia,,-0.3260328,128.0156826,https://maps.google.com/?cid=0x0:0x6d4b6f7add89a40f
cafe,cafe,Kec. Obi Bar.,"Kabupaten Halmahera Selatan, Maluku Utara","Kabupaten Halmahera Selatan, Maluku Utara",MALUKU UTARA,,Indonesia,,-1.3895849,127.338527,https://maps.google.com/?cid=0x0:0xaed606505850254d
cafe,Kedai Kopi,Kafe tanjung ðâ,"FC54+W8P, Kawasi, Kec. Obi, Kabupaten Halmahera Selatan, Maluku Utara","Kabupaten Halmahera Selatan, Maluku Utara",MALUKU UTARA,,Indonesia,,-1.5401548,127.4058281,https://maps.google.com/?cid=0x0:0x388455f63fe03754
cafe,Warnet,Warnepy.net,"J85Q+Q93, Jikohay, Kec. Obi Bar., Kabupaten Halmahera Selatan, Maluku Utara","Kabupaten Halmahera Selatan, Maluku Utara",MALUKU UTARA,,Indonesia,,-1.3903861,127.3393044,https://maps.google.com/?cid=0x0:0x57b83189e4bcbc6a
cafe,Dapur Umum,RM Pantura,"CCP7+6CR, Kawasi, Kec. Obi, Kabupaten Halmahera Selatan, Maluku Utara","Kabupaten Halmahera Selatan, Maluku Utara",MALUKU UTARA,,Indonesia,,-1.5643891,127.4135153,https://maps.google.com/?cid=0x0:0xdf4f2166f9c78c7a
cafe,Kedai Kopi,Cafe Humaka Marahai,"Kawasi, Kec. Obi, Maluku Utara, 12345",Kec. Obi,MALUKU UTARA,12345.0,Indonesia,82199883830.0,-1.5847164,127.4143262,https://maps.google.com/?cid=0x0:0x9f81035dcac112f7
cafe,cafe,Kafe Gudida,"MJ5Q+R9V, Laiwui, Kec. Obi, Kabupaten Halmahera Selatan, Maluku Utara","Kabupaten Halmahera Selatan, Maluku Utara",MALUKU UTARA,,Indonesia,,-1.3403776,127.6384256,https://maps.google.com/?cid=0x0:0xc0e9d988a5fc6273
cafe,cafe,Kec. Obi Tim.,"Kabupaten Halmahera Selatan, Maluku Utara","Kabupaten Halmahera Selatan, Maluku Utara",MALUKU UTARA,,Indonesia,,-1.4918907,127.9813554,https://maps.google.com/?cid=0x0:0xffcda0a454872d5e
cafe,Kedai Kopi,Kafe tanjung ðâ,"FC54+W8P, Kawasi, Kec. Obi, Kabupaten Halmahera Selatan, Maluku Utara","Kabupaten Halmahera Selatan, Maluku Utara",MALUKU UTARA,,Indonesia,,-1.5401548,127.4058281,https://maps.google.com/?cid=0x0:0x388455f63fe03754
cafe,Toko,Gil tjkr,"C4Q6+GFQ, Sum, Kec. Obi Tim., Kabupaten Halmahera Selatan, Maluku Utara","Kabupaten Halmahera Selatan, Maluku Utara",MALUKU UTARA,,Indonesia,,-1.5611625,128.1112344,https://maps.google.com/?cid=0x0:0x62ee9bc928e9e03e
cafe,cafe,LABUHA,"FPQF+JGJ, Anggai, Kec. Obi, Kabupaten Halmahera Selatan, Maluku Utara","Kabupaten Halmahera Selatan, Maluku Utara",MALUKU UTARA,,Indonesia,,-1.5109015,127.7237678,https://maps.google.com/?cid=0x0:0xfc2d77b2ca5c147c
cafe,Dapur Umum,RM Pantura,"CCP7+6CR, Kawasi, Kec. Obi, Kabupaten Halmahera Selatan, Maluku Utara","Kabupaten Halmahera Selatan, Maluku Utara",MALUKU UTARA,,Indonesia,,-1.5643891,127.4135153,https://maps.google.com/?cid=0x0:0xdf4f2166f9c78c7a
cafe,Klub Malam,CAFE PANTE DELA,"MJ9X+6M6, Jikotamo, Kec. Obi, Kabupaten Halmahera Selatan, Maluku Utara","Kabupaten Halmahera Selatan, Maluku Utara",MALUKU UTARA,,Indonesia,,-1.3318637,127.6499936,https://maps.google.com/?cid=0x0:0xce64678ea23c986a
cafe,cafe,Kec. Obi Utara,"Kabupaten Halmahera Selatan, Maluku Utara","Kabupaten Halmahera Selatan, Maluku Utara",MALUKU UTARA,,Indonesia,,-1.2239003,127.6485589,https://maps.google.com/?cid=0x0:0x14425d7651bc8346
cafe,Warnet,Obi halmahera selatan,"QMG2+52, Madapolo, Kec. Obi Utara, Kabupaten Halmahera Selatan, Maluku Utara","Kabupaten Halmahera Selatan, Maluku Utara",MALUKU UTARA,,Indonesia,81355342459.0,-1.2245404,127.6499804,https://maps.google.com/?cid=0x0:0x8d6fae62566f917a
cafe,Dapur Umum,Komplek junait,"QFPR+QJR, Cap, Kec. Obi Utara, Kabupaten Halmahera Selatan, Maluku Utara","Kabupaten Halmahera Selatan, Maluku Utara",MALUKU UTARA,,Indonesia,,-1.2130337,127.4915396,https://maps.google.com/?cid=0x0:0x5ed3f7cc4f52c3c8
cafe,Otoritas Pelabuhan,Pasar Pelabuhan Jojame,"QHQX+W7J, Waringi, Kec. Obi Utara, Kabupaten Halmahera Selatan, Maluku Utara","Kabupaten Halmahera Selatan, Maluku Utara",MALUKU UTARA,,Indonesia,,-1.2101725,127.5981445,https://maps.google.com/?cid=0x0:0xf35f3d3acb9d532d
cafe,Toko umum,Kios Naila,"QJGW+GX7, Madapolo Bar., Kec. Obi Utara, Kabupaten Halmahera Selatan, Maluku Utara","Kabupaten Halmahera Selatan, Maluku Utara",MALUKU UTARA,,Indonesia,,-1.2236892,127.647418,https://maps.google.com/?cid=0x0:0xbcee98ad0079b3cb
cafe,cafe,Uyu,"QJGW+GQM, Madapolo Bar., Kec. Obi Utara, Kabupaten Halmahera Selatan, Maluku Utara","Kabupaten Halmahera Selatan, Maluku Utara",MALUKU UTARA,,Indonesia,,-1.2236655,127.6469225,https://maps.google.com/?cid=0x0:0x4df825e1df313c92
cafe,Bakso,Lavenjer,"QJ6V+R3C, Madapolo, Kec. Obi Utara, Kabupaten Halmahera Selatan, Maluku Utara","Kabupaten Halmahera Selatan, Maluku Utara",MALUKU UTARA,,Indonesia,,-1.237948,127.6426538,https://maps.google.com/?cid=0x0:0xe204c9845f055862
cafe,Kedai Kopi,Cafe Humaka Marahai,"Kawasi, Kec. Obi, Maluku Utara, 12345",Kec. Obi,MALUKU UTARA,12345.0,Indonesia,82199883830.0,-1.5847164,127.4143262,https://maps.google.com/?cid=0x0:0x9f81035dcac112f7
cafe,Warnet,Agen 1,"QJ9F+93G, Madapolo Bar., Kec. Obi Utara, Kabupaten Halmahera Selatan, Maluku Utara","Kabupaten Halmahera Selatan, Maluku Utara",MALUKU UTARA,,Indonesia,,-1.2315619,127.6226933,https://maps.google.com/?cid=0x0:0x7393d755837021e8
cafe,Toko,Firdaus muhamadia,"QMF4+C5R, Madapolo Tim., Kec. Obi Utara, Kabupaten Halmahera Selatan, Maluku Utara","Kabupaten Halmahera Selatan, Maluku Utara",MALUKU UTARA,,Indonesia,,-1.2263794,127.6553801,https://maps.google.com/?cid=0x0:0x3a332ed92cd9f7d3
cafe,cafe,Warung Dokolamo,"QFQV+466, Cap, Kec. Obi Utara, Kabupaten Halmahera Selatan, Maluku Utara","Kabupaten Halmahera Selatan, Maluku Utara",MALUKU UTARA,,Indonesia,,-1.2122062,127.4930125,https://maps.google.com/?cid=0x0:0xef74ce68a541f960
cafe,Kafe,Qiarono Coffee  Books,"Depan Kampus Universitas Halmahera, Jl.trans Tobelo-Galela, Wari Ino, Kec. Tobelo, Kabupaten Halmahera Utara, Maluku Utara 97762","Jl.trans Tobelo-Galela, Wari Ino, Kec. Tobelo, Kabupaten Halmahera Utara",MALUKU UTARA,97762.0,Indonesia,82291572605.0,1.7509862,127.9920358,https://maps.google.com/?cid=0x0:0x799b40c250d82e2b
cafe,cafe,Warung Bakso,"QJHX+2QX, Madapolo Bar., Kec. Obi Utara, Kabupaten Halmahera Selatan, Maluku Utara","Kabupaten Halmahera Selatan, Maluku Utara",MALUKU UTARA,,Indonesia,,-1.2223982,127.6494796,https://maps.google.com/?cid=0x0:0x6c6097dc1a1c6bb9
cafe,Dapur Umum,RM Pantura,"CCP7+6CR, Kawasi, Kec. Obi, Kabupaten Halmahera Selatan, Maluku Utara","Kabupaten Halmahera Selatan, Maluku Utara",MALUKU UTARA,,Indonesia,,-1.5643891,127.4135153,https://maps.google.com/?cid=0x0:0xdf4f2166f9c78c7a
hotel,hotel,Kecamatan Kayoa Selatan,"Kabupaten Halmahera Selatan, Maluku Utara","Kabupaten Halmahera Selatan, Maluku Utara",MALUKU UTARA,,Indonesia,,-0.0404558,127.4257645,https://maps.google.com/?cid=0x0:0x611025dc11fc6411
hotel,hotel,Muara Inn Ternate,"Jl. Seruni, Kp. Pisang, Kec. Ternate Tengah, Kota Ternate, Maluku Utara 97712","Kp. Pisang, Kec. Ternate Tengah, Kota Ternate",MALUKU UTARA,97712.0,Indonesia,9216205200.0,0.7834742,127.3826265,https://maps.google.com/?cid=0x0:0x126e3446c8f963cb
hotel,hotel,Juliana Hotel,"Gamsungi, Kec. Tobelo, Kabupaten Halmahera Utara, Maluku Utara","Kabupaten Halmahera Utara, Maluku Utara",MALUKU UTARA,,Indonesia,82191159141.0,1.7272579,128.0105717,https://maps.google.com/?cid=0x0:0x97231ba37bd2cf65
hotel,hotel,Saloi inn,"3FXQ+VR2, Tedeng, Kec. Jailolo, Kabupaten Halmahera Barat, Maluku Utara","Kabupaten Halmahera Barat, Maluku Utara",MALUKU UTARA,,Indonesia,8111020812.0,1.0996348,127.4895301,https://maps.google.com/?cid=0x0:0x1139fc5cb3804c4
hotel,hotel,Hotel Astonia Tobelo,"Gosoma, Kec. Tobelo, Kabupaten Halmahera Utara, Maluku Utara","Kabupaten Halmahera Utara, Maluku Utara",MALUKU UTARA,,Indonesia,9242621900.0,1.7223761,127.9947995,https://maps.google.com/?cid=0x0:0x99ff7dd9ff5c49af
hotel,hotel,"Pavilliun d'aloha Resort, Jababeka Morotai","Jl. Tanjung Dehe Gila, Juanga, Kec. Morotai Sel., Kabupaten Pulau Morotai, Maluku Utara","Kabupaten Pulau Morotai, Maluku Utara",MALUKU UTARA,,Indonesia,81299000560.0,2.0089517,128.2789914,https://maps.google.com/?cid=0x0:0x183bb7f127520d3
hotel,hotel,Hotel Karunia 2 Jailolo,"Jl. Baru, Kec. Jailolo, Kabupaten Halmahera Barat, Maluku Utara 91131","Kec. Jailolo, Kabupaten Halmahera Barat",MALUKU UTARA,91131.0,Indonesia,895417300072.0,1.0683437,127.4672959,https://maps.google.com/?cid=0x0:0xb93aadacd6fe4456
hotel,hotel,Penginapan Visal Tidore  Meeting Room,"JL. Sultan Zainal Abidin Syah, Gamtufkange, Tidore, Kota Tidore Kepulauan, Maluku Utara 97812","Gamtufkange, Tidore, Kota Tidore Kepulauan",MALUKU UTARA,97812.0,Indonesia,81380000155.0,0.6573605,127.4485832,https://maps.google.com/?cid=0x0:0xcd95aa95f3406d6a
hotel,hotel,Hotel Molokai Morotai,"Pelabuhan Ferry, Juanga, Kec. Morotai Sel., Kabupaten Pulau Morotai, Maluku Utara","Kabupaten Pulau Morotai, Maluku Utara",MALUKU UTARA,,Indonesia,81342385121.0,2.0160906,128.2818025,https://maps.google.com/?cid=0x0:0x47d19d4d9c14647a
hotel,hotel,Hotel Kusu-Kusu,"M2W5+HC7, Lina Ino, Kec. Tobelo Tengah, Kabupaten Halmahera Utara, Maluku Utara","Kabupaten Halmahera Utara, Maluku Utara",MALUKU UTARA,,Indonesia,,1.6964035,128.0085551,https://maps.google.com/?cid=0x0:0xde51ba868745d615
hotel,hotel,Kartika Buli Resort,"V7FF+PVH, Wayafli, Kec. Maba, Kabupaten Halmahera Timur, Maluku Utara","Kabupaten Halmahera Timur, Maluku Utara",MALUKU UTARA,,Indonesia,81223363636.0,0.8743162,128.2747495,https://maps.google.com/?cid=0x0:0x1500f0be2a96753c
hotel,Rumah wisata,RUMAH GILANG,"2C65+59M, Guruapin, Kec. Kayoa, Kabupaten Halmahera Selatan, Maluku Utara","Kabupaten Halmahera Selatan, Maluku Utara",MALUKU UTARA,,Indonesia,,0.0104707,127.4084067,https://maps.google.com/?cid=0x0:0x2393232dab05f90b
hotel,Hotel,Oji p rumh,"XC4H+W25, Laluin, Kecamatan Kayoa Selatan, Kabupaten Halmahera Selatan, Maluku Utara","Kabupaten Halmahera Selatan, Maluku Utara",MALUKU UTARA,,Indonesia,,-0.0434994,127.428075,https://maps.google.com/?cid=0x0:0x3905aa7a00b50add
hotel,Rumah wisata,Iswan garwan,"2C66+4VQ, 2C66+, Kec. Kayoa, Kabupaten Halmahera Selatan, Maluku Utara","Kabupaten Halmahera Selatan, Maluku Utara",MALUKU UTARA,,Indonesia,,0.0103266,127.412245,https://maps.google.com/?cid=0x0:0x3814a460cf573631
hotel,hotel,Kec. Gane Tim. Sel.,"Kabupaten Halmahera Selatan, Maluku Utara","Kabupaten Halmahera Selatan, Maluku Utara",MALUKU UTARA,,Indonesia,,-0.7047222,128.2191774,https://maps.google.com/?cid=0x0:0x5d731fac62ca9680
hotel,Hotel,Hotel Buana Lipu,"Jl. Daniel Kabenti, Mandaong, Kec. Bacan Sel., Kabupaten Halmahera Selatan, Maluku Utara","Kabupaten Halmahera Selatan, Maluku Utara",MALUKU UTARA,,Indonesia,,-0.6466485,127.4805012,https://maps.google.com/?cid=0x0:0x7fe823715579c641
hotel,Hotel,Hotel Janisy,"Jl. Tomori - Labuha, Labuha, Kec. Bacan, Kabupaten Halmahera Selatan, Maluku Utara","Kabupaten Halmahera Selatan, Maluku Utara",MALUKU UTARA,,Indonesia,82189568075.0,-0.6363544,127.4850433,https://maps.google.com/?cid=0x0:0xd12f22cc34adc870
hotel,hotel,Kec. Gane Bar. Sel.,"Kabupaten Halmahera Selatan, Maluku Utara","Kabupaten Halmahera Selatan, Maluku Utara",MALUKU UTARA,,Indonesia,,-0.762002,128.203222,https://maps.google.com/?cid=0x0:0x53c8be4d55503c6d
hotel,hotel,Obi Sel.,"Kabupaten Halmahera Selatan, Maluku Utara","Kabupaten Halmahera Selatan, Maluku Utara",MALUKU UTARA,,Indonesia,,-1.6047188,127.681228,https://maps.google.com/?cid=0x0:0xee55ecd0b3e7ac39
hotel,Rumah wisata,GUEST HOUSE HPAL,"FC85+32W, Kawasi, Kec. Obi, Kabupaten Halmahera Selatan, Maluku Utara","Kabupaten Halmahera Selatan, Maluku Utara",MALUKU UTARA,,Indonesia,,-1.5367694,127.4064282,https://maps.google.com/?cid=0x0:0x4ab42a448998027b
hotel,Kompleks Apartemen,TBP Mess Nirwana Blok 4G,"CFJ7+P4, Kawasi, Kec. Obi, Kabupaten Halmahera Selatan, Maluku Utara","Kabupaten Halmahera Selatan, Maluku Utara",MALUKU UTARA,,Indonesia,,-1.5681299,127.4628619,https://maps.google.com/?cid=0x0:0xd52964473c3585c9
hotel,Hotel,Mess LQ - HPAL,"FC85+32W, Kawasi, Kec. Obi, Kabupaten Halmahera Selatan, Maluku Utara","Kabupaten Halmahera Selatan, Maluku Utara",MALUKU UTARA,,Indonesia,,-1.5347662,127.407589,https://maps.google.com/?cid=0x0:0xf8bb2a0199487efc
hotel,Rumah wisata,Harita Hotel,"CCPW+QP3, Kawasi, Kec. Obi, Kabupaten Halmahera Selatan, Maluku Utara","Kabupaten Halmahera Selatan, Maluku Utara",MALUKU UTARA,,Indonesia,,-1.5631211,127.4467952,https://maps.google.com/?cid=0x0:0xa86b38bc50b81cd7
hotel,Rumah wisata,BLOK 41 Mess Amsos,"CCVG+4X2, Kawasi, Kec. Obi, Kabupaten Halmahera Selatan, Maluku Utara","Kabupaten Halmahera Selatan, Maluku Utara",MALUKU UTARA,,Indonesia,,-1.5569668,127.4274075,https://maps.google.com/?cid=0x0:0xc3ea74755f3040cb
hotel,Hotel,Kamar alung,"FCMW+V8, Baru, Kec. Obi, Kabupaten Halmahera Selatan, Maluku Utara","Kabupaten Halmahera Selatan, Maluku Utara",MALUKU UTARA,,Indonesia,,-1.5149162,127.4458007,https://maps.google.com/?cid=0x0:0x4226f2002756bd83
hotel,Komplek perumahan,Izal tayo,"FC55+6HQ, Kawasi, Kec. Obi, Kabupaten Halmahera Selatan, Maluku Utara","Kabupaten Halmahera Selatan, Maluku Utara",MALUKU UTARA,,Indonesia,,-1.5419116,127.4089796,https://maps.google.com/?cid=0x0:0x7021388244d9dc1f
hotel,Rumah wisata,PEGINAPAN 2 PUTRI KAWASI,"FC46+5P4, Kawasi, Kec. Obi, Kabupaten Halmahera Selatan, Maluku Utara","Kabupaten Halmahera Selatan, Maluku Utara",MALUKU UTARA,,Indonesia,,-1.5445614,127.4119413,https://maps.google.com/?cid=0x0:0x513c95df72b3fe03
hotel,Hotel,Penginapan Nusantara,"MJ7P+CRP, Laiwui, Kec. Obi, Kabupaten Halmahera Selatan, Maluku Utara","Kabupaten Halmahera Selatan, Maluku Utara",MALUKU UTARA,,Indonesia,82192322538.0,-1.3364065,127.6370717,https://maps.google.com/?cid=0x0:0x7dccfbfb05aad8b4
hotel,Hotel,Penginapan Nusantara,"MJ7P+CRP, Laiwui, Kec. Obi, Kabupaten Halmahera Selatan, Maluku Utara","Kabupaten Halmahera Selatan, Maluku Utara",MALUKU UTARA,,Indonesia,82192322538.0,-1.3364065,127.6370717,https://maps.google.com/?cid=0x0:0x7dccfbfb05aad8b4
hotel,Hotel,Wisma Selebes,"MJ7Q+26V, Laiwui, Kec. Obi, Kabupaten Halmahera Selatan, Maluku Utara","Kabupaten Halmahera Selatan, Maluku Utara",MALUKU UTARA,,Indonesia,,-1.3373782,127.6380611,https://maps.google.com/?cid=0x0:0xf01bf035888a7a76
hotel,hotel,Pulau Obi,"Kabupaten Halmahera Selatan, Maluku Utara","Kabupaten Halmahera Selatan, Maluku Utara",MALUKU UTARA,,Indonesia,,-1.5109015,127.7237678,https://maps.google.com/?cid=0x0:0xb70076d058dc59c1
hotel,hotel,Bushra Inn,"Jl Bandara Lama, Tomori, Kec. Bacan, Kabupaten Halmahera Selatan, Maluku Utara 97791","Tomori, Kec. Bacan, Kabupaten Halmahera Selatan",MALUKU UTARA,97791.0,Indonesia,81340313838.0,-0.6413205,127.4910901,https://maps.google.com/?cid=0x0:0xc2ad4ef5080dea84
hotel,hotel,Kec. Bacan Tim. Sel.,"Kabupaten Halmahera Selatan, Maluku Utara","Kabupaten Halmahera Selatan, Maluku Utara",MALUKU UTARA,,Indonesia,,-0.8138816,127.872846,https://maps.google.com/?cid=0x0:0x10b732e030ec504d
hotel,hotel,Saloi inn,"3FXQ+VR2, Tedeng, Kec. Jailolo, Kabupaten Halmahera Barat, Maluku Utara","Kabupaten Halmahera Barat, Maluku Utara",MALUKU UTARA,,Indonesia,8111020812.0,1.0996348,127.4895301,https://maps.google.com/?cid=0x0:0x1139fc5cb3804c4
hotel,hotel,Sabua Gaba,"Jl, Guaemaadu, Kec. Jailolo, Kabupaten Halmahera Barat, Maluku Utara 97752","Guaemaadu, Kec. Jailolo, Kabupaten Halmahera Barat",MALUKU UTARA,97752.0,Indonesia,81244409444.0,1.0567495,127.4613981,https://maps.google.com/?cid=0x0:0xa54e049ccacb61b7
hotel,Pondok,Hotel Inggoi,"9F2H+JFX, Jl. Daniel Kabenti, Mandaong, Kec. Bacan Sel., Kabupaten Halmahera Selatan, Maluku Utara","Kabupaten Halmahera Selatan, Maluku Utara",MALUKU UTARA,,Indonesia,,-0.6483806,127.4787337,https://maps.google.com/?cid=0x0:0xfcf182d5ab000eba
hotel,Hotel,Eumah,"9H2P+457, Babang, Kec. Bacan Tim., Kabupaten Halmahera Selatan, Maluku Utara","Kabupaten Halmahera Selatan, Maluku Utara",MALUKU UTARA,,Indonesia,,-0.6497242,127.5854184,https://maps.google.com/?cid=0x0:0xb497132c710aae00
hotel,hotel,Bushra Inn,"Jl Bandara Lama, Tomori, Kec. Bacan, Kabupaten Halmahera Selatan, Maluku Utara 97791","Tomori, Kec. Bacan, Kabupaten Halmahera Selatan",MALUKU UTARA,97791.0,Indonesia,81340313838.0,-0.6413205,127.4910901,https://maps.google.com/?cid=0x0:0xc2ad4ef5080dea84
hotel,hotel,Kec. Bacan,"Kabupaten Halmahera Selatan, Maluku Utara","Kabupaten Halmahera Selatan, Maluku Utara",MALUKU UTARA,,Indonesia,,-0.6273004,127.4777793,https://maps.google.com/?cid=0x0:0x27b8e33797f43c7b
hotel,hotel,The Batik Hotel,"Jl. Kapitan Pattimura, Stadion, Kec. Ternate Tengah, Kota Ternate, Maluku Utara","Kota Ternate, Maluku Utara",MALUKU UTARA,,Indonesia,8114343343.0,0.7877576,127.3845077,https://maps.google.com/?cid=0x0:0x328d07a18d098e8d
hotel,hotel,Kusu Island Resort,"Sabatang, Kec. Bacan Tim., Kabupaten Halmahera Selatan, Maluku Utara","Kabupaten Halmahera Selatan, Maluku Utara",MALUKU UTARA,,Indonesia,81280070944.0,-0.4577175,127.7109542,https://maps.google.com/?cid=0x0:0x34f8f664df98bca1
hotel,hotel,Nabucco Spice Island Resort,"Kusu Island, Sabatang, Kec. Bacan Tim., Kabupaten Halmahera Selatan, Maluku Utara 00000","Sabatang, Kec. Bacan Tim., Kabupaten Halmahera Selatan",MALUKU UTARA,0.0,Indonesia,,-0.4528742,127.7027094,https://maps.google.com/?cid=0x0:0x3aa1ef78eda95c23
hotel,hotel,Saloi inn,"3FXQ+VR2, Tedeng, Kec. Jailolo, Kabupaten Halmahera Barat, Maluku Utara","Kabupaten Halmahera Barat, Maluku Utara",MALUKU UTARA,,Indonesia,8111020812.0,1.0996348,127.4895301,https://maps.google.com/?cid=0x0:0x1139fc5cb3804c4
hotel,hotel,,,,MALUKU UTARA,,Indonesia,,,,https://maps.google.com/?cid=0x0:0xe00061240df57cda%7C/g/11b8t71b8b%7Cid-ID
hotel,hotel,Agria Hotel Bogor,"Jl. Raya Tajur No.612, RT.02/RW.05, Muarasari, Kec. Bogor Sel., Kota Bogor, Jawa Barat 16145","RT.02/RW.05, Muarasari, Kec. Bogor Sel., Kota Bogor",MALUKU UTARA,16145.0,Indonesia,2517550700.0,-6.6380172,106.8320141,https://maps.google.com/?cid=0x0:0xe00061240df57cda
hotel,hotel,Nemuru Grand Bhuvana,"Jl. KH RM Toha No.487, Bendungan, Kec. Ciawi, Kabupaten Bogor, Jawa Barat 16720","Bendungan, Kec. Ciawi, Kabupaten Bogor",MALUKU UTARA,16720.0,Indonesia,8111583536.0,-6.6614061,106.8534729,https://maps.google.com/?cid=0x0:0x4435f01981542940
hotel,Hotel bintang 3,Sans Hotel Tajur Bogor,"Tajur, Kec. Bogor Tim., Kota Bogor, Jawa Barat","Kota Bogor, Jawa Barat",MALUKU UTARA,,Indonesia,895417300072.0,-6.6269706,106.8225279,https://maps.google.com/?cid=0x0:0x2d762525609177a3
hotel,hotel,Sans Hotel Cibanteng Dramaga Bogor,"Jl. Raya Cibanteng No.Km 11, RT.002/RW.005, Cibanteng, Kec. Ciampea, Kabupaten Bogor, Jawa Barat 16620","RT.002/RW.005, Cibanteng, Kec. Ciampea, Kabupaten Bogor",MALUKU UTARA,16620.0,Indonesia,895417300072.0,-6.5579023,106.7116694,https://maps.google.com/?cid=0x0:0xaba7e4e588928c0c
hotel,hotel,RedDoorz near RSUD Ciawi,"Jl. Kp. Seuseupan, RT02/RW07, Kec. Ciawi, Kabupaten Bogor, Jawa Barat 16720","RT02/RW07, Kec. Ciawi, Kabupaten Bogor",MALUKU UTARA,16720.0,Indonesia,2180629666.0,-6.6629386,106.8533923,https://maps.google.com/?cid=0x0:0x461dee42de2d5cba
hotel,hotel,Bogor Valley Hotel,"Jl. Sholeh Iskandar No.5, Kedungbadak, Kec. Tanah Sereal, Kota Bogor, Jawa Barat 16164","Kedungbadak, Kec. Tanah Sereal, Kota Bogor",MALUKU UTARA,16164.0,Indonesia,2517552111.0,-6.5617794,106.8001291,https://maps.google.com/?cid=0x0:0xcbd907ae930c535e
hotel,hotel,,,,MALUKU UTARA,,Indonesia,,,,https://maps.google.com/?cid=0x0:0xcbd907ae930c535e%7C/g/1hhhxwm3p%7Cid-ID
hotel,hotel,Kec. Bacan Bar. Utara,"Kabupaten Halmahera Selatan, Maluku Utara","Kabupaten Halmahera Selatan, Maluku Utara",MALUKU UTARA,,Indonesia,,-0.348747,127.4004871,https://maps.google.com/?cid=0x0:0x3b3491e8d2fae80
hotel,hotel,Bushra Inn,"Jl Bandara Lama, Tomori, Kec. Bacan, Kabupaten Halmahera Selatan, Maluku Utara 97791","Tomori, Kec. Bacan, Kabupaten Halmahera Selatan",MALUKU UTARA,97791.0,Indonesia,81340313838.0,-0.6413205,127.4910901,https://maps.google.com/?cid=0x0:0xc2ad4ef5080dea84
hotel,hotel,Sali Bay Resort,"PT Salibay Resort, Dusun Kalero Desa Sali Kec. Bacan Timur Kab. Halmahera Selatan, Maluku Utara, Sali kecil, Maluku Utara","Sali kecil, Maluku Utara",MALUKU UTARA,,Indonesia,8124300911.0,-0.428354,127.740925,https://maps.google.com/?cid=0x0:0x4b081cc0adbacc08
hotel,hotel,Nabucco Spice Island Resort,"Kusu Island, Sabatang, Kec. Bacan Tim., Kabupaten Halmahera Selatan, Maluku Utara 00000","Sabatang, Kec. Bacan Tim., Kabupaten Halmahera Selatan",MALUKU UTARA,0.0,Indonesia,,-0.4528742,127.7027094,https://maps.google.com/?cid=0x0:0x3aa1ef78eda95c23
hotel,Rumah wisata,Rumah barada,"2C65+PG5, Guruapin, Kec. Kayoa, Kabupaten Halmahera Selatan, Maluku Utara","Kabupaten Halmahera Selatan, Maluku Utara",MALUKU UTARA,,Indonesia,,0.0116627,127.4089694,https://maps.google.com/?cid=0x0:0x797b894ac3daec07
hotel,Hotel,OBAMA HOTEL,"Kmp. Makeang, Kec. Pulau Makian, Kabupaten Halmahera Selatan, Maluku Utara 97791","Kec. Pulau Makian, Kabupaten Halmahera Selatan",MALUKU UTARA,97791.0,Indonesia,85242352119.0,0.3127237,127.4040871,https://maps.google.com/?cid=0x0:0x1afef611db41c948
hotel,hotel,Pulau Makian,"Kabupaten Halmahera Selatan, Maluku Utara","Kabupaten Halmahera Selatan, Maluku Utara",MALUKU UTARA,,Indonesia,,0.3127237,127.4040871,https://maps.google.com/?cid=0x0:0x7d9868f2e9dd90f6
hotel,hotel,Pulau Makian,"Kabupaten Halmahera Selatan, Maluku Utara","Kabupaten Halmahera Selatan, Maluku Utara",MALUKU UTARA,,Indonesia,,0.3127237,127.4040871,https://maps.google.com/?cid=0x0:0x7d9868f2e9dd90f6
hotel,hotel,Kec. Kayoa Bar.,"Kabupaten Halmahera Selatan, Maluku Utara","Kabupaten Halmahera Selatan, Maluku Utara",MALUKU UTARA,,Indonesia,,-0.2310159,127.0981869,https://maps.google.com/?cid=0x0:0x6b6f3901f6430a7f
hotel,Hotel,Penginapan Fhira,"9F2Q+6R4, Kp. Makian, Kec. Bacan Sel., Kabupaten Halmahera Selatan, Maluku Utara","Kabupaten Halmahera Selatan, Maluku Utara",MALUKU UTARA,,Indonesia,85330796547.0,-0.6494803,127.4895811,https://maps.google.com/?cid=0x0:0x69d6fff0b171fe3f
hotel,Hotel,Hotel Janisy,"Jl. Tomori - Labuha, Labuha, Kec. Bacan, Kabupaten Halmahera Selatan, Maluku Utara","Kabupaten Halmahera Selatan, Maluku Utara",MALUKU UTARA,,Indonesia,82189568075.0,-0.6363544,127.4850433,https://maps.google.com/?cid=0x0:0xd12f22cc34adc870
hotel,hotel,Saloi inn,"3FXQ+VR2, Tedeng, Kec. Jailolo, Kabupaten Halmahera Barat, Maluku Utara","Kabupaten Halmahera Barat, Maluku Utara",MALUKU UTARA,,Indonesia,8111020812.0,1.0996348,127.4895301,https://maps.google.com/?cid=0x0:0x1139fc5cb3804c4
hotel,hotel,Hotel Karunia 2 Jailolo,"Jl. Baru, Kec. Jailolo, Kabupaten Halmahera Barat, Maluku Utara 91131","Kec. Jailolo, Kabupaten Halmahera Barat",MALUKU UTARA,91131.0,Indonesia,895417300072.0,1.0683437,127.4672959,https://maps.google.com/?cid=0x0:0xb93aadacd6fe4456
hotel,hotel,Kecamatan Kayoa Selatan,"Kabupaten Halmahera Selatan, Maluku Utara","Kabupaten Halmahera Selatan, Maluku Utara",MALUKU UTARA,,Indonesia,,-0.0404558,127.4257645,https://maps.google.com/?cid=0x0:0x611025dc11fc6411
hotel,hotel,Juliana Hotel,"Gamsungi, Kec. Tobelo, Kabupaten Halmahera Utara, Maluku Utara","Kabupaten Halmahera Utara, Maluku Utara",MALUKU UTARA,,Indonesia,82191159141.0,1.7272579,128.0105717,https://maps.google.com/?cid=0x0:0x97231ba37bd2cf65
hotel,hotel,Saloi inn,"3FXQ+VR2, Tedeng, Kec. Jailolo, Kabupaten Halmahera Barat, Maluku Utara","Kabupaten Halmahera Barat, Maluku Utara",MALUKU UTARA,,Indonesia,8111020812.0,1.0996348,127.4895301,https://maps.google.com/?cid=0x0:0x1139fc5cb3804c4
hotel,Rumah wisata,RUMAH GILANG,"2C65+59M, Guruapin, Kec. Kayoa, Kabupaten Halmahera Selatan, Maluku Utara","Kabupaten Halmahera Selatan, Maluku Utara",MALUKU UTARA,,Indonesia,,0.0104707,127.4084067,https://maps.google.com/?cid=0x0:0x2393232dab05f90b
hotel,Rumah wisata,Iswan garwan,"2C66+4VQ, 2C66+, Kec. Kayoa, Kabupaten Halmahera Selatan, Maluku Utara","Kabupaten Halmahera Selatan, Maluku Utara",MALUKU UTARA,,Indonesia,,0.0103266,127.412245,https://maps.google.com/?cid=0x0:0x3814a460cf573631
hotel,Rumah wisata,Genvyr,"2C65+666, Guruapin, Kec. Kayoa, Kabupaten Halmahera Selatan, Maluku Utara","Kabupaten Halmahera Selatan, Maluku Utara",MALUKU UTARA,,Indonesia,,0.0105348,127.4085073,https://maps.google.com/?cid=0x0:0xa3e6b6617c07789a
hotel,Rumah wisata,Rumah barada,"2C65+PG5, Guruapin, Kec. Kayoa, Kabupaten Halmahera Selatan, Maluku Utara","Kabupaten Halmahera Selatan, Maluku Utara",MALUKU UTARA,,Indonesia,,0.0116627,127.4089694,https://maps.google.com/?cid=0x0:0x797b894ac3daec07
hotel,hotel,Kec. Kayoa Utara,"Kabupaten Halmahera Selatan, Maluku Utara","Kabupaten Halmahera Selatan, Maluku Utara",MALUKU UTARA,,Indonesia,,0.1242204,127.4471181,https://maps.google.com/?cid=0x0:0xd99a2feb58f3015d
hotel,hotel,"Pavilliun d'aloha Resort, Jababeka Morotai","Jl. Tanjung Dehe Gila, Juanga, Kec. Morotai Sel., Kabupaten Pulau Morotai, Maluku Utara","Kabupaten Pulau Morotai, Maluku Utara",MALUKU UTARA,,Indonesia,81299000560.0,2.0089517,128.2789914,https://maps.google.com/?cid=0x0:0x183bb7f127520d3
hotel,hotel,Saloi inn,"3FXQ+VR2, Tedeng, Kec. Jailolo, Kabupaten Halmahera Barat, Maluku Utara","Kabupaten Halmahera Barat, Maluku Utara",MALUKU UTARA,,Indonesia,8111020812.0,1.0996348,127.4895301,https://maps.google.com/?cid=0x0:0x1139fc5cb3804c4
hotel,hotel,Bianda Hotel,"P2G6+VGM, Jl. Kemakmuran, Gamsungi, Kec. Tobelo, Kabupaten Halmahera Utara, Maluku Utara","Kabupaten Halmahera Utara, Maluku Utara",MALUKU UTARA,,Indonesia,,1.7272204,128.011288,https://maps.google.com/?cid=0x0:0x94545d064d6051e5
hotel,hotel,Johana Hotel,"P2F6+F4F, Gosoma, Kec. Tobelo, Kabupaten Halmahera Utara, Maluku Utara","Kabupaten Halmahera Utara, Maluku Utara",MALUKU UTARA,,Indonesia,9242623343.0,1.7236844,128.0102915,https://maps.google.com/?cid=0x0:0x1b997a52170a6c31
hotel,hotel,Hotel Astonia Tobelo,"Gosoma, Kec. Tobelo, Kabupaten Halmahera Utara, Maluku Utara","Kabupaten Halmahera Utara, Maluku Utara",MALUKU UTARA,,Indonesia,9242621900.0,1.7223761,127.9947995,https://maps.google.com/?cid=0x0:0x99ff7dd9ff5c49af
hotel,hotel,Hotel Kusu-Kusu,"M2W5+HC7, Lina Ino, Kec. Tobelo Tengah, Kabupaten Halmahera Utara, Maluku Utara","Kabupaten Halmahera Utara, Maluku Utara",MALUKU UTARA,,Indonesia,,1.6964035,128.0085551,https://maps.google.com/?cid=0x0:0xde51ba868745d615
hotel,hotel,Hotel Karunia 2 Jailolo,"Jl. Baru, Kec. Jailolo, Kabupaten Halmahera Barat, Maluku Utara 91131","Kec. Jailolo, Kabupaten Halmahera Barat",MALUKU UTARA,91131.0,Indonesia,895417300072.0,1.0683437,127.4672959,https://maps.google.com/?cid=0x0:0xb93aadacd6fe4456
hotel,hotel,Kartika Buli Resort,"V7FF+PVH, Wayafli, Kec. Maba, Kabupaten Halmahera Timur, Maluku Utara","Kabupaten Halmahera Timur, Maluku Utara",MALUKU UTARA,,Indonesia,81223363636.0,0.8743162,128.2747495,https://maps.google.com/?cid=0x0:0x1500f0be2a96753c
hotel,hotel,Buli Beach Hotel,"V7HV+VXV, Buli, Kec. Maba, Kabupaten Halmahera Timur, Maluku Utara","Kabupaten Halmahera Timur, Maluku Utara",MALUKU UTARA,,Indonesia,,0.8797347,128.2949107,https://maps.google.com/?cid=0x0:0xb296680f8f217799
hotel,hotel,Wisma Mulia,"P286+P48, Rawajaya, Kec. Tobelo, Kabupaten Halmahera Utara, Maluku Utara","Kabupaten Halmahera Utara, Maluku Utara",MALUKU UTARA,,Indonesia,,1.7167897,128.0103356,https://maps.google.com/?cid=0x0:0x611811aff0d3d758
hotel,hotel,d'Hoek Hotel,"3FMF+284, Jl. Soekaro, Hatebicara, Kec. Jailolo, Kabupaten Halmahera Barat, Maluku Utara","Kabupaten Halmahera Barat, Maluku Utara",MALUKU UTARA,,Indonesia,82192706600.0,1.082507,127.4733425,https://maps.google.com/?cid=0x0:0xe6247a11e448d6c5
hotel,Rumah wisata,RUMAH GILANG,"2C65+59M, Guruapin, Kec. Kayoa, Kabupaten Halmahera Selatan, Maluku Utara","Kabupaten Halmahera Selatan, Maluku Utara",MALUKU UTARA,,Indonesia,,0.0104707,127.4084067,https://maps.google.com/?cid=0x0:0x2393232dab05f90b
hotel,Hotel,Penginapan Guruapin,"2C66+553, Guruapin, Kec. Kayoa, Kabupaten Halmahera Selatan, Maluku Utara","Kabupaten Halmahera Selatan, Maluku Utara",MALUKU UTARA,,Indonesia,,0.0103729,127.4103544,https://maps.google.com/?cid=0x0:0x817d8677234a5459
hotel,hotel,Kec. Bacan Bar. Utara,"Kabupaten Halmahera Selatan, Maluku Utara","Kabupaten Halmahera Selatan, Maluku Utara",MALUKU UTARA,,Indonesia,,-0.348747,127.4004871,https://maps.google.com/?cid=0x0:0x3b3491e8d2fae80
hotel,hotel,Bushra Inn,"Jl Bandara Lama, Tomori, Kec. Bacan, Kabupaten Halmahera Selatan, Maluku Utara 97791","Tomori, Kec. Bacan, Kabupaten Halmahera Selatan",MALUKU UTARA,97791.0,Indonesia,81340313838.0,-0.6413205,127.4910901,https://maps.google.com/?cid=0x0:0xc2ad4ef5080dea84
hotel,hotel,Kusu Island Resort,"Sabatang, Kec. Bacan Tim., Kabupaten Halmahera Selatan, Maluku Utara","Kabupaten Halmahera Selatan, Maluku Utara",MALUKU UTARA,,Indonesia,81280070944.0,-0.4577175,127.7109542,https://maps.google.com/?cid=0x0:0x34f8f664df98bca1
hotel,Hotel,Penginapan Fhira,"9F2Q+6R4, Kp. Makian, Kec. Bacan Sel., Kabupaten Halmahera Selatan, Maluku Utara","Kabupaten Halmahera Selatan, Maluku Utara",MALUKU UTARA,,Indonesia,85330796547.0,-0.6494803,127.4895811,https://maps.google.com/?cid=0x0:0x69d6fff0b171fe3f
hotel,Hotel,Penginapan Bintang jln. Pelabuhan lama Habibi labuha,"9F9J+87P, Labuha, Kec. Bacan, Kabupaten Halmahera Selatan, Maluku Utara","Kabupaten Halmahera Selatan, Maluku Utara",MALUKU UTARA,,Indonesia,85298344942.0,-0.6315707,127.4806869,https://maps.google.com/?cid=0x0:0x894bdb9d414b7176
hotel,hotel,Pulau Kasiruta,"Kabupaten Halmahera Selatan, Maluku Utara","Kabupaten Halmahera Selatan, Maluku Utara",MALUKU UTARA,,Indonesia,,-0.3737116,127.1901616,https://maps.google.com/?cid=0x0:0xd2859cd7f8d1404b
hotel,Hotel,Mega Risna Hotel,"Jl. Pasar Baru Labuha, Lantai 2, MTC, Kabupaten Halmahera Selatan, Maluku Utara 97791","Lantai 2, MTC, Kabupaten Halmahera Selatan",MALUKU UTARA,97791.0,Indonesia,82210232219.0,-0.6363266,127.4834019,https://maps.google.com/?cid=0x0:0xcaabb48c172e0f42
hotel,hotel,Pulau Kasiruta,"Kabupaten Halmahera Selatan, Maluku Utara","Kabupaten Halmahera Selatan, Maluku Utara",MALUKU UTARA,,Indonesia,,-0.3737116,127.1901616,https://maps.google.com/?cid=0x0:0xd2859cd7f8d1404b
hotel,Hotel,Mandaong,"9FCJ+X39, Labuha, Kec. Bacan, Kabupaten Halmahera Selatan, Maluku Utara","Kabupaten Halmahera Selatan, Maluku Utara",MALUKU UTARA,,Indonesia,82191873174.0,-0.6275855,127.4802314,https://maps.google.com/?cid=0x0:0xf3e4ce27f6bcd8f1
hotel,Apartemen sewa liburan,kos kosan anak basis,"9F2Q+5WM, Kp. Makian, Makian Barat, Kabupaten Halmahera Selatan, Maluku Utara","Kabupaten Halmahera Selatan, Maluku Utara",MALUKU UTARA,,Indonesia,,-0.6495299,127.4897842,https://maps.google.com/?cid=0x0:0x5f815be158419126
hotel,Hotel,Penginapan Fadil,"9F6J+PHR, Labuha, Kec. Bacan, Kabupaten Halmahera Selatan, Maluku Utara","Kabupaten Halmahera Selatan, Maluku Utara",MALUKU UTARA,,Indonesia,,-0.6381293,127.4814017,https://maps.google.com/?cid=0x0:0x230eab5e6a90aa5a
hotel,hotel,Kec. Bacan Sel.,"Kabupaten Halmahera Selatan, Maluku Utara","Kabupaten Halmahera Selatan, Maluku Utara",MALUKU UTARA,,Indonesia,,-0.6527457,127.4833566,https://maps.google.com/?cid=0x0:0xad48e5ee740e417c
hotel,Hotel,Penginapan Bintang jln. Pelabuhan lama Habibi labuha,"9F9J+87P, Labuha, Kec. Bacan, Kabupaten Halmahera Selatan, Maluku Utara","Kabupaten Halmahera Selatan, Maluku Utara",MALUKU UTARA,,Indonesia,85298344942.0,-0.6315707,127.4806869,https://maps.google.com/?cid=0x0:0x894bdb9d414b7176
hotel,Hotel,Hotel Janisy,"Jl. Tomori - Labuha, Labuha, Kec. Bacan, Kabupaten Halmahera Selatan, Maluku Utara","Kabupaten Halmahera Selatan, Maluku Utara",MALUKU UTARA,,Indonesia,82189568075.0,-0.6363544,127.4850433,https://maps.google.com/?cid=0x0:0xd12f22cc34adc870
hotel,Hotel,Hotel Buana Lipu,"Jl. Daniel Kabenti, Mandaong, Kec. Bacan Sel., Kabupaten Halmahera Selatan, Maluku Utara","Kabupaten Halmahera Selatan, Maluku Utara",MALUKU UTARA,,Indonesia,,-0.6466485,127.4805012,https://maps.google.com/?cid=0x0:0x7fe823715579c641
hotel,Hotel,Hotel SKYE,"Jl. Sadaralam, Tomori, Bacan, Kabupaten Halmahera Selatan, Maluku Utara","Kabupaten Halmahera Selatan, Maluku Utara",MALUKU UTARA,,Indonesia,82188983003.0,-0.6407409,127.4867155,https://maps.google.com/?cid=0x0:0x21434e6fef946bc2
hotel,Pondok,Hotel Inggoi,"9F2H+JFX, Jl. Daniel Kabenti, Mandaong, Kec. Bacan Sel., Kabupaten Halmahera Selatan, Maluku Utara","Kabupaten Halmahera Selatan, Maluku Utara",MALUKU UTARA,,Indonesia,,-0.6483806,127.4787337,https://maps.google.com/?cid=0x0:0xfcf182d5ab000eba
hotel,Hotel,Vilanov Hotel,"9F6P+2HH, Tomori, Kec. Bacan, Kabupaten Halmahera Selatan, Maluku Utara","Kabupaten Halmahera Selatan, Maluku Utara",MALUKU UTARA,,Indonesia,,-0.6399382,127.486491,https://maps.google.com/?cid=0x0:0x52ce089963f01a40
hotel,Pondok,Hotel Mutiara,"9FCJ+C45, Labuha, Kec. Bacan, Kabupaten Halmahera Selatan, Maluku Utara","Kabupaten Halmahera Selatan, Maluku Utara",MALUKU UTARA,,Indonesia,,-0.6289767,127.4803562,https://maps.google.com/?cid=0x0:0x26eaa7514ccc320d
hotel,Hotel,Penginapan Anugerah Jaya,"9F5Q+X86, Tomori, Kec. Bacan, Kabupaten Halmahera Selatan, Maluku Utara","Kabupaten Halmahera Selatan, Maluku Utara",MALUKU UTARA,,Indonesia,81260016618.0,-0.6400915,127.4882586,https://maps.google.com/?cid=0x0:0x8ef23894c19ef704
hotel,Hotel,Hotel Palm,"9F5M+RCM, Labuha, Kec. Bacan, Kabupaten Halmahera Selatan, Maluku Utara","Kabupaten Halmahera Selatan, Maluku Utara",MALUKU UTARA,,Indonesia,82188626468.0,-0.6404072,127.4835415,https://maps.google.com/?cid=0x0:0x335fd1b30a1e09b4
hotel,Penginapan Dalam Ruangan,Penginapan mori jaya,"9F5R+92P, Tomori, Kec. Bacan, Kabupaten Halmahera Selatan, Maluku Utara","Kabupaten Halmahera Selatan, Maluku Utara",MALUKU UTARA,,Indonesia,,-0.6414655,127.4901262,https://maps.google.com/?cid=0x0:0x42de26387fdc172
hotel,Hotel,Penginapan Fhira,"9F2Q+6R4, Kp. Makian, Kec. Bacan Sel., Kabupaten Halmahera Selatan, Maluku Utara","Kabupaten Halmahera Selatan, Maluku Utara",MALUKU UTARA,,Indonesia,85330796547.0,-0.6494803,127.4895811,https://maps.google.com/?cid=0x0:0x69d6fff0b171fe3f
hotel,Motel,"Penginapan Paris, Labuha Bacan","9F5H+GQH, Labuha, Kec. Bacan, Kabupaten Halmahera Selatan, Maluku Utara","Kabupaten Halmahera Selatan, Maluku Utara",MALUKU UTARA,,Indonesia,,-0.6410442,127.47942,https://maps.google.com/?cid=0x0:0xa61e5d3c8237265c
hotel,Penginapan Dalam Ruangan,Penginapan Pelangi,"9F4V+G39, Tomori, Kec. Bacan, Kabupaten Halmahera Selatan, Maluku Utara","Kabupaten Halmahera Selatan, Maluku Utara",MALUKU UTARA,,Indonesia,82394376285.0,-0.6437133,127.4927357,https://maps.google.com/?cid=0x0:0xb90c12403cfb3a49
hotel,Hotel,Hotel bang din,"99JQ+VVG, Pasimbaos, Kec. Kepulauan Botang Lomang, Kabupaten Halmahera Selatan, Maluku Utara","Kabupaten Halmahera Selatan, Maluku Utara",MALUKU UTARA,,Indonesia,,-0.6185148,127.3899597,https://maps.google.com/?cid=0x0:0x4835d483af8b382d
hotel,hotel,Kec. Kepulauan Botang Lomang,"Kabupaten Halmahera Selatan, Maluku Utara","Kabupaten Halmahera Selatan, Maluku Utara",MALUKU UTARA,,Indonesia,,-0.6551716,127.3965666,https://maps.google.com/?cid=0x0:0x6b1042a5e2595523
hotel,Hotel,Penginapan Bintang jln. Pelabuhan lama Habibi labuha,"9F9J+87P, Labuha, Kec. Bacan, Kabupaten Halmahera Selatan, Maluku Utara","Kabupaten Halmahera Selatan, Maluku Utara",MALUKU UTARA,,Indonesia,85298344942.0,-0.6315707,127.4806869,https://maps.google.com/?cid=0x0:0x894bdb9d414b7176
hotel,Hotel,Hotel Janisy,"Jl. Tomori - Labuha, Labuha, Kec. Bacan, Kabupaten Halmahera Selatan, Maluku Utara","Kabupaten Halmahera Selatan, Maluku Utara",MALUKU UTARA,,Indonesia,82189568075.0,-0.6363544,127.4850433,https://maps.google.com/?cid=0x0:0xd12f22cc34adc870
hotel,Rumah wisata,Muhaimin,"68W6+X3P, Lele, Kec. Mandioli Sel., Kabupaten Halmahera Selatan, Maluku Utara","Kabupaten Halmahera Selatan, Maluku Utara",MALUKU UTARA,,Indonesia,,-0.7525469,127.3102,https://maps.google.com/?cid=0x0:0xbb2c8f3c23ba405
hotel,hotel,Kec. Mandioli Sel.,"Kabupaten Halmahera Selatan, Maluku Utara","Kabupaten Halmahera Selatan, Maluku Utara",MALUKU UTARA,,Indonesia,,-0.7822039,127.2796254,https://maps.google.com/?cid=0x0:0x97b7f19576981b91
hotel,Vila,Cilo,"67CG+XH8, Jiko, Kec. Mandioli Sel., Kabupaten Halmahera Selatan, Maluku Utara","Kabupaten Halmahera Selatan, Maluku Utara",MALUKU UTARA,,Indonesia,,-0.777692,127.2773955,https://maps.google.com/?cid=0x0:0x4781dc6be5cb9c21
hotel,hotel,Kec. Mandioli Utara,"Kabupaten Halmahera Selatan, Maluku Utara","Kabupaten Halmahera Selatan, Maluku Utara",MALUKU UTARA,,Indonesia,,-0.6648801,127.2694292,https://maps.google.com/?cid=0x0:0x5a42f90eb969805d
hotel,Rumah wisata,Muhaimin,"68W6+X3P, Lele, Kec. Mandioli Sel., Kabupaten Halmahera Selatan, Maluku Utara","Kabupaten Halmahera Selatan, Maluku Utara",MALUKU UTARA,,Indonesia,,-0.7525469,127.3102,https://maps.google.com/?cid=0x0:0xbb2c8f3c23ba405
hotel,Vila,Cilo,"67CG+XH8, Jiko, Kec. Mandioli Sel., Kabupaten Halmahera Selatan, Maluku Utara","Kabupaten Halmahera Selatan, Maluku Utara",MALUKU UTARA,,Indonesia,,-0.777692,127.2773955,https://maps.google.com/?cid=0x0:0x4781dc6be5cb9c21
hotel,hotel,GC peningapan Banda Island,"Agil Nasrun - Desa kampung baru RT 02 banda neira, Maluku 97593",Maluku,MALUKU UTARA,,Indonesia,81315108555.0,-4.5194432,129.7791292,https://maps.google.com/?cid=0x0:0x91e37f0b98992c91
hotel,Rumah wisata,Muhaimin,"68W6+X3P, Lele, Kec. Mandioli Sel., Kabupaten Halmahera Selatan, Maluku Utara","Kabupaten Halmahera Selatan, Maluku Utara",MALUKU UTARA,,Indonesia,,-0.7525469,127.3102,https://maps.google.com/?cid=0x0:0xbb2c8f3c23ba405
hotel,hotel,Kec. Mandioli Utara,"Kabupaten Halmahera Selatan, Maluku Utara","Kabupaten Halmahera Selatan, Maluku Utara",MALUKU UTARA,,Indonesia,,-0.6648801,127.2694292,https://maps.google.com/?cid=0x0:0x5a42f90eb969805d
hotel,Vila,Cilo,"67CG+XH8, Jiko, Kec. Mandioli Sel., Kabupaten Halmahera Selatan, Maluku Utara","Kabupaten Halmahera Selatan, Maluku Utara",MALUKU UTARA,,Indonesia,,-0.777692,127.2773955,https://maps.google.com/?cid=0x0:0x4781dc6be5cb9c21
hotel,Hotel,Bushra Inn,"Jl Bandara Lama, Tomori, Kec. Bacan, Kabupaten Halmahera Selatan, Maluku Utara 97791","Tomori, Kec. Bacan, Kabupaten Halmahera Selatan",MALUKU UTARA,97791.0,Indonesia,81340313838.0,-0.6413205,127.4910901,https://maps.google.com/?cid=0x0:0xc2ad4ef5080dea84
hotel,hotel,Kec. Bacan Tim. Sel.,"Kabupaten Halmahera Selatan, Maluku Utara","Kabupaten Halmahera Selatan, Maluku Utara",MALUKU UTARA,,Indonesia,,-0.8138816,127.872846,https://maps.google.com/?cid=0x0:0x10b732e030ec504d
hotel,hotel,Kusu Island Resort,"Sabatang, Kec. Bacan Tim., Kabupaten Halmahera Selatan, Maluku Utara","Kabupaten Halmahera Selatan, Maluku Utara",MALUKU UTARA,,Indonesia,81280070944.0,-0.4577175,127.7109542,https://maps.google.com/?cid=0x0:0x34f8f664df98bca1
hotel,hotel,Saloi inn,"3FXQ+VR2, Tedeng, Kec. Jailolo, Kabupaten Halmahera Barat, Maluku Utara","Kabupaten Halmahera Barat, Maluku Utara",MALUKU UTARA,,Indonesia,8111020812.0,1.0996348,127.4895301,https://maps.google.com/?cid=0x0:0x1139fc5cb3804c4
hotel,Hotel,Penginapan Fadil,"9F6J+PHR, Labuha, Kec. Bacan, Kabupaten Halmahera Selatan, Maluku Utara","Kabupaten Halmahera Selatan, Maluku Utara",MALUKU UTARA,,Indonesia,,-0.6381293,127.4814017,https://maps.google.com/?cid=0x0:0x230eab5e6a90aa5a
hotel,Pondok,Hotel Inggoi,"9F2H+JFX, Jl. Daniel Kabenti, Mandaong, Kec. Bacan Sel., Kabupaten Halmahera Selatan, Maluku Utara","Kabupaten Halmahera Selatan, Maluku Utara",MALUKU UTARA,,Indonesia,,-0.6483806,127.4787337,https://maps.google.com/?cid=0x0:0xfcf182d5ab000eba
hotel,Hotel,Hotel Janisy,"Jl. Tomori - Labuha, Labuha, Kec. Bacan, Kabupaten Halmahera Selatan, Maluku Utara","Kabupaten Halmahera Selatan, Maluku Utara",MALUKU UTARA,,Indonesia,82189568075.0,-0.6363544,127.4850433,https://maps.google.com/?cid=0x0:0xd12f22cc34adc870
hotel,hotel,GRAND AMBALI HOTEL,"9J93+RFR, Babang, Kec. Bacan Tim., Kabupaten Halmahera Selatan, Maluku Utara","Kabupaten Halmahera Selatan, Maluku Utara",MALUKU UTARA,,Indonesia,,-0.6309682,127.6039263,https://maps.google.com/?cid=0x0:0x72158424be0bab31
hotel,Hotel,Penginapan Fhira,"9F2Q+6R4, Kp. Makian, Kec. Bacan Sel., Kabupaten Halmahera Selatan, Maluku Utara","Kabupaten Halmahera Selatan, Maluku Utara",MALUKU UTARA,,Indonesia,85330796547.0,-0.6494803,127.4895811,https://maps.google.com/?cid=0x0:0x69d6fff0b171fe3f
hotel,Hotel,Penginapan Anugerah Jaya,"9F5Q+X86, Tomori, Kec. Bacan, Kabupaten Halmahera Selatan, Maluku Utara","Kabupaten Halmahera Selatan, Maluku Utara",MALUKU UTARA,,Indonesia,81260016618.0,-0.6400915,127.4882586,https://maps.google.com/?cid=0x0:0x8ef23894c19ef704
hotel,Hotel,Hotel Palm,"9F5M+RCM, Labuha, Kec. Bacan, Kabupaten Halmahera Selatan, Maluku Utara","Kabupaten Halmahera Selatan, Maluku Utara",MALUKU UTARA,,Indonesia,82188626468.0,-0.6404072,127.4835415,https://maps.google.com/?cid=0x0:0x335fd1b30a1e09b4
hotel,Hotel,Hotel Grand AWN,"9JC2+P93, Babang, Kec. Bacan Tim., Kabupaten Halmahera Selatan, Maluku Utara","Kabupaten Halmahera Selatan, Maluku Utara",MALUKU UTARA,,Indonesia,82196590101.0,-0.6282486,127.6009309,https://maps.google.com/?cid=0x0:0xdbe9d0f28238513c
hotel,Hotel,Vilanov Hotel,"9F6P+2HH, Tomori, Kec. Bacan, Kabupaten Halmahera Selatan, Maluku Utara","Kabupaten Halmahera Selatan, Maluku Utara",MALUKU UTARA,,Indonesia,,-0.6399382,127.486491,https://maps.google.com/?cid=0x0:0x52ce089963f01a40
hotel,Hotel,Hotel SKYE,"Jl. Sadaralam, Tomori, Bacan, Kabupaten Halmahera Selatan, Maluku Utara","Kabupaten Halmahera Selatan, Maluku Utara",MALUKU UTARA,,Indonesia,82188983003.0,-0.6407409,127.4867155,https://maps.google.com/?cid=0x0:0x21434e6fef946bc2
hotel,hotel,Kec. Bacan Tim. Tengah,"Kabupaten Halmahera Selatan, Maluku Utara","Kabupaten Halmahera Selatan, Maluku Utara",MALUKU UTARA,,Indonesia,,-0.6921114,127.7318506,https://maps.google.com/?cid=0x0:0xc2cd01a3dd86df14
hotel,hotel,Bushra Inn,"Jl Bandara Lama, Tomori, Kec. Bacan, Kabupaten Halmahera Selatan, Maluku Utara 97791","Tomori, Kec. Bacan, Kabupaten Halmahera Selatan",MALUKU UTARA,97791.0,Indonesia,81340313838.0,-0.6413205,127.4910901,https://maps.google.com/?cid=0x0:0xc2ad4ef5080dea84
hotel,hotel,Saloi inn,"3FXQ+VR2, Tedeng, Kec. Jailolo, Kabupaten Halmahera Barat, Maluku Utara","Kabupaten Halmahera Barat, Maluku Utara",MALUKU UTARA,,Indonesia,8111020812.0,1.0996348,127.4895301,https://maps.google.com/?cid=0x0:0x1139fc5cb3804c4
hotel,hotel,Sabua Gaba,"Jl, Guaemaadu, Kec. Jailolo, Kabupaten Halmahera Barat, Maluku Utara 97752","Guaemaadu, Kec. Jailolo, Kabupaten Halmahera Barat",MALUKU UTARA,97752.0,Indonesia,81244409444.0,1.0567495,127.4613981,https://maps.google.com/?cid=0x0:0xa54e049ccacb61b7
hotel,hotel,Kusu Island Resort,"Sabatang, Kec. Bacan Tim., Kabupaten Halmahera Selatan, Maluku Utara","Kabupaten Halmahera Selatan, Maluku Utara",MALUKU UTARA,,Indonesia,81280070944.0,-0.4577175,127.7109542,https://maps.google.com/?cid=0x0:0x34f8f664df98bca1
hotel,hotel,Nabucco Spice Island Resort,"Kusu Island, Sabatang, Kec. Bacan Tim., Kabupaten Halmahera Selatan, Maluku Utara 00000","Sabatang, Kec. Bacan Tim., Kabupaten Halmahera Selatan",MALUKU UTARA,0.0,Indonesia,,-0.4528742,127.7027094,https://maps.google.com/?cid=0x0:0x3aa1ef78eda95c23
hotel,hotel,Kec. Gane Tim. Sel.,"Kabupaten Halmahera Selatan, Maluku Utara","Kabupaten Halmahera Selatan, Maluku Utara",MALUKU UTARA,,Indonesia,,-0.7047222,128.2191774,https://maps.google.com/?cid=0x0:0x5d731fac62ca9680
hotel,Hotel,Hotel Janisy,"Jl. Tomori - Labuha, Labuha, Kec. Bacan, Kabupaten Halmahera Selatan, Maluku Utara","Kabupaten Halmahera Selatan, Maluku Utara",MALUKU UTARA,,Indonesia,82189568075.0,-0.6363544,127.4850433,https://maps.google.com/?cid=0x0:0xd12f22cc34adc870
hotel,hotel,Kec. Gane Bar. Sel.,"Kabupaten Halmahera Selatan, Maluku Utara","Kabupaten Halmahera Selatan, Maluku Utara",MALUKU UTARA,,Indonesia,,-0.762002,128.203222,https://maps.google.com/?cid=0x0:0x53c8be4d55503c6d
hotel,hotel,Kec. Gane Bar. Utara,"Kabupaten Halmahera Selatan, Maluku Utara","Kabupaten Halmahera Selatan, Maluku Utara",MALUKU UTARA,,Indonesia,,-0.2711433,127.6958246,https://maps.google.com/?cid=0x0:0x99a01612ac04691e
hotel,hotel,Sali Bay Resort,"PT Salibay Resort, Dusun Kalero Desa Sali Kec. Bacan Timur Kab. Halmahera Selatan, Maluku Utara, Sali kecil, Maluku Utara","Sali kecil, Maluku Utara",MALUKU UTARA,,Indonesia,8124300911.0,-0.428354,127.740925,https://maps.google.com/?cid=0x0:0x4b081cc0adbacc08
hotel,hotel,Kusu Island Resort,"Sabatang, Kec. Bacan Tim., Kabupaten Halmahera Selatan, Maluku Utara","Kabupaten Halmahera Selatan, Maluku Utara",MALUKU UTARA,,Indonesia,81280070944.0,-0.4577175,127.7109542,https://maps.google.com/?cid=0x0:0x34f8f664df98bca1
hotel,hotel,Pulau Joronga,"Kec. Kepulauan Joronga, Kabupaten Halmahera Selatan, Maluku Utara","Kabupaten Halmahera Selatan, Maluku Utara",MALUKU UTARA,,Indonesia,,-1.0939334,128.3692495,https://maps.google.com/?cid=0x0:0xcc70cd24bdde223b
hotel,hotel,Kec. Gane Tim. Sel.,"Kabupaten Halmahera Selatan, Maluku Utara","Kabupaten Halmahera Selatan, Maluku Utara",MALUKU UTARA,,Indonesia,,-0.7047222,128.2191774,https://maps.google.com/?cid=0x0:0x5d731fac62ca9680
hotel,hotel,Kec. Gane Tim. Tengah,"Kabupaten Halmahera Selatan, Maluku Utara","Kabupaten Halmahera Selatan, Maluku Utara",MALUKU UTARA,,Indonesia,,-0.4042848,128.027071,https://maps.google.com/?cid=0x0:0x4f9ff030214dfb8c
hotel,hotel,Sali Bay Resort,"PT Salibay Resort, Dusun Kalero Desa Sali Kec. Bacan Timur Kab. Halmahera Selatan, Maluku Utara, Sali kecil, Maluku Utara","Sali kecil, Maluku Utara",MALUKU UTARA,,Indonesia,8124300911.0,-0.428354,127.740925,https://maps.google.com/?cid=0x0:0x4b081cc0adbacc08
hotel,hotel,Kusu Island Resort,"Sabatang, Kec. Bacan Tim., Kabupaten Halmahera Selatan, Maluku Utara","Kabupaten Halmahera Selatan, Maluku Utara",MALUKU UTARA,,Indonesia,81280070944.0,-0.4577175,127.7109542,https://maps.google.com/?cid=0x0:0x34f8f664df98bca1
hotel,Hotel,Kamar alung,"FCMW+V8, Baru, Kec. Obi, Kabupaten Halmahera Selatan, Maluku Utara","Kabupaten Halmahera Selatan, Maluku Utara",MALUKU UTARA,,Indonesia,,-1.5149162,127.4458007,https://maps.google.com/?cid=0x0:0x4226f2002756bd83
hotel,Rumah wisata,PENGINAPAN KING,"FC26+WW3, Kawasi, Kec. Obi, Kabupaten Halmahera Selatan, Maluku Utara","Kabupaten Halmahera Selatan, Maluku Utara",MALUKU UTARA,,Indonesia,,-1.5476107,127.4123653,https://maps.google.com/?cid=0x0:0x3312dd6a9d1e86d4
hotel,hotel,Kec. Obi Bar.,"Kabupaten Halmahera Selatan, Maluku Utara","Kabupaten Halmahera Selatan, Maluku Utara",MALUKU UTARA,,Indonesia,,-1.3895849,127.338527,https://maps.google.com/?cid=0x0:0xaed606505850254d
hotel,Hotel,Hotel Buana Lipu,"Jl. Daniel Kabenti, Mandaong, Kec. Bacan Sel., Kabupaten Halmahera Selatan, Maluku Utara","Kabupaten Halmahera Selatan, Maluku Utara",MALUKU UTARA,,Indonesia,,-0.6466485,127.4805012,https://maps.google.com/?cid=0x0:0x7fe823715579c641
hotel,hotel,Kec. Obi Tim.,"Kabupaten Halmahera Selatan, Maluku Utara","Kabupaten Halmahera Selatan, Maluku Utara",MALUKU UTARA,,Indonesia,,-1.4918907,127.9813554,https://maps.google.com/?cid=0x0:0xffcda0a454872d5e
hotel,Hotel,Penginapan N  M 03,"MJ5R+MR3, Buton, Kec. Obi, Kabupaten Halmahera Selatan, Maluku Utara","Kabupaten Halmahera Selatan, Maluku Utara",MALUKU UTARA,,Indonesia,,-1.3415623,127.6414095,https://maps.google.com/?cid=0x0:0x2cb2a61f8bba712e
hotel,Hotel,Penginapan Dilaz,"Kampung Turi Depan SD 191, Jalan Siswa, Laiwui, Kec. Obi, Kabupaten Halmahera Selatan, Maluku Utara 97792","Jalan Siswa, Laiwui, Kec. Obi, Kabupaten Halmahera Selatan",MALUKU UTARA,97792.0,Indonesia,85343591275.0,-1.3402849,127.638967,https://maps.google.com/?cid=0x0:0x5dccb6d79260d48d
hotel,hotel,Kec. Obi Utara,"Kabupaten Halmahera Selatan, Maluku Utara","Kabupaten Halmahera Selatan, Maluku Utara",MALUKU UTARA,,Indonesia,,-1.2239003,127.6485589,https://maps.google.com/?cid=0x0:0x14425d7651bc8346
hotel,Apartemen sewa liburan,Alfandi,"QJGX+WRM, Madapolo, Kec. Obi Utara, Kabupaten Halmahera Selatan, Maluku Utara","Kabupaten Halmahera Selatan, Maluku Utara",MALUKU UTARA,,Indonesia,,-1.222809,127.64944,https://maps.google.com/?cid=0x0:0xf4bfc3ec3fc65467
hotel,hotel,Penginapan,"QJHW+83W, Madapolo Bar., Kec. Obi Utara, Kabupaten Halmahera Selatan, Maluku Utara","Kabupaten Halmahera Selatan, Maluku Utara",MALUKU UTARA,,Indonesia,,-1.2219067,127.6443967,https://maps.google.com/?cid=0x0:0x6e11b14f02523c98
hotel,Penginapan,Gunawan sikala,"QMG2+Q38, Madapolo, Kec. Obi Utara, Kabupaten Halmahera Selatan, Maluku Utara","Kabupaten Halmahera Selatan, Maluku Utara",MALUKU UTARA,,Indonesia,,-1.2227799,127.6505364,https://maps.google.com/?cid=0x0:0x83e48b200823084c
hotel,Hotel,FikaPutrii,"QMG2+3FC, Madapolo, Kec. Obi Utara, Kabupaten Halmahera Selatan, Maluku Utara","Kabupaten Halmahera Selatan, Maluku Utara",MALUKU UTARA,,Indonesia,,-1.2249869,127.6513649,https://maps.google.com/?cid=0x0:0xbfd5d7994d4e01f
restaurant,restaurant,Rm.BAROKAH (mbak jawa),"Guruapin, Kec. Kayoa, Kabupaten Halmahera Selatan, Maluku Utara","Kabupaten Halmahera Selatan, Maluku Utara",MALUKU UTARA,,Indonesia,,0.0105922,127.4099191,https://maps.google.com/?cid=0x0:0xe55e136c187500bc
restaurant,Hotel,Rumah eka sayg,"2C66+798, Guruapin, Kec. Kayoa, Kabupaten Halmahera Selatan, Maluku Utara","Kabupaten Halmahera Selatan, Maluku Utara",MALUKU UTARA,,Indonesia,,0.0106578,127.4109679,https://maps.google.com/?cid=0x0:0xfbff5062bc1293a0
restaurant,restaurant,Kecamatan Kayoa Selatan,"Kabupaten Halmahera Selatan, Maluku Utara","Kabupaten Halmahera Selatan, Maluku Utara",MALUKU UTARA,,Indonesia,,-0.0404558,127.4257645,https://maps.google.com/?cid=0x0:0x611025dc11fc6411
restaurant,restaurant,Pulau Kajoa,"Kabupaten Halmahera Selatan, Maluku Utara","Kabupaten Halmahera Selatan, Maluku Utara",MALUKU UTARA,,Indonesia,,0.0518774,127.4361206,https://maps.google.com/?cid=0x0:0xd5419efbb8c997dc
restaurant,restaurant,resort widi,"CC4C+C67, Pulau, Kec. Gane Tim. Sel., Kabupaten Halmahera Selatan, Maluku Utara","Kabupaten Halmahera Selatan, Maluku Utara",MALUKU UTARA,,Indonesia,85340343030.0,-0.5939676,128.420542,https://maps.google.com/?cid=0x0:0xf417b15a298a652f
restaurant,restaurant,Kec. Gane Tim. Sel.,"Kabupaten Halmahera Selatan, Maluku Utara","Kabupaten Halmahera Selatan, Maluku Utara",MALUKU UTARA,,Indonesia,,-0.7047222,128.2191774,https://maps.google.com/?cid=0x0:0x5d731fac62ca9680
restaurant,Area Wi-Fi,Tower bhakti yamly,"679C+3GP, Gane Luar, Kec. Gane Tim. Sel., Kabupaten Halmahera Selatan, Maluku Utara","Kabupaten Halmahera Selatan, Maluku Utara",MALUKU UTARA,,Indonesia,,-0.7822897,128.2713306,https://maps.google.com/?cid=0x0:0x79f474f29fd790d9
restaurant,Kedai Kopi,Lemo-lemo,"83Q3+P2W, Lemo Lemo, Kec. Gane Bar., Kabupaten Halmahera Selatan, Maluku Utara","Kabupaten Halmahera Selatan, Maluku Utara",MALUKU UTARA,,Indonesia,82187593688.0,-0.6606259,128.0525654,https://maps.google.com/?cid=0x0:0xf753f67d428ec720
restaurant,restaurant,Kec. Gane Bar. Sel.,"Kabupaten Halmahera Selatan, Maluku Utara","Kabupaten Halmahera Selatan, Maluku Utara",MALUKU UTARA,,Indonesia,,-0.762002,128.203222,https://maps.google.com/?cid=0x0:0x53c8be4d55503c6d
restaurant,Hidangan Laut,SMORGAN Resto,"PXJV+JGQ, Jl. Pemerintahan, depan KODIM, Halut, Mkcm, Tobelo, North Halmahera Regency, North Maluku","Kabupaten Halmahera Utara, Maluku Utara",MALUKU UTARA,,Indonesia,85201115150.0,1.7315784,127.9938588,https://maps.google.com/?cid=0x0:0xd45d6fcd651f0c5c
restaurant,Tujuan Wisata,Limau Jiko Eco Culture Resort,"Bobanehena, Kec. Jailolo, Kabupaten Halmahera Barat, Maluku Utara","Kabupaten Halmahera Barat, Maluku Utara",MALUKU UTARA,,Indonesia,82258085588.0,1.051123,127.446605,https://maps.google.com/?cid=0x0:0xbe87d8ffd59d3fd5
restaurant,Kedai Kopi,Lemo-lemo,"83Q3+P2W, Lemo Lemo, Kec. Gane Bar., Kabupaten Halmahera Selatan, Maluku Utara","Kabupaten Halmahera Selatan, Maluku Utara",MALUKU UTARA,,Indonesia,82187593688.0,-0.6606259,128.0525654,https://maps.google.com/?cid=0x0:0xf753f67d428ec720
restaurant,,Bualawa Resto,"3C3W+4XM, Bobanehena, Kec. Jailolo, Kabupaten Halmahera Barat, Maluku Utara","Kabupaten Halmahera Barat, Maluku Utara",MALUKU UTARA,,Indonesia,,1.0516385,127.4473055,https://maps.google.com/?cid=0x0:0x1072845be258038f
restaurant,Area Wi-Fi,Tower bhakti yamly,"679C+3GP, Gane Luar, Kec. Gane Tim. Sel., Kabupaten Halmahera Selatan, Maluku Utara","Kabupaten Halmahera Selatan, Maluku Utara",MALUKU UTARA,,Indonesia,,-0.7822897,128.2713306,https://maps.google.com/?cid=0x0:0x79f474f29fd790d9
restaurant,restaurant,Obi Sel.,"Kabupaten Halmahera Selatan, Maluku Utara","Kabupaten Halmahera Selatan, Maluku Utara",MALUKU UTARA,,Indonesia,,-1.6047188,127.681228,https://maps.google.com/?cid=0x0:0xee55ecd0b3e7ac39
restaurant,Dapur Umum,RM Pantura,"CCP7+6CR, Kawasi, Kec. Obi, Kabupaten Halmahera Selatan, Maluku Utara","Kabupaten Halmahera Selatan, Maluku Utara",MALUKU UTARA,,Indonesia,,-1.5643891,127.4135153,https://maps.google.com/?cid=0x0:0xdf4f2166f9c78c7a
restaurant,Rumah Makan,Rumah Makan Sederhana,"FC26+4Q6, Unnamed Road, Kawasi, Kec. Obi, Kabupaten Halmahera Selatan, Maluku Utara","Kabupaten Halmahera Selatan, Maluku Utara",MALUKU UTARA,,Indonesia,,-1.5497184,127.4118788,https://maps.google.com/?cid=0x0:0x19fcd95411be6c42
restaurant,Rumah Makan,Barokah Sragentina,"FC27+P67, Kawasi, Kec. Obi, Kabupaten Halmahera Selatan, Maluku Utara","Kabupaten Halmahera Selatan, Maluku Utara",MALUKU UTARA,,Indonesia,8114346057.0,-1.5482062,127.4130613,https://maps.google.com/?cid=0x0:0x4d01061b6d8d82a3
restaurant,Kedai Kopi,Kantin TKI HPAL,"FC85+32W, Kawasi, Kec. Obi, Kabupaten Halmahera Selatan, Maluku Utara","Kabupaten Halmahera Selatan, Maluku Utara",MALUKU UTARA,,Indonesia,,-1.5343318,127.4080805,https://maps.google.com/?cid=0x0:0x3d17bd8eebf14cd4
restaurant,Restoran,Rm.Berkah Dealova,"FC27+R3X, Kawasi, Kec. Obi, Kabupaten Halmahera Selatan, Maluku Utara","Kabupaten Halmahera Selatan, Maluku Utara",MALUKU UTARA,,Indonesia,81356850316.0,-1.547889,127.4127342,https://maps.google.com/?cid=0x0:0x509696a3b955bf8
restaurant,Jawa,Pondok Makan tepi Pantai,"FC55+87H, Kawasi, Kabupaten Halmahera Selatan, Maluku Utara","Kabupaten Halmahera Selatan, Maluku Utara",MALUKU UTARA,,Indonesia,,-1.5416855,127.408224,https://maps.google.com/?cid=0x0:0x160fd4f8578511d9
restaurant,Kedai Kopi,Kafe tanjung ðâ,"FC54+W8P, Kawasi, Kec. Obi, Kabupaten Halmahera Selatan, Maluku Utara","Kabupaten Halmahera Selatan, Maluku Utara",MALUKU UTARA,,Indonesia,,-1.5401548,127.4058281,https://maps.google.com/?cid=0x0:0x388455f63fe03754
restaurant,Rumah Makan,warung Bebek,"CCH8+Q5X, Kawasi, Kec. Obi, Kabupaten Halmahera Selatan, Maluku Utara","Kabupaten Halmahera Selatan, Maluku Utara",MALUKU UTARA,,Indonesia,,-1.5705099,127.415481,https://maps.google.com/?cid=0x0:0xb84f59cf19fe3920
restaurant,Rumah Makan,RM. SUMBER HARAPAN Cab.ILAGA PAPUA,"CCPW+QP3 Halte, POS Merah, Kawasi, Kec. Obi, Kabupaten Halmahera Selatan, Maluku Utara","Kabupaten Halmahera Selatan, Maluku Utara",MALUKU UTARA,,Indonesia,81233990001.0,-1.5631211,127.4467952,https://maps.google.com/?cid=0x0:0xfd3fe485244b0d46
restaurant,Rumah Makan,RM SUKOWATI,"CCW7+M25, Kawasi, Kec. Obi, Kabupaten Halmahera Selatan, Maluku Utara","Kabupaten Halmahera Selatan, Maluku Utara",MALUKU UTARA,,Indonesia,82297898133.0,-1.5543553,127.4123459,https://maps.google.com/?cid=0x0:0x376eaed719e8a88e
restaurant,Kedai Kopi,Bakso kampung tengah,"8M2V+FJH, Gambaru, Obi Sel., Kabupaten Halmahera Selatan, Maluku Utara","Kabupaten Halmahera Selatan, Maluku Utara",MALUKU UTARA,,Indonesia,,-1.6985412,127.6947937,https://maps.google.com/?cid=0x0:0xb66eb97f665d91a9
restaurant,Kedai Kopi,Cafe Humaka Marahai,"Kawasi, Kec. Obi, Maluku Utara, 12345",Kec. Obi,MALUKU UTARA,12345.0,Indonesia,82199883830.0,-1.5847164,127.4143262,https://maps.google.com/?cid=0x0:0x9f81035dcac112f7
restaurant,Hotel,Mess LQ - HPAL,"FC85+32W, Kawasi, Kec. Obi, Kabupaten Halmahera Selatan, Maluku Utara","Kabupaten Halmahera Selatan, Maluku Utara",MALUKU UTARA,,Indonesia,,-1.5347662,127.407589,https://maps.google.com/?cid=0x0:0xf8bb2a0199487efc
restaurant,Dapur Umum,RM PAK YANTO,"CCV6+CW8, Kawasi, Kec. Obi, Kabupaten Halmahera Selatan, Maluku Utara","Kabupaten Halmahera Selatan, Maluku Utara",MALUKU UTARA,,Indonesia,,-1.5564698,127.4123327,https://maps.google.com/?cid=0x0:0xb49d380c10a05ffc
restaurant,Dapur Umum,RM Pantura,"CCP7+6CR, Kawasi, Kec. Obi, Kabupaten Halmahera Selatan, Maluku Utara","Kabupaten Halmahera Selatan, Maluku Utara",MALUKU UTARA,,Indonesia,,-1.5643891,127.4135153,https://maps.google.com/?cid=0x0:0xdf4f2166f9c78c7a
restaurant,restaurant,,,,MALUKU UTARA,,Indonesia,,,,https://maps.google.com/?cid=0x0:0xdf4f2166f9c78c7au0026onu003dIkan+Bakar+Panturau0026midu003d/g/11gxwxcndw
restaurant,restaurant,Kec. Bacan Tim. Sel.,"Kabupaten Halmahera Selatan, Maluku Utara","Kabupaten Halmahera Selatan, Maluku Utara",MALUKU UTARA,,Indonesia,,-0.8138816,127.872846,https://maps.google.com/?cid=0x0:0x10b732e030ec504d
restaurant,Rumah Makan,RM.BERKAH Bacan,"Tomori, Kec. Bacan, Kabupaten Halmahera Selatan, Maluku Utara","Kabupaten Halmahera Selatan, Maluku Utara",MALUKU UTARA,,Indonesia,81244363004.0,-0.6456169,127.4877931,https://maps.google.com/?cid=0x0:0xf0d9b02f6451bce7
restaurant,Bakso,Rm sido mampir,"9J93+HQM, Unnamed Road, Babang, Kec. Bacan Tim., Kabupaten Halmahera Selatan, Maluku Utara","Kabupaten Halmahera Selatan, Maluku Utara",MALUKU UTARA,,Indonesia,,-0.6310435,127.6044156,https://maps.google.com/?cid=0x0:0xd13f8ead0168d84
restaurant,Rumah Makan,Dapur Alsya Bacan,"Resto/Cafe Dapur Alsya, Samping Jembatan Komjet, Mandaong, Kec. Bacan Sel., Kabupaten Halmahera Selatan, Maluku Utara 97791","Samping Jembatan Komjet, Mandaong, Kec. Bacan Sel., Kabupaten Halmahera Selatan",MALUKU UTARA,97791.0,Indonesia,82391617952.0,-0.6508056,127.4851638,https://maps.google.com/?cid=0x0:0xbb2b08a3c06a1ed0
restaurant,Restoran,Warung Makan Arema,"9HC2+V3G, Tim.,, Wayamiga, Kec. Bacan Tim., Kabupaten Halmahera Selatan, Maluku Utara","Kabupaten Halmahera Selatan, Maluku Utara",MALUKU UTARA,,Indonesia,81340147545.0,-0.6278175,127.550205,https://maps.google.com/?cid=0x0:0x4696ca072639abf
restaurant,Dapur Umum,Dapoer Opan,"Kupal, Kec. Bacan Sel., Kabupaten Halmahera Selatan, Maluku Utara 97791","Kec. Bacan Sel., Kabupaten Halmahera Selatan",MALUKU UTARA,97791.0,Indonesia,81342933583.0,-0.6750054,127.5028105,https://maps.google.com/?cid=0x0:0xf50d4a506eb6121c
restaurant,Rumah Makan,Warung Tiga Jaya,"9FCJ+PFC, Labuha, Kec. Bacan, Kabupaten Halmahera Selatan, Maluku Utara","Kabupaten Halmahera Selatan, Maluku Utara",MALUKU UTARA,,Indonesia,,-0.6281899,127.4811355,https://maps.google.com/?cid=0x0:0xa03cfc722a0e351d
restaurant,Rumah Makan,Rumah Makan Bunga,"Depan Tiki, Jl. Raya Mandaong, Tomori, Kec. Bacan, Kabupaten Halmahera Selatan, Maluku Utara 97791","Jl. Raya Mandaong, Tomori, Kec. Bacan, Kabupaten Halmahera Selatan",MALUKU UTARA,97791.0,Indonesia,81356831883.0,-0.644594,127.488754,https://maps.google.com/?cid=0x0:0x7276736cacaec3b
restaurant,Jawa,RM. MAMA EKO,"7J4W+5G4, Wayaua, Kec. Bacan Tim. Sel., Kabupaten Halmahera Selatan, Maluku Utara","Kabupaten Halmahera Selatan, Maluku Utara",MALUKU UTARA,,Indonesia,81244243614.0,-0.7446224,127.6463292,https://maps.google.com/?cid=0x0:0x20110ddf693837b1
restaurant,Sarapan,Rumah makan malaysia,"Tembal, Kec. Bacan Sel., Kabupaten Halmahera Selatan, Maluku Utara","Kabupaten Halmahera Selatan, Maluku Utara",MALUKU UTARA,,Indonesia,81336262077.0,-0.6573092,127.4785076,https://maps.google.com/?cid=0x0:0x9e68ec8103cf5878
restaurant,Sesuai untuk keluarga,RUMAH MAKAN NAZWA SAFITRY,"Pantai Mongga, Kec. Bacan, Kabupaten Halmahera Selatan, Maluku Utara 97791","Kec. Bacan, Kabupaten Halmahera Selatan",MALUKU UTARA,97791.0,Indonesia,82196666556.0,-0.6418217,127.4789525,https://maps.google.com/?cid=0x0:0x79f770f31a03cc09
restaurant,Rumah Makan,RM.RISKI,"9F6P+9M6, Tomori, Kec. Bacan, Kabupaten Halmahera Selatan, Maluku Utara","Kabupaten Halmahera Selatan, Maluku Utara",MALUKU UTARA,,Indonesia,,-0.639078,127.486643,https://maps.google.com/?cid=0x0:0xdab87dbd8d85df6b
restaurant,restaurant,,,,MALUKU UTARA,,Indonesia,,,,https://maps.google.com/?cid=0x0:0x85ab2c007d40a874
restaurant,Rumah Makan,RM APOLLO,"9FCJ+RCF, Jl. Oesman Syah, Tomori, Kec. Bacan, Kabupaten Halmahera Selatan, Maluku Utara","Kabupaten Halmahera Selatan, Maluku Utara",MALUKU UTARA,,Indonesia,81356022995.0,-0.6279337,127.4810391,https://maps.google.com/?cid=0x0:0xb76950edab7734da
restaurant,restaurant,Bacan Food Court,"9F3H+299, Jl. Daniel Kabenti, Mandaong, Kec. Bacan Sel., Kabupaten Halmahera Selatan, Maluku Utara","Kabupaten Halmahera Selatan, Maluku Utara",MALUKU UTARA,,Indonesia,,-0.6474577,127.4784922,https://maps.google.com/?cid=0x0:0x803b8c9c0df2342
restaurant,Rumah Makan,Dapur Alsya Bacan,"Resto/Cafe Dapur Alsya, Samping Jembatan Komjet, Mandaong, Kec. Bacan Sel., Kabupaten Halmahera Selatan, Maluku Utara 97791","Samping Jembatan Komjet, Mandaong, Kec. Bacan Sel., Kabupaten Halmahera Selatan",MALUKU UTARA,97791.0,Indonesia,82391617952.0,-0.6508056,127.4851638,https://maps.google.com/?cid=0x0:0xbb2b08a3c06a1ed0
restaurant,Rumah Makan,RM.BERKAH Bacan,"Tomori, Kec. Bacan, Kabupaten Halmahera Selatan, Maluku Utara","Kabupaten Halmahera Selatan, Maluku Utara",MALUKU UTARA,,Indonesia,81244363004.0,-0.6456169,127.4877931,https://maps.google.com/?cid=0x0:0xf0d9b02f6451bce7
restaurant,Indonesia,WAROENG S'MESTA,"9F4V+F8C, Tomori, Kec. Bacan, Kabupaten Halmahera Selatan, Maluku Utara","Kabupaten Halmahera Selatan, Maluku Utara",MALUKU UTARA,,Indonesia,82211233593.0,-0.6437798,127.4932789,https://maps.google.com/?cid=0x0:0x9508930c48756d42
restaurant,Rumah Makan,resto tapping innana,"9F2J+GH5, Mandaong, Kec. Bacan Sel., Kabupaten Halmahera Selatan, Maluku Utara","Kabupaten Halmahera Selatan, Maluku Utara",MALUKU UTARA,,Indonesia,,-0.6487413,127.4814766,https://maps.google.com/?cid=0x0:0x1ccfcd49e60f678b
restaurant,Rumah Makan,Star Bake Bacan,"9G86+J79, Jl. Raya Babang, Marabose, Kec. Bacan, Kabupaten Halmahera Selatan, Maluku Utara","Kabupaten Halmahera Selatan, Maluku Utara",MALUKU UTARA,,Indonesia,,-0.6334694,127.5107194,https://maps.google.com/?cid=0x0:0xe3f4d88b7bd19491
restaurant,restaurant,Bacan Resto,"J6FQ+9RH, Gedong Meneng, Kec. Rajabasa, Kota Bandar Lampung, Lampung 35147","Gedong Meneng, Kec. Rajabasa, Kota Bandar Lampung",MALUKU UTARA,35147.0,Indonesia,,-5.3765561,105.2396016,https://maps.google.com/?cid=0x0:0x8e84f9dab4703722
restaurant,restaurant,Bacan,"Kabupaten Halmahera Selatan, Maluku Utara","Kabupaten Halmahera Selatan, Maluku Utara",MALUKU UTARA,,Indonesia,,-0.5673945,127.5108091,https://maps.google.com/?cid=0x0:0x8820e3d40e67325c
restaurant,Rumah Makan,RM.BERKAH Bacan,"Tomori, Kec. Bacan, Kabupaten Halmahera Selatan, Maluku Utara","Kabupaten Halmahera Selatan, Maluku Utara",MALUKU UTARA,,Indonesia,81244363004.0,-0.6456169,127.4877931,https://maps.google.com/?cid=0x0:0xf0d9b02f6451bce7
restaurant,Rumah Makan,Warung Tiga Jaya,"9FCJ+PFC, Labuha, Kec. Bacan, Kabupaten Halmahera Selatan, Maluku Utara","Kabupaten Halmahera Selatan, Maluku Utara",MALUKU UTARA,,Indonesia,,-0.6281899,127.4811355,https://maps.google.com/?cid=0x0:0xa03cfc722a0e351d
restaurant,Rumah Makan,Dapur Alsya Bacan,"Resto/Cafe Dapur Alsya, Samping Jembatan Komjet, Mandaong, Kec. Bacan Sel., Kabupaten Halmahera Selatan, Maluku Utara 97791","Samping Jembatan Komjet, Mandaong, Kec. Bacan Sel., Kabupaten Halmahera Selatan",MALUKU UTARA,97791.0,Indonesia,82391617952.0,-0.6508056,127.4851638,https://maps.google.com/?cid=0x0:0xbb2b08a3c06a1ed0
restaurant,Rumah Makan,RM APOLLO,"9FCJ+RCF, Jl. Oesman Syah, Tomori, Kec. Bacan, Kabupaten Halmahera Selatan, Maluku Utara","Kabupaten Halmahera Selatan, Maluku Utara",MALUKU UTARA,,Indonesia,81356022995.0,-0.6279337,127.4810391,https://maps.google.com/?cid=0x0:0xb76950edab7734da
restaurant,Rumah Makan,Rumah Makan Bunga,"Depan Tiki, Jl. Raya Mandaong, Tomori, Kec. Bacan, Kabupaten Halmahera Selatan, Maluku Utara 97791","Jl. Raya Mandaong, Tomori, Kec. Bacan, Kabupaten Halmahera Selatan",MALUKU UTARA,97791.0,Indonesia,81356831883.0,-0.644594,127.488754,https://maps.google.com/?cid=0x0:0x7276736cacaec3b
restaurant,Brunch,Basayangang bacan UMKM MILENEAL,"Jl Pantai desa, Tembal, Kec. Bacan Sel., Kabupaten Halmahera Selatan, Maluku Utara 97779","Tembal, Kec. Bacan Sel., Kabupaten Halmahera Selatan",MALUKU UTARA,97779.0,Indonesia,81244252292.0,-0.6576835,127.4784056,https://maps.google.com/?cid=0x0:0xcec3b27395b15bbd
restaurant,Rumah Makan,Warung Makan PakDhe Wanto,"Labuha, Kec. Bacan, Kabupaten Halmahera Selatan, Maluku Utara","Kabupaten Halmahera Selatan, Maluku Utara",MALUKU UTARA,,Indonesia,82225437109.0,-0.642213,127.4911455,https://maps.google.com/?cid=0x0:0x7fe654bf0edbd330
restaurant,Dapur Umum,Dapoer Opan,"Kupal, Kec. Bacan Sel., Kabupaten Halmahera Selatan, Maluku Utara 97791","Kec. Bacan Sel., Kabupaten Halmahera Selatan",MALUKU UTARA,97791.0,Indonesia,81342933583.0,-0.6750054,127.5028105,https://maps.google.com/?cid=0x0:0xf50d4a506eb6121c
restaurant,Restoran,Warung Makan Podo Moro,"9FFH+6QM, Labuha, Kec. Bacan, Kabupaten Halmahera Selatan, Maluku Utara","Kabupaten Halmahera Selatan, Maluku Utara",MALUKU UTARA,,Indonesia,,-0.6269213,127.4794148,https://maps.google.com/?cid=0x0:0x7dd31f9240ccfe0a
restaurant,Restoran,Rumah Makan Permai Swering,"9F5H+XW8, Labuha, Kec. Bacan, Kabupaten Halmahera Selatan, Maluku Utara","Kabupaten Halmahera Selatan, Maluku Utara",MALUKU UTARA,,Indonesia,,-0.6400902,127.4798319,https://maps.google.com/?cid=0x0:0x96db9126a76749ba
restaurant,Restoran,Dapoer Mama Bacan,"9F5H+GQH, Labuha, Kec. Bacan, Kabupaten Halmahera Selatan, Maluku Utara","Kabupaten Halmahera Selatan, Maluku Utara",MALUKU UTARA,,Indonesia,82347723241.0,-0.6411848,127.4794698,https://maps.google.com/?cid=0x0:0xadd8ce8fa7ea7d14
restaurant,Sarapan,Rumah makan malaysia,"Tembal, Kec. Bacan Sel., Kabupaten Halmahera Selatan, Maluku Utara","Kabupaten Halmahera Selatan, Maluku Utara",MALUKU UTARA,,Indonesia,81336262077.0,-0.6573092,127.4785076,https://maps.google.com/?cid=0x0:0x9e68ec8103cf5878
restaurant,Sesuai untuk keluarga,RUMAH MAKAN NAZWA SAFITRY,"Pantai Mongga, Kec. Bacan, Kabupaten Halmahera Selatan, Maluku Utara 97791","Kec. Bacan, Kabupaten Halmahera Selatan",MALUKU UTARA,97791.0,Indonesia,82196666556.0,-0.6418217,127.4789525,https://maps.google.com/?cid=0x0:0x79f770f31a03cc09
restaurant,restaurant,Kec. Makian Bar.,"Kabupaten Halmahera Selatan, Maluku Utara","Kabupaten Halmahera Selatan, Maluku Utara",MALUKU UTARA,,Indonesia,,0.3281416,127.3464815,https://maps.google.com/?cid=0x0:0x45fdc116119553a4
restaurant,Rumah Makan,Bakso khana,"9C7F+3W4, Walo, Kec. Pulau Makian, Kabupaten Halmahera Selatan, Maluku Utara","Kabupaten Halmahera Selatan, Maluku Utara",MALUKU UTARA,,Indonesia,82322482112.0,0.3626344,127.4248327,https://maps.google.com/?cid=0x0:0x9237b49714741832
restaurant,Rumah Makan,RM. ALIEF MITA,"8CXP+VQ8, Kyowor, Kec. Pulau Makian, Kabupaten Halmahera Selatan, Maluku Utara","Kabupaten Halmahera Selatan, Maluku Utara",MALUKU UTARA,,Indonesia,82336543666.0,0.3496627,127.4369384,https://maps.google.com/?cid=0x0:0xad635311e451cca9
restaurant,Sesuai untuk keluarga,RM. BAKSO MULYO REJEKI,"Kyowor, Kec. Pulau Makian, Makian, Maluku Utara","Makian, Maluku Utara",MALUKU UTARA,,Indonesia,82192999270.0,0.3540951,127.4338391,https://maps.google.com/?cid=0x0:0x193ec62b9eefc05c
restaurant,restaurant,Pulau Makian,"Kabupaten Halmahera Selatan, Maluku Utara","Kabupaten Halmahera Selatan, Maluku Utara",MALUKU UTARA,,Indonesia,,0.3127237,127.4040871,https://maps.google.com/?cid=0x0:0x7d9868f2e9dd90f6
restaurant,Tujuan Wisata,Limau Jiko Eco Culture Resort,"Bobanehena, Kec. Jailolo, Kabupaten Halmahera Barat, Maluku Utara","Kabupaten Halmahera Barat, Maluku Utara",MALUKU UTARA,,Indonesia,82258085588.0,1.051123,127.446605,https://maps.google.com/?cid=0x0:0xbe87d8ffd59d3fd5
restaurant,Tujuan Wisata,Kompleks jojo nobo,"3C2X+VHX, Bobanehena, Kec. Jailolo, Kabupaten Halmahera Barat, Maluku Utara","Kabupaten Halmahera Barat, Maluku Utara",MALUKU UTARA,,Indonesia,,1.0522351,127.4489751,https://maps.google.com/?cid=0x0:0xd872d668ce274f5d
restaurant,restaurant,Kec. Kayoa Bar.,"Kabupaten Halmahera Selatan, Maluku Utara","Kabupaten Halmahera Selatan, Maluku Utara",MALUKU UTARA,,Indonesia,,-0.2310159,127.0981869,https://maps.google.com/?cid=0x0:0x6b6f3901f6430a7f
restaurant,restaurant,Kecamatan Kayoa Selatan,"Kabupaten Halmahera Selatan, Maluku Utara","Kabupaten Halmahera Selatan, Maluku Utara",MALUKU UTARA,,Indonesia,,-0.0404558,127.4257645,https://maps.google.com/?cid=0x0:0x611025dc11fc6411
restaurant,restaurant,Rm.BAROKAH (mbak jawa),"Guruapin, Kec. Kayoa, Kabupaten Halmahera Selatan, Maluku Utara","Kabupaten Halmahera Selatan, Maluku Utara",MALUKU UTARA,,Indonesia,,0.0105922,127.4099191,https://maps.google.com/?cid=0x0:0xe55e136c187500bc
restaurant,Hotel,Rumah eka sayg,"2C66+798, Guruapin, Kec. Kayoa, Kabupaten Halmahera Selatan, Maluku Utara","Kabupaten Halmahera Selatan, Maluku Utara",MALUKU UTARA,,Indonesia,,0.0106578,127.4109679,https://maps.google.com/?cid=0x0:0xfbff5062bc1293a0
restaurant,Hidangan Laut,Rumah Makan Chokent,"P2F6+QJQ, Gamsungi, Kec. Tobelo, Kabupaten Halmahera Utara, Maluku Utara","Kabupaten Halmahera Utara, Maluku Utara",MALUKU UTARA,,Indonesia,85146223636.0,1.7244736,128.0116017,https://maps.google.com/?cid=0x0:0xb2418c82a0f026be
restaurant,restaurant,,,,MALUKU UTARA,,Indonesia,,,,https://maps.google.com/?cid=0x0:0xb2418c82a0f026beu0026onu003dGado-Gadou0026midu003d/g/11dxqjmq9m
restaurant,Restoran,Rumah Makan Waroeng Family,"P2G6+MHJ, Gamsungi, Kec. Tobelo, Kabupaten Halmahera Utara, Maluku Utara","Kabupaten Halmahera Utara, Maluku Utara",MALUKU UTARA,,Indonesia,,1.726702,128.0114052,https://maps.google.com/?cid=0x0:0x74d7f143d284dbc9
restaurant,restaurant,,,,MALUKU UTARA,,Indonesia,,,,https://maps.google.com/?cid=0x0:0xb2418c82a0f026beu0026onu0026midu003d/g/11dxqjmq9m
restaurant,restaurant,Kec. Kayoa Utara,"Kabupaten Halmahera Selatan, Maluku Utara","Kabupaten Halmahera Selatan, Maluku Utara",MALUKU UTARA,,Indonesia,,0.1242204,127.4471181,https://maps.google.com/?cid=0x0:0xd99a2feb58f3015d
restaurant,Hotel,Rumah eka sayg,"2C66+798, Guruapin, Kec. Kayoa, Kabupaten Halmahera Selatan, Maluku Utara","Kabupaten Halmahera Selatan, Maluku Utara",MALUKU UTARA,,Indonesia,,0.0106578,127.4109679,https://maps.google.com/?cid=0x0:0xfbff5062bc1293a0
restaurant,restaurant,Rm.BAROKAH (mbak jawa),"Guruapin, Kec. Kayoa, Kabupaten Halmahera Selatan, Maluku Utara","Kabupaten Halmahera Selatan, Maluku Utara",MALUKU UTARA,,Indonesia,,0.0105922,127.4099191,https://maps.google.com/?cid=0x0:0xe55e136c187500bc
restaurant,Rumah Makan,RM.BERKAH Bacan,"Tomori, Kec. Bacan, Kabupaten Halmahera Selatan, Maluku Utara","Kabupaten Halmahera Selatan, Maluku Utara",MALUKU UTARA,,Indonesia,81244363004.0,-0.6456169,127.4877931,https://maps.google.com/?cid=0x0:0xf0d9b02f6451bce7
restaurant,restaurant,Kec. Bacan Bar. Utara,"Kabupaten Halmahera Selatan, Maluku Utara","Kabupaten Halmahera Selatan, Maluku Utara",MALUKU UTARA,,Indonesia,,-0.348747,127.4004871,https://maps.google.com/?cid=0x0:0x3b3491e8d2fae80
restaurant,Rumah Makan,resto tapping innana,"9F2J+GH5, Mandaong, Kec. Bacan Sel., Kabupaten Halmahera Selatan, Maluku Utara","Kabupaten Halmahera Selatan, Maluku Utara",MALUKU UTARA,,Indonesia,,-0.6487413,127.4814766,https://maps.google.com/?cid=0x0:0x1ccfcd49e60f678b
restaurant,Kedai Kopi,V888,"J86X+3F, Kusubibi, Kec. Bacan Bar., Kabupaten Halmahera Selatan, Maluku Utara","Kabupaten Halmahera Selatan, Maluku Utara",MALUKU UTARA,,Indonesia,,-0.389749,127.3486324,https://maps.google.com/?cid=0x0:0x2cec082ce23de156
restaurant,Rumah Makan,Star Bake Bacan,"9G86+J79, Jl. Raya Babang, Marabose, Kec. Bacan, Kabupaten Halmahera Selatan, Maluku Utara","Kabupaten Halmahera Selatan, Maluku Utara",MALUKU UTARA,,Indonesia,,-0.6334694,127.5107194,https://maps.google.com/?cid=0x0:0xe3f4d88b7bd19491
restaurant,Kedai Kopi,Gersamata2,"J962+QFG, Kusubibi, Kec. Bacan Bar., Kabupaten Halmahera Selatan, Maluku Utara","Kabupaten Halmahera Selatan, Maluku Utara",MALUKU UTARA,,Indonesia,,-0.3880557,127.3511966,https://maps.google.com/?cid=0x0:0x828a35be553f8c95
restaurant,Hidangan Laut,Rumah Makan Chokent,"P2F6+QJQ, Gamsungi, Kec. Tobelo, Kabupaten Halmahera Utara, Maluku Utara","Kabupaten Halmahera Utara, Maluku Utara",MALUKU UTARA,,Indonesia,85146223636.0,1.7244736,128.0116017,https://maps.google.com/?cid=0x0:0xb2418c82a0f026be
restaurant,Kedai Kopi,Warung aca,"J995+GMF, Kusubibi, Kec. Bacan Bar., Kabupaten Halmahera Selatan, Maluku Utara","Kabupaten Halmahera Selatan, Maluku Utara",MALUKU UTARA,,Indonesia,,-0.3811931,127.3591815,https://maps.google.com/?cid=0x0:0x4b93e2db58293612
restaurant,Tujuan Wisata,Limau Jiko Eco Culture Resort,"Bobanehena, Kec. Jailolo, Kabupaten Halmahera Barat, Maluku Utara","Kabupaten Halmahera Barat, Maluku Utara",MALUKU UTARA,,Indonesia,82258085588.0,1.051123,127.446605,https://maps.google.com/?cid=0x0:0xbe87d8ffd59d3fd5
restaurant,,Bualawa Resto,"3C3W+4XM, Bobanehena, Kec. Jailolo, Kabupaten Halmahera Barat, Maluku Utara","Kabupaten Halmahera Barat, Maluku Utara",MALUKU UTARA,,Indonesia,,1.0516385,127.4473055,https://maps.google.com/?cid=0x0:0x1072845be258038f
restaurant,Tujuan Wisata,AS Zero Point,"9F6J+M33, Labuha, Kec. Bacan, Kabupaten Halmahera Selatan, Maluku Utara","Kabupaten Halmahera Selatan, Maluku Utara",MALUKU UTARA,,Indonesia,,-0.638323,127.4800512,https://maps.google.com/?cid=0x0:0x6b9a86f3c180140d
restaurant,restaurant,Kedai Bumi Desa kusubibi,"J83M+R92, Kusubibi, Kec. Bacan Bar., Kabupaten Halmahera Selatan, Maluku Utara","Kabupaten Halmahera Selatan, Maluku Utara",MALUKU UTARA,,Indonesia,,-0.3954813,127.3333887,https://maps.google.com/?cid=0x0:0x5144ff90dd1aa299
restaurant,Rumah Makan,RM APOLLO,"9FCJ+RCF, Jl. Oesman Syah, Tomori, Kec. Bacan, Kabupaten Halmahera Selatan, Maluku Utara","Kabupaten Halmahera Selatan, Maluku Utara",MALUKU UTARA,,Indonesia,81356022995.0,-0.6279337,127.4810391,https://maps.google.com/?cid=0x0:0xb76950edab7734da
restaurant,Hotel,Penginapan Fadil,"9F6J+PHR, Labuha, Kec. Bacan, Kabupaten Halmahera Selatan, Maluku Utara","Kabupaten Halmahera Selatan, Maluku Utara",MALUKU UTARA,,Indonesia,,-0.6381293,127.4814017,https://maps.google.com/?cid=0x0:0x230eab5e6a90aa5a
restaurant,restaurant,Pulau Kasiruta,"Kabupaten Halmahera Selatan, Maluku Utara","Kabupaten Halmahera Selatan, Maluku Utara",MALUKU UTARA,,Indonesia,,-0.3737116,127.1901616,https://maps.google.com/?cid=0x0:0xd2859cd7f8d1404b
restaurant,restaurant,Kec. Kasiruta Bar.,"Kabupaten Halmahera Selatan, Maluku Utara","Kabupaten Halmahera Selatan, Maluku Utara",MALUKU UTARA,,Indonesia,,-0.3806491,127.1198267,https://maps.google.com/?cid=0x0:0xc58e8733bd2d1bfb
restaurant,restaurant,Ruma pak Acho choker,"P6R6+J6X, Tawa Bacan Bar., Kasiruta Tim., Kabupaten Halmahera Selatan, Maluku Utara","Kabupaten Halmahera Selatan, Maluku Utara",MALUKU UTARA,,Indonesia,,-0.258388,127.210607,https://maps.google.com/?cid=0x0:0x387b84027441c2a3
restaurant,restaurant,Ruma pak Acho choker,"P6R6+J6X, Tawa Bacan Bar., Kasiruta Tim., Kabupaten Halmahera Selatan, Maluku Utara","Kabupaten Halmahera Selatan, Maluku Utara",MALUKU UTARA,,Indonesia,,-0.258388,127.210607,https://maps.google.com/?cid=0x0:0x387b84027441c2a3
restaurant,restaurant,Kec. Bacan Sel.,"Kabupaten Halmahera Selatan, Maluku Utara","Kabupaten Halmahera Selatan, Maluku Utara",MALUKU UTARA,,Indonesia,,-0.6527457,127.4833566,https://maps.google.com/?cid=0x0:0xad48e5ee740e417c
restaurant,Rumah Makan,Dapur Alsya Bacan,"Resto/Cafe Dapur Alsya, Samping Jembatan Komjet, Mandaong, Kec. Bacan Sel., Kabupaten Halmahera Selatan, Maluku Utara 97791","Samping Jembatan Komjet, Mandaong, Kec. Bacan Sel., Kabupaten Halmahera Selatan",MALUKU UTARA,97791.0,Indonesia,82391617952.0,-0.6508056,127.4851638,https://maps.google.com/?cid=0x0:0xbb2b08a3c06a1ed0
restaurant,Rumah Makan,RM.BERKAH Bacan,"Tomori, Kec. Bacan, Kabupaten Halmahera Selatan, Maluku Utara","Kabupaten Halmahera Selatan, Maluku Utara",MALUKU UTARA,,Indonesia,81244363004.0,-0.6456169,127.4877931,https://maps.google.com/?cid=0x0:0xf0d9b02f6451bce7
restaurant,Kedai Kopi,Carema Cafe and Resto,"Jl. Raya Mandaong, Pantai, Mandaong, Kec. Bacan Sel., Kabupaten Halmahera Selatan, Maluku Utara 97791","Pantai, Mandaong, Kec. Bacan Sel., Kabupaten Halmahera Selatan",MALUKU UTARA,97791.0,Indonesia,,-0.6487869,127.4783807,https://maps.google.com/?cid=0x0:0x18a48dca73af43da
restaurant,Dapur Umum,Dapoer Opan,"Kupal, Kec. Bacan Sel., Kabupaten Halmahera Selatan, Maluku Utara 97791","Kec. Bacan Sel., Kabupaten Halmahera Selatan",MALUKU UTARA,97791.0,Indonesia,81342933583.0,-0.6750054,127.5028105,https://maps.google.com/?cid=0x0:0xf50d4a506eb6121c
restaurant,Rumah Makan,RM APOLLO,"9FCJ+RCF, Jl. Oesman Syah, Tomori, Kec. Bacan, Kabupaten Halmahera Selatan, Maluku Utara","Kabupaten Halmahera Selatan, Maluku Utara",MALUKU UTARA,,Indonesia,81356022995.0,-0.6279337,127.4810391,https://maps.google.com/?cid=0x0:0xb76950edab7734da
restaurant,Sarapan,Rumah makan malaysia,"Tembal, Kec. Bacan Sel., Kabupaten Halmahera Selatan, Maluku Utara","Kabupaten Halmahera Selatan, Maluku Utara",MALUKU UTARA,,Indonesia,81336262077.0,-0.6573092,127.4785076,https://maps.google.com/?cid=0x0:0x9e68ec8103cf5878
restaurant,Rumah Makan,Warung Makan PakDhe Wanto,"Labuha, Kec. Bacan, Kabupaten Halmahera Selatan, Maluku Utara","Kabupaten Halmahera Selatan, Maluku Utara",MALUKU UTARA,,Indonesia,82225437109.0,-0.642213,127.4911455,https://maps.google.com/?cid=0x0:0x7fe654bf0edbd330
restaurant,Brunch,Basayangang bacan UMKM MILENEAL,"Jl Pantai desa, Tembal, Kec. Bacan Sel., Kabupaten Halmahera Selatan, Maluku Utara 97779","Tembal, Kec. Bacan Sel., Kabupaten Halmahera Selatan",MALUKU UTARA,97779.0,Indonesia,81244252292.0,-0.6576835,127.4784056,https://maps.google.com/?cid=0x0:0xcec3b27395b15bbd
restaurant,Sulawesi Selatan,Coto MAKASSAR PADAIDI,"9F5R+54W, Tomori, Kec. Bacan, Kabupaten Halmahera Selatan, Maluku Utara","Kabupaten Halmahera Selatan, Maluku Utara",MALUKU UTARA,,Indonesia,,-0.6420097,127.4903322,https://maps.google.com/?cid=0x0:0x1c1621e4d8487239
restaurant,Restoran,Dapoer Mama Bacan,"9F5H+GQH, Labuha, Kec. Bacan, Kabupaten Halmahera Selatan, Maluku Utara","Kabupaten Halmahera Selatan, Maluku Utara",MALUKU UTARA,,Indonesia,82347723241.0,-0.6411848,127.4794698,https://maps.google.com/?cid=0x0:0xadd8ce8fa7ea7d14
restaurant,Padang,Pondok makan ILOMATA,"9F6P+FCG, Tomori, Kec. Bacan, Kabupaten Halmahera Selatan, Maluku Utara","Kabupaten Halmahera Selatan, Maluku Utara",MALUKU UTARA,,Indonesia,8534162666.0,-0.6387548,127.4861025,https://maps.google.com/?cid=0x0:0x85ab2c007d40a874
restaurant,Rumah Makan,Rumah Makan Bunga,"Depan Tiki, Jl. Raya Mandaong, Tomori, Kec. Bacan, Kabupaten Halmahera Selatan, Maluku Utara 97791","Jl. Raya Mandaong, Tomori, Kec. Bacan, Kabupaten Halmahera Selatan",MALUKU UTARA,97791.0,Indonesia,81356831883.0,-0.644594,127.488754,https://maps.google.com/?cid=0x0:0x7276736cacaec3b
restaurant,Rumah Makan,RM.RISKI,"9F6P+9M6, Tomori, Kec. Bacan, Kabupaten Halmahera Selatan, Maluku Utara","Kabupaten Halmahera Selatan, Maluku Utara",MALUKU UTARA,,Indonesia,,-0.639078,127.486643,https://maps.google.com/?cid=0x0:0xdab87dbd8d85df6b
restaurant,Rumah Makan,resto tapping innana,"9F2J+GH5, Mandaong, Kec. Bacan Sel., Kabupaten Halmahera Selatan, Maluku Utara","Kabupaten Halmahera Selatan, Maluku Utara",MALUKU UTARA,,Indonesia,,-0.6487413,127.4814766,https://maps.google.com/?cid=0x0:0x1ccfcd49e60f678b
restaurant,restaurant,Kec. Kepulauan Botang Lomang,"Kabupaten Halmahera Selatan, Maluku Utara","Kabupaten Halmahera Selatan, Maluku Utara",MALUKU UTARA,,Indonesia,,-0.6551716,127.3965666,https://maps.google.com/?cid=0x0:0x6b1042a5e2595523
restaurant,restaurant,T.Dirham Resto,"Desa Bajo, Kec. Kep, Bajo, Kec. Kepulauan Botang Lomang, Kabupaten Halmahera Selatan, Maluku Utara 97791","Kec. Kep, Bajo, Kec. Kepulauan Botang Lomang, Kabupaten Halmahera Selatan",MALUKU UTARA,97791.0,Indonesia,81292802317.0,-0.6218979,127.3980053,https://maps.google.com/?cid=0x0:0xe43bc7d6b41a8be0
restaurant,Dapur Umum,Pankalang Galala,"66MX+3MJ, Galala, Kec. Mandioli Sel., Kabupaten Halmahera Selatan, Maluku Utara","Kabupaten Halmahera Selatan, Maluku Utara",MALUKU UTARA,,Indonesia,,-0.7672999,127.2491546,https://maps.google.com/?cid=0x0:0x26309c265931ac10
restaurant,restaurant,Kec. Mandioli Sel.,"Kabupaten Halmahera Selatan, Maluku Utara","Kabupaten Halmahera Selatan, Maluku Utara",MALUKU UTARA,,Indonesia,,-0.7822039,127.2796254,https://maps.google.com/?cid=0x0:0x97b7f19576981b91
restaurant,restaurant,MacDonald's Galala,"66PR+7Q3, Galala, Kec. Mandioli Sel., Kabupaten Halmahera Selatan, Maluku Utara","Kabupaten Halmahera Selatan, Maluku Utara",MALUKU UTARA,,Indonesia,,-0.7643673,127.2419287,https://maps.google.com/?cid=0x0:0x6acbbc5af85d1c89
restaurant,Komplek perumahan,Desa Loleongusu,"96Q8+P3C, Loleongusu, Kec. Mandioli Utara, Kabupaten Halmahera Selatan, Maluku Utara","Kabupaten Halmahera Selatan, Maluku Utara",MALUKU UTARA,,Indonesia,,-0.6106835,127.2151264,https://maps.google.com/?cid=0x0:0x975ba2afb495da09
restaurant,Pembangunan Perumahan,Mandioli Utara,"96Q8+R3F, Loleongusu, Kec. Mandioli Utara, Kabupaten Halmahera Selatan, Maluku Utara","Kabupaten Halmahera Selatan, Maluku Utara",MALUKU UTARA,,Indonesia,81344421908.0,-0.6104327,127.2151696,https://maps.google.com/?cid=0x0:0x97b1e39821278796
restaurant,Pembangunan Perumahan,Mandioli Utara,"96Q8+R3F, Loleongusu, Kec. Mandioli Utara, Kabupaten Halmahera Selatan, Maluku Utara","Kabupaten Halmahera Selatan, Maluku Utara",MALUKU UTARA,,Indonesia,81344421908.0,-0.6104327,127.2151696,https://maps.google.com/?cid=0x0:0x97b1e39821278796
restaurant,Komplek perumahan,Desa Loleongusu,"96Q8+P3C, Loleongusu, Kec. Mandioli Utara, Kabupaten Halmahera Selatan, Maluku Utara","Kabupaten Halmahera Selatan, Maluku Utara",MALUKU UTARA,,Indonesia,,-0.6106835,127.2151264,https://maps.google.com/?cid=0x0:0x975ba2afb495da09
restaurant,Kedai Kopi,Carema Cafe and Resto,"Jl. Raya Mandaong, Pantai, Mandaong, Kec. Bacan Sel., Kabupaten Halmahera Selatan, Maluku Utara 97791","Pantai, Mandaong, Kec. Bacan Sel., Kabupaten Halmahera Selatan",MALUKU UTARA,97791.0,Indonesia,,-0.6487869,127.4783807,https://maps.google.com/?cid=0x0:0x18a48dca73af43da
restaurant,restaurant,Kec. Bacan Tim. Sel.,"Kabupaten Halmahera Selatan, Maluku Utara","Kabupaten Halmahera Selatan, Maluku Utara",MALUKU UTARA,,Indonesia,,-0.8138816,127.872846,https://maps.google.com/?cid=0x0:0x10b732e030ec504d
restaurant,Bakso,Rm sido mampir,"9J93+HQM, Unnamed Road, Babang, Kec. Bacan Tim., Kabupaten Halmahera Selatan, Maluku Utara","Kabupaten Halmahera Selatan, Maluku Utara",MALUKU UTARA,,Indonesia,,-0.6310435,127.6044156,https://maps.google.com/?cid=0x0:0xd13f8ead0168d84
restaurant,Dapur Umum,Dapoer Opan,"Kupal, Kec. Bacan Sel., Kabupaten Halmahera Selatan, Maluku Utara 97791","Kec. Bacan Sel., Kabupaten Halmahera Selatan",MALUKU UTARA,97791.0,Indonesia,81342933583.0,-0.6750054,127.5028105,https://maps.google.com/?cid=0x0:0xf50d4a506eb6121c
restaurant,Rumah Makan,Dapur Alsya Bacan,"Resto/Cafe Dapur Alsya, Samping Jembatan Komjet, Mandaong, Kec. Bacan Sel., Kabupaten Halmahera Selatan, Maluku Utara 97791","Samping Jembatan Komjet, Mandaong, Kec. Bacan Sel., Kabupaten Halmahera Selatan",MALUKU UTARA,97791.0,Indonesia,82391617952.0,-0.6508056,127.4851638,https://maps.google.com/?cid=0x0:0xbb2b08a3c06a1ed0
restaurant,Restoran,Warung Makan Arema,"9HC2+V3G, Tim.,, Wayamiga, Kec. Bacan Tim., Kabupaten Halmahera Selatan, Maluku Utara","Kabupaten Halmahera Selatan, Maluku Utara",MALUKU UTARA,,Indonesia,81340147545.0,-0.6278175,127.550205,https://maps.google.com/?cid=0x0:0x4696ca072639abf
restaurant,Jawa,RM. MAMA EKO,"7J4W+5G4, Wayaua, Kec. Bacan Tim. Sel., Kabupaten Halmahera Selatan, Maluku Utara","Kabupaten Halmahera Selatan, Maluku Utara",MALUKU UTARA,,Indonesia,81244243614.0,-0.7446224,127.6463292,https://maps.google.com/?cid=0x0:0x20110ddf693837b1
restaurant,Rumah Makan,Rumah Makan Bunga,"Depan Tiki, Jl. Raya Mandaong, Tomori, Kec. Bacan, Kabupaten Halmahera Selatan, Maluku Utara 97791","Jl. Raya Mandaong, Tomori, Kec. Bacan, Kabupaten Halmahera Selatan",MALUKU UTARA,97791.0,Indonesia,81356831883.0,-0.644594,127.488754,https://maps.google.com/?cid=0x0:0x7276736cacaec3b
restaurant,Rumah Makan,Warung Tiga Jaya,"9FCJ+PFC, Labuha, Kec. Bacan, Kabupaten Halmahera Selatan, Maluku Utara","Kabupaten Halmahera Selatan, Maluku Utara",MALUKU UTARA,,Indonesia,,-0.6281899,127.4811355,https://maps.google.com/?cid=0x0:0xa03cfc722a0e351d
restaurant,Rumah Makan,RM.RISKI,"9F6P+9M6, Tomori, Kec. Bacan, Kabupaten Halmahera Selatan, Maluku Utara","Kabupaten Halmahera Selatan, Maluku Utara",MALUKU UTARA,,Indonesia,,-0.639078,127.486643,https://maps.google.com/?cid=0x0:0xdab87dbd8d85df6b
restaurant,Sarapan,Rumah makan malaysia,"Tembal, Kec. Bacan Sel., Kabupaten Halmahera Selatan, Maluku Utara","Kabupaten Halmahera Selatan, Maluku Utara",MALUKU UTARA,,Indonesia,81336262077.0,-0.6573092,127.4785076,https://maps.google.com/?cid=0x0:0x9e68ec8103cf5878
restaurant,Rumah Makan,RM APOLLO,"9FCJ+RCF, Jl. Oesman Syah, Tomori, Kec. Bacan, Kabupaten Halmahera Selatan, Maluku Utara","Kabupaten Halmahera Selatan, Maluku Utara",MALUKU UTARA,,Indonesia,81356022995.0,-0.6279337,127.4810391,https://maps.google.com/?cid=0x0:0xb76950edab7734da
restaurant,Sulawesi Selatan,Coto MAKASSAR PADAIDI,"9F5R+54W, Tomori, Kec. Bacan, Kabupaten Halmahera Selatan, Maluku Utara","Kabupaten Halmahera Selatan, Maluku Utara",MALUKU UTARA,,Indonesia,,-0.6420097,127.4903322,https://maps.google.com/?cid=0x0:0x1c1621e4d8487239
restaurant,Sesuai untuk keluarga,RUMAH MAKAN NAZWA SAFITRY,"Pantai Mongga, Kec. Bacan, Kabupaten Halmahera Selatan, Maluku Utara 97791","Kec. Bacan, Kabupaten Halmahera Selatan",MALUKU UTARA,97791.0,Indonesia,82196666556.0,-0.6418217,127.4789525,https://maps.google.com/?cid=0x0:0x79f770f31a03cc09
restaurant,Bakso,Rm sido mampir,"9J93+HQM, Unnamed Road, Babang, Kec. Bacan Tim., Kabupaten Halmahera Selatan, Maluku Utara","Kabupaten Halmahera Selatan, Maluku Utara",MALUKU UTARA,,Indonesia,,-0.6310435,127.6044156,https://maps.google.com/?cid=0x0:0xd13f8ead0168d84
restaurant,restaurant,Kec. Bacan Tim. Tengah,"Kabupaten Halmahera Selatan, Maluku Utara","Kabupaten Halmahera Selatan, Maluku Utara",MALUKU UTARA,,Indonesia,,-0.6921114,127.7318506,https://maps.google.com/?cid=0x0:0xc2cd01a3dd86df14
restaurant,Rumah Makan,Dermaga Biru (DERBI),"9J96+GHF, Babang, Kec. Bacan Tim., Kabupaten Halmahera Selatan, Maluku Utara","Kabupaten Halmahera Selatan, Maluku Utara",MALUKU UTARA,,Indonesia,,-0.6311928,127.611414,https://maps.google.com/?cid=0x0:0x30ad56cd27029fe0
restaurant,Rumah Makan,RM.BERKAH Bacan,"Tomori, Kec. Bacan, Kabupaten Halmahera Selatan, Maluku Utara","Kabupaten Halmahera Selatan, Maluku Utara",MALUKU UTARA,,Indonesia,81244363004.0,-0.6456169,127.4877931,https://maps.google.com/?cid=0x0:0xf0d9b02f6451bce7
restaurant,Padang,RM. PADANG DUA PUTRI,"9JC2+J33, Jalan Raya Labuha, Babang, Bacan Timur, South Halmahera Regency, North Maluku 97791","Jalan Raya Labuha, Babang, Bacan Timur, South Halmahera Regency",MALUKU UTARA,97791.0,Indonesia,81242414188.0,-0.628495,127.6001839,https://maps.google.com/?cid=0x0:0x74568d6f39d1d3d7
restaurant,Indonesia,Kios vandi,"9H9W+R8H, Unnamed Road, Babang, Kec. Bacan Tim., Kabupaten Halmahera Selatan, Maluku Utara","Kabupaten Halmahera Selatan, Maluku Utara",MALUKU UTARA,,Indonesia,,-0.630448,127.595867,https://maps.google.com/?cid=0x0:0x21c9d765555fe18d
restaurant,Rumah Makan,Dapur Alsya Bacan,"Resto/Cafe Dapur Alsya, Samping Jembatan Komjet, Mandaong, Kec. Bacan Sel., Kabupaten Halmahera Selatan, Maluku Utara 97791","Samping Jembatan Komjet, Mandaong, Kec. Bacan Sel., Kabupaten Halmahera Selatan",MALUKU UTARA,97791.0,Indonesia,82391617952.0,-0.6508056,127.4851638,https://maps.google.com/?cid=0x0:0xbb2b08a3c06a1ed0
restaurant,Dapur Umum,Dapoer Opan,"Kupal, Kec. Bacan Sel., Kabupaten Halmahera Selatan, Maluku Utara 97791","Kec. Bacan Sel., Kabupaten Halmahera Selatan",MALUKU UTARA,97791.0,Indonesia,81342933583.0,-0.6750054,127.5028105,https://maps.google.com/?cid=0x0:0xf50d4a506eb6121c
restaurant,Rumah Makan,Warung Tiga Jaya,"9FCJ+PFC, Labuha, Kec. Bacan, Kabupaten Halmahera Selatan, Maluku Utara","Kabupaten Halmahera Selatan, Maluku Utara",MALUKU UTARA,,Indonesia,,-0.6281899,127.4811355,https://maps.google.com/?cid=0x0:0xa03cfc722a0e351d
restaurant,Sarapan,Rumah makan malaysia,"Tembal, Kec. Bacan Sel., Kabupaten Halmahera Selatan, Maluku Utara","Kabupaten Halmahera Selatan, Maluku Utara",MALUKU UTARA,,Indonesia,81336262077.0,-0.6573092,127.4785076,https://maps.google.com/?cid=0x0:0x9e68ec8103cf5878
restaurant,Rumah Makan,RM APOLLO,"9FCJ+RCF, Jl. Oesman Syah, Tomori, Kec. Bacan, Kabupaten Halmahera Selatan, Maluku Utara","Kabupaten Halmahera Selatan, Maluku Utara",MALUKU UTARA,,Indonesia,81356022995.0,-0.6279337,127.4810391,https://maps.google.com/?cid=0x0:0xb76950edab7734da
restaurant,Indonesia,RM Makan Anungrah,"Babang, Kec. Bacan Tim., Kabupaten Halmahera Selatan, Maluku Utara","Kabupaten Halmahera Selatan, Maluku Utara",MALUKU UTARA,,Indonesia,,-0.6266714,127.6034422,https://maps.google.com/?cid=0x0:0x62ed9bd89b0b4d8f
restaurant,Padang,RM ALFAREZI,"Jl. Pelabuhan Babang No.Depan, Babang, Kec. Bacan Tim., Kabupaten Halmahera Selatan, Maluku Utara 97791","Babang, Kec. Bacan Tim., Kabupaten Halmahera Selatan",MALUKU UTARA,97791.0,Indonesia,81342549472.0,-0.6268986,127.6035245,https://maps.google.com/?cid=0x0:0x625d1313f0fa8e56
restaurant,Restoran,Warung Makan Arema,"9HC2+V3G, Tim.,, Wayamiga, Kec. Bacan Tim., Kabupaten Halmahera Selatan, Maluku Utara","Kabupaten Halmahera Selatan, Maluku Utara",MALUKU UTARA,,Indonesia,81340147545.0,-0.6278175,127.550205,https://maps.google.com/?cid=0x0:0x4696ca072639abf
restaurant,restaurant,Kec. Gane Bar. Sel.,"Kabupaten Halmahera Selatan, Maluku Utara","Kabupaten Halmahera Selatan, Maluku Utara",MALUKU UTARA,,Indonesia,,-0.762002,128.203222,https://maps.google.com/?cid=0x0:0x53c8be4d55503c6d
restaurant,Hidangan Laut,SMORGAN Resto,"PXJV+JGQ, Jl. Pemerintahan, depan KODIM, Halut, Mkcm, Tobelo, North Halmahera Regency, North Maluku","Kabupaten Halmahera Utara, Maluku Utara",MALUKU UTARA,,Indonesia,85201115150.0,1.7315784,127.9938588,https://maps.google.com/?cid=0x0:0xd45d6fcd651f0c5c
restaurant,Rumah Makan,resto tapping innana,"9F2J+GH5, Mandaong, Kec. Bacan Sel., Kabupaten Halmahera Selatan, Maluku Utara","Kabupaten Halmahera Selatan, Maluku Utara",MALUKU UTARA,,Indonesia,,-0.6487413,127.4814766,https://maps.google.com/?cid=0x0:0x1ccfcd49e60f678b
restaurant,Tujuan Wisata,Limau Jiko Eco Culture Resort,"Bobanehena, Kec. Jailolo, Kabupaten Halmahera Barat, Maluku Utara","Kabupaten Halmahera Barat, Maluku Utara",MALUKU UTARA,,Indonesia,82258085588.0,1.051123,127.446605,https://maps.google.com/?cid=0x0:0xbe87d8ffd59d3fd5
restaurant,Pusat Perbelanjaan,pasar lama komplexpagmabo,"9JC3+QRF, Babang, Kec. Bacan Tim., Kabupaten Halmahera Selatan, Maluku Utara","Kabupaten Halmahera Selatan, Maluku Utara",MALUKU UTARA,,Indonesia,,-0.628061,127.6045451,https://maps.google.com/?cid=0x0:0xbd4e097cb47c754b
restaurant,Kedai Kopi,Lemo-lemo,"83Q3+P2W, Lemo Lemo, Kec. Gane Bar., Kabupaten Halmahera Selatan, Maluku Utara","Kabupaten Halmahera Selatan, Maluku Utara",MALUKU UTARA,,Indonesia,82187593688.0,-0.6606259,128.0525654,https://maps.google.com/?cid=0x0:0xf753f67d428ec720
restaurant,restaurant,Kec. Gane Bar. Utara,"Kabupaten Halmahera Selatan, Maluku Utara","Kabupaten Halmahera Selatan, Maluku Utara",MALUKU UTARA,,Indonesia,,-0.2711433,127.6958246,https://maps.google.com/?cid=0x0:0x99a01612ac04691e
restaurant,Toko bahan makanan,Lapak JALLO,"2VXR+M7C, Maffa, Kec. Gane Tim., Kabupaten Halmahera Selatan, Maluku Utara","Kabupaten Halmahera Selatan, Maluku Utara",MALUKU UTARA,,Indonesia,,0.0487991,127.8907933,https://maps.google.com/?cid=0x0:0x15de021f57028ea3
restaurant,Hidangan Laut,SMORGAN Resto,"PXJV+JGQ, Jl. Pemerintahan, depan KODIM, Halut, Mkcm, Tobelo, North Halmahera Regency, North Maluku","Kabupaten Halmahera Utara, Maluku Utara",MALUKU UTARA,,Indonesia,85201115150.0,1.7315784,127.9938588,https://maps.google.com/?cid=0x0:0xd45d6fcd651f0c5c
restaurant,restaurant,RESTO GABA,"4J24+5J7, Perun Gpa, Ngijo, Jailolo, Kabupaten Halmahera Barat, Maluku Utara","Kabupaten Halmahera Barat, Maluku Utara",MALUKU UTARA,,Indonesia,82191805211.0,-7.8995802,112.6065318,https://maps.google.com/?cid=0x0:0x4f5e25a32fa5c5b8
restaurant,Hidangan Laut,Rumah Makan Chokent,"P2F6+QJQ, Gamsungi, Kec. Tobelo, Kabupaten Halmahera Utara, Maluku Utara","Kabupaten Halmahera Utara, Maluku Utara",MALUKU UTARA,,Indonesia,85146223636.0,1.7244736,128.0116017,https://maps.google.com/?cid=0x0:0xb2418c82a0f026be
restaurant,,Bualawa Resto,"3C3W+4XM, Bobanehena, Kec. Jailolo, Kabupaten Halmahera Barat, Maluku Utara","Kabupaten Halmahera Barat, Maluku Utara",MALUKU UTARA,,Indonesia,,1.0516385,127.4473055,https://maps.google.com/?cid=0x0:0x1072845be258038f
restaurant,Tujuan Wisata,Limau Jiko Eco Culture Resort,"Bobanehena, Kec. Jailolo, Kabupaten Halmahera Barat, Maluku Utara","Kabupaten Halmahera Barat, Maluku Utara",MALUKU UTARA,,Indonesia,82258085588.0,1.051123,127.446605,https://maps.google.com/?cid=0x0:0xbe87d8ffd59d3fd5
restaurant,Rumah Makan,resto tapping innana,"9F2J+GH5, Mandaong, Kec. Bacan Sel., Kabupaten Halmahera Selatan, Maluku Utara","Kabupaten Halmahera Selatan, Maluku Utara",MALUKU UTARA,,Indonesia,,-0.6487413,127.4814766,https://maps.google.com/?cid=0x0:0x1ccfcd49e60f678b
restaurant,restaurant,Gumira,"Kec. Gane Bar. Utara, Kabupaten Halmahera Selatan, Maluku Utara","Kabupaten Halmahera Selatan, Maluku Utara",MALUKU UTARA,,Indonesia,,-0.0368875,127.7556556,https://maps.google.com/?cid=0x0:0x855c58b7ac58d274
restaurant,Restoran,Royal's Resto  Function Hall,"Q9QM+GMJ, Jalan Branjangan, Santiong, Ternate Tengah, Kalumpang, Kec. Ternate Tengah, Kota Ternate, Maluku Utara","Kota Ternate, Maluku Utara",MALUKU UTARA,,Indonesia,9213122333.0,0.7888473,127.3841502,https://maps.google.com/?cid=0x0:0x2e13a20e470af244
restaurant,Rumah Makan,Kedai Dela,"2VRQ+W66, Waimili, Kec. Gane Tim., Kabupaten Halmahera Selatan, Maluku Utara","Kabupaten Halmahera Selatan, Maluku Utara",MALUKU UTARA,,Indonesia,,0.0424189,127.887972,https://maps.google.com/?cid=0x0:0x79049e03ff7070ad
restaurant,Restoran,Grand Fatmah MyResto,"Tabahawa, Moya, Kec. Ternate Tengah, Kota Ternate, Maluku Utara 97723","Moya, Kec. Ternate Tengah, Kota Ternate",MALUKU UTARA,97723.0,Indonesia,,0.800034,127.3707126,https://maps.google.com/?cid=0x0:0xfef5142eb63904c7
restaurant,restaurant,Pulau Joronga,"Kec. Kepulauan Joronga, Kabupaten Halmahera Selatan, Maluku Utara","Kabupaten Halmahera Selatan, Maluku Utara",MALUKU UTARA,,Indonesia,,-1.0939334,128.3692495,https://maps.google.com/?cid=0x0:0xcc70cd24bdde223b
restaurant,restaurant,resort widi,"CC4C+C67, Pulau, Kec. Gane Tim. Sel., Kabupaten Halmahera Selatan, Maluku Utara","Kabupaten Halmahera Selatan, Maluku Utara",MALUKU UTARA,,Indonesia,85340343030.0,-0.5939676,128.420542,https://maps.google.com/?cid=0x0:0xf417b15a298a652f
restaurant,Kedai Kopi,Lemo-lemo,"83Q3+P2W, Lemo Lemo, Kec. Gane Bar., Kabupaten Halmahera Selatan, Maluku Utara","Kabupaten Halmahera Selatan, Maluku Utara",MALUKU UTARA,,Indonesia,82187593688.0,-0.6606259,128.0525654,https://maps.google.com/?cid=0x0:0xf753f67d428ec720
restaurant,restaurant,Warung ibu suyatni,"XVHW+P9, Bukit Raya, Kec. Gane Tim., Kabupaten Halmahera Selatan, Maluku Utara","Kabupaten Halmahera Selatan, Maluku Utara",MALUKU UTARA,,Indonesia,,-0.0206989,127.8959039,https://maps.google.com/?cid=0x0:0xa0b956e88b60aa8e
restaurant,restaurant,Kec. Gane Tim. Tengah,"Kabupaten Halmahera Selatan, Maluku Utara","Kabupaten Halmahera Selatan, Maluku Utara",MALUKU UTARA,,Indonesia,,-0.4042848,128.027071,https://maps.google.com/?cid=0x0:0x4f9ff030214dfb8c
restaurant,Rumah Makan,RUMAH MAKAN PADAIDI,"M2G8+73, Matuting, Kec. Gane Tim. Tengah, Kabupaten Halmahera Selatan, Maluku Utara","Kabupaten Halmahera Selatan, Maluku Utara",MALUKU UTARA,,Indonesia,,-0.3252143,128.0154648,https://maps.google.com/?cid=0x0:0x8cdc592214d27575
restaurant,Sesuai untuk keluarga,RM GUDANG RASA,"M2F8+PFX, Matuting, Kec. Gane Tim. Tengah, Kabupaten Halmahera Selatan, Maluku Utara","Kabupaten Halmahera Selatan, Maluku Utara",MALUKU UTARA,,Indonesia,,-0.3260328,128.0156826,https://maps.google.com/?cid=0x0:0x6d4b6f7add89a40f
restaurant,Makanan Kecil,Bakso Arema Pulau Obi,"MJ7Q+X6F, Unnamed Road, Laiwui, Kec. Obi, Kabupaten Halmahera Selatan, Maluku Utara","Kabupaten Halmahera Selatan, Maluku Utara",MALUKU UTARA,,Indonesia,81244375915.0,-1.3350513,127.6380373,https://maps.google.com/?cid=0x0:0x6c63307719fe1767
restaurant,Bakso,Warung Bakso Aqila Madapolo Timur,"PMRC+W6W, Madapolo Tim., Kec. Obi Utara, Kabupaten Halmahera Selatan, Maluku Utara","Kabupaten Halmahera Selatan, Maluku Utara",MALUKU UTARA,,Indonesia,,-1.257633,127.670589,https://maps.google.com/?cid=0x0:0xf87994d81ba7b7e2
restaurant,restaurant,Kec. Obi Bar.,"Kabupaten Halmahera Selatan, Maluku Utara","Kabupaten Halmahera Selatan, Maluku Utara",MALUKU UTARA,,Indonesia,,-1.3895849,127.338527,https://maps.google.com/?cid=0x0:0xaed606505850254d
restaurant,Warnet,Warnepy.net,"J85Q+Q93, Jikohay, Kec. Obi Bar., Kabupaten Halmahera Selatan, Maluku Utara","Kabupaten Halmahera Selatan, Maluku Utara",MALUKU UTARA,,Indonesia,,-1.3903861,127.3393044,https://maps.google.com/?cid=0x0:0x57b83189e4bcbc6a
restaurant,restaurant,Kec. Obi Tim.,"Kabupaten Halmahera Selatan, Maluku Utara","Kabupaten Halmahera Selatan, Maluku Utara",MALUKU UTARA,,Indonesia,,-1.4918907,127.9813554,https://maps.google.com/?cid=0x0:0xffcda0a454872d5e
restaurant,Padang,RM. Lamongan,"MM54+23P, Kompleks Pelabuhan, Laiwui, Obi, South Halmahera Regency, North Maluku","Kabupaten Halmahera Selatan, Maluku Utara",MALUKU UTARA,,Indonesia,,-1.342417,127.6551988,https://maps.google.com/?cid=0x0:0xfb3b1db4085bdb8
restaurant,Sunda,"RM Tiga Putra, Coto Makassar","MJ8R+4H4, Laiwui, Kec. Obi, Kabupaten Halmahera Selatan, Maluku Utara","Kabupaten Halmahera Selatan, Maluku Utara",MALUKU UTARA,,Indonesia,,-1.3347293,127.641451,https://maps.google.com/?cid=0x0:0xa75d4ab5690f9388
restaurant,Tujuan Wisata,pulau indonesia,"HM9W+VV7, Sambiki, Kec. Obi, Kabupaten Halmahera Selatan, Maluku Utara","Kabupaten Halmahera Selatan, Maluku Utara",MALUKU UTARA,,Indonesia,,-1.4303355,127.6971835,https://maps.google.com/?cid=0x0:0xf77ca68aa54db1e9
restaurant,Dapur Umum,DEPOT 3 PUTRI,"7XWV+P2Q, Wooi, Kec. Obi Tim., Kabupaten Halmahera Selatan, Maluku Utara","Kabupaten Halmahera Selatan, Maluku Utara",MALUKU UTARA,,Indonesia,,-1.7031748,127.9926247,https://maps.google.com/?cid=0x0:0xaed3fcee571143b5
restaurant,Makanan Kecil,Bakso Arema Pulau Obi,"MJ7Q+X6F, Unnamed Road, Laiwui, Kec. Obi, Kabupaten Halmahera Selatan, Maluku Utara","Kabupaten Halmahera Selatan, Maluku Utara",MALUKU UTARA,,Indonesia,81244375915.0,-1.3350513,127.6380373,https://maps.google.com/?cid=0x0:0x6c63307719fe1767
restaurant,restaurant,Depot Moroseneng,"MJ8Q+2G3, Unnamed Road, Laiwui, Kec. Obi, Kabupaten Halmahera Selatan, Maluku Utara","Kabupaten Halmahera Selatan, Maluku Utara",MALUKU UTARA,,Indonesia,,-1.3349991,127.6387977,https://maps.google.com/?cid=0x0:0x9adb018087b6ea4e
restaurant,restaurant,Rumah Makan Kopi Ambon,"FPQF+JGJ, Anggai, Kec. Obi, Kabupaten Halmahera Selatan, Maluku Utara","Kabupaten Halmahera Selatan, Maluku Utara",MALUKU UTARA,,Indonesia,,-1.5109015,127.7237678,https://maps.google.com/?cid=0x0:0xbd74737694222dca
restaurant,restaurant,Kec. Obi Utara,"Kabupaten Halmahera Selatan, Maluku Utara","Kabupaten Halmahera Selatan, Maluku Utara",MALUKU UTARA,,Indonesia,,-1.2239003,127.6485589,https://maps.google.com/?cid=0x0:0x14425d7651bc8346
restaurant,Otoritas Pelabuhan,Pasar Pelabuhan Jojame,"QHQX+W7J, Waringi, Kec. Obi Utara, Kabupaten Halmahera Selatan, Maluku Utara","Kabupaten Halmahera Selatan, Maluku Utara",MALUKU UTARA,,Indonesia,,-1.2101725,127.5981445,https://maps.google.com/?cid=0x0:0xf35f3d3acb9d532d
restaurant,Dapur Umum,Komplek junait,"QFPR+QJR, Cap, Kec. Obi Utara, Kabupaten Halmahera Selatan, Maluku Utara","Kabupaten Halmahera Selatan, Maluku Utara",MALUKU UTARA,,Indonesia,,-1.2130337,127.4915396,https://maps.google.com/?cid=0x0:0x5ed3f7cc4f52c3c8
restaurant,Hidangan Laut,SMORGAN Resto,"PXJV+JGQ, Jl. Pemerintahan, depan KODIM, Halut, Mkcm, Tobelo, North Halmahera Regency, North Maluku","Kabupaten Halmahera Utara, Maluku Utara",MALUKU UTARA,,Indonesia,85201115150.0,1.7315784,127.9938588,https://maps.google.com/?cid=0x0:0xd45d6fcd651f0c5c
restaurant,Bakso,Lavenjer,"QJ6V+R3C, Madapolo, Kec. Obi Utara, Kabupaten Halmahera Selatan, Maluku Utara","Kabupaten Halmahera Selatan, Maluku Utara",MALUKU UTARA,,Indonesia,,-1.237948,127.6426538,https://maps.google.com/?cid=0x0:0xe204c9845f055862
restaurant,Hidangan Laut,Rumah Makan Chokent,"P2F6+QJQ, Gamsungi, Kec. Tobelo, Kabupaten Halmahera Utara, Maluku Utara","Kabupaten Halmahera Utara, Maluku Utara",MALUKU UTARA,,Indonesia,85146223636.0,1.7244736,128.0116017,https://maps.google.com/?cid=0x0:0xb2418c82a0f026be
restaurant,Toko umum,Kios Naila,"QJGW+GX7, Madapolo Bar., Kec. Obi Utara, Kabupaten Halmahera Selatan, Maluku Utara","Kabupaten Halmahera Selatan, Maluku Utara",MALUKU UTARA,,Indonesia,,-1.2236892,127.647418,https://maps.google.com/?cid=0x0:0xbcee98ad0079b3cb
restaurant,Bakso,Warung Bakso Aqila Madapolo Timur,"PMRC+W6W, Madapolo Tim., Kec. Obi Utara, Kabupaten Halmahera Selatan, Maluku Utara","Kabupaten Halmahera Selatan, Maluku Utara",MALUKU UTARA,,Indonesia,,-1.257633,127.670589,https://maps.google.com/?cid=0x0:0xf87994d81ba7b7e2
restaurant,,Bualawa Resto,"3C3W+4XM, Bobanehena, Kec. Jailolo, Kabupaten Halmahera Barat, Maluku Utara","Kabupaten Halmahera Barat, Maluku Utara",MALUKU UTARA,,Indonesia,,1.0516385,127.4473055,https://maps.google.com/?cid=0x0:0x1072845be258038f
restaurant,Toko,Firdaus muhamadia,"QMF4+C5R, Madapolo Tim., Kec. Obi Utara, Kabupaten Halmahera Selatan, Maluku Utara","Kabupaten Halmahera Selatan, Maluku Utara",MALUKU UTARA,,Indonesia,,-1.2263794,127.6553801,https://maps.google.com/?cid=0x0:0x3a332ed92cd9f7d3
