Category,Real Category,Business Name,Address,City,State,Postal Code,Country,Phone,Latitude,Longitude,Map Link
mall,Toko,Toko Ifha,"2C56+X9Q, Guruapin, Kec. Kayoa, Kabupaten Halmahera Selatan, Maluku Utara","Kabupaten Halmahera Selatan, Maluku Utara",MALUKU UTARA,,Indonesia,82349500085.0,0.00996,127.4109712,https://maps.google.com/?cid=0x0:0x11dd3c7186859fe7
mall,Pasar,Toko lompobattang,"XC5G+RPW, Unnamed Road, Laluin, Kecamatan Kayoa Selatan, Kabupaten Halmahera Selatan, Maluku Utara","Kabupaten Halmahera Selatan, Maluku Utara",MALUKU UTARA,,Indonesia,82290787772.0,-0.0403751,127.4268151,https://maps.google.com/?cid=0x0:0x119752b1bad7c28d
mall,mall,Kecamatan Kayoa Selatan,"Kabupaten Halmahera Selatan, Maluku Utara","Kabupaten Halmahera Selatan, Maluku Utara",MALUKU UTARA,,Indonesia,,-0.0404558,127.4257645,https://maps.google.com/?cid=0x0:0x611025dc11fc6411
mall,Kantor Pemerintahan Wilayah,Makayoa Barat,"V6M2+VWP, Unnamed Road, Kida, Kec. Kayoa, Kabupaten Halmahera Selatan, Maluku Utara","Kabupaten Halmahera Selatan, Maluku Utara",MALUKU UTARA,,Indonesia,85255888675.0,-0.1152984,127.2023292,https://maps.google.com/?cid=0x0:0xe107be87b0afb6f4
mall,mall,Foto Copy Kayla,"2C66+37W, jl garuda, Guruapin, Kec. Kayoa, Kabupaten Halmahera Selatan, Maluku Utara","Kabupaten Halmahera Selatan, Maluku Utara",MALUKU UTARA,,Indonesia,,0.0102292,127.4106948,https://maps.google.com/?cid=0x0:0x44b0c7139c1fa6d6
mall,Kantor Pemerintahan Wilayah,Kantor Kecamatan Gane Timur Selatan,"76V9+WMM, Gane Luar, Kec. Gane Tim. Sel., Kabupaten Halmahera Selatan, Maluku Utara","Kabupaten Halmahera Selatan, Maluku Utara",MALUKU UTARA,,Indonesia,,-0.7051588,128.2191793,https://maps.google.com/?cid=0x0:0x57b633b7178ac105
mall,Kantor Perusahaan,Kecamatan gane timur Halmahera Selatan,"76W9+4MV, Gane Luar, Kec. Gane Tim. Sel., Kabupaten Halmahera Selatan, Maluku Utara","Kabupaten Halmahera Selatan, Maluku Utara",MALUKU UTARA,,Indonesia,,-0.7046284,128.219161,https://maps.google.com/?cid=0x0:0x30f91c1aee69ab90
mall,Pusat Perbelanjaan,TOKO HASRAT,"5R2H+7CV, Ngofagita, Kec. Malifut, Kabupaten Halmahera Utara, Maluku Utara","Kabupaten Halmahera Utara, Maluku Utara",MALUKU UTARA,,Indonesia,81241037853.0,1.1507294,127.8285493,https://maps.google.com/?cid=0x0:0xce49c48b452bf42d
mall,mall,Kec. Gane Bar. Sel.,"Kabupaten Halmahera Selatan, Maluku Utara","Kabupaten Halmahera Selatan, Maluku Utara",MALUKU UTARA,,Indonesia,,-0.762002,128.203222,https://maps.google.com/?cid=0x0:0x53c8be4d55503c6d
mall,Pusat Perbelanjaan,Toko Anizah,"5R2F+JH3, Matsa, Kec. Malifut, Kabupaten Halmahera Utara, Maluku Utara","Kabupaten Halmahera Utara, Maluku Utara",MALUKU UTARA,,Indonesia,,1.1515078,127.8239275,https://maps.google.com/?cid=0x0:0x85d2d59d60e0c3e7
mall,Toko,Tomori,"FPQF+JGJ, Anggai, Kec. Obi, Kabupaten Halmahera Selatan, Maluku Utara","Kabupaten Halmahera Selatan, Maluku Utara",MALUKU UTARA,,Indonesia,,-1.5109015,127.7237678,https://maps.google.com/?cid=0x0:0xf15036bbaf1063b2
mall,Toko,Mawar colection,"FPQF+JGJ, Anggai, Kec. Obi, Kabupaten Halmahera Selatan, Maluku Utara","Kabupaten Halmahera Selatan, Maluku Utara",MALUKU UTARA,,Indonesia,,-1.5109015,127.7237678,https://maps.google.com/?cid=0x0:0x560d1e5a0b934ddb
mall,Pusat Perbelanjaan,Foodmart Supermarket HPAL,"FC84+2W3, Kawasi, Kec. Obi, Kabupaten Halmahera Selatan, Maluku Utara","Kabupaten Halmahera Selatan, Maluku Utara",MALUKU UTARA,,Indonesia,,-1.5349881,127.4072862,https://maps.google.com/?cid=0x0:0xdc291ea06f8d91fb
mall,Pusat Perbelanjaan,Food Mart Supermarket,"CCVH+QCF, Kawasi, Kec. Obi, Kabupaten Halmahera Selatan, Maluku Utara","Kabupaten Halmahera Selatan, Maluku Utara",MALUKU UTARA,,Indonesia,,-1.5555404,127.4285828,https://maps.google.com/?cid=0x0:0x146e9c10b6cd5fca
mall,Biro Informasi Warga,Herman Digital Copy,"Kawasi, Kec. Obi, Kabupaten Halmahera Selatan, Maluku Utara","Kabupaten Halmahera Selatan, Maluku Utara",MALUKU UTARA,,Indonesia,81251925484.0,-1.5435529,127.4102344,https://maps.google.com/?cid=0x0:0xfbebe74ac75b0835
mall,Pusat Perbelanjaan,Toko Anugerah,"CCX6+VMF, Kawasi, Kec. Obi, Kabupaten Halmahera Selatan, Maluku Utara","Kabupaten Halmahera Selatan, Maluku Utara",MALUKU UTARA,,Indonesia,82196815252.0,-1.5503225,127.4116643,https://maps.google.com/?cid=0x0:0xe908383196daef96
mall,Pusat Perbelanjaan,Toko Anugrah Obi,"MJ7Q+R32, Laiwui, Kec. Obi, Kabupaten Halmahera Selatan, Maluku Utara","Kabupaten Halmahera Selatan, Maluku Utara",MALUKU UTARA,,Indonesia,85398672088.0,-1.3354808,127.6376519,https://maps.google.com/?cid=0x0:0xe9d830dea2fa8de3
mall,mall,Kec. Bacan Tim. Sel.,"Kabupaten Halmahera Selatan, Maluku Utara","Kabupaten Halmahera Selatan, Maluku Utara",MALUKU UTARA,,Indonesia,,-0.8138816,127.872846,https://maps.google.com/?cid=0x0:0x10b732e030ec504d
mall,Toko bahan makanan,Pusat Kuliner - Bacan,"8FVJ+275, Tembal, Kec. Bacan Sel., Kabupaten Halmahera Selatan, Maluku Utara","Kabupaten Halmahera Selatan, Maluku Utara",MALUKU UTARA,,Indonesia,,-0.6574988,127.4807267,https://maps.google.com/?cid=0x0:0x4dad6b50dde6e59f
mall,Toko Pakaian,MTC Labuha - Bacan,"9F7M+98Q, Labuha, Kec. Bacan, Kabupaten Halmahera Selatan, Maluku Utara","Kabupaten Halmahera Selatan, Maluku Utara",MALUKU UTARA,,Indonesia,,-0.6365334,127.4833534,https://maps.google.com/?cid=0x0:0xadcd42bf49f564a5
mall,Pusat Perbelanjaan,Toko Usaha Baru,"Babang - Labuha, Babang, Kec. Bacan, Kabupaten Halmahera Selatan, Maluku Utara 97791","Babang, Kec. Bacan, Kabupaten Halmahera Selatan",MALUKU UTARA,97791.0,Indonesia,,-0.6268527,127.6035344,https://maps.google.com/?cid=0x0:0x848d369e099a4600
mall,Toko bahan makanan,Warung Pak Awi,"4QQC+R4P, Desa, Liaro, Kec. Bacan Tim. Sel., Kabupaten Halmahera Selatan, Maluku Utara","Kabupaten Halmahera Selatan, Maluku Utara",MALUKU UTARA,,Indonesia,81355044805.0,-0.8604156,127.7703396,https://maps.google.com/?cid=0x0:0x5a97c7a4c1acc786
mall,Toko,Kios NEYS CELL,"9F7P+73C, Tomori, Kec. Bacan, Kabupaten Halmahera Selatan, Maluku Utara","Kabupaten Halmahera Selatan, Maluku Utara",MALUKU UTARA,,Indonesia,,-0.6368043,127.485142,https://maps.google.com/?cid=0x0:0x40451a2ffae371ea
mall,Toko,TOKO 50CENT CELLULER,"9F6P+P4G, Tomori, Kec. Bacan, Kabupaten Halmahera Selatan, Maluku Utara","Kabupaten Halmahera Selatan, Maluku Utara",MALUKU UTARA,,Indonesia,85342213344.0,-0.6381852,127.4853278,https://maps.google.com/?cid=0x0:0xcc2f03406ce7910c
mall,Pusat Perbelanjaan,Putra muna,"9HCX+J7P, Babang, Kec. Bacan Tim., Kabupaten Halmahera Selatan, Maluku Utara","Kabupaten Halmahera Selatan, Maluku Utara",MALUKU UTARA,,Indonesia,82343828287.0,-0.6284173,127.5982039,https://maps.google.com/?cid=0x0:0x7a788c0fd6e08c44
mall,Pusat Perbelanjaan,PALOMA BACAN,"9FGG+QGX, Amasing Kota Utara, Kec. Bacan, Kabupaten Halmahera Selatan, Maluku Utara","Kabupaten Halmahera Selatan, Maluku Utara",MALUKU UTARA,,Indonesia,,-0.6230085,127.4763649,https://maps.google.com/?cid=0x0:0xa54c445bf0b5f1c
mall,Toko,Toko Calya Rafani (CR),"8FMH+PJ2, Kupal, Kec. Bacan Sel., Kabupaten Halmahera Selatan, Maluku Utara","Kabupaten Halmahera Selatan, Maluku Utara",MALUKU UTARA,,Indonesia,82210660149.0,-0.6657988,127.4792515,https://maps.google.com/?cid=0x0:0xc4d0c26decf133a7
mall,Pusat Perbelanjaan,Gudang bola Kaki,"9G8F+VP3, Jl. Raya Babang, Marabose, Kec. Bacan, Kabupaten Halmahera Selatan, Maluku Utara","Kabupaten Halmahera Selatan, Maluku Utara",MALUKU UTARA,,Indonesia,82292548511.0,-0.6320749,127.5248072,https://maps.google.com/?cid=0x0:0xa27676ee72df06a5
mall,Toko bahan makanan,Kios ErmaHijab,"8FGG+4G5, Gandasuli, Kec. Bacan Sel., Kabupaten Halmahera Selatan, Maluku Utara","Kabupaten Halmahera Selatan, Maluku Utara",MALUKU UTARA,,Indonesia,81355515404.0,-0.6747331,127.4763592,https://maps.google.com/?cid=0x0:0x498b66299cf1fc64
mall,Pusat Perbelanjaan,Toko sembilan babang,"9JC2+H3X, Jl. Pelabuhan Babang, Babang, Kec. Bacan Tim., Kabupaten Halmahera Selatan, Maluku Utara","Kabupaten Halmahera Selatan, Maluku Utara",MALUKU UTARA,,Indonesia,82296721974.0,-0.6285044,127.6002362,https://maps.google.com/?cid=0x0:0xc9fdcee0dfe1d3b5
mall,Pusat Perbelanjaan,TOKO MOMO KOMPLEK PASAR LAMA,"9FFG+5FP, Jl. Ompu Datuk Sapanggala, Amasing Kota, Kec. Bacan, Kabupaten Halmahera Selatan, Maluku Utara","Kabupaten Halmahera Selatan, Maluku Utara",MALUKU UTARA,,Indonesia,,-0.6270486,127.4762018,https://maps.google.com/?cid=0x0:0xfe3ed7c547c7366e
mall,Pusat Perbelanjaan,Kopi Liberika Khas Bacan,"9FFG+5FP, Jl. Ompu Datuk Sapanggala, Amasing Kota, Kec. Bacan, Kabupaten Halmahera Selatan, Maluku Utara","Kabupaten Halmahera Selatan, Maluku Utara",MALUKU UTARA,,Indonesia,85340713150.0,-0.627093,127.475946,https://maps.google.com/?cid=0x0:0x18f3306cb4ed2a4f
mall,Pusat Perbelanjaan,PALOMA BACAN,"9FGG+QGX, Amasing Kota Utara, Kec. Bacan, Kabupaten Halmahera Selatan, Maluku Utara","Kabupaten Halmahera Selatan, Maluku Utara",MALUKU UTARA,,Indonesia,,-0.6230085,127.4763649,https://maps.google.com/?cid=0x0:0xa54c445bf0b5f1c
mall,Toko bahan makanan,Pusat Kuliner - Bacan,"8FVJ+275, Tembal, Kec. Bacan Sel., Kabupaten Halmahera Selatan, Maluku Utara","Kabupaten Halmahera Selatan, Maluku Utara",MALUKU UTARA,,Indonesia,,-0.6574988,127.4807267,https://maps.google.com/?cid=0x0:0x4dad6b50dde6e59f
mall,Toko Swalayan,Pasar Baru Tembal,"8GF3+X4V, Kupal, Kec. Bacan Sel., Kabupaten Halmahera Selatan, Maluku Utara","Kabupaten Halmahera Selatan, Maluku Utara",MALUKU UTARA,,Indonesia,,-0.6750054,127.5028105,https://maps.google.com/?cid=0x0:0x6072a9fb0bce4364
mall,Pusat Perbelanjaan,PALOMA BACAN,"9FGG+QGX, Amasing Kota Utara, Kec. Bacan, Kabupaten Halmahera Selatan, Maluku Utara","Kabupaten Halmahera Selatan, Maluku Utara",MALUKU UTARA,,Indonesia,,-0.6230085,127.4763649,https://maps.google.com/?cid=0x0:0xa54c445bf0b5f1c
mall,Toko bahan makanan,Pusat Kuliner - Bacan,"8FVJ+275, Tembal, Kec. Bacan Sel., Kabupaten Halmahera Selatan, Maluku Utara","Kabupaten Halmahera Selatan, Maluku Utara",MALUKU UTARA,,Indonesia,,-0.6574988,127.4807267,https://maps.google.com/?cid=0x0:0x4dad6b50dde6e59f
mall,Komplek perumahan,Aru Mamang,"M4JQ+8XF, Arumamang, Kec. Kasiruta Bar., Kabupaten Halmahera Selatan, Maluku Utara","Kabupaten Halmahera Selatan, Maluku Utara",MALUKU UTARA,,Indonesia,82187117147.0,-0.3191809,127.1399075,https://maps.google.com/?cid=0x0:0xfb64478d5ed4be1
mall,mall,Kec. Bacan Bar. Utara,"Kabupaten Halmahera Selatan, Maluku Utara","Kabupaten Halmahera Selatan, Maluku Utara",MALUKU UTARA,,Indonesia,,-0.348747,127.4004871,https://maps.google.com/?cid=0x0:0x3b3491e8d2fae80
mall,Pusat Perbelanjaan,Toko MIESOE,"9F4R+X2J, Tomori, Kec. Bacan, Kabupaten Halmahera Selatan, Maluku Utara","Kabupaten Halmahera Selatan, Maluku Utara",MALUKU UTARA,,Indonesia,82197000088.0,-0.6425411,127.4900062,https://maps.google.com/?cid=0x0:0x3623bbb2e62539dc
mall,Toko,TOKO 50CENT CELLULER,"9F6P+P4G, Tomori, Kec. Bacan, Kabupaten Halmahera Selatan, Maluku Utara","Kabupaten Halmahera Selatan, Maluku Utara",MALUKU UTARA,,Indonesia,85342213344.0,-0.6381852,127.4853278,https://maps.google.com/?cid=0x0:0xcc2f03406ce7910c
mall,Toko Swalayan,Toko BACAN INDAH,"9FFG+79Q, Jl. Molunjunga, Amasing Kota, Kec. Bacan, Kabupaten Halmahera Selatan, Maluku Utara","Kabupaten Halmahera Selatan, Maluku Utara",MALUKU UTARA,,Indonesia,,-0.6267802,127.4759947,https://maps.google.com/?cid=0x0:0x6e13479573268497
mall,Pasar,Pasar Baru Labuha,"9F7M+F5V, Labuha, Kec. Bacan, Kabupaten Halmahera Selatan, Maluku Utara","Kabupaten Halmahera Selatan, Maluku Utara",MALUKU UTARA,,Indonesia,,-0.6362729,127.4829272,https://maps.google.com/?cid=0x0:0xa5bf40c06d8fff48
mall,Toko,Toko Calya Rafani (CR),"8FMH+PJ2, Kupal, Kec. Bacan Sel., Kabupaten Halmahera Selatan, Maluku Utara","Kabupaten Halmahera Selatan, Maluku Utara",MALUKU UTARA,,Indonesia,82210660149.0,-0.6657988,127.4792515,https://maps.google.com/?cid=0x0:0xc4d0c26decf133a7
mall,mall,Kec. Makian Bar.,"Kabupaten Halmahera Selatan, Maluku Utara","Kabupaten Halmahera Selatan, Maluku Utara",MALUKU UTARA,,Indonesia,,0.3281416,127.3464815,https://maps.google.com/?cid=0x0:0x45fdc116119553a4
mall,mall,Pulau Makian,"Kabupaten Halmahera Selatan, Maluku Utara","Kabupaten Halmahera Selatan, Maluku Utara",MALUKU UTARA,,Indonesia,,0.3127237,127.4040871,https://maps.google.com/?cid=0x0:0x7d9868f2e9dd90f6
mall,mall,SULISARA CELL,"9CF7+9JR, Unnamed Road, Rabutdaio, Kec. Pulau Makian, Kabupaten Halmahera Selatan, Maluku Utara","Kabupaten Halmahera Selatan, Maluku Utara",MALUKU UTARA,,Indonesia,,0.3734927,127.4140297,https://maps.google.com/?cid=0x0:0xf426a28538a4b8d4
mall,mall,SULISARA CELL,"9CF7+9JR, Unnamed Road, Rabutdaio, Kec. Pulau Makian, Kabupaten Halmahera Selatan, Maluku Utara","Kabupaten Halmahera Selatan, Maluku Utara",MALUKU UTARA,,Indonesia,,0.3734927,127.4140297,https://maps.google.com/?cid=0x0:0xf426a28538a4b8d4
mall,mall,Pulau Makian,"Kabupaten Halmahera Selatan, Maluku Utara","Kabupaten Halmahera Selatan, Maluku Utara",MALUKU UTARA,,Indonesia,,0.3127237,127.4040871,https://maps.google.com/?cid=0x0:0x7d9868f2e9dd90f6
mall,Kantor Pemerintahan Wilayah,Makayoa Barat,"V6M2+VWP, Unnamed Road, Kida, Kec. Kayoa, Kabupaten Halmahera Selatan, Maluku Utara","Kabupaten Halmahera Selatan, Maluku Utara",MALUKU UTARA,,Indonesia,85255888675.0,-0.1152984,127.2023292,https://maps.google.com/?cid=0x0:0xe107be87b0afb6f4
mall,Kantor Pemerintahan Daerah,Kantor KECAMATAN Kayoa Barat,"Q4WJ+HRC, Busua, Kec. Kayoa Bar., Kabupaten Halmahera Selatan, Maluku Utara","Kabupaten Halmahera Selatan, Maluku Utara",MALUKU UTARA,,Indonesia,,-0.203569,127.1320312,https://maps.google.com/?cid=0x0:0x4cf5220db4d8e843
mall,mall,Kec. Kayoa Bar.,"Kabupaten Halmahera Selatan, Maluku Utara","Kabupaten Halmahera Selatan, Maluku Utara",MALUKU UTARA,,Indonesia,,-0.2310159,127.0981869,https://maps.google.com/?cid=0x0:0x6b6f3901f6430a7f
mall,Pasar,Toko lompobattang,"XC5G+RPW, Unnamed Road, Laluin, Kecamatan Kayoa Selatan, Kabupaten Halmahera Selatan, Maluku Utara","Kabupaten Halmahera Selatan, Maluku Utara",MALUKU UTARA,,Indonesia,82290787772.0,-0.0403751,127.4268151,https://maps.google.com/?cid=0x0:0x119752b1bad7c28d
mall,mall,Kecamatan Kayoa Selatan,"Kabupaten Halmahera Selatan, Maluku Utara","Kabupaten Halmahera Selatan, Maluku Utara",MALUKU UTARA,,Indonesia,,-0.0404558,127.4257645,https://maps.google.com/?cid=0x0:0x611025dc11fc6411
mall,Pasar,Toko lompobattang,"XC5G+RPW, Unnamed Road, Laluin, Kecamatan Kayoa Selatan, Kabupaten Halmahera Selatan, Maluku Utara","Kabupaten Halmahera Selatan, Maluku Utara",MALUKU UTARA,,Indonesia,82290787772.0,-0.0403751,127.4268151,https://maps.google.com/?cid=0x0:0x119752b1bad7c28d
mall,Toko,Toko Ifha,"2C56+X9Q, Guruapin, Kec. Kayoa, Kabupaten Halmahera Selatan, Maluku Utara","Kabupaten Halmahera Selatan, Maluku Utara",MALUKU UTARA,,Indonesia,82349500085.0,0.00996,127.4109712,https://maps.google.com/?cid=0x0:0x11dd3c7186859fe7
mall,Kantor Pemerintahan Wilayah,Makayoa Barat,"V6M2+VWP, Unnamed Road, Kida, Kec. Kayoa, Kabupaten Halmahera Selatan, Maluku Utara","Kabupaten Halmahera Selatan, Maluku Utara",MALUKU UTARA,,Indonesia,85255888675.0,-0.1152984,127.2023292,https://maps.google.com/?cid=0x0:0xe107be87b0afb6f4
mall,mall,Foto Copy Kayla,"2C66+37W, jl garuda, Guruapin, Kec. Kayoa, Kabupaten Halmahera Selatan, Maluku Utara","Kabupaten Halmahera Selatan, Maluku Utara",MALUKU UTARA,,Indonesia,,0.0102292,127.4106948,https://maps.google.com/?cid=0x0:0x44b0c7139c1fa6d6
mall,mall,Kec. Kayoa Utara,"Kabupaten Halmahera Selatan, Maluku Utara","Kabupaten Halmahera Selatan, Maluku Utara",MALUKU UTARA,,Indonesia,,0.1242204,127.4471181,https://maps.google.com/?cid=0x0:0xd99a2feb58f3015d
mall,Toko,Pasar Guruapin,"2C56+Q7X, Unnamed Road, Guruapin, Kec. Kayoa, Kabupaten Halmahera Selatan, Maluku Utara","Kabupaten Halmahera Selatan, Maluku Utara",MALUKU UTARA,,Indonesia,82349500085.0,0.0094809,127.4107229,https://maps.google.com/?cid=0x0:0xa1ed4cd38c5b0089
mall,Toko,Toko Ifha,"2C56+X9Q, Guruapin, Kec. Kayoa, Kabupaten Halmahera Selatan, Maluku Utara","Kabupaten Halmahera Selatan, Maluku Utara",MALUKU UTARA,,Indonesia,82349500085.0,0.00996,127.4109712,https://maps.google.com/?cid=0x0:0x11dd3c7186859fe7
mall,Toko bahan makanan,Pusat Kuliner - Bacan,"8FVJ+275, Tembal, Kec. Bacan Sel., Kabupaten Halmahera Selatan, Maluku Utara","Kabupaten Halmahera Selatan, Maluku Utara",MALUKU UTARA,,Indonesia,,-0.6574988,127.4807267,https://maps.google.com/?cid=0x0:0x4dad6b50dde6e59f
mall,Toko Swalayan,Pasar Baru Tembal,"8GF3+X4V, Kupal, Kec. Bacan Sel., Kabupaten Halmahera Selatan, Maluku Utara","Kabupaten Halmahera Selatan, Maluku Utara",MALUKU UTARA,,Indonesia,,-0.6750054,127.5028105,https://maps.google.com/?cid=0x0:0x6072a9fb0bce4364
mall,mall,Kec. Bacan Bar. Utara,"Kabupaten Halmahera Selatan, Maluku Utara","Kabupaten Halmahera Selatan, Maluku Utara",MALUKU UTARA,,Indonesia,,-0.348747,127.4004871,https://maps.google.com/?cid=0x0:0x3b3491e8d2fae80
mall,Toko,TOKO 50CENT CELLULER,"9F6P+P4G, Tomori, Kec. Bacan, Kabupaten Halmahera Selatan, Maluku Utara","Kabupaten Halmahera Selatan, Maluku Utara",MALUKU UTARA,,Indonesia,85342213344.0,-0.6381852,127.4853278,https://maps.google.com/?cid=0x0:0xcc2f03406ce7910c
mall,Pusat Perbelanjaan,PALOMA BACAN,"9FGG+QGX, Amasing Kota Utara, Kec. Bacan, Kabupaten Halmahera Selatan, Maluku Utara","Kabupaten Halmahera Selatan, Maluku Utara",MALUKU UTARA,,Indonesia,,-0.6230085,127.4763649,https://maps.google.com/?cid=0x0:0xa54c445bf0b5f1c
mall,Toko,Toko Calya Rafani (CR),"8FMH+PJ2, Kupal, Kec. Bacan Sel., Kabupaten Halmahera Selatan, Maluku Utara","Kabupaten Halmahera Selatan, Maluku Utara",MALUKU UTARA,,Indonesia,82210660149.0,-0.6657988,127.4792515,https://maps.google.com/?cid=0x0:0xc4d0c26decf133a7
mall,Otoritas Pelabuhan,"Pelabuhan Kupal, Bacan","8FJF+CRH, Unnamed Rd, Sel.,, Kupal, Kec. Bacan Sel., Kabupaten Halmahera Selatan, Maluku Utara","Kabupaten Halmahera Selatan, Maluku Utara",MALUKU UTARA,,Indonesia,81365048105.0,-0.6689391,127.4746223,https://maps.google.com/?cid=0x0:0x5111c31f24767375
mall,Pasar,Pasar Baru Labuha,"9F7M+F5V, Labuha, Kec. Bacan, Kabupaten Halmahera Selatan, Maluku Utara","Kabupaten Halmahera Selatan, Maluku Utara",MALUKU UTARA,,Indonesia,,-0.6362729,127.4829272,https://maps.google.com/?cid=0x0:0xa5bf40c06d8fff48
mall,Pusat Perbelanjaan,Toko MIESOE,"9F4R+X2J, Tomori, Kec. Bacan, Kabupaten Halmahera Selatan, Maluku Utara","Kabupaten Halmahera Selatan, Maluku Utara",MALUKU UTARA,,Indonesia,82197000088.0,-0.6425411,127.4900062,https://maps.google.com/?cid=0x0:0x3623bbb2e62539dc
mall,Komplek perumahan,Aru Mamang,"M4JQ+8XF, Arumamang, Kec. Kasiruta Bar., Kabupaten Halmahera Selatan, Maluku Utara","Kabupaten Halmahera Selatan, Maluku Utara",MALUKU UTARA,,Indonesia,82187117147.0,-0.3191809,127.1399075,https://maps.google.com/?cid=0x0:0xfb64478d5ed4be1
mall,Komplek perumahan,Rumah mama alung,"8FGF+GQ7, Kupal, Kec. Bacan Sel., Kabupaten Halmahera Selatan, Maluku Utara","Kabupaten Halmahera Selatan, Maluku Utara",MALUKU UTARA,,Indonesia,,-0.6737086,127.4744285,https://maps.google.com/?cid=0x0:0xe3e9d651b57b129a
mall,mall,Maluku Utara,,Maluku Utara,MALUKU UTARA,,Indonesia,,1.5709993,127.8087693,https://maps.google.com/?cid=0x0:0x1030bfbcaf71ac0
mall,Pusat Perbelanjaan,Jatiland Mall,"Jl. Pahlawan Revolusi, Gamalama, Kec. Ternate Tengah, Kota Ternate, Maluku Utara","Kota Ternate, Maluku Utara",MALUKU UTARA,,Indonesia,,0.7913034,127.3904651,https://maps.google.com/?cid=0x0:0xc88fc50abd8f2993
mall,Pusat Perbelanjaan,KMR SHOP,"5V8X+M29, Hamahera Utara, Pasar, Kao, Kec. Kao, Kabupaten Halmahera Utara, Maluku Utara","Kabupaten Halmahera Utara, Maluku Utara",MALUKU UTARA,,Indonesia,81241982440.0,1.1666603,127.8976008,https://maps.google.com/?cid=0x0:0x99e792bc492e8062
mall,Pusat Perbelanjaan,Toko Usaha Baru,"Babang - Labuha, Babang, Kec. Bacan, Kabupaten Halmahera Selatan, Maluku Utara 97791","Babang, Kec. Bacan, Kabupaten Halmahera Selatan",MALUKU UTARA,97791.0,Indonesia,,-0.6268527,127.6035344,https://maps.google.com/?cid=0x0:0x848d369e099a4600
mall,Komplek perumahan,Rumah mama alung,"8FGF+GQ7, Kupal, Kec. Bacan Sel., Kabupaten Halmahera Selatan, Maluku Utara","Kabupaten Halmahera Selatan, Maluku Utara",MALUKU UTARA,,Indonesia,,-0.6737086,127.4744285,https://maps.google.com/?cid=0x0:0xe3e9d651b57b129a
mall,Komplek perumahan,Aru Mamang,"M4JQ+8XF, Arumamang, Kec. Kasiruta Bar., Kabupaten Halmahera Selatan, Maluku Utara","Kabupaten Halmahera Selatan, Maluku Utara",MALUKU UTARA,,Indonesia,82187117147.0,-0.3191809,127.1399075,https://maps.google.com/?cid=0x0:0xfb64478d5ed4be1
mall,Toko bahan makanan,Pusat Kuliner - Bacan,"8FVJ+275, Tembal, Kec. Bacan Sel., Kabupaten Halmahera Selatan, Maluku Utara","Kabupaten Halmahera Selatan, Maluku Utara",MALUKU UTARA,,Indonesia,,-0.6574988,127.4807267,https://maps.google.com/?cid=0x0:0x4dad6b50dde6e59f
mall,mall,Kec. Bacan Sel.,"Kabupaten Halmahera Selatan, Maluku Utara","Kabupaten Halmahera Selatan, Maluku Utara",MALUKU UTARA,,Indonesia,,-0.6527457,127.4833566,https://maps.google.com/?cid=0x0:0xad48e5ee740e417c
mall,Toko Pakaian,MTC Labuha - Bacan,"9F7M+98Q, Labuha, Kec. Bacan, Kabupaten Halmahera Selatan, Maluku Utara","Kabupaten Halmahera Selatan, Maluku Utara",MALUKU UTARA,,Indonesia,,-0.6365334,127.4833534,https://maps.google.com/?cid=0x0:0xadcd42bf49f564a5
mall,Toko,TOKO 50CENT CELLULER,"9F6P+P4G, Tomori, Kec. Bacan, Kabupaten Halmahera Selatan, Maluku Utara","Kabupaten Halmahera Selatan, Maluku Utara",MALUKU UTARA,,Indonesia,85342213344.0,-0.6381852,127.4853278,https://maps.google.com/?cid=0x0:0xcc2f03406ce7910c
mall,Toko,Kios NEYS CELL,"9F7P+73C, Tomori, Kec. Bacan, Kabupaten Halmahera Selatan, Maluku Utara","Kabupaten Halmahera Selatan, Maluku Utara",MALUKU UTARA,,Indonesia,,-0.6368043,127.485142,https://maps.google.com/?cid=0x0:0x40451a2ffae371ea
mall,Toko,Toko Calya Rafani (CR),"8FMH+PJ2, Kupal, Kec. Bacan Sel., Kabupaten Halmahera Selatan, Maluku Utara","Kabupaten Halmahera Selatan, Maluku Utara",MALUKU UTARA,,Indonesia,82210660149.0,-0.6657988,127.4792515,https://maps.google.com/?cid=0x0:0xc4d0c26decf133a7
mall,Pusat Perbelanjaan,TOKO MOMO KOMPLEK PASAR LAMA,"9FFG+5FP, Jl. Ompu Datuk Sapanggala, Amasing Kota, Kec. Bacan, Kabupaten Halmahera Selatan, Maluku Utara","Kabupaten Halmahera Selatan, Maluku Utara",MALUKU UTARA,,Indonesia,,-0.6270486,127.4762018,https://maps.google.com/?cid=0x0:0xfe3ed7c547c7366e
mall,Toko,KIOS WILDAN,"9F3P+MF5, Mandaong, Kec. Bacan Sel., Kabupaten Halmahera Selatan, Maluku Utara","Kabupaten Halmahera Selatan, Maluku Utara",MALUKU UTARA,,Indonesia,82237459336.0,-0.6458704,127.486249,https://maps.google.com/?cid=0x0:0xa4c2dff051565f56
mall,Toko bahan makanan,Kios ErmaHijab,"8FGG+4G5, Gandasuli, Kec. Bacan Sel., Kabupaten Halmahera Selatan, Maluku Utara","Kabupaten Halmahera Selatan, Maluku Utara",MALUKU UTARA,,Indonesia,81355515404.0,-0.6747331,127.4763592,https://maps.google.com/?cid=0x0:0x498b66299cf1fc64
mall,Pusat Perbelanjaan,PALOMA BACAN,"9FGG+QGX, Amasing Kota Utara, Kec. Bacan, Kabupaten Halmahera Selatan, Maluku Utara","Kabupaten Halmahera Selatan, Maluku Utara",MALUKU UTARA,,Indonesia,,-0.6230085,127.4763649,https://maps.google.com/?cid=0x0:0xa54c445bf0b5f1c
mall,Kios,Rostiani Store,"9FFF+QWC, Jl. Oesman Syah, Amasing Kota, Kec. Bacan, Kabupaten Halmahera Selatan, Maluku Utara","Kabupaten Halmahera Selatan, Maluku Utara",MALUKU UTARA,,Indonesia,82190868715.0,-0.6255716,127.4747619,https://maps.google.com/?cid=0x0:0x7e401171a76c0722
mall,mall,Buket  Parcel Ayabid,"kompleks futsal modiv, Jl Baru No.rt10, Tomori, Kec. Bacan, Kabupaten Halmahera Selatan, Maluku Utara","Kabupaten Halmahera Selatan, Maluku Utara",MALUKU UTARA,,Indonesia,85343900975.0,-0.6440708,127.4846562,https://maps.google.com/?cid=0x0:0xd7dba29471abdbc3
mall,Grosir kantong plastik,Toko Bintang Plastik Bacan,"9F6J+P5P, Labuha, Kec. Bacan, Kabupaten Halmahera Selatan, Maluku Utara","Kabupaten Halmahera Selatan, Maluku Utara",MALUKU UTARA,,Indonesia,81314622793.0,-0.6381677,127.4804431,https://maps.google.com/?cid=0x0:0x955fa00383b8d3fc
mall,Toko sembako pemerintah,UD FERDY. Grosir Sembako,"8FRH+CGX, Tembal, Kec. Bacan Sel., Kabupaten Halmahera Selatan, Maluku Utara","Kabupaten Halmahera Selatan, Maluku Utara",MALUKU UTARA,,Indonesia,,-0.6588996,127.4788451,https://maps.google.com/?cid=0x0:0x73a121ab3777bee0
mall,Pusat Perbelanjaan,Multimart PLAZA WEDA,"8VPG+GC6, Fidi Jaya, Kec. Weda Tengah, Kabupaten Halmahera Tengah, Maluku Utara","Kabupaten Halmahera Tengah, Maluku Utara",MALUKU UTARA,,Indonesia,82296758295.0,0.3363001,127.8781859,https://maps.google.com/?cid=0x0:0xc7ccca75408256b4
mall,mall,Kec. Kepulauan Botang Lomang,"Kabupaten Halmahera Selatan, Maluku Utara","Kabupaten Halmahera Selatan, Maluku Utara",MALUKU UTARA,,Indonesia,,-0.6551716,127.3965666,https://maps.google.com/?cid=0x0:0x6b1042a5e2595523
mall,Pusat Perbelanjaan,Pasar Weda,"8VPG+GC6, Fidi Jaya, Kec. Weda, Kabupaten Halmahera Tengah, Maluku Utara","Kabupaten Halmahera Tengah, Maluku Utara",MALUKU UTARA,,Indonesia,,0.3358955,127.8785203,https://maps.google.com/?cid=0x0:0xdba34be9cfcab5aa
mall,mall,Palm Mini Market,"9F4V+GGG, Kp. Makian, Kec. Bacan Sel., Kabupaten Halmahera Selatan, Maluku Utara","Kabupaten Halmahera Selatan, Maluku Utara",MALUKU UTARA,,Indonesia,,-0.6436775,127.4938227,https://maps.google.com/?cid=0x0:0x8a5627a29b552f0d
mall,mall,Pulau Mandioli,Maluku Utara,Maluku Utara,MALUKU UTARA,,Indonesia,,-0.705902,127.2329979,https://maps.google.com/?cid=0x0:0x40562bc25a12bb2e
mall,mall,Minimarket,"QJGX+WV6, Madapolo, Kec. Obi Utara, Kabupaten Halmahera Selatan, Maluku Utara","Kabupaten Halmahera Selatan, Maluku Utara",MALUKU UTARA,,Indonesia,,-1.2227043,127.6496287,https://maps.google.com/?cid=0x0:0x5adc99ca4807c877
mall,mall,Pulau Mandioli,Maluku Utara,Maluku Utara,MALUKU UTARA,,Indonesia,,-0.705902,127.2329979,https://maps.google.com/?cid=0x0:0x40562bc25a12bb2e
mall,mall,Pulau Mandioli,Maluku Utara,Maluku Utara,MALUKU UTARA,,Indonesia,,-0.705902,127.2329979,https://maps.google.com/?cid=0x0:0x40562bc25a12bb2e
mall,mall,Kec. Mandioli Utara,"Kabupaten Halmahera Selatan, Maluku Utara","Kabupaten Halmahera Selatan, Maluku Utara",MALUKU UTARA,,Indonesia,,-0.6648801,127.2694292,https://maps.google.com/?cid=0x0:0x5a42f90eb969805d
mall,Toko Pakaian,MTC Labuha - Bacan,"9F7M+98Q, Labuha, Kec. Bacan, Kabupaten Halmahera Selatan, Maluku Utara","Kabupaten Halmahera Selatan, Maluku Utara",MALUKU UTARA,,Indonesia,,-0.6365334,127.4833534,https://maps.google.com/?cid=0x0:0xadcd42bf49f564a5
mall,mall,Kec. Bacan Tim. Sel.,"Kabupaten Halmahera Selatan, Maluku Utara","Kabupaten Halmahera Selatan, Maluku Utara",MALUKU UTARA,,Indonesia,,-0.8138816,127.872846,https://maps.google.com/?cid=0x0:0x10b732e030ec504d
mall,Toko bahan makanan,Pusat Kuliner - Bacan,"8FVJ+275, Tembal, Kec. Bacan Sel., Kabupaten Halmahera Selatan, Maluku Utara","Kabupaten Halmahera Selatan, Maluku Utara",MALUKU UTARA,,Indonesia,,-0.6574988,127.4807267,https://maps.google.com/?cid=0x0:0x4dad6b50dde6e59f
mall,Pusat Perbelanjaan,Toko Usaha Baru,"Babang - Labuha, Babang, Kec. Bacan, Kabupaten Halmahera Selatan, Maluku Utara 97791","Babang, Kec. Bacan, Kabupaten Halmahera Selatan",MALUKU UTARA,97791.0,Indonesia,,-0.6268527,127.6035344,https://maps.google.com/?cid=0x0:0x848d369e099a4600
mall,Toko,TOKO 50CENT CELLULER,"9F6P+P4G, Tomori, Kec. Bacan, Kabupaten Halmahera Selatan, Maluku Utara","Kabupaten Halmahera Selatan, Maluku Utara",MALUKU UTARA,,Indonesia,85342213344.0,-0.6381852,127.4853278,https://maps.google.com/?cid=0x0:0xcc2f03406ce7910c
mall,Toko,Kios NEYS CELL,"9F7P+73C, Tomori, Kec. Bacan, Kabupaten Halmahera Selatan, Maluku Utara","Kabupaten Halmahera Selatan, Maluku Utara",MALUKU UTARA,,Indonesia,,-0.6368043,127.485142,https://maps.google.com/?cid=0x0:0x40451a2ffae371ea
mall,Toko,Toko Calya Rafani (CR),"8FMH+PJ2, Kupal, Kec. Bacan Sel., Kabupaten Halmahera Selatan, Maluku Utara","Kabupaten Halmahera Selatan, Maluku Utara",MALUKU UTARA,,Indonesia,82210660149.0,-0.6657988,127.4792515,https://maps.google.com/?cid=0x0:0xc4d0c26decf133a7
mall,Toko bahan makanan,Warung Pak Awi,"4QQC+R4P, Desa, Liaro, Kec. Bacan Tim. Sel., Kabupaten Halmahera Selatan, Maluku Utara","Kabupaten Halmahera Selatan, Maluku Utara",MALUKU UTARA,,Indonesia,81355044805.0,-0.8604156,127.7703396,https://maps.google.com/?cid=0x0:0x5a97c7a4c1acc786
mall,Toko bahan makanan,Kios ErmaHijab,"8FGG+4G5, Gandasuli, Kec. Bacan Sel., Kabupaten Halmahera Selatan, Maluku Utara","Kabupaten Halmahera Selatan, Maluku Utara",MALUKU UTARA,,Indonesia,81355515404.0,-0.6747331,127.4763592,https://maps.google.com/?cid=0x0:0x498b66299cf1fc64
mall,Kios,Rostiani Store,"9FFF+QWC, Jl. Oesman Syah, Amasing Kota, Kec. Bacan, Kabupaten Halmahera Selatan, Maluku Utara","Kabupaten Halmahera Selatan, Maluku Utara",MALUKU UTARA,,Indonesia,82190868715.0,-0.6255716,127.4747619,https://maps.google.com/?cid=0x0:0x7e401171a76c0722
mall,Pusat Perbelanjaan,Putra muna,"9HCX+J7P, Babang, Kec. Bacan Tim., Kabupaten Halmahera Selatan, Maluku Utara","Kabupaten Halmahera Selatan, Maluku Utara",MALUKU UTARA,,Indonesia,82343828287.0,-0.6284173,127.5982039,https://maps.google.com/?cid=0x0:0x7a788c0fd6e08c44
mall,Toko,KIOS WILDAN,"9F3P+MF5, Mandaong, Kec. Bacan Sel., Kabupaten Halmahera Selatan, Maluku Utara","Kabupaten Halmahera Selatan, Maluku Utara",MALUKU UTARA,,Indonesia,82237459336.0,-0.6458704,127.486249,https://maps.google.com/?cid=0x0:0xa4c2dff051565f56
mall,Pusat Perbelanjaan,Gudang bola Kaki,"9G8F+VP3, Jl. Raya Babang, Marabose, Kec. Bacan, Kabupaten Halmahera Selatan, Maluku Utara","Kabupaten Halmahera Selatan, Maluku Utara",MALUKU UTARA,,Indonesia,82292548511.0,-0.6320749,127.5248072,https://maps.google.com/?cid=0x0:0xa27676ee72df06a5
mall,Pusat Perbelanjaan,TOKO MOMO KOMPLEK PASAR LAMA,"9FFG+5FP, Jl. Ompu Datuk Sapanggala, Amasing Kota, Kec. Bacan, Kabupaten Halmahera Selatan, Maluku Utara","Kabupaten Halmahera Selatan, Maluku Utara",MALUKU UTARA,,Indonesia,,-0.6270486,127.4762018,https://maps.google.com/?cid=0x0:0xfe3ed7c547c7366e
mall,Toko bahan makanan,Pusat Kuliner - Bacan,"8FVJ+275, Tembal, Kec. Bacan Sel., Kabupaten Halmahera Selatan, Maluku Utara","Kabupaten Halmahera Selatan, Maluku Utara",MALUKU UTARA,,Indonesia,,-0.6574988,127.4807267,https://maps.google.com/?cid=0x0:0x4dad6b50dde6e59f
mall,mall,Maluku Utara,,Maluku Utara,MALUKU UTARA,,Indonesia,,1.5709993,127.8087693,https://maps.google.com/?cid=0x0:0x1030bfbcaf71ac0
mall,Pusat Perbelanjaan,Toko Usaha Baru,"Babang - Labuha, Babang, Kec. Bacan, Kabupaten Halmahera Selatan, Maluku Utara 97791","Babang, Kec. Bacan, Kabupaten Halmahera Selatan",MALUKU UTARA,97791.0,Indonesia,,-0.6268527,127.6035344,https://maps.google.com/?cid=0x0:0x848d369e099a4600
mall,mall,Kec. Bacan Tim. Tengah,"Kabupaten Halmahera Selatan, Maluku Utara","Kabupaten Halmahera Selatan, Maluku Utara",MALUKU UTARA,,Indonesia,,-0.6921114,127.7318506,https://maps.google.com/?cid=0x0:0xc2cd01a3dd86df14
mall,Toko Pakaian,MTC Labuha - Bacan,"9F7M+98Q, Labuha, Kec. Bacan, Kabupaten Halmahera Selatan, Maluku Utara","Kabupaten Halmahera Selatan, Maluku Utara",MALUKU UTARA,,Indonesia,,-0.6365334,127.4833534,https://maps.google.com/?cid=0x0:0xadcd42bf49f564a5
mall,Pusat Perbelanjaan,Toko MIESOE,"9F4R+X2J, Tomori, Kec. Bacan, Kabupaten Halmahera Selatan, Maluku Utara","Kabupaten Halmahera Selatan, Maluku Utara",MALUKU UTARA,,Indonesia,82197000088.0,-0.6425411,127.4900062,https://maps.google.com/?cid=0x0:0x3623bbb2e62539dc
mall,Pusat Perbelanjaan,Putra muna,"9HCX+J7P, Babang, Kec. Bacan Tim., Kabupaten Halmahera Selatan, Maluku Utara","Kabupaten Halmahera Selatan, Maluku Utara",MALUKU UTARA,,Indonesia,82343828287.0,-0.6284173,127.5982039,https://maps.google.com/?cid=0x0:0x7a788c0fd6e08c44
mall,Toko Swalayan,Pasar Baru Tembal,"8GF3+X4V, Kupal, Kec. Bacan Sel., Kabupaten Halmahera Selatan, Maluku Utara","Kabupaten Halmahera Selatan, Maluku Utara",MALUKU UTARA,,Indonesia,,-0.6750054,127.5028105,https://maps.google.com/?cid=0x0:0x6072a9fb0bce4364
mall,mall,KIOS ILMAN,"8P4G+V7, Bibinoi, Kec. Bacan Tim. Tengah, Kabupaten Halmahera Selatan, Maluku Utara","Kabupaten Halmahera Selatan, Maluku Utara",MALUKU UTARA,,Indonesia,,-0.6925593,127.7256342,https://maps.google.com/?cid=0x0:0x1a8a8e75b92fd2ff
mall,Pusat Perbelanjaan,Toko sembilan babang,"9JC2+H3X, Jl. Pelabuhan Babang, Babang, Kec. Bacan Tim., Kabupaten Halmahera Selatan, Maluku Utara","Kabupaten Halmahera Selatan, Maluku Utara",MALUKU UTARA,,Indonesia,82296721974.0,-0.6285044,127.6002362,https://maps.google.com/?cid=0x0:0xc9fdcee0dfe1d3b5
mall,mall,Kec. Gane Bar. Sel.,"Kabupaten Halmahera Selatan, Maluku Utara","Kabupaten Halmahera Selatan, Maluku Utara",MALUKU UTARA,,Indonesia,,-0.762002,128.203222,https://maps.google.com/?cid=0x0:0x53c8be4d55503c6d
mall,Toko,Kantor Pemasaran GAHARU SUPER MALUKU,"Desa Fulai, Jikolamo, Kec. Gane Bar. Utara, Kabupaten Halmahera Selatan, Maluku Utara","Kabupaten Halmahera Selatan, Maluku Utara",MALUKU UTARA,,Indonesia,82189247157.0,-0.2762803,127.7045657,https://maps.google.com/?cid=0x0:0x83718668f57299bb
mall,Pusat Perbelanjaan,Toko Usaha Baru,"PP2G+6G, Boso, Kec. Gane Bar. Utara, Kabupaten Halmahera Selatan, Maluku Utara","Kabupaten Halmahera Selatan, Maluku Utara",MALUKU UTARA,,Indonesia,82335457215.0,-0.2994733,127.7262853,https://maps.google.com/?cid=0x0:0xa1e4cba4fd282dba
mall,mall,Pulau Joronga,"Kec. Kepulauan Joronga, Kabupaten Halmahera Selatan, Maluku Utara","Kabupaten Halmahera Selatan, Maluku Utara",MALUKU UTARA,,Indonesia,,-1.0939334,128.3692495,https://maps.google.com/?cid=0x0:0xcc70cd24bdde223b
mall,mall,Kec. Kepulauan Joronga,"Kabupaten Halmahera Selatan, Maluku Utara","Kabupaten Halmahera Selatan, Maluku Utara",MALUKU UTARA,,Indonesia,,-0.9459299,128.3132083,https://maps.google.com/?cid=0x0:0x109429867fafd0fb
mall,mall,Kec. Gane Tim. Sel.,"Kabupaten Halmahera Selatan, Maluku Utara","Kabupaten Halmahera Selatan, Maluku Utara",MALUKU UTARA,,Indonesia,,-0.7047222,128.2191774,https://maps.google.com/?cid=0x0:0x5d731fac62ca9680
mall,Kantor Perusahaan,Kecamatan gane timur Halmahera Selatan,"76W9+4MV, Gane Luar, Kec. Gane Tim. Sel., Kabupaten Halmahera Selatan, Maluku Utara","Kabupaten Halmahera Selatan, Maluku Utara",MALUKU UTARA,,Indonesia,,-0.7046284,128.219161,https://maps.google.com/?cid=0x0:0x30f91c1aee69ab90
mall,Kantor Pemerintahan Wilayah,Kantor Kecamatan Gane Timur Selatan,"76V9+WMM, Gane Luar, Kec. Gane Tim. Sel., Kabupaten Halmahera Selatan, Maluku Utara","Kabupaten Halmahera Selatan, Maluku Utara",MALUKU UTARA,,Indonesia,,-0.7051588,128.2191793,https://maps.google.com/?cid=0x0:0x57b633b7178ac105
mall,mall,Kec. Gane Tim. Tengah,"Kabupaten Halmahera Selatan, Maluku Utara","Kabupaten Halmahera Selatan, Maluku Utara",MALUKU UTARA,,Indonesia,,-0.4042848,128.027071,https://maps.google.com/?cid=0x0:0x4f9ff030214dfb8c
mall,Pusat Perbelanjaan,Toko Anugrah Obi,"MJ7Q+R32, Laiwui, Kec. Obi, Kabupaten Halmahera Selatan, Maluku Utara","Kabupaten Halmahera Selatan, Maluku Utara",MALUKU UTARA,,Indonesia,85398672088.0,-1.3354808,127.6376519,https://maps.google.com/?cid=0x0:0xe9d830dea2fa8de3
mall,Pusat Perbelanjaan,Toko Anugerah,"CCX6+VMF, Kawasi, Kec. Obi, Kabupaten Halmahera Selatan, Maluku Utara","Kabupaten Halmahera Selatan, Maluku Utara",MALUKU UTARA,,Indonesia,82196815252.0,-1.5503225,127.4116643,https://maps.google.com/?cid=0x0:0xe908383196daef96
mall,Pasar,Pasar jikotamo,"MM53+Q3M, Jikotamo, Kec. Obi, Kabupaten Halmahera Selatan, Maluku Utara","Kabupaten Halmahera Selatan, Maluku Utara",MALUKU UTARA,,Indonesia,,-1.3405483,127.6526768,https://maps.google.com/?cid=0x0:0xfe0f16a0d62e3f94
mall,mall,Kec. Obi Tim.,"Kabupaten Halmahera Selatan, Maluku Utara","Kabupaten Halmahera Selatan, Maluku Utara",MALUKU UTARA,,Indonesia,,-1.4918907,127.9813554,https://maps.google.com/?cid=0x0:0xffcda0a454872d5e
mall,Toko,Mawar colection,"FPQF+JGJ, Anggai, Kec. Obi, Kabupaten Halmahera Selatan, Maluku Utara","Kabupaten Halmahera Selatan, Maluku Utara",MALUKU UTARA,,Indonesia,,-1.5109015,127.7237678,https://maps.google.com/?cid=0x0:0x560d1e5a0b934ddb
mall,Pusat Perbelanjaan,toko cahaya bugis,"MJ7Q+VH4, Laiwui, Kec. Obi, Kabupaten Halmahera Selatan, Maluku Utara","Kabupaten Halmahera Selatan, Maluku Utara",MALUKU UTARA,,Indonesia,,-1.3352404,127.6388309,https://maps.google.com/?cid=0x0:0x755f7840618836d9
mall,Pusat Perbelanjaan,Toko Anugrah Obi,"MJ7Q+R32, Laiwui, Kec. Obi, Kabupaten Halmahera Selatan, Maluku Utara","Kabupaten Halmahera Selatan, Maluku Utara",MALUKU UTARA,,Indonesia,85398672088.0,-1.3354808,127.6376519,https://maps.google.com/?cid=0x0:0xe9d830dea2fa8de3
mall,Pusat Perbelanjaan,Alkautsar Kios,"MJ6R+GX2, Jl. Poros, Laiwui, Buton, Kec. Obi, Kabupaten Halmahera Selatan, Maluku Utara","Kabupaten Halmahera Selatan, Maluku Utara",MALUKU UTARA,,Indonesia,82195813572.0,-1.3387474,127.6423979,https://maps.google.com/?cid=0x0:0x6a3b31ac53de699a
mall,Pusat Perbelanjaan,Food Mart Supermarket,"CCVH+QCF, Kawasi, Kec. Obi, Kabupaten Halmahera Selatan, Maluku Utara","Kabupaten Halmahera Selatan, Maluku Utara",MALUKU UTARA,,Indonesia,,-1.5555404,127.4285828,https://maps.google.com/?cid=0x0:0x146e9c10b6cd5fca
mall,mall,Kec. Obi Utara,"Kabupaten Halmahera Selatan, Maluku Utara","Kabupaten Halmahera Selatan, Maluku Utara",MALUKU UTARA,,Indonesia,,-1.2239003,127.6485589,https://maps.google.com/?cid=0x0:0x14425d7651bc8346
mall,mall,Toko Awani~Alfath,"QJGX+M33, Unnamed Road, Madapolo Bar., Kec. Obi Utara, Kabupaten Halmahera Selatan, Maluku Utara","Kabupaten Halmahera Selatan, Maluku Utara",MALUKU UTARA,,Indonesia,,-1.2233594,127.6476759,https://maps.google.com/?cid=0x0:0x26a961e3162e0e04
mall,Pusat Perbelanjaan,Toko Anugrah Obi,"MJ7Q+R32, Laiwui, Kec. Obi, Kabupaten Halmahera Selatan, Maluku Utara","Kabupaten Halmahera Selatan, Maluku Utara",MALUKU UTARA,,Indonesia,85398672088.0,-1.3354808,127.6376519,https://maps.google.com/?cid=0x0:0xe9d830dea2fa8de3
mall,mall,Toko 3 bersaudara,"QFQV+466, Cap, Kec. Obi Utara, Kabupaten Halmahera Selatan, Maluku Utara","Kabupaten Halmahera Selatan, Maluku Utara",MALUKU UTARA,,Indonesia,82195395349.0,-1.212787,127.49375,https://maps.google.com/?cid=0x0:0x5233e563ac1a9085
supermarket,supermarket,Kecamatan Kayoa Selatan,"Kabupaten Halmahera Selatan, Maluku Utara","Kabupaten Halmahera Selatan, Maluku Utara",MALUKU UTARA,,Indonesia,,-0.0404558,127.4257645,https://maps.google.com/?cid=0x0:0x611025dc11fc6411
supermarket,Toko,Toko Gibran Jaya,"2C66+4GC, Guruapin, Kec. Kayoa, Kabupaten Halmahera Selatan, Maluku Utara","Kabupaten Halmahera Selatan, Maluku Utara",MALUKU UTARA,,Indonesia,81282339785.0,0.0103065,127.4112514,https://maps.google.com/?cid=0x0:0x6eb9b45a9d972e23
supermarket,Pusat Perbelanjaan,DHIKA,"2C56+X9Q, Guruapin, Kec. Kayoa, Kabupaten Halmahera Selatan, Maluku Utara","Kabupaten Halmahera Selatan, Maluku Utara",MALUKU UTARA,,Indonesia,82398360407.0,0.0099272,127.4109253,https://maps.google.com/?cid=0x0:0xfec91e87937ed504
supermarket,Perumahan,Alvin shairhuzs,"XC5G+WWP, Laluin, Kecamatan Kayoa Selatan, Kabupaten Halmahera Selatan, Maluku Utara","Kabupaten Halmahera Selatan, Maluku Utara",MALUKU UTARA,,Indonesia,,-0.0401557,127.4273401,https://maps.google.com/?cid=0x0:0x87e87954ca15558
supermarket,Toko Elektronik,Reyhan elekteonic,"2C66+4GF, Guruapin, Kec. Kayoa, Kabupaten Halmahera Selatan, Maluku Utara","Kabupaten Halmahera Selatan, Maluku Utara",MALUKU UTARA,,Indonesia,81354910868.0,0.0103101,127.4113113,https://maps.google.com/?cid=0x0:0x52876af407c65922
supermarket,Toko bahan makanan,Toko Cahaya Lamena,"QH2G+P7R, Galala, Oba Utara, Kota Tidore Kepulauan, Maluku Utara","Kota Tidore Kepulauan, Maluku Utara",MALUKU UTARA,,Indonesia,,0.751868,127.5756508,https://maps.google.com/?cid=0x0:0x7802429783082dbc
supermarket,Pusat Perbelanjaan,Foodmart Supermarket HPAL,"FC84+2W3, Kawasi, Kec. Obi, Kabupaten Halmahera Selatan, Maluku Utara","Kabupaten Halmahera Selatan, Maluku Utara",MALUKU UTARA,,Indonesia,,-1.5349881,127.4072862,https://maps.google.com/?cid=0x0:0xdc291ea06f8d91fb
supermarket,Kantor Perusahaan,Pangkalan Kayu Dua Putra,"Guruapin, Kec. Kayoa, Kabupaten Halmahera Selatan, Maluku Utara 97551","Kec. Kayoa, Kabupaten Halmahera Selatan",MALUKU UTARA,97551.0,Indonesia,85146488585.0,0.0106403,127.4115613,https://maps.google.com/?cid=0x0:0xe363bbc5d91907ff
supermarket,Toko Aksesori Ponsel,SARI MALAHA CELL,"XCVC+H5Q, Tawabi, Kec. Kayoa, Kabupaten Halmahera Selatan, Maluku Utara","Kabupaten Halmahera Selatan, Maluku Utara",MALUKU UTARA,,Indonesia,,-0.0054829,127.4209426,https://maps.google.com/?cid=0x0:0xf0b755640d734111
supermarket,supermarket,Usaha Nelayan,"XC7G+7M5, Laluin, Kabupaten Halmahera Selatan, Maluku Utara","Kabupaten Halmahera Selatan, Maluku Utara",MALUKU UTARA,,Indonesia,85311270396.0,-0.036874,127.4267265,https://maps.google.com/?cid=0x0:0x495999fe641ba77
supermarket,supermarket,Anak party,"XC3F+F4C, Laluin, Kecamatan Kayoa Selatan, Kabupaten Halmahera Selatan, Maluku Utara","Kabupaten Halmahera Selatan, Maluku Utara",MALUKU UTARA,,Indonesia,,-0.0463231,127.4227751,https://maps.google.com/?cid=0x0:0x3524cd99d4bf2a72
supermarket,Toko,Komunitas Gheger,"XC5G+MGP, Laluin, Kecamatan Kayoa Selatan, Kabupaten Halmahera Selatan, Maluku Utara","Kabupaten Halmahera Selatan, Maluku Utara",MALUKU UTARA,,Indonesia,,-0.0408149,127.4262773,https://maps.google.com/?cid=0x0:0xabcb2ec801fc0d0f
supermarket,Toko sembako pemerintah,UD Gane Jaya,"76W9+W96, Gane Luar, Kec. Gane Tim. Sel., Kabupaten Halmahera Selatan, Maluku Utara","Kabupaten Halmahera Selatan, Maluku Utara",MALUKU UTARA,,Indonesia,81355494027.0,-0.7027201,128.2184016,https://maps.google.com/?cid=0x0:0xdcf6def16983deb5
supermarket,Toko Swalayan,Toko Antaress Gane Dalam,"66H9+XXF, Gane Dalam, Kec. Gane Bar. Sel., Kabupaten Halmahera Selatan, Maluku Utara","Kabupaten Halmahera Selatan, Maluku Utara",MALUKU UTARA,,Indonesia,,-0.7700703,128.2199308,https://maps.google.com/?cid=0x0:0xf3a541bc877a55cc
supermarket,supermarket,Kec. Gane Tim. Sel.,"Kabupaten Halmahera Selatan, Maluku Utara","Kabupaten Halmahera Selatan, Maluku Utara",MALUKU UTARA,,Indonesia,,-0.7047222,128.2191774,https://maps.google.com/?cid=0x0:0x5d731fac62ca9680
supermarket,Toko Swalayan,Toko swalayan GANE luar,"Gane Luar, Kec. Gane Tim. Sel., Kabupaten Halmahera Selatan, Maluku Utara 97783","Kec. Gane Tim. Sel., Kabupaten Halmahera Selatan",MALUKU UTARA,97783.0,Indonesia,82224277464.0,-0.7020529,128.2179996,https://maps.google.com/?cid=0x0:0xf42fcf580751c1f3
supermarket,Toko Swalayan,Karim jaya,"76W9+W96, Gane Luar, Kec. Gane Tim. Sel., Kabupaten Halmahera Selatan, Maluku Utara","Kabupaten Halmahera Selatan, Maluku Utara",MALUKU UTARA,,Indonesia,,-0.701929,128.217981,https://maps.google.com/?cid=0x0:0x33fe092ea78907ef
supermarket,Kantor Perusahaan,Kecamatan gane timur Halmahera Selatan,"76W9+4MV, Gane Luar, Kec. Gane Tim. Sel., Kabupaten Halmahera Selatan, Maluku Utara","Kabupaten Halmahera Selatan, Maluku Utara",MALUKU UTARA,,Indonesia,,-0.7046284,128.219161,https://maps.google.com/?cid=0x0:0x30f91c1aee69ab90
supermarket,supermarket,JRStore,"Ranga Ranga, Kec. Gane Tim. Sel., Kabupaten Halmahera Selatan, Maluku Utara 97787","Kec. Gane Tim. Sel., Kabupaten Halmahera Selatan",MALUKU UTARA,97787.0,Indonesia,82214508946.0,-0.6563634,128.1918715,https://maps.google.com/?cid=0x0:0xe27505277da78d66
supermarket,Toko,Toko achae,"66FX+X6J, Gane Dalam, Kec. Gane Bar. Sel., Kabupaten Halmahera Selatan, Maluku Utara","Kabupaten Halmahera Selatan, Maluku Utara",MALUKU UTARA,,Indonesia,,-0.7750379,128.2480302,https://maps.google.com/?cid=0x0:0xa91fc0150852640
supermarket,supermarket,Kec. Gane Bar. Sel.,"Kabupaten Halmahera Selatan, Maluku Utara","Kabupaten Halmahera Selatan, Maluku Utara",MALUKU UTARA,,Indonesia,,-0.762002,128.203222,https://maps.google.com/?cid=0x0:0x53c8be4d55503c6d
supermarket,Toko Swalayan,Toko Antaress Gane Dalam,"66H9+XXF, Gane Dalam, Kec. Gane Bar. Sel., Kabupaten Halmahera Selatan, Maluku Utara","Kabupaten Halmahera Selatan, Maluku Utara",MALUKU UTARA,,Indonesia,,-0.7700703,128.2199308,https://maps.google.com/?cid=0x0:0xf3a541bc877a55cc
supermarket,Toko sembako pemerintah,UD Gane Jaya,"76W9+W96, Gane Luar, Kec. Gane Tim. Sel., Kabupaten Halmahera Selatan, Maluku Utara","Kabupaten Halmahera Selatan, Maluku Utara",MALUKU UTARA,,Indonesia,81355494027.0,-0.7027201,128.2184016,https://maps.google.com/?cid=0x0:0xdcf6def16983deb5
supermarket,Toko,Toko achae,"66FX+X6J, Gane Dalam, Kec. Gane Bar. Sel., Kabupaten Halmahera Selatan, Maluku Utara","Kabupaten Halmahera Selatan, Maluku Utara",MALUKU UTARA,,Indonesia,,-0.7750379,128.2480302,https://maps.google.com/?cid=0x0:0xa91fc0150852640
supermarket,Toko Swalayan,Toko swalayan GANE luar,"Gane Luar, Kec. Gane Tim. Sel., Kabupaten Halmahera Selatan, Maluku Utara 97783","Kec. Gane Tim. Sel., Kabupaten Halmahera Selatan",MALUKU UTARA,97783.0,Indonesia,82224277464.0,-0.7020529,128.2179996,https://maps.google.com/?cid=0x0:0xf42fcf580751c1f3
supermarket,Toko Swalayan,Karim jaya,"76W9+W96, Gane Luar, Kec. Gane Tim. Sel., Kabupaten Halmahera Selatan, Maluku Utara","Kabupaten Halmahera Selatan, Maluku Utara",MALUKU UTARA,,Indonesia,,-0.701929,128.217981,https://maps.google.com/?cid=0x0:0x33fe092ea78907ef
supermarket,supermarket,achae,"66J9+2CQ, Jl. Siswa, Kabupaten Halmahera Selatan, Maluku Utara","Kabupaten Halmahera Selatan, Maluku Utara",MALUKU UTARA,,Indonesia,,-0.7699239,128.2185963,https://maps.google.com/?cid=0x0:0xa59a92c0342671c5
supermarket,Kantor Perusahaan,Kecamatan gane timur Halmahera Selatan,"76W9+4MV, Gane Luar, Kec. Gane Tim. Sel., Kabupaten Halmahera Selatan, Maluku Utara","Kabupaten Halmahera Selatan, Maluku Utara",MALUKU UTARA,,Indonesia,,-0.7046284,128.219161,https://maps.google.com/?cid=0x0:0x30f91c1aee69ab90
supermarket,supermarket,JRStore,"Ranga Ranga, Kec. Gane Tim. Sel., Kabupaten Halmahera Selatan, Maluku Utara 97787","Kec. Gane Tim. Sel., Kabupaten Halmahera Selatan",MALUKU UTARA,97787.0,Indonesia,82214508946.0,-0.6563634,128.1918715,https://maps.google.com/?cid=0x0:0xe27505277da78d66
supermarket,supermarket,TIMUR BARAT,"76V9+WMC, Gane Luar, Kec. Gane Tim. Sel., Kabupaten Halmahera Selatan, Maluku Utara","Kabupaten Halmahera Selatan, Maluku Utara",MALUKU UTARA,,Indonesia,,-0.7051759,128.2191519,https://maps.google.com/?cid=0x0:0xf9520863093dda84
supermarket,supermarket,Obi Sel.,"Kabupaten Halmahera Selatan, Maluku Utara","Kabupaten Halmahera Selatan, Maluku Utara",MALUKU UTARA,,Indonesia,,-1.6047188,127.681228,https://maps.google.com/?cid=0x0:0xee55ecd0b3e7ac39
supermarket,Pusat Perbelanjaan,Foodmart Supermarket HPAL,"FC84+2W3, Kawasi, Kec. Obi, Kabupaten Halmahera Selatan, Maluku Utara","Kabupaten Halmahera Selatan, Maluku Utara",MALUKU UTARA,,Indonesia,,-1.5349881,127.4072862,https://maps.google.com/?cid=0x0:0xdc291ea06f8d91fb
supermarket,Pusat Perbelanjaan,Food Mart Supermarket,"CCVH+QCF, Kawasi, Kec. Obi, Kabupaten Halmahera Selatan, Maluku Utara","Kabupaten Halmahera Selatan, Maluku Utara",MALUKU UTARA,,Indonesia,,-1.5555404,127.4285828,https://maps.google.com/?cid=0x0:0x146e9c10b6cd5fca
supermarket,Toko,Kios lela,"8CRF+M9F, Soligi, Obi Sel., Kabupaten Halmahera Selatan, Maluku Utara","Kabupaten Halmahera Selatan, Maluku Utara",MALUKU UTARA,,Indonesia,,-1.6583207,127.4234298,https://maps.google.com/?cid=0x0:0x8eb7d1fc6282369c
supermarket,Toko,Toko Nissa,"Soligi, Obi Sel., Kabupaten Halmahera Selatan, Maluku Utara","Kabupaten Halmahera Selatan, Maluku Utara",MALUKU UTARA,,Indonesia,,-1.6558792,127.4224462,https://maps.google.com/?cid=0x0:0x88be2762a66a72f3
supermarket,Pusat Perbelanjaan,Toko Anugerah,"CCX6+VMF, Kawasi, Kec. Obi, Kabupaten Halmahera Selatan, Maluku Utara","Kabupaten Halmahera Selatan, Maluku Utara",MALUKU UTARA,,Indonesia,82196815252.0,-1.5503225,127.4116643,https://maps.google.com/?cid=0x0:0xe908383196daef96
supermarket,Toko Perlengkapan Rumah,Toko karya bersama,"FPQF+JGJ, Anggai, Kec. Obi, Kabupaten Halmahera Selatan, Maluku Utara","Kabupaten Halmahera Selatan, Maluku Utara",MALUKU UTARA,,Indonesia,,-1.5109015,127.7237678,https://maps.google.com/?cid=0x0:0x6601c92737a78b40
supermarket,Toko umum,Kios stiven,"8V8J+PHF, Pulau, Obi Sel., Kabupaten Halmahera Selatan, Maluku Utara","Kabupaten Halmahera Selatan, Maluku Utara",MALUKU UTARA,,Indonesia,,-1.6831957,127.88142,https://maps.google.com/?cid=0x0:0xa1d76123927ac3b7
supermarket,supermarket,Kios Helni,"5JGR+XC4, Jalan tengah, Mano, Obi Sel., Kabupaten Halmahera Selatan, Maluku Utara","Kabupaten Halmahera Selatan, Maluku Utara",MALUKU UTARA,,Indonesia,,-1.8226197,127.6410746,https://maps.google.com/?cid=0x0:0x9ac77600838c7153
supermarket,Pusat Perbelanjaan,CAFE NYALA  HOP MART,"FC39+5J6, Kawasi, Kec. Obi, Kabupaten Halmahera Selatan, Maluku Utara","Kabupaten Halmahera Selatan, Maluku Utara",MALUKU UTARA,,Indonesia,,-1.5463512,127.4189369,https://maps.google.com/?cid=0x0:0xabc7af0a55a84b6d
supermarket,Minimarket,Toko FAUSIL WALI,"8CVF+53C, Soligi, Obi Sel., Kabupaten Halmahera Selatan, Maluku Utara","Kabupaten Halmahera Selatan, Maluku Utara",MALUKU UTARA,,Indonesia,,-1.6570639,127.422625,https://maps.google.com/?cid=0x0:0xcd2d8619c71e3989
supermarket,Toko,Kios mma tiara,"5JFV+6Q, Mano, Obi Sel., Kabupaten Halmahera Selatan, Maluku Utara","Kabupaten Halmahera Selatan, Maluku Utara",MALUKU UTARA,,Indonesia,,-1.8270253,127.6445853,https://maps.google.com/?cid=0x0:0x876c90fcc978313
supermarket,Toko,Kios DIUS-OCI,"7MVF+VJQ, Ocimaloleo, Obi Sel., Kabupaten Halmahera Selatan, Maluku Utara","Kabupaten Halmahera Selatan, Maluku Utara",MALUKU UTARA,,Indonesia,,-1.7052634,127.6740378,https://maps.google.com/?cid=0x0:0x3baa154fde7cb804
supermarket,Penyewaan mesin dan peralatan,Plant Oxigen,"FC4C+86, Kawasi, Kec. Obi, Kabupaten Halmahera Selatan, Maluku Utara","Kabupaten Halmahera Selatan, Maluku Utara",MALUKU UTARA,,Indonesia,,-1.5442414,127.4205316,https://maps.google.com/?cid=0x0:0xe01a2142876233f6
supermarket,Pusat Perbelanjaan,Foodmart Supermarket HPAL,"FC84+2W3, Kawasi, Kec. Obi, Kabupaten Halmahera Selatan, Maluku Utara","Kabupaten Halmahera Selatan, Maluku Utara",MALUKU UTARA,,Indonesia,,-1.5349881,127.4072862,https://maps.google.com/?cid=0x0:0xdc291ea06f8d91fb
supermarket,Pusat Perbelanjaan,Food Mart Supermarket,"CCVH+QCF, Kawasi, Kec. Obi, Kabupaten Halmahera Selatan, Maluku Utara","Kabupaten Halmahera Selatan, Maluku Utara",MALUKU UTARA,,Indonesia,,-1.5555404,127.4285828,https://maps.google.com/?cid=0x0:0x146e9c10b6cd5fca
supermarket,supermarket,Kec. Bacan Tim. Sel.,"Kabupaten Halmahera Selatan, Maluku Utara","Kabupaten Halmahera Selatan, Maluku Utara",MALUKU UTARA,,Indonesia,,-0.8138816,127.872846,https://maps.google.com/?cid=0x0:0x10b732e030ec504d
supermarket,Grosir Barang Kelontong,AWN MART,"9JC2+P9G, Babang, Kec. Bacan Tim., Kabupaten Halmahera Selatan, Maluku Utara","Kabupaten Halmahera Selatan, Maluku Utara",MALUKU UTARA,,Indonesia,82196590101.0,-0.628183,127.600966,https://maps.google.com/?cid=0x0:0x22d99f3dae3cc3d7
supermarket,Toko,Toko Alam (ifaAnca),"Marabose, Kec. Bacan, Kabupaten Halmahera Selatan, Maluku Utara 97791","Kec. Bacan, Kabupaten Halmahera Selatan",MALUKU UTARA,97791.0,Indonesia,82296302084.0,-0.633805,127.5262057,https://maps.google.com/?cid=0x0:0xe9a68ece002f124b
supermarket,Toko Swalayan,Toko Modern Mart - Labuha,"9F9J+RFG, Labuha, Kec. Bacan, Kabupaten Halmahera Selatan, Maluku Utara","Kabupaten Halmahera Selatan, Maluku Utara",MALUKU UTARA,,Indonesia,,-0.6306101,127.4814384,https://maps.google.com/?cid=0x0:0x88405cad4c45b55f
supermarket,Minimarket,Palm mini market,"9FCJ+7W8, Jl. Oesman Syah, Labuha, Kec. Bacan, Kabupaten Halmahera Selatan, Maluku Utara","Kabupaten Halmahera Selatan, Maluku Utara",MALUKU UTARA,,Indonesia,,-0.6293395,127.4823137,https://maps.google.com/?cid=0x0:0x81778a52c31a5af7
supermarket,Pasar,Toko Naser Babang,"9J95+G7Q, Babang, Kec. Bacan Tim., Kabupaten Halmahera Selatan, Maluku Utara","Kabupaten Halmahera Selatan, Maluku Utara",MALUKU UTARA,,Indonesia,,-0.6311686,127.608234,https://maps.google.com/?cid=0x0:0x9c97ce645ff62625
supermarket,Toko bahan makanan,Go Mart,"Jln. Pelabuhan Lama, Labuha, Kec. Bacan, Kabupaten Halmahera Selatan, Maluku Utara 97791","Labuha, Kec. Bacan, Kabupaten Halmahera Selatan",MALUKU UTARA,97791.0,Indonesia,81341513113.0,-0.6320778,127.4807115,https://maps.google.com/?cid=0x0:0x206d871183d03e7c
supermarket,Pasar,Pasar Baru Labuha,"9F7M+F5V, Labuha, Kec. Bacan, Kabupaten Halmahera Selatan, Maluku Utara","Kabupaten Halmahera Selatan, Maluku Utara",MALUKU UTARA,,Indonesia,,-0.6362729,127.4829272,https://maps.google.com/?cid=0x0:0xa5bf40c06d8fff48
supermarket,Toko,Toko TIMUR JAYA,"Jln. Ainul Yaqin, Wayaua, Kec. Bacan Tim. Sel., Kabupaten Halmahera Selatan, Maluku Utara 97791","Wayaua, Kec. Bacan Tim. Sel., Kabupaten Halmahera Selatan",MALUKU UTARA,97791.0,Indonesia,85342403369.0,-0.7439323,127.6420793,https://maps.google.com/?cid=0x0:0x87228525797c450d
supermarket,Toko Swalayan,Toko BACAN INDAH,"9FFG+79Q, Jl. Molunjunga, Amasing Kota, Kec. Bacan, Kabupaten Halmahera Selatan, Maluku Utara","Kabupaten Halmahera Selatan, Maluku Utara",MALUKU UTARA,,Indonesia,,-0.6267802,127.4759947,https://maps.google.com/?cid=0x0:0x6e13479573268497
supermarket,Toko Swalayan,Toko Musiana,"8F9H+MPQ, Gandasuli, Kec. Bacan Sel., Kabupaten Halmahera Selatan, Maluku Utara","Kabupaten Halmahera Selatan, Maluku Utara",MALUKU UTARA,,Indonesia,82191710115.0,-0.6807789,127.4793718,https://maps.google.com/?cid=0x0:0xc74297ccb1c5ae6a
supermarket,Pusat Perbelanjaan,Toko ENJELI,"9J94+99G, Tim., Babang, Kec. Bacan Tim., Kabupaten Halmahera Selatan, Maluku Utara","Kabupaten Halmahera Selatan, Maluku Utara",MALUKU UTARA,,Indonesia,81254394396.0,-0.6315505,127.6059497,https://maps.google.com/?cid=0x0:0xfc5f446ce19b3acd
supermarket,Toko bahan makanan,mama gode,"8F9H+FM6, Unnamed Road, Gandasuli, Kec. Bacan Sel., Kabupaten Halmahera Selatan, Maluku Utara","Kabupaten Halmahera Selatan, Maluku Utara",MALUKU UTARA,,Indonesia,82226730956.0,-0.6813455,127.479125,https://maps.google.com/?cid=0x0:0x5d044c0ad48b0554
supermarket,Toko Perlengkapan Rumah,Toko Makmur Sentosa,"Jl. Raya Labuha-Babang, RT.005/RW.002, Babang, Kec. Bacan Tim., Kabupaten Halmahera Selatan, Maluku Utara 97791","RT.005/RW.002, Babang, Kec. Bacan Tim., Kabupaten Halmahera Selatan",MALUKU UTARA,97791.0,Indonesia,82251115135.0,-0.6277676,127.6016475,https://maps.google.com/?cid=0x0:0xdb14a98f0152ee26
supermarket,Minimarket,Palm Minimarket,"9F6P+6PJ, Tomori, Kec. Bacan, Kabupaten Halmahera Selatan, Maluku Utara","Kabupaten Halmahera Selatan, Maluku Utara",MALUKU UTARA,,Indonesia,,-0.639421,127.4867721,https://maps.google.com/?cid=0x0:0x2a236c586faf1151
supermarket,Minimarket,Palm mini market,"9FCJ+7W8, Jl. Oesman Syah, Labuha, Kec. Bacan, Kabupaten Halmahera Selatan, Maluku Utara","Kabupaten Halmahera Selatan, Maluku Utara",MALUKU UTARA,,Indonesia,,-0.6293395,127.4823137,https://maps.google.com/?cid=0x0:0x81778a52c31a5af7
supermarket,Toko Swalayan,Toko BACAN INDAH,"9FFG+79Q, Jl. Molunjunga, Amasing Kota, Kec. Bacan, Kabupaten Halmahera Selatan, Maluku Utara","Kabupaten Halmahera Selatan, Maluku Utara",MALUKU UTARA,,Indonesia,,-0.6267802,127.4759947,https://maps.google.com/?cid=0x0:0x6e13479573268497
supermarket,Toko Swalayan,Toko Modern Mart - Labuha,"9F9J+RFG, Labuha, Kec. Bacan, Kabupaten Halmahera Selatan, Maluku Utara","Kabupaten Halmahera Selatan, Maluku Utara",MALUKU UTARA,,Indonesia,,-0.6306101,127.4814384,https://maps.google.com/?cid=0x0:0x88405cad4c45b55f
supermarket,Pasar,Pasar Baru Labuha,"9F7M+F5V, Labuha, Kec. Bacan, Kabupaten Halmahera Selatan, Maluku Utara","Kabupaten Halmahera Selatan, Maluku Utara",MALUKU UTARA,,Indonesia,,-0.6362729,127.4829272,https://maps.google.com/?cid=0x0:0xa5bf40c06d8fff48
supermarket,Toko Swalayan,KIOS ZAHRANI,"9FFH+977, Labuha, Kec. Bacan, Kabupaten Halmahera Selatan, Maluku Utara","Kabupaten Halmahera Selatan, Maluku Utara",MALUKU UTARA,,Indonesia,,-0.62658,127.4781703,https://maps.google.com/?cid=0x0:0x4fc2f12225262ced
supermarket,Toko bahan makanan,Kios angi saputra,"9F6J+V3J, Labuha, Kec. Bacan, Kabupaten Halmahera Selatan, Maluku Utara","Kabupaten Halmahera Selatan, Maluku Utara",MALUKU UTARA,,Indonesia,85230570725.0,-0.6377981,127.4801299,https://maps.google.com/?cid=0x0:0xdaa2cff012bcf70e
supermarket,Toko Perlengkapan Rumah,I HOME STORE BACAN,"9F6X+5RJ, Babang - Labuha, Hidayat, Kec. Bacan, Kabupaten Halmahera Selatan, Maluku Utara","Kabupaten Halmahera Selatan, Maluku Utara",MALUKU UTARA,,Indonesia,82334223688.0,-0.6395264,127.4995055,https://maps.google.com/?cid=0x0:0xeadeee00fe632e3c
supermarket,Toko Swalayan,Toko Ijo,"8FWM+Q79, Mandaong, Kec. Bacan Sel., Kabupaten Halmahera Selatan, Maluku Utara","Kabupaten Halmahera Selatan, Maluku Utara",MALUKU UTARA,,Indonesia,,-0.6530834,127.4832291,https://maps.google.com/?cid=0x0:0x190fd5ccb44ce8cf
supermarket,Toko Swalayan,Toko Mentari Bacan,"9F4Q+FQH, Jl. Tomori - Labuha, Tomori, Kec. Bacan, Kabupaten Halmahera Selatan, Maluku Utara","Kabupaten Halmahera Selatan, Maluku Utara",MALUKU UTARA,,Indonesia,,-0.6437288,127.4892807,https://maps.google.com/?cid=0x0:0xd768d61f19aec395
supermarket,Toko outlet,Almira Bacan,"JVRV+QGC, Jl. Jankes AD, RT.8/RW.2, Munjul, Kec. Cipayung, Kota Jakarta Timur, Daerah Khusus Ibukota Jakarta 13850","Jl. Jankes AD, RT.8/RW.2, Munjul, Kec. Cipayung, Kota Jakarta Timur",MALUKU UTARA,13850.0,Indonesia,8128668886.0,-6.3580607,106.8937691,https://maps.google.com/?cid=0x0:0x833da7fdeb5890ea
supermarket,Toko Swalayan,BONE STALL HOME,"9F5R+M3F, Tomori, Kec. Bacan, Kabupaten Halmahera Selatan, Maluku Utara 97791","Tomori, Kec. Bacan, Kabupaten Halmahera Selatan",MALUKU UTARA,97791.0,Indonesia,81243691727.0,-0.6408175,127.4901834,https://maps.google.com/?cid=0x0:0xc69f33e328d1a962
supermarket,Minimarket,Palm mini market,"9FCJ+7W8, Jl. Oesman Syah, Labuha, Kec. Bacan, Kabupaten Halmahera Selatan, Maluku Utara","Kabupaten Halmahera Selatan, Maluku Utara",MALUKU UTARA,,Indonesia,,-0.6293395,127.4823137,https://maps.google.com/?cid=0x0:0x81778a52c31a5af7
supermarket,Toko Swalayan,Toko BACAN INDAH,"9FFG+79Q, Jl. Molunjunga, Amasing Kota, Kec. Bacan, Kabupaten Halmahera Selatan, Maluku Utara","Kabupaten Halmahera Selatan, Maluku Utara",MALUKU UTARA,,Indonesia,,-0.6267802,127.4759947,https://maps.google.com/?cid=0x0:0x6e13479573268497
supermarket,Minimarket,Palm Minimarket,"9F6P+6PJ, Tomori, Kec. Bacan, Kabupaten Halmahera Selatan, Maluku Utara","Kabupaten Halmahera Selatan, Maluku Utara",MALUKU UTARA,,Indonesia,,-0.639421,127.4867721,https://maps.google.com/?cid=0x0:0x2a236c586faf1151
supermarket,Pasar,Pasar Baru Labuha,"9F7M+F5V, Labuha, Kec. Bacan, Kabupaten Halmahera Selatan, Maluku Utara","Kabupaten Halmahera Selatan, Maluku Utara",MALUKU UTARA,,Indonesia,,-0.6362729,127.4829272,https://maps.google.com/?cid=0x0:0xa5bf40c06d8fff48
supermarket,Toko Swalayan,Toko Modern Mart - Labuha,"9F9J+RFG, Labuha, Kec. Bacan, Kabupaten Halmahera Selatan, Maluku Utara","Kabupaten Halmahera Selatan, Maluku Utara",MALUKU UTARA,,Indonesia,,-0.6306101,127.4814384,https://maps.google.com/?cid=0x0:0x88405cad4c45b55f
supermarket,Toko,Toko Alam (ifaAnca),"Marabose, Kec. Bacan, Kabupaten Halmahera Selatan, Maluku Utara 97791","Kec. Bacan, Kabupaten Halmahera Selatan",MALUKU UTARA,97791.0,Indonesia,82296302084.0,-0.633805,127.5262057,https://maps.google.com/?cid=0x0:0xe9a68ece002f124b
supermarket,Pasar,Toko Naser Babang,"9J95+G7Q, Babang, Kec. Bacan Tim., Kabupaten Halmahera Selatan, Maluku Utara","Kabupaten Halmahera Selatan, Maluku Utara",MALUKU UTARA,,Indonesia,,-0.6311686,127.608234,https://maps.google.com/?cid=0x0:0x9c97ce645ff62625
supermarket,Toko makanan beku,Chicken Mart,"Jl, Kp. Makian, Bacan, Kabupaten Halmahera Selatan, Maluku Utara 97791","Kp. Makian, Bacan, Kabupaten Halmahera Selatan",MALUKU UTARA,97791.0,Indonesia,82344948786.0,-0.6449322,127.4948545,https://maps.google.com/?cid=0x0:0x3e1817e08db4dc58
supermarket,Toko bahan makanan,mama gode,"8F9H+FM6, Unnamed Road, Gandasuli, Kec. Bacan Sel., Kabupaten Halmahera Selatan, Maluku Utara","Kabupaten Halmahera Selatan, Maluku Utara",MALUKU UTARA,,Indonesia,82226730956.0,-0.6813455,127.479125,https://maps.google.com/?cid=0x0:0x5d044c0ad48b0554
supermarket,Toko bahan makanan,Kios angi saputra,"9F6J+V3J, Labuha, Kec. Bacan, Kabupaten Halmahera Selatan, Maluku Utara","Kabupaten Halmahera Selatan, Maluku Utara",MALUKU UTARA,,Indonesia,85230570725.0,-0.6377981,127.4801299,https://maps.google.com/?cid=0x0:0xdaa2cff012bcf70e
supermarket,Toko Swalayan,KIOS ZAHRANI,"9FFH+977, Labuha, Kec. Bacan, Kabupaten Halmahera Selatan, Maluku Utara","Kabupaten Halmahera Selatan, Maluku Utara",MALUKU UTARA,,Indonesia,,-0.62658,127.4781703,https://maps.google.com/?cid=0x0:0x4fc2f12225262ced
supermarket,Toko Swalayan,Kios Haeriah,"9FGF+GVC, Jl. Amasing Kali, Amasing Kota Utara, Kec. Bacan, Kabupaten Halmahera Selatan, Maluku Utara","Kabupaten Halmahera Selatan, Maluku Utara",MALUKU UTARA,,Indonesia,,-0.6236881,127.4746502,https://maps.google.com/?cid=0x0:0x3431c115bed12cc7
supermarket,Toko Swalayan,Toko Ijo,"8FWM+Q79, Mandaong, Kec. Bacan Sel., Kabupaten Halmahera Selatan, Maluku Utara","Kabupaten Halmahera Selatan, Maluku Utara",MALUKU UTARA,,Indonesia,,-0.6530834,127.4832291,https://maps.google.com/?cid=0x0:0x190fd5ccb44ce8cf
supermarket,Toko Swalayan,BONE STALL HOME,"9F5R+M3F, Tomori, Kec. Bacan, Kabupaten Halmahera Selatan, Maluku Utara 97791","Tomori, Kec. Bacan, Kabupaten Halmahera Selatan",MALUKU UTARA,97791.0,Indonesia,81243691727.0,-0.6408175,127.4901834,https://maps.google.com/?cid=0x0:0xc69f33e328d1a962
supermarket,supermarket,Pulau Makian,"Kabupaten Halmahera Selatan, Maluku Utara","Kabupaten Halmahera Selatan, Maluku Utara",MALUKU UTARA,,Indonesia,,0.3127237,127.4040871,https://maps.google.com/?cid=0x0:0x7d9868f2e9dd90f6
supermarket,supermarket,Kec. Makian Bar.,"Kabupaten Halmahera Selatan, Maluku Utara","Kabupaten Halmahera Selatan, Maluku Utara",MALUKU UTARA,,Indonesia,,0.3281416,127.3464815,https://maps.google.com/?cid=0x0:0x45fdc116119553a4
supermarket,Grosir pakaian,Sari Buah Pala Uto Taba,"9CF9+387, Rabutdaio, Kec. Pulau Makian, Kabupaten Halmahera Selatan, Maluku Utara","Kabupaten Halmahera Selatan, Maluku Utara",MALUKU UTARA,,Indonesia,82195629152.0,0.3726648,127.4182953,https://maps.google.com/?cid=0x0:0x3987a16420a80cf2
supermarket,supermarket,Kios 3 putra desa kota,"9C7C+XQX, Kota, Kec. Pulau Makian, Kabupaten Halmahera Selatan, Maluku Utara","Kabupaten Halmahera Selatan, Maluku Utara",MALUKU UTARA,,Indonesia,,0.366865,127.4220129,https://maps.google.com/?cid=0x0:0xc46b5a7609659d11
supermarket,supermarket,Hj nawawi home,"7CH4+RX, Gurua, Kec. Pulau Makian, Kabupaten Halmahera Selatan, Maluku Utara","Kabupaten Halmahera Selatan, Maluku Utara",MALUKU UTARA,,Indonesia,,0.27935,127.4081257,https://maps.google.com/?cid=0x0:0x3793ed2e13a34ee2
supermarket,Toko bahan makanan,Kios Lucu-Lucu,"7CR4+VP2, Gurua, Kec. Pulau Makian, puncak, Maluku Utara","puncak, Maluku Utara",MALUKU UTARA,,Indonesia,,0.2921401,127.4067571,https://maps.google.com/?cid=0x0:0xc13b9fda7d727f2
supermarket,supermarket,Kios sukma,"88QX+4J4, Talapao, Kec. Makian Bar., Kabupaten Halmahera Selatan, Maluku Utara","Kabupaten Halmahera Selatan, Maluku Utara",MALUKU UTARA,,Indonesia,,0.3377695,127.3490662,https://maps.google.com/?cid=0x0:0xeeaeec6f29876cc
supermarket,supermarket,Kios 3 putra desa kota,"9C7C+XQX, Kota, Kec. Pulau Makian, Kabupaten Halmahera Selatan, Maluku Utara","Kabupaten Halmahera Selatan, Maluku Utara",MALUKU UTARA,,Indonesia,,0.366865,127.4220129,https://maps.google.com/?cid=0x0:0xc46b5a7609659d11
supermarket,supermarket,Pulau Makian,"Kabupaten Halmahera Selatan, Maluku Utara","Kabupaten Halmahera Selatan, Maluku Utara",MALUKU UTARA,,Indonesia,,0.3127237,127.4040871,https://maps.google.com/?cid=0x0:0x7d9868f2e9dd90f6
supermarket,supermarket,Kec. Kayoa Bar.,"Kabupaten Halmahera Selatan, Maluku Utara","Kabupaten Halmahera Selatan, Maluku Utara",MALUKU UTARA,,Indonesia,,-0.2310159,127.0981869,https://maps.google.com/?cid=0x0:0x6b6f3901f6430a7f
supermarket,supermarket,,,,MALUKU UTARA,,Indonesia,82196909584.0,-0.2085135,127.1292434,https://maps.google.com/?cid=0x0:0xd76492a6688c32f7
supermarket,Toko Swalayan,HOKY Supermarket,"Gosoma, Kec. Tobelo, Kabupaten Halmahera Utara, Maluku Utara","Kabupaten Halmahera Utara, Maluku Utara",MALUKU UTARA,,Indonesia,82140889833.0,1.7213547,128.010781,https://maps.google.com/?cid=0x0:0xbce2eabee9bd6692
supermarket,supermarket,Kecamatan Kayoa Selatan,"Kabupaten Halmahera Selatan, Maluku Utara","Kabupaten Halmahera Selatan, Maluku Utara",MALUKU UTARA,,Indonesia,,-0.0404558,127.4257645,https://maps.google.com/?cid=0x0:0x611025dc11fc6411
supermarket,Toko,Toko Gibran Jaya,"2C66+4GC, Guruapin, Kec. Kayoa, Kabupaten Halmahera Selatan, Maluku Utara","Kabupaten Halmahera Selatan, Maluku Utara",MALUKU UTARA,,Indonesia,81282339785.0,0.0103065,127.4112514,https://maps.google.com/?cid=0x0:0x6eb9b45a9d972e23
supermarket,Pusat Perbelanjaan,DHIKA,"2C56+X9Q, Guruapin, Kec. Kayoa, Kabupaten Halmahera Selatan, Maluku Utara","Kabupaten Halmahera Selatan, Maluku Utara",MALUKU UTARA,,Indonesia,82398360407.0,0.0099272,127.4109253,https://maps.google.com/?cid=0x0:0xfec91e87937ed504
supermarket,Pusat Perbelanjaan,Foodmart Supermarket HPAL,"FC84+2W3, Kawasi, Kec. Obi, Kabupaten Halmahera Selatan, Maluku Utara","Kabupaten Halmahera Selatan, Maluku Utara",MALUKU UTARA,,Indonesia,,-1.5349881,127.4072862,https://maps.google.com/?cid=0x0:0xdc291ea06f8d91fb
supermarket,Toko Elektronik,Reyhan elekteonic,"2C66+4GF, Guruapin, Kec. Kayoa, Kabupaten Halmahera Selatan, Maluku Utara","Kabupaten Halmahera Selatan, Maluku Utara",MALUKU UTARA,,Indonesia,81354910868.0,0.0103101,127.4113113,https://maps.google.com/?cid=0x0:0x52876af407c65922
supermarket,Kantor Perusahaan,Pangkalan Kayu Dua Putra,"Guruapin, Kec. Kayoa, Kabupaten Halmahera Selatan, Maluku Utara 97551","Kec. Kayoa, Kabupaten Halmahera Selatan",MALUKU UTARA,97551.0,Indonesia,85146488585.0,0.0106403,127.4115613,https://maps.google.com/?cid=0x0:0xe363bbc5d91907ff
supermarket,Toko Aksesori Ponsel,SARI MALAHA CELL,"XCVC+H5Q, Tawabi, Kec. Kayoa, Kabupaten Halmahera Selatan, Maluku Utara","Kabupaten Halmahera Selatan, Maluku Utara",MALUKU UTARA,,Indonesia,,-0.0054829,127.4209426,https://maps.google.com/?cid=0x0:0xf0b755640d734111
supermarket,supermarket,Usaha Nelayan,"XC7G+7M5, Laluin, Kabupaten Halmahera Selatan, Maluku Utara","Kabupaten Halmahera Selatan, Maluku Utara",MALUKU UTARA,,Indonesia,85311270396.0,-0.036874,127.4267265,https://maps.google.com/?cid=0x0:0x495999fe641ba77
supermarket,supermarket,Anak party,"XC3F+F4C, Laluin, Kecamatan Kayoa Selatan, Kabupaten Halmahera Selatan, Maluku Utara","Kabupaten Halmahera Selatan, Maluku Utara",MALUKU UTARA,,Indonesia,,-0.0463231,127.4227751,https://maps.google.com/?cid=0x0:0x3524cd99d4bf2a72
supermarket,Toko,Komunitas Gheger,"XC5G+MGP, Laluin, Kecamatan Kayoa Selatan, Kabupaten Halmahera Selatan, Maluku Utara","Kabupaten Halmahera Selatan, Maluku Utara",MALUKU UTARA,,Indonesia,,-0.0408149,127.4262773,https://maps.google.com/?cid=0x0:0xabcb2ec801fc0d0f
supermarket,supermarket,Maluku Utara,,Maluku Utara,MALUKU UTARA,,Indonesia,,1.5709993,127.8087693,https://maps.google.com/?cid=0x0:0x1030bfbcaf71ac0
supermarket,Toko Swalayan,HOKY Supermarket,"Gosoma, Kec. Tobelo, Kabupaten Halmahera Utara, Maluku Utara","Kabupaten Halmahera Utara, Maluku Utara",MALUKU UTARA,,Indonesia,82140889833.0,1.7213547,128.010781,https://maps.google.com/?cid=0x0:0xbce2eabee9bd6692
supermarket,Toko bahan makanan,Toko Cahaya Lamena,"QH2G+P7R, Galala, Oba Utara, Kota Tidore Kepulauan, Maluku Utara","Kota Tidore Kepulauan, Maluku Utara",MALUKU UTARA,,Indonesia,,0.751868,127.5756508,https://maps.google.com/?cid=0x0:0x7802429783082dbc
supermarket,supermarket,Kec. Kayoa Utara,"Kabupaten Halmahera Selatan, Maluku Utara","Kabupaten Halmahera Selatan, Maluku Utara",MALUKU UTARA,,Indonesia,,0.1242204,127.4471181,https://maps.google.com/?cid=0x0:0xd99a2feb58f3015d
supermarket,Pasar,Indomaret Pasar Akelamo,"4FHH+36V, Akelamo, Kec. Sahu Tim., Kabupaten Halmahera Barat, Maluku Utara","Kabupaten Halmahera Barat, Maluku Utara",MALUKU UTARA,,Indonesia,8117500280.0,1.1277403,127.478039,https://maps.google.com/?cid=0x0:0x7bd6bf14c811af8d
supermarket,Toko,Toko Gibran Jaya,"2C66+4GC, Guruapin, Kec. Kayoa, Kabupaten Halmahera Selatan, Maluku Utara","Kabupaten Halmahera Selatan, Maluku Utara",MALUKU UTARA,,Indonesia,81282339785.0,0.0103065,127.4112514,https://maps.google.com/?cid=0x0:0x6eb9b45a9d972e23
supermarket,Toko Elektronik,Reyhan elekteonic,"2C66+4GF, Guruapin, Kec. Kayoa, Kabupaten Halmahera Selatan, Maluku Utara","Kabupaten Halmahera Selatan, Maluku Utara",MALUKU UTARA,,Indonesia,81354910868.0,0.0103101,127.4113113,https://maps.google.com/?cid=0x0:0x52876af407c65922
supermarket,Pusat Perbelanjaan,DHIKA,"2C56+X9Q, Guruapin, Kec. Kayoa, Kabupaten Halmahera Selatan, Maluku Utara","Kabupaten Halmahera Selatan, Maluku Utara",MALUKU UTARA,,Indonesia,82398360407.0,0.0099272,127.4109253,https://maps.google.com/?cid=0x0:0xfec91e87937ed504
supermarket,Toko Aksesori Ponsel,SARI MALAHA CELL,"XCVC+H5Q, Tawabi, Kec. Kayoa, Kabupaten Halmahera Selatan, Maluku Utara","Kabupaten Halmahera Selatan, Maluku Utara",MALUKU UTARA,,Indonesia,,-0.0054829,127.4209426,https://maps.google.com/?cid=0x0:0xf0b755640d734111
supermarket,Kantor Perusahaan,Pangkalan Kayu Dua Putra,"Guruapin, Kec. Kayoa, Kabupaten Halmahera Selatan, Maluku Utara 97551","Kec. Kayoa, Kabupaten Halmahera Selatan",MALUKU UTARA,97551.0,Indonesia,85146488585.0,0.0106403,127.4115613,https://maps.google.com/?cid=0x0:0xe363bbc5d91907ff
supermarket,supermarket,Kec. Bacan Bar. Utara,"Kabupaten Halmahera Selatan, Maluku Utara","Kabupaten Halmahera Selatan, Maluku Utara",MALUKU UTARA,,Indonesia,,-0.348747,127.4004871,https://maps.google.com/?cid=0x0:0x3b3491e8d2fae80
supermarket,Kios,Asdar ali,"HFP6+74R, Jl. Lain, Yaba, Kec. Bacan Bar. Utara, Kabupaten Halmahera Selatan, Maluku Utara","Kabupaten Halmahera Selatan, Maluku Utara",MALUKU UTARA,,Indonesia,,-0.4151108,127.4586113,https://maps.google.com/?cid=0x0:0xc2450878239d4aa7
supermarket,Pasar,Pasar Baru Labuha,"9F7M+F5V, Labuha, Kec. Bacan, Kabupaten Halmahera Selatan, Maluku Utara","Kabupaten Halmahera Selatan, Maluku Utara",MALUKU UTARA,,Indonesia,,-0.6362729,127.4829272,https://maps.google.com/?cid=0x0:0xa5bf40c06d8fff48
supermarket,Toko Swalayan,Toko Modern Mart - Labuha,"9F9J+RFG, Labuha, Kec. Bacan, Kabupaten Halmahera Selatan, Maluku Utara","Kabupaten Halmahera Selatan, Maluku Utara",MALUKU UTARA,,Indonesia,,-0.6306101,127.4814384,https://maps.google.com/?cid=0x0:0x88405cad4c45b55f
supermarket,Toko Swalayan,Toko BACAN INDAH,"9FFG+79Q, Jl. Molunjunga, Amasing Kota, Kec. Bacan, Kabupaten Halmahera Selatan, Maluku Utara","Kabupaten Halmahera Selatan, Maluku Utara",MALUKU UTARA,,Indonesia,,-0.6267802,127.4759947,https://maps.google.com/?cid=0x0:0x6e13479573268497
supermarket,Toko,Toko Maju,"9F5R+978, Jl. Tomori - Labuha, Tomori, Kec. Bacan, Kabupaten Halmahera Selatan, Maluku Utara","Kabupaten Halmahera Selatan, Maluku Utara",MALUKU UTARA,,Indonesia,,-0.641597,127.4907126,https://maps.google.com/?cid=0x0:0x58fd5386b69e232d
supermarket,Toko Swalayan,Toko Rifaldi,"8F38+77M, Panambuang, Kec. Bacan Sel., Kabupaten Halmahera Selatan, Maluku Utara","Kabupaten Halmahera Selatan, Maluku Utara",MALUKU UTARA,,Indonesia,81245460548.0,-0.6967825,127.4656731,https://maps.google.com/?cid=0x0:0xfec61db64dd2f7eb
supermarket,Kedai Kopi,Gersamata2,"J962+QFG, Kusubibi, Kec. Bacan Bar., Kabupaten Halmahera Selatan, Maluku Utara","Kabupaten Halmahera Selatan, Maluku Utara",MALUKU UTARA,,Indonesia,,-0.3880557,127.3511966,https://maps.google.com/?cid=0x0:0x828a35be553f8c95
supermarket,Toko bahan makanan,WARUNG JAWA,"9F3J+7JM, Mandaong, Kec. Bacan Sel., Kabupaten Halmahera Selatan, Maluku Utara","Kabupaten Halmahera Selatan, Maluku Utara",MALUKU UTARA,,Indonesia,,-0.6467853,127.4815602,https://maps.google.com/?cid=0x0:0xb02cc4def53d5081
supermarket,Toko Swalayan,Toko Mentari Bacan,"9F4Q+FQH, Jl. Tomori - Labuha, Tomori, Kec. Bacan, Kabupaten Halmahera Selatan, Maluku Utara","Kabupaten Halmahera Selatan, Maluku Utara",MALUKU UTARA,,Indonesia,,-0.6437288,127.4892807,https://maps.google.com/?cid=0x0:0xd768d61f19aec395
supermarket,Kedai Kopi,V888,"J86X+3F, Kusubibi, Kec. Bacan Bar., Kabupaten Halmahera Selatan, Maluku Utara","Kabupaten Halmahera Selatan, Maluku Utara",MALUKU UTARA,,Indonesia,,-0.389749,127.3486324,https://maps.google.com/?cid=0x0:0x2cec082ce23de156
supermarket,Minimarket,Palm Minimarket,"9F6P+6PJ, Tomori, Kec. Bacan, Kabupaten Halmahera Selatan, Maluku Utara","Kabupaten Halmahera Selatan, Maluku Utara",MALUKU UTARA,,Indonesia,,-0.639421,127.4867721,https://maps.google.com/?cid=0x0:0x2a236c586faf1151
supermarket,Kedai Kopi,Warung aca,"J995+GMF, Kusubibi, Kec. Bacan Bar., Kabupaten Halmahera Selatan, Maluku Utara","Kabupaten Halmahera Selatan, Maluku Utara",MALUKU UTARA,,Indonesia,,-0.3811931,127.3591815,https://maps.google.com/?cid=0x0:0x4b93e2db58293612
supermarket,Toko Swalayan,KIOS ZAHRANI,"9FFH+977, Labuha, Kec. Bacan, Kabupaten Halmahera Selatan, Maluku Utara","Kabupaten Halmahera Selatan, Maluku Utara",MALUKU UTARA,,Indonesia,,-0.62658,127.4781703,https://maps.google.com/?cid=0x0:0x4fc2f12225262ced
supermarket,Toko,Kios Irnasari,"9HCX+HWF, Unnamed Road, Babang, Kec. Bacan Tim., Kabupaten Halmahera Selatan, Maluku Utara","Kabupaten Halmahera Selatan, Maluku Utara",MALUKU UTARA,,Indonesia,82399155444.0,-0.6285574,127.5998089,https://maps.google.com/?cid=0x0:0xa9a8775a1542c931
supermarket,supermarket,Pulau Kasiruta,"Kabupaten Halmahera Selatan, Maluku Utara","Kabupaten Halmahera Selatan, Maluku Utara",MALUKU UTARA,,Indonesia,,-0.3737116,127.1901616,https://maps.google.com/?cid=0x0:0xd2859cd7f8d1404b
supermarket,Toko bahan makanan,TOKO DIAN BISORI,"Bisori, Kec. Kasiruta Bar., Kabupaten Halmahera Selatan, Maluku Utara 97791","Kec. Kasiruta Bar., Kabupaten Halmahera Selatan",MALUKU UTARA,97791.0,Indonesia,81244380354.0,-0.4290648,127.1238084,https://maps.google.com/?cid=0x0:0xae747a25500084db
supermarket,supermarket,Pulau Kasiruta,"Kabupaten Halmahera Selatan, Maluku Utara","Kabupaten Halmahera Selatan, Maluku Utara",MALUKU UTARA,,Indonesia,,-0.3737116,127.1901616,https://maps.google.com/?cid=0x0:0xd2859cd7f8d1404b
supermarket,Toko Swalayan,Palm Mini Market,"JL. Tomori I No.123, Amasing Kota Utara, Kec. Bacan, Kabupaten Halmahera Selatan, Maluku Utara","Kabupaten Halmahera Selatan, Maluku Utara",MALUKU UTARA,,Indonesia,9272321081.0,-0.616596,127.483377,https://maps.google.com/?cid=0x0:0x9276211d0d4836e6
supermarket,Minimarket,Palm Minimarket,"9F6P+6PJ, Tomori, Kec. Bacan, Kabupaten Halmahera Selatan, Maluku Utara","Kabupaten Halmahera Selatan, Maluku Utara",MALUKU UTARA,,Indonesia,,-0.639421,127.4867721,https://maps.google.com/?cid=0x0:0x2a236c586faf1151
supermarket,Minimarket,Palm Minimarket,"9F6P+6PJ, Tomori, Kec. Bacan, Kabupaten Halmahera Selatan, Maluku Utara","Kabupaten Halmahera Selatan, Maluku Utara",MALUKU UTARA,,Indonesia,,-0.639421,127.4867721,https://maps.google.com/?cid=0x0:0x2a236c586faf1151
supermarket,supermarket,Kec. Bacan Sel.,"Kabupaten Halmahera Selatan, Maluku Utara","Kabupaten Halmahera Selatan, Maluku Utara",MALUKU UTARA,,Indonesia,,-0.6527457,127.4833566,https://maps.google.com/?cid=0x0:0xad48e5ee740e417c
supermarket,Toko Swalayan,Toko Modern Mart - Labuha,"9F9J+RFG, Labuha, Kec. Bacan, Kabupaten Halmahera Selatan, Maluku Utara","Kabupaten Halmahera Selatan, Maluku Utara",MALUKU UTARA,,Indonesia,,-0.6306101,127.4814384,https://maps.google.com/?cid=0x0:0x88405cad4c45b55f
supermarket,Toko bahan makanan,Go Mart,"Jln. Pelabuhan Lama, Labuha, Kec. Bacan, Kabupaten Halmahera Selatan, Maluku Utara 97791","Labuha, Kec. Bacan, Kabupaten Halmahera Selatan",MALUKU UTARA,97791.0,Indonesia,81341513113.0,-0.6320778,127.4807115,https://maps.google.com/?cid=0x0:0x206d871183d03e7c
supermarket,Toko Swalayan,Toko BACAN INDAH,"9FFG+79Q, Jl. Molunjunga, Amasing Kota, Kec. Bacan, Kabupaten Halmahera Selatan, Maluku Utara","Kabupaten Halmahera Selatan, Maluku Utara",MALUKU UTARA,,Indonesia,,-0.6267802,127.4759947,https://maps.google.com/?cid=0x0:0x6e13479573268497
supermarket,Toko Swalayan,Toko Rifaldi,"8F38+77M, Panambuang, Kec. Bacan Sel., Kabupaten Halmahera Selatan, Maluku Utara","Kabupaten Halmahera Selatan, Maluku Utara",MALUKU UTARA,,Indonesia,81245460548.0,-0.6967825,127.4656731,https://maps.google.com/?cid=0x0:0xfec61db64dd2f7eb
supermarket,Toko Swalayan,Toko Musiana,"8F9H+MPQ, Gandasuli, Kec. Bacan Sel., Kabupaten Halmahera Selatan, Maluku Utara","Kabupaten Halmahera Selatan, Maluku Utara",MALUKU UTARA,,Indonesia,82191710115.0,-0.6807789,127.4793718,https://maps.google.com/?cid=0x0:0xc74297ccb1c5ae6a
supermarket,Toko Swalayan,Toko Ijo,"8FWM+Q79, Mandaong, Kec. Bacan Sel., Kabupaten Halmahera Selatan, Maluku Utara","Kabupaten Halmahera Selatan, Maluku Utara",MALUKU UTARA,,Indonesia,,-0.6530834,127.4832291,https://maps.google.com/?cid=0x0:0x190fd5ccb44ce8cf
supermarket,Toko Swalayan,KIOS ZAHRANI,"9FFH+977, Labuha, Kec. Bacan, Kabupaten Halmahera Selatan, Maluku Utara","Kabupaten Halmahera Selatan, Maluku Utara",MALUKU UTARA,,Indonesia,,-0.62658,127.4781703,https://maps.google.com/?cid=0x0:0x4fc2f12225262ced
supermarket,Toko bahan makanan,WARUNG JAWA,"9F3J+7JM, Mandaong, Kec. Bacan Sel., Kabupaten Halmahera Selatan, Maluku Utara","Kabupaten Halmahera Selatan, Maluku Utara",MALUKU UTARA,,Indonesia,,-0.6467853,127.4815602,https://maps.google.com/?cid=0x0:0xb02cc4def53d5081
supermarket,Toko,Toko Maju,"9F5R+978, Jl. Tomori - Labuha, Tomori, Kec. Bacan, Kabupaten Halmahera Selatan, Maluku Utara","Kabupaten Halmahera Selatan, Maluku Utara",MALUKU UTARA,,Indonesia,,-0.641597,127.4907126,https://maps.google.com/?cid=0x0:0x58fd5386b69e232d
supermarket,Toko bahan makanan,Toko VIAR Indonesia,"9F4Q+28G, Jl. Raya Mandaong, Tomori, Kec. Bacan, Kabupaten Halmahera Selatan, Maluku Utara","Kabupaten Halmahera Selatan, Maluku Utara",MALUKU UTARA,,Indonesia,,-0.6449093,127.4882426,https://maps.google.com/?cid=0x0:0xaa817e6cd1a35e35
supermarket,Toko Swalayan,Toko Mentari Bacan,"9F4Q+FQH, Jl. Tomori - Labuha, Tomori, Kec. Bacan, Kabupaten Halmahera Selatan, Maluku Utara","Kabupaten Halmahera Selatan, Maluku Utara",MALUKU UTARA,,Indonesia,,-0.6437288,127.4892807,https://maps.google.com/?cid=0x0:0xd768d61f19aec395
supermarket,Toko makanan beku,Chicken Mart,"Jl, Kp. Makian, Bacan, Kabupaten Halmahera Selatan, Maluku Utara 97791","Kp. Makian, Bacan, Kabupaten Halmahera Selatan",MALUKU UTARA,97791.0,Indonesia,82344948786.0,-0.6449322,127.4948545,https://maps.google.com/?cid=0x0:0x3e1817e08db4dc58
supermarket,Toko,Kios jihad,"99JR+VF3, Pasimbaos, Kec. Kepulauan Botang Lomang, Kabupaten Halmahera Selatan, Maluku Utara","Kabupaten Halmahera Selatan, Maluku Utara",MALUKU UTARA,,Indonesia,82189043022.0,-0.6178553,127.3911683,https://maps.google.com/?cid=0x0:0x2cd7815a48e2a069
supermarket,supermarket,Kec. Kepulauan Botang Lomang,"Kabupaten Halmahera Selatan, Maluku Utara","Kabupaten Halmahera Selatan, Maluku Utara",MALUKU UTARA,,Indonesia,,-0.6551716,127.3965666,https://maps.google.com/?cid=0x0:0x6b1042a5e2595523
supermarket,Toko Swalayan,Warung atta,"99JQ+VVG, Desa Paisumbaos, Pasimbaos, Kec. Kepulauan Botang Lomang, Kabupaten Halmahera Selatan, Maluku Utara","Kabupaten Halmahera Selatan, Maluku Utara",MALUKU UTARA,,Indonesia,,-0.6173732,127.3903819,https://maps.google.com/?cid=0x0:0x412525d9c2e6b0a6
supermarket,Toko bahan makanan,Go Mart,"Jln. Pelabuhan Lama, Labuha, Kec. Bacan, Kabupaten Halmahera Selatan, Maluku Utara 97791","Labuha, Kec. Bacan, Kabupaten Halmahera Selatan",MALUKU UTARA,97791.0,Indonesia,81341513113.0,-0.6320778,127.4807115,https://maps.google.com/?cid=0x0:0x206d871183d03e7c
supermarket,Pembangunan Perumahan,Rumah pak Usman Hi m nur,"99HW+M77, Bajo, Kec. Kepulauan Botang Lomang, Kabupaten Halmahera Selatan, Maluku Utara","Kabupaten Halmahera Selatan, Maluku Utara",MALUKU UTARA,,Indonesia,,-0.6210111,127.3956333,https://maps.google.com/?cid=0x0:0xadc22ac0d8a9b67b
supermarket,Toko Pakaian,Bilax Birgantara,"98CP+HCX, Toin, Kec. Kepulauan Botang Lomang, Kabupaten Halmahera Selatan, Maluku Utara","Kabupaten Halmahera Selatan, Maluku Utara",MALUKU UTARA,,Indonesia,,-0.6282552,127.3362913,https://maps.google.com/?cid=0x0:0x6a00092c2fb1a7ad
supermarket,Toko bahan makanan,Kios Nurul  AgenBRILink,"Bajo, Sangkuang, Kabupaten Halmahera Selatan, Maluku Utara 97790","Sangkuang, Kabupaten Halmahera Selatan",MALUKU UTARA,97790.0,Indonesia,81244060377.0,-0.6216207,127.3953524,https://maps.google.com/?cid=0x0:0x9bccd86d469fc0de
supermarket,Toko Bahan Bangunan,Makmur Utama Supermarket Bahan Bangunan,"Jambula, Kec. Pulau Ternate, Kota Ternate, Maluku Utara","Kota Ternate, Maluku Utara",MALUKU UTARA,,Indonesia,8114313899.0,0.7581804,127.3220409,https://maps.google.com/?cid=0x0:0xe3a01731f7851efa
supermarket,Toko Perlengkapan Rumah,Abizar,"99HW+H7R, Bajo, Kec. Kepulauan Botang Lomang, Kabupaten Halmahera Selatan, Maluku Utara","Kabupaten Halmahera Selatan, Maluku Utara",MALUKU UTARA,,Indonesia,,-0.621002,127.395636,https://maps.google.com/?cid=0x0:0x936b486f224ae515
supermarket,Toko Swalayan,Toko Modern Mart - Labuha,"9F9J+RFG, Labuha, Kec. Bacan, Kabupaten Halmahera Selatan, Maluku Utara","Kabupaten Halmahera Selatan, Maluku Utara",MALUKU UTARA,,Indonesia,,-0.6306101,127.4814384,https://maps.google.com/?cid=0x0:0x88405cad4c45b55f
supermarket,supermarket,Kec. Mandioli Sel.,"Kabupaten Halmahera Selatan, Maluku Utara","Kabupaten Halmahera Selatan, Maluku Utara",MALUKU UTARA,,Indonesia,,-0.7822039,127.2796254,https://maps.google.com/?cid=0x0:0x97b7f19576981b91
supermarket,supermarket,Pulau Mandioli,Maluku Utara,Maluku Utara,MALUKU UTARA,,Indonesia,,-0.705902,127.2329979,https://maps.google.com/?cid=0x0:0x40562bc25a12bb2e
supermarket,Pusat Perbelanjaan,Foodmart Supermarket HPAL,"FC84+2W3, Kawasi, Kec. Obi, Kabupaten Halmahera Selatan, Maluku Utara","Kabupaten Halmahera Selatan, Maluku Utara",MALUKU UTARA,,Indonesia,,-1.5349881,127.4072862,https://maps.google.com/?cid=0x0:0xdc291ea06f8d91fb
supermarket,Minimarket,Palm Minimarket,"9F6P+6PJ, Tomori, Kec. Bacan, Kabupaten Halmahera Selatan, Maluku Utara","Kabupaten Halmahera Selatan, Maluku Utara",MALUKU UTARA,,Indonesia,,-0.639421,127.4867721,https://maps.google.com/?cid=0x0:0x2a236c586faf1151
supermarket,Toko bahan makanan,Kios fadli,"679H+4R7, Jiko, Kec. Mandioli Sel., Kabupaten Halmahera Selatan, Maluku Utara","Kabupaten Halmahera Selatan, Maluku Utara",MALUKU UTARA,,Indonesia,,-0.7822222,127.2795551,https://maps.google.com/?cid=0x0:0x69e9719337cfbb2a
supermarket,Toko Swalayan,Toko Rifaldi,"8F38+77M, Panambuang, Kec. Bacan Sel., Kabupaten Halmahera Selatan, Maluku Utara","Kabupaten Halmahera Selatan, Maluku Utara",MALUKU UTARA,,Indonesia,81245460548.0,-0.6967825,127.4656731,https://maps.google.com/?cid=0x0:0xfec61db64dd2f7eb
supermarket,Toko Kosmetik,Rahmawati Abjan,"6822+QP4, Bahu, Kec. Mandioli Sel., Kabupaten Halmahera Selatan, Maluku Utara","Kabupaten Halmahera Selatan, Maluku Utara",MALUKU UTARA,,Indonesia,,-0.7979981,127.3020635,https://maps.google.com/?cid=0x0:0x649d6387a7c3e447
supermarket,supermarket,Toko M.saifullah,"8F48+288, Panambuang, Kec. Bacan Sel., Kabupaten Halmahera Selatan, Maluku Utara","Kabupaten Halmahera Selatan, Maluku Utara",MALUKU UTARA,,Indonesia,,-0.6949667,127.4658224,https://maps.google.com/?cid=0x0:0xf58a717de3d4cac2
supermarket,Operator jaringan seluler,Jual Pulsa. Darly Cell Gunung Sion,"66MX+F72, Galala, Kec. Mandioli Sel., Kabupaten Halmahera Selatan, Maluku Utara","Kabupaten Halmahera Selatan, Maluku Utara",MALUKU UTARA,,Indonesia,,-0.7647504,127.2475654,https://maps.google.com/?cid=0x0:0xc0867644c482621f
supermarket,supermarket,Kec. Mandioli Utara,"Kabupaten Halmahera Selatan, Maluku Utara","Kabupaten Halmahera Selatan, Maluku Utara",MALUKU UTARA,,Indonesia,,-0.6648801,127.2694292,https://maps.google.com/?cid=0x0:0x5a42f90eb969805d
supermarket,Minimarket,Palm Minimarket,"9F6P+6PJ, Tomori, Kec. Bacan, Kabupaten Halmahera Selatan, Maluku Utara","Kabupaten Halmahera Selatan, Maluku Utara",MALUKU UTARA,,Indonesia,,-0.639421,127.4867721,https://maps.google.com/?cid=0x0:0x2a236c586faf1151
supermarket,supermarket,Pulau Mandioli,Maluku Utara,Maluku Utara,MALUKU UTARA,,Indonesia,,-0.705902,127.2329979,https://maps.google.com/?cid=0x0:0x40562bc25a12bb2e
supermarket,Toko bahan makanan,Sinarmas,"V7JW+RC9, Buli, Kec. Maba, Kabupaten Halmahera Timur, Maluku Utara","Kabupaten Halmahera Timur, Maluku Utara",MALUKU UTARA,,Indonesia,85240790154.0,0.8820421,128.2961089,https://maps.google.com/?cid=0x0:0xa1edd6a9c7b5aa1f
supermarket,Operator jaringan seluler,Jual Pulsa. Darly Cell Gunung Sion,"66MX+F72, Galala, Kec. Mandioli Sel., Kabupaten Halmahera Selatan, Maluku Utara","Kabupaten Halmahera Selatan, Maluku Utara",MALUKU UTARA,,Indonesia,,-0.7647504,127.2475654,https://maps.google.com/?cid=0x0:0xc0867644c482621f
supermarket,Toko Swalayan,Palm Mini Market,"JL. Tomori I No.123, Amasing Kota Utara, Kec. Bacan, Kabupaten Halmahera Selatan, Maluku Utara","Kabupaten Halmahera Selatan, Maluku Utara",MALUKU UTARA,,Indonesia,9272321081.0,-0.616596,127.483377,https://maps.google.com/?cid=0x0:0x9276211d0d4836e6
supermarket,supermarket,Pulau Mandioli,Maluku Utara,Maluku Utara,MALUKU UTARA,,Indonesia,,-0.705902,127.2329979,https://maps.google.com/?cid=0x0:0x40562bc25a12bb2e
supermarket,Grosir Barang Kelontong,AWN MART,"9JC2+P9G, Babang, Kec. Bacan Tim., Kabupaten Halmahera Selatan, Maluku Utara","Kabupaten Halmahera Selatan, Maluku Utara",MALUKU UTARA,,Indonesia,82196590101.0,-0.628183,127.600966,https://maps.google.com/?cid=0x0:0x22d99f3dae3cc3d7
supermarket,supermarket,Kec. Bacan Tim. Sel.,"Kabupaten Halmahera Selatan, Maluku Utara","Kabupaten Halmahera Selatan, Maluku Utara",MALUKU UTARA,,Indonesia,,-0.8138816,127.872846,https://maps.google.com/?cid=0x0:0x10b732e030ec504d
supermarket,Minimarket,Palm Minimarket,"9F6P+6PJ, Tomori, Kec. Bacan, Kabupaten Halmahera Selatan, Maluku Utara","Kabupaten Halmahera Selatan, Maluku Utara",MALUKU UTARA,,Indonesia,,-0.639421,127.4867721,https://maps.google.com/?cid=0x0:0x2a236c586faf1151
supermarket,Pasar,Toko Naser Babang,"9J95+G7Q, Babang, Kec. Bacan Tim., Kabupaten Halmahera Selatan, Maluku Utara","Kabupaten Halmahera Selatan, Maluku Utara",MALUKU UTARA,,Indonesia,,-0.6311686,127.608234,https://maps.google.com/?cid=0x0:0x9c97ce645ff62625
supermarket,Minimarket,Palm mini market,"9FCJ+7W8, Jl. Oesman Syah, Labuha, Kec. Bacan, Kabupaten Halmahera Selatan, Maluku Utara","Kabupaten Halmahera Selatan, Maluku Utara",MALUKU UTARA,,Indonesia,,-0.6293395,127.4823137,https://maps.google.com/?cid=0x0:0x81778a52c31a5af7
supermarket,Toko Swalayan,Toko Modern Mart - Labuha,"9F9J+RFG, Labuha, Kec. Bacan, Kabupaten Halmahera Selatan, Maluku Utara","Kabupaten Halmahera Selatan, Maluku Utara",MALUKU UTARA,,Indonesia,,-0.6306101,127.4814384,https://maps.google.com/?cid=0x0:0x88405cad4c45b55f
supermarket,Toko bahan makanan,Go Mart,"Jln. Pelabuhan Lama, Labuha, Kec. Bacan, Kabupaten Halmahera Selatan, Maluku Utara 97791","Labuha, Kec. Bacan, Kabupaten Halmahera Selatan",MALUKU UTARA,97791.0,Indonesia,81341513113.0,-0.6320778,127.4807115,https://maps.google.com/?cid=0x0:0x206d871183d03e7c
supermarket,Pasar,Pasar Baru Labuha,"9F7M+F5V, Labuha, Kec. Bacan, Kabupaten Halmahera Selatan, Maluku Utara","Kabupaten Halmahera Selatan, Maluku Utara",MALUKU UTARA,,Indonesia,,-0.6362729,127.4829272,https://maps.google.com/?cid=0x0:0xa5bf40c06d8fff48
supermarket,Toko Swalayan,Toko Musiana,"8F9H+MPQ, Gandasuli, Kec. Bacan Sel., Kabupaten Halmahera Selatan, Maluku Utara","Kabupaten Halmahera Selatan, Maluku Utara",MALUKU UTARA,,Indonesia,82191710115.0,-0.6807789,127.4793718,https://maps.google.com/?cid=0x0:0xc74297ccb1c5ae6a
supermarket,Pusat Perbelanjaan,Toko ENJELI,"9J94+99G, Tim., Babang, Kec. Bacan Tim., Kabupaten Halmahera Selatan, Maluku Utara","Kabupaten Halmahera Selatan, Maluku Utara",MALUKU UTARA,,Indonesia,81254394396.0,-0.6315505,127.6059497,https://maps.google.com/?cid=0x0:0xfc5f446ce19b3acd
supermarket,Toko Swalayan,Toko BACAN INDAH,"9FFG+79Q, Jl. Molunjunga, Amasing Kota, Kec. Bacan, Kabupaten Halmahera Selatan, Maluku Utara","Kabupaten Halmahera Selatan, Maluku Utara",MALUKU UTARA,,Indonesia,,-0.6267802,127.4759947,https://maps.google.com/?cid=0x0:0x6e13479573268497
supermarket,Toko,Toko TIMUR JAYA,"Jln. Ainul Yaqin, Wayaua, Kec. Bacan Tim. Sel., Kabupaten Halmahera Selatan, Maluku Utara 97791","Wayaua, Kec. Bacan Tim. Sel., Kabupaten Halmahera Selatan",MALUKU UTARA,97791.0,Indonesia,85342403369.0,-0.7439323,127.6420793,https://maps.google.com/?cid=0x0:0x87228525797c450d
supermarket,Toko Swalayan,Toko Rifaldi,"8F38+77M, Panambuang, Kec. Bacan Sel., Kabupaten Halmahera Selatan, Maluku Utara","Kabupaten Halmahera Selatan, Maluku Utara",MALUKU UTARA,,Indonesia,81245460548.0,-0.6967825,127.4656731,https://maps.google.com/?cid=0x0:0xfec61db64dd2f7eb
supermarket,Toko,Kios Irnasari,"9HCX+HWF, Unnamed Road, Babang, Kec. Bacan Tim., Kabupaten Halmahera Selatan, Maluku Utara","Kabupaten Halmahera Selatan, Maluku Utara",MALUKU UTARA,,Indonesia,82399155444.0,-0.6285574,127.5998089,https://maps.google.com/?cid=0x0:0xa9a8775a1542c931
supermarket,supermarket,Maluku Utara,,Maluku Utara,MALUKU UTARA,,Indonesia,,1.5709993,127.8087693,https://maps.google.com/?cid=0x0:0x1030bfbcaf71ac0
supermarket,Toko,Toko Alam (ifaAnca),"Marabose, Kec. Bacan, Kabupaten Halmahera Selatan, Maluku Utara 97791","Kec. Bacan, Kabupaten Halmahera Selatan",MALUKU UTARA,97791.0,Indonesia,82296302084.0,-0.633805,127.5262057,https://maps.google.com/?cid=0x0:0xe9a68ece002f124b
supermarket,Toko makanan beku,Chicken Mart,"Jl, Kp. Makian, Bacan, Kabupaten Halmahera Selatan, Maluku Utara 97791","Kp. Makian, Bacan, Kabupaten Halmahera Selatan",MALUKU UTARA,97791.0,Indonesia,82344948786.0,-0.6449322,127.4948545,https://maps.google.com/?cid=0x0:0x3e1817e08db4dc58
supermarket,Toko Swalayan,Toko Modern Mart - Labuha,"9F9J+RFG, Labuha, Kec. Bacan, Kabupaten Halmahera Selatan, Maluku Utara","Kabupaten Halmahera Selatan, Maluku Utara",MALUKU UTARA,,Indonesia,,-0.6306101,127.4814384,https://maps.google.com/?cid=0x0:0x88405cad4c45b55f
supermarket,Pasar,Toko Naser Babang,"9J95+G7Q, Babang, Kec. Bacan Tim., Kabupaten Halmahera Selatan, Maluku Utara","Kabupaten Halmahera Selatan, Maluku Utara",MALUKU UTARA,,Indonesia,,-0.6311686,127.608234,https://maps.google.com/?cid=0x0:0x9c97ce645ff62625
supermarket,Toko Swalayan,Toko BACAN INDAH,"9FFG+79Q, Jl. Molunjunga, Amasing Kota, Kec. Bacan, Kabupaten Halmahera Selatan, Maluku Utara","Kabupaten Halmahera Selatan, Maluku Utara",MALUKU UTARA,,Indonesia,,-0.6267802,127.4759947,https://maps.google.com/?cid=0x0:0x6e13479573268497
supermarket,Toko Swalayan,BONE STALL HOME,"9F5R+M3F, Tomori, Kec. Bacan, Kabupaten Halmahera Selatan, Maluku Utara 97791","Tomori, Kec. Bacan, Kabupaten Halmahera Selatan",MALUKU UTARA,97791.0,Indonesia,81243691727.0,-0.6408175,127.4901834,https://maps.google.com/?cid=0x0:0xc69f33e328d1a962
supermarket,Toko Perlengkapan Rumah,Toko Makmur Sentosa,"Jl. Raya Labuha-Babang, RT.005/RW.002, Babang, Kec. Bacan Tim., Kabupaten Halmahera Selatan, Maluku Utara 97791","RT.005/RW.002, Babang, Kec. Bacan Tim., Kabupaten Halmahera Selatan",MALUKU UTARA,97791.0,Indonesia,82251115135.0,-0.6277676,127.6016475,https://maps.google.com/?cid=0x0:0xdb14a98f0152ee26
supermarket,Toko Swalayan,Toko Rifaldi,"8F38+77M, Panambuang, Kec. Bacan Sel., Kabupaten Halmahera Selatan, Maluku Utara","Kabupaten Halmahera Selatan, Maluku Utara",MALUKU UTARA,,Indonesia,81245460548.0,-0.6967825,127.4656731,https://maps.google.com/?cid=0x0:0xfec61db64dd2f7eb
supermarket,Toko,Toko Maju,"9F5R+978, Jl. Tomori - Labuha, Tomori, Kec. Bacan, Kabupaten Halmahera Selatan, Maluku Utara","Kabupaten Halmahera Selatan, Maluku Utara",MALUKU UTARA,,Indonesia,,-0.641597,127.4907126,https://maps.google.com/?cid=0x0:0x58fd5386b69e232d
supermarket,Toko makanan beku,ZTwo Frozen Food N Fresh,"Tugu Ikan, Tomori, Jl. Bandara Lama, Labuha, Kabupaten Halmahera Selatan, Maluku Utara 97791","Tomori, Jl. Bandara Lama, Labuha, Kabupaten Halmahera Selatan",MALUKU UTARA,97791.0,Indonesia,81344623334.0,-0.6410119,127.492488,https://maps.google.com/?cid=0x0:0xc7e4b4df61bf8dbf
supermarket,Toko Swalayan,Produk Tiens Bacan,"Jl. Daniel Kabenti Jalan Baru, Tomori, Kec. Bacan, Kabupaten Halmahera Selatan, Maluku Utara 97791","Tomori, Kec. Bacan, Kabupaten Halmahera Selatan",MALUKU UTARA,97791.0,Indonesia,81356807284.0,-0.6405506,127.4847604,https://maps.google.com/?cid=0x0:0x95f04d7e768b316
supermarket,Toko Swalayan,Toko Mentari Bacan,"9F4Q+FQH, Jl. Tomori - Labuha, Tomori, Kec. Bacan, Kabupaten Halmahera Selatan, Maluku Utara","Kabupaten Halmahera Selatan, Maluku Utara",MALUKU UTARA,,Indonesia,,-0.6437288,127.4892807,https://maps.google.com/?cid=0x0:0xd768d61f19aec395
supermarket,Toko Swalayan,HALAL MART HNI BACAN HALSEL,"Perumahan Habibi blok h no 12, Labuha, Kec. Bacan, Kabupaten Halmahera Selatan, Maluku Utara 97791","Labuha, Kec. Bacan, Kabupaten Halmahera Selatan",MALUKU UTARA,97791.0,Indonesia,82337457425.0,-0.6275855,127.4802314,https://maps.google.com/?cid=0x0:0xedb1f5ecdf80bcd2
supermarket,supermarket,Kec. Gane Bar. Sel.,"Kabupaten Halmahera Selatan, Maluku Utara","Kabupaten Halmahera Selatan, Maluku Utara",MALUKU UTARA,,Indonesia,,-0.762002,128.203222,https://maps.google.com/?cid=0x0:0x53c8be4d55503c6d
supermarket,Toko Swalayan,Toko Antaress Gane Dalam,"66H9+XXF, Gane Dalam, Kec. Gane Bar. Sel., Kabupaten Halmahera Selatan, Maluku Utara","Kabupaten Halmahera Selatan, Maluku Utara",MALUKU UTARA,,Indonesia,,-0.7700703,128.2199308,https://maps.google.com/?cid=0x0:0xf3a541bc877a55cc
supermarket,Toko sembako pemerintah,UD Gane Jaya,"76W9+W96, Gane Luar, Kec. Gane Tim. Sel., Kabupaten Halmahera Selatan, Maluku Utara","Kabupaten Halmahera Selatan, Maluku Utara",MALUKU UTARA,,Indonesia,81355494027.0,-0.7027201,128.2184016,https://maps.google.com/?cid=0x0:0xdcf6def16983deb5
supermarket,Toko,Toko achae,"66FX+X6J, Gane Dalam, Kec. Gane Bar. Sel., Kabupaten Halmahera Selatan, Maluku Utara","Kabupaten Halmahera Selatan, Maluku Utara",MALUKU UTARA,,Indonesia,,-0.7750379,128.2480302,https://maps.google.com/?cid=0x0:0xa91fc0150852640
supermarket,Toko Swalayan,Karim jaya,"76W9+W96, Gane Luar, Kec. Gane Tim. Sel., Kabupaten Halmahera Selatan, Maluku Utara","Kabupaten Halmahera Selatan, Maluku Utara",MALUKU UTARA,,Indonesia,,-0.701929,128.217981,https://maps.google.com/?cid=0x0:0x33fe092ea78907ef
supermarket,Toko Swalayan,Toko swalayan GANE luar,"Gane Luar, Kec. Gane Tim. Sel., Kabupaten Halmahera Selatan, Maluku Utara 97783","Kec. Gane Tim. Sel., Kabupaten Halmahera Selatan",MALUKU UTARA,97783.0,Indonesia,82224277464.0,-0.7020529,128.2179996,https://maps.google.com/?cid=0x0:0xf42fcf580751c1f3
supermarket,supermarket,achae,"66J9+2CQ, Jl. Siswa, Kabupaten Halmahera Selatan, Maluku Utara","Kabupaten Halmahera Selatan, Maluku Utara",MALUKU UTARA,,Indonesia,,-0.7699239,128.2185963,https://maps.google.com/?cid=0x0:0xa59a92c0342671c5
supermarket,Kantor Perusahaan,Kecamatan gane timur Halmahera Selatan,"76W9+4MV, Gane Luar, Kec. Gane Tim. Sel., Kabupaten Halmahera Selatan, Maluku Utara","Kabupaten Halmahera Selatan, Maluku Utara",MALUKU UTARA,,Indonesia,,-0.7046284,128.219161,https://maps.google.com/?cid=0x0:0x30f91c1aee69ab90
supermarket,Kios,Kios Alya,"Saketa, Kec. Gane Bar., Kabupaten Halmahera Selatan, Maluku Utara 97782","Kec. Gane Bar., Kabupaten Halmahera Selatan",MALUKU UTARA,97782.0,Indonesia,81242665238.0,-0.3547353,127.8456057,https://maps.google.com/?cid=0x0:0x46e27b2eb5978610
supermarket,supermarket,Kec. Gane Bar. Utara,"Kabupaten Halmahera Selatan, Maluku Utara","Kabupaten Halmahera Selatan, Maluku Utara",MALUKU UTARA,,Indonesia,,-0.2711433,127.6958246,https://maps.google.com/?cid=0x0:0x99a01612ac04691e
supermarket,Pusat Perbelanjaan,Toko Usaha Baru,"PP2G+6G, Boso, Kec. Gane Bar. Utara, Kabupaten Halmahera Selatan, Maluku Utara","Kabupaten Halmahera Selatan, Maluku Utara",MALUKU UTARA,,Indonesia,82335457215.0,-0.2994733,127.7262853,https://maps.google.com/?cid=0x0:0xa1e4cba4fd282dba
supermarket,Toko,Cicishop gane,"Desa, Bosso, Kec. Gane Bar. Utara, Kabupaten Halmahera Selatan, Maluku Utara 97782","Bosso, Kec. Gane Bar. Utara, Kabupaten Halmahera Selatan",MALUKU UTARA,97782.0,Indonesia,81388441711.0,-0.2991201,127.7263311,https://maps.google.com/?cid=0x0:0xf177824ce0f16cc0
supermarket,Kios,Kios Alya,"Saketa, Kec. Gane Bar., Kabupaten Halmahera Selatan, Maluku Utara 97782","Kec. Gane Bar., Kabupaten Halmahera Selatan",MALUKU UTARA,97782.0,Indonesia,81242665238.0,-0.3547353,127.8456057,https://maps.google.com/?cid=0x0:0x46e27b2eb5978610
supermarket,Toko bahan makanan,Gudang mart (haji sulis),"WQ6V+R2, Sumber Makmur, Kec. Gane Tim., Kabupaten Halmahera Selatan, Maluku Utara","Kabupaten Halmahera Selatan, Maluku Utara",MALUKU UTARA,,Indonesia,,-0.0872599,127.7933513,https://maps.google.com/?cid=0x0:0x1a534bfa47115d5e
supermarket,Toko,Mas Antok,"WQ6V+R2, Sumber Makmur, Kec. Gane Tim., Kabupaten Halmahera Selatan, Maluku Utara","Kabupaten Halmahera Selatan, Maluku Utara",MALUKU UTARA,,Indonesia,83122747147.0,-0.0879258,127.7925509,https://maps.google.com/?cid=0x0:0xa86ed08477f6dcfd
supermarket,Toko umum,Warung BobaneMasure,"QMM6+JQ7, Tokaka, Kec. Gane Bar. Utara, Kabupaten Halmahera Selatan, Maluku Utara","Kabupaten Halmahera Selatan, Maluku Utara",MALUKU UTARA,,Indonesia,,-0.2159733,127.6619324,https://maps.google.com/?cid=0x0:0x444759466f5ebd00
supermarket,Toko,DOKLO,"WMQX+R2, Posi Posi, Kec. Gane Bar. Utara, Kabupaten Halmahera Selatan, Maluku Utara","Kabupaten Halmahera Selatan, Maluku Utara",MALUKU UTARA,,Indonesia,,-0.0619449,127.6982268,https://maps.google.com/?cid=0x0:0x7590ea63b4f96d9e
supermarket,Toko Swalayan,Toko Antaress Gane Dalam,"66H9+XXF, Gane Dalam, Kec. Gane Bar. Sel., Kabupaten Halmahera Selatan, Maluku Utara","Kabupaten Halmahera Selatan, Maluku Utara",MALUKU UTARA,,Indonesia,,-0.7700703,128.2199308,https://maps.google.com/?cid=0x0:0xf3a541bc877a55cc
supermarket,Toko,Mba Aris,"WQ8W+R7, Sumber Makmur, Kec. Gane Tim., Kabupaten Halmahera Selatan, Maluku Utara","Kabupaten Halmahera Selatan, Maluku Utara",MALUKU UTARA,,Indonesia,,-0.0829345,127.7956646,https://maps.google.com/?cid=0x0:0x707a9a99f467856e
supermarket,Kios,Ikes'aibulang,"PPF4+J2P, Jikolamo, Kec. Gane Bar. Utara, Kabupaten Halmahera Selatan, Maluku Utara","Kabupaten Halmahera Selatan, Maluku Utara",MALUKU UTARA,,Indonesia,,-0.2759238,127.7050889,https://maps.google.com/?cid=0x0:0x16b6743d522445e9
supermarket,Toko bahan makanan,Toko Riska,"2VXR+22F, Unnamed Road, Kebun Raja, Kec. Gane Tim., Kabupaten Halmahera Selatan, Maluku Utara","Kabupaten Halmahera Selatan, Maluku Utara",MALUKU UTARA,,Indonesia,81210299549.0,0.0475531,127.8900417,https://maps.google.com/?cid=0x0:0x2fb6063a2740a39
supermarket,supermarket,Kios Pusri Dolik,"PMHR+CX8, Dolik, Kec. Gane Bar. Utara, Kabupaten Halmahera Selatan, Maluku Utara","Kabupaten Halmahera Selatan, Maluku Utara",MALUKU UTARA,,Indonesia,,-0.270542,127.690569,https://maps.google.com/?cid=0x0:0x15e4e061027c9de7
supermarket,Gudang,Jual beli hasil bumi,"Desa, Cango, Kec. Gane Bar., Kabupaten Halmahera Selatan, Maluku Utara 97782","Cango, Kec. Gane Bar., Kabupaten Halmahera Selatan",MALUKU UTARA,97782.0,Indonesia,82135211106.0,-0.3389191,127.8214961,https://maps.google.com/?cid=0x0:0x52a7588b8e3ce40
supermarket,supermarket,Pulau Joronga,"Kec. Kepulauan Joronga, Kabupaten Halmahera Selatan, Maluku Utara","Kabupaten Halmahera Selatan, Maluku Utara",MALUKU UTARA,,Indonesia,,-1.0939334,128.3692495,https://maps.google.com/?cid=0x0:0xcc70cd24bdde223b
supermarket,supermarket,Kec. Gane Tim. Sel.,"Kabupaten Halmahera Selatan, Maluku Utara","Kabupaten Halmahera Selatan, Maluku Utara",MALUKU UTARA,,Indonesia,,-0.7047222,128.2191774,https://maps.google.com/?cid=0x0:0x5d731fac62ca9680
supermarket,Toko sembako pemerintah,UD Gane Jaya,"76W9+W96, Gane Luar, Kec. Gane Tim. Sel., Kabupaten Halmahera Selatan, Maluku Utara","Kabupaten Halmahera Selatan, Maluku Utara",MALUKU UTARA,,Indonesia,81355494027.0,-0.7027201,128.2184016,https://maps.google.com/?cid=0x0:0xdcf6def16983deb5
supermarket,Toko Swalayan,Toko Antaress Gane Dalam,"66H9+XXF, Gane Dalam, Kec. Gane Bar. Sel., Kabupaten Halmahera Selatan, Maluku Utara","Kabupaten Halmahera Selatan, Maluku Utara",MALUKU UTARA,,Indonesia,,-0.7700703,128.2199308,https://maps.google.com/?cid=0x0:0xf3a541bc877a55cc
supermarket,Toko Swalayan,Karim jaya,"76W9+W96, Gane Luar, Kec. Gane Tim. Sel., Kabupaten Halmahera Selatan, Maluku Utara","Kabupaten Halmahera Selatan, Maluku Utara",MALUKU UTARA,,Indonesia,,-0.701929,128.217981,https://maps.google.com/?cid=0x0:0x33fe092ea78907ef
supermarket,Toko Swalayan,Toko swalayan GANE luar,"Gane Luar, Kec. Gane Tim. Sel., Kabupaten Halmahera Selatan, Maluku Utara 97783","Kec. Gane Tim. Sel., Kabupaten Halmahera Selatan",MALUKU UTARA,97783.0,Indonesia,82224277464.0,-0.7020529,128.2179996,https://maps.google.com/?cid=0x0:0xf42fcf580751c1f3
supermarket,supermarket,JRStore,"Ranga Ranga, Kec. Gane Tim. Sel., Kabupaten Halmahera Selatan, Maluku Utara 97787","Kec. Gane Tim. Sel., Kabupaten Halmahera Selatan",MALUKU UTARA,97787.0,Indonesia,82214508946.0,-0.6563634,128.1918715,https://maps.google.com/?cid=0x0:0xe27505277da78d66
supermarket,Kantor Perusahaan,Kecamatan gane timur Halmahera Selatan,"76W9+4MV, Gane Luar, Kec. Gane Tim. Sel., Kabupaten Halmahera Selatan, Maluku Utara","Kabupaten Halmahera Selatan, Maluku Utara",MALUKU UTARA,,Indonesia,,-0.7046284,128.219161,https://maps.google.com/?cid=0x0:0x30f91c1aee69ab90
supermarket,Toko,Toko achae,"66FX+X6J, Gane Dalam, Kec. Gane Bar. Sel., Kabupaten Halmahera Selatan, Maluku Utara","Kabupaten Halmahera Selatan, Maluku Utara",MALUKU UTARA,,Indonesia,,-0.7750379,128.2480302,https://maps.google.com/?cid=0x0:0xa91fc0150852640
supermarket,supermarket,Kec. Gane Tim. Tengah,"Kabupaten Halmahera Selatan, Maluku Utara","Kabupaten Halmahera Selatan, Maluku Utara",MALUKU UTARA,,Indonesia,,-0.4042848,128.027071,https://maps.google.com/?cid=0x0:0x4f9ff030214dfb8c
supermarket,Toko sembako pemerintah,UD Gane Jaya,"76W9+W96, Gane Luar, Kec. Gane Tim. Sel., Kabupaten Halmahera Selatan, Maluku Utara","Kabupaten Halmahera Selatan, Maluku Utara",MALUKU UTARA,,Indonesia,81355494027.0,-0.7027201,128.2184016,https://maps.google.com/?cid=0x0:0xdcf6def16983deb5
supermarket,Toko sembako pemerintah,Toko sembako GANE luar,"76W2+863, Gane Luar, Kec. Gane Tim. Sel., Kabupaten Halmahera Selatan, Maluku Utara","Kabupaten Halmahera Selatan, Maluku Utara",MALUKU UTARA,,Indonesia,,-0.7042402,128.2005368,https://maps.google.com/?cid=0x0:0x317b18acd99b0f73
supermarket,Kios,Kios Alya,"Saketa, Kec. Gane Bar., Kabupaten Halmahera Selatan, Maluku Utara 97782","Kec. Gane Bar., Kabupaten Halmahera Selatan",MALUKU UTARA,97782.0,Indonesia,81242665238.0,-0.3547353,127.8456057,https://maps.google.com/?cid=0x0:0x46e27b2eb5978610
supermarket,supermarket,Kios akbar,"M2G6+WC, Matuting, Kec. Gane Tim. Tengah, Kabupaten Halmahera Selatan, Maluku Utara","Kabupaten Halmahera Selatan, Maluku Utara",MALUKU UTARA,,Indonesia,,-0.3218218,128.0109623,https://maps.google.com/?cid=0x0:0x5e25bb6ab3102249
supermarket,supermarket,Kios Ikan Dasar,"M2G7+F8R, Matuting, Kec. Gane Tim. Tengah, Kabupaten Halmahera Selatan, Maluku Utara","Kabupaten Halmahera Selatan, Maluku Utara",MALUKU UTARA,,Indonesia,,-0.3237624,128.0132743,https://maps.google.com/?cid=0x0:0x10e5bb6cf113ef15
supermarket,supermarket,Kec. Obi Bar.,"Kabupaten Halmahera Selatan, Maluku Utara","Kabupaten Halmahera Selatan, Maluku Utara",MALUKU UTARA,,Indonesia,,-1.3895849,127.338527,https://maps.google.com/?cid=0x0:0xaed606505850254d
supermarket,Kios,Kios asep,"Jl. Cengkeh, Pasir Putih, Kec. Obi Utara, Kabupaten Halmahera Selatan, Maluku Utara","Kabupaten Halmahera Selatan, Maluku Utara",MALUKU UTARA,,Indonesia,,-1.1604166,127.430831,https://maps.google.com/?cid=0x0:0x3e322c7413ade7c9
supermarket,Pusat Perbelanjaan,Foodmart Supermarket HPAL,"FC84+2W3, Kawasi, Kec. Obi, Kabupaten Halmahera Selatan, Maluku Utara","Kabupaten Halmahera Selatan, Maluku Utara",MALUKU UTARA,,Indonesia,,-1.5349881,127.4072862,https://maps.google.com/?cid=0x0:0xdc291ea06f8d91fb
supermarket,Apotek,Apotek Walianci Farma,"Manatahan, Kec. Obi Bar., Kabupaten Halmahera Selatan, Maluku Utara 97792","Kec. Obi Bar., Kabupaten Halmahera Selatan",MALUKU UTARA,97792.0,Indonesia,,-1.3952878,127.3193956,https://maps.google.com/?cid=0x0:0x1ad8a90ec96ab3e3
supermarket,Kios,Kios Rasid,"RCQJ+P9C, Pasir Putih, Kec. Obi Utara, Kabupaten Halmahera Selatan, Maluku Utara","Kabupaten Halmahera Selatan, Maluku Utara",MALUKU UTARA,,Indonesia,,-1.1601344,127.4311488,https://maps.google.com/?cid=0x0:0xb9e068ce8c0456d6
supermarket,Kios,Kios 4 Putri,"RCQJ+P9C, Pasir Putih, Kec. Obi Utara, Kabupaten Halmahera Selatan, Maluku Utara","Kabupaten Halmahera Selatan, Maluku Utara",MALUKU UTARA,,Indonesia,,-1.1606784,127.430898,https://maps.google.com/?cid=0x0:0x58d8c18ead2c0a05
supermarket,Produsen,PT Halmahera Persada Lygend (HPAL),"Kawasi, Kec. Obi, Kabupaten Halmahera Selatan, Maluku Utara","Kabupaten Halmahera Selatan, Maluku Utara",MALUKU UTARA,,Indonesia,,-1.5395257,127.4181518,https://maps.google.com/?cid=0x0:0xf0db181a71005241
supermarket,Kios,Kios Rahmat,"RCPJ+FG3, Pasir Putih, Kec. Obi Utara, Kabupaten Halmahera Selatan, Maluku Utara","Kabupaten Halmahera Selatan, Maluku Utara",MALUKU UTARA,,Indonesia,,-1.164205,127.430868,https://maps.google.com/?cid=0x0:0xe4f9fb85841ca6eb
supermarket,Kios,Kios tilon,"RCQJ+JHH, Pasir Putih, Kec. Obi Utara, Kabupaten Halmahera Selatan, Maluku Utara","Kabupaten Halmahera Selatan, Maluku Utara",MALUKU UTARA,,Indonesia,,-1.1609426,127.4314965,https://maps.google.com/?cid=0x0:0x7e6e52ab05a13842
supermarket,Toko Perlengkapan Rumah,Toko N  M 2 obi,"MJ4Q+QHC, Dusun buru, Laiwui, Kec. Obi, Kabupaten Halmahera Selatan, Maluku Utara","Kabupaten Halmahera Selatan, Maluku Utara",MALUKU UTARA,,Indonesia,,-1.343066,127.638877,https://maps.google.com/?cid=0x0:0x30d9853c0acaabf8
supermarket,Pom bensin/SPBU,Jual minyak,"RCQJ+8F6, Pasir Putih, Kec. Obi Utara, Kabupaten Halmahera Selatan, Maluku Utara","Kabupaten Halmahera Selatan, Maluku Utara",MALUKU UTARA,,Indonesia,,-1.16168,127.43047,https://maps.google.com/?cid=0x0:0x3c92b191588573b0
supermarket,supermarket,Toko misep mart,"RCQJ+8F6, Pasir Putih, Kec. Obi Utara, Kabupaten Halmahera Selatan, Maluku Utara","Kabupaten Halmahera Selatan, Maluku Utara",MALUKU UTARA,,Indonesia,,-1.1616797,127.4304702,https://maps.google.com/?cid=0x0:0x5a9818950851ed2c
supermarket,Kios,Kios mama eky,"RCPJ+FFH, Pasir Putih, Kec. Obi Utara, Kabupaten Halmahera Selatan, Maluku Utara","Kabupaten Halmahera Selatan, Maluku Utara",MALUKU UTARA,,Indonesia,,-1.1638002,127.4312286,https://maps.google.com/?cid=0x0:0x5367ee66d8728e16
supermarket,supermarket,Fahril,"J839+HM4, Manatahan, Kec. Obi Bar., Kabupaten Halmahera Selatan, Maluku Utara","Kabupaten Halmahera Selatan, Maluku Utara",MALUKU UTARA,,Indonesia,,-1.39695,127.319817,https://maps.google.com/?cid=0x0:0x648aecb86406d7c8
supermarket,supermarket,Kec. Obi Tim.,"Kabupaten Halmahera Selatan, Maluku Utara","Kabupaten Halmahera Selatan, Maluku Utara",MALUKU UTARA,,Indonesia,,-1.4918907,127.9813554,https://maps.google.com/?cid=0x0:0xffcda0a454872d5e
supermarket,Pusat Perbelanjaan,Foodmart Supermarket HPAL,"FC84+2W3, Kawasi, Kec. Obi, Kabupaten Halmahera Selatan, Maluku Utara","Kabupaten Halmahera Selatan, Maluku Utara",MALUKU UTARA,,Indonesia,,-1.5349881,127.4072862,https://maps.google.com/?cid=0x0:0xdc291ea06f8d91fb
supermarket,Toko,Toko Kristin Tjiakra,"C4Q6+GFQ, Sum, Kec. Obi Tim., Kabupaten Halmahera Selatan, Maluku Utara","Kabupaten Halmahera Selatan, Maluku Utara",MALUKU UTARA,,Indonesia,,-1.561,128.1118904,https://maps.google.com/?cid=0x0:0x9f9a5743041a07ad
supermarket,Pusat Perbelanjaan,Mortina market jikotamo,"MM53+R4W, Jikotamo, Kec. Obi, Kabupaten Halmahera Selatan, Maluku Utara","Kabupaten Halmahera Selatan, Maluku Utara",MALUKU UTARA,,Indonesia,,-1.3403759,127.6528373,https://maps.google.com/?cid=0x0:0x3003f822f995ec56
supermarket,Toko Swalayan,MB MART,"MJ7R+395, Laiwui, Kec. Obi, Kabupaten Halmahera Selatan, Maluku Utara","Kabupaten Halmahera Selatan, Maluku Utara",MALUKU UTARA,,Indonesia,82291819907.0,-1.3376869,127.6411805,https://maps.google.com/?cid=0x0:0xe711d9bbffd7736d
supermarket,supermarket,Depot Dhelove 01,"C4P7+QJ, Sum, Kec. Obi Tim., Kabupaten Halmahera Selatan, Maluku Utara","Kabupaten Halmahera Selatan, Maluku Utara",MALUKU UTARA,,Indonesia,82189339889.0,-1.5630625,128.1140625,https://maps.google.com/?cid=0x0:0x72d3e2ea5b5a1f8e
supermarket,Minimarket,Toko All Mart,"MP59+F53, Sambiki, Kec. Obi, Kabupaten Halmahera Selatan, Maluku Utara","Kabupaten Halmahera Selatan, Maluku Utara",MALUKU UTARA,,Indonesia,,-1.3416967,127.7180503,https://maps.google.com/?cid=0x0:0x38bb1a78bea915b6
supermarket,Toko,Rava mart,"MP4F+CQ8, Sambiki, Kec. Obi, Kabupaten Halmahera Selatan, Maluku Utara","Kabupaten Halmahera Selatan, Maluku Utara",MALUKU UTARA,,Indonesia,81319532382.0,-1.3439642,127.7244675,https://maps.google.com/?cid=0x0:0xceb9c3abdf52f600
supermarket,Pusat Perbelanjaan,ANS Mart,"MJ7R+395, Unnamed Road, Laiwui, Obi, South Halmahera Regency, North Maluku","Kabupaten Halmahera Selatan, Maluku Utara",MALUKU UTARA,,Indonesia,,-1.337367,127.6409907,https://maps.google.com/?cid=0x0:0x3638696893a9008
supermarket,Toko Perlengkapan Rumah,Toko N  M 2 obi,"MJ4Q+QHC, Dusun buru, Laiwui, Kec. Obi, Kabupaten Halmahera Selatan, Maluku Utara","Kabupaten Halmahera Selatan, Maluku Utara",MALUKU UTARA,,Indonesia,,-1.343066,127.638877,https://maps.google.com/?cid=0x0:0x30d9853c0acaabf8
supermarket,Dapur Umum,DEPOT 3 PUTRI,"7XWV+P2Q, Wooi, Kec. Obi Tim., Kabupaten Halmahera Selatan, Maluku Utara","Kabupaten Halmahera Selatan, Maluku Utara",MALUKU UTARA,,Indonesia,,-1.7031748,127.9926247,https://maps.google.com/?cid=0x0:0xaed3fcee571143b5
supermarket,Toko,yotam sayamani,"7XWV+4F9, Wooi, Kec. Obi Tim., Kabupaten Halmahera Selatan, Maluku Utara","Kabupaten Halmahera Selatan, Maluku Utara",MALUKU UTARA,,Indonesia,,-1.7047024,127.9937255,https://maps.google.com/?cid=0x0:0xa3ee90e4db95d461
supermarket,Toko,Gil tjkr,"C4Q6+GFQ, Sum, Kec. Obi Tim., Kabupaten Halmahera Selatan, Maluku Utara","Kabupaten Halmahera Selatan, Maluku Utara",MALUKU UTARA,,Indonesia,,-1.5611625,128.1112344,https://maps.google.com/?cid=0x0:0x62ee9bc928e9e03e
supermarket,Minimarket,SamuderaMart,"Lauwi, Obi Sel., Kabupaten Halmahera Selatan, Maluku Utara","Kabupaten Halmahera Selatan, Maluku Utara",MALUKU UTARA,,Indonesia,82121444272.0,-1.3355188,127.639458,https://maps.google.com/?cid=0x0:0x522d8fe02c8ab668
supermarket,supermarket,Kec. Obi Utara,"Kabupaten Halmahera Selatan, Maluku Utara","Kabupaten Halmahera Selatan, Maluku Utara",MALUKU UTARA,,Indonesia,,-1.2239003,127.6485589,https://maps.google.com/?cid=0x0:0x14425d7651bc8346
supermarket,Toko,Kios fajriyan,"QFPR+JG9, Cap, Kec. Obi Utara, Kabupaten Halmahera Selatan, Maluku Utara","Kabupaten Halmahera Selatan, Maluku Utara",MALUKU UTARA,,Indonesia,,-1.2134747,127.4913594,https://maps.google.com/?cid=0x0:0x77d2b8d332511ef
supermarket,Kios,Kios asep,"Jl. Cengkeh, Pasir Putih, Kec. Obi Utara, Kabupaten Halmahera Selatan, Maluku Utara","Kabupaten Halmahera Selatan, Maluku Utara",MALUKU UTARA,,Indonesia,,-1.1604166,127.430831,https://maps.google.com/?cid=0x0:0x3e322c7413ade7c9
supermarket,Toko umum,Toko tani Mito,"RH77+X7H, Waringi, Kec. Obi Utara, Kabupaten Halmahera Selatan, Maluku Utara","Kabupaten Halmahera Selatan, Maluku Utara",MALUKU UTARA,,Indonesia,,-1.1853848,127.5634491,https://maps.google.com/?cid=0x0:0x6f345e374685b4fd
supermarket,Pusat Perbelanjaan,Foodmart Supermarket HPAL,"FC84+2W3, Kawasi, Kec. Obi, Kabupaten Halmahera Selatan, Maluku Utara","Kabupaten Halmahera Selatan, Maluku Utara",MALUKU UTARA,,Indonesia,,-1.5349881,127.4072862,https://maps.google.com/?cid=0x0:0xdc291ea06f8d91fb
supermarket,Toko,Distributor K-Link,"RH77+HF2, Waringi, Kec. Obi Utara, Kabupaten Halmahera Selatan, Maluku Utara","Kabupaten Halmahera Selatan, Maluku Utara",MALUKU UTARA,,Indonesia,82188061622.0,-1.1861098,127.5636332,https://maps.google.com/?cid=0x0:0xd43f6fba9ca28b35
supermarket,Kios,Kios Rasid,"RCQJ+P9C, Pasir Putih, Kec. Obi Utara, Kabupaten Halmahera Selatan, Maluku Utara","Kabupaten Halmahera Selatan, Maluku Utara",MALUKU UTARA,,Indonesia,,-1.1601344,127.4311488,https://maps.google.com/?cid=0x0:0xb9e068ce8c0456d6
supermarket,Toko,Warung Haidar,"QJGW+5HF, Jalan kantor desa, Madapolo Bar., Kec. Obi Utara, Kabupaten Halmahera Selatan, Maluku Utara","Kabupaten Halmahera Selatan, Maluku Utara",MALUKU UTARA,,Indonesia,,-1.2245693,127.6464097,https://maps.google.com/?cid=0x0:0xf25c320edde51218
supermarket,Toko bahan makanan,Kios alfons,"QGV4+36H, Galala, Kec. Obi Utara, Kabupaten Halmahera Selatan, Maluku Utara","Kabupaten Halmahera Selatan, Maluku Utara",MALUKU UTARA,,Indonesia,,-1.2072569,127.505521,https://maps.google.com/?cid=0x0:0xe8f31b22992e2ae5
supermarket,Toko Alat-Alat,"Nindi Fotocopy, ATK, Pulsa Listrik dan Hp","QMG2+8J3, Madapolo, Kec. Obi Utara, Kabupaten Halmahera Selatan, Maluku Utara","Kabupaten Halmahera Selatan, Maluku Utara",MALUKU UTARA,,Indonesia,,-1.2242401,127.6515449,https://maps.google.com/?cid=0x0:0xa4cf78687e8a6a2
supermarket,Toko,Tokoh alfhat,"QJ9F+93G Jono M.polo, Jln, Madapolo Bar., Kec. Obi Utara, Kabupaten Halmahera Selatan, Maluku Utara","Kabupaten Halmahera Selatan, Maluku Utara",MALUKU UTARA,,Indonesia,,-1.2315619,127.6226933,https://maps.google.com/?cid=0x0:0x12f82ecf08d66148
supermarket,Kios,Kios 4 Putri,"RCQJ+P9C, Pasir Putih, Kec. Obi Utara, Kabupaten Halmahera Selatan, Maluku Utara","Kabupaten Halmahera Selatan, Maluku Utara",MALUKU UTARA,,Indonesia,,-1.1606784,127.430898,https://maps.google.com/?cid=0x0:0x58d8c18ead2c0a05
supermarket,Toko Perlengkapan Rumah,Toko N  M 2 obi,"MJ4Q+QHC, Dusun buru, Laiwui, Kec. Obi, Kabupaten Halmahera Selatan, Maluku Utara","Kabupaten Halmahera Selatan, Maluku Utara",MALUKU UTARA,,Indonesia,,-1.343066,127.638877,https://maps.google.com/?cid=0x0:0x30d9853c0acaabf8
