Category;Real Category;Business Name;Address;City;State;Postal Code;Country;Phone;Email;Website;Latitude;Longitude;Map Link;Details Link
"mall";"mall";"Sumatera Barat 27383";"Kabupaten Solok, Sumatera Barat";"Kabupaten Solok, Sumatera Barat";"SUMATERA BARAT";"";"Indonesia";"";"";"";"-1.0496283";"100.6985155";"https://maps.google.com/?cid=0x0:0x1091eb0d7b49db43";""
"mall";"Tujuan Wisata";"Danau Atas Dan Danau Bawah";"WPX6+7G9, Jl. Padang - Alahan Panjang, Simpang Tj. Nan IV, Kec. Danau Kembar, Kabupaten Solok, Sumatera Barat 27383";"Jl. Padang - Alahan Panjang, Simpang Tj. Nan IV, Kec. Danau Kembar, Kabupaten Solok";"SUMATERA BARAT";"27383";"Indonesia";"";"";"";"-1.051826";"100.7113642";"https://maps.google.com/?cid=0x0:0xf25280c4aaf4a904";""
"mall";"Pusat Perbelanjaan";"Toko dito stm 2";"WPXR+Q4R, Jl. Padang - Alahan Panjang, Simpang Tj. Nan IV, Kec. Danau Kembar, Kabupaten Solok, Sumatera Barat 27383";"Jl. Padang - Alahan Panjang, Simpang Tj. Nan IV, Kec. Danau Kembar, Kabupaten Solok";"SUMATERA BARAT";"27383";"Indonesia";"";"";"";"-1.0505218";"100.7402555";"https://maps.google.com/?cid=0x0:0x9075aacd1bbe9607";""
"mall";"";"Kedai Adit";"XP33+858, Jl. Padang - Alahan Panjang, Simpang Tj. Nan IV, Kec. Danau Kembar, Kabupaten Solok, Sumatera Barat 27383";"Jl. Padang - Alahan Panjang, Simpang Tj. Nan IV, Kec. Danau Kembar, Kabupaten Solok";"SUMATERA BARAT";"27383";"Indonesia";" 082283356328";"";"";"-1.046725";"100.702957";"https://maps.google.com/?cid=0x0:0x68588e9d2d931f38";""
"mall";"Toko bahan makanan";"Toko AL STM";"WPWG+F47, Simpang Tj. Nan IV, Kec. Danau Kembar, Kabupaten Solok, Sumatera Barat 27383";"Simpang Tj. Nan IV, Kec. Danau Kembar, Kabupaten Solok";"SUMATERA BARAT";"27383";"Indonesia";"";"";"";"-1.0538402";"100.7253043";"https://maps.google.com/?cid=0x0:0xc6215dff8bcc4b02";""
"mall";"Vila";"Villa Danau Kembar";"WQF9+XWM, Alahan Panjang, Kec. Lembah Gumanti, Kabupaten Solok, Sumatera Barat 27371";"Alahan Panjang, Kec. Lembah Gumanti, Kabupaten Solok";"SUMATERA BARAT";"27371";"Indonesia";"";"";"";"-1.075035";"100.7697977";"https://maps.google.com/?cid=0x0:0x45cbd3aff30854d6";""
"mall";"Toko bahan makanan";"Efarel Tani";"WPWX+86F, Jl. Padang - Alahan Panjang, Simpang Tj. Nan IV, Kec. Danau Kembar, Kabupaten Solok, Sumatera Barat 27383";"Jl. Padang - Alahan Panjang, Simpang Tj. Nan IV, Kec. Danau Kembar, Kabupaten Solok";"SUMATERA BARAT";"27383";"Indonesia";" 082170042100";"";"";"-1.0541767";"100.748038";"https://maps.google.com/?cid=0x0:0x2d9e26fd7fffe800";""
"mall";"Toko bahan makanan";"Toko hesty";"2P7J+7F4, Kp. Batu Dalam, Kec. Danau Kembar, Kabupaten Solok, Sumatera Barat 27383";"Kp. Batu Dalam, Kec. Danau Kembar, Kabupaten Solok";"SUMATERA BARAT";"27383";"Indonesia";"";"";"";"-0.9868603";"100.7312099";"https://maps.google.com/?cid=0x0:0x9eb7a6dbbb3edde6";""
"mall";"Toko Kue";"NangChin CakeandCookies";"WPVH+Q3C, Simpang Tj. Nan IV, Kec. Danau Kembar, Kabupaten Solok, Sumatera Barat 27383";"Simpang Tj. Nan IV, Kec. Danau Kembar, Kabupaten Solok";"SUMATERA BARAT";"27383";"Indonesia";"";"";"";"-1.0555585";"100.7276492";"https://maps.google.com/?cid=0x0:0x6afad07f493d0d52";""
"mall";"Pusat Perbelanjaan";"Toko Annasya";"2P6M+GQG, Kp. Batu Dalam, Kec. Danau Kembar, Kabupaten Solok, Sumatera Barat 27383";"Kp. Batu Dalam, Kec. Danau Kembar, Kabupaten Solok";"SUMATERA BARAT";"27383";"Indonesia";" 081374290216";"";"";"-0.9887264";"100.734473";"https://maps.google.com/?cid=0x0:0xbb5ea7ac62ed4d75";""
"mall";"Pusat Perbelanjaan";"Lapau Duo Pulsa";"2P7J+F49, Kp. Batu Dalam, Kec. Danau Kembar, Kabupaten Solok, Sumatera Barat 27383";"Kp. Batu Dalam, Kec. Danau Kembar, Kabupaten Solok";"SUMATERA BARAT";"27383";"Indonesia";"";"";"";"-0.9863484";"100.7303475";"https://maps.google.com/?cid=0x0:0x49e00db1eab0cde0";""
"mall";"Toko";"gosiniyo cell";"XP2R+XXX, Jl. Lkr. Danau DIbawah, Simpang Tj. Nan IV, Kec. Danau Kembar, Kabupaten Solok, Sumatera Barat 27383";"Jl. Lkr. Danau DIbawah, Simpang Tj. Nan IV, Kec. Danau Kembar, Kabupaten Solok";"SUMATERA BARAT";"27383";"Indonesia";" 085210751990";"";"";"-1.0475218";"100.7424853";"https://maps.google.com/?cid=0x0:0xaa3142aa1e196eb1";""
"mall";"Pusat Perbelanjaan";"ANUGERAH CELL";"2PJ9+94M, Jl. Solok - Danau Kembar, Batu Bajanjang, Kec. Lembang Jaya, Kabupaten Solok, Sumatera Barat 27383";"Jl. Solok - Danau Kembar, Batu Bajanjang, Kec. Lembang Jaya, Kabupaten Solok";"SUMATERA BARAT";"27383";"Indonesia";" 081363086947";"";"";"-0.9690418";"100.7177851";"https://maps.google.com/?cid=0x0:0xd8fb5878d27268d8";""
"mall";"Pusat Perbelanjaan";"Toko AF cell";"2P77+3GG, Batu Bajanjang, Kec. Danau Kembar, Kabupaten Solok, Sumatera Barat 27383";"Batu Bajanjang, Kec. Danau Kembar, Kabupaten Solok";"SUMATERA BARAT";"27383";"Indonesia";" 083181698736";"";"";"-0.9873124";"100.7138231";"https://maps.google.com/?cid=0x0:0x78a48f3f3ec538b7";""
"mall";"Toko";"Rajo endah Olshop";"WPXP+4F3, Jl. Padang - Alahan Panjang, Simpang Tj. Nan IV, Kec. Danau Kembar, Kabupaten Solok, Sumatera Barat 27383";"Jl. Padang - Alahan Panjang, Simpang Tj. Nan IV, Kec. Danau Kembar, Kabupaten Solok";"SUMATERA BARAT";"27383";"Indonesia";" 081270105152";"";"";"-1.0522425";"100.7361589";"https://maps.google.com/?cid=0x0:0xf25020c4879db123";""
"mall";"Pusat Perbelanjaan";"Kedai Mil";"Alahan Panjang, Kec. Lembah Gumanti, Kabupaten Solok, Sumatera Barat 27371";"Kec. Lembah Gumanti, Kabupaten Solok";"SUMATERA BARAT";"27371";"Indonesia";"";"";"";"-1.0562513";"100.7750423";"https://maps.google.com/?cid=0x0:0xeffae302ac267982";""
"mall";"Pusat Perbelanjaan";"RM2 Cell Bendang";"Batu Banyak, Kec. Lembang Jaya, Kabupaten Solok, Sumatera Barat 27383";"Kec. Lembang Jaya, Kabupaten Solok";"SUMATERA BARAT";"27383";"Indonesia";"";"";"";"-0.9450735";"100.7280102";"https://maps.google.com/?cid=0x0:0xb1d3c8468efc9bd";""
"mall";"Pusat Perbelanjaan";"Tokp 4saudara";"WQP7+F4H, Jl. Padang - Alahan Panjang, Alahan Panjang, Kec. Lembah Gumanti, Kabupaten Solok, Sumatera Barat 27383";"Jl. Padang - Alahan Panjang, Alahan Panjang, Kec. Lembah Gumanti, Kabupaten Solok";"SUMATERA BARAT";"27383";"Indonesia";" 081378920448";"";"";"-1.0638136";"100.7628739";"https://maps.google.com/?cid=0x0:0x5e4086b821b803f2";""
"mall";"Toko bahan makanan";"kedai en";"XMFF+QGC, Air Batumbuk, Kec. Gn. Talang, Kabupaten Solok, Sumatera Barat 27365";"Air Batumbuk, Kec. Gn. Talang, Kabupaten Solok";"SUMATERA BARAT";"27365";"Indonesia";" 085274024234";"";"";"-1.0255599";"100.6737606";"https://maps.google.com/?cid=0x0:0x19e6a4c475434ec3";""
"mall";"Pusat Perbelanjaan";"Kedai Dina";"WQVF+JVJ, Simpang Parak Kurai, Alahan Panjang, Kec. Lembah Gumanti, Kabupaten Solok, Sumatera Barat 27371";"Simpang Parak Kurai, Alahan Panjang, Kec. Lembah Gumanti, Kabupaten Solok";"SUMATERA BARAT";"27371";"Indonesia";"";"";"";"-1.0559001";"100.7746494";"https://maps.google.com/?cid=0x0:0x34fa63b3cc6e9a92";""
"mall";"Taman";"Zila Playground, Cafe  Resto";"WPWX+86F, Jl. Padang - Alahan Panjang, Simpang Tj. Nan IV, Kec. Danau Kembar, Kabupaten Solok, Sumatera Barat 27383";"Jl. Padang - Alahan Panjang, Simpang Tj. Nan IV, Kec. Danau Kembar, Kabupaten Solok";"SUMATERA BARAT";"27383";"Indonesia";"";"";"";"-1.0532456";"100.7488672";"https://maps.google.com/?cid=0x0:0xc95de2c0960633c7";""
"mall";"Pusat Perbelanjaan";"d_yankers Created";"WQJP+96F, Jl. Gajah Mada, Alahan Panjang, Kec. Lembah Gumanti, Kabupaten Solok, Sumatera Barat 27371";"Jl. Gajah Mada, Alahan Panjang, Kec. Lembah Gumanti, Kabupaten Solok";"SUMATERA BARAT";"27371";"Indonesia";" 082288337676";"";"";"-1.0690633";"100.7855617";"https://maps.google.com/?cid=0x0:0xe52a72a7e7ab7366";""
"mall";"Toko Ponsel";"R.G.M Service Smartphone";"Rumah Gadang, Jorong Kampung Dalam, Tengah, Kec. Danau Kembar, Kabupaten Solok, Sumatera Barat 27383";"Jorong Kampung Dalam, Tengah, Kec. Danau Kembar, Kabupaten Solok";"SUMATERA BARAT";"27383";"Indonesia";" 082388886985";"";"";"-0.9855643";"100.728474";"https://maps.google.com/?cid=0x0:0x7c45274cdc85aa89";""
"mall";"Pasar";"Pasar Talang";"3JRV+4C7, Jl. Lintas Sumatera, Talang, Kec. Gn. Talang, Kabupaten Solok, Sumatera Barat 27365";"Jl. Lintas Sumatera, Talang, Kec. Gn. Talang, Kabupaten Solok";"SUMATERA BARAT";"27365";"Indonesia";"";"";"";"-0.9097069";"100.6435359";"https://maps.google.com/?cid=0x0:0xc8e8cb39260ae2d4";""
"mall";"Toko bahan makanan";"kedai en";"XMFF+QGC, Air Batumbuk, Kec. Gn. Talang, Kabupaten Solok, Sumatera Barat 27365";"Air Batumbuk, Kec. Gn. Talang, Kabupaten Solok";"SUMATERA BARAT";"27365";"Indonesia";" 085274024234";"";"";"-1.0255599";"100.6737606";"https://maps.google.com/?cid=0x0:0x19e6a4c475434ec3";""
"mall";"Pusat Perbelanjaan";"Santan Simpang Empat";"3JWW+J9X, Talang, Kec. Gn. Talang, Kabupaten Solok, Sumatera Barat 27365";"Talang, Kec. Gn. Talang, Kabupaten Solok";"SUMATERA BARAT";"27365";"Indonesia";"";"";"";"-0.9033781";"100.6459728";"https://maps.google.com/?cid=0x0:0x21fb1fae4f3323a3";""
"mall";"Toko";"H3 cell";"4J8M+GV4, Jl. Panarian, Talang, Kec. Gn. Talang, Kabupaten Solok, Sumatera Barat 27365";"Jl. Panarian, Talang, Kec. Gn. Talang, Kabupaten Solok";"SUMATERA BARAT";"27365";"Indonesia";"";"";"";"-0.8837461";"100.634704";"https://maps.google.com/?cid=0x0:0xa27c94e70a8f3150";""
"mall";"Toko";"CC Shop";"3JQG+R4R, Jawi Jawi, Kec. Gn. Talang, Kabupaten Solok, Sumatera Barat 27365";"Jawi Jawi, Kec. Gn. Talang, Kabupaten Solok";"SUMATERA BARAT";"27365";"Indonesia";" 081277569947";"";"";"-0.9103755";"100.6252783";"https://maps.google.com/?cid=0x0:0xb4c0743a46724e62";""
"mall";"Kantor Pemerintah";"Kantor Camat Gunung Talang";"4J2V+JXH, Talang, Kec. Gn. Talang, Kabupaten Solok, Sumatera Barat 27365";"Talang, Kec. Gn. Talang, Kabupaten Solok";"SUMATERA BARAT";"27365";"Indonesia";" 075531171";"";"";"-0.8984285";"100.6449689";"https://maps.google.com/?cid=0x0:0xf46157cf10a6b32c";""
"mall";"mall";"Kec. Hiliran Gumanti";"Kabupaten Solok, Sumatera Barat";"Kabupaten Solok, Sumatera Barat";"SUMATERA BARAT";"";"Indonesia";"";"";"";"-1.0918005";"100.8747525";"https://maps.google.com/?cid=0x0:0x4039d80b220e1f0";""
"mall";"Perhimpunan Pengembang Perumahan";"Pasar Talang Babungo";"WV4G+JWG, Talang Babungo, Kec. Hiliran Gumanti, Kabupaten Solok, Sumatera Barat 27372";"Talang Babungo, Kec. Hiliran Gumanti, Kabupaten Solok";"SUMATERA BARAT";"27372";"Indonesia";" 081290587388";"";"";"-1.0934395";"100.8773229";"https://maps.google.com/?cid=0x0:0xb7ec2640cb6514b3";""
"mall";"Toko";"Mandiri Agen Kadai Gita";"WV5G+42J, Jl. Alahan Panjang - Talang Babungo, Talang Babungo, Kec. Hiliran Gumanti, Kabupaten Solok, Sumatera Barat 27372";"Jl. Alahan Panjang - Talang Babungo, Talang Babungo, Kec. Hiliran Gumanti, Kabupaten Solok";"SUMATERA BARAT";"27372";"Indonesia";" 081364389922";"";"";"-1.0921709";"100.8750171";"https://maps.google.com/?cid=0x0:0x65c8b5218900fefa";""
"mall";"Toko bahan makanan";"Toko U Farfume";"Jorong Talang Timur, Jl. Alahan Panjang - Talang Babungo, Talang Babungo, Kec. Hiliran Gumanti, Kabupaten Solok, Sumatera Barat 27372";"Jl. Alahan Panjang - Talang Babungo, Talang Babungo, Kec. Hiliran Gumanti, Kabupaten Solok";"SUMATERA BARAT";"27372";"Indonesia";" 085374086545";"";"";"-1.0940016";"100.8761155";"https://maps.google.com/?cid=0x0:0xf82c38c88f87f787";""
"mall";"Toko";"Halal Mart / Hanna Shop";"WRHF+9W6, Jl. Alahan Panjang - Talang Babungo, Salimpat, Kec. Lembah Gumanti, Kabupaten Solok, Sumatera Barat 27371";"Jl. Alahan Panjang - Talang Babungo, Salimpat, Kec. Lembah Gumanti, Kabupaten Solok";"SUMATERA BARAT";"27371";"Indonesia";" 082169094889";"";"";"-1.0715915";"100.8247581";"https://maps.google.com/?cid=0x0:0xedced70d1e5bed6e";""
"mall";"Toko Elektronik";"Warung Sembako Afif Cell";"WV4G+9QC, Talang Babungo, Kec. Hiliran Gumanti, Kabupaten Solok, Sumatera Barat 27372";"Talang Babungo, Kec. Hiliran Gumanti, Kabupaten Solok";"SUMATERA BARAT";"27372";"Indonesia";"";"";"";"-1.0941065";"100.8769822";"https://maps.google.com/?cid=0x0:0x45aba8d3644ee628";""
"mall";"Toko bahan makanan";"Agen Resmi Brilink Mailis Cell";"WRFM+3QJ, Jl. Alahan Panjang - Talang Babungo, Salimpat, Kec. Lembah Gumanti, Kabupaten Solok, Sumatera Barat 27371";"Jl. Alahan Panjang - Talang Babungo, Salimpat, Kec. Lembah Gumanti, Kabupaten Solok";"SUMATERA BARAT";"27371";"Indonesia";" 082169163816";"";"";"-1.0772909";"100.8343978";"https://maps.google.com/?cid=0x0:0xd251393c5f888d00";""
"mall";"mall";"Minangrice";"Teratak teleng, Sariak Alahan Tigo, Kec. Hiliran Gumanti, Kabupaten Solok, Sumatera Barat 27372";"Sariak Alahan Tigo, Kec. Hiliran Gumanti, Kabupaten Solok";"SUMATERA BARAT";"27372";"Indonesia";" 085263823072";"";"";"-1.1367127";"100.9205491";"https://maps.google.com/?cid=0x0:0x4313c53e42c013d0";""
"mall";"mall";"Pasar Sungai Abu";"RXCM+W96, Sungai Abu, Kec. Hiliran Gumanti, Kabupaten Solok, Sumatera Barat 27372";"Sungai Abu, Kec. Hiliran Gumanti, Kabupaten Solok";"SUMATERA BARAT";"27372";"Indonesia";"";"";"";"-1.1777014";"100.9834007";"https://maps.google.com/?cid=0x0:0x622fb9c7ab38acd8";""
"mall";"mall";"Sumatera Barat 27371";"Kabupaten Solok, Sumatera Barat";"Kabupaten Solok, Sumatera Barat";"SUMATERA BARAT";"";"Indonesia";"";"";"";"-1.1341375";"100.7774424";"https://maps.google.com/?cid=0x0:0xea3f4c08347e1318";""
"mall";"Pasar";"Pasar Sayur lembah gumanti";"WQJC+JG6, Alahan Panjang, Kec. Lembah Gumanti, Kabupaten Solok, Sumatera Barat 27371";"Alahan Panjang, Kec. Lembah Gumanti, Kabupaten Solok";"SUMATERA BARAT";"27371";"Indonesia";" 082288039014";"";"";"-1.068452";"100.7712629";"https://maps.google.com/?cid=0x0:0xdbd844290dcb64e5";""
"mall";"Pusat Perbelanjaan";"Kedai Mil";"Alahan Panjang, Kec. Lembah Gumanti, Kabupaten Solok, Sumatera Barat 27371";"Kec. Lembah Gumanti, Kabupaten Solok";"SUMATERA BARAT";"27371";"Indonesia";"";"";"";"-1.0562513";"100.7750423";"https://maps.google.com/?cid=0x0:0xeffae302ac267982";""
"mall";"Pusat Perbelanjaan";"YOLA TANI";"XQ65+VHM, Alahan Panjang, Kec. Lembah Gumanti, Kabupaten Solok, Sumatera Barat 27371";"Alahan Panjang, Kec. Lembah Gumanti, Kabupaten Solok";"SUMATERA BARAT";"27371";"Indonesia";" 081275867848";"";"";"-1.0377811";"100.7589117";"https://maps.google.com/?cid=0x0:0xbfc02d30a71cc85";""
"mall";"Pusat Perbelanjaan";"d_yankers Created";"WQJP+96F, Jl. Gajah Mada, Alahan Panjang, Kec. Lembah Gumanti, Kabupaten Solok, Sumatera Barat 27371";"Jl. Gajah Mada, Alahan Panjang, Kec. Lembah Gumanti, Kabupaten Solok";"SUMATERA BARAT";"27371";"Indonesia";" 082288337676";"";"";"-1.0690633";"100.7855617";"https://maps.google.com/?cid=0x0:0xe52a72a7e7ab7366";""
"mall";"";"Pasar Taratak Pauh";"XQ5G+58X, Jl. Sp Kulik Manih - Taratak Pauah, Alahan Panjang, Kec. Lembah Gumanti, Kabupaten Solok, Sumatera Barat 27371";"Jl. Sp Kulik Manih - Taratak Pauah, Alahan Panjang, Kec. Lembah Gumanti, Kabupaten Solok";"SUMATERA BARAT";"27371";"Indonesia";"";"";"";"-1.0420205";"100.7758719";"https://maps.google.com/?cid=0x0:0x3a34e2ea21a3238d";""
"mall";"Pemasok peralatan percetakan";"Foto Copy Widya";"WQ7M+4HW, Unnamed Road, Alahan Panjang, Kec. Lembah Gumanti, Kabupaten Solok, Sumatera Barat 27371";"Unnamed Road, Alahan Panjang, Kec. Lembah Gumanti, Kabupaten Solok";"SUMATERA BARAT";"27371";"Indonesia";"";"";"";"-1.087133";"100.7839585";"https://maps.google.com/?cid=0x0:0x3d287240c753eadd";""
"mall";"Toko Elektronik";"Balai Lasa Limau Puruik";"XQFF+5P6, Sungai Nanam, Kec. Lembah Gumanti, Kabupaten Solok, Sumatera Barat 27371";"Sungai Nanam, Kec. Lembah Gumanti, Kabupaten Solok";"SUMATERA BARAT";"27371";"Indonesia";" 087726614414";"";"";"-1.0270882";"100.7742576";"https://maps.google.com/?cid=0x0:0x712b7e7e97ff824";""
"mall";"Grosir";"Toko indah Dan aquarium center";"XQHG+6RG, Jl. Limau Puruik, Sungai Nanam, Kec. Lembah Gumanti, Kabupaten Solok, Sumatera Barat 27371";"Jl. Limau Puruik, Sungai Nanam, Kec. Lembah Gumanti, Kabupaten Solok";"SUMATERA BARAT";"27371";"Indonesia";" 08372009006";"";"";"-1.0219368";"100.7770649";"https://maps.google.com/?cid=0x0:0x3b5e3ac575f4d163";""
"mall";"Toko";"Toko tunas muda";"WQP8+2VM, Jalan Padang, Alahan Panjang, Lembah Gumanti, Solok Regency, West Sumatra 27371";"Jalan Padang, Alahan Panjang, Lembah Gumanti, Solok Regency";"SUMATERA BARAT";"27371";"Indonesia";" 082385256970";"";"";"-1.0649194";"100.767158";"https://maps.google.com/?cid=0x0:0xa4836815f32f0a0d";""
"mall";"Toko Perhiasan";"LAYAR EMAS";"Alahan Panjang, Kec. Lembah Gumanti, Kabupaten Solok, Sumatera Barat 27371";"Kec. Lembah Gumanti, Kabupaten Solok";"SUMATERA BARAT";"27371";"Indonesia";" 082283098609";"";"";"-1.0597935";"100.7588515";"https://maps.google.com/?cid=0x0:0xe5d6e8f6e70bf411";""
"mall";"Toko Mainan";"Zhafran Toys";"WQCP+RMW, Jl. Iman Bonjol Atas Pasar Alahan Panjang kab, Alahan Panjang, Kec. Lembah Gumanti, Kabupaten Solok, Sumatera Barat 27371";"Jl. Iman Bonjol Atas Pasar Alahan Panjang kab, Alahan Panjang, Kec. Lembah Gumanti, Kabupaten Solok";"SUMATERA BARAT";"27371";"Indonesia";" 085274841847";"";"";"-1.0778931";"100.7866994";"https://maps.google.com/?cid=0x0:0xc3d08241bdd39e26";""
"mall";"Pusat Pendidikan";"Tahfidz Agri Camp";"VRH3+3WX, Aie Dingin, Kec. Lembah Gumanti, Kabupaten Solok, Sumatera Barat 27371";"Aie Dingin, Kec. Lembah Gumanti, Kabupaten Solok";"SUMATERA BARAT";"27371";"Indonesia";" 081268547074";"";"";"-1.1222718";"100.8048719";"https://maps.google.com/?cid=0x0:0x388360141ebd711";""
"mall";"Grosir";"TOKO KDTS";"SIMPANG BATU BAGIRIAK JORONG, Alahan Panjang, Kec. Lembah Gumanti, Kabupaten Solok, Sumatera Barat 27372";"Alahan Panjang, Kec. Lembah Gumanti, Kabupaten Solok";"SUMATERA BARAT";"27372";"Indonesia";" 081270469002";"";"";"-1.0866129";"100.7837589";"https://maps.google.com/?cid=0x0:0xe1ab1f5d76780ed1";""
"mall";"Toko Ponsel";"Bunda Cell Air Dingin";"VQHP+MWV, Aie Dingin, Kec. Lembah Gumanti, Kabupaten Solok, Sumatera Barat 27371";"Aie Dingin, Kec. Lembah Gumanti, Kabupaten Solok";"SUMATERA BARAT";"27371";"Indonesia";" 082390125099";"";"";"-1.120754";"100.7873109";"https://maps.google.com/?cid=0x0:0x4c3e0df1c32c2cce";""
"mall";"Komplek perumahan";"Melayu Koto Tinggi";"XQ8G+GFW, Sungai Nanam, Kec. Lembah Gumanti, Kabupaten Solok, Sumatera Barat";"Kabupaten Solok, Sumatera Barat";"SUMATERA BARAT";"";"Indonesia";"";"";"";"-1.0336281";"100.7762086";"https://maps.google.com/?cid=0x0:0xb61a71761205abcb";""
"mall";"Pusat Perbelanjaan";"toko rayhan tani";"2Q4H+M8V, Sungai Nanam, Kec. Lembah Gumanti, Kabupaten Solok, Sumatera Barat 27371";"Sungai Nanam, Kec. Lembah Gumanti, Kabupaten Solok";"SUMATERA BARAT";"27371";"Indonesia";" 082284903816";"";"";"-0.9932512";"100.7782995";"https://maps.google.com/?cid=0x0:0xb6e2071855f104cf";""
"mall";"Pusat Perbelanjaan";"Toko karya tani abadi";"2Q4H+368, Sungai Nanam, Kec. Lembah Gumanti, Kabupaten Solok, Sumatera Barat 27371";"Sungai Nanam, Kec. Lembah Gumanti, Kabupaten Solok";"SUMATERA BARAT";"27371";"Indonesia";" 087895742219";"";"";"-0.994828";"100.77808";"https://maps.google.com/?cid=0x0:0xd5fa615d3c6b35bc";""
"mall";"Pusat Perbelanjaan";"Kedai Zafran";"Jl. Sp Kulik Manih - Taratak Pauah, Alahan Panjang, Kec. Lembah Gumanti, Kabupaten Solok, Sumatera Barat 27371";"Alahan Panjang, Kec. Lembah Gumanti, Kabupaten Solok";"SUMATERA BARAT";"27371";"Indonesia";" 081268762815";"";"";"-1.0425899";"100.7742184";"https://maps.google.com/?cid=0x0:0x92fb684366ed8b0c";""
"mall";"Toko Aksesori Mobil";"D Yank Variasi";"WQJP+96R, Alahan Panjang, Kec. Lembah Gumanti, Kabupaten Solok, Sumatera Barat 27371";"Alahan Panjang, Kec. Lembah Gumanti, Kabupaten Solok";"SUMATERA BARAT";"27371";"Indonesia";" 082388500971";"";"";"-1.0690086";"100.7855249";"https://maps.google.com/?cid=0x0:0x4ad650caabbd5d34";""
"mall";"Tujuan Wisata";"Agrowisata Strawberry sejiwa";"Alahan Panjang, Kec. Lembah Gumanti, Kabupaten Solok, Sumatera Barat 27371";"Kec. Lembah Gumanti, Kabupaten Solok";"SUMATERA BARAT";"27371";"Indonesia";"";"";"";"-1.0723566";"100.7739984";"https://maps.google.com/?cid=0x0:0x21953a0686a8f2a8";""
"mall";"Pusat Perbelanjaan";"toko karya tani abadi rimbo data";"2Q3H+7RR, Sungai Nanam, Kec. Lembah Gumanti, Kabupaten Solok, Sumatera Barat 27371";"Sungai Nanam, Kec. Lembah Gumanti, Kabupaten Solok";"SUMATERA BARAT";"27371";"Indonesia";" 081277063369";"";"";"-0.9967505";"100.7795137";"https://maps.google.com/?cid=0x0:0xf8a746c8dfb62050";""
"mall";"mall";"Kec. Lembang Jaya";"Kabupaten Solok, Sumatera Barat";"Kabupaten Solok, Sumatera Barat";"SUMATERA BARAT";"";"Indonesia";"";"";"";"-0.953555";"100.7162709";"https://maps.google.com/?cid=0x0:0xacfe6d206a276f0e";""
"mall";"Toko Swalayan";"Shazia Swalayan";"Salayo Tanang B. Sileh, Kec. Lembang Jaya, Kabupaten Solok, Sumatera Barat 27383";"Kec. Lembang Jaya, Kabupaten Solok";"SUMATERA BARAT";"27383";"Indonesia";" 085274754437";"";"";"-0.988324";"100.7492466";"https://maps.google.com/?cid=0x0:0x9b952cb78f21f6db";""
"mall";"";"Distribution Center HALAL MART HNI HPAI PSD EKA NOVIA";"2PW6+VQM, Samping kantor camat, jalan Bukit Sileh, Batu Bajanjang, Kec. Lembang Jaya, Kabupaten Solok, Sumatera Barat 27383";"Samping kantor camat, jalan Bukit Sileh, Batu Bajanjang, Kec. Lembang Jaya, Kabupaten Solok";"SUMATERA BARAT";"27383";"Indonesia";"";"";"";"-0.9527917";"100.711916";"https://maps.google.com/?cid=0x0:0xb37c133c0bcabd39";""
"mall";"Kedai Kopi";"AL-PANDU BUSINESS CENTRE";"2PX8+8G7, Bukit sileh, Kec. Lembang Jaya, Kabupaten Solok, Sumatera Barat 27383";"Bukit sileh, Kec. Lembang Jaya, Kabupaten Solok";"SUMATERA BARAT";"27383";"Indonesia";"";"";"";"-0.951707";"100.7162913";"https://maps.google.com/?cid=0x0:0x1b4c6fd85ba2177b";""
"mall";"Pusat Perbelanjaan";"ANUGERAH CELL";"2PJ9+94M, Jl. Solok - Danau Kembar, Batu Bajanjang, Kec. Lembang Jaya, Kabupaten Solok, Sumatera Barat 27383";"Jl. Solok - Danau Kembar, Batu Bajanjang, Kec. Lembang Jaya, Kabupaten Solok";"SUMATERA BARAT";"27383";"Indonesia";" 081363086947";"";"";"-0.9690418";"100.7177851";"https://maps.google.com/?cid=0x0:0xd8fb5878d27268d8";""
"mall";"Kantor Perusahaan";"BATU BAJANJANG HOUSE";"3P74+W2X, Limau Lunggo, Kec. Lembang Jaya, Kabupaten Solok, Sumatera Barat 27383";"Limau Lunggo, Kec. Lembang Jaya, Kabupaten Solok";"SUMATERA BARAT";"27383";"Indonesia";" 082171107220";"";"";"-0.9351412";"100.7051233";"https://maps.google.com/?cid=0x0:0xfdf865ccc441ed16";""
"mall";"Toko Swalayan";"Toko grosir berkat yakin";"2PW8+V9M, Koto Gadang Koto Anau, Kec. Lembang Jaya, Kabupaten Solok, Sumatera Barat 27383";"Koto Gadang Koto Anau, Kec. Lembang Jaya, Kabupaten Solok";"SUMATERA BARAT";"27383";"Indonesia";"";"";"";"-0.952801";"100.7159202";"https://maps.google.com/?cid=0x0:0x50c3d62b64b42781";""
"mall";"Toko bahan makanan";"Toko hesty";"2P7J+7F4, Kp. Batu Dalam, Kec. Danau Kembar, Kabupaten Solok, Sumatera Barat 27383";"Kp. Batu Dalam, Kec. Danau Kembar, Kabupaten Solok";"SUMATERA BARAT";"27383";"Indonesia";"";"";"";"-0.9868603";"100.7312099";"https://maps.google.com/?cid=0x0:0x9eb7a6dbbb3edde6";""
"mall";"Pembangunan Perumahan";"faidh mart rimbo data";"2Q4H+368, Sungai Nanam, Kec. Lembah Gumanti, Kabupaten Solok, Sumatera Barat 27371";"Sungai Nanam, Kec. Lembah Gumanti, Kabupaten Solok";"SUMATERA BARAT";"27371";"Indonesia";" 087895742219";"";"";"-0.994828";"100.77808";"https://maps.google.com/?cid=0x0:0xb02511f03dcc90df";""
"mall";"Pusat Perbelanjaan";"Toko Annasya";"2P6M+GQG, Kp. Batu Dalam, Kec. Danau Kembar, Kabupaten Solok, Sumatera Barat 27383";"Kp. Batu Dalam, Kec. Danau Kembar, Kabupaten Solok";"SUMATERA BARAT";"27383";"Indonesia";" 081374290216";"";"";"-0.9887264";"100.734473";"https://maps.google.com/?cid=0x0:0xbb5ea7ac62ed4d75";""
"mall";"Pusat Perbelanjaan";"Toko AF cell";"2P77+3GG, Batu Bajanjang, Kec. Danau Kembar, Kabupaten Solok, Sumatera Barat 27383";"Batu Bajanjang, Kec. Danau Kembar, Kabupaten Solok";"SUMATERA BARAT";"27383";"Indonesia";" 083181698736";"";"";"-0.9873124";"100.7138231";"https://maps.google.com/?cid=0x0:0x78a48f3f3ec538b7";""
"mall";"Pusat Perbelanjaan";"Lapau Duo Pulsa";"2P7J+F49, Kp. Batu Dalam, Kec. Danau Kembar, Kabupaten Solok, Sumatera Barat 27383";"Kp. Batu Dalam, Kec. Danau Kembar, Kabupaten Solok";"SUMATERA BARAT";"27383";"Indonesia";"";"";"";"-0.9863484";"100.7303475";"https://maps.google.com/?cid=0x0:0x49e00db1eab0cde0";""
"mall";"mall";"PPAQIL";"2PW5+WC5, Batu Bajanjang, Kec. Lembang Jaya, Kabupaten Solok, Sumatera Barat 27383";"Batu Bajanjang, Kec. Lembang Jaya, Kabupaten Solok";"SUMATERA BARAT";"27383";"Indonesia";"";"";"";"-0.9527529";"100.7086041";"https://maps.google.com/?cid=0x0:0x91bbc3e596e45fba";""
"mall";"mall";"Sumatera Barat 27361";"Kec. Kubung, Kabupaten Solok, Sumatera Barat";"Kabupaten Solok, Sumatera Barat";"SUMATERA BARAT";"";"Indonesia";"";"";"";"-0.8339837";"100.5971361";"https://maps.google.com/?cid=0x0:0xa5f2ceeab4e63c77";""
"mall";"Pusat Perbelanjaan";"Kedai Somel";"5M42+469, Koto Baru, Kec. Kubung, Kabupaten Solok, Sumatera Barat 27361";"Koto Baru, Kec. Kubung, Kabupaten Solok";"SUMATERA BARAT";"27361";"Indonesia";"";"";"";"-0.8447016";"100.6505994";"https://maps.google.com/?cid=0x0:0xdbd97c888dc6591a";""
"mall";"Pusat Perbelanjaan";"Muhammad Rohid";"4JQ8+PVC, Jln. Sawah Batu, Gantuang Ciri, Kec. Kubung, Kabupaten Solok, Sumatera Barat 27361";"Jln. Sawah Batu, Gantuang Ciri, Kec. Kubung, Kabupaten Solok";"SUMATERA BARAT";"27361";"Indonesia";"";"";"";"-0.8606882";"100.6171343";"https://maps.google.com/?cid=0x0:0xdb9165ee31004b30";""
"mall";"Sekolah";"Tk Ta'al'da";"5JMV+W22, Selayo, Kec. Kubung, Kabupaten Solok, Sumatera Barat 27361";"Selayo, Kec. Kubung, Kabupaten Solok";"SUMATERA BARAT";"27361";"Indonesia";" 081267576716";"";"";"-0.8152497";"100.642504";"https://maps.google.com/?cid=0x0:0x2ce56031a977221";""
"mall";"Toko Pakaian";"Lapau Simel";"5M56+VF5, Koto Baru, Kec. Kubung, Kabupaten Solok, Sumatera Barat 27361";"Koto Baru, Kec. Kubung, Kabupaten Solok";"SUMATERA BARAT";"27361";"Indonesia";"";"";"";"-0.8410592";"100.6619773";"https://maps.google.com/?cid=0x0:0xda8e2fb82096fadc";""
"mall";"Kafe";"TEH TALUA HABIB";"Jl. Selayo - Padang, Koto Baru, Kec. Kubung, Kabupaten Solok, Sumatera Barat 27361";"Koto Baru, Kec. Kubung, Kabupaten Solok";"SUMATERA BARAT";"27361";"Indonesia";" 085278910710";"";"";"-0.8452581";"100.6482035";"https://maps.google.com/?cid=0x0:0x9e9628c1b6db5aae";""
"mall";"Pusat Perbelanjaan";"Kw4n cell";"5M72+4H8, Koto Baru, Kec. Kubung, Kabupaten Solok, Sumatera Barat 27361";"Koto Baru, Kec. Kubung, Kabupaten Solok";"SUMATERA BARAT";"27361";"Indonesia";" 085364131149";"";"";"-0.8372194";"100.6514559";"https://maps.google.com/?cid=0x0:0x18c81619771a3ad1";""
"mall";"Toko Pakaian";"Lapau Sidel/Dhiamart";"5J2C+FMV pakan Senayan lurah nan tigo, Selayo, Kec. Kubung, Kabupaten Solok, Sumatera Barat 27361";"Selayo, Kec. Kubung, Kabupaten Solok";"SUMATERA BARAT";"27361";"Indonesia";" 082280040819";"";"";"-0.8487716";"100.6216622";"https://maps.google.com/?cid=0x0:0x1f089788d284e2b8";""
"mall";"Pusat Perbelanjaan";"Lapau Enti (Copyright Frenki)";"Jl. Sawah Luka, Koto Baru, Kec. Kubung, Kabupaten Solok, Sumatera Barat 27361";"Koto Baru, Kec. Kubung, Kabupaten Solok";"SUMATERA BARAT";"27361";"Indonesia";"";"";"";"-0.8415383";"100.6637167";"https://maps.google.com/?cid=0x0:0x90be5d867e3a8cdd";""
"mall";"Pasar";"Selayo";"5JG5+596, Selayo, Kec. Kubung, Kabupaten Solok, Sumatera Barat";"Kabupaten Solok, Sumatera Barat";"SUMATERA BARAT";"";"Indonesia";"";"";"";"-0.8245886";"100.608395";"https://maps.google.com/?cid=0x0:0xea12401574ab4a44";""
"mall";"Galeri Seni";"Galeri Bunga Buk Yenti";"Jl. Singkarak Raya No.120, Koto Baru, Kec. Kubung, Kabupaten Solok, Sumatera Barat 27361";"Koto Baru, Kec. Kubung, Kabupaten Solok";"SUMATERA BARAT";"27361";"Indonesia";" 082382586444";"";"";"-0.8470097";"100.6439713";"https://maps.google.com/?cid=0x0:0xa89746d486111a0c";""
"mall";"Pusat Perbelanjaan";"Ropedacell  Ibranet Mpang Labong Salayo";"km 1salayo,, Jl. Raya Padang - Solok, Selayo, Kec. Kubung, Kabupaten Solok, Sumatera Barat 27315";"Jl. Raya Padang - Solok, Selayo, Kec. Kubung, Kabupaten Solok";"SUMATERA BARAT";"27315";"Indonesia";" 082390777270";"";"";"-0.8112728";"100.6516782";"https://maps.google.com/?cid=0x0:0x8292bb97e4db9988";""
"mall";"Toko Makanan";"SANJAI NAURA";"4MV2+X5X, Koto Baru, Kec. Kubung, Kabupaten Solok, Sumatera Barat 27361";"Koto Baru, Kec. Kubung, Kabupaten Solok";"SUMATERA BARAT";"27361";"Indonesia";"";"";"";"-0.8550125";"100.6504844";"https://maps.google.com/?cid=0x0:0x6e3397929c9bd93b";""
"mall";"Pusat Perbelanjaan";"NC PLAZA SOLOK";"Jl. Jend. Sudirman No.5, Kp. Jawa, Kec. Tj. Harapan, Kota Solok, Sumatera Barat 27317";"Kp. Jawa, Kec. Tj. Harapan, Kota Solok";"SUMATERA BARAT";"27317";"Indonesia";" 081265952266";"";"";"-0.7891057";"100.6549286";"https://maps.google.com/?cid=0x0:0x90d88e9da5ea81cc";""
"mall";"Pusat Perbelanjaan";"Dapur H.A";"5MG4+J7H, Jl. Selayo - Padang, Koto Baru, Kec. Kubung, Kabupaten Solok, Sumatera Barat 27361";"Jl. Selayo - Padang, Koto Baru, Kec. Kubung, Kabupaten Solok";"SUMATERA BARAT";"27361";"Indonesia";" 081363819078";"";"";"-0.8234366";"100.6557325";"https://maps.google.com/?cid=0x0:0x49b34dd8f5455b64";""
"mall";"Toko";"Nurul Cell";"Panyakalan, Kec. Kubung, Kabupaten Solok, Sumatera Barat 27361";"Kec. Kubung, Kabupaten Solok";"SUMATERA BARAT";"27361";"Indonesia";" 08126758848";"";"";"-0.8251464";"100.6925619";"https://maps.google.com/?cid=0x0:0x9be424ec89b37f69";""
"mall";"Masjid";"Pasar ujung ladang";"6HPJ+3P4, Tj. Bingkung, Kec. Kubung, Kabupaten Solok, Sumatera Barat 27312";"Tj. Bingkung, Kec. Kubung, Kabupaten Solok";"SUMATERA BARAT";"27312";"Indonesia";"";"";"";"-0.7648588";"100.5818171";"https://maps.google.com/?cid=0x0:0xa5f0c027fc0efa92";""
"mall";"Pusat Perbelanjaan";"Rumah paket cell";"5MQ2+XWF, Selayo, Kec. Kubung, Kabupaten Solok, Sumatera Barat 27315";"Selayo, Kec. Kubung, Kabupaten Solok";"SUMATERA BARAT";"27315";"Indonesia";" 082288922763";"";"";"-0.8100703";"100.6523048";"https://maps.google.com/?cid=0x0:0xdab099fe8cfe28ed";""
"mall";"Toko Aksesori Ponsel";"MM Pulsa";"5MG4+G5P, Jl. Selayo - Padang, Koto Baru, Kec. Kubung, Kabupaten Solok, Sumatera Barat 27361";"Jl. Selayo - Padang, Koto Baru, Kec. Kubung, Kabupaten Solok";"SUMATERA BARAT";"27361";"Indonesia";" 082387332001";"";"";"-0.823652";"100.655449";"https://maps.google.com/?cid=0x0:0xea117a176a28fa24";""
"mall";"Toko Boneka";"Toko boneka";"Jl. Raya Padang - Solok No.km, RW.5, Koto Baru, Kec. Kubung, Kabupaten Solok, Sumatera Barat 27361";"RW.5, Koto Baru, Kec. Kubung, Kabupaten Solok";"SUMATERA BARAT";"27361";"Indonesia";"";"";"";"-0.8262676";"100.6544327";"https://maps.google.com/?cid=0x0:0x1039a02362a9b0ab";""
"mall";"Toko";"Comel Shop";"5MRG+6HQ, Jl. Raya Panyakalan, Panyakalan, Kec. Kubung, Kabupaten Solok, Sumatera Barat 27316";"Jl. Raya Panyakalan, Panyakalan, Kec. Kubung, Kabupaten Solok";"SUMATERA BARAT";"27316";"Indonesia";" 082391305341";"";"";"-0.8094155";"100.6764888";"https://maps.google.com/?cid=0x0:0xeb6448315de014ca";""
"mall";"Toko";"Kelapa Masak  Muda Yuli";"5M6J+WJG, Jl. Solok - Muara Panas, Panyakalan, Kec. Kubung, Kabupaten Solok, Sumatera Barat 27361";"Jl. Solok - Muara Panas, Panyakalan, Kec. Kubung, Kabupaten Solok";"SUMATERA BARAT";"27361";"Indonesia";" 081267843383";"";"";"-0.8376911";"100.6815775";"https://maps.google.com/?cid=0x0:0x347ff625788b7fe2";""
"mall";"Pusat Perbelanjaan";"Toko PD Rafani";"5MQ2+XWF, Selayo, Kec. Kubung, Kabupaten Solok, Sumatera Barat 27315";"Selayo, Kec. Kubung, Kabupaten Solok";"SUMATERA BARAT";"27315";"Indonesia";"";"";"";"-0.8100488";"100.6523123";"https://maps.google.com/?cid=0x0:0xa15e803f27438ea5";""
"mall";"Toko Pakaian";"Lapau Uni Yel";"5M56+JFH, Jl. Sawah Luka, Koto Baru, Kec. Kubung, Kabupaten Solok, Sumatera Barat 27361";"Jl. Sawah Luka, Koto Baru, Kec. Kubung, Kabupaten Solok";"SUMATERA BARAT";"27361";"Indonesia";"";"";"";"-0.8409409";"100.661229";"https://maps.google.com/?cid=0x0:0x6c251dfda02a941a";""
"mall";"mall";"Sumatera Barat 27388";"Kec. IX Koto Sungai Lasi, Kabupaten Solok, Sumatera Barat";"Kabupaten Solok, Sumatera Barat";"SUMATERA BARAT";"";"Indonesia";"";"";"";"-0.796184";"100.7323332";"https://maps.google.com/?cid=0x0:0x9cdaa9ce1d3ef265";""
"mall";"";"Nino Cell";"6M3F+CF9, Jl. Telaga Biruhun Jl. Gg. Suhada, Simpang Rumbio, Kec. Lubuk Sikarah, Kota Solok, Sumatera Barat 27316";"Jl. Telaga Biruhun Jl. Gg. Suhada, Simpang Rumbio, Kec. Lubuk Sikarah, Kota Solok";"SUMATERA BARAT";"27316";"Indonesia";"";"";"";"-0.796462";"100.673719";"https://maps.google.com/?cid=0x0:0x53b722b6f2a275ba";""
"mall";"Toko Makanan";"Toko Sanjai Bungo Palo";"jln lintas sumatra No.km 11, Sungai Jambur, Kec. IX Koto Sungai Lasi, Kabupaten Solok, Sumatera Barat 27388";"Sungai Jambur, Kec. IX Koto Sungai Lasi, Kabupaten Solok";"SUMATERA BARAT";"27388";"Indonesia";" 085212309299";"";"";"-0.7736693";"100.7123807";"https://maps.google.com/?cid=0x0:0xff0966d1c8fb458b";""
"mall";"Toko";"Sanjai sasuai solok";"6MMM+MC7, Saok Laweh, Kec. Kubung, Kabupaten Solok, Sumatera Barat 27324";"Saok Laweh, Kec. Kubung, Kabupaten Solok";"SUMATERA BARAT";"27324";"Indonesia";"";"";"";"-0.7658029";"100.6840435";"https://maps.google.com/?cid=0x0:0x281b0be1ff9498a6";""
"mall";"Toko Swalayan";"SANJAI ZIVANES";"6PM4+254, Guguak Sarai, Kec. IX Koto Sungai Lasi, Kabupaten Solok, Sumatera Barat 27388";"Guguak Sarai, Kec. IX Koto Sungai Lasi, Kabupaten Solok";"SUMATERA BARAT";"27388";"Indonesia";"";"";"";"-0.7674755";"100.705442";"https://maps.google.com/?cid=0x0:0x8c2b750862d39805";""
"mall";"Pusat Perbelanjaan";"Halal Mart stock center";"6PGM+7RF, Pianggu, Kec. IX Koto Sungai Lasi, Kabupaten Solok, Sumatera Barat 27388";"Pianggu, Kec. IX Koto Sungai Lasi, Kabupaten Solok";"SUMATERA BARAT";"27388";"Indonesia";" 081363816248";"";"";"-0.774315";"100.73455";"https://maps.google.com/?cid=0x0:0x360fc629466c1c37";""
"mall";"Toko";"Dist. Djavu Dua";"6M7G+HCP, Saok Laweh, Kec. Kubung, Kabupaten Solok, Sumatera Barat 27317";"Saok Laweh, Kec. Kubung, Kabupaten Solok";"SUMATERA BARAT";"27317";"Indonesia";" 081378308315";"";"";"-0.7860316";"100.676084";"https://maps.google.com/?cid=0x0:0x1203c72f63f17762";""
"mall";"Toko bahan makanan";"Halal Mart Simpang Rumbio";"5MX8+FQ8, Simpang Rumbio, Kec. Lubuk Sikarah, Kota Solok, Sumatera Barat 27316";"Simpang Rumbio, Kec. Lubuk Sikarah, Kota Solok";"SUMATERA BARAT";"27316";"Indonesia";" 081266705335";"";"";"-0.8013317";"100.6669467";"https://maps.google.com/?cid=0x0:0x9dcb70f50ce28378";""
"mall";"Toko Ponsel";"JAYA MP TRONIK, CELL  BABY SHOP";"5MV3+7JJ, Kampai Tabu Karambia, Kec. Lubuk Sikarah, Kabupaten Solok, Sumatera Barat 27315";"Kampai Tabu Karambia, Kec. Lubuk Sikarah, Kabupaten Solok";"SUMATERA BARAT";"27315";"Indonesia";" 0755325117";"";"";"-0.8067805";"100.6540132";"https://maps.google.com/?cid=0x0:0x424457ef69bf963f";""
"mall";"Bank";"Kantor Camat Junjung Sirih";"8GFR+9RR, Paninggahan, Kec. Junjung Sirih, Kabupaten Solok, Sumatera Barat 27388";"Paninggahan, Kec. Junjung Sirih, Kabupaten Solok";"SUMATERA BARAT";"27388";"Indonesia";"";"";"";"-0.6765071";"100.5420269";"https://maps.google.com/?cid=0x0:0x16b0a3c097490d46";""
"mall";"Toko Pakaian";"MIRA SONGKET";"6PG7+WQF, Sungai Jambur, Kec. IX Koto Sungai Lasi, Kabupaten Solok, Sumatera Barat 27388";"Sungai Jambur, Kec. IX Koto Sungai Lasi, Kabupaten Solok";"SUMATERA BARAT";"27388";"Indonesia";" 082381123832";"";"";"-0.7726823";"100.7144338";"https://maps.google.com/?cid=0x0:0xc7f1fa2e86bc245";""
"mall";"Pasar";"Pasar Sungai Lasi";"Jl. Lintas Sumatera No.13, Pianggu, Kec. IX Koto Sungai Lasi, Kabupaten Solok, Sumatera Barat 27388";"Pianggu, Kec. IX Koto Sungai Lasi, Kabupaten Solok";"SUMATERA BARAT";"27388";"Indonesia";" 08127179820";"";"";"-0.7749531";"100.7320037";"https://maps.google.com/?cid=0x0:0xb4be080b12250376";""
"mall";"Toko Parfum";"bandoeng Refill Perfume PUSAT";"6M53+FJ4, Jl. Ir Soekarno, Vi Suku, Kec. Lubuk Sikarah, Kota Solok, Sumatera Barat 27317";"Jl. Ir Soekarno, Vi Suku, Kec. Lubuk Sikarah, Kota Solok";"SUMATERA BARAT";"27317";"Indonesia";" 081378604733";"";"";"-0.7913658";"100.6540711";"https://maps.google.com/?cid=0x0:0xc4ceba824cb65698";""
"mall";"Pusat Perbelanjaan";"Yogo";"6M67+CM5, Ps. Pandan Air Mati, Kec. Tj. Harapan, Kota Solok, Sumatera Barat 27317";"Ps. Pandan Air Mati, Kec. Tj. Harapan, Kota Solok";"SUMATERA BARAT";"27317";"Indonesia";" 085273302569";"";"";"-0.7889935";"100.6642295";"https://maps.google.com/?cid=0x0:0x154142ff6d984545";""
"mall";"Pusat Perbelanjaan";"plaza Nc Shop";"6M38+J9R, Jl. Nasir Sutan Pamuncak, Aro IV Korong, Kec. Lubuk Sikarah, Kota Solok, Sumatera Barat 27316";"Jl. Nasir Sutan Pamuncak, Aro IV Korong, Kec. Lubuk Sikarah, Kota Solok";"SUMATERA BARAT";"27316";"Indonesia";" 081363216718";"";"";"-0.7958776";"100.6658848";"https://maps.google.com/?cid=0x0:0x26ffd85a7756650";""
"mall";"";"FM Celluler";"Jl. Diponegoro No.22n, Vi Suku, Kec. Lubuk Sikarah, Kota Solok, Sumatera Barat 27317";"Vi Suku, Kec. Lubuk Sikarah, Kota Solok";"SUMATERA BARAT";"27317";"Indonesia";" 082388550556";"";"";"-0.7912815";"100.6531969";"https://maps.google.com/?cid=0x0:0x11f24b99454bcced";""
"mall";"Pusat Perbelanjaan";"Bukaklapau";"Jalan Zachlul Sutan Kabasaran Kel, Simpang Rumbio, Kec. Lubuk Sikarah, Kota Solok, Sumatera Barat 27316";"Simpang Rumbio, Kec. Lubuk Sikarah, Kota Solok";"SUMATERA BARAT";"27316";"Indonesia";"";"";"";"-0.7931621";"100.6739778";"https://maps.google.com/?cid=0x0:0x33a4b54a07e0d9f0";""
"mall";"Toko Perlengkapan Rumah";"PT.IRAMA ZAMAN SEJAHTERA";"6MPP+88F, Saok Laweh, Kec. Kubung, Kabupaten Solok, Sumatera Barat 27324";"Saok Laweh, Kec. Kubung, Kabupaten Solok";"SUMATERA BARAT";"27324";"Indonesia";" 075508679";"";"";"-0.7641972";"100.6857886";"https://maps.google.com/?cid=0x0:0xabbbdb6dd9700581";""
"mall";"Toko bahan makanan";"NC Mart dan Bakerindo Solok";"Jl. By Pass Ktk, Kampai Tabu Karambia, Kec. Lubuk Sikarah, Kota Solok, Sumatera Barat 27315";"Kampai Tabu Karambia, Kec. Lubuk Sikarah, Kota Solok";"SUMATERA BARAT";"27315";"Indonesia";" 08111198456";"";"";"-0.8035596";"100.6602935";"https://maps.google.com/?cid=0x0:0xeac34fbe708c63f5";""
"mall";"Pasar";"Pangkalan";"6M68+HHV, Jl. Prof. Dr. Moh. Yamin Sh, Ps. Pandan, Air Mati, Kec. Tj. Harapan, Kota Solok, Sumatera Barat 27317";"Jl. Prof. Dr. Moh. Yamin Sh, Ps. Pandan, Air Mati, Kec. Tj. Harapan, Kota Solok";"SUMATERA BARAT";"27317";"Indonesia";"";"";"";"-0.811675";"100.67946";"https://maps.google.com/?cid=0x0:0x283f211e7b95dce1";""
"mall";"Pusat Perbelanjaan";"Warung Dmkf";"8GMQ+4MR, pasar, Paninggahan, Kec. Junjung Sirih, Kabupaten Solok, Sumatera Barat 27388";"pasar, Paninggahan, Kec. Junjung Sirih, Kabupaten Solok";"SUMATERA BARAT";"27388";"Indonesia";" 082254260060";"";"";"-0.6671438";"100.5391358";"https://maps.google.com/?cid=0x0:0xf952048d9018c606";""
"mall";"Toko Perlengkapan Rumah";"Yaqin Souvenir";"7Q42+Q6M, Jl. Lintas Sumatera, Pianggu, Kec. IX Koto Sungai Lasi, Kabupaten Solok, Sumatera Barat 27388";"Jl. Lintas Sumatera, Pianggu, Kec. IX Koto Sungai Lasi, Kabupaten Solok";"SUMATERA BARAT";"27388";"Indonesia";" 081289645467";"";"";"-0.7430341";"100.7505537";"https://maps.google.com/?cid=0x0:0xf488adbedc6e6df6";""
"mall";"Toko Pakaian";"toko CANTIK COLACTION";"Jl. Pulai No.3-18, Simpang Rumbio, Kec. Lubuk Sikarah, Kota Solok, Sumatera Barat 27316";"Simpang Rumbio, Kec. Lubuk Sikarah, Kota Solok";"SUMATERA BARAT";"27316";"Indonesia";" 082285320910";"";"";"-0.8022127";"100.6689908";"https://maps.google.com/?cid=0x0:0x18b239744aaf83a3";""
"mall";"mall";"Toko Eliyanti";"8GHW+C3G, Tanah Lapang Jorong Gando, Paninggahan, Kec. Junjung Sirih, Kabupaten Solok, Sumatera Barat 27388";"Tanah Lapang Jorong Gando, Paninggahan, Kec. Junjung Sirih, Kabupaten Solok";"SUMATERA BARAT";"27388";"Indonesia";" 082383312383";"";"";"-0.6714445";"100.5451934";"https://maps.google.com/?cid=0x0:0x73b44b3e6c762fe3";""
"mall";"mall";"Kec. Pantai Cermin";"Kabupaten Solok, Sumatera Barat";"Kabupaten Solok, Sumatera Barat";"SUMATERA BARAT";"";"Indonesia";"";"";"";"-1.245774";"100.8795896";"https://maps.google.com/?cid=0x0:0x4039d80b220e1c0";""
"mall";"Pertanian";"Appel Pantai Cermin";"PVM5+WG2, Unnamed Road, Surian, Pantai Cermin, Solok Regency, West Sumatra 27373";"Unnamed Road, Surian, Pantai Cermin, Solok Regency";"SUMATERA BARAT";"27373";"Indonesia";"";"";"";"-1.265238";"100.8587733";"https://maps.google.com/?cid=0x0:0x21539d7bd3781a34";""
"mall";"Minimarket";"Pasar Surian";"PVXM+7X5, Surian, Kec. Pantai Cermin, Kabupaten Solok, Sumatera Barat 27373";"Surian, Kec. Pantai Cermin, Kabupaten Solok";"SUMATERA BARAT";"27373";"Indonesia";"";"";"";"-1.2527583";"100.8863525";"https://maps.google.com/?cid=0x0:0x3156dc8bfa2df563";""
"mall";"Pusat Perbelanjaan";"Kedai Rahma";"PVX9+3R7, Surian, Kec. Pantai Cermin, Kabupaten Solok, Sumatera Barat 27373";"Surian, Kec. Pantai Cermin, Kabupaten Solok";"SUMATERA BARAT";"27373";"Indonesia";"";"";"";"-1.2523414";"100.8695473";"https://maps.google.com/?cid=0x0:0xcc81cc9ed735e009";""
"mall";"Toko bahan makanan";"Husnul";"QV2G+H7C, Jl. Koto Tinggi, Surian, Kec. Pantai Cermin, Kabupaten Solok, Sumatera Barat 27373";"Jl. Koto Tinggi, Surian, Kec. Pantai Cermin, Kabupaten Solok";"SUMATERA BARAT";"27373";"Indonesia";"";"";"";"-1.2485707";"100.8756427";"https://maps.google.com/?cid=0x0:0x4c939344873b37e7";""
"mall";"Pusat Perbelanjaan";"atomy sumatera barat";"PVRG+HQV, Jl. Ladang Padi, Surian, Kec. Pantai Cermin, Kabupaten Solok, Sumatera Barat 27373";"Jl. Ladang Padi, Surian, Kec. Pantai Cermin, Kabupaten Solok";"SUMATERA BARAT";"27373";"Indonesia";" 082390337524";"";"";"-1.2585082";"100.8769112";"https://maps.google.com/?cid=0x0:0xa332d63076fae202";""
"mall";"Pusat Perbelanjaan";"Ayuk Olshop";"QRWX+QJ5, Jl. Padang - Surian, Lolo, Kec. Pantai Cermin, Kabupaten Solok, Sumatera Barat 27373";"Jl. Padang - Surian, Lolo, Kec. Pantai Cermin, Kabupaten Solok";"SUMATERA BARAT";"27373";"Indonesia";"";"";"";"-1.203102";"100.8490957";"https://maps.google.com/?cid=0x0:0xc9a9118ad9f9ae8b";""
"mall";"";"Davin Cell/Lolo";"QVW2+4F3, Jl. Pasa Lolo - Kampuang Kaciak, Lolo, Kec. Pantai Cermin, Kabupaten Solok, Sumatera Barat 27373";"Jl. Pasa Lolo - Kampuang Kaciak, Lolo, Kec. Pantai Cermin, Kabupaten Solok";"SUMATERA BARAT";"27373";"Indonesia";" 08127675566";"";"";"-1.2047421";"100.8511626";"https://maps.google.com/?cid=0x0:0x5fd76360272d7c5";""
"mall";"mall";"Sumatera Barat";"";"Sumatera Barat";"SUMATERA BARAT";"";"Indonesia";"";"";"";"-0.7399397";"100.8000051";"https://maps.google.com/?cid=0x0:0x70b151b975d53b55";""
"mall";"mall";"Sumatera Utara 20987";"Kabupaten Serdang Bedagai, Sumatera Utara";"Kabupaten Serdang Bedagai, Sumatera Utara";"SUMATERA BARAT";"";"Indonesia";"";"";"";"3.6277947";"98.9576571";"https://maps.google.com/?cid=0x0:0x5ace0891de283dc0";""
"mall";"Toko bahan makanan";"Dwi Water";"J26C+QWH, Pematang Kasih, Kec. Pantai Cermin, Kabupaten Serdang Bedagai, Sumatera Utara 20987";"Pematang Kasih, Kec. Pantai Cermin, Kabupaten Serdang Bedagai";"SUMATERA BARAT";"20987";"Indonesia";" 082261262060";"";"";"3.6119436";"99.022356";"https://maps.google.com/?cid=0x0:0x4ffaadd2c7a87234";""
"mall";"Hotel";"Pantai Cermin Theme Park  Resort Hotel";"Dusun 1, Desa Pantai Cermin Kanam, Pantai Cermin, Pantai Cermin Kanan, Kec. Pantai Cermin, Kabupaten Serdang Bedagai, Sumatera Utara 20152";"Desa Pantai Cermin Kanam, Pantai Cermin, Pantai Cermin Kanan, Kec. Pantai Cermin, Kabupaten Serdang Bedagai";"SUMATERA BARAT";"20152";"Indonesia";" 0614550975";"";"";"3.650949";"98.9893152";"https://maps.google.com/?cid=0x0:0xf6de2d5b87e0f869";""
"mall";"Pusat Perbelanjaan";"Channel Wak Leman";"J2J2+P4F, Kuala Lama, Kec. Pantai Cermin, Kabupaten Serdang Bedagai, Sumatera Utara";"Kabupaten Serdang Bedagai, Sumatera Utara";"SUMATERA BARAT";"";"Indonesia";"";"";"";"3.6318167";"99.0003067";"https://maps.google.com/?cid=0x0:0x3be49f55f4ea6f71";""
"mall";"Kantor Perusahaan";"Las kadon";"JXJF+F46, Besar 2 Terjun, Kec. Pantai Cermin, Kabupaten Serdang Bedagai, Sumatera Utara 20987";"Besar 2 Terjun, Kec. Pantai Cermin, Kabupaten Serdang Bedagai";"SUMATERA BARAT";"20987";"Indonesia";" 085207038892";"";"";"3.6311712";"98.972781";"https://maps.google.com/?cid=0x0:0x53bff034f63ce03c";""
"mall";"Pasar";"Pajak Pantai Cermin";"JXVJ+49G, Jl. Mayjen H. T. Rizal Nurdin, Pantai Cermin Kanan, Kec. Pantai Cermin, Kabupaten Serdang Bedagai, Sumatera Utara 20987";"Jl. Mayjen H. T. Rizal Nurdin, Pantai Cermin Kanan, Kec. Pantai Cermin, Kabupaten Serdang Bedagai";"SUMATERA BARAT";"20987";"Indonesia";"";"";"";"3.6428062";"98.9809678";"https://maps.google.com/?cid=0x0:0x283604bed0b13f7a";""
"mall";"Restoran";"Taufik Kerang";"J2FG+3C8, Kuala Lama, Kec. Pantai Cermin, Kabupaten Serdang Bedagai, Sumatera Utara 20987";"Kuala Lama, Kec. Pantai Cermin, Kabupaten Serdang Bedagai";"SUMATERA BARAT";"20987";"Indonesia";"";"";"";"3.6226521";"99.0260756";"https://maps.google.com/?cid=0x0:0x267193cb1ba2449d";""
"mall";"Pusat Perbelanjaan";"Jumpa Tengah Ponsel";"JXRJ+55F, Jl. Perjuangan, Pantai Cermin Kiri, Kec. Pantai Cermin, Kabupaten Serdang Bedagai, Sumatera Utara 20987";"Jl. Perjuangan, Pantai Cermin Kiri, Kec. Pantai Cermin, Kabupaten Serdang Bedagai";"SUMATERA BARAT";"20987";"Indonesia";"";"";"";"3.6404385";"98.9804191";"https://maps.google.com/?cid=0x0:0xd8e96de3f66e01a3";""
"mall";"Pusat Perbelanjaan";"Alinsyah Ponsel P. Cermin";"JXRC+5QG, Kota Pari, Kec. Pantai Cermin, Kabupaten Serdang Bedagai, Sumatera Utara";"Kabupaten Serdang Bedagai, Sumatera Utara";"SUMATERA BARAT";"";"Indonesia";" 087744746912";"";"";"3.6404371";"98.971947";"https://maps.google.com/?cid=0x0:0x7ba3b2acd3a94bcc";""
"mall";"Toko Ponsel";"HRD PONSEL";"H3FF+39X, Jl. Besar Pantai Kelang, Sei Naga Lawan, Kec. Perbaungan, Kabupaten Serdang Bedagai, Sumatera Utara 20987";"Jl. Besar Pantai Kelang, Sei Naga Lawan, Kec. Perbaungan, Kabupaten Serdang Bedagai";"SUMATERA BARAT";"20987";"Indonesia";" 081375104007";"";"";"3.5727345";"99.0734813";"https://maps.google.com/?cid=0x0:0xa2f6e6c0babe67bc";""
"mall";"Pusat Perbelanjaan";"WARUNG LASMINI";"J29Q+PH7, Unnamed Road, Lubuk Saban, Kec. Pantai Cermin, Kabupaten Serdang Bedagai, Sumatera Utara 20987";"Unnamed Road, Lubuk Saban, Kec. Pantai Cermin, Kabupaten Serdang Bedagai";"SUMATERA BARAT";"20987";"Indonesia";"";"";"";"3.6192781";"99.0389364";"https://maps.google.com/?cid=0x0:0x6f59528b57a96d6";""
"mall";"Pusat Perbelanjaan";"RIZA HENNA HANTARAN PENGANTIN";"JXQR+4X8, Gg. Hkbp, Pantai Cermin Kiri, Kec. Pantai Cermin, Kabupaten Serdang Bedagai, Sumatera Utara 20987";"Gg. Hkbp, Pantai Cermin Kiri, Kec. Pantai Cermin, Kabupaten Serdang Bedagai";"SUMATERA BARAT";"20987";"Indonesia";" 082277040255";"";"";"3.6377364";"98.9924252";"https://maps.google.com/?cid=0x0:0xbe7e61c3b73a6f80";""
"mall";"Toko";"TOKO MAKMUR JAYA";"JXV9+J7V, Jl. Pantai Gudang Garam, Kota Pari, Kec. Pantai Cermin, Kabupaten Serdang Bedagai, Sumatera Utara 20987";"Jl. Pantai Gudang Garam, Kota Pari, Kec. Pantai Cermin, Kabupaten Serdang Bedagai";"SUMATERA BARAT";"20987";"Indonesia";" 085370266666";"";"";"3.6441111";"98.9681818";"https://maps.google.com/?cid=0x0:0xcf063351d82c1434";""
"mall";"Pusat Perbelanjaan";"Alinsyah Ponsel";"J2H5+JXX, Kuala Lama, Kec. Pantai Cermin, Kabupaten Serdang Bedagai, Sumatera Utara";"Kabupaten Serdang Bedagai, Sumatera Utara";"SUMATERA BARAT";"";"Indonesia";"";"";"";"3.6291039";"99.009983";"https://maps.google.com/?cid=0x0:0x2ddc5079738dcd6c";""
"mall";"Pusat Perbelanjaan";"Wedai bang adek";"J2M5+FFH, Unnamed Road, Kuala Lama, Kec. Pantai Cermin, Kabupaten Serdang Bedagai, Sumatera Utara";"Kabupaten Serdang Bedagai, Sumatera Utara";"SUMATERA BARAT";"";"Indonesia";"";"";"";"3.6336969";"99.0087235";"https://maps.google.com/?cid=0x0:0x594bbd993834ffbd";""
"mall";"Toko Bahan Bangunan";"TB.BANGUN JAYA";"J2H9+G5G, Kuala Lama, Kec. Pantai Cermin, Kabupaten Serdang Bedagai, Sumatera Utara";"Kabupaten Serdang Bedagai, Sumatera Utara";"SUMATERA BARAT";"";"Indonesia";"";"";"";"3.6288155";"99.0179381";"https://maps.google.com/?cid=0x0:0x38c50a9c121fff2d";""
"mall";"Toko";"Canduy";"H2GR+RHX, Unnamed Road, Kesatuan, Kec. Perbaungan, Kabupaten Serdang Bedagai, Sumatera Utara 20987";"Unnamed Road, Kesatuan, Kec. Perbaungan, Kabupaten Serdang Bedagai";"SUMATERA BARAT";"20987";"Indonesia";" 085343893727";"";"";"3.5771235";"99.0414875";"https://maps.google.com/?cid=0x0:0xb7d566e63e1c6ecd";""
"mall";"Kios";"UD BAROKAH D1";"JXJC+7R6, Besar 2 Terjun, Kec. Pantai Cermin, Kabupaten Serdang Bedagai, Sumatera Utara 20987";"Besar 2 Terjun, Kec. Pantai Cermin, Kabupaten Serdang Bedagai";"SUMATERA BARAT";"20987";"Indonesia";"";"";"";"3.6306663";"98.9720146";"https://maps.google.com/?cid=0x0:0xdbb2ddbe7a29a019";""
"mall";"Pasar";"Toko.igaiga(mega)";"H387+2M8, Jl. Besar Pantai Kelang, Lubuk Bayas, Kec. Perbaungan, Kabupaten Serdang Bedagai, Sumatera Utara 20987";"Jl. Besar Pantai Kelang, Lubuk Bayas, Kec. Perbaungan, Kabupaten Serdang Bedagai";"SUMATERA BARAT";"20987";"Indonesia";"";"";"";"3.565049";"99.064199";"https://maps.google.com/?cid=0x0:0xcbb114f76e0be7c6";""
"mall";"Toko Ponsel";"Kios IPOY PONSEL";"HXC2+MGG, Jl. Pantai Cermin, Simpang Tiga Pekan, Kec. Perbaungan, Kabupaten Serdang Bedagai, Sumatera Utara 20986";"Jl. Pantai Cermin, Simpang Tiga Pekan, Kec. Perbaungan, Kabupaten Serdang Bedagai";"SUMATERA BARAT";"20986";"Indonesia";" 081362624450";"";"";"3.5716776";"98.9513233";"https://maps.google.com/?cid=0x0:0x720fb410ccf637aa";""
"mall";"mall";"Sumatera Barat 27373";"Surian, Kec. Pantai Cermin, Kabupaten Solok, Sumatera Barat";"Kabupaten Solok, Sumatera Barat";"SUMATERA BARAT";"";"Indonesia";"";"";"";"-1.2470801";"100.8677256";"https://maps.google.com/?cid=0x0:0xe2eefca03053855";""
"mall";"Pertanian";"Appel Pantai Cermin";"PVM5+WG2, Unnamed Road, Surian, Pantai Cermin, Solok Regency, West Sumatra 27373";"Unnamed Road, Surian, Pantai Cermin, Solok Regency";"SUMATERA BARAT";"27373";"Indonesia";"";"";"";"-1.265238";"100.8587733";"https://maps.google.com/?cid=0x0:0x21539d7bd3781a34";""
"mall";"mall";"Kec. Pantai Cermin";"Kabupaten Solok, Sumatera Barat";"Kabupaten Solok, Sumatera Barat";"SUMATERA BARAT";"";"Indonesia";"";"";"";"-1.245774";"100.8795896";"https://maps.google.com/?cid=0x0:0x4039d80b220e1c0";""
"mall";"Toko";"kedai";"QVP5+PF7, Lolo, Kec. Pantai Cermin, Kabupaten Solok, Sumatera Barat 27373";"Lolo, Kec. Pantai Cermin, Kabupaten Solok";"SUMATERA BARAT";"27373";"Indonesia";"";"";"";"-1.2134265";"100.8581956";"https://maps.google.com/?cid=0x0:0xe7cbc64bd01cff07";""
"mall";"Pusat Perbelanjaan";"Kedai Rahma";"PVX9+3R7, Surian, Kec. Pantai Cermin, Kabupaten Solok, Sumatera Barat 27373";"Surian, Kec. Pantai Cermin, Kabupaten Solok";"SUMATERA BARAT";"27373";"Indonesia";"";"";"";"-1.2523414";"100.8695473";"https://maps.google.com/?cid=0x0:0xcc81cc9ed735e009";""
"mall";"Toko bahan makanan";"Husnul";"QV2G+H7C, Jl. Koto Tinggi, Surian, Kec. Pantai Cermin, Kabupaten Solok, Sumatera Barat 27373";"Jl. Koto Tinggi, Surian, Kec. Pantai Cermin, Kabupaten Solok";"SUMATERA BARAT";"27373";"Indonesia";"";"";"";"-1.2485707";"100.8756427";"https://maps.google.com/?cid=0x0:0x4c939344873b37e7";""
"mall";"Pusat Perbelanjaan";"atomy sumatera barat";"PVRG+HQV, Jl. Ladang Padi, Surian, Kec. Pantai Cermin, Kabupaten Solok, Sumatera Barat 27373";"Jl. Ladang Padi, Surian, Kec. Pantai Cermin, Kabupaten Solok";"SUMATERA BARAT";"27373";"Indonesia";" 082390337524";"";"";"-1.2585082";"100.8769112";"https://maps.google.com/?cid=0x0:0xa332d63076fae202";""
"mall";"Pusat Perbelanjaan";"Ayuk Olshop";"QRWX+QJ5, Jl. Padang - Surian, Lolo, Kec. Pantai Cermin, Kabupaten Solok, Sumatera Barat 27373";"Jl. Padang - Surian, Lolo, Kec. Pantai Cermin, Kabupaten Solok";"SUMATERA BARAT";"27373";"Indonesia";"";"";"";"-1.203102";"100.8490957";"https://maps.google.com/?cid=0x0:0xc9a9118ad9f9ae8b";""
"mall";"";"Davin Cell/Lolo";"QVW2+4F3, Jl. Pasa Lolo - Kampuang Kaciak, Lolo, Kec. Pantai Cermin, Kabupaten Solok, Sumatera Barat 27373";"Jl. Pasa Lolo - Kampuang Kaciak, Lolo, Kec. Pantai Cermin, Kabupaten Solok";"SUMATERA BARAT";"27373";"Indonesia";" 08127675566";"";"";"-1.2047421";"100.8511626";"https://maps.google.com/?cid=0x0:0x5fd76360272d7c5";""
"mall";"Toko";"Hamka Bird Shop";"PVX8+VC5, Surian, Kec. Pantai Cermin, Kabupaten Solok, Sumatera Barat 27373";"Surian, Kec. Pantai Cermin, Kabupaten Solok";"SUMATERA BARAT";"27373";"Indonesia";" 081311107722";"";"";"-1.2503577";"100.8661209";"https://maps.google.com/?cid=0x0:0x989bf5ddf11dfe4d";""
"mall";"mall";"Sumatera Barat 27387";"Kec. Payung Sekaki, Kabupaten Solok, Sumatera Barat";"Kabupaten Solok, Sumatera Barat";"SUMATERA BARAT";"";"Indonesia";"";"";"";"-0.8332376";"100.8677256";"https://maps.google.com/?cid=0x0:0x3ef15c6270984b26";""
"mall";"Toko umum";"Pasar Sirukam";"4Q54+VF9, Sirukam, Kec. Payung Sekaki, Kabupaten Solok, Sumatera Barat 27387";"Sirukam, Kec. Payung Sekaki, Kabupaten Solok";"SUMATERA BARAT";"27387";"Indonesia";"";"";"";"-0.8903367";"100.7562264";"https://maps.google.com/?cid=0x0:0xf2ba1283c2c4dd6f";""
"mall";"Pusat Perbelanjaan";"Mal Pekanbaru";"Jl. Jend. Sudirman No.123, Kota Tinggi, Kec. Pekanbaru Kota, Kota Pekanbaru, Riau 28112";"Kota Tinggi, Kec. Pekanbaru Kota, Kota Pekanbaru";"SUMATERA BARAT";"28112";"Indonesia";" 0761850122";"";"";"0.5319514";"101.4479579";"https://maps.google.com/?cid=0x0:0xf41bf35bbb0463a";""
"mall";"Pusat Perbelanjaan";"Mal SKA";"Jl. Soekarno - Hatta No.114, Delima, Kec. Tampan, Kota Pekanbaru, Riau 28292";"Delima, Kec. Tampan, Kota Pekanbaru";"SUMATERA BARAT";"28292";"Indonesia";" 0761864000";"";"";"0.4989779";"101.419025";"https://maps.google.com/?cid=0x0:0xcb644449e8a62d2";""
"mall";"Toko";"Warung Tek Upik";"4Q54+JW7, Sirukam, Kec. Payung Sekaki, Kabupaten Solok, Sumatera Barat 27387";"Sirukam, Kec. Payung Sekaki, Kabupaten Solok";"SUMATERA BARAT";"27387";"Indonesia";"";"";"";"-0.8909594";"100.7572872";"https://maps.google.com/?cid=0x0:0x725199f64c054253";""
"mall";"Kedai Pernak-pernik";"Pekanbaru Shopping Mall 2";"Baringin, Kec. Lima Kaum, Kabupaten Tanah Datar, Sumatera Barat";"Kabupaten Tanah Datar, Sumatera Barat";"SUMATERA BARAT";"";"Indonesia";" 082169650178";"";"";"-0.4538557";"100.5950425";"https://maps.google.com/?cid=0x0:0x2f6896bb47b0d8e5";""
"mall";"Toko";"Toko wandi";"Jl.Sirukam No.1000, Kinari, Bukit Sundi, Solok Regency, West Sumatra 27387";"Kinari, Bukit Sundi, Solok Regency";"SUMATERA BARAT";"27387";"Indonesia";"";"";"";"-0.8911364";"100.7552146";"https://maps.google.com/?cid=0x0:0xa684f19d1237472a";""
"mall";"Pusat Perbelanjaan";"RM2 Cell Bendang";"Batu Banyak, Kec. Lembang Jaya, Kabupaten Solok, Sumatera Barat 27383";"Kec. Lembang Jaya, Kabupaten Solok";"SUMATERA BARAT";"27383";"Indonesia";"";"";"";"-0.9450735";"100.7280102";"https://maps.google.com/?cid=0x0:0xb1d3c8468efc9bd";""
"mall";"Pusat Perbelanjaan";"Lapau Duo Pulsa";"2P7J+F49, Kp. Batu Dalam, Kec. Danau Kembar, Kabupaten Solok, Sumatera Barat 27383";"Kp. Batu Dalam, Kec. Danau Kembar, Kabupaten Solok";"SUMATERA BARAT";"27383";"Indonesia";"";"";"";"-0.9863484";"100.7303475";"https://maps.google.com/?cid=0x0:0x49e00db1eab0cde0";""
"mall";"Toko";"Nayla Cell";"Sungai Nanam, Kec. Lembah Gumanti, Kabupaten Solok, Sumatera Barat 27371";"Kec. Lembah Gumanti, Kabupaten Solok";"SUMATERA BARAT";"27371";"Indonesia";" 085213958446";"";"";"-0.9951702";"100.7778699";"https://maps.google.com/?cid=0x0:0xd4737b7377528b9a";""
"mall";"Pusat Perbelanjaan";"Living World Pekanbaru";"Jl. Soekarno-Hatta, Tengkerang Bar., Kec. Marpoyan Damai, Kota Pekanbaru, Riau 28292";"Tengkerang Bar., Kec. Marpoyan Damai, Kota Pekanbaru";"SUMATERA BARAT";"28292";"Indonesia";" 07616706100";"";"";"0.5003166";"101.4201513";"https://maps.google.com/?cid=0x0:0x4179ccd027f2df4e";""
"mall";"Grosir";"Toko indah Dan aquarium center";"XQHG+6RG, Jl. Limau Puruik, Sungai Nanam, Kec. Lembah Gumanti, Kabupaten Solok, Sumatera Barat 27371";"Jl. Limau Puruik, Sungai Nanam, Kec. Lembah Gumanti, Kabupaten Solok";"SUMATERA BARAT";"27371";"Indonesia";" 08372009006";"";"";"-1.0219368";"100.7770649";"https://maps.google.com/?cid=0x0:0x3b5e3ac575f4d163";""
"mall";"Pembangunan Perumahan";"faidh mart rimbo data";"2Q4H+368, Sungai Nanam, Kec. Lembah Gumanti, Kabupaten Solok, Sumatera Barat 27371";"Sungai Nanam, Kec. Lembah Gumanti, Kabupaten Solok";"SUMATERA BARAT";"27371";"Indonesia";" 087895742219";"";"";"-0.994828";"100.77808";"https://maps.google.com/?cid=0x0:0xb02511f03dcc90df";""
"mall";"Toko Elektronik";"Balai Lasa Limau Puruik";"XQFF+5P6, Sungai Nanam, Kec. Lembah Gumanti, Kabupaten Solok, Sumatera Barat 27371";"Sungai Nanam, Kec. Lembah Gumanti, Kabupaten Solok";"SUMATERA BARAT";"27371";"Indonesia";" 087726614414";"";"";"-1.0270882";"100.7742576";"https://maps.google.com/?cid=0x0:0x712b7e7e97ff824";""
"mall";"Toko";"Toko Grosir pak Dam Simanau";"3VJ4+XH7, Jalan Lurah dama, Simanau, Tigo Lurah Bajanjang, Kabupaten Solok, Sumatera Barat";"Kabupaten Solok, Sumatera Barat";"SUMATERA BARAT";"";"Indonesia";"";"";"";"-0.9175783";"100.8564355";"https://maps.google.com/?cid=0x0:0xb4643ff8aa31bbe5";""
"mall";"mall";"Aulia Nur Rahmah";"Unnamed Road, Sirukam, Kec. Payung Sekaki, Kabupaten Solok, Sumatera Barat 27387";"Sirukam, Kec. Payung Sekaki, Kabupaten Solok";"SUMATERA BARAT";"27387";"Indonesia";"";"";"";"-0.8658725";"100.7701825";"https://maps.google.com/?cid=0x0:0x15b3e68e70824e2c";""
"mall";"Sekolah menengah";"SMA Negeri 1 Payung Sekaki";"Sirukam, Jl. Solok - Alahan Panjang No.Km. 18, Kubang Nan Duo, Kec. Payung Sekaki, Kabupaten Solok, Sumatera Barat 27387";"Jl. Solok - Alahan Panjang No.Km. 18, Kubang Nan Duo, Kec. Payung Sekaki, Kabupaten Solok";"SUMATERA BARAT";"27387";"Indonesia";" 08126738394";"";"";"-0.890483";"100.7410415";"https://maps.google.com/?cid=0x0:0xf06b0d2179fef5b4";""
"mall";"mall";"Aurelll Shop Solok";"6M66+MHJ Dibelakang saudara motor, Jl. Cindua Mato, Ps. Pandan Air Mati, Pandan, Kota Solok, Sumatera Barat 27317";"Jl. Cindua Mato, Ps. Pandan Air Mati, Pandan, Kota Solok";"SUMATERA BARAT";"27317";"Indonesia";" 082268300028";"";"";"-0.7882888";"100.6614026";"https://maps.google.com/?cid=0x0:0xdb1ef1da470c15ff";""
"mall";"mall";"Kec. Payung Sekaki";"Kota Pekanbaru, Riau";"Kota Pekanbaru, Riau";"SUMATERA BARAT";"";"Indonesia";"";"";"";"0.5170403";"101.3991634";"https://maps.google.com/?cid=0x0:0xb29d0aa452748801";""
"mall";"Pusat Perbelanjaan";"Mal Ciputra Seraya";"Jl. Riau No.58, Kp. Baru, Kec. Senapelan, Kota Pekanbaru, Riau 28154";"Kp. Baru, Kec. Senapelan, Kota Pekanbaru";"SUMATERA BARAT";"28154";"Indonesia";" 0761868888";"";"";"0.5359841";"101.4306163";"https://maps.google.com/?cid=0x0:0xbdfa90dde03f63ed";""
"mall";"Mesin Jual Otomatis Produk Kecantikan";"NuAmoorea Pekanbaru Payung Sekaki";"GCCF+3P8, Labuh Baru Tim., Kec. Payung Sekaki, Kota Pekanbaru, Riau";"Kota Pekanbaru, Riau";"SUMATERA BARAT";"";"Indonesia";" 081371110248";"";"";"0.5201512";"101.4243188";"https://maps.google.com/?cid=0x0:0x105fba29058f1a86";""
"mall";"Pasar tradisional";"Pasar Pagi Pemuda";"Tampan, Kec. Payung Sekaki, Kota Pekanbaru, Riau";"Kota Pekanbaru, Riau";"SUMATERA BARAT";"";"Indonesia";"";"";"";"0.5408929";"101.41371";"https://maps.google.com/?cid=0x0:0x45b57c9a5e0b5e4";""
"mall";"Toko";"Akhdan Store Pku";"Jl. Perwira No.44, Labuh Baru Tim., Kec. Payung Sekaki, Kota Pekanbaru, Riau 28291";"Labuh Baru Tim., Kec. Payung Sekaki, Kota Pekanbaru";"SUMATERA BARAT";"28291";"Indonesia";" 082170666626";"";"";"0.5264596";"101.4244009";"https://maps.google.com/?cid=0x0:0xf0437d80a61d90de";""
"mall";"Toko";"Bebwhite-c.dpolshoppku";"Jl. Akademi No.85, Labuh Baru Tim., Kec. Payung Sekaki, Kota Pekanbaru, Riau 28292";"Labuh Baru Tim., Kec. Payung Sekaki, Kota Pekanbaru";"SUMATERA BARAT";"28292";"Indonesia";" 082390521371";"";"";"0.526008";"101.422673";"https://maps.google.com/?cid=0x0:0x90cf831ec335fd21";""
"mall";"Bengkel Mobil";"Adiyatamagarage";"Labuh Baru Bar., Kec. Payung Sekaki, Kota Pekanbaru, Riau 28292";"Kec. Payung Sekaki, Kota Pekanbaru";"SUMATERA BARAT";"28292";"Indonesia";" 082266663276";"";"";"0.5117141";"101.4076281";"https://maps.google.com/?cid=0x0:0xeac07ac4a42ffacb";""
"mall";"Pusat Perbelanjaan";"FLY OVER SIMPANG MAL SKA";"GC39+4PH, Jl. Soekarno - Hatta, Labuh Baru Tim., Kec. Payung Sekaki, Kota Pekanbaru, Riau 28292";"Jl. Soekarno - Hatta, Labuh Baru Tim., Kec. Payung Sekaki, Kota Pekanbaru";"SUMATERA BARAT";"28292";"Indonesia";"";"";"";"0.5028144";"101.4193739";"https://maps.google.com/?cid=0x0:0xccafdf7c5012c811";""
"mall";"Toko Makanan";"SANTAN JASA MALINDO";"Jl. Dharma Bakti No.83, Labuh Baru Bar., Kec. Payung Sekaki, Kota Pekanbaru, Riau 28292";"Labuh Baru Bar., Kec. Payung Sekaki, Kota Pekanbaru";"SUMATERA BARAT";"28292";"Indonesia";" 085219605541";"";"";"0.5170017";"101.413818";"https://maps.google.com/?cid=0x0:0x42dcd4c4bd18e32f";""
"mall";"Pusat Perbelanjaan";"Batu ampar";"Jl. Lintas Sumatra No.kec, batuampar, Kec. Payung Sekaki, Kota Pekanbaru, Riau";"Kota Pekanbaru, Riau";"SUMATERA BARAT";"";"Indonesia";"";"";"";"0.4975683";"101.3943941";"https://maps.google.com/?cid=0x0:0xb190475496abaee0";""
"mall";"Dealer Mobil Bekas";"Office Jual Beli MobKas Berkwalitas";"jalan sukarnohatta Jl.nenas-Perumahan arengka lestari blok d.4, Labuh Baru Bar., Kec. Payung Sekaki, Kota Pekanbaru, Riau 28292";"Labuh Baru Bar., Kec. Payung Sekaki, Kota Pekanbaru";"SUMATERA BARAT";"28292";"Indonesia";" 082288384572";"";"";"0.5057655";"101.4123806";"https://maps.google.com/?cid=0x0:0xe0f22dc4c77fb697";""
"mall";"mall";"Riau 28292";"Kota Pekanbaru, Riau";"Kota Pekanbaru, Riau";"SUMATERA BARAT";"";"Indonesia";"";"";"";"0.4876228";"101.3998518";"https://maps.google.com/?cid=0x0:0x6390004f5c75d59a";""
"mall";"Pusat Perbelanjaan";"Mal Pekanbaru";"Jl. Jend. Sudirman No.123, Kota Tinggi, Kec. Pekanbaru Kota, Kota Pekanbaru, Riau 28112";"Kota Tinggi, Kec. Pekanbaru Kota, Kota Pekanbaru";"SUMATERA BARAT";"28112";"Indonesia";" 0761850122";"";"";"0.5319514";"101.4479579";"https://maps.google.com/?cid=0x0:0xf41bf35bbb0463a";""
"mall";"Pusat Perbelanjaan";"Mal SKA";"Jl. Soekarno - Hatta No.114, Delima, Kec. Tampan, Kota Pekanbaru, Riau 28292";"Delima, Kec. Tampan, Kota Pekanbaru";"SUMATERA BARAT";"28292";"Indonesia";" 0761864000";"";"";"0.4989779";"101.419025";"https://maps.google.com/?cid=0x0:0xcb644449e8a62d2";""
"mall";"Pusat Perbelanjaan";"Transmart Pekanbaru";"Jl. Musyawarah No.11, Labuh Baru Tim., Kec. Payung Sekaki, Kota Pekanbaru, Riau 28292";"Labuh Baru Tim., Kec. Payung Sekaki, Kota Pekanbaru";"SUMATERA BARAT";"28292";"Indonesia";" 082208255195";"";"";"0.5031622";"101.4200591";"https://maps.google.com/?cid=0x0:0x60a28e2af0890e0a";""
"mall";"Bengkel Mobil";"Adiyatamagarage";"Labuh Baru Bar., Kec. Payung Sekaki, Kota Pekanbaru, Riau 28292";"Kec. Payung Sekaki, Kota Pekanbaru";"SUMATERA BARAT";"28292";"Indonesia";" 082266663276";"";"";"0.5117141";"101.4076281";"https://maps.google.com/?cid=0x0:0xeac07ac4a42ffacb";""
"mall";"Peternakan";"ChoDo Puyuh";"Gg. Mufakat No.1, Labuh Baru Bar., Kec. Payung Sekaki, Kota Pekanbaru, Riau 28292";"Labuh Baru Bar., Kec. Payung Sekaki, Kota Pekanbaru";"SUMATERA BARAT";"28292";"Indonesia";" 082174966794";"";"";"0.512582";"101.4113812";"https://maps.google.com/?cid=0x0:0xbcd4d554febc1cfb";""
"mall";"Toko";"Anndra_shop";"GC42+JJ9, Jl. Fajar Ujung, Labuh Baru Bar., Kec. Payung Sekaki, Kota Pekanbaru, Riau 28292";"Jl. Fajar Ujung, Labuh Baru Bar., Kec. Payung Sekaki, Kota Pekanbaru";"SUMATERA BARAT";"28292";"Indonesia";" 082383929987";"";"";"0.5065304";"101.4015953";"https://maps.google.com/?cid=0x0:0x9553e08bb444df90";""
"mall";"Dealer Mobil Bekas";"Office Jual Beli MobKas Berkwalitas";"jalan sukarnohatta Jl.nenas-Perumahan arengka lestari blok d.4, Labuh Baru Bar., Kec. Payung Sekaki, Kota Pekanbaru, Riau 28292";"Labuh Baru Bar., Kec. Payung Sekaki, Kota Pekanbaru";"SUMATERA BARAT";"28292";"Indonesia";" 082288384572";"";"";"0.5057655";"101.4123806";"https://maps.google.com/?cid=0x0:0xe0f22dc4c77fb697";""
"mall";"Toko Perlengkapan Rumah";"AT Aqila Tenda";"GC63+4WV, Labuh Baru Bar., Kec. Payung Sekaki, Kota Pekanbaru, Riau 28292";"Labuh Baru Bar., Kec. Payung Sekaki, Kota Pekanbaru";"SUMATERA BARAT";"28292";"Indonesia";" 082386436287";"";"";"0.5103545";"101.4047941";"https://maps.google.com/?cid=0x0:0xfed4378bbff710ad";""
"mall";"Pusat Perbelanjaan";"Dj tanjak pusako";"Jl. Payung Sekaki No.1, Labuh Baru Bar., Kec. Payung Sekaki, Kota Pekanbaru, Riau 28292";"Labuh Baru Bar., Kec. Payung Sekaki, Kota Pekanbaru";"SUMATERA BARAT";"28292";"Indonesia";"";"";"";"0.5074774";"101.3976629";"https://maps.google.com/?cid=0x0:0x4c4a6f5bb618a183";""
"mall";"Toko Makanan";"SANTAN JASA MALINDO";"Jl. Dharma Bakti No.83, Labuh Baru Bar., Kec. Payung Sekaki, Kota Pekanbaru, Riau 28292";"Labuh Baru Bar., Kec. Payung Sekaki, Kota Pekanbaru";"SUMATERA BARAT";"28292";"Indonesia";" 085219605541";"";"";"0.5170017";"101.413818";"https://maps.google.com/?cid=0x0:0x42dcd4c4bd18e32f";""
"mall";"Perhentian bus";"Labuh Baru Junction";"GC29+PHR, Labuh Baru Bar., Kec. Payung Sekaki, Kota Pekanbaru, Riau 28292";"Labuh Baru Bar., Kec. Payung Sekaki, Kota Pekanbaru";"SUMATERA BARAT";"28292";"Indonesia";"";"";"";"0.5018541";"101.4189015";"https://maps.google.com/?cid=0x0:0x3073a41edcf1c58b";""
"mall";"Bengkel Sepeda Motor";"Garvin motor";"GC83+RP8, Jl. Dharma Bakti, Labuh Baru Bar., Kec. Payung Sekaki, Kota Pekanbaru, Riau 28292";"Jl. Dharma Bakti, Labuh Baru Bar., Kec. Payung Sekaki, Kota Pekanbaru";"SUMATERA BARAT";"28292";"Indonesia";" 085271463666";"";"";"0.5170415";"101.4043413";"https://maps.google.com/?cid=0x0:0x8061ffa06e2fdcd2";""
"mall";"Pusat Perbelanjaan";"FLY OVER SIMPANG MAL SKA";"GC39+4PH, Jl. Soekarno - Hatta, Labuh Baru Tim., Kec. Payung Sekaki, Kota Pekanbaru, Riau 28292";"Jl. Soekarno - Hatta, Labuh Baru Tim., Kec. Payung Sekaki, Kota Pekanbaru";"SUMATERA BARAT";"28292";"Indonesia";"";"";"";"0.5028144";"101.4193739";"https://maps.google.com/?cid=0x0:0xccafdf7c5012c811";""
"mall";"Toserba";"TOSERBA VIVIT";"F9XV+2QC, Jl. Lintas Sumatra, Labuh Baru Bar., Kec. Payung Sekaki, Kota Pekanbaru, Riau 28292";"Jl. Lintas Sumatra, Labuh Baru Bar., Kec. Payung Sekaki, Kota Pekanbaru";"SUMATERA BARAT";"28292";"Indonesia";" 085263419470";"";"";"0.4975564";"101.3943824";"https://maps.google.com/?cid=0x0:0xe10b2b5a9e112a96";""
"mall";"Toko bahan makanan";"Toko Kita Grosir  Eceran";"Jl. Dharma Bakti No.Kelurahan, Labuh Baru Bar., Kec. Payung Sekaki, Kota Pekanbaru, Riau 28292";"Labuh Baru Bar., Kec. Payung Sekaki, Kota Pekanbaru";"SUMATERA BARAT";"28292";"Indonesia";" 085230521234";"";"";"0.5167628";"101.402677";"https://maps.google.com/?cid=0x0:0x13ad10bf0a35d72a";""
"mall";"Toko Ponsel";"Hanopan ponsel";"Jl. Dharma Bakti No.96, Labuh Baru Bar., Kec. Payung Sekaki, Kota Pekanbaru, Riau 28292";"Labuh Baru Bar., Kec. Payung Sekaki, Kota Pekanbaru";"SUMATERA BARAT";"28292";"Indonesia";"";"";"";"0.5169602";"101.4173635";"https://maps.google.com/?cid=0x0:0x52c16f64b3eb8711";""
"mall";"Pusat Perbelanjaan";"Batu ampar";"Jl. Lintas Sumatra No.kec, batuampar, Kec. Payung Sekaki, Kota Pekanbaru, Riau";"Kota Pekanbaru, Riau";"SUMATERA BARAT";"";"Indonesia";"";"";"";"0.4975683";"101.3943941";"https://maps.google.com/?cid=0x0:0xb190475496abaee0";""
"mall";"Kafe";"Asinan Owi";"GC94+2F2, Labuh Baru Bar., Kec. Payung Sekaki, Kota Pekanbaru, Riau 28292";"Labuh Baru Bar., Kec. Payung Sekaki, Kota Pekanbaru";"SUMATERA BARAT";"28292";"Indonesia";" 08126394128";"";"";"0.5175061";"101.4061502";"https://maps.google.com/?cid=0x0:0x534c1390b450fc56";""
"mall";"Hipermarket";"wartim";"GC39+9VH Transmart Pekanbaru, Labuh Baru Tim., Kec. Payung Sekaki, Kota Pekanbaru, Riau 28292";"Labuh Baru Tim., Kec. Payung Sekaki, Kota Pekanbaru";"SUMATERA BARAT";"28292";"Indonesia";"";"";"";"0.5034398";"101.4197372";"https://maps.google.com/?cid=0x0:0x550900d2f2c17e48";""
"mall";"Pusat Perbelanjaan";"Jaya Utama MJS";"Jl. SM Amin, Labuh Baru Bar., Kec. Payung Sekaki, Kota Pekanbaru, Riau 28292";"Labuh Baru Bar., Kec. Payung Sekaki, Kota Pekanbaru";"SUMATERA BARAT";"28292";"Indonesia";" 085265730555";"";"";"0.5162741";"101.3981773";"https://maps.google.com/?cid=0x0:0x637e61ca2b9de3d3";""
"mall";"Toko";"Kedai Harian Dua Bersaudara";"F9MX+V36, Delima, Kec. Tampan, Kota Pekanbaru, Riau 28292";"Delima, Kec. Tampan, Kota Pekanbaru";"SUMATERA BARAT";"28292";"Indonesia";"";"";"";"0.484658";"101.3976258";"https://maps.google.com/?cid=0x0:0x13e756c17d36f0a5";""
"mall";"Pusat Perbelanjaan";"Mal Ciputra Seraya";"Jl. Riau No.58, Kp. Baru, Kec. Senapelan, Kota Pekanbaru, Riau 28154";"Kp. Baru, Kec. Senapelan, Kota Pekanbaru";"SUMATERA BARAT";"28154";"Indonesia";" 0761868888";"";"";"0.5359841";"101.4306163";"https://maps.google.com/?cid=0x0:0xbdfa90dde03f63ed";""
"mall";"Pusat Perbelanjaan";"MTC Mall Panam Pekanbaru Riau";"Jl. HR. Soebrantas No.KM. 12.5, Simpang Baru, Kec. Tampan, Kota Pekanbaru, Riau 29211";"Simpang Baru, Kec. Tampan, Kota Pekanbaru";"SUMATERA BARAT";"29211";"Indonesia";" 081371200160";"";"";"0.4645566";"101.3843911";"https://maps.google.com/?cid=0x0:0x99f3558ff3de6193";""
"mall";"Toko";"Bebwhite-c.dpolshoppku";"Jl. Akademi No.85, Labuh Baru Tim., Kec. Payung Sekaki, Kota Pekanbaru, Riau 28292";"Labuh Baru Tim., Kec. Payung Sekaki, Kota Pekanbaru";"SUMATERA BARAT";"28292";"Indonesia";" 082390521371";"";"";"0.526008";"101.422673";"https://maps.google.com/?cid=0x0:0x90cf831ec335fd21";""
"mall";"Toko Swalayan";"RAMAYANA Panam Square";"Jl. HR. Soebrantas No.KM9, Sidomulyo Bar., Kec. Tampan, Kota Pekanbaru, Riau 28293";"Sidomulyo Bar., Kec. Tampan, Kota Pekanbaru";"SUMATERA BARAT";"28293";"Indonesia";"";"";"";"0.463438";"101.410112";"https://maps.google.com/?cid=0x0:0xa8cf42209fd09035";""
"mall";"Pusat Perbelanjaan";"Plaza Citra Pekanbaru";"Jl. Pepaya No.78a, Jadirejo, Kec. Sukajadi, Kota Pekanbaru, Riau 28121";"Jadirejo, Kec. Sukajadi, Kota Pekanbaru";"SUMATERA BARAT";"28121";"Indonesia";"";"";"";"0.510373";"101.4469229";"https://maps.google.com/?cid=0x0:0x4a9651844835105";""
"mall";"Toko Mebel";"Aneka Jaya Furniture";"Jl. Dharma Bakti No.145L, Labuh Baru Bar., Kec. Payung Sekaki, Kota Pekanbaru, Riau 28292";"Labuh Baru Bar., Kec. Payung Sekaki, Kota Pekanbaru";"SUMATERA BARAT";"28292";"Indonesia";" 081314723313";"";"";"0.5168882";"101.4063527";"https://maps.google.com/?cid=0x0:0xb1bcdbd8f3ef42c3";""
"mall";"Pusat Perbelanjaan";"Abang Motor";"Jl. Soekarno - Hatta No.86 F, Labuh Baru Tim., Kec. Payung Sekaki, Kota Pekanbaru, Riau 28292";"Labuh Baru Tim., Kec. Payung Sekaki, Kota Pekanbaru";"SUMATERA BARAT";"28292";"Indonesia";" 081266229854";"";"";"0.5085043";"101.4192159";"https://maps.google.com/?cid=0x0:0xf10d3f04ad451eb3";""
"mall";"mall";"Sumatera Barat 27372";"Kabupaten Solok, Sumatera Barat";"Kabupaten Solok, Sumatera Barat";"SUMATERA BARAT";"";"Indonesia";"";"";"";"-1.0766962";"101.0259275";"https://maps.google.com/?cid=0x0:0xeac2349b2f58a85f";""
"mall";"Pusat Perbelanjaan";"Pasar Lubuak Pauah";"2VJR+GMM, Batu Bajanjang, Tigo Lurah Bajanjang, Kabupaten Solok, Sumatera Barat 27372";"Batu Bajanjang, Tigo Lurah Bajanjang, Kabupaten Solok";"SUMATERA BARAT";"27372";"Indonesia";"";"";"";"-0.96867";"100.8916743";"https://maps.google.com/?cid=0x0:0xf47fecdb63098f7c";""
"mall";"Toko";"kadai fharid";"2VPR+CG6, Bancah Laweh, Rangkiang Luluih, Tigo Lurah Bajanjang, Kabupaten Solok, Sumatera Barat 27372";"Bancah Laweh, Rangkiang Luluih, Tigo Lurah Bajanjang, Kabupaten Solok";"SUMATERA BARAT";"27372";"Indonesia";" 081536019368";"";"";"-0.9639564";"100.891271";"https://maps.google.com/?cid=0x0:0x5ad710f1433d5829";""
"mall";"Perhimpunan Pengembang Perumahan";"Pasar Talang Babungo";"WV4G+JWG, Talang Babungo, Kec. Hiliran Gumanti, Kabupaten Solok, Sumatera Barat 27372";"Talang Babungo, Kec. Hiliran Gumanti, Kabupaten Solok";"SUMATERA BARAT";"27372";"Indonesia";" 081290587388";"";"";"-1.0934395";"100.8773229";"https://maps.google.com/?cid=0x0:0xb7ec2640cb6514b3";""
"mall";"Toko bahan makanan";"Lala Mart";"XQ5H+PMR, Jl. Gajah Mada, Sungai Nanam, Kec. Lembah Gumanti, Kabupaten Solok, Sumatera Barat 27371";"Jl. Gajah Mada, Sungai Nanam, Kec. Lembah Gumanti, Kabupaten Solok";"SUMATERA BARAT";"27371";"Indonesia";" 081277313735";"";"";"-1.0406363";"100.7791519";"https://maps.google.com/?cid=0x0:0x7dfcc618371b162f";""
"mall";"Toko";"Toko Grosir pak Dam Simanau";"3VJ4+XH7, Jalan Lurah dama, Simanau, Tigo Lurah Bajanjang, Kabupaten Solok, Sumatera Barat";"Kabupaten Solok, Sumatera Barat";"SUMATERA BARAT";"";"Indonesia";"";"";"";"-0.9175783";"100.8564355";"https://maps.google.com/?cid=0x0:0xb4643ff8aa31bbe5";""
"mall";"Pusat Perbelanjaan";"kadai Nashwa";"3X25+R2W, Jorong Tanjuang Barisi, Tj. Balik Sumiso, Tigo Lurah Bajanjang, Kabupaten Solok";"Kabupaten Solok, Sumatera Barat";"SUMATERA BARAT";"";"Indonesia";"";"";"";"-0.9478793";"100.9575699";"https://maps.google.com/?cid=0x0:0xdcbb4ded50297e28";""
"mall";"Toko";"Kadai unang ena";"WV4H+253, Talang Babungo, Kec. Hiliran Gumanti, Kabupaten Solok, Sumatera Barat 27372";"Talang Babungo, Kec. Hiliran Gumanti, Kabupaten Solok";"SUMATERA BARAT";"27372";"Indonesia";"";"";"";"-1.0949374";"100.877969";"https://maps.google.com/?cid=0x0:0xf374bda80d0a5072";""
"mall";"Toko";"Mandiri Agen Kadai Gita";"WV5G+42J, Jl. Alahan Panjang - Talang Babungo, Talang Babungo, Kec. Hiliran Gumanti, Kabupaten Solok, Sumatera Barat 27372";"Jl. Alahan Panjang - Talang Babungo, Talang Babungo, Kec. Hiliran Gumanti, Kabupaten Solok";"SUMATERA BARAT";"27372";"Indonesia";" 081364389922";"";"";"-1.0921709";"100.8750171";"https://maps.google.com/?cid=0x0:0x65c8b5218900fefa";""
"mall";"Minimarket";"Pasar Surian";"PVXM+7X5, Surian, Kec. Pantai Cermin, Kabupaten Solok, Sumatera Barat 27373";"Surian, Kec. Pantai Cermin, Kabupaten Solok";"SUMATERA BARAT";"27373";"Indonesia";"";"";"";"-1.2527583";"100.8863525";"https://maps.google.com/?cid=0x0:0x3156dc8bfa2df563";""
"mall";"Pusat Perbelanjaan";"atomy sumatera barat";"PVRG+HQV, Jl. Ladang Padi, Surian, Kec. Pantai Cermin, Kabupaten Solok, Sumatera Barat 27373";"Jl. Ladang Padi, Surian, Kec. Pantai Cermin, Kabupaten Solok";"SUMATERA BARAT";"27373";"Indonesia";" 082390337524";"";"";"-1.2585082";"100.8769112";"https://maps.google.com/?cid=0x0:0xa332d63076fae202";""
"mall";"Komplek perumahan";"Melayu Koto Tinggi";"XQ8G+GFW, Sungai Nanam, Kec. Lembah Gumanti, Kabupaten Solok, Sumatera Barat";"Kabupaten Solok, Sumatera Barat";"SUMATERA BARAT";"";"Indonesia";"";"";"";"-1.0336281";"100.7762086";"https://maps.google.com/?cid=0x0:0xb61a71761205abcb";""
"mall";"Asosiasi/organisasi";"Rangkini Batik";"Lipek Pageh, Sungai Nanam, Kec. Lembah Gumanti, Kabupaten Solok, Sumatera Barat 27371";"Sungai Nanam, Kec. Lembah Gumanti, Kabupaten Solok";"SUMATERA BARAT";"27371";"Indonesia";" 083183215746";"";"";"-1.0473876";"100.7982078";"https://maps.google.com/?cid=0x0:0x9eb01e9418167c9c";""
"mall";"Toko bahan makanan";"Toko U Farfume";"Jorong Talang Timur, Jl. Alahan Panjang - Talang Babungo, Talang Babungo, Kec. Hiliran Gumanti, Kabupaten Solok, Sumatera Barat 27372";"Jl. Alahan Panjang - Talang Babungo, Talang Babungo, Kec. Hiliran Gumanti, Kabupaten Solok";"SUMATERA BARAT";"27372";"Indonesia";" 085374086545";"";"";"-1.0940016";"100.8761155";"https://maps.google.com/?cid=0x0:0xf82c38c88f87f787";""
"mall";"Pusat Perbelanjaan";"d_yankers Created";"WQJP+96F, Jl. Gajah Mada, Alahan Panjang, Kec. Lembah Gumanti, Kabupaten Solok, Sumatera Barat 27371";"Jl. Gajah Mada, Alahan Panjang, Kec. Lembah Gumanti, Kabupaten Solok";"SUMATERA BARAT";"27371";"Indonesia";" 082288337676";"";"";"-1.0690633";"100.7855617";"https://maps.google.com/?cid=0x0:0xe52a72a7e7ab7366";""
"mall";"Grosir";"Toko indah Dan aquarium center";"XQHG+6RG, Jl. Limau Puruik, Sungai Nanam, Kec. Lembah Gumanti, Kabupaten Solok, Sumatera Barat 27371";"Jl. Limau Puruik, Sungai Nanam, Kec. Lembah Gumanti, Kabupaten Solok";"SUMATERA BARAT";"27371";"Indonesia";" 08372009006";"";"";"-1.0219368";"100.7770649";"https://maps.google.com/?cid=0x0:0x3b5e3ac575f4d163";""
"mall";"Toko bahan makanan";"Husnul";"QV2G+H7C, Jl. Koto Tinggi, Surian, Kec. Pantai Cermin, Kabupaten Solok, Sumatera Barat 27373";"Jl. Koto Tinggi, Surian, Kec. Pantai Cermin, Kabupaten Solok";"SUMATERA BARAT";"27373";"Indonesia";"";"";"";"-1.2485707";"100.8756427";"https://maps.google.com/?cid=0x0:0x4c939344873b37e7";""
"mall";"Brunch";"Uda singgang kuliner minang kabau";"Alahan Panjang, Kec. Lembah Gumanti, Kabupaten Solok, Sumatera Barat 27371";"Kec. Lembah Gumanti, Kabupaten Solok";"SUMATERA BARAT";"27371";"Indonesia";" 081374310500";"";"";"-1.0764";"100.7858218";"https://maps.google.com/?cid=0x0:0x44d080c060dad8a9";""
"mall";"Toko";"Kios jasa minang lestari";"VQHQ+J36, Aie Dingin, Kec. Lembah Gumanti, Kabupaten Solok, Sumatera Barat 27371";"Aie Dingin, Kec. Lembah Gumanti, Kabupaten Solok";"SUMATERA BARAT";"27371";"Indonesia";"";"";"";"-1.1209661";"100.7876264";"https://maps.google.com/?cid=0x0:0x65683e2ad53917df";""
"mall";"Pusat Perbelanjaan";"Kedai Mil";"Alahan Panjang, Kec. Lembah Gumanti, Kabupaten Solok, Sumatera Barat 27371";"Kec. Lembah Gumanti, Kabupaten Solok";"SUMATERA BARAT";"27371";"Indonesia";"";"";"";"-1.0562513";"100.7750423";"https://maps.google.com/?cid=0x0:0xeffae302ac267982";""
"mall";"Masjid";"Masjid Raya Batu Bajanjang";"2WC3+2H8, Batu Bajanjang, Tigo Lurah Bajanjang, Kabupaten Solok, Sumatera Barat 27372";"Batu Bajanjang, Tigo Lurah Bajanjang, Kabupaten Solok";"SUMATERA BARAT";"27372";"Indonesia";"";"";"";"-0.9799644";"100.9039534";"https://maps.google.com/?cid=0x0:0x57dd6bbefc5c9c97";""
"mall";"Toko bahan makanan";"Agen Resmi Brilink Mailis Cell";"WRFM+3QJ, Jl. Alahan Panjang - Talang Babungo, Salimpat, Kec. Lembah Gumanti, Kabupaten Solok, Sumatera Barat 27371";"Jl. Alahan Panjang - Talang Babungo, Salimpat, Kec. Lembah Gumanti, Kabupaten Solok";"SUMATERA BARAT";"27371";"Indonesia";" 082169163816";"";"";"-1.0772909";"100.8343978";"https://maps.google.com/?cid=0x0:0xd251393c5f888d00";""
"mall";"Pusat Perbelanjaan";"YOLA TANI";"XQ65+VHM, Alahan Panjang, Kec. Lembah Gumanti, Kabupaten Solok, Sumatera Barat 27371";"Alahan Panjang, Kec. Lembah Gumanti, Kabupaten Solok";"SUMATERA BARAT";"27371";"Indonesia";" 081275867848";"";"";"-1.0377811";"100.7589117";"https://maps.google.com/?cid=0x0:0xbfc02d30a71cc85";""
"mall";"Sekolah Menengah Pertama";"SMPN 4 TIGO LURAH";"2VP7+5JF, Jalan Kapujan, Rangkiang Luluih, Tigo Lurah Bajanjang, Solok Regency, West Sumatra 27372";"Jalan Kapujan, Rangkiang Luluih, Tigo Lurah Bajanjang, Solok Regency";"SUMATERA BARAT";"27372";"Indonesia";" 081371553564";"";"";"-0.9645662";"100.8640592";"https://maps.google.com/?cid=0x0:0xf7d8fa4f6350cc82";""
"mall";"Pusat Perbelanjaan";"Tokp 4saudara";"WQP7+F4H, Jl. Padang - Alahan Panjang, Alahan Panjang, Kec. Lembah Gumanti, Kabupaten Solok, Sumatera Barat 27383";"Jl. Padang - Alahan Panjang, Alahan Panjang, Kec. Lembah Gumanti, Kabupaten Solok";"SUMATERA BARAT";"27383";"Indonesia";" 081378920448";"";"";"-1.0638136";"100.7628739";"https://maps.google.com/?cid=0x0:0x5e4086b821b803f2";""
"mall";"Toko";"gosiniyo cell";"XP2R+XXX, Jl. Lkr. Danau DIbawah, Simpang Tj. Nan IV, Kec. Danau Kembar, Kabupaten Solok, Sumatera Barat 27383";"Jl. Lkr. Danau DIbawah, Simpang Tj. Nan IV, Kec. Danau Kembar, Kabupaten Solok";"SUMATERA BARAT";"27383";"Indonesia";" 085210751990";"";"";"-1.0475218";"100.7424853";"https://maps.google.com/?cid=0x0:0xaa3142aa1e196eb1";""
"mall";"Perkebunan Pohon";"Perkebunan atsiri cv almubarak investama";"4Q2M+8V2, Sirukam, Kec. Payung Sekaki, Kabupaten Solok, Sumatera Barat 27387";"Sirukam, Kec. Payung Sekaki, Kabupaten Solok";"SUMATERA BARAT";"27387";"Indonesia";" 085278178112";"";"";"-0.8992434";"100.7846294";"https://maps.google.com/?cid=0x0:0x5afdcc05045d0a5a";""
"mall";"Toko Elektronik";"Balai Lasa Limau Puruik";"XQFF+5P6, Sungai Nanam, Kec. Lembah Gumanti, Kabupaten Solok, Sumatera Barat 27371";"Sungai Nanam, Kec. Lembah Gumanti, Kabupaten Solok";"SUMATERA BARAT";"27371";"Indonesia";" 087726614414";"";"";"-1.0270882";"100.7742576";"https://maps.google.com/?cid=0x0:0x712b7e7e97ff824";""
"supermarket";"Pasar";"Toko Tani Indonesia";"6PJ9+9VC, Jl. Lintas Sumatera, Koto Laweh, Kec. IX Koto Sungai Lasi, Kabupaten Solok, Sumatera Barat 27388";"Jl. Lintas Sumatera, Koto Laweh, Kec. IX Koto Sungai Lasi, Kabupaten Solok";"SUMATERA BARAT";"27388";"Indonesia";"";"";"";"-0.7690518";"100.7196388";"https://maps.google.com/?cid=0x0:0xbb82dd5fc9654589";""
"supermarket";"Toko bahan makanan";"Toko Tani Indonesia Center";"Jl. By Pass No.km 15, Aie Pacah, Kec. Koto Tangah, Kota Padang, Sumatera Barat 25586";"Aie Pacah, Kec. Koto Tangah, Kota Padang";"SUMATERA BARAT";"25586";"Indonesia";"";"";"";"-0.8698018";"100.3817021";"https://maps.google.com/?cid=0x0:0xe5a566a1420d80d3";""
"supermarket";"supermarket";"Sumatera Barat 27388";"Kec. IX Koto Sungai Lasi, Kabupaten Solok, Sumatera Barat";"Kabupaten Solok, Sumatera Barat";"SUMATERA BARAT";"";"Indonesia";"";"";"";"-0.796184";"100.7323332";"https://maps.google.com/?cid=0x0:0x9cdaa9ce1d3ef265";""
"supermarket";"Toko";"Djaros swalayan solok";"Jl. Prof. Dr. Moh. Yamin Sh, pandan, Kec. Tj. Harapan, Kota Solok, Sumatera Barat 27322";"pandan, Kec. Tj. Harapan, Kota Solok";"SUMATERA BARAT";"27322";"Indonesia";" 082294264141";"";"";"-0.7886622";"100.664294";"https://maps.google.com/?cid=0x0:0xf9d06ac8e4375d1f";""
"supermarket";"supermarket";"Sumatera Barat 27355";"Kec. X Koto Diatas, Kabupaten Solok, Sumatera Barat";"Kabupaten Solok, Sumatera Barat";"SUMATERA BARAT";"";"Indonesia";"";"";"";"-0.6097459";"100.6421799";"https://maps.google.com/?cid=0x0:0x7a08730535108a2b";""
"supermarket";"Minimarket";"Kadai Pak Ujang";"9JPW+2RG, Sulit Air, Kec. X Koto Diatas, Kabupaten Solok, Sumatera Barat 27355";"Sulit Air, Kec. X Koto Diatas, Kabupaten Solok";"SUMATERA BARAT";"27355";"Indonesia";"";"";"";"-0.614944";"100.6470788";"https://maps.google.com/?cid=0x0:0xbc7fe02a04217d02";""
"supermarket";"Minimarket";"Toko Nadhirrizky";"9JJV+4FW, Sulit Air, Kec. X Koto Diatas, Kabupaten Solok, Sumatera Barat 27355";"Sulit Air, Kec. X Koto Diatas, Kabupaten Solok";"SUMATERA BARAT";"27355";"Indonesia";"";"";"";"-0.6196069";"100.6436798";"https://maps.google.com/?cid=0x0:0x51720d1487b0b619";""
"supermarket";"Jasa Pengiriman";"JNE " La Tansa";"9M46+49C, Tanjuang Balik, Kec. X Koto Diatas, Kabupaten Solok, Sumatera Barat 27355";"Tanjuang Balik, Kec. X Koto Diatas, Kabupaten Solok";"SUMATERA BARAT";"27355";"Indonesia";" 082288446869";"";"";"-0.6446844";"100.6608953";"https://maps.google.com/?cid=0x0:0xe1e9eae708c54393";""
"supermarket";"Pasar";"Pasar Nagari Tanjung Balik";"9M36+WHG, Tanjuang Balik, Kec. X Koto Diatas, Kabupaten Solok, Sumatera Barat 27355";"Tanjuang Balik, Kec. X Koto Diatas, Kabupaten Solok";"SUMATERA BARAT";"27355";"Indonesia";" 082285452011";"";"";"-0.6451939";"100.6614403";"https://maps.google.com/?cid=0x0:0x2c18d089afa2a698";""
"supermarket";"Minimarket";"Qina mart";"Jl. Prof. Dr. Moh. Yamin Sh, Ps. Pandan Air Mati, Kec. Tj. Harapan, Kota Solok, Sumatera Barat 27317";"Ps. Pandan Air Mati, Kec. Tj. Harapan, Kota Solok";"SUMATERA BARAT";"27317";"Indonesia";" 0895630040777";"";"";"-0.7894316";"100.6617517";"https://maps.google.com/?cid=0x0:0x50658309b7ce5d2c";""
"supermarket";"Pusat Perbelanjaan";"Pasar Paninjauan";"Paninjauan, Kec. X Koto Diatas, Kabupaten Solok, Sumatera Barat 27355";"Kec. X Koto Diatas, Kabupaten Solok";"SUMATERA BARAT";"27355";"Indonesia";"";"";"";"-0.6716932";"100.6608869";"https://maps.google.com/?cid=0x0:0x3afff435ee00a96e";""
"supermarket";"Toko bahan makanan";"LOPAU WO NUMA II";"9M36+WHV, Jl. Raya Tj. Balik, Tanjuang Balik, Kec. X Koto Diatas, Kabupaten Solok, Sumatera Barat 27355";"Jl. Raya Tj. Balik, Tanjuang Balik, Kec. X Koto Diatas, Kabupaten Solok";"SUMATERA BARAT";"27355";"Indonesia";"";"";"";"-0.6451351";"100.661421";"https://maps.google.com/?cid=0x0:0xc392528687c8b716";""
"supermarket";"Toko outlet";"ZHIFA CELL";"8PJ2+FJG, Sibarambang, Kec. X Koto Diatas, Kabupaten Solok, Sumatera Barat 27355";"Sibarambang, Kec. X Koto Diatas, Kabupaten Solok";"SUMATERA BARAT";"27355";"Indonesia";" 081363018006";"";"";"-0.668804";"100.7015769";"https://maps.google.com/?cid=0x0:0x28f02ea35792051a";""
"supermarket";"Toko";"Si lis sabie ngale lado";"9JRJ+RQ4, Unnamed Road, Sulit Air, Kec. X Koto Diatas, Kabupaten Solok, Sumatera Barat 27355";"Unnamed Road, Sulit Air, Kec. X Koto Diatas, Kabupaten Solok";"SUMATERA BARAT";"27355";"Indonesia";"";"";"";"-0.607979";"100.6319438";"https://maps.google.com/?cid=0x0:0x8999019a7b5b7f68";""
"supermarket";"Toko Makanan";"Warung yosi dan duren jatuh pohon";"8J2F+HFM, Jl. Talago Pipik Data Bungo, Aripan, Kec. X Koto Singkarak, Kabupaten Solok, Sumatera Barat 27356";"Jl. Talago Pipik Data Bungo, Aripan, Kec. X Koto Singkarak, Kabupaten Solok";"SUMATERA BARAT";"27356";"Indonesia";"";"";"";"-0.6985308";"100.6236862";"https://maps.google.com/?cid=0x0:0x57e84a04df9a7d3b";""
"supermarket";"Toko Swalayan";"Toko Farida";"8J7C+P6R, Jorong pintu Rayo, Kec. X Koto Singkarak, Kabupaten Solok, Sumatera Barat 27356";"Jorong pintu Rayo, Kec. X Koto Singkarak, Kabupaten Solok";"SUMATERA BARAT";"27356";"Indonesia";"";"";"";"-0.6856469";"100.6205118";"https://maps.google.com/?cid=0x0:0xfe91def3b4b2f526";""
"supermarket";"Toko bahan makanan";"Toko LASKAR P D";"7HMR+RWF, Sumani, Kec. X Koto Singkarak, Kabupaten Solok, Sumatera Barat 27356";"Sumani, Kec. X Koto Singkarak, Kabupaten Solok";"SUMATERA BARAT";"27356";"Indonesia";" 081374699848";"";"";"-0.7154251";"100.5923116";"https://maps.google.com/?cid=0x0:0x154286198d775f52";""
"supermarket";"Pusat Perbelanjaan";"DAPUR SANJAI "ZIVANEZ"";"6MRQ+9H4, Jl lintas Sumatera, Guguak Sarai, Kec.IX Koto Sei.Lasi, Saok Laweh, Kec. Kubung, Kab Solok, Sumatera Barat 27361";"Jl lintas Sumatera, Guguak Sarai, Kec.IX Koto Sei.Lasi, Saok Laweh, Kec. Kubung, Kab Solok";"SUMATERA BARAT";"27361";"Indonesia";" 085265491234";"";"";"-0.7591122";"100.6889564";"https://maps.google.com/?cid=0x0:0x90d81577d27d5b88";""
"supermarket";"Minimarket";"Tama Mart";"Jl. Soekarno Hatta, Durian II, Kec. Barangin, Kota Sawahlunto, Sumatera Barat 27355";"Durian II, Kec. Barangin, Kota Sawahlunto";"SUMATERA BARAT";"27355";"Indonesia";" 075461798";"";"";"-0.6586911";"100.753446";"https://maps.google.com/?cid=0x0:0x3c17b43bed9e30bb";""
"supermarket";"Minimarket";"PATRIA MART";"8QR3+CMW, Durian II, Kec. Barangin, Kota Sawahlunto, Sumatera Barat 27355";"Durian II, Kec. Barangin, Kota Sawahlunto";"SUMATERA BARAT";"27355";"Indonesia";" 082171831704";"";"";"-0.6588778";"100.7542111";"https://maps.google.com/?cid=0x0:0x7670e072a6764f5f";""
"supermarket";"Toko bahan makanan";"LOPAU Wo NUMA";"9M37+34M, Unnamed Road, Tanjuang Balik, Kec. X Koto Diatas, Kabupaten Solok, Sumatera Barat 27355";"Unnamed Road, Tanjuang Balik, Kec. X Koto Diatas, Kabupaten Solok";"SUMATERA BARAT";"27355";"Indonesia";"";"";"";"-0.6472788";"100.6628052";"https://maps.google.com/?cid=0x0:0xfa68e542aced9ef5";""
"supermarket";"Toko";"Vita Mart - Sawahlunto";"8Q8H+P43, Pasar, Kec. Lembah Segar, Kota Sawahlunto, Sumatera Barat 27422";"Pasar, Kec. Lembah Segar, Kota Sawahlunto";"SUMATERA BARAT";"27422";"Indonesia";"";"";"";"-0.683095";"100.777847";"https://maps.google.com/?cid=0x0:0x162256a972cf95e0";""
"supermarket";"Kedai Kopi";"Kadai sisol/imah";"7MC4+Q2G, Jl. Kuncir, Paninjauan, Kec. X Koto Diatas, Kabupaten Solok, Sumatera Barat 27325";"Jl. Kuncir, Paninjauan, Kec. X Koto Diatas, Kabupaten Solok";"SUMATERA BARAT";"27325";"Indonesia";" 081213055526";"";"";"-0.7280523";"100.6550646";"https://maps.google.com/?cid=0x0:0x4a826c0b63fee08c";""
"supermarket";"Pusat Perbelanjaan";"TOKO CINDO MART";"6M76+683, Jl. Cindua Mato, Ps. Pandan Air Mati, Kec. Tj. Harapan, Kota Solok, Sumatera Barat 27317";"Jl. Cindua Mato, Ps. Pandan Air Mati, Kec. Tj. Harapan, Kota Solok";"SUMATERA BARAT";"27317";"Indonesia";" 081276040507";"";"";"-0.7869756";"100.6607924";"https://maps.google.com/?cid=0x0:0x4c9b22f37a9debd0";""
"supermarket";"Toko umum";"Kios Ida (Tek Da)";"6JRF+F97, Singkarak, Kec. X Koto Singkarak, Kabupaten Solok, Sumatera Barat 27311";"Singkarak, Kec. X Koto Singkarak, Kabupaten Solok";"SUMATERA BARAT";"27311";"Indonesia";"";"";"";"-0.7588324";"100.6234166";"https://maps.google.com/?cid=0x0:0x41393422d7d27ae3";""
"supermarket";"Minimarket";"OBAMA";"6MQP+339, Solok, Laing, Kec. Tj. Harapan, Kota Solok, Sumatera Barat 27324";"Solok, Laing, Kec. Tj. Harapan, Kota Solok";"SUMATERA BARAT";"27324";"Indonesia";" 081274556555";"";"";"-0.7623258";"100.6852226";"https://maps.google.com/?cid=0x0:0x3c02d974733911ea";""
"supermarket";"supermarket";"Sumatera Barat 27356";"Kec. X Koto Singkarak, Kabupaten Solok, Sumatera Barat";"Kabupaten Solok, Sumatera Barat";"SUMATERA BARAT";"";"Indonesia";"";"";"";"-0.731226";"100.5408622";"https://maps.google.com/?cid=0x0:0x8081c1c7287627c5";""
"supermarket";"Toko bahan makanan";"Toko LASKAR P D";"7HMR+RWF, Sumani, Kec. X Koto Singkarak, Kabupaten Solok, Sumatera Barat 27356";"Sumani, Kec. X Koto Singkarak, Kabupaten Solok";"SUMATERA BARAT";"27356";"Indonesia";" 081374699848";"";"";"-0.7154251";"100.5923116";"https://maps.google.com/?cid=0x0:0x154286198d775f52";""
"supermarket";"Toko Swalayan";"TOKO SYAIFUL";"Jalan Lintas sumatra Km. 10, Nagari, Sumani, Kec. X Koto Singkarak, Kabupaten Solok, Sumatera Barat 27356";"Nagari, Sumani, Kec. X Koto Singkarak, Kabupaten Solok";"SUMATERA BARAT";"27356";"Indonesia";" 085365085888";"";"";"-0.7204193";"100.6001351";"https://maps.google.com/?cid=0x0:0xb92a59a4fb1c3627";""
"supermarket";"Toko bahan makanan";"Jibun Mart";"7H9Q+VXR, Jl. sutama Kotosani, Sumani, Kec. X Koto Singkarak, Kabupaten Solok, Sumatera Barat 27356";"Jl. sutama Kotosani, Sumani, Kec. X Koto Singkarak, Kabupaten Solok";"SUMATERA BARAT";"27356";"Indonesia";"";"";"";"-0.730253";"100.589881";"https://maps.google.com/?cid=0x0:0x1d70bbeab05832b";""
"supermarket";"Toko Swalayan";"Toko Zahwa";"7HMV+CXF, Jl. Raya Solok - Sumani, Sumani, Kec. X Koto Singkarak, Kabupaten Solok, Sumatera Barat 27356";"Jl. Raya Solok - Sumani, Sumani, Kec. X Koto Singkarak, Kabupaten Solok";"SUMATERA BARAT";"27356";"Indonesia";" 085278875188";"";"";"-0.7164437";"100.5949181";"https://maps.google.com/?cid=0x0:0xbe338fb17a9aff44";""
"supermarket";"Pasar Grosir Sayur";"Adil Group";"7HPV+4GJ, Jl. Koto Baru Sumani, Sumani, Kec. X Koto Singkarak, Kabupaten Solok, Sumatera Barat 27356";"Jl. Koto Baru Sumani, Sumani, Kec. X Koto Singkarak, Kabupaten Solok";"SUMATERA BARAT";"27356";"Indonesia";" 082388499995";"";"";"-0.7146659";"100.5937584";"https://maps.google.com/?cid=0x0:0xd338b82781d8f367";""
"supermarket";"";"Minimarket H. Amril";"Jl. Raya Padang - Solok No.16, Singkarak, Kec. X Koto Singkarak, Kabupaten Solok, Sumatera Barat";"Kabupaten Solok, Sumatera Barat";"SUMATERA BARAT";"";"Indonesia";"";"";"";"-0.6972638";"100.6021164";"https://maps.google.com/?cid=0x0:0x5b6b35fdd34d7314";""
"supermarket";"Grosir";"Toko RIZKY";"7HMR+QXQ, Sumani, Kec. X Koto Singkarak, Kabupaten Solok, Sumatera Barat 27356";"Sumani, Kec. X Koto Singkarak, Kabupaten Solok";"SUMATERA BARAT";"27356";"Indonesia";"";"";"";"-0.7155317";"100.5924846";"https://maps.google.com/?cid=0x0:0xbee98916bf950420";""
"supermarket";"Toko Swalayan";"Toko Farida";"8J7C+P6R, Jorong pintu Rayo, Kec. X Koto Singkarak, Kabupaten Solok, Sumatera Barat 27356";"Jorong pintu Rayo, Kec. X Koto Singkarak, Kabupaten Solok";"SUMATERA BARAT";"27356";"Indonesia";"";"";"";"-0.6856469";"100.6205118";"https://maps.google.com/?cid=0x0:0xfe91def3b4b2f526";""
"supermarket";"Toko Makanan";"Pusat Oleh Oleh Anugrah Cinangkiak";"Jl. Raya Padang - Solok, Sumani, Kec. X Koto Singkarak, Kabupaten Solok, Sumatera Barat 27361";"Sumani, Kec. X Koto Singkarak, Kabupaten Solok";"SUMATERA BARAT";"27361";"Indonesia";" 081267007456";"";"";"-0.7191556";"100.5986379";"https://maps.google.com/?cid=0x0:0x46f672fd78dbc7ff";""
"supermarket";"Toko makanan beku";"VISTANSA 4 FROZEN MART";"8J42+PR5, Singkarak, Kec. X Koto Singkarak, Kabupaten Solok, Sumatera Barat";"Kabupaten Solok, Sumatera Barat";"SUMATERA BARAT";"";"Indonesia";" 081396170282";"";"";"-0.6930314";"100.6020159";"https://maps.google.com/?cid=0x0:0x8ea823419899f3d6";""
"supermarket";"Toko sembako pemerintah";"Kadai udo";"8H8X+8VQ, Singkarak, Kec. X Koto Singkarak, Kabupaten Solok, Sumatera Barat 27356";"Singkarak, Kec. X Koto Singkarak, Kabupaten Solok";"SUMATERA BARAT";"27356";"Indonesia";"";"";"";"-0.6841603";"100.5997189";"https://maps.google.com/?cid=0x0:0xdfadbddf7934f56";""
"supermarket";"Toko Makanan";"Warung yosi dan duren jatuh pohon";"8J2F+HFM, Jl. Talago Pipik Data Bungo, Aripan, Kec. X Koto Singkarak, Kabupaten Solok, Sumatera Barat 27356";"Jl. Talago Pipik Data Bungo, Aripan, Kec. X Koto Singkarak, Kabupaten Solok";"SUMATERA BARAT";"27356";"Indonesia";"";"";"";"-0.6985308";"100.6236862";"https://maps.google.com/?cid=0x0:0x57e84a04df9a7d3b";""
"supermarket";"Pasar";"Pertokoan Pasar Sumani";"7HMV+F8R, Sumani, Kec. X Koto Singkarak, Kabupaten Solok, Sumatera Barat 27356";"Sumani, Kec. X Koto Singkarak, Kabupaten Solok";"SUMATERA BARAT";"27356";"Indonesia";"";"";"";"-0.7162635";"100.5932619";"https://maps.google.com/?cid=0x0:0x1fad4cb41081bf0";""
"supermarket";"Toko Swalayan";"Kedai Rafrin Enterprise";"7JCC+93J, Singkarak, Kec. X Koto Singkarak, Kabupaten Solok, Sumatera Barat 27361";"Singkarak, Kec. X Koto Singkarak, Kabupaten Solok";"SUMATERA BARAT";"27361";"Indonesia";"";"";"";"-0.7290295";"100.6201305";"https://maps.google.com/?cid=0x0:0x22cd937a50af4aba";""
"supermarket";"Toko";"Lapau Mak Nyak";"7HVJ+98X, Kapalo Labuh, Singkarak, Kec. X Koto Singkarak, Kabupaten Solok, Sumatera Barat";"Kabupaten Solok, Sumatera Barat";"SUMATERA BARAT";"";"Indonesia";" 081261991809";"";"";"-0.7065229";"100.5808589";"https://maps.google.com/?cid=0x0:0x13355109b938ff1f";""
"supermarket";"Toko umum";"Kios Ida (Tek Da)";"6JRF+F97, Singkarak, Kec. X Koto Singkarak, Kabupaten Solok, Sumatera Barat 27311";"Singkarak, Kec. X Koto Singkarak, Kabupaten Solok";"SUMATERA BARAT";"27311";"Indonesia";"";"";"";"-0.7588324";"100.6234166";"https://maps.google.com/?cid=0x0:0x41393422d7d27ae3";""
"supermarket";"Minimarket";"Qina mart";"Jl. Prof. Dr. Moh. Yamin Sh, Ps. Pandan Air Mati, Kec. Tj. Harapan, Kota Solok, Sumatera Barat 27317";"Ps. Pandan Air Mati, Kec. Tj. Harapan, Kota Solok";"SUMATERA BARAT";"27317";"Indonesia";" 0895630040777";"";"";"-0.7894316";"100.6617517";"https://maps.google.com/?cid=0x0:0x50658309b7ce5d2c";""
"supermarket";"Toko Makanan";"Katupek Gulai Padeh";"Jalan Jenderal Sudirman, Singkarak, X Koto Singkarak, Solok Regency, West Sumatra 27111";"Singkarak, X Koto Singkarak, Solok Regency";"SUMATERA BARAT";"27111";"Indonesia";" 082241357709";"";"";"-0.7076375";"100.5971013";"https://maps.google.com/?cid=0x0:0x87a9f1641b4ecb62";""
"supermarket";"Pusat Perbelanjaan";"TOKO CINDO MART";"6M76+683, Jl. Cindua Mato, Ps. Pandan Air Mati, Kec. Tj. Harapan, Kota Solok, Sumatera Barat 27317";"Jl. Cindua Mato, Ps. Pandan Air Mati, Kec. Tj. Harapan, Kota Solok";"SUMATERA BARAT";"27317";"Indonesia";" 081276040507";"";"";"-0.7869756";"100.6607924";"https://maps.google.com/?cid=0x0:0x4c9b22f37a9debd0";""
"supermarket";"Toko Makanan";"Warung Fitri";"8H56+8X2, Unnamed Road, Saniangbaka, Kec. X Koto Singkarak, Kabupaten Solok, Sumatera Barat 27356";"Unnamed Road, Saniangbaka, Kec. X Koto Singkarak, Kabupaten Solok";"SUMATERA BARAT";"27356";"Indonesia";" 082169163663";"";"";"-0.6917284";"100.5623921";"https://maps.google.com/?cid=0x0:0xd26481ed4f79adaf";""
"supermarket";"supermarket";"Kec. X Koto Singkarak";"Kabupaten Solok, Sumatera Barat";"Kabupaten Solok, Sumatera Barat";"SUMATERA BARAT";"";"Indonesia";"";"";"";"-0.6932269";"100.6021191";"https://maps.google.com/?cid=0x0:0x8ad0b8c879eacf02";""
"supermarket";"Minimarket";"Jn Mart Collection";"6MQ3+XGP, Jl. Tembok Raya, Laing, Kec. Tj. Harapan, Kota Solok, Sumatera Barat 27325";"Jl. Tembok Raya, Laing, Kec. Tj. Harapan, Kota Solok";"SUMATERA BARAT";"27325";"Indonesia";" 085364588468";"";"";"-0.7600334";"100.6538429";"https://maps.google.com/?cid=0x0:0x87fe537f062aa193";""
"supermarket";"supermarket";"Sumatera Barat 27381";"Kec. Bukit Sundi, Kabupaten Solok, Sumatera Barat";"Kabupaten Solok, Sumatera Barat";"SUMATERA BARAT";"";"Indonesia";"";"";"";"-0.880482";"100.7210593";"https://maps.google.com/?cid=0x0:0x506d7d81f0bcc0ca";""
"supermarket";"Toko Swalayan";"Shanum Mart";"Simp. Balai, Nagari Parambahan, Kec. Bukit Sundi, 27382, Kinari, Kec. Bukit Sundi, Kabupaten Solok, Sumatera Barat 27381";"Nagari Parambahan, Kec. Bukit Sundi,";"SUMATERA BARAT";"27382";"Indonesia";"";"";"";"-0.8806009";"100.712481";"https://maps.google.com/?cid=0x0:0x3c002dc760e3fb3f";""
"supermarket";"Toko Swalayan";"KEDAI SIMPATI";"4M4R+Q9P, Muaro Paneh, Kec. Bukit Sundi, Kabupaten Solok, Sumatera Barat 27381";"Muaro Paneh, Kec. Bukit Sundi, Kabupaten Solok";"SUMATERA BARAT";"27381";"Indonesia";" 082268813381";"";"";"-0.8930278";"100.6909472";"https://maps.google.com/?cid=0x0:0x518689853e0fcdfa";""
"supermarket";"Toko Swalayan";"SRC SANTI";"5P53+7QQ, Jl. Solok - Alahan Panjang, Bukit Tandang, Kec. Bukit Sundi, Kabupaten Solok, Sumatera Barat 27381";"Jl. Solok - Alahan Panjang, Bukit Tandang, Kec. Bukit Sundi, Kabupaten Solok";"SUMATERA BARAT";"27381";"Indonesia";" 082288439417";"";"";"-0.8417847";"100.7044695";"https://maps.google.com/?cid=0x0:0xc1c3e86dcf169018";""
"supermarket";"Toko Swalayan";"Toko Nusa Prima (NP)";"Panyakalan, Kec. Kubung, Kabupaten Solok, Sumatera Barat 27361";"Kec. Kubung, Kabupaten Solok";"SUMATERA BARAT";"27361";"Indonesia";" 08126728402";"";"";"-0.8276462";"100.6944259";"https://maps.google.com/?cid=0x0:0xd6eaffe6e77c5208";""
"supermarket";"Toko bahan makanan";"Src intan";"3PQR+CXM, Jl. Solok - Alahan Panjang, kubng nan duo, Sirukam, Kec. Payung Sekaki, Kabupaten Solok, Sumatera Barat 27381";"Jl. Solok - Alahan Panjang, kubng nan duo, Sirukam, Kec. Payung Sekaki, Kabupaten Solok";"SUMATERA BARAT";"27381";"Indonesia";" 082283182815";"";"";"-0.9114079";"100.7424231";"https://maps.google.com/?cid=0x0:0x51e61fb300bf85ce";""
"supermarket";"Toko Swalayan";"SRC PIS";"jl. Raya Muara Panas - Koto Baru. Koto Panjang, Muara Panas, Koto Baru, Kec. Kubung, Kabupaten Solok, Sumatera Barat 27381";"Muara Panas, Koto Baru, Kec. Kubung, Kabupaten Solok";"SUMATERA BARAT";"27381";"Indonesia";"";"";"";"-0.8479233";"100.6838392";"https://maps.google.com/?cid=0x0:0x8574a41417409946";""
"supermarket";"Minimarket";"ERZAMart";"Kinari, Kec. Bukit Sundi, Kabupaten Solok, Sumatera Barat 27381";"Kec. Bukit Sundi, Kabupaten Solok";"SUMATERA BARAT";"27381";"Indonesia";" 081277636298";"";"";"-0.8811515";"100.7114952";"https://maps.google.com/?cid=0x0:0x31ce4c99f332b302";""
"supermarket";"Toko";"Toko Ari Dini";"Perhentian bendi, Jl. Tangah Muara Panas, Panyakalan, Kec. Bukit Sundi, Kabupaten Solok, Sumatera Barat 27449";"Jl. Tangah Muara Panas, Panyakalan, Kec. Bukit Sundi, Kabupaten Solok";"SUMATERA BARAT";"27449";"Indonesia";" 082387302171";"";"";"-0.8130473";"100.6756874";"https://maps.google.com/?cid=0x0:0xe799df4843459747";""
"supermarket";"Toko umum";"Mini Market Berkah Mart - Komputer/Laptop  Travel - BRILink";"simpang sikuai, kubang nan duo, Kec. Payung Sekaki, Kabupaten Solok, Sumatera Barat 27381";"kubang nan duo, Kec. Payung Sekaki, Kabupaten Solok";"SUMATERA BARAT";"27381";"Indonesia";" 081267851962";"";"";"-0.9159853";"100.7425425";"https://maps.google.com/?cid=0x0:0x63449a47bc046094";""
"supermarket";"Pusat Perbelanjaan";"MiniMarket Berkat Yakin";"2PR9+R6H, Jl. Solok - Danau Kembar, Bukit Sileh, Kec. Lembang Jaya, Kabupaten Solok, Sumatera Barat 27383";"Jl. Solok - Danau Kembar, Bukit Sileh, Kec. Lembang Jaya, Kabupaten Solok";"SUMATERA BARAT";"27383";"Indonesia";" 085263843642";"";"";"-0.9579406";"100.7181191";"https://maps.google.com/?cid=0x0:0x4c16fa2e5214430";""
"supermarket";"Toko bahan makanan";"Toko Ken";"Jl. Pulai, Simpang Rumbio, Kec. Lubuk Sikarah, Kabupaten Solok, Sumatera Barat 27316";"Simpang Rumbio, Kec. Lubuk Sikarah, Kabupaten Solok";"SUMATERA BARAT";"27316";"Indonesia";" 085274642434";"";"";"-0.8006464";"100.6673451";"https://maps.google.com/?cid=0x0:0xb481cfbaf0b56e44";""
"supermarket";"Toko bahan makanan";"Usaha kerupuk Ubi dasril";"5MCM+4PJ, Panyakalan, Kec. Bukit Sundi, Kabupaten Solok, Sumatera Barat 27361";"Panyakalan, Kec. Bukit Sundi, Kabupaten Solok";"SUMATERA BARAT";"27361";"Indonesia";" 083867040028";"";"";"-0.8284408";"100.684356";"https://maps.google.com/?cid=0x0:0x2ea7188b1d2fc1f3";""
"supermarket";"Toko Buah dan Sayur";"Warung Buah Alex";"4P5R+3P8, Parambahan, Kec. Bukit Sundi, Kabupaten Solok, Sumatera Barat 27381";"Parambahan, Kec. Bukit Sundi, Kabupaten Solok";"SUMATERA BARAT";"27381";"Indonesia";"";"";"";"-0.8923499";"100.7418247";"https://maps.google.com/?cid=0x0:0x321dea2ba7a94c64";""
"supermarket";"Pusat Perbelanjaan";"Otinova Mart";"5MHQ+GMH, Panyakalan, Kec. Kubung, Kabupaten Solok, Sumatera Barat 27361";"Panyakalan, Kec. Kubung, Kabupaten Solok";"SUMATERA BARAT";"27361";"Indonesia";"";"";"";"-0.821178";"100.6892384";"https://maps.google.com/?cid=0x0:0x8b9bdd107ff4ac1a";""
"supermarket";"Toko bahan makanan";"Warung Nayara";"5P66+298, Unnamed Road, Muaro Paneh, Kec. Bukit Sundi, Kabupaten Solok, Sumatera Barat 27381";"Unnamed Road, Muaro Paneh, Kec. Bukit Sundi, Kabupaten Solok";"SUMATERA BARAT";"27381";"Indonesia";" 081266141168";"";"";"-0.839965";"100.71095";"https://maps.google.com/?cid=0x0:0x4130e6d98117d551";""
"supermarket";"Grosir";"Toko Mm";"5MMJ+QX9, Jl. Raya Panyakalan, Panyakalan, Kec. Kubung, Kabupaten Solok, Sumatera Barat 27361";"Jl. Raya Panyakalan, Panyakalan, Kec. Kubung, Kabupaten Solok";"SUMATERA BARAT";"27361";"Indonesia";"";"";"";"-0.8155821";"100.6824856";"https://maps.google.com/?cid=0x0:0xad8a696f62e23600";""
"supermarket";"Toko umum";"Lapau Ama";"4P3G+CJ3 Simpan Limau Manis, Jorong Batu Sangkar, Dilam, Kec. Bukit Sundi, Kabupaten Solok, Sumatera Barat 27381";"Jorong Batu Sangkar, Dilam, Kec. Bukit Sundi, Kabupaten Solok";"SUMATERA BARAT";"27381";"Indonesia";"";"";"";"-0.8964975";"100.7265485";"https://maps.google.com/?cid=0x0:0x70285b29af942ce0";""
"supermarket";"Toko";"Toko KARISMA";"4P39+RR2, Kinari, Kec. Bukit Sundi, Kabupaten Solok, Sumatera Barat 27381";"Kinari, Kec. Bukit Sundi, Kabupaten Solok";"SUMATERA BARAT";"27381";"Indonesia";"";"";"";"-0.8954415";"100.7194358";"https://maps.google.com/?cid=0x0:0x786a197a8d6feace";""
"supermarket";"Toko";"Kedai Opung Nabila";"5PM2+RV8, Tabueh, Jl. Hilir Bandar, Panyakalan, Kec. Kubung, Kabupaten Solok, Sumatera Barat 27361";"Tabueh, Jl. Hilir Bandar, Panyakalan, Kec. Kubung, Kabupaten Solok";"SUMATERA BARAT";"27361";"Indonesia";" 085274131286";"";"";"-0.8154596";"100.702192";"https://maps.google.com/?cid=0x0:0x7fa36fc271cfb444";""
"supermarket";"Minimarket";"Toko ZK";"Jl. Samping SMPN01, Muaro Paneh, Kec. Bukit Sundi, Kabupaten Solok, Sumatera Barat 27381";"Muaro Paneh, Kec. Bukit Sundi, Kabupaten Solok";"SUMATERA BARAT";"27381";"Indonesia";" 085375076133";"";"";"-0.8494101";"100.6934132";"https://maps.google.com/?cid=0x0:0x1fccbf9b23c1980f";""
"supermarket";"Toko umum";"Kedai nila limau lunggo";"3PH2+PQ5, Limau Lunggo, Kec. Lembang Jaya, Kabupaten Solok, Sumatera Barat 27381";"Limau Lunggo, Kec. Lembang Jaya, Kabupaten Solok";"SUMATERA BARAT";"27381";"Indonesia";"";"";"";"-0.9207477";"100.7019706";"https://maps.google.com/?cid=0x0:0x8ebd16eafa58323a";""
"supermarket";"Minimarket";"Haikal Swalayan";"Jl. Pulai, Simpang Rumbio, Kec. Lubuk Sikarah, Kota Solok, Sumatera Barat 27216";"Simpang Rumbio, Kec. Lubuk Sikarah, Kota Solok";"SUMATERA BARAT";"27216";"Indonesia";"";"";"";"-0.8028651";"100.6693338";"https://maps.google.com/?cid=0x0:0x33dc502f54236161";""
"supermarket";"Bengkel Sepeda Motor";"Vareasi motor  Ampar Besi Edo";"3PRR+4JG, Dilam, Kec. Bukit Sundi, Kabupaten Solok, Sumatera Barat 27381";"Dilam, Kec. Bukit Sundi, Kabupaten Solok";"SUMATERA BARAT";"27381";"Indonesia";"";"";"";"-0.9096933";"100.7415658";"https://maps.google.com/?cid=0x0:0xe6583f9e8977f84b";""
"supermarket";"Toko bahan makanan";"toko berlianie";"2PXH+5JJ, jalan taratak baru, Koto Laweh, Kec. Lembang Jaya, Kabupaten Solok, Sumatera Barat 27383";"jalan taratak baru, Koto Laweh, Kec. Lembang Jaya, Kabupaten Solok";"SUMATERA BARAT";"27383";"Indonesia";" 081374244453";"";"";"-0.9520348";"100.7290011";"https://maps.google.com/?cid=0x0:0xb886bd17a6b5157b";""
"supermarket";"Toko Swalayan";"Warung Nena";"4M5R+45Q, Jl. Solok - Danau Kembar, Koto Gadang Koto Anau, Kec. Lembang Jaya, Kabupaten Solok, Sumatera Barat 27383";"Jl. Solok - Danau Kembar, Koto Gadang Koto Anau, Kec. Lembang Jaya, Kabupaten Solok";"SUMATERA BARAT";"27383";"Indonesia";" 082384340027";"";"";"-0.8921562";"100.690493";"https://maps.google.com/?cid=0x0:0x4168d00c09c5f79a";""
"supermarket";"Pusat Perbelanjaan";"Toko PD Bintang Kembar";"6M28+GQH, Simpang Rumbio, Kec. Lubuk Sikarah, Kota Solok, Sumatera Barat 27316";"Simpang Rumbio, Kec. Lubuk Sikarah, Kota Solok";"SUMATERA BARAT";"27316";"Indonesia";"";"";"";"-0.7986852";"100.6669866";"https://maps.google.com/?cid=0x0:0x3cc2d6dfe8828401";""
"supermarket";"Toko bahan makanan";"Toko ARDI";"Koto Baru, Kec. Kubung, Kabupaten Solok, Sumatera Barat 27361";"Kec. Kubung, Kabupaten Solok";"SUMATERA BARAT";"27361";"Indonesia";"";"";"";"-0.8505508";"100.6910564";"https://maps.google.com/?cid=0x0:0xee6d1edef52be083";""
"supermarket";"Toko bahan makanan";"Toko RAFLI";"3MMJ+Q74, Aie Angek Koto Gadang, Koto Gadang Koto Anau, Kec. Lembang Jaya, Kabupaten Solok, Sumatera Barat 27365";"Aie Angek Koto Gadang, Koto Gadang Koto Anau, Kec. Lembang Jaya, Kabupaten Solok";"SUMATERA BARAT";"27365";"Indonesia";" 082285008997";"";"";"-0.9156085";"100.6807045";"https://maps.google.com/?cid=0x0:0xca0665ae1e422eb4";""
"supermarket";"supermarket";"Sumatera Barat 27383";"Kabupaten Solok, Sumatera Barat";"Kabupaten Solok, Sumatera Barat";"SUMATERA BARAT";"";"Indonesia";"";"";"";"-1.0496283";"100.6985155";"https://maps.google.com/?cid=0x0:0x1091eb0d7b49db43";""
"supermarket";"Pusat Perbelanjaan";"MiniMarket Berkat Yakin";"2PR9+R6H, Jl. Solok - Danau Kembar, Bukit Sileh, Kec. Lembang Jaya, Kabupaten Solok, Sumatera Barat 27383";"Jl. Solok - Danau Kembar, Bukit Sileh, Kec. Lembang Jaya, Kabupaten Solok";"SUMATERA BARAT";"27383";"Indonesia";" 085263843642";"";"";"-0.9579406";"100.7181191";"https://maps.google.com/?cid=0x0:0x4c16fa2e5214430";""
"supermarket";"Toko";"Global Mart";"WPXP+3JG, Jalan Padang - Alahan Panjang, Kenagarian, Simpang Tj. Nan IV, Kec. Danau Kembar, Kabupaten Solok, Sumatera Barat 27384";"Jalan Padang - Alahan Panjang, Kenagarian, Simpang Tj. Nan IV, Kec. Danau Kembar, Kabupaten Solok";"SUMATERA BARAT";"27384";"Indonesia";" 081266836666";"";"";"-1.0523061";"100.7365931";"https://maps.google.com/?cid=0x0:0xcfdcf99ce952781f";""
"supermarket";"Toko Pakaian";"Toko Qowy Muhty";"XPGF+7H8, Jl. Solok - Danau Kembar, Kp. Batu Dalam, Kec. Danau Kembar, Kabupaten Solok, Sumatera Barat";"Kabupaten Solok, Sumatera Barat";"SUMATERA BARAT";"";"Indonesia";" 081374721754";"";"";"-1.0243317";"100.7239682";"https://maps.google.com/?cid=0x0:0x1dd58b6662e284cd";""
"supermarket";"Toko Swalayan";"kadai pemi";"XPFF+RQ6, Jl. Solok - Danau Kembar, Kp. Batu Dalam, Kec. Danau Kembar, Kabupaten Solok, Sumatera Barat 27383";"Jl. Solok - Danau Kembar, Kp. Batu Dalam, Kec. Danau Kembar, Kabupaten Solok";"SUMATERA BARAT";"27383";"Indonesia";"";"";"";"-1.0254665";"100.7243796";"https://maps.google.com/?cid=0x0:0x2943da0a43956437";""
"supermarket";"Toko bahan makanan";"toko berlianie";"2PXH+5JJ, jalan taratak baru, Koto Laweh, Kec. Lembang Jaya, Kabupaten Solok, Sumatera Barat 27383";"jalan taratak baru, Koto Laweh, Kec. Lembang Jaya, Kabupaten Solok";"SUMATERA BARAT";"27383";"Indonesia";" 081374244453";"";"";"-0.9520348";"100.7290011";"https://maps.google.com/?cid=0x0:0xb886bd17a6b5157b";""
"supermarket";"Minimarket";"Ulfa Hafiz Mart";"Jl. Rimbo Data, Sungai Nanam, Kec. Lembah Gumanti, Kabupaten Solok, Sumatera Barat 27371";"Sungai Nanam, Kec. Lembah Gumanti, Kabupaten Solok";"SUMATERA BARAT";"27371";"Indonesia";" 085239894774";"";"";"-0.9987441";"100.7748518";"https://maps.google.com/?cid=0x0:0x73c14dad7d48f477";""
"supermarket";"Toko Swalayan";"Warung Nena";"4M5R+45Q, Jl. Solok - Danau Kembar, Koto Gadang Koto Anau, Kec. Lembang Jaya, Kabupaten Solok, Sumatera Barat 27383";"Jl. Solok - Danau Kembar, Koto Gadang Koto Anau, Kec. Lembang Jaya, Kabupaten Solok";"SUMATERA BARAT";"27383";"Indonesia";" 082384340027";"";"";"-0.8921562";"100.690493";"https://maps.google.com/?cid=0x0:0x4168d00c09c5f79a";""
"supermarket";"Grosir Barang Kelontong";"Toko Sofi";"XQ5G+4HP, Jl. Sp Kulik Manih - Taratak Pauah, Alahan Panjang, Kec. Lembah Gumanti, Kabupaten Solok, Sumatera Barat 27371";"Jl. Sp Kulik Manih - Taratak Pauah, Alahan Panjang, Kec. Lembah Gumanti, Kabupaten Solok";"SUMATERA BARAT";"27371";"Indonesia";"";"";"";"-1.0421671";"100.7764566";"https://maps.google.com/?cid=0x0:0x789634738cb5cb44";""
"supermarket";"Toko bahan makanan";"DINI MART";"WQQM+MQ2, Jl. Gajah Mada No. Bukik rampuang, Alahan Panjang, Kec. Lembah Gumanti, Kabupaten Solok, Sumatera Barat 27371";"Jl. Gajah Mada No. Bukik rampuang, Alahan Panjang, Kec. Lembah Gumanti, Kabupaten Solok";"SUMATERA BARAT";"27371";"Indonesia";" 081267717778";"";"";"-1.060872";"100.784375";"https://maps.google.com/?cid=0x0:0x31fef86305a1767f";""
"supermarket";"Toko bahan makanan";"Toko Welza";"2P67+H55, Jl. Solok - Danau Kembar, Batu Bajanjang, Kec. Lembang Jaya, Kabupaten Solok, Sumatera Barat 27383";"Jl. Solok - Danau Kembar, Batu Bajanjang, Kec. Lembang Jaya, Kabupaten Solok";"SUMATERA BARAT";"27383";"Indonesia";" 085274453523";"";"";"-0.9886055";"100.7129918";"https://maps.google.com/?cid=0x0:0x288f6cf8f793cd00";""
"supermarket";"Toko bahan makanan";"Kedai Buk Nis";"XQ7H+9RM, Sungai Nanam, Kec. Lembah Gumanti, Kabupaten Solok, Sumatera Barat 27371";"Sungai Nanam, Kec. Lembah Gumanti, Kabupaten Solok";"SUMATERA BARAT";"27371";"Indonesia";" 082170323791";"";"";"-1.0365311";"100.7795382";"https://maps.google.com/?cid=0x0:0xf0c4a8784ebde190";""
"supermarket";"Toko bahan makanan";"Jaya Tani";"Jl. Lkr. Danau Diatas, Alahan Panjang, Kec. Lembah Gumanti, Kabupaten Solok, Sumatera Barat";"Kabupaten Solok, Sumatera Barat";"SUMATERA BARAT";"";"Indonesia";" 081374550915";"";"";"-1.1031331";"100.7707703";"https://maps.google.com/?cid=0x0:0xac6011476581cd73";""
"supermarket";"Toko Swalayan";"MARDHATILLAH";"Jl. Gajah Mada, Alahan Panjang, Kec. Lembah Gumanti, Kabupaten Solok, Sumatera Barat 27371";"Alahan Panjang, Kec. Lembah Gumanti, Kabupaten Solok";"SUMATERA BARAT";"27371";"Indonesia";" 081267602223";"";"";"-1.0506909";"100.7815247";"https://maps.google.com/?cid=0x0:0x4e4fcb2973044e27";""
"supermarket";"Toko bahan makanan";"Kedai NADAZAFRANS";"VQWG+MJJ, Jl. Batang Hari, Alahan Panjang, Kec. Lembah Gumanti, Kabupaten Solok, Sumatera Barat";"Kabupaten Solok, Sumatera Barat";"SUMATERA BARAT";"";"Indonesia";"";"";"";"-1.1032893";"100.7765093";"https://maps.google.com/?cid=0x0:0x38354de3d1cac80c";""
"supermarket";"Toko Herbal";"Distributor ECO RACING";"XQ2J+R82, Jl. Gajah Mada, Sungai Nanam, Kec. Lembah Gumanti, Kabupaten Solok, Sumatera Barat 27371";"Jl. Gajah Mada, Sungai Nanam, Kec. Lembah Gumanti, Kabupaten Solok";"SUMATERA BARAT";"27371";"Indonesia";" 082392030114";"";"";"-1.0479833";"100.780773";"https://maps.google.com/?cid=0x0:0x75690a52c6a8a75d";""
"supermarket";"Pasar Petani";"Sus/Ummi Zulfa";"WQ5M+W2P, Jalan Padang, Alahan Panjang, Lembah Gumanti, Solok Regency, West Sumatra 27371";"Jalan Padang, Alahan Panjang, Lembah Gumanti, Solok Regency";"SUMATERA BARAT";"27371";"Indonesia";" 082385154770";"";"";"-1.0901501";"100.7825922";"https://maps.google.com/?cid=0x0:0x2db0cc7fb5f18f16";""
"supermarket";"Toko Swalayan";"KEDAI SIMPATI";"4M4R+Q9P, Muaro Paneh, Kec. Bukit Sundi, Kabupaten Solok, Sumatera Barat 27381";"Muaro Paneh, Kec. Bukit Sundi, Kabupaten Solok";"SUMATERA BARAT";"27381";"Indonesia";" 082268813381";"";"";"-0.8930278";"100.6909472";"https://maps.google.com/?cid=0x0:0x518689853e0fcdfa";""
"supermarket";"Pusat Perbelanjaan";"Toko Anjeli tani";"XQCG+MMQ, Sungai Nanam, Kec. Lembah Gumanti, Kabupaten Solok, Sumatera Barat 27371";"Sungai Nanam, Kec. Lembah Gumanti, Kabupaten Solok";"SUMATERA BARAT";"27371";"Indonesia";"";"";"";"-1.02829";"100.7767256";"https://maps.google.com/?cid=0x0:0xe6e4fbc2fb9f7e2a";""
"supermarket";"Toko umum";"Kedai nila limau lunggo";"3PH2+PQ5, Limau Lunggo, Kec. Lembang Jaya, Kabupaten Solok, Sumatera Barat 27381";"Limau Lunggo, Kec. Lembang Jaya, Kabupaten Solok";"SUMATERA BARAT";"27381";"Indonesia";"";"";"";"-0.9207477";"100.7019706";"https://maps.google.com/?cid=0x0:0x8ebd16eafa58323a";""
"supermarket";"Minimarket";"Sahabat Mart";"WPWG+F47, Simpang Tj. Nan IV, Kec. Danau Kembar, Kabupaten Solok, Sumatera Barat 27383";"Simpang Tj. Nan IV, Kec. Danau Kembar, Kabupaten Solok";"SUMATERA BARAT";"27383";"Indonesia";"";"";"";"-1.0537849";"100.7252895";"https://maps.google.com/?cid=0x0:0x27661fb36f595e01";""
"supermarket";"Pusat Perbelanjaan";"Toko PD Bintang Kembar";"6M28+GQH, Simpang Rumbio, Kec. Lubuk Sikarah, Kota Solok, Sumatera Barat 27316";"Simpang Rumbio, Kec. Lubuk Sikarah, Kota Solok";"SUMATERA BARAT";"27316";"Indonesia";"";"";"";"-0.7986852";"100.6669866";"https://maps.google.com/?cid=0x0:0x3cc2d6dfe8828401";""
"supermarket";"Toko bahan makanan";"Toko AL STM";"XMFF+CCF, Air Batumbuk, Kec. Gn. Talang, Kabupaten Solok, Sumatera Barat 27365";"Air Batumbuk, Kec. Gn. Talang, Kabupaten Solok";"SUMATERA BARAT";"27365";"Indonesia";"";"";"";"-1.0264495";"100.6735603";"https://maps.google.com/?cid=0x0:0x9e0cbae48cc953aa";""
"supermarket";"Minimarket";"IQ Mini Mart";"4J2W+97F, Jl. Lintas Sumatera, Talang, Kec. Gn. Talang, Kabupaten Solok, Sumatera Barat 27365";"Jl. Lintas Sumatera, Talang, Kec. Gn. Talang, Kabupaten Solok";"SUMATERA BARAT";"27365";"Indonesia";" 082174765162";"";"";"-0.8990694";"100.6456836";"https://maps.google.com/?cid=0x0:0x914400d046be08a2";""
"supermarket";"Toko Swalayan";"Mini Market 4 Saudara";"4J9W+J7M, Jl. Sungai Rotan, Talang, Kec. Gn. Talang, Kabupaten Solok, Sumatera Barat 27365";"Jl. Sungai Rotan, Talang, Kec. Gn. Talang, Kabupaten Solok";"SUMATERA BARAT";"27365";"Indonesia";" 082286693424";"";"";"-0.8809168";"100.6456832";"https://maps.google.com/?cid=0x0:0xddecc38ebe810986";""
"supermarket";"Minimarket";"As Kelapa";"Talang, Kec. Gn. Talang, Kabupaten Solok, Sumatera Barat 27364";"Kec. Gn. Talang, Kabupaten Solok";"SUMATERA BARAT";"27364";"Indonesia";" 082211519709";"";"";"-0.8843359";"100.6426177";"https://maps.google.com/?cid=0x0:0x70c73ebc7e47dc80";""
"supermarket";"Toko bahan makanan";"Toko AL STM";"XMFF+CCF, Air Batumbuk, Kec. Gn. Talang, Kabupaten Solok, Sumatera Barat 27365";"Air Batumbuk, Kec. Gn. Talang, Kabupaten Solok";"SUMATERA BARAT";"27365";"Indonesia";"";"";"";"-1.0264495";"100.6735603";"https://maps.google.com/?cid=0x0:0x9e0cbae48cc953aa";""
"supermarket";"Minimarket";"Mini Market Amanah";"3JXW+7GR, Talang, Kec. Gn. Talang, Kabupaten Solok, Sumatera Barat 27365";"Talang, Kec. Gn. Talang, Kabupaten Solok";"SUMATERA BARAT";"27365";"Indonesia";"";"";"";"-0.901756";"100.6462809";"https://maps.google.com/?cid=0x0:0x30f0c30555ec12ba";""
"supermarket";"Minimarket";"Gindo Mart";"3MM8+833, Sungai Janiah, Kec. Gn. Talang, Kabupaten Solok, Sumatera Barat 27365";"Sungai Janiah, Kec. Gn. Talang, Kabupaten Solok";"SUMATERA BARAT";"27365";"Indonesia";"";"";"";"-0.9167275";"100.6651604";"https://maps.google.com/?cid=0x0:0x61959e031e7e45c0";""
"supermarket";"Toko grosir";"Grosir Linda";"4J69+G3R, Jl. Pinang Sinawa - Lakuak, Jawi Jawi, Kec. Gn. Talang, Kabupaten Solok, Sumatera Barat 27365";"Jl. Pinang Sinawa - Lakuak, Jawi Jawi, Kec. Gn. Talang, Kabupaten Solok";"SUMATERA BARAT";"27365";"Indonesia";" 081266135532";"";"";"-0.8886466";"100.617655";"https://maps.google.com/?cid=0x0:0x961686b97630fe0b";""
"supermarket";"Minimarket";"Ghina Mart";"2JQ5+8W2, Jl. Lintas Sumatera, Batang Barus, Kec. Gn. Talang, Kabupaten Solok, Sumatera Barat 27365";"Jl. Lintas Sumatera, Batang Barus, Kec. Gn. Talang, Kabupaten Solok";"SUMATERA BARAT";"27365";"Indonesia";" 085263042613";"";"";"-0.9617264";"100.6097701";"https://maps.google.com/?cid=0x0:0x1af84d003e2a502b";""
"supermarket";"Minimarket";"Q-mart";"Talang, sawah ujuang, Kabupaten Solok, Sumatera Barat 27365";"sawah ujuang, Kabupaten Solok";"SUMATERA BARAT";"27365";"Indonesia";" 081364389104";"";"";"-0.908065";"100.6415706";"https://maps.google.com/?cid=0x0:0x2b9486e6eb9d7df0";""
"supermarket";"Toko Buah Kering";"Sejiwa Mart";"Lubuk Selasih, Kec. Gn. Talang, Kabupaten Solok, Sumatera Barat 27365";"Kec. Gn. Talang, Kabupaten Solok";"SUMATERA BARAT";"27365";"Indonesia";" 082174768712";"";"";"-0.96425";"100.5925227";"https://maps.google.com/?cid=0x0:0xb5330c4cc6a8b4c2";""
"supermarket";"Toko bahan makanan";"4R Minimarket";"Jalan Raya Padang - Solok, Kenagarian, Koto Gadang Guguak, Kec. Gn. Talang, Kabupaten Solok, Sumatera Barat 27365";"Kenagarian, Koto Gadang Guguak, Kec. Gn. Talang, Kabupaten Solok";"SUMATERA BARAT";"27365";"Indonesia";" 085355007425";"";"";"-0.9412246";"100.6272793";"https://maps.google.com/?cid=0x0:0xb57437cf33054838";""
"supermarket";"supermarket";"Kec. Hiliran Gumanti";"Kabupaten Solok, Sumatera Barat";"Kabupaten Solok, Sumatera Barat";"SUMATERA BARAT";"";"Indonesia";"";"";"";"-1.0918005";"100.8747525";"https://maps.google.com/?cid=0x0:0x4039d80b220e1f0";""
"supermarket";"Toko bahan makanan";"Sarasah Gumanti";"WV4G+J9R, Talang Babungo, Kec. Hiliran Gumanti, Kabupaten Solok, Sumatera Barat 27372";"Talang Babungo, Kec. Hiliran Gumanti, Kabupaten Solok";"SUMATERA BARAT";"27372";"Indonesia";"";"";"";"-1.093398";"100.8759038";"https://maps.google.com/?cid=0x0:0xb3d2377db81d6d1d";""
"supermarket";"Toko Swalayan";"Warung Buk El";"WV8F+RJ5, Talang Babungo, Kec. Hiliran Gumanti, Kabupaten Solok, Sumatera Barat 27372";"Talang Babungo, Kec. Hiliran Gumanti, Kabupaten Solok";"SUMATERA BARAT";"27372";"Indonesia";"";"";"";"-1.0829805";"100.874097";"https://maps.google.com/?cid=0x0:0xca7275f504f277fd";""
"supermarket";"Toko bahan makanan";"Simpang Bulakkan";"WV5F+H9J, Talang Babungo, Kec. Hiliran Gumanti, Kabupaten Solok, Sumatera Barat 27372";"Talang Babungo, Kec. Hiliran Gumanti, Kabupaten Solok";"SUMATERA BARAT";"27372";"Indonesia";"";"";"";"-1.0910516";"100.8734205";"https://maps.google.com/?cid=0x0:0x9c9fa43eb43da239";""
"supermarket";"Pasar";"Sungai Pangalek Market";"VWFW+49P, Unnamed Road, Sariak Alahan Tigo, Kec. Hiliran Gumanti, Kabupaten Solok, Sumatera Barat 27372";"Unnamed Road, Sariak Alahan Tigo, Kec. Hiliran Gumanti, Kabupaten Solok";"SUMATERA BARAT";"27372";"Indonesia";"";"";"";"-1.1271529";"100.9459434";"https://maps.google.com/?cid=0x0:0xb3cbc78e2b3a0b46";""
"supermarket";"Kafe";"Janani";"Talang Babungo, Kec. Hiliran Gumanti, Kabupaten Solok, Sumatera Barat 27372";"Kec. Hiliran Gumanti, Kabupaten Solok";"SUMATERA BARAT";"27372";"Indonesia";" 085220400977";"";"";"-1.0917994";"100.8755644";"https://maps.google.com/?cid=0x0:0x65c3a5b78d1597d8";""
"supermarket";"Toko bahan makanan";"Kedai Wina  Gina (Mimid)";"WV4G+8VM, Talang Babungo, Kec. Hiliran Gumanti, Kabupaten Solok, Sumatera Barat 27372";"Talang Babungo, Kec. Hiliran Gumanti, Kabupaten Solok";"SUMATERA BARAT";"27372";"Indonesia";"";"";"";"-1.0941608";"100.8771789";"https://maps.google.com/?cid=0x0:0x3ffad9e9f96d0ecf";""
"supermarket";"Minimarket";"Berkah Frozen food dan ACC";"WV4G+R5X, Jl. Alahan Panjang - Talang Babungo, Talang Babungo, Kec. Hiliran Gumanti, Kabupaten Solok, Sumatera Barat 27372";"Jl. Alahan Panjang - Talang Babungo, Talang Babungo, Kec. Hiliran Gumanti, Kabupaten Solok";"SUMATERA BARAT";"27372";"Indonesia";"";"";"";"-1.092879";"100.8754761";"https://maps.google.com/?cid=0x0:0x3e81a41b0ca68042";""
"supermarket";"Pasar tradisional";"pasar sariak ateh";"VW8R+6GJ, Sariak Alahan Tigo, Kec. Hiliran Gumanti, Kabupaten Solok, Sumatera Barat 27372";"Sariak Alahan Tigo, Kec. Hiliran Gumanti, Kabupaten Solok";"SUMATERA BARAT";"27372";"Indonesia";"";"";"";"-1.1344139";"100.9412668";"https://maps.google.com/?cid=0x0:0x31b29f329521aa75";""
"supermarket";"Toko Perlengkapan Rumah";"kedai reni and fauzi";"VWH8+8CQ, Sariak Alahan Tigo, Kec. Hiliran Gumanti, Kabupaten Solok, Sumatera Barat 27372";"Sariak Alahan Tigo, Kec. Hiliran Gumanti, Kabupaten Solok";"SUMATERA BARAT";"27372";"Indonesia";"";"";"";"-1.1216572";"100.9161166";"https://maps.google.com/?cid=0x0:0xf7e349f1ca6c529a";""
"supermarket";"Toko bahan makanan";"9 saudara";"WV5G+3JF, Taratak jarang, Talang Babungo, Kec. Hiliran Gumanti, Kabupaten Solok, Sumatera Barat 27372";"Taratak jarang, Talang Babungo, Kec. Hiliran Gumanti, Kabupaten Solok";"SUMATERA BARAT";"27372";"Indonesia";" 085228235722";"";"";"-1.0923204";"100.8765617";"https://maps.google.com/?cid=0x0:0x1407557b4c03a53e";""
"supermarket";"Toko bahan makanan";"UD.irfanAzizi";"WRCQ+FRM, Talang Babungo, Kec. Hiliran Gumanti, Kabupaten Solok, Sumatera Barat 27372";"Talang Babungo, Kec. Hiliran Gumanti, Kabupaten Solok";"SUMATERA BARAT";"27372";"Indonesia";" 082268497070";"";"";"-1.0787794";"100.8395395";"https://maps.google.com/?cid=0x0:0x9966e26132b06d63";""
"supermarket";"Toko bahan makanan";"Toko Sukramel";"WV5F+H5M, Jl. Alahan Panjang - Talang Babungo, Talang Babungo, Kec. Hiliran Gumanti, Kabupaten Solok, Sumatera Barat 27372";"Jl. Alahan Panjang - Talang Babungo, Talang Babungo, Kec. Hiliran Gumanti, Kabupaten Solok";"SUMATERA BARAT";"27372";"Indonesia";" 082268715366";"";"";"-1.0910474";"100.8729088";"https://maps.google.com/?cid=0x0:0x2fa9620996c32034";""
"supermarket";"Minimarket";"KEDAI RANGGA";"WV39+H35, Talang Babungo, Kec. Hiliran Gumanti, Kabupaten Solok, Sumatera Barat 27372";"Talang Babungo, Kec. Hiliran Gumanti, Kabupaten Solok";"SUMATERA BARAT";"27372";"Indonesia";"";"";"";"-1.0961041";"100.8677256";"https://maps.google.com/?cid=0x0:0xf7068e23314d745d";""
"supermarket";"Toko bahan makanan";"Santan asyura";"Talang Babungo, Kec. Hiliran Gumanti, Kabupaten Solok, Sumatera Barat 27372";"Kec. Hiliran Gumanti, Kabupaten Solok";"SUMATERA BARAT";"27372";"Indonesia";" 081270883889";"";"";"-1.0937495";"100.8760623";"https://maps.google.com/?cid=0x0:0x1b8a32dfc706763c";""
"supermarket";"Pusat Perbelanjaan";"Kebon H3 Fresh";"Jln Proklamasi No 23 Talang Timur, Talang Babungo, Kec. Hiliran Gumanti, Kabupaten Solok, Sumatera Barat 27372";"Talang Babungo, Kec. Hiliran Gumanti, Kabupaten Solok";"SUMATERA BARAT";"27372";"Indonesia";" 081368846104";"";"";"-1.0959541";"100.877284";"https://maps.google.com/?cid=0x0:0xf74edc07930745bd";""
"supermarket";"Pasar Petani";"kedai zulfarman batu tinggi";"VWQJ+3JP sungai anggai, Sariak Alahan Tigo, Kec. Hiliran Gumanti, Kabupaten Solok, Sumatera Barat 27372";"Sariak Alahan Tigo, Kec. Hiliran Gumanti, Kabupaten Solok";"SUMATERA BARAT";"27372";"Indonesia";" 085265764068";"";"";"-1.1122979";"100.9315809";"https://maps.google.com/?cid=0x0:0xf2200f94a82c113";""
"supermarket";"Toko bahan makanan";"Ikan Segar Qolbi";"WV58+MCC, Jl. Alahan Panjang - Talang Babungo, Alahan Panjang, Kec. Hiliran Gumanti, Kabupaten Solok, Sumatera Barat";"Kabupaten Solok, Sumatera Barat";"SUMATERA BARAT";"";"Indonesia";" 081276519920";"";"";"-1.0908196";"100.8660172";"https://maps.google.com/?cid=0x0:0xec45de7c0eb9feec";""
"supermarket";"Grosir barang konsumen yang bergerak cepat";"Toko / BRILink SRC HA 165";"VR46+7HP, Jl. Padang - Surian, Aie Dingin, Kec. Lembah Gumanti, Kabupaten Solok, Sumatera Barat 27371";"Jl. Padang - Surian, Aie Dingin, Kec. Lembah Gumanti, Kabupaten Solok";"SUMATERA BARAT";"27371";"Indonesia";"";"";"";"-1.1442978";"100.8114384";"https://maps.google.com/?cid=0x0:0x83d243897bafc62d";""
"supermarket";"Toko bahan makanan";"DINI MART";"WQQM+MQ2, Jl. Gajah Mada No. Bukik rampuang, Alahan Panjang, Kec. Lembah Gumanti, Kabupaten Solok, Sumatera Barat 27371";"Jl. Gajah Mada No. Bukik rampuang, Alahan Panjang, Kec. Lembah Gumanti, Kabupaten Solok";"SUMATERA BARAT";"27371";"Indonesia";" 081267717778";"";"";"-1.060872";"100.784375";"https://maps.google.com/?cid=0x0:0x31fef86305a1767f";""
"supermarket";"Minimarket";"Hadi  Afiqa Mart";"VR46+8HH, Aie Dingin, Kec. Lembah Gumanti, Kabupaten Solok, Sumatera Barat 27371";"Aie Dingin, Kec. Lembah Gumanti, Kabupaten Solok";"SUMATERA BARAT";"27371";"Indonesia";"";"";"";"-1.144197";"100.81148";"https://maps.google.com/?cid=0x0:0x1f402470ddc4a268";""
"supermarket";"Produsen makanan";"Ray Foods (Erick Ray De Pinto Chaniago)";"Pondok Talago jorong tabek, Talang Babungo, Kec. Hiliran Gumanti, Kabupaten Solok, Sumatera Barat 27372";"Talang Babungo, Kec. Hiliran Gumanti, Kabupaten Solok";"SUMATERA BARAT";"27372";"Indonesia";" 082389738779";"";"";"-1.0959244";"100.8687555";"https://maps.google.com/?cid=0x0:0xb6137c64cd183519";""
"supermarket";"supermarket";"Warung Altaf dan Farid";"VW7C+8HR, Sariak Alahan Tigo, Kec. Hiliran Gumanti, Kabupaten Solok, Sumatera Barat 27372";"Sariak Alahan Tigo, Kec. Hiliran Gumanti, Kabupaten Solok";"SUMATERA BARAT";"27372";"Indonesia";"";"";"";"-1.1366415";"100.921387";"https://maps.google.com/?cid=0x0:0xc14efecc037b8cb8";""
"supermarket";"supermarket";"Sumatera Barat 27371";"Kabupaten Solok, Sumatera Barat";"Kabupaten Solok, Sumatera Barat";"SUMATERA BARAT";"";"Indonesia";"";"";"";"-1.1341375";"100.7774424";"https://maps.google.com/?cid=0x0:0xea3f4c08347e1318";""
"supermarket";"Toko";"Tampian Mart";"WQ3J+HCH, Jalan Padang, Alahan Panjang, Lembah Gumanti, Solok Regency, West Sumatra 27371";"Jalan Padang, Alahan Panjang, Lembah Gumanti, Solok Regency";"SUMATERA BARAT";"27371";"Indonesia";" 085376544414";"";"";"-1.0960636";"100.7811202";"https://maps.google.com/?cid=0x0:0x189d49591302dbbe";""
"supermarket";"Toko Swalayan";"MARDHATILLAH";"Jl. Gajah Mada, Alahan Panjang, Kec. Lembah Gumanti, Kabupaten Solok, Sumatera Barat 27371";"Alahan Panjang, Kec. Lembah Gumanti, Kabupaten Solok";"SUMATERA BARAT";"27371";"Indonesia";" 081267602223";"";"";"-1.0506909";"100.7815247";"https://maps.google.com/?cid=0x0:0x4e4fcb2973044e27";""
"supermarket";"Minimarket";"Ulfa Hafiz Mart";"Jl. Rimbo Data, Sungai Nanam, Kec. Lembah Gumanti, Kabupaten Solok, Sumatera Barat 27371";"Sungai Nanam, Kec. Lembah Gumanti, Kabupaten Solok";"SUMATERA BARAT";"27371";"Indonesia";" 085239894774";"";"";"-0.9987441";"100.7748518";"https://maps.google.com/?cid=0x0:0x73c14dad7d48f477";""
"supermarket";"Toko";"IzaStore Minimarket Aia Sanam Kec. Lembah Gumanti Kabupaten Solok";"XQ46+9FJ, Alahan Panjang, Kec. Lembah Gumanti, Kabupaten Solok, Sumatera Barat 27371";"Alahan Panjang, Kec. Lembah Gumanti, Kabupaten Solok";"SUMATERA BARAT";"27371";"Indonesia";" 085364665381";"";"";"-1.0440383";"100.7611359";"https://maps.google.com/?cid=0x0:0x9cfb7509c2450e30";""
"supermarket";"Pasar Petani";"Sus/Ummi Zulfa";"WQ5M+W2P, Jalan Padang, Alahan Panjang, Lembah Gumanti, Solok Regency, West Sumatra 27371";"Jalan Padang, Alahan Panjang, Lembah Gumanti, Solok Regency";"SUMATERA BARAT";"27371";"Indonesia";" 082385154770";"";"";"-1.0901501";"100.7825922";"https://maps.google.com/?cid=0x0:0x2db0cc7fb5f18f16";""
"supermarket";"Minimarket";"AL HIDAYAH MART";"WQQM+GP2, Jl. Gajah Mada. Bukik rampuang, Alahan Panjang, Kec. Lembah Gumanti, Kabupaten Solok, Sumatera Barat 27371";"Jl. Gajah Mada. Bukik rampuang, Alahan Panjang, Kec. Lembah Gumanti, Kabupaten Solok";"SUMATERA BARAT";"27371";"Indonesia";" 081364964473";"";"";"-1.0612308";"100.7842723";"https://maps.google.com/?cid=0x0:0xbc8035471421d03c";""
"supermarket";"Pusat Perbelanjaan";"Toko Anjeli tani";"XQCG+MMQ, Sungai Nanam, Kec. Lembah Gumanti, Kabupaten Solok, Sumatera Barat 27371";"Sungai Nanam, Kec. Lembah Gumanti, Kabupaten Solok";"SUMATERA BARAT";"27371";"Indonesia";"";"";"";"-1.02829";"100.7767256";"https://maps.google.com/?cid=0x0:0xe6e4fbc2fb9f7e2a";""
"supermarket";"Toko";"TOKO NATASYA";"depan tk mawar putih, jl syeh kaciak 30 taratak pauah, Alahan Panjang, Kec. Lembah Gumanti, Kabupaten Solok, Sumatera Barat 27371";"jl syeh kaciak 30 taratak pauah, Alahan Panjang, Kec. Lembah Gumanti, Kabupaten Solok";"SUMATERA BARAT";"27371";"Indonesia";"";"";"";"-1.0728673";"100.7830826";"https://maps.google.com/?cid=0x0:0xed96f9ee2f2303e7";""
"supermarket";"Pasar";"Pasar Sayur lembah gumanti";"WQJC+JG6, Alahan Panjang, Kec. Lembah Gumanti, Kabupaten Solok, Sumatera Barat 27371";"Alahan Panjang, Kec. Lembah Gumanti, Kabupaten Solok";"SUMATERA BARAT";"27371";"Indonesia";" 082288039014";"";"";"-1.068452";"100.7712629";"https://maps.google.com/?cid=0x0:0xdbd844290dcb64e5";""
"supermarket";"Minimarket";"Hadi  Afiqa Mart";"VR46+8HH, Aie Dingin, Kec. Lembah Gumanti, Kabupaten Solok, Sumatera Barat 27371";"Aie Dingin, Kec. Lembah Gumanti, Kabupaten Solok";"SUMATERA BARAT";"27371";"Indonesia";"";"";"";"-1.144197";"100.81148";"https://maps.google.com/?cid=0x0:0x1f402470ddc4a268";""
"supermarket";"Toko bahan makanan";"Jaya Tani";"Jl. Lkr. Danau Diatas, Alahan Panjang, Kec. Lembah Gumanti, Kabupaten Solok, Sumatera Barat";"Kabupaten Solok, Sumatera Barat";"SUMATERA BARAT";"";"Indonesia";" 081374550915";"";"";"-1.1031331";"100.7707703";"https://maps.google.com/?cid=0x0:0xac6011476581cd73";""
"supermarket";"Toko bahan makanan";"Kedai Buk Nis";"XQ7H+9RM, Sungai Nanam, Kec. Lembah Gumanti, Kabupaten Solok, Sumatera Barat 27371";"Sungai Nanam, Kec. Lembah Gumanti, Kabupaten Solok";"SUMATERA BARAT";"27371";"Indonesia";" 082170323791";"";"";"-1.0365311";"100.7795382";"https://maps.google.com/?cid=0x0:0xf0c4a8784ebde190";""
"supermarket";"Minimarket";"Heru pd";"WQGP+8G6, Alahan Panjang, Kec. Lembah Gumanti, Kabupaten Solok, Sumatera Barat 27371";"Alahan Panjang, Kec. Lembah Gumanti, Kabupaten Solok";"SUMATERA BARAT";"27371";"Indonesia";" 082288988833";"";"";"-1.0742166";"100.786258";"https://maps.google.com/?cid=0x0:0x9123a9c51b5b8d53";""
"supermarket";"Pasar";"pasar Agropolitan Aie luluak Sungai nanam";"XQ7H+HJ2, Sungai Nanam, Kec. Lembah Gumanti, Kabupaten Solok, Sumatera Barat 27371";"Sungai Nanam, Kec. Lembah Gumanti, Kabupaten Solok";"SUMATERA BARAT";"27371";"Indonesia";" 081243848393";"";"";"-1.0361076";"100.7790144";"https://maps.google.com/?cid=0x0:0xdbc22b53c64b25c6";""
"supermarket";"Toko Swalayan";"AFIFAH MART";"Jembatan Putih Padang Laweh Alahan Panjang, Sungai Nanam, Kec. Lembah Gumanti, Kabupaten Solok, Sumatera Barat 27371";"Sungai Nanam, Kec. Lembah Gumanti, Kabupaten Solok";"SUMATERA BARAT";"27371";"Indonesia";" 085272448283";"";"";"-1.0473388";"100.7807553";"https://maps.google.com/?cid=0x0:0x281d42fc422afb18";""
"supermarket";"Toko bahan makanan";"SRC VINA";"jln padang muaro labuah,batu bagiriak,jorong, Alahan Panjang, Kec. Lembah Gumanti, Kabupaten Solok, Sumatera Barat 27371";"Alahan Panjang, Kec. Lembah Gumanti, Kabupaten Solok";"SUMATERA BARAT";"27371";"Indonesia";" 085280819900";"";"";"-1.087122";"100.783074";"https://maps.google.com/?cid=0x0:0x83c8985be778c797";""
"supermarket";"Toko umum";"Lapau nenek padang";"XQ6V+89, Sungai Nanam, Kec. Lembah Gumanti, Kabupaten Solok, Sumatera Barat";"Kabupaten Solok, Sumatera Barat";"SUMATERA BARAT";"";"Indonesia";"";"";"";"-1.0391677";"100.7932251";"https://maps.google.com/?cid=0x0:0x7189a37b816c6ffb";""
"supermarket";"Grosir Barang Kelontong";"Toko Sofi";"XQ5G+4HP, Jl. Sp Kulik Manih - Taratak Pauah, Alahan Panjang, Kec. Lembah Gumanti, Kabupaten Solok, Sumatera Barat 27371";"Jl. Sp Kulik Manih - Taratak Pauah, Alahan Panjang, Kec. Lembah Gumanti, Kabupaten Solok";"SUMATERA BARAT";"27371";"Indonesia";"";"";"";"-1.0421671";"100.7764566";"https://maps.google.com/?cid=0x0:0x789634738cb5cb44";""
"supermarket";"Toko";"Toko Tapan Bersaudara";"XQPF+6C8, Jl. Gajah Mada, Sungai Nanam, Kec. Lembah Gumanti, Kabupaten Solok, Sumatera Barat 27371";"Jl. Gajah Mada, Sungai Nanam, Kec. Lembah Gumanti, Kabupaten Solok";"SUMATERA BARAT";"27371";"Indonesia";"";"";"";"-1.0144599";"100.7735838";"https://maps.google.com/?cid=0x0:0x4e0efa1dbb4b68ee";""
"supermarket";"Toko bahan makanan";"DINI MART";"WQQM+MQ2, Jl. Gajah Mada No. Bukik rampuang, Alahan Panjang, Kec. Lembah Gumanti, Kabupaten Solok, Sumatera Barat 27371";"Jl. Gajah Mada No. Bukik rampuang, Alahan Panjang, Kec. Lembah Gumanti, Kabupaten Solok";"SUMATERA BARAT";"27371";"Indonesia";" 081267717778";"";"";"-1.060872";"100.784375";"https://maps.google.com/?cid=0x0:0x31fef86305a1767f";""
"supermarket";"Toko Herbal";"Distributor ECO RACING";"XQ2J+R82, Jl. Gajah Mada, Sungai Nanam, Kec. Lembah Gumanti, Kabupaten Solok, Sumatera Barat 27371";"Jl. Gajah Mada, Sungai Nanam, Kec. Lembah Gumanti, Kabupaten Solok";"SUMATERA BARAT";"27371";"Indonesia";" 082392030114";"";"";"-1.0479833";"100.780773";"https://maps.google.com/?cid=0x0:0x75690a52c6a8a75d";""
"supermarket";"Toko";"Global Mart";"WPXP+3JG, Jalan Padang - Alahan Panjang, Kenagarian, Simpang Tj. Nan IV, Kec. Danau Kembar, Kabupaten Solok, Sumatera Barat 27384";"Jalan Padang - Alahan Panjang, Kenagarian, Simpang Tj. Nan IV, Kec. Danau Kembar, Kabupaten Solok";"SUMATERA BARAT";"27384";"Indonesia";" 081266836666";"";"";"-1.0523061";"100.7365931";"https://maps.google.com/?cid=0x0:0xcfdcf99ce952781f";""
"supermarket";"Toko bahan makanan";"Kedai NADAZAFRANS";"VQWG+MJJ, Jl. Batang Hari, Alahan Panjang, Kec. Lembah Gumanti, Kabupaten Solok, Sumatera Barat";"Kabupaten Solok, Sumatera Barat";"SUMATERA BARAT";"";"Indonesia";"";"";"";"-1.1032893";"100.7765093";"https://maps.google.com/?cid=0x0:0x38354de3d1cac80c";""
"supermarket";"supermarket";"Kec. Lembah Gumanti";"Kabupaten Solok, Sumatera Barat";"Kabupaten Solok, Sumatera Barat";"SUMATERA BARAT";"";"Indonesia";"";"";"";"-1.0759172";"100.7864805";"https://maps.google.com/?cid=0x0:0x4039d80b220e000";""
"supermarket";"Toko";"Tiga Putra";"VQWC+R83, Alahan Panjang, Kec. Lembah Gumanti, Kabupaten Solok, Sumatera Barat";"Kabupaten Solok, Sumatera Barat";"SUMATERA BARAT";"";"Indonesia";" 082169961784";"";"";"-1.1029813";"100.7708093";"https://maps.google.com/?cid=0x0:0x16c388ee19b5893";""
"supermarket";"Pusat Perbelanjaan";"MiniMarket Berkat Yakin";"2PR9+R6H, Jl. Solok - Danau Kembar, Bukit Sileh, Kec. Lembang Jaya, Kabupaten Solok, Sumatera Barat 27383";"Jl. Solok - Danau Kembar, Bukit Sileh, Kec. Lembang Jaya, Kabupaten Solok";"SUMATERA BARAT";"27383";"Indonesia";" 085263843642";"";"";"-0.9579406";"100.7181191";"https://maps.google.com/?cid=0x0:0x4c16fa2e5214430";""
"supermarket";"Toko bahan makanan";"toko berlianie";"2PXH+5JJ, jalan taratak baru, Koto Laweh, Kec. Lembang Jaya, Kabupaten Solok, Sumatera Barat 27383";"jalan taratak baru, Koto Laweh, Kec. Lembang Jaya, Kabupaten Solok";"SUMATERA BARAT";"27383";"Indonesia";" 081374244453";"";"";"-0.9520348";"100.7290011";"https://maps.google.com/?cid=0x0:0xb886bd17a6b5157b";""
"supermarket";"supermarket";"TOKO MAK OLA 3";"lintas, Jl. Limau Puruik Jl. Gajah Mada No.Simpang, Sungai Nanam, Kec. Lembah Gumanti, Kabupaten Solok, Sumatera Barat 27371";"Jl. Limau Puruik Jl. Gajah Mada No.Simpang, Sungai Nanam, Kec. Lembah Gumanti, Kabupaten Solok";"SUMATERA BARAT";"27371";"Indonesia";" 082258828623";"";"";"-1.0259193";"100.7761093";"https://maps.google.com/?cid=0x0:0xfdc9d97a3a77d2dc";""
"supermarket";"supermarket";"Kec. Lembang Jaya";"Kabupaten Solok, Sumatera Barat";"Kabupaten Solok, Sumatera Barat";"SUMATERA BARAT";"";"Indonesia";"";"";"";"-0.953555";"100.7162709";"https://maps.google.com/?cid=0x0:0xacfe6d206a276f0e";""
"supermarket";"Toko bahan makanan";"toko berlianie";"2PXH+5JJ, jalan taratak baru, Koto Laweh, Kec. Lembang Jaya, Kabupaten Solok, Sumatera Barat 27383";"jalan taratak baru, Koto Laweh, Kec. Lembang Jaya, Kabupaten Solok";"SUMATERA BARAT";"27383";"Indonesia";" 081374244453";"";"";"-0.9520348";"100.7290011";"https://maps.google.com/?cid=0x0:0xb886bd17a6b5157b";""
"supermarket";"Toko Swalayan";"Warung Nena";"4M5R+45Q, Jl. Solok - Danau Kembar, Koto Gadang Koto Anau, Kec. Lembang Jaya, Kabupaten Solok, Sumatera Barat 27383";"Jl. Solok - Danau Kembar, Koto Gadang Koto Anau, Kec. Lembang Jaya, Kabupaten Solok";"SUMATERA BARAT";"27383";"Indonesia";" 082384340027";"";"";"-0.8921562";"100.690493";"https://maps.google.com/?cid=0x0:0x4168d00c09c5f79a";""
"supermarket";"Toko bahan makanan";"Katumba";"3P2R+GM5, Batu Banyak, Kec. Lembang Jaya, Kabupaten Solok, Sumatera Barat 27383";"Batu Banyak, Kec. Lembang Jaya, Kabupaten Solok";"SUMATERA BARAT";"27383";"Indonesia";"";"";"";"-0.9487371";"100.7417298";"https://maps.google.com/?cid=0x0:0xec8aa0ee6a2c1706";""
"supermarket";"Pusat Perbelanjaan";"MiniMarket Berkat Yakin";"2PR9+R6H, Jl. Solok - Danau Kembar, Bukit Sileh, Kec. Lembang Jaya, Kabupaten Solok, Sumatera Barat 27383";"Jl. Solok - Danau Kembar, Bukit Sileh, Kec. Lembang Jaya, Kabupaten Solok";"SUMATERA BARAT";"27383";"Indonesia";" 085263843642";"";"";"-0.9579406";"100.7181191";"https://maps.google.com/?cid=0x0:0x4c16fa2e5214430";""
"supermarket";"Grosir";"toko Fathia";"2P67+G88, Kp. Batu Dalam, Kec. Lembang Jaya, Kabupaten Solok, Sumatera Barat 27383";"Kp. Batu Dalam, Kec. Lembang Jaya, Kabupaten Solok";"SUMATERA BARAT";"27383";"Indonesia";"";"";"";"-0.988701";"100.7133303";"https://maps.google.com/?cid=0x0:0x8cd088a3385e07e0";""
"supermarket";"Toko bahan makanan";"Toko Welza";"2P67+H55, Jl. Solok - Danau Kembar, Batu Bajanjang, Kec. Lembang Jaya, Kabupaten Solok, Sumatera Barat 27383";"Jl. Solok - Danau Kembar, Batu Bajanjang, Kec. Lembang Jaya, Kabupaten Solok";"SUMATERA BARAT";"27383";"Indonesia";" 085274453523";"";"";"-0.9886055";"100.7129918";"https://maps.google.com/?cid=0x0:0x288f6cf8f793cd00";""
"supermarket";"Toko Swalayan";"Toko Rizky";"3P5J+43W, koto laweh jorong mandahiliang, simpang 4, Kec. Lembang Jaya, Kabupaten Solok, Sumatera Barat 27383";"koto laweh jorong mandahiliang, simpang 4, Kec. Lembang Jaya, Kabupaten Solok";"SUMATERA BARAT";"27383";"Indonesia";" 082171554502";"";"";"-0.9421492";"100.7302102";"https://maps.google.com/?cid=0x0:0x96a01f074341bce1";""
"supermarket";"Toko Makanan";"Warung eta";"3P34+JR2, Batu Bajanjang, Kec. Lembang Jaya, Kabupaten Solok, Sumatera Barat";"Kabupaten Solok, Sumatera Barat";"SUMATERA BARAT";"";"Indonesia";"";"";"";"-0.9459937";"100.7070145";"https://maps.google.com/?cid=0x0:0x8d1c814d72e1a650";""
"supermarket";"Toko bahan makanan";"Toko Leni";"3P4H+QW2, Batu Banyak, Kec. Lembang Jaya, Kabupaten Solok, Sumatera Barat 27383";"Batu Banyak, Kec. Lembang Jaya, Kabupaten Solok";"SUMATERA BARAT";"27383";"Indonesia";" 081266781106";"";"";"-0.9431035";"100.7297742";"https://maps.google.com/?cid=0x0:0xda8fa63eb4b85fbf";""
"supermarket";"Toko bahan makanan";"Santan Rumah panjang";"2PP9+M3J, Koto Gadang Koto Anau, Kec. Lembang Jaya, Kabupaten Solok, Sumatera Barat 27383";"Koto Gadang Koto Anau, Kec. Lembang Jaya, Kabupaten Solok";"SUMATERA BARAT";"27383";"Indonesia";"";"";"";"-0.9632995";"100.7176422";"https://maps.google.com/?cid=0x0:0x120b00f2eb31f903";""
"supermarket";"Toko Swalayan";"toko tama";"2P88+H37 toko tama, Batu Bajanjang, Kec. Lembang Jaya, Kabupaten Solok, Sumatera Barat 27383";"Batu Bajanjang, Kec. Lembang Jaya, Kabupaten Solok";"SUMATERA BARAT";"27383";"Indonesia";" 081261565667";"";"";"-0.9835821";"100.7151836";"https://maps.google.com/?cid=0x0:0xa674d5941d085700";""
"supermarket";"Toko Bahan Bangunan";"Toko Lapis Legit";"3P34+9P3, Batu Bajanjang, Kec. Lembang Jaya, Kabupaten Solok, Sumatera Barat 27383";"Batu Bajanjang, Kec. Lembang Jaya, Kabupaten Solok";"SUMATERA BARAT";"27383";"Indonesia";"";"";"";"-0.9466097";"100.706798";"https://maps.google.com/?cid=0x0:0xacfa27b946381ace";""
"supermarket";"Toko umum";"Kedai nila limau lunggo";"3PH2+PQ5, Limau Lunggo, Kec. Lembang Jaya, Kabupaten Solok, Sumatera Barat 27381";"Limau Lunggo, Kec. Lembang Jaya, Kabupaten Solok";"SUMATERA BARAT";"27381";"Indonesia";"";"";"";"-0.9207477";"100.7019706";"https://maps.google.com/?cid=0x0:0x8ebd16eafa58323a";""
"supermarket";"Toko bahan makanan";"Toko RAFLI";"3MMJ+Q74, Aie Angek Koto Gadang, Koto Gadang Koto Anau, Kec. Lembang Jaya, Kabupaten Solok, Sumatera Barat 27365";"Aie Angek Koto Gadang, Koto Gadang Koto Anau, Kec. Lembang Jaya, Kabupaten Solok";"SUMATERA BARAT";"27365";"Indonesia";" 082285008997";"";"";"-0.9156085";"100.6807045";"https://maps.google.com/?cid=0x0:0xca0665ae1e422eb4";""
"supermarket";"Toko bahan makanan";"Toko kimmy";"2PF9+HFW, Jl.selayo tanang, bukit sileh, Kec. Lembang Jaya, Kabupaten Solok, Sumatera Barat 27383";"Jl.selayo tanang, bukit sileh, Kec. Lembang Jaya, Kabupaten Solok";"SUMATERA BARAT";"27383";"Indonesia";"";"";"";"-0.975472";"100.717695";"https://maps.google.com/?cid=0x0:0xfa909b518a63b14";""
"supermarket";"Toko";"KADAI SYAQILLA";"2P57+H2F, Jl. Solok - Danau Kembar, Batu Bajanjang, Kec. Lembang Jaya, Kabupaten Solok, Sumatera Barat 27383";"Jl. Solok - Danau Kembar, Batu Bajanjang, Kec. Lembang Jaya, Kabupaten Solok";"SUMATERA BARAT";"27383";"Indonesia";" 082284585668";"";"";"-0.991073";"100.7125556";"https://maps.google.com/?cid=0x0:0xe99f73009ca3f9e3";""
"supermarket";"Minimarket";"Ulfa Hafiz Mart";"Jl. Rimbo Data, Sungai Nanam, Kec. Lembah Gumanti, Kabupaten Solok, Sumatera Barat 27371";"Sungai Nanam, Kec. Lembah Gumanti, Kabupaten Solok";"SUMATERA BARAT";"27371";"Indonesia";" 085239894774";"";"";"-0.9987441";"100.7748518";"https://maps.google.com/?cid=0x0:0x73c14dad7d48f477";""
"supermarket";"Komplek perumahan";"Rumah";"3P56+CMW, Jorong balai barueh, Batu Bajanjang, Kec. Lembang Jaya, Kabupaten Solok, Sumatera Barat";"Kabupaten Solok, Sumatera Barat";"SUMATERA BARAT";"";"Indonesia";"";"";"";"-0.9413963";"100.7117679";"https://maps.google.com/?cid=0x0:0x130889d1942292b8";""
"supermarket";"Toko umum";"Lapau Helmy Limau Lunggo";"Jl. Bukik Sileh, Limau Lunggo, Kec. Lembang Jaya, Kabupaten Solok, Sumatera Barat";"Kabupaten Solok, Sumatera Barat";"SUMATERA BARAT";"";"Indonesia";"";"";"";"-0.9209779";"100.7017903";"https://maps.google.com/?cid=0x0:0x4372f0cfe75d70e3";""
"supermarket";"Toko umum";"kadai pak jorong arnus";"2P35+JVG, Jl. Solok - Danau Kembar, Kp. Batu Dalam, Kec. Danau Kembar, Kabupaten Solok, Sumatera Barat 27383";"Jl. Solok - Danau Kembar, Kp. Batu Dalam, Kec. Danau Kembar, Kabupaten Solok";"SUMATERA BARAT";"27383";"Indonesia";"";"";"";"-0.9959259";"100.7097115";"https://maps.google.com/?cid=0x0:0x30faa89054e0be6";""
"supermarket";"Toko";"Aneka keripik Ayazha";"2PR7+R2Q panta, Koto Gadang Koto Anau, Kec. Lembang Jaya, Kabupaten Solok, Sumatera Barat 27383";"Koto Gadang Koto Anau, Kec. Lembang Jaya, Kabupaten Solok";"SUMATERA BARAT";"27383";"Indonesia";"";"";"";"-0.9579104";"100.7126047";"https://maps.google.com/?cid=0x0:0xf69b33588c328f62";""
"supermarket";"supermarket";"Sumatera Barat 27361";"Kec. Kubung, Kabupaten Solok, Sumatera Barat";"Kabupaten Solok, Sumatera Barat";"SUMATERA BARAT";"";"Indonesia";"";"";"";"-0.8339837";"100.5971361";"https://maps.google.com/?cid=0x0:0xa5f2ceeab4e63c77";""
"supermarket";"Toko Swalayan";"Toko Nusa Prima (NP)";"Panyakalan, Kec. Kubung, Kabupaten Solok, Sumatera Barat 27361";"Kec. Kubung, Kabupaten Solok";"SUMATERA BARAT";"27361";"Indonesia";" 08126728402";"";"";"-0.8276462";"100.6944259";"https://maps.google.com/?cid=0x0:0xd6eaffe6e77c5208";""
"supermarket";"Grosir Barang Kelontong";"Grosir AA";"5MH5+9FQ, Jl. Raya Muara Panas - Koto Baru, Koto Baru, Kec. Kubung, Kabupaten Solok, Sumatera Barat 27361";"Jl. Raya Muara Panas - Koto Baru, Koto Baru, Kec. Kubung, Kabupaten Solok";"SUMATERA BARAT";"27361";"Indonesia";"";"";"";"-0.8215355";"100.6587419";"https://maps.google.com/?cid=0x0:0x4d71c2d7bd789748";""
"supermarket";"Pusat Perbelanjaan";"Otinova Mart";"5MHQ+GMH, Panyakalan, Kec. Kubung, Kabupaten Solok, Sumatera Barat 27361";"Panyakalan, Kec. Kubung, Kabupaten Solok";"SUMATERA BARAT";"27361";"Indonesia";"";"";"";"-0.821178";"100.6892384";"https://maps.google.com/?cid=0x0:0x8b9bdd107ff4ac1a";""
"supermarket";"Toko bahan makanan";"Toko Ken";"Jl. Pulai, Simpang Rumbio, Kec. Lubuk Sikarah, Kabupaten Solok, Sumatera Barat 27316";"Simpang Rumbio, Kec. Lubuk Sikarah, Kabupaten Solok";"SUMATERA BARAT";"27316";"Indonesia";" 085274642434";"";"";"-0.8006464";"100.6673451";"https://maps.google.com/?cid=0x0:0xb481cfbaf0b56e44";""
"supermarket";"Toko Swalayan";"Waroeng Nopal";"Jl. Singkarak Raya, Koto Baru, Kec. Kubung, Kabupaten Solok, Sumatera Barat 27361";"Koto Baru, Kec. Kubung, Kabupaten Solok";"SUMATERA BARAT";"27361";"Indonesia";" 081267130299";"";"";"-0.847345";"100.6442289";"https://maps.google.com/?cid=0x0:0x118449f6af635ae";""
"supermarket";"Grosir";"Toko FANDU DIYA, Koto Baru";"5M73+M33, Jl. Raya Koto Baru, Koto Baru, Kec. Kubung, Kabupaten Solok, Sumatera Barat 27361";"Jl. Raya Koto Baru, Koto Baru, Kec. Kubung, Kabupaten Solok";"SUMATERA BARAT";"27361";"Indonesia";"";"";"";"-0.8358667";"100.6526596";"https://maps.google.com/?cid=0x0:0x929c3d8c037cc38e";""
"supermarket";"Toko umum";"Warung Kelontong RAHMI";"Jl. Koto Hilalang Jl. Kp. Baru Gantung Ciri, Selayo, Kec. Kubung, Kabupaten Solok, Sumatera Barat 27361";"Selayo, Kec. Kubung, Kabupaten Solok";"SUMATERA BARAT";"27361";"Indonesia";"";"";"";"-0.8461666";"100.6186623";"https://maps.google.com/?cid=0x0:0x5be05528fd5ea705";""
"supermarket";"Minimarket";"Qina mart";"Jl. Prof. Dr. Moh. Yamin Sh, Ps. Pandan Air Mati, Kec. Tj. Harapan, Kota Solok, Sumatera Barat 27317";"Ps. Pandan Air Mati, Kec. Tj. Harapan, Kota Solok";"SUMATERA BARAT";"27317";"Indonesia";" 0895630040777";"";"";"-0.7894316";"100.6617517";"https://maps.google.com/?cid=0x0:0x50658309b7ce5d2c";""
"supermarket";"Minimarket";"Tiga Putra Mart(ahmad yani)";"Vi Suku, Kec. Lubuk Sikarah, Kota Solok, Sumatera Barat 27317";"Kec. Lubuk Sikarah, Kota Solok";"SUMATERA BARAT";"27317";"Indonesia";" 082182310404";"";"";"-0.7900361";"100.649837";"https://maps.google.com/?cid=0x0:0x638b2f73db9f276b";""
"supermarket";"Minimarket";"Orchard Mini Market Koto Baru 2";"Jl. Raya Padang - Solok, Koto Baru, Kec. Kubung, Kabupaten Solok, Sumatera Barat 27361";"Koto Baru, Kec. Kubung, Kabupaten Solok";"SUMATERA BARAT";"27361";"Indonesia";" 081372472927";"";"";"-0.8435703";"100.6482149";"https://maps.google.com/?cid=0x0:0x6a9b0df4360923cd";""
"supermarket";"Supermarket Diskon";"wiliaaa";"5MJ2+3J6, Selayo, Kec. Kubung, Kabupaten Solok, Sumatera Barat 27361";"Selayo, Kec. Kubung, Kabupaten Solok";"SUMATERA BARAT";"27361";"Indonesia";" 082385852990";"";"";"-0.8198287";"100.6515014";"https://maps.google.com/?cid=0x0:0x1b6f293840829fab";""
"supermarket";"Toko";"Kedai Opung Nabila";"5PM2+RV8, Tabueh, Jl. Hilir Bandar, Panyakalan, Kec. Kubung, Kabupaten Solok, Sumatera Barat 27361";"Tabueh, Jl. Hilir Bandar, Panyakalan, Kec. Kubung, Kabupaten Solok";"SUMATERA BARAT";"27361";"Indonesia";" 085274131286";"";"";"-0.8154596";"100.702192";"https://maps.google.com/?cid=0x0:0x7fa36fc271cfb444";""
"supermarket";"Minimarket";"Permata Mart";"Jalan Raya Padang Solok Km. 5, Jorong Kajai, Kubung, Koto Baru, Kec. Kubung, Kabupaten Solok, Sumatera Barat 27361";"Jorong Kajai, Kubung, Koto Baru, Kec. Kubung, Kabupaten Solok";"SUMATERA BARAT";"27361";"Indonesia";" 085271442444";"";"";"-0.8318355";"100.6544209";"https://maps.google.com/?cid=0x0:0xbfcc65db7f064e36";""
"supermarket";"Toko Swalayan";"Toko Naufal";"5J3V+7MC, Koto Baru, Kec. Kubung, Kabupaten Solok, Sumatera Barat 27361";"Koto Baru, Kec. Kubung, Kabupaten Solok";"SUMATERA BARAT";"27361";"Indonesia";" 082268938359";"";"";"-0.8468121";"100.6441323";"https://maps.google.com/?cid=0x0:0xe6a15b226a137d2f";""
"supermarket";"Toko Swalayan";"Baru Swalayan";"6M64+3RR, Jl. KH. Ahmad Dahlan, Ps. Pandan Air Mati, Kec. Tj. Harapan, Kota Solok, Sumatera Barat 27317";"Jl. KH. Ahmad Dahlan, Ps. Pandan Air Mati, Kec. Tj. Harapan, Kota Solok";"SUMATERA BARAT";"27317";"Indonesia";" 083124666727";"";"";"-0.7897746";"100.6570308";"https://maps.google.com/?cid=0x0:0x5dd2ce246052ed94";""
"supermarket";"Pusat Perbelanjaan";"NC Minimarket";"Jl. Jend. Sudirman No.5A, Ps. Pandan Air Mati, Kec. Tj. Harapan, Kota Solok, Sumatera Barat 27317";"Ps. Pandan Air Mati, Kec. Tj. Harapan, Kota Solok";"SUMATERA BARAT";"27317";"Indonesia";" 081364790191";"";"";"-0.7890807";"100.6549029";"https://maps.google.com/?cid=0x0:0xec4cb6f93677632";""
"supermarket";"Toko bahan makanan";"Orchard Mini Market Koto Baru 1";"Jl. Raya Padang - Solok No.KM.4, Koto Baru, Kec. Kubung, Kabupaten Solok, Sumatera Barat 27361";"Koto Baru, Kec. Kubung, Kabupaten Solok";"SUMATERA BARAT";"27361";"Indonesia";" 081372472927";"";"";"-0.8259528";"100.6548556";"https://maps.google.com/?cid=0x0:0x5191a2acd4a18338";""
"supermarket";"Toko umum";"cahaya tani 2";"5MM2+4PM, Selayo, Kec. Kubung, Kabupaten Solok, Sumatera Barat 27361";"Selayo, Kec. Kubung, Kabupaten Solok";"SUMATERA BARAT";"27361";"Indonesia";"";"";"";"-0.8171737";"100.6518064";"https://maps.google.com/?cid=0x0:0x9ccbeb8c9ae6f626";""
"supermarket";"Minimarket";"Haskho Mart";"5MC3+7RW, Koto Baru, Kec. Kubung, Kabupaten Solok, Sumatera Barat 27361";"Koto Baru, Kec. Kubung, Kabupaten Solok";"SUMATERA BARAT";"27361";"Indonesia";"";"";"";"-0.8292534";"100.6545698";"https://maps.google.com/?cid=0x0:0xb965d4f72dc40db9";""
"supermarket";"Minimarket";"Zie Mark Cubagan";"5M5M+2P2, jalan solok muara panas suaru cubagan, Koto Baru, Kec. Kubung, Kabupaten Solok, Sumatera Barat 27361";"jalan solok muara panas suaru cubagan, Koto Baru, Kec. Kubung, Kabupaten Solok";"SUMATERA BARAT";"27361";"Indonesia";"";"";"";"-0.8424794";"100.6842572";"https://maps.google.com/?cid=0x0:0x8fcc2ec938f4fb1d";""
"supermarket";"Pusat Perbelanjaan";"DAPUR SANJAI "ZIVANEZ"";"6MRQ+9H4, Jl lintas Sumatera, Guguak Sarai, Kec.IX Koto Sei.Lasi, Saok Laweh, Kec. Kubung, Kab Solok, Sumatera Barat 27361";"Jl lintas Sumatera, Guguak Sarai, Kec.IX Koto Sei.Lasi, Saok Laweh, Kec. Kubung, Kab Solok";"SUMATERA BARAT";"27361";"Indonesia";" 085265491234";"";"";"-0.7591122";"100.6889564";"https://maps.google.com/?cid=0x0:0x90d81577d27d5b88";""
"supermarket";"Toko Swalayan";"GS THE FRESH JATIBENING";"Jl. Caman Raya No.7-24, RT.004/RW.003, Jatibening, Kec. Pd. Gede, Kota Bks, Jawa Barat 17412";"RT.004/RW.003, Jatibening, Kec. Pd. Gede, Kota Bks";"SUMATERA BARAT";"17412";"Indonesia";" 02184982211";"";"";"-6.2676455";"106.9436409";"https://maps.google.com/?cid=0x0:0x2cdb50c3ee3206c";""
"supermarket";"Toko Swalayan";"GS The Fresh Mampang";"Jl. Buncit Raya No.301, Duren Tiga, Kec. Pancoran, Kota Jakarta Selatan, Daerah Khusus Ibukota Jakarta 12760";"Duren Tiga, Kec. Pancoran, Kota Jakarta Selatan";"SUMATERA BARAT";"12760";"Indonesia";" 02126961986";"";"";"-6.256991";"106.828987";"https://maps.google.com/?cid=0x0:0x47a84d3b86619147";""
"supermarket";"Toko Swalayan";"GS Supermarket Jatiasih";"GsSupermarket :, Jl. Wibawa Mukti II No.125, RT.002/ RW017/RW.017, Jatiasih, Kec. Jatiasih, Kota Bks, Jawa Barat 17423";"Jl. Wibawa Mukti II No.125, RT.002/ RW017/RW.017, Jatiasih, Kec. Jatiasih, Kota Bks";"SUMATERA BARAT";"17423";"Indonesia";" 02182736918";"";"";"-6.3070579";"106.955731";"https://maps.google.com/?cid=0x0:0x74efd6ce433268e6";""
"supermarket";"Toko Swalayan";"GS The Fresh Alam Sutera";"Flavor Bliss, Jl. Alam Sutera Boulevard, Pakulonan, Kec. Serpong Utara, Kota Tangerang Selatan, Banten 15325";"Jl. Alam Sutera Boulevard, Pakulonan, Kec. Serpong Utara, Kota Tangerang Selatan";"SUMATERA BARAT";"15325";"Indonesia";" 02150200763";"";"";"-6.2429576";"106.6509779";"https://maps.google.com/?cid=0x0:0x2e1e78cfe6fb23eb";""
"supermarket";"Toko bahan makanan";"Papaya Fresh Gallery - Blok M";"Jl. Melawai Raya No.28, RT.3/RW.1, Melawai, Kec. Kby. Baru, Kota Jakarta Selatan, Daerah Khusus Ibukota Jakarta 12160";"RT.3/RW.1, Melawai, Kec. Kby. Baru, Kota Jakarta Selatan";"SUMATERA BARAT";"12160";"Indonesia";" 02172793777";"";"";"-6.2456407";"106.7986219";"https://maps.google.com/?cid=0x0:0xe2a9054a0e6ccc28";""
"supermarket";"supermarket";"Sumatera Barat 27388";"Kec. IX Koto Sungai Lasi, Kabupaten Solok, Sumatera Barat";"Kabupaten Solok, Sumatera Barat";"SUMATERA BARAT";"";"Indonesia";"";"";"";"-0.796184";"100.7323332";"https://maps.google.com/?cid=0x0:0x9cdaa9ce1d3ef265";""
"supermarket";"Toko Swalayan";"BUMNAG Rangkiang Ameh Paninggahan";"8GMQ+JG9, Jl. Raya Paninggahan, Paninggahan, Kec. Junjung Sirih, Kabupaten Solok, Sumatera Barat 27388";"Jl. Raya Paninggahan, Paninggahan, Kec. Junjung Sirih, Kabupaten Solok";"SUMATERA BARAT";"27388";"Indonesia";" 081210197720";"";"";"-0.6659628";"100.5388569";"https://maps.google.com/?cid=0x0:0xc5ff18efa0a0f739";""
"supermarket";"Toko Swalayan";"Toko Rahmat ( Buya  Ummi )";"Jl. Raya Paninggahan, Paninggahan, Kec. Junjung Sirih, Kabupaten Solok, Sumatera Barat 27388";"Paninggahan, Kec. Junjung Sirih, Kabupaten Solok";"SUMATERA BARAT";"27388";"Indonesia";" 085210682787";"";"";"-0.6662457";"100.5381054";"https://maps.google.com/?cid=0x0:0x28b4d821d729f4b1";""
"supermarket";"Minimarket";"Jn Mart Collection";"6MQ3+XGP, Jl. Tembok Raya, Laing, Kec. Tj. Harapan, Kota Solok, Sumatera Barat 27325";"Jl. Tembok Raya, Laing, Kec. Tj. Harapan, Kota Solok";"SUMATERA BARAT";"27325";"Indonesia";" 085364588468";"";"";"-0.7600334";"100.6538429";"https://maps.google.com/?cid=0x0:0x87fe537f062aa193";""
"supermarket";"Toko Swalayan";"Baru Swalayan";"6M64+3RR, Jl. KH. Ahmad Dahlan, Ps. Pandan Air Mati, Kec. Tj. Harapan, Kota Solok, Sumatera Barat 27317";"Jl. KH. Ahmad Dahlan, Ps. Pandan Air Mati, Kec. Tj. Harapan, Kota Solok";"SUMATERA BARAT";"27317";"Indonesia";" 083124666727";"";"";"-0.7897746";"100.6570308";"https://maps.google.com/?cid=0x0:0x5dd2ce246052ed94";""
"supermarket";"Minimarket";"Haikal Swalayan";"Jl. Pulai, Simpang Rumbio, Kec. Lubuk Sikarah, Kota Solok, Sumatera Barat 27216";"Simpang Rumbio, Kec. Lubuk Sikarah, Kota Solok";"SUMATERA BARAT";"27216";"Indonesia";"";"";"";"-0.8028651";"100.6693338";"https://maps.google.com/?cid=0x0:0x33dc502f54236161";""
"supermarket";"Toko bahan makanan";"Berkah mart";"8HC5+GMX, Muaro Pingai, Kec. Junjung Sirih, Kabupaten Solok, Sumatera Barat";"Kabupaten Solok, Sumatera Barat";"SUMATERA BARAT";"";"Indonesia";"";"";"";"-0.6794573";"100.5593472";"https://maps.google.com/?cid=0x0:0x37664e3e41781dd3";""
"supermarket";"Pusat Perbelanjaan";"TOKO CINDO MART";"6M76+683, Jl. Cindua Mato, Ps. Pandan Air Mati, Kec. Tj. Harapan, Kota Solok, Sumatera Barat 27317";"Jl. Cindua Mato, Ps. Pandan Air Mati, Kec. Tj. Harapan, Kota Solok";"SUMATERA BARAT";"27317";"Indonesia";" 081276040507";"";"";"-0.7869756";"100.6607924";"https://maps.google.com/?cid=0x0:0x4c9b22f37a9debd0";""
"supermarket";"Toko";"Warkop Dua Putri";"0, Paninggahan, Kec. Junjung Sirih, Kabupaten Solok, Sumatera Barat 27388";"Paninggahan, Kec. Junjung Sirih, Kabupaten Solok";"SUMATERA BARAT";"27388";"Indonesia";"";"";"";"-0.670595";"100.544501";"https://maps.google.com/?cid=0x0:0xd944ffea20640c1";""
"supermarket";"Minimarket";"Swalayan Orchard";"Jl. Veteran No.237, Tj. Paku, Kec. Tj. Harapan, Kota Solok, Sumatera Barat 27317";"Tj. Paku, Kec. Tj. Harapan, Kota Solok";"SUMATERA BARAT";"27317";"Indonesia";" 075523966";"";"";"-0.783492";"100.6629077";"https://maps.google.com/?cid=0x0:0xda9979ba995061a5";""
"supermarket";"Toko bahan makanan";"FE swalayan";"Jl. By Pass Ktk, Kampai Tabu Karambia, Kec. Lubuk Sikarah, Kabupaten Solok, Sumatera Barat";"Kabupaten Solok, Sumatera Barat";"SUMATERA BARAT";"";"Indonesia";"";"";"";"-0.804766";"100.6566997";"https://maps.google.com/?cid=0x0:0xe62832c4fde8918f";""
"supermarket";"Minimarket";"Tiga Putra Mart(ahmad yani)";"Vi Suku, Kec. Lubuk Sikarah, Kota Solok, Sumatera Barat 27317";"Kec. Lubuk Sikarah, Kota Solok";"SUMATERA BARAT";"27317";"Indonesia";" 082182310404";"";"";"-0.7900361";"100.649837";"https://maps.google.com/?cid=0x0:0x638b2f73db9f276b";""
"supermarket";"Toko bahan makanan";"SRC TIARA JAYA";"jln solok alahan panjang km 9, simpang sdn No.13, Bukit Tandang, Kec. Bukit Sundi, Kabupaten Solok, Sumatera Barat 27381";"simpang sdn No.13, Bukit Tandang, Kec. Bukit Sundi, Kabupaten Solok";"SUMATERA BARAT";"27381";"Indonesia";" 082386074646";"";"";"-0.8462372";"100.708023";"https://maps.google.com/?cid=0x0:0xa2d7b8a7135e181e";""
"supermarket";"Minimarket";"Qina mart";"Jl. Prof. Dr. Moh. Yamin Sh, Ps. Pandan Air Mati, Kec. Tj. Harapan, Kota Solok, Sumatera Barat 27317";"Ps. Pandan Air Mati, Kec. Tj. Harapan, Kota Solok";"SUMATERA BARAT";"27317";"Indonesia";" 0895630040777";"";"";"-0.7894316";"100.6617517";"https://maps.google.com/?cid=0x0:0x50658309b7ce5d2c";""
"supermarket";"Toko Swalayan";"Haikal Mart";"Jl. By Pass Ktk, Kampai Tabu Karambia, Kec. Lubuk Sikarah, Kota Solok, Sumatera Barat 27315";"Kampai Tabu Karambia, Kec. Lubuk Sikarah, Kota Solok";"SUMATERA BARAT";"27315";"Indonesia";" 082392502402";"";"";"-0.8026838";"100.662188";"https://maps.google.com/?cid=0x0:0xc55b67aa8db55c91";""
"supermarket";"Toko Swalayan";"SRC PIS";"jl. Raya Muara Panas - Koto Baru. Koto Panjang, Muara Panas, Koto Baru, Kec. Kubung, Kabupaten Solok, Sumatera Barat 27381";"Muara Panas, Koto Baru, Kec. Kubung, Kabupaten Solok";"SUMATERA BARAT";"27381";"Indonesia";"";"";"";"-0.8479233";"100.6838392";"https://maps.google.com/?cid=0x0:0x8574a41417409946";""
"supermarket";"Toko";"Toko Ari Dini";"Perhentian bendi, Jl. Tangah Muara Panas, Panyakalan, Kec. Bukit Sundi, Kabupaten Solok, Sumatera Barat 27449";"Jl. Tangah Muara Panas, Panyakalan, Kec. Bukit Sundi, Kabupaten Solok";"SUMATERA BARAT";"27449";"Indonesia";" 082387302171";"";"";"-0.8130473";"100.6756874";"https://maps.google.com/?cid=0x0:0xe799df4843459747";""
"supermarket";"Toko";"Djaros swalayan solok";"Jl. Prof. Dr. Moh. Yamin Sh, pandan, Kec. Tj. Harapan, Kota Solok, Sumatera Barat 27322";"pandan, Kec. Tj. Harapan, Kota Solok";"SUMATERA BARAT";"27322";"Indonesia";" 082294264141";"";"";"-0.7886622";"100.664294";"https://maps.google.com/?cid=0x0:0xf9d06ac8e4375d1f";""
"supermarket";"Toko Swalayan";"Gubalo Mart";"Jl. Nasir Sutan Pamuncak No.Kel, Pasa Pandan Air Mati, Kec. Tj. Harapan, Kota Solok, Sumatera Barat 27323";"Pasa Pandan Air Mati, Kec. Tj. Harapan, Kota Solok";"SUMATERA BARAT";"27323";"Indonesia";"";"";"";"-0.7892644";"100.6673717";"https://maps.google.com/?cid=0x0:0x49f63113614e7541";""
"supermarket";"Pusat Perbelanjaan";"DAPUR SANJAI "ZIVANEZ"";"6MRQ+9H4, Jl lintas Sumatera, Guguak Sarai, Kec.IX Koto Sei.Lasi, Saok Laweh, Kec. Kubung, Kab Solok, Sumatera Barat 27361";"Jl lintas Sumatera, Guguak Sarai, Kec.IX Koto Sei.Lasi, Saok Laweh, Kec. Kubung, Kab Solok";"SUMATERA BARAT";"27361";"Indonesia";" 085265491234";"";"";"-0.7591122";"100.6889564";"https://maps.google.com/?cid=0x0:0x90d81577d27d5b88";""
"supermarket";"Grosir Barang Kelontong";"Toko Iqbal";"8GMP+RMF, Paninggahan, Kec. Junjung Sirih, Kabupaten Solok, Sumatera Barat 27388";"Paninggahan, Kec. Junjung Sirih, Kabupaten Solok";"SUMATERA BARAT";"27388";"Indonesia";" 081372437898";"";"";"-0.6654444";"100.5366682";"https://maps.google.com/?cid=0x0:0x41316e5f96d28c13";""
"supermarket";"supermarket";"Kec. Pantai Cermin";"Kabupaten Solok, Sumatera Barat";"Kabupaten Solok, Sumatera Barat";"SUMATERA BARAT";"";"Indonesia";"";"";"";"-1.245774";"100.8795896";"https://maps.google.com/?cid=0x0:0x4039d80b220e1c0";""
"supermarket";"Toko bahan makanan";"Toko Yuda";"QVG8+2HJ, Aia Daliak, Lolo, Kec. Pantai Cermin, Kabupaten Solok, Sumatera Barat 27373";"Aia Daliak, Lolo, Kec. Pantai Cermin, Kabupaten Solok";"SUMATERA BARAT";"27373";"Indonesia";"";"";"";"-1.2249131";"100.8663801";"https://maps.google.com/?cid=0x0:0x24bef5cd0dd5090f";""
"supermarket";"Toko Swalayan";"Toko Agen Sifa hana";"QV8C+XH5, Jl. Padang - Surian, Lolo, Kec. Pantai Cermin, Kabupaten Solok, Sumatera Barat 27373";"Jl. Padang - Surian, Lolo, Kec. Pantai Cermin, Kabupaten Solok";"SUMATERA BARAT";"27373";"Indonesia";" 085307550204";"";"";"-1.2326024";"100.8714947";"https://maps.google.com/?cid=0x0:0xf83335a8b5b6b722";""
"supermarket";"supermarket";"Sumatera Barat";"";"Sumatera Barat";"SUMATERA BARAT";"";"Indonesia";"";"";"";"-0.7399397";"100.8000051";"https://maps.google.com/?cid=0x0:0x70b151b975d53b55";""
"supermarket";"Toko bahan makanan";"Sumber Rezeki";"JXW9+RM4, Jl. Pantai Gudang Garam, Kota Pari, Kec. Pantai Cermin, Kabupaten Serdang Bedagai, Sumatera Utara 20987";"Jl. Pantai Gudang Garam, Kota Pari, Kec. Pantai Cermin, Kabupaten Serdang Bedagai";"SUMATERA BARAT";"20987";"Indonesia";"";"";"";"3.6470024";"98.9692085";"https://maps.google.com/?cid=0x0:0x9db8df1ffb121db5";""
"supermarket";"Toko umum";"Kedai Musa Jaya";"J249+6PC, Pematang Kasih, Kec. Pantai Cermin, Kabupaten Serdang Bedagai, Sumatera Utara 20987";"Pematang Kasih, Kec. Pantai Cermin, Kabupaten Serdang Bedagai";"SUMATERA BARAT";"20987";"Indonesia";" 085669135916";"";"";"3.6055645";"99.0192788";"https://maps.google.com/?cid=0x0:0x936e4b3ac732a87c";""
"supermarket";"Toko Fotokopi";"Photo Copy Zhafira";"JXVJ+368, Jl. Mayjen H. T. Rizal Nurdin, Kanan, Kec. Pantai Cermin, Kabupaten Serdang Bedagai, Sumatera Utara 20987";"Jl. Mayjen H. T. Rizal Nurdin, Kanan, Kec. Pantai Cermin, Kabupaten Serdang Bedagai";"SUMATERA BARAT";"20987";"Indonesia";" 085360838484";"";"";"3.642655";"98.9805892";"https://maps.google.com/?cid=0x0:0x7999c1b239c9568c";""
"supermarket";"Pemasok Pupuk";"UD Sumber Tani";"dusun IV Jl. Menang No.22, Pantai Cermin Kiri, Kec. Pantai Cermin, Kabupaten Serdang Bedagai, Sumatera Utara 20987";"Pantai Cermin Kiri, Kec. Pantai Cermin, Kabupaten Serdang Bedagai";"SUMATERA BARAT";"20987";"Indonesia";" 081370349043";"";"";"3.6379016";"98.9932828";"https://maps.google.com/?cid=0x0:0x2c4945b9e7049f5a";""
"supermarket";"Toko";"Toko Riska";"JW5V+3GP, Dusun VII, Celawan, Kec. Pantai Cermin, Kabupaten Serdang Bedagai, Sumatera Utara 20987";"Dusun VII, Celawan, Kec. Pantai Cermin, Kabupaten Serdang Bedagai";"SUMATERA BARAT";"20987";"Indonesia";"";"";"";"3.6077725";"98.9438492";"https://maps.google.com/?cid=0x0:0x5de56978ea3a708";""
"supermarket";"supermarket";"Sumatera Utara 20987";"Kabupaten Serdang Bedagai, Sumatera Utara";"Kabupaten Serdang Bedagai, Sumatera Utara";"SUMATERA BARAT";"";"Indonesia";"";"";"";"3.6277947";"98.9576571";"https://maps.google.com/?cid=0x0:0x5ace0891de283dc0";""
"supermarket";"Toko bahan makanan";"Indomaret pantai cermin kanan";"JXRH+JXR, Jl. Mayjen H. T. Rizal Nurdin, Pantai Cermin Kanan, Kec. Pantai Cermin, Kabupaten Serdang Bedagai, Sumatera Utara 20987";"Jl. Mayjen H. T. Rizal Nurdin, Pantai Cermin Kanan, Kec. Pantai Cermin, Kabupaten Serdang Bedagai";"SUMATERA BARAT";"20987";"Indonesia";"";"";"";"3.6416232";"98.979901";"https://maps.google.com/?cid=0x0:0x460fd78fd6da10b4";""
"supermarket";"Toko grosir";"Grosir Jarwo";"HWRJ+4G7, Ujung Rambung, Kec. Pantai Cermin, Kabupaten Serdang Bedagai, Sumatera Utara 20987";"Ujung Rambung, Kec. Pantai Cermin, Kabupaten Serdang Bedagai";"SUMATERA BARAT";"20987";"Indonesia";"";"";"";"3.5902817";"98.9312984";"https://maps.google.com/?cid=0x0:0x45a02aa571a0a61f";""
"supermarket";"Toko bahan makanan";"kedai runcit rani amru";"H2XP+VWQ, Lidah Tanah, Kec. Perbaungan, Kabupaten Serdang Bedagai, Sumatera Utara 20987";"Lidah Tanah, Kec. Perbaungan, Kabupaten Serdang Bedagai";"SUMATERA BARAT";"20987";"Indonesia";"";"";"";"3.599723";"99.037345";"https://maps.google.com/?cid=0x0:0x280e0204a7a53c88";""
"supermarket";"Toko Swalayan";"Abadi Jaya";"Jl. Waringin Melati 2, Melati Kebun, Kec. Perbaungan, Kabupaten Serdang Bedagai, Sumatera Utara 20986";"Melati Kebun, Kec. Perbaungan, Kabupaten Serdang Bedagai";"SUMATERA BARAT";"20986";"Indonesia";"";"";"";"3.5628647";"98.961271";"https://maps.google.com/?cid=0x0:0x4904f14e263373e7";""
"supermarket";"Toko bahan makanan";"Filza Jaya";"Unnamed Road, Lubuk Rotan, Kec. Perbaungan, Kabupaten Serdang Bedagai, Sumatera Utara 20987";"Lubuk Rotan, Kec. Perbaungan, Kabupaten Serdang Bedagai";"SUMATERA BARAT";"20987";"Indonesia";" 081377171372";"";"";"3.5757935";"99.0548603";"https://maps.google.com/?cid=0x0:0x589eb44d7347352d";""
"supermarket";"Pusat Perbelanjaan";"Mura mart";"MV4X+48P, Jl. Perintis Kemerdekaan Jl. Pantai Labu, Ramunia Satu, Kec. Pantai Labu, Kabupaten Deli Serdang, Sumatera Utara 20553";"Jl. Perintis Kemerdekaan Jl. Pantai Labu, Ramunia Satu, Kec. Pantai Labu, Kabupaten Deli Serdang";"SUMATERA BARAT";"20553";"Indonesia";"";"";"";"3.6553331";"98.8983139";"https://maps.google.com/?cid=0x0:0x78c19fe707a4a531";""
"supermarket";"Grosir Barang Kelontong";"Grosir tukiran";"Jln.pertanian, Sukajadi hulu, dusun l, Suka Jadi, Kec. Perbaungan, Kabupaten Serdang Bedagai, Sumatera Utara 20986";"Sukajadi hulu, dusun l, Suka Jadi, Kec. Perbaungan, Kabupaten Serdang Bedagai";"SUMATERA BARAT";"20986";"Indonesia";" 081263216533";"";"";"3.5915402";"98.9711247";"https://maps.google.com/?cid=0x0:0xb43a73925b18161";""
"supermarket";"Toko";"Toko Cindy (wd)";"Desa, Jl. Dusun V, Lidah Tanah, Kec. Perbaungan, Kabupaten Serdang Bedagai, Sumatera Utara 20986";"Jl. Dusun V, Lidah Tanah, Kec. Perbaungan, Kabupaten Serdang Bedagai";"SUMATERA BARAT";"20986";"Indonesia";" 085359378749";"";"";"3.581149";"99.024452";"https://maps.google.com/?cid=0x0:0x887f759d4db6779a";""
"supermarket";"Toko bahan makanan";"KEDAI PAK SELAMAT RIADI";"jl. laksana dusun 2 desa, Jambur Pulau, Kec. Perbaungan, Kabupaten Serdang Bedagai, Sumatera Utara 20986";"Jambur Pulau, Kec. Perbaungan, Kabupaten Serdang Bedagai";"SUMATERA BARAT";"20986";"Indonesia";" 081263423214";"";"";"3.5822788";"98.9598282";"https://maps.google.com/?cid=0x0:0x2784076a42b3124d";""
"supermarket";"Toko Swalayan";"Toko alex";"H376+783, Unnamed Road, Lubuk Bayas, Kec. Perbaungan, Kabupaten Serdang Bedagai, Sumatera Utara 20987";"Unnamed Road, Lubuk Bayas, Kec. Perbaungan, Kabupaten Serdang Bedagai";"SUMATERA BARAT";"20987";"Indonesia";"";"";"";"3.5631394";"99.0607924";"https://maps.google.com/?cid=0x0:0x95fab9178049ec21";""
"supermarket";"Toko";"Q~Ratu Water";"H2H4+99X, Jl. Sukaberas Desa, Suka Beras, Kec. Perbaungan, Kabupaten Serdang Bedagai, Sumatera Utara 20986";"Jl. Sukaberas Desa, Suka Beras, Kec. Perbaungan, Kabupaten Serdang Bedagai";"SUMATERA BARAT";"20986";"Indonesia";" 085277528564";"";"";"3.5784986";"99.0059861";"https://maps.google.com/?cid=0x0:0x690f8d5a1dda3fb2";""
"supermarket";"Toko Mebel";"PerabotElektronik Makarona";"JXRH+GW8, Pantai Cermin Kanan, Kec. Pantai Cermin, Kabupaten Serdang Bedagai, Sumatera Utara 20987";"Pantai Cermin Kanan, Kec. Pantai Cermin, Kabupaten Serdang Bedagai";"SUMATERA BARAT";"20987";"Indonesia";" 082276158935";"";"";"3.641276";"98.9798398";"https://maps.google.com/?cid=0x0:0xb5407313f7545479";""
"supermarket";"Toko bahan makanan";"Guppy XXI";"Denai Lama, Kec. Pantai Labu, Kabupaten Deli Serdang, Sumatera Utara 20987";"Kec. Pantai Labu, Kabupaten Deli Serdang";"SUMATERA BARAT";"20987";"Indonesia";" 081397502209";"";"";"3.640108";"98.9222942";"https://maps.google.com/?cid=0x0:0x2f94cdc928cf7ae7";""
"supermarket";"Toko Swalayan";"Kede Dedek";"H378+QR9, Lubuk Bayas, Kec. Perbaungan, Kabupaten Serdang Bedagai, Sumatera Utara 20987";"Lubuk Bayas, Kec. Perbaungan, Kabupaten Serdang Bedagai";"SUMATERA BARAT";"20987";"Indonesia";"";"";"";"3.5644247";"99.067101";"https://maps.google.com/?cid=0x0:0x7c1782c313308277";""
"supermarket";"Minimarket";"AMT PERBAUNGAN";"Jl. Deli No.9, Simpang Tiga Pekan, Kec. Perbaungan, Kabupaten Serdang Bedagai, Sumatera Utara 20986";"Simpang Tiga Pekan, Kec. Perbaungan, Kabupaten Serdang Bedagai";"SUMATERA BARAT";"20986";"Indonesia";" 088807642292";"";"";"3.5662727";"98.9538636";"https://maps.google.com/?cid=0x0:0x706c8224910691bf";""
"supermarket";"supermarket";"Sumatera Barat 27373";"Surian, Kec. Pantai Cermin, Kabupaten Solok, Sumatera Barat";"Kabupaten Solok, Sumatera Barat";"SUMATERA BARAT";"";"Indonesia";"";"";"";"-1.2470801";"100.8677256";"https://maps.google.com/?cid=0x0:0xe2eefca03053855";""
"supermarket";"Toko bahan makanan";"Toko Yuda";"QVG8+2HJ, Aia Daliak, Lolo, Kec. Pantai Cermin, Kabupaten Solok, Sumatera Barat 27373";"Aia Daliak, Lolo, Kec. Pantai Cermin, Kabupaten Solok";"SUMATERA BARAT";"27373";"Indonesia";"";"";"";"-1.2249131";"100.8663801";"https://maps.google.com/?cid=0x0:0x24bef5cd0dd5090f";""
"supermarket";"Toko Swalayan";"Toko Agen Sifa hana";"QV8C+XH5, Jl. Padang - Surian, Lolo, Kec. Pantai Cermin, Kabupaten Solok, Sumatera Barat 27373";"Jl. Padang - Surian, Lolo, Kec. Pantai Cermin, Kabupaten Solok";"SUMATERA BARAT";"27373";"Indonesia";" 085307550204";"";"";"-1.2326024";"100.8714947";"https://maps.google.com/?cid=0x0:0xf83335a8b5b6b722";""
"supermarket";"supermarket";"Sumatera Barat 27387";"Kec. Payung Sekaki, Kabupaten Solok, Sumatera Barat";"Kabupaten Solok, Sumatera Barat";"SUMATERA BARAT";"";"Indonesia";"";"";"";"-0.8332376";"100.8677256";"https://maps.google.com/?cid=0x0:0x3ef15c6270984b26";""
"supermarket";"Toko bahan makanan";"toko berlianie";"2PXH+5JJ, jalan taratak baru, Koto Laweh, Kec. Lembang Jaya, Kabupaten Solok, Sumatera Barat 27383";"jalan taratak baru, Koto Laweh, Kec. Lembang Jaya, Kabupaten Solok";"SUMATERA BARAT";"27383";"Indonesia";" 081374244453";"";"";"-0.9520348";"100.7290011";"https://maps.google.com/?cid=0x0:0xb886bd17a6b5157b";""
"supermarket";"Toko bahan makanan";"Src intan";"3PQR+CXM, Jl. Solok - Alahan Panjang, kubng nan duo, Sirukam, Kec. Payung Sekaki, Kabupaten Solok, Sumatera Barat 27381";"Jl. Solok - Alahan Panjang, kubng nan duo, Sirukam, Kec. Payung Sekaki, Kabupaten Solok";"SUMATERA BARAT";"27381";"Indonesia";" 082283182815";"";"";"-0.9114079";"100.7424231";"https://maps.google.com/?cid=0x0:0x51e61fb300bf85ce";""
"supermarket";"Minimarket";"Ulfa Hafiz Mart";"Jl. Rimbo Data, Sungai Nanam, Kec. Lembah Gumanti, Kabupaten Solok, Sumatera Barat 27371";"Sungai Nanam, Kec. Lembah Gumanti, Kabupaten Solok";"SUMATERA BARAT";"27371";"Indonesia";" 085239894774";"";"";"-0.9987441";"100.7748518";"https://maps.google.com/?cid=0x0:0x73c14dad7d48f477";""
"supermarket";"Pusat Perbelanjaan";"MiniMarket Berkat Yakin";"2PR9+R6H, Jl. Solok - Danau Kembar, Bukit Sileh, Kec. Lembang Jaya, Kabupaten Solok, Sumatera Barat 27383";"Jl. Solok - Danau Kembar, Bukit Sileh, Kec. Lembang Jaya, Kabupaten Solok";"SUMATERA BARAT";"27383";"Indonesia";" 085263843642";"";"";"-0.9579406";"100.7181191";"https://maps.google.com/?cid=0x0:0x4c16fa2e5214430";""
"supermarket";"Toko bahan makanan";"Katumba";"3P2R+GM5, Batu Banyak, Kec. Lembang Jaya, Kabupaten Solok, Sumatera Barat 27383";"Batu Banyak, Kec. Lembang Jaya, Kabupaten Solok";"SUMATERA BARAT";"27383";"Indonesia";"";"";"";"-0.9487371";"100.7417298";"https://maps.google.com/?cid=0x0:0xec8aa0ee6a2c1706";""
"supermarket";"Toko Swalayan";"Shanum Mart";"Simp. Balai, Nagari Parambahan, Kec. Bukit Sundi, 27382, Kinari, Kec. Bukit Sundi, Kabupaten Solok, Sumatera Barat 27381";"Nagari Parambahan, Kec. Bukit Sundi,";"SUMATERA BARAT";"27382";"Indonesia";"";"";"";"-0.8806009";"100.712481";"https://maps.google.com/?cid=0x0:0x3c002dc760e3fb3f";""
"supermarket";"Minimarket";"ERZAMart";"Kinari, Kec. Bukit Sundi, Kabupaten Solok, Sumatera Barat 27381";"Kec. Bukit Sundi, Kabupaten Solok";"SUMATERA BARAT";"27381";"Indonesia";" 081277636298";"";"";"-0.8811515";"100.7114952";"https://maps.google.com/?cid=0x0:0x31ce4c99f332b302";""
"supermarket";"Pasar";"pasar Agropolitan Aie luluak Sungai nanam";"XQ7H+HJ2, Sungai Nanam, Kec. Lembah Gumanti, Kabupaten Solok, Sumatera Barat 27371";"Sungai Nanam, Kec. Lembah Gumanti, Kabupaten Solok";"SUMATERA BARAT";"27371";"Indonesia";" 081243848393";"";"";"-1.0361076";"100.7790144";"https://maps.google.com/?cid=0x0:0xdbc22b53c64b25c6";""
"supermarket";"Toko";"Toko Tapan Bersaudara";"XQPF+6C8, Jl. Gajah Mada, Sungai Nanam, Kec. Lembah Gumanti, Kabupaten Solok, Sumatera Barat 27371";"Jl. Gajah Mada, Sungai Nanam, Kec. Lembah Gumanti, Kabupaten Solok";"SUMATERA BARAT";"27371";"Indonesia";"";"";"";"-1.0144599";"100.7735838";"https://maps.google.com/?cid=0x0:0x4e0efa1dbb4b68ee";""
"supermarket";"Toko bahan makanan";"Kedai Buk Nis";"XQ7H+9RM, Sungai Nanam, Kec. Lembah Gumanti, Kabupaten Solok, Sumatera Barat 27371";"Sungai Nanam, Kec. Lembah Gumanti, Kabupaten Solok";"SUMATERA BARAT";"27371";"Indonesia";" 082170323791";"";"";"-1.0365311";"100.7795382";"https://maps.google.com/?cid=0x0:0xf0c4a8784ebde190";""
"supermarket";"Toko bahan makanan";"TIVANA MART";"Jl. Rimbo Data, Sungai Nanam, Kec. Lembah Gumanti, Alahanpanjang, Sumatera Barat 27371";"Sungai Nanam, Kec. Lembah Gumanti, Alahanpanjang";"SUMATERA BARAT";"27371";"Indonesia";" 081380988655";"";"";"-0.9919235";"100.7791771";"https://maps.google.com/?cid=0x0:0x13d88e9d0c8b7f25";""
"supermarket";"Toko umum";"Lapau Ama";"4P3G+CJ3 Simpan Limau Manis, Jorong Batu Sangkar, Dilam, Kec. Bukit Sundi, Kabupaten Solok, Sumatera Barat 27381";"Jorong Batu Sangkar, Dilam, Kec. Bukit Sundi, Kabupaten Solok";"SUMATERA BARAT";"27381";"Indonesia";"";"";"";"-0.8964975";"100.7265485";"https://maps.google.com/?cid=0x0:0x70285b29af942ce0";""
"supermarket";"Toko";"Toko Tali Merah Agro";"2Q4H+RC4, Jl. Rimbo Data, Sungai Nanam, Kec. Lembah Gumanti, Kabupaten Solok, Sumatera Barat 27371";"Jl. Rimbo Data, Sungai Nanam, Kec. Lembah Gumanti, Kabupaten Solok";"SUMATERA BARAT";"27371";"Indonesia";" 085363636355";"";"";"-0.9929909";"100.7785813";"https://maps.google.com/?cid=0x0:0x5ed8a6f0fb7c822f";""
"supermarket";"Toko Buah dan Sayur";"Warung Buah Alex";"4P5R+3P8, Parambahan, Kec. Bukit Sundi, Kabupaten Solok, Sumatera Barat 27381";"Parambahan, Kec. Bukit Sundi, Kabupaten Solok";"SUMATERA BARAT";"27381";"Indonesia";"";"";"";"-0.8923499";"100.7418247";"https://maps.google.com/?cid=0x0:0x321dea2ba7a94c64";""
"supermarket";"supermarket";"Toserba faviva";"4PFV+Q5X, Tabek - Supayang, Kec. Payung Sekaki, Kabupaten Solok, Sumatera Barat";"Kabupaten Solok, Sumatera Barat";"SUMATERA BARAT";"";"Indonesia";"";"";"";"-0.8755077";"100.7429928";"https://maps.google.com/?cid=0x0:0x51e774ffa8121f7d";""
"supermarket";"supermarket";"GUSTI FATIMAH";"4QQC+W89, Sirukam, Kec. Payung Sekaki, Kabupaten Solok, Sumatera Barat 27387";"Sirukam, Kec. Payung Sekaki, Kabupaten Solok";"SUMATERA BARAT";"27387";"Indonesia";"";"";"";"-0.8602205";"100.7708506";"https://maps.google.com/?cid=0x0:0x18de6a91108f81dd";""
"supermarket";"supermarket";"NC Supermarket";"2VPR+64G, Rangkiang Luluih, Tigo Lurah Bajanjang, Kabupaten Solok, Sumatera Barat 27372";"Rangkiang Luluih, Tigo Lurah Bajanjang, Kabupaten Solok";"SUMATERA BARAT";"27372";"Indonesia";"";"";"";"-0.9644431";"100.8903261";"https://maps.google.com/?cid=0x0:0xebf52f1616429e27";""
"supermarket";"supermarket";"SRC Rafi dan Daopet Ayra";"3PVR+7HF, Jl. Solok - Alahan Panjang, Dilam, Kec. Bukit Sundi, Kabupaten Solok, Sumatera Barat 27381";"Jl. Solok - Alahan Panjang, Dilam, Kec. Bukit Sundi, Kabupaten Solok";"SUMATERA BARAT";"27381";"Indonesia";"";"";"";"-0.9068213";"100.7414136";"https://maps.google.com/?cid=0x0:0x31dbfbd215464fd6";""
"supermarket";"Toko Swalayan";"kadai pemi";"XPFF+RQ6, Jl. Solok - Danau Kembar, Kp. Batu Dalam, Kec. Danau Kembar, Kabupaten Solok, Sumatera Barat 27383";"Jl. Solok - Danau Kembar, Kp. Batu Dalam, Kec. Danau Kembar, Kabupaten Solok";"SUMATERA BARAT";"27383";"Indonesia";"";"";"";"-1.0254665";"100.7243796";"https://maps.google.com/?cid=0x0:0x2943da0a43956437";""
"supermarket";"Pusat Perbelanjaan";"Toko Anjeli tani";"XQCG+MMQ, Sungai Nanam, Kec. Lembah Gumanti, Kabupaten Solok, Sumatera Barat 27371";"Sungai Nanam, Kec. Lembah Gumanti, Kabupaten Solok";"SUMATERA BARAT";"27371";"Indonesia";"";"";"";"-1.02829";"100.7767256";"https://maps.google.com/?cid=0x0:0xe6e4fbc2fb9f7e2a";""
"supermarket";"Toko bahan makanan";"Kedai Bibah";"6QW3+F6P, Jl. Lintas Sumatera, Pianggu, Kec. IX Koto Sungai Lasi, Kabupaten Solok, Sumatera Barat 27388";"Jl. Lintas Sumatera, Pianggu, Kec. IX Koto Sungai Lasi, Kabupaten Solok";"SUMATERA BARAT";"27388";"Indonesia";"";"";"";"-0.753793";"100.7530594";"https://maps.google.com/?cid=0x0:0xfccce687915da073";""
"supermarket";"Toko Pakaian";"Toko Qowy Muhty";"XPGF+7H8, Jl. Solok - Danau Kembar, Kp. Batu Dalam, Kec. Danau Kembar, Kabupaten Solok, Sumatera Barat";"Kabupaten Solok, Sumatera Barat";"SUMATERA BARAT";"";"Indonesia";" 081374721754";"";"";"-1.0243317";"100.7239682";"https://maps.google.com/?cid=0x0:0x1dd58b6662e284cd";""
"supermarket";"Toko bahan makanan";"DINI MART";"WQQM+MQ2, Jl. Gajah Mada No. Bukik rampuang, Alahan Panjang, Kec. Lembah Gumanti, Kabupaten Solok, Sumatera Barat 27371";"Jl. Gajah Mada No. Bukik rampuang, Alahan Panjang, Kec. Lembah Gumanti, Kabupaten Solok";"SUMATERA BARAT";"27371";"Indonesia";" 081267717778";"";"";"-1.060872";"100.784375";"https://maps.google.com/?cid=0x0:0x31fef86305a1767f";""
"supermarket";"Toko bahan makanan";"Toko Welza";"2P67+H55, Jl. Solok - Danau Kembar, Batu Bajanjang, Kec. Lembang Jaya, Kabupaten Solok, Sumatera Barat 27383";"Jl. Solok - Danau Kembar, Batu Bajanjang, Kec. Lembang Jaya, Kabupaten Solok";"SUMATERA BARAT";"27383";"Indonesia";" 085274453523";"";"";"-0.9886055";"100.7129918";"https://maps.google.com/?cid=0x0:0x288f6cf8f793cd00";""
"supermarket";"Toko bahan makanan";"GEMINI MART";"Depan Masjid Raya, Ps. Muara Labuh, Kec. Sungai Pagu, Kabupaten Solok Selatan, Sumatera Barat 27776";"Ps. Muara Labuh, Kec. Sungai Pagu, Kabupaten Solok Selatan";"SUMATERA BARAT";"27776";"Indonesia";" 082284435189";"";"";"-1.477898";"101.0545854";"https://maps.google.com/?cid=0x0:0xa47d4ea14827de70";""
"supermarket";"Minimarket";"Orenji daily and k-mart";"Jl. Gereja No.40, dibelakang tangsi, Kec. Padang Bar., Kota Padang, Sumatera Barat 25119";"dibelakang tangsi, Kec. Padang Bar., Kota Padang";"SUMATERA BARAT";"25119";"Indonesia";" 081378335151";"";"";"-0.9576256";"100.355997";"https://maps.google.com/?cid=0x0:0x80d70d92f6f1570f";""
"supermarket";"supermarket";"Kec. Payung Sekaki";"Kota Pekanbaru, Riau";"Kota Pekanbaru, Riau";"SUMATERA BARAT";"";"Indonesia";"";"";"";"0.5170403";"101.3991634";"https://maps.google.com/?cid=0x0:0xb29d0aa452748801";""
"supermarket";"Bengkel Sepeda Motor";"Vareasi motor  Ampar Besi Edo";"3PRR+4JG, Dilam, Kec. Bukit Sundi, Kabupaten Solok, Sumatera Barat 27381";"Dilam, Kec. Bukit Sundi, Kabupaten Solok";"SUMATERA BARAT";"27381";"Indonesia";"";"";"";"-0.9096933";"100.7415658";"https://maps.google.com/?cid=0x0:0xe6583f9e8977f84b";""
"supermarket";"supermarket";"Riau 28292";"Kota Pekanbaru, Riau";"Kota Pekanbaru, Riau";"SUMATERA BARAT";"";"Indonesia";"";"";"";"0.4876228";"101.3998518";"https://maps.google.com/?cid=0x0:0x6390004f5c75d59a";""
"supermarket";"Pusat Perbelanjaan";"Transmart Pekanbaru";"Jl. Musyawarah No.11, Labuh Baru Tim., Kec. Payung Sekaki, Kota Pekanbaru, Riau 28292";"Labuh Baru Tim., Kec. Payung Sekaki, Kota Pekanbaru";"SUMATERA BARAT";"28292";"Indonesia";" 082208255195";"";"";"0.5031622";"101.4200591";"https://maps.google.com/?cid=0x0:0x60a28e2af0890e0a";""
"supermarket";"Grosir Barang Kelontong";"Toko Grosir Eldrick";"Jl. Fajar No.58G, Labuh Baru Bar., Kec. Payung Sekaki, Kota Pekanbaru, Riau 28292";"Labuh Baru Bar., Kec. Payung Sekaki, Kota Pekanbaru";"SUMATERA BARAT";"28292";"Indonesia";" 081267394769";"";"";"0.5109333";"101.4062051";"https://maps.google.com/?cid=0x0:0x65e9e744c6d1d687";""
"supermarket";"Toko umum";"Mini Market Berkah Mart - Komputer/Laptop  Travel - BRILink";"simpang sikuai, kubang nan duo, Kec. Payung Sekaki, Kabupaten Solok, Sumatera Barat 27381";"kubang nan duo, Kec. Payung Sekaki, Kabupaten Solok";"SUMATERA BARAT";"27381";"Indonesia";" 081267851962";"";"";"-0.9159853";"100.7425425";"https://maps.google.com/?cid=0x0:0x63449a47bc046094";""
"supermarket";"Toko bahan makanan";"O2 Swalayan";"HC7X+XMF, Jl. Sembilang, Limbungan Baru, Kec. Rumbai Pesisir, Kota Pekanbaru, Riau 28261";"Jl. Sembilang, Limbungan Baru, Kec. Rumbai Pesisir, Kota Pekanbaru";"SUMATERA BARAT";"28261";"Indonesia";" 082385958832";"";"";"0.5649429";"101.4491759";"https://maps.google.com/?cid=0x0:0x7f23c9264876228e";""
"supermarket";"Toko bahan makanan";"Golden Mart";"Jalan Fajar No. 28 A-B-C, Labuh Baru Barat, Payung Sekaki, Labuh Baru Bar., Kec. Payung Sekaki, Kota Pekanbaru, Riau 28292";"Labuh Baru Barat, Payung Sekaki, Labuh Baru Bar., Kec. Payung Sekaki, Kota Pekanbaru";"SUMATERA BARAT";"28292";"Indonesia";"";"";"";"0.5138645";"101.4167427";"https://maps.google.com/?cid=0x0:0x72ff7a4da5c8d310";""
"supermarket";"Toko Bahan Bangunan";"Mitra Bangunan Supermarket";"Labuh Baru Bar., Kec. Payung Sekaki, Kota Pekanbaru, Riau 28292";"Kec. Payung Sekaki, Kota Pekanbaru";"SUMATERA BARAT";"28292";"Indonesia";" 081277877176";"";"";"0.499438";"101.408534";"https://maps.google.com/?cid=0x0:0x513313a4932675fa";""
"supermarket";"Toko Swalayan";"Cendana Mart";"Jl. Durian No.4, Labuh Baru Tim., Kec. Payung Sekaki, Kota Pekanbaru, Riau 28292";"Labuh Baru Tim., Kec. Payung Sekaki, Kota Pekanbaru";"SUMATERA BARAT";"28292";"Indonesia";" 082388390168";"";"";"0.5169704";"101.431025";"https://maps.google.com/?cid=0x0:0x7fd1357259af1320";""
"supermarket";"Toko Swalayan";"Green Mart";"GCFG+8GP, Jl. Jendral, Labuh Baru Tim., Kec. Payung Sekaki, Kota Pekanbaru, Riau 28291";"Jl. Jendral, Labuh Baru Tim., Kec. Payung Sekaki, Kota Pekanbaru";"SUMATERA BARAT";"28291";"Indonesia";" 082384401204";"";"";"0.523344";"101.4263427";"https://maps.google.com/?cid=0x0:0x9ca4852025ccb629";""
"supermarket";"Minimarket";"Swalayan 189";"Jl. Dharma Bakti No.7, Labuh Baru Bar., Kec. Payung Sekaki, Kota Pekanbaru, Riau 28292";"Labuh Baru Bar., Kec. Payung Sekaki, Kota Pekanbaru";"SUMATERA BARAT";"28292";"Indonesia";" 085263669521";"";"";"0.5169824";"101.4189819";"https://maps.google.com/?cid=0x0:0xb2d7cf1857b4f175";""
"supermarket";"Toko Swalayan";"711 Swalayan (999)";"Jl. Riau No.10-188, Air Hitam, Kec. Payung Sekaki, Kota Pekanbaru, Riau 28292";"Air Hitam, Kec. Payung Sekaki, Kota Pekanbaru";"SUMATERA BARAT";"28292";"Indonesia";" 082386404711";"";"";"0.5353292";"101.426145";"https://maps.google.com/?cid=0x0:0x5e38980a0b48eae4";""
"supermarket";"Pusat Perbelanjaan";"Cahaya Mart";"Jl. Fajar No.45, Labuh Baru Bar., Kec. Payung Sekaki, Kota Pekanbaru, Riau 28292";"Labuh Baru Bar., Kec. Payung Sekaki, Kota Pekanbaru";"SUMATERA BARAT";"28292";"Indonesia";"";"";"";"0.5113343";"101.4110612";"https://maps.google.com/?cid=0x0:0x8fc6333fbb7cf7e7";""
"supermarket";"Toko";"LOTTE GROSIR PEKANBARU";"Jl. Soekarno - Hatta No.50, Labuh Baru Tim., Kec. Payung Sekaki, Kota Pekanbaru, Riau 29291";"Labuh Baru Tim., Kec. Payung Sekaki, Kota Pekanbaru";"SUMATERA BARAT";"29291";"Indonesia";" 0761572215";"";"";"0.5063201";"101.4206768";"https://maps.google.com/?cid=0x0:0xe7a09b369a6f3fd1";""
"supermarket";"Grosir";"Alfamart";"Jl. Beringin Jl. Air Hitam, RT.002/RW.015, Labuh Baru Bar., Kec. Payung Sekaki, Kabupaten Kampar, Riau 28292";"RT.002/RW.015, Labuh Baru Bar., Kec. Payung Sekaki, Kabupaten Kampar";"SUMATERA BARAT";"28292";"Indonesia";" 1500959";"";"";"0.5044955";"101.3600032";"https://maps.google.com/?cid=0x0:0xf858b2b9a715f1a1";""
"supermarket";"Toko bahan makanan";"Buyung Family";"Jl. Dharma Bakti No.48, Labuh Baru Bar., Kec. Payung Sekaki, Kota Pekanbaru, Riau 28292";"Labuh Baru Bar., Kec. Payung Sekaki, Kota Pekanbaru";"SUMATERA BARAT";"28292";"Indonesia";" 081365080413";"";"";"0.5168962";"101.4115382";"https://maps.google.com/?cid=0x0:0x2e4aa44aff08f19f";""
"supermarket";"Toko Swalayan";"JUMBO MART, DELIMA";"Jl. Delima, Delima, Kec. Tampan, Kota Pekanbaru, Riau 28292";"Delima, Kec. Tampan, Kota Pekanbaru";"SUMATERA BARAT";"28292";"Indonesia";"";"";"";"0.4732174";"101.4058521";"https://maps.google.com/?cid=0x0:0x2a0cc63d7323289";""
"supermarket";"Toko Swalayan";"Nangka Swalayan";"Jl. Nangka No.124, 28128, Labuh Baru Tim., Kec. Payung Sekaki, Kota Pekanbaru, Riau 28124";"28128, Labuh Baru Tim., Kec. Payung Sekaki, Kota Pekanbaru";"SUMATERA BARAT";"28124";"Indonesia";" 076127859";"";"";"0.5027363";"101.4247886";"https://maps.google.com/?cid=0x0:0x31320f54345cf641";""
"supermarket";"Pasar";"Sentra Medika Asri";"JL. Tuanku Tambusai, No. 316 RT. 01 RW. 05, Labuh Baru Bar., Kec. Payung Sekaki, Kota Pekanbaru, Riau 28292";"No. 316 RT. 01 RW. 05, Labuh Baru Bar., Kec. Payung Sekaki, Kota Pekanbaru";"SUMATERA BARAT";"28292";"Indonesia";" 07617010505";"";"";"0.509141";"101.393806";"https://maps.google.com/?cid=0x0:0x892eab074827e184";""
"supermarket";"Restoran";"Tek Ros Swalayan - Lobak";"Jl. Lobak, Delima, Kec. Tampan, Kota Pekanbaru, Riau 28292";"Delima, Kec. Tampan, Kota Pekanbaru";"SUMATERA BARAT";"28292";"Indonesia";" 085219303938";"";"";"0.4794327";"101.4118919";"https://maps.google.com/?cid=0x0:0x3dcf01850fdb40fc";""
"supermarket";"Pusat Perbelanjaan";"Timur Tengah Store Cabang Durian";"No. 68H, Jl. Durian, East Labuh Baru, Payung Sekaki, Pekanbaru City, Riau 28292";"Jl. Durian, East Labuh Baru, Payung Sekaki, Pekanbaru City";"SUMATERA BARAT";"28292";"Indonesia";" 081378758038";"";"";"0.5172464";"101.4230084";"https://maps.google.com/?cid=0x0:0x12f8ddcb57086eaa";""
"supermarket";"Toko Swalayan";"Swalayan D'Seven";"FC62+CQW, Sidomulyo Bar., Kec. Tampan, Kota Pekanbaru, Riau 28294";"Sidomulyo Bar., Kec. Tampan, Kota Pekanbaru";"SUMATERA BARAT";"28294";"Indonesia";" 082385993128";"";"";"0.4611232";"101.4019572";"https://maps.google.com/?cid=0x0:0x53f0d274dc8320a6";""
"supermarket";"Minimarket";"Alfamart Siak 2";"Jl. Siak 2, RT.003/RW.011, Labuh Baru Bar., Kec. Payung Sekaki, Kota Pekanbaru, Riau 28292";"RT.003/RW.011, Labuh Baru Bar., Kec. Payung Sekaki, Kota Pekanbaru";"SUMATERA BARAT";"28292";"Indonesia";" 1500959";"";"";"0.5120277";"101.3955997";"https://maps.google.com/?cid=0x0:0x497a7420dc01de65";""
"supermarket";"Toko bahan makanan";"Toko Ririn";"Jl. Fajar Ujung No.29, Labuh Baru Bar., Kec. Payung Sekaki, Kota Pekanbaru, Riau 28292";"Labuh Baru Bar., Kec. Payung Sekaki, Kota Pekanbaru";"SUMATERA BARAT";"28292";"Indonesia";" 0895623739075";"";"";"0.5080379";"101.4026418";"https://maps.google.com/?cid=0x0:0xc3027ea07f4f0820";""
"supermarket";"Toko bahan makanan";"Toko Nurul";"GC63+582, Gg. Pulai, Labuh Baru Bar., Kec. Payung Sekaki, Kota Pekanbaru, Riau 28292";"Gg. Pulai, Labuh Baru Bar., Kec. Payung Sekaki, Kota Pekanbaru";"SUMATERA BARAT";"28292";"Indonesia";"";"";"";"0.5103961";"101.4032732";"https://maps.google.com/?cid=0x0:0x4da0c8b6cdcfa7a8";""
"supermarket";"Toko Swalayan";"Mulia Mart";"GCRF+7GP, Jl. Pemuda, Tampan, Kec. Payung Sekaki, Kota Pekanbaru, Riau 28292";"Jl. Pemuda, Tampan, Kec. Payung Sekaki, Kota Pekanbaru";"SUMATERA BARAT";"28292";"Indonesia";"";"";"";"0.5408139";"101.4236771";"https://maps.google.com/?cid=0x0:0xe3b4130c8bb8b4c0";""
"supermarket";"Toko Bahan Bangunan";"Toko Bangunan Pekanbaru Terlengkap - Mitra10 Pekanbaru";"Gedung Mitra10 Sebelah Transmart, Jl. Soekarno-Hatta, Labuh Baru Tim., Kec. Payung Sekaki, Kota Pekanbaru, Riau 28292";"Jl. Soekarno-Hatta, Labuh Baru Tim., Kec. Payung Sekaki, Kota Pekanbaru";"SUMATERA BARAT";"28292";"Indonesia";" 087800021010";"";"";"0.503908";"101.4200939";"https://maps.google.com/?cid=0x0:0xe054a8fee1b02f73";""
"supermarket";"Toko Swalayan";"Iin Swalayan Durian";"Jl. Durian No.91c, Kp. Melayu, Kec. Sukajadi, Kota Pekanbaru, Riau 28122";"Kp. Melayu, Kec. Sukajadi, Kota Pekanbaru";"SUMATERA BARAT";"28122";"Indonesia";"";"";"";"0.5166139";"101.4317193";"https://maps.google.com/?cid=0x0:0xf9796449633284b2";""
"supermarket";"Toko Swalayan";"Swalayan 999";"FC77+P6M, Delima, Kec. Tampan, Kota Pekanbaru, Riau 28289";"Delima, Kec. Tampan, Kota Pekanbaru";"SUMATERA BARAT";"28289";"Indonesia";"";"";"";"0.4643305";"101.4130408";"https://maps.google.com/?cid=0x0:0xbca1d7d50856fdb4";""
"supermarket";"Toko Swalayan";"HyperMart Mall SKA";"Mall SKA, Jl. Simpang Soekarno Hatta , Jl. Tuanku Tambusai Jl. Nangka D/H, Delima, Kec. Tampan, Kota Pekanbaru, Riau 28292";"Jl. Simpang Soekarno Hatta , Jl. Tuanku Tambusai Jl. Nangka D/H, Delima, Kec. Tampan, Kota Pekanbaru";"SUMATERA BARAT";"28292";"Indonesia";" 08117088268";"";"";"0.4995349";"101.4188124";"https://maps.google.com/?cid=0x0:0x2f2740d71ada1b44";""
"supermarket";"supermarket";"Sumatera Barat 27372";"Kabupaten Solok, Sumatera Barat";"Kabupaten Solok, Sumatera Barat";"SUMATERA BARAT";"";"Indonesia";"";"";"";"-1.0766962";"101.0259275";"https://maps.google.com/?cid=0x0:0xeac2349b2f58a85f";""
"supermarket";"Pasar";"Sungai Pangalek Market";"VWFW+49P, Unnamed Road, Sariak Alahan Tigo, Kec. Hiliran Gumanti, Kabupaten Solok, Sumatera Barat 27372";"Unnamed Road, Sariak Alahan Tigo, Kec. Hiliran Gumanti, Kabupaten Solok";"SUMATERA BARAT";"27372";"Indonesia";"";"";"";"-1.1271529";"100.9459434";"https://maps.google.com/?cid=0x0:0xb3cbc78e2b3a0b46";""
"supermarket";"Bengkel Mobil";"HENDRA MOTOR";"Unnamed Road, Batu Bajanjang, Tigo Lurah Bajanjang, Kabupaten Solok, Sumatera Barat 27372";"Batu Bajanjang, Tigo Lurah Bajanjang, Kabupaten Solok";"SUMATERA BARAT";"27372";"Indonesia";"";"";"";"-0.9694603";"100.8912421";"https://maps.google.com/?cid=0x0:0xc538e3249dde1088";""
"supermarket";"Toko bahan makanan";"Simpang Bulakkan";"WV5F+H9J, Talang Babungo, Kec. Hiliran Gumanti, Kabupaten Solok, Sumatera Barat 27372";"Talang Babungo, Kec. Hiliran Gumanti, Kabupaten Solok";"SUMATERA BARAT";"27372";"Indonesia";"";"";"";"-1.0910516";"100.8734205";"https://maps.google.com/?cid=0x0:0x9c9fa43eb43da239";""
"supermarket";"Toko bahan makanan";"Tantarak";"RX99+PP6, Sungai Abu, Kec. Hiliran Gumanti, Kabupaten Solok, Sumatera Barat 27372";"Sungai Abu, Kec. Hiliran Gumanti, Kabupaten Solok";"SUMATERA BARAT";"27372";"Indonesia";"";"";"";"-1.18071";"100.9692515";"https://maps.google.com/?cid=0x0:0xe091ce9998b743c6";""
"supermarket";"Pasar tradisional";"pasar sariak ateh";"VW8R+6GJ, Sariak Alahan Tigo, Kec. Hiliran Gumanti, Kabupaten Solok, Sumatera Barat 27372";"Sariak Alahan Tigo, Kec. Hiliran Gumanti, Kabupaten Solok";"SUMATERA BARAT";"27372";"Indonesia";"";"";"";"-1.1344139";"100.9412668";"https://maps.google.com/?cid=0x0:0x31b29f329521aa75";""
"supermarket";"Toko bahan makanan";"Toko Yuda";"QVG8+2HJ, Aia Daliak, Lolo, Kec. Pantai Cermin, Kabupaten Solok, Sumatera Barat 27373";"Aia Daliak, Lolo, Kec. Pantai Cermin, Kabupaten Solok";"SUMATERA BARAT";"27373";"Indonesia";"";"";"";"-1.2249131";"100.8663801";"https://maps.google.com/?cid=0x0:0x24bef5cd0dd5090f";""
"supermarket";"Minimarket";"Minimarket Zhiu";"PVWP+3W5, Surian, Kec. Pantai Cermin, Kabupaten Solok, Sumatera Barat 27373";"Surian, Kec. Pantai Cermin, Kabupaten Solok";"SUMATERA BARAT";"27373";"Indonesia";" 082283394459";"";"";"-1.2548576";"100.8873605";"https://maps.google.com/?cid=0x0:0xaabcba4e3741b77c";""
"supermarket";"Minimarket";"AL HIDAYAH MART";"WQQM+GP2, Jl. Gajah Mada. Bukik rampuang, Alahan Panjang, Kec. Lembah Gumanti, Kabupaten Solok, Sumatera Barat 27371";"Jl. Gajah Mada. Bukik rampuang, Alahan Panjang, Kec. Lembah Gumanti, Kabupaten Solok";"SUMATERA BARAT";"27371";"Indonesia";" 081364964473";"";"";"-1.0612308";"100.7842723";"https://maps.google.com/?cid=0x0:0xbc8035471421d03c";""
"supermarket";"Pasar Petani";"kedai zulfarman batu tinggi";"VWQJ+3JP sungai anggai, Sariak Alahan Tigo, Kec. Hiliran Gumanti, Kabupaten Solok, Sumatera Barat 27372";"Sariak Alahan Tigo, Kec. Hiliran Gumanti, Kabupaten Solok";"SUMATERA BARAT";"27372";"Indonesia";" 085265764068";"";"";"-1.1122979";"100.9315809";"https://maps.google.com/?cid=0x0:0xf2200f94a82c113";""
"supermarket";"Toko Swalayan";"MARDHATILLAH";"Jl. Gajah Mada, Alahan Panjang, Kec. Lembah Gumanti, Kabupaten Solok, Sumatera Barat 27371";"Alahan Panjang, Kec. Lembah Gumanti, Kabupaten Solok";"SUMATERA BARAT";"27371";"Indonesia";" 081267602223";"";"";"-1.0506909";"100.7815247";"https://maps.google.com/?cid=0x0:0x4e4fcb2973044e27";""
"supermarket";"Toko Perlengkapan Rumah";"kedai reni and fauzi";"VWH8+8CQ, Sariak Alahan Tigo, Kec. Hiliran Gumanti, Kabupaten Solok, Sumatera Barat 27372";"Sariak Alahan Tigo, Kec. Hiliran Gumanti, Kabupaten Solok";"SUMATERA BARAT";"27372";"Indonesia";"";"";"";"-1.1216572";"100.9161166";"https://maps.google.com/?cid=0x0:0xf7e349f1ca6c529a";""
"supermarket";"Balai masyarakat";"Kantor Camat Tigo Lurah";"2WF2+328, Unnamed Road, Batu Bajanjang, Tigo Lurah Bajanjang, Kabupaten Solok, Sumatera Barat 27372";"Unnamed Road, Batu Bajanjang, Tigo Lurah Bajanjang, Kabupaten Solok";"SUMATERA BARAT";"27372";"Indonesia";"";"";"";"-0.9773291";"100.9000649";"https://maps.google.com/?cid=0x0:0xc5deead738d1b48";""
"supermarket";"Toko bahan makanan";"UD.irfanAzizi";"WRCQ+FRM, Talang Babungo, Kec. Hiliran Gumanti, Kabupaten Solok, Sumatera Barat 27372";"Talang Babungo, Kec. Hiliran Gumanti, Kabupaten Solok";"SUMATERA BARAT";"27372";"Indonesia";" 082268497070";"";"";"-1.0787794";"100.8395395";"https://maps.google.com/?cid=0x0:0x9966e26132b06d63";""
"supermarket";"Kedai Kopi";"Kedai ALana Panariak";"2VGF+4R6, Batu Bajanjang, Tigo Lurah Bajanjang, Kabupaten Solok, Sumatera Barat 27372";"Batu Bajanjang, Tigo Lurah Bajanjang, Kabupaten Solok";"SUMATERA BARAT";"27372";"Indonesia";"";"";"";"-0.974711";"100.8745085";"https://maps.google.com/?cid=0x0:0x4f5ca553a5773cd3";""
"supermarket";"Toko Swalayan";"Warung Buk El";"WV8F+RJ5, Talang Babungo, Kec. Hiliran Gumanti, Kabupaten Solok, Sumatera Barat 27372";"Talang Babungo, Kec. Hiliran Gumanti, Kabupaten Solok";"SUMATERA BARAT";"27372";"Indonesia";"";"";"";"-1.0829805";"100.874097";"https://maps.google.com/?cid=0x0:0xca7275f504f277fd";""
"supermarket";"Toko bahan makanan";"Kedai Buk Nis";"XQ7H+9RM, Sungai Nanam, Kec. Lembah Gumanti, Kabupaten Solok, Sumatera Barat 27371";"Sungai Nanam, Kec. Lembah Gumanti, Kabupaten Solok";"SUMATERA BARAT";"27371";"Indonesia";" 082170323791";"";"";"-1.0365311";"100.7795382";"https://maps.google.com/?cid=0x0:0xf0c4a8784ebde190";""
"supermarket";"Toko Swalayan";"Toko Agen Sifa hana";"QV8C+XH5, Jl. Padang - Surian, Lolo, Kec. Pantai Cermin, Kabupaten Solok, Sumatera Barat 27373";"Jl. Padang - Surian, Lolo, Kec. Pantai Cermin, Kabupaten Solok";"SUMATERA BARAT";"27373";"Indonesia";" 085307550204";"";"";"-1.2326024";"100.8714947";"https://maps.google.com/?cid=0x0:0xf83335a8b5b6b722";""
"supermarket";"Toko bahan makanan";"9 saudara";"WV5G+3JF, Taratak jarang, Talang Babungo, Kec. Hiliran Gumanti, Kabupaten Solok, Sumatera Barat 27372";"Taratak jarang, Talang Babungo, Kec. Hiliran Gumanti, Kabupaten Solok";"SUMATERA BARAT";"27372";"Indonesia";" 085228235722";"";"";"-1.0923204";"100.8765617";"https://maps.google.com/?cid=0x0:0x1407557b4c03a53e";""
"supermarket";"Toko umum";"Lapau nenek padang";"XQ6V+89, Sungai Nanam, Kec. Lembah Gumanti, Kabupaten Solok, Sumatera Barat";"Kabupaten Solok, Sumatera Barat";"SUMATERA BARAT";"";"Indonesia";"";"";"";"-1.0391677";"100.7932251";"https://maps.google.com/?cid=0x0:0x7189a37b816c6ffb";""
"supermarket";"Toko";"Global Mart";"WPXP+3JG, Jalan Padang - Alahan Panjang, Kenagarian, Simpang Tj. Nan IV, Kec. Danau Kembar, Kabupaten Solok, Sumatera Barat 27384";"Jalan Padang - Alahan Panjang, Kenagarian, Simpang Tj. Nan IV, Kec. Danau Kembar, Kabupaten Solok";"SUMATERA BARAT";"27384";"Indonesia";" 081266836666";"";"";"-1.0523061";"100.7365931";"https://maps.google.com/?cid=0x0:0xcfdcf99ce952781f";""
"supermarket";"Toko bahan makanan";"Kedai Wina  Gina (Mimid)";"WV4G+8VM, Talang Babungo, Kec. Hiliran Gumanti, Kabupaten Solok, Sumatera Barat 27372";"Talang Babungo, Kec. Hiliran Gumanti, Kabupaten Solok";"SUMATERA BARAT";"27372";"Indonesia";"";"";"";"-1.0941608";"100.8771789";"https://maps.google.com/?cid=0x0:0x3ffad9e9f96d0ecf";""
"supermarket";"Minimarket";"Ulfa Hafiz Mart";"Jl. Rimbo Data, Sungai Nanam, Kec. Lembah Gumanti, Kabupaten Solok, Sumatera Barat 27371";"Sungai Nanam, Kec. Lembah Gumanti, Kabupaten Solok";"SUMATERA BARAT";"27371";"Indonesia";" 085239894774";"";"";"-0.9987441";"100.7748518";"https://maps.google.com/?cid=0x0:0x73c14dad7d48f477";""
"supermarket";"Toko bahan makanan";"DINI MART";"WQQM+MQ2, Jl. Gajah Mada No. Bukik rampuang, Alahan Panjang, Kec. Lembah Gumanti, Kabupaten Solok, Sumatera Barat 27371";"Jl. Gajah Mada No. Bukik rampuang, Alahan Panjang, Kec. Lembah Gumanti, Kabupaten Solok";"SUMATERA BARAT";"27371";"Indonesia";" 081267717778";"";"";"-1.060872";"100.784375";"https://maps.google.com/?cid=0x0:0x31fef86305a1767f";""
"supermarket";"Grosir Barang Kelontong";"Toko Sofi";"XQ5G+4HP, Jl. Sp Kulik Manih - Taratak Pauah, Alahan Panjang, Kec. Lembah Gumanti, Kabupaten Solok, Sumatera Barat 27371";"Jl. Sp Kulik Manih - Taratak Pauah, Alahan Panjang, Kec. Lembah Gumanti, Kabupaten Solok";"SUMATERA BARAT";"27371";"Indonesia";"";"";"";"-1.0421671";"100.7764566";"https://maps.google.com/?cid=0x0:0x789634738cb5cb44";""
"supermarket";"Pusat Perbelanjaan";"MiniMarket Berkat Yakin";"2PR9+R6H, Jl. Solok - Danau Kembar, Bukit Sileh, Kec. Lembang Jaya, Kabupaten Solok, Sumatera Barat 27383";"Jl. Solok - Danau Kembar, Bukit Sileh, Kec. Lembang Jaya, Kabupaten Solok";"SUMATERA BARAT";"27383";"Indonesia";" 085263843642";"";"";"-0.9579406";"100.7181191";"https://maps.google.com/?cid=0x0:0x4c16fa2e5214430";""
"supermarket";"Minimarket";"Hadi  Afiqa Mart";"VR46+8HH, Aie Dingin, Kec. Lembah Gumanti, Kabupaten Solok, Sumatera Barat 27371";"Aie Dingin, Kec. Lembah Gumanti, Kabupaten Solok";"SUMATERA BARAT";"27371";"Indonesia";"";"";"";"-1.144197";"100.81148";"https://maps.google.com/?cid=0x0:0x1f402470ddc4a268";""
"supermarket";"Toko Herbal";"Distributor ECO RACING";"XQ2J+R82, Jl. Gajah Mada, Sungai Nanam, Kec. Lembah Gumanti, Kabupaten Solok, Sumatera Barat 27371";"Jl. Gajah Mada, Sungai Nanam, Kec. Lembah Gumanti, Kabupaten Solok";"SUMATERA BARAT";"27371";"Indonesia";" 082392030114";"";"";"-1.0479833";"100.780773";"https://maps.google.com/?cid=0x0:0x75690a52c6a8a75d";""
"supermarket";"Toko";"TOKO NATASYA";"depan tk mawar putih, jl syeh kaciak 30 taratak pauah, Alahan Panjang, Kec. Lembah Gumanti, Kabupaten Solok, Sumatera Barat 27371";"jl syeh kaciak 30 taratak pauah, Alahan Panjang, Kec. Lembah Gumanti, Kabupaten Solok";"SUMATERA BARAT";"27371";"Indonesia";"";"";"";"-1.0728673";"100.7830826";"https://maps.google.com/?cid=0x0:0xed96f9ee2f2303e7";""
