Category,Real Category,Business Name,Address,City,State,Postal Code,Country,Phone,Email,Website,Latitude,Longitude,Map Link,Details Link
hotel,hotel,Nusa Tenggara Bar. 84456,"Kec. Jereweh, Kabupaten Sumbawa Barat, Nusa Tenggara Bar.","Kabupaten Sumbawa Barat, Nusa Tenggara Bar.",NUSA TENGGARA BARAT,,Indonesia,,,,-8.947527,116.9145901,https://maps.google.com/?cid=0x0:0xd8d94f4df4b390cb,
hotel,hotel,Pasir Putih Resort Sumbawa Barat NTB,"pantai, Pasir Putih, Kec. Maluk, Kabupaten Sumbawa Barat, Nusa Tenggara Bar. 84538","Pasir Putih, Kec. Maluk, Kabupaten Sumbawa Barat",NUSA TENGGARA BARAT,84538.0,Indonesia,8999090666.0,,,-8.9167766,116.7464519,https://maps.google.com/?cid=0x0:0xa1b62b15efd02e78,
hotel,hotel,CONJIOO HOTEL SUMBAWA,"Jl. Raya Maluk No.88, Maluk, Kec. Maluk, Sumbawa, Nusa Tenggara Bar. 84310","Maluk, Kec. Maluk, Sumbawa",NUSA TENGGARA BARAT,84310.0,Indonesia,82211223830.0,,,-8.9219852,116.7556059,https://maps.google.com/?cid=0x0:0xedfcc77c656153e3,
hotel,hotel,SuperSuck Hotel,"Sekongkang, Sekongkang Bawah, Kec. Maluk, sumbawa, Nusa Tenggara Bar.","sumbawa, Nusa Tenggara Bar.",NUSA TENGGARA BARAT,,Indonesia,,,,-8.9303284,116.7460245,https://maps.google.com/?cid=0x0:0xd776bc40395bc9ab,
hotel,hotel,Mama Nings Beach Hotel,"2PFP+4X, Sekongkang Bawah, Kec. Sekongkang, Kabupaten Sumbawa Barat, Nusa Tenggara Bar. 84457","Sekongkang Bawah, Kec. Sekongkang, Kabupaten Sumbawa Barat",NUSA TENGGARA BARAT,84457.0,Indonesia,81353818041.0,,,-8.9774419,116.7373088,https://maps.google.com/?cid=0x0:0x9efaaaa0efbfe38b,
hotel,hotel,Kacchapa Beach Resort and Restaurant,"Jl Lingkar Selatan, Sekongkang Bawah, Kec. Sekongkang, Kabupaten Sumbawa Barat, Nusa Tenggara Bar. 84457","Sekongkang Bawah, Kec. Sekongkang, Kabupaten Sumbawa Barat",NUSA TENGGARA BARAT,84457.0,Indonesia,81239792055.0,,,-8.9799213,116.7370082,https://maps.google.com/?cid=0x0:0x989eaf9bbdaa929e,
hotel,hotel,Surfindo - Rantung Beach Hotel,"Balong Balong Surf Bungalows, Jl. Raya Rantung, Sekongkang Bawah, Kec. Sekongkang, Kabupaten Sumbawa Barat, Nusa Tenggara Bar.","Kabupaten Sumbawa Barat, Nusa Tenggara Bar.",NUSA TENGGARA BARAT,,Indonesia,82236742200.0,,,-8.979395,116.7373685,https://maps.google.com/?cid=0x0:0x519f69b12edb85ef,
hotel,hotel,Maluk Stay,"Bukit Damai, Kec. Maluk, Kabupaten Sumbawa Barat, Nusa Tenggara Bar. 84459","Kec. Maluk, Kabupaten Sumbawa Barat",NUSA TENGGARA BARAT,84459.0,Indonesia,82220333896.0,,,-8.9122804,116.751775,https://maps.google.com/?cid=0x0:0x20085915e550b003,
hotel,hotel,Passifika Sumbawa,"Jl. Batu Hijau, Pasir Putih, Kec. Maluk, Kabupaten Sumbawa Barat, Nusa Tenggara Bar. 84456","Pasir Putih, Kec. Maluk, Kabupaten Sumbawa Barat",NUSA TENGGARA BARAT,84456.0,Indonesia,81337218343.0,,,-8.9155005,116.7516761,https://maps.google.com/?cid=0x0:0xca928b7feee37b14,
hotel,hotel,MYAMO Beach Lodge,"Jelenga Bay, Beru, Kec. Jereweh, Kabupaten Sumbawa Barat, Nusa Tenggara Bar. 84456","Beru, Kec. Jereweh, Kabupaten Sumbawa Barat",NUSA TENGGARA BARAT,84456.0,Indonesia,82340478331.0,,,-8.8601377,116.7639313,https://maps.google.com/?cid=0x0:0xe35e7a204f8e0147,
hotel,hotel,,,,NUSA TENGGARA BARAT,,Indonesia,,,,,,https://maps.google.com/?cid=0x0:0xe35e7a204f8e0147%7C/g/11cs6lpdt4%7Cid-ID,
hotel,hotel,Scar Reef Homestay + Starlink Wifi,"Dusun Jelenga, Beru, Kec. Jereweh, Kabupaten Sumbawa Barat, Nusa Tenggara Bar. 84456","Beru, Kec. Jereweh, Kabupaten Sumbawa Barat",NUSA TENGGARA BARAT,84456.0,Indonesia,85882559831.0,,,-8.8612982,116.7690928,https://maps.google.com/?cid=0x0:0xbacddf8b4ae99e44,
hotel,hotel,Kini Resort,"Sekongkang Bawah, Kec. Sekongkang, Kabupaten Sumbawa Barat, Nusa Tenggara Bar. 84457","Kec. Sekongkang, Kabupaten Sumbawa Barat",NUSA TENGGARA BARAT,84457.0,Indonesia,82144956038.0,,,-8.9705127,116.7322418,https://maps.google.com/?cid=0x0:0x7300be216facf977,
hotel,hotel,Castaway Surf Retreat,"Jl. Raya Rantung, Sekongkang Bawah, Kec. Sekongkang, Kabupaten Sumbawa Barat, Nusa Tenggara Bar.","Kabupaten Sumbawa Barat, Nusa Tenggara Bar.",NUSA TENGGARA BARAT,,Indonesia,81138113331.0,,,-8.9789824,116.737397,https://maps.google.com/?cid=0x0:0xeb159f92381f08a8,
hotel,hotel,Gili Dua Resort,"Jl. Raya Rantung Desa Batu Berkong, Sekongkang Bawah, Kec. Sekongkang, Kabupaten Sumbawa Barat, Nusa Tenggara Bar. 84457","Sekongkang Bawah, Kec. Sekongkang, Kabupaten Sumbawa Barat",NUSA TENGGARA BARAT,84457.0,Indonesia,82341324171.0,,,-8.9734021,116.7392595,https://maps.google.com/?cid=0x0:0x4f23bf87e724ab84,
hotel,hotel,Damai Bungalows,"Beru, Kec. Jereweh, Jelenga, Nusa Tenggara Bar. 84456","Kec. Jereweh, Jelenga",NUSA TENGGARA BARAT,84456.0,Indonesia,85333138974.0,,,-8.8629012,116.7656583,https://maps.google.com/?cid=0x0:0xc628f68f8a6f806f,
hotel,hotel,Kahurangi,"2PGQ+2J, Sekongkang Bawah, Kec. Sekongkang, Kabupaten Sumbawa Barat, Nusa Tenggara Bar.","Kabupaten Sumbawa Barat, Nusa Tenggara Bar.",NUSA TENGGARA BARAT,,Indonesia,82236744204.0,,,-8.9749954,116.7390895,https://maps.google.com/?cid=0x0:0x2e95a4c7192fcde9,
hotel,hotel,Scar Reef Resort,"Beru, Jereweh, Beru, Kec. Jereweh, Kabupaten Sumbawa Barat, Nusa Tenggara Bar.","Kabupaten Sumbawa Barat, Nusa Tenggara Bar.",NUSA TENGGARA BARAT,,Indonesia,81235775627.0,,,-8.8588781,116.7648221,https://maps.google.com/?cid=0x0:0x8741119822a9ba9b,
hotel,hotel,Kirana Retreat,"2PPH+F4P Pantai Lawar, Sekongkang Bawah, Kec. Sekongkang, Kabupaten Sumbawa Barat, Nusa Tenggara Bar. 84457","Sekongkang Bawah, Kec. Sekongkang, Kabupaten Sumbawa Barat",NUSA TENGGARA BARAT,84457.0,Indonesia,82144956038.0,,,-8.9638462,116.7278614,https://maps.google.com/?cid=0x0:0xf682c25ff5844787,
hotel,hotel,Aisyah Villa Sumbawa,"4QQ9+V58, Beru, Kec. Taliwang, Kabupaten Sumbawa Barat, Nusa Tenggara Bar. 84456","Beru, Kec. Taliwang, Kabupaten Sumbawa Barat",NUSA TENGGARA BARAT,84456.0,Indonesia,82340830336.0,,,-8.8603125,116.7679375,https://maps.google.com/?cid=0x0:0x31c59088ba31b5b6,
hotel,hotel,Kost Putih/White Guest House,"Gang Bukit Indah, Sekongkang Bawah, Kec. Sekongkang, Kabupaten Sumbawa Barat, Nusa Tenggara Bar. 84457","Sekongkang Bawah, Kec. Sekongkang, Kabupaten Sumbawa Barat",NUSA TENGGARA BARAT,84457.0,Indonesia,81997997994.0,,,-8.9661411,116.7541254,https://maps.google.com/?cid=0x0:0xb71fb2d1cfdc8bdc,
hotel,hotel,Bukit Samudra Sumbawa,"Jl. Tano Kertasari, Labuan Kertasari, Kec. Taliwang, Kabupaten Sumbawa Barat, Nusa Tenggara Bar.","Kabupaten Sumbawa Barat, Nusa Tenggara Bar.",NUSA TENGGARA BARAT,,Indonesia,81339988865.0,,,-8.6696542,116.7628573,https://maps.google.com/?cid=0x0:0xc09ed52733f11adb,
hotel,hotel,Taliwang,"Kuang, Kec. Taliwang, Kabupaten Sumbawa Barat, Nusa Tenggara Bar.","Kabupaten Sumbawa Barat, Nusa Tenggara Bar.",NUSA TENGGARA BARAT,,Indonesia,,,,-8.751946,116.854599,https://maps.google.com/?cid=0x0:0xf98bdc32d4193ccb,
hotel,hotel,Grand Royal Makati Hotel,"Gerbang KTC, Kuang, Kec. Taliwang, Kabupaten Sumbawa Barat, Nusa Tenggara Bar. 84455","Kuang, Kec. Taliwang, Kabupaten Sumbawa Barat",NUSA TENGGARA BARAT,84455.0,Indonesia,8111281575.0,,,-8.7495092,116.8536313,https://maps.google.com/?cid=0x0:0x35e54abc670e881d,
hotel,hotel,Hotel Tubalong Syariah Taliwang,"Jl. Jend. Sudirman No.111, Dalam, Kec. Taliwang, Kabupaten Sumbawa Barat, Nusa Tenggara Bar. 84455","Dalam, Kec. Taliwang, Kabupaten Sumbawa Barat",NUSA TENGGARA BARAT,84455.0,Indonesia,82339563667.0,,,-8.7421603,116.8513468,https://maps.google.com/?cid=0x0:0x6d97c5e358911ef6,
hotel,hotel,Kertasari Lodge,"Jl. Tano Kertasari, Labuan Kertasari, Kec. Taliwang, Kabupaten Sumbawa Barat, Nusa Tenggara Bar. 84455","Labuan Kertasari, Kec. Taliwang, Kabupaten Sumbawa Barat",NUSA TENGGARA BARAT,84455.0,Indonesia,82147680941.0,,,-8.6916879,116.7774247,https://maps.google.com/?cid=0x0:0x85b9e1f4f69f6ecd,
hotel,hotel,RedDoorz @ Taliwang Sumbawa Barat,"Jl. Sutan Syahrir No.25, Bugis, Kec. Taliwang, Kabupaten Sumbawa Barat, Nusa Tenggara Bar. 84455","Bugis, Kec. Taliwang, Kabupaten Sumbawa Barat",NUSA TENGGARA BARAT,84455.0,Indonesia,2180629666.0,,,-8.7422498,116.8428322,https://maps.google.com/?cid=0x0:0x3e5fea9228a60431,
hotel,hotel,Bale Sabara,"7R2M+5JP, Jalan Raya, Bugis, Taliwang, West Sumbawa Regency, West Nusa Tenggara 84455","Jalan Raya, Bugis, Taliwang, West Sumbawa Regency",NUSA TENGGARA BARAT,84455.0,Indonesia,81905811115.0,,,-8.7495415,116.8340904,https://maps.google.com/?cid=0x0:0xe15156a79b35b3fc,
hotel,hotel,Hotel LJ,"6R68+9VW, Telaga Bertong, Kec. Taliwang, Kabupaten Sumbawa Barat, Nusa Tenggara Bar. 84455","Telaga Bertong, Kec. Taliwang, Kabupaten Sumbawa Barat",NUSA TENGGARA BARAT,84455.0,Indonesia,81239194564.0,,,-8.7890393,116.8172033,https://maps.google.com/?cid=0x0:0xc7694fd56bf90138,
hotel,hotel,Hong homestay,"Dsn padak, baru, Kec. Taliwang, Kabupaten Sumbawa Barat, Nusa Tenggara Bar. 84455","baru, Kec. Taliwang, Kabupaten Sumbawa Barat",NUSA TENGGARA BARAT,84455.0,Indonesia,85333121677.0,,,-8.7033982,116.7919534,https://maps.google.com/?cid=0x0:0x7e54e55ad4fc5530,
hotel,hotel,GoodMuning,"7QJP+XW4, Labuan Kertasari, Kec. Taliwang, Kabupaten Sumbawa Barat, Nusa Tenggara Bar.","Kabupaten Sumbawa Barat, Nusa Tenggara Bar.",NUSA TENGGARA BARAT,,Indonesia,,,,-8.7176054,116.7873223,https://maps.google.com/?cid=0x0:0x25bf2a8e405628e0,
hotel,hotel,Hotel Lia,"3QQ2+68V, Mantun, Kec. Maluk, Kabupaten Sumbawa Barat, Nusa Tenggara Bar. 84456","Mantun, Kec. Maluk, Kabupaten Sumbawa Barat",NUSA TENGGARA BARAT,84456.0,Indonesia,87887709290.0,,,-8.9118926,116.7507851,https://maps.google.com/?cid=0x0:0xbfe0035e72ba710d,
hotel,hotel,Hotel Samawa Rea,"Jl. Kebayan No.4, Uma Sima, Kec. Sumbawa, Kabupaten Sumbawa, Nusa Tenggara Bar. 84313","Uma Sima, Kec. Sumbawa, Kabupaten Sumbawa",NUSA TENGGARA BARAT,84313.0,Indonesia,37121133.0,,,-8.4888622,117.419907,https://maps.google.com/?cid=0x0:0xfb4a1ea19e2f33bd,
hotel,hotel,Kec. Seteluk,"Kabupaten Sumbawa Barat, Nusa Tenggara Bar.","Kabupaten Sumbawa Barat, Nusa Tenggara Bar.",NUSA TENGGARA BARAT,,Indonesia,,,,-8.6251785,116.8652498,https://maps.google.com/?cid=0x0:0x81f1c5d92dcd6f07,
hotel,Hotel,Mantar View Hotel,"9V95+CX3, Seteluk Tengah, Kec. Seteluk, Kabupaten Sumbawa Barat, Nusa Tenggara Bar. 84454","Seteluk Tengah, Kec. Seteluk, Kabupaten Sumbawa Barat",NUSA TENGGARA BARAT,84454.0,Indonesia,,,,-8.6320462,116.8598276,https://maps.google.com/?cid=0x0:0xd65aea126dab4990,
hotel,Hotel,Homestay SATERA,"9V95+FJ3, Seteluk Tengah, Kec. Seteluk, Kabupaten Sumbawa Barat, Nusa Tenggara Bar. 84454","Seteluk Tengah, Kec. Seteluk, Kabupaten Sumbawa Barat",NUSA TENGGARA BARAT,84454.0,Indonesia,81917605341.0,,,-8.6314492,116.8596388,https://maps.google.com/?cid=0x0:0x47a4f0bb2042e66b,
hotel,Rumah wisata,Muis hamida,"8R7X+25R, Meraran, Kec. Seteluk, Kabupaten Sumbawa Barat, Nusa Tenggara Bar. 84454","Meraran, Kec. Seteluk, Kabupaten Sumbawa Barat",NUSA TENGGARA BARAT,84454.0,Indonesia,,,,-8.6873844,116.8478881,https://maps.google.com/?cid=0x0:0x30c958db6f6a78c5,
hotel,hotel,Rumah Mas Ledew ( Lehan ),"8R7W+3VH, Meraran, Kec. Seteluk, Kabupaten Sumbawa Barat, Nusa Tenggara Bar. 84454","Meraran, Kec. Seteluk, Kabupaten Sumbawa Barat",NUSA TENGGARA BARAT,84454.0,Indonesia,,,,-8.6873186,116.8472376,https://maps.google.com/?cid=0x0:0xc1c82e5af5016d3f,
hotel,Penginapan,Parel gera',"Jl. Raya Taliwang No.14, Meraran, Kec. Seteluk, Kabupaten Sumbawa Barat, Nusa Tenggara Bar. 84454","Meraran, Kec. Seteluk, Kabupaten Sumbawa Barat",NUSA TENGGARA BARAT,84454.0,Indonesia,,,,-8.6865415,116.8499023,https://maps.google.com/?cid=0x0:0xf6a72e137ff09866,
hotel,Hostel,Rumah rampok,"8R7W+3VH, Meraran, Kec. Seteluk, Kabupaten Sumbawa Barat, Nusa Tenggara Bar. 84455","Meraran, Kec. Seteluk, Kabupaten Sumbawa Barat",NUSA TENGGARA BARAT,84455.0,Indonesia,,,,-8.6872501,116.8463734,https://maps.google.com/?cid=0x0:0x517a87f3a0df4483,
hotel,hotel,Nusa Tenggara Bar. 84457,"Kec. Sekongkang, Kabupaten Sumbawa Barat, Nusa Tenggara Bar.","Kabupaten Sumbawa Barat, Nusa Tenggara Bar.",NUSA TENGGARA BARAT,,Indonesia,,,,-9.0278591,116.9145901,https://maps.google.com/?cid=0x0:0xa55d05be516dbaf,
hotel,hotel,Mama Nings Beach Hotel,"2PFP+4X, Sekongkang Bawah, Kec. Sekongkang, Kabupaten Sumbawa Barat, Nusa Tenggara Bar. 84457","Sekongkang Bawah, Kec. Sekongkang, Kabupaten Sumbawa Barat",NUSA TENGGARA BARAT,84457.0,Indonesia,81353818041.0,,,-8.9774419,116.7373088,https://maps.google.com/?cid=0x0:0x9efaaaa0efbfe38b,
hotel,hotel,SuperSuck Hotel,"Sekongkang, Sekongkang Bawah, Kec. Maluk, sumbawa, Nusa Tenggara Bar.","sumbawa, Nusa Tenggara Bar.",NUSA TENGGARA BARAT,,Indonesia,,,,-8.9303284,116.7460245,https://maps.google.com/?cid=0x0:0xd776bc40395bc9ab,
hotel,hotel,Kacchapa Beach Resort and Restaurant,"Jl Lingkar Selatan, Sekongkang Bawah, Kec. Sekongkang, Kabupaten Sumbawa Barat, Nusa Tenggara Bar. 84457","Sekongkang Bawah, Kec. Sekongkang, Kabupaten Sumbawa Barat",NUSA TENGGARA BARAT,84457.0,Indonesia,81239792055.0,,,-8.9799213,116.7370082,https://maps.google.com/?cid=0x0:0x989eaf9bbdaa929e,
hotel,hotel,CONJIOO HOTEL SUMBAWA,"Jl. Raya Maluk No.88, Maluk, Kec. Maluk, Sumbawa, Nusa Tenggara Bar. 84310","Maluk, Kec. Maluk, Sumbawa",NUSA TENGGARA BARAT,84310.0,Indonesia,82211223830.0,,,-8.9219852,116.7556059,https://maps.google.com/?cid=0x0:0xedfcc77c656153e3,
hotel,hotel,Surfindo - Rantung Beach Hotel,"Balong Balong Surf Bungalows, Jl. Raya Rantung, Sekongkang Bawah, Kec. Sekongkang, Kabupaten Sumbawa Barat, Nusa Tenggara Bar.","Kabupaten Sumbawa Barat, Nusa Tenggara Bar.",NUSA TENGGARA BARAT,,Indonesia,82236742200.0,,,-8.979395,116.7373685,https://maps.google.com/?cid=0x0:0x519f69b12edb85ef,
hotel,hotel,Maluk Surfhouse,"Jl. Raya Pasir Putih, Pasir Putih, Maluk, West Sumbawa Regency, West Nusa Tenggara 84456","Pasir Putih, Maluk, West Sumbawa Regency",NUSA TENGGARA BARAT,84456.0,Indonesia,85339291109.0,,,-8.9161609,116.7475389,https://maps.google.com/?cid=0x0:0xa56457ef50fc543,
hotel,hotel,Gili Dua Resort,"Jl. Raya Rantung Desa Batu Berkong, Sekongkang Bawah, Kec. Sekongkang, Kabupaten Sumbawa Barat, Nusa Tenggara Bar. 84457","Sekongkang Bawah, Kec. Sekongkang, Kabupaten Sumbawa Barat",NUSA TENGGARA BARAT,84457.0,Indonesia,82341324171.0,,,-8.9734021,116.7392595,https://maps.google.com/?cid=0x0:0x4f23bf87e724ab84,
hotel,hotel,Kahurangi,"2PGQ+2J, Sekongkang Bawah, Kec. Sekongkang, Kabupaten Sumbawa Barat, Nusa Tenggara Bar.","Kabupaten Sumbawa Barat, Nusa Tenggara Bar.",NUSA TENGGARA BARAT,,Indonesia,82236744204.0,,,-8.9749954,116.7390895,https://maps.google.com/?cid=0x0:0x2e95a4c7192fcde9,
hotel,hotel,Maluk Stay,"Bukit Damai, Kec. Maluk, Kabupaten Sumbawa Barat, Nusa Tenggara Bar. 84459","Kec. Maluk, Kabupaten Sumbawa Barat",NUSA TENGGARA BARAT,84459.0,Indonesia,82220333896.0,,,-8.9122804,116.751775,https://maps.google.com/?cid=0x0:0x20085915e550b003,
hotel,hotel,Castaway Surf Retreat,"Jl. Raya Rantung, Sekongkang Bawah, Kec. Sekongkang, Kabupaten Sumbawa Barat, Nusa Tenggara Bar.","Kabupaten Sumbawa Barat, Nusa Tenggara Bar.",NUSA TENGGARA BARAT,,Indonesia,81138113331.0,,,-8.9789824,116.737397,https://maps.google.com/?cid=0x0:0xeb159f92381f08a8,
hotel,hotel,Passifika Sumbawa,"Jl. Batu Hijau, Pasir Putih, Kec. Maluk, Kabupaten Sumbawa Barat, Nusa Tenggara Bar. 84456","Pasir Putih, Kec. Maluk, Kabupaten Sumbawa Barat",NUSA TENGGARA BARAT,84456.0,Indonesia,81337218343.0,,,-8.9155005,116.7516761,https://maps.google.com/?cid=0x0:0xca928b7feee37b14,
hotel,hotel,Kini Resort,"Sekongkang Bawah, Kec. Sekongkang, Kabupaten Sumbawa Barat, Nusa Tenggara Bar. 84457","Kec. Sekongkang, Kabupaten Sumbawa Barat",NUSA TENGGARA BARAT,84457.0,Indonesia,82144956038.0,,,-8.9705127,116.7322418,https://maps.google.com/?cid=0x0:0x7300be216facf977,
hotel,hotel,Kirana Retreat,"2PPH+F4P Pantai Lawar, Sekongkang Bawah, Kec. Sekongkang, Kabupaten Sumbawa Barat, Nusa Tenggara Bar. 84457","Sekongkang Bawah, Kec. Sekongkang, Kabupaten Sumbawa Barat",NUSA TENGGARA BARAT,84457.0,Indonesia,82144956038.0,,,-8.9638462,116.7278614,https://maps.google.com/?cid=0x0:0xf682c25ff5844787,
hotel,Rumah wisata,Seed Village Bamboo Huts,"Jl. Tj. Mangkun - Sejorong, Sekongkang Bawah, Kec. Sekongkang, Sumbawa, Nusa Tenggara Bar. 84457","Sekongkang Bawah, Kec. Sekongkang, Sumbawa",NUSA TENGGARA BARAT,84457.0,Indonesia,81311056116.0,,,-9.0083258,116.7635594,https://maps.google.com/?cid=0x0:0xf442c9f00fb3bf3,
hotel,hotel,Kost Putih/White Guest House,"Gang Bukit Indah, Sekongkang Bawah, Kec. Sekongkang, Kabupaten Sumbawa Barat, Nusa Tenggara Bar. 84457","Sekongkang Bawah, Kec. Sekongkang, Kabupaten Sumbawa Barat",NUSA TENGGARA BARAT,84457.0,Indonesia,81997997994.0,,,-8.9661411,116.7541254,https://maps.google.com/?cid=0x0:0xb71fb2d1cfdc8bdc,
hotel,hotel,Blamada,"2PFP+WH5, Sekongkang Bawah, Kec. Sekongkang, Kabupaten Sumbawa Barat, Nusa Tenggara Bar. 84457","Sekongkang Bawah, Kec. Sekongkang, Kabupaten Sumbawa Barat",NUSA TENGGARA BARAT,84457.0,Indonesia,85333210794.0,,,-8.9751875,116.7364375,https://maps.google.com/?cid=0x0:0x525ecd4309741c71,
hotel,hotel,Baha Baha Villa's,"Unnamed Rd, Sekongkang, Sumbawa Barat, Nusa Tenggara Barat 84457, Indonesia, Sekongkang, Sekongkang Bawah, Nusa Tenggara Barat, Kabupaten Sumbawa Barat, Nusa Tenggara Bar. 84457","Sekongkang, Sumbawa Barat, Nusa Tenggara Barat",NUSA TENGGARA BARAT,84457.0,Indonesia,81246327539.0,,,-8.9742923,116.7376046,https://maps.google.com/?cid=0x0:0xc277eaf3abf7884a,
hotel,hotel,Aisyah Villa Sumbawa,"4QQ9+V58, Beru, Kec. Taliwang, Kabupaten Sumbawa Barat, Nusa Tenggara Bar. 84456","Beru, Kec. Taliwang, Kabupaten Sumbawa Barat",NUSA TENGGARA BARAT,84456.0,Indonesia,82340830336.0,,,-8.8603125,116.7679375,https://maps.google.com/?cid=0x0:0x31c59088ba31b5b6,
hotel,hotel,Scar Reef Homestay + Starlink Wifi,"Dusun Jelenga, Beru, Kec. Jereweh, Kabupaten Sumbawa Barat, Nusa Tenggara Bar. 84456","Beru, Kec. Jereweh, Kabupaten Sumbawa Barat",NUSA TENGGARA BARAT,84456.0,Indonesia,85882559831.0,,,-8.8612982,116.7690928,https://maps.google.com/?cid=0x0:0xbacddf8b4ae99e44,
hotel,hotel,Damai Bungalows,"Beru, Kec. Jereweh, Jelenga, Nusa Tenggara Bar. 84456","Kec. Jereweh, Jelenga",NUSA TENGGARA BARAT,84456.0,Indonesia,85333138974.0,,,-8.8629012,116.7656583,https://maps.google.com/?cid=0x0:0xc628f68f8a6f806f,
hotel,hotel,Kencana Beach Hotel,"G9R6+8XR, Labuhan Badas, Kabupaten Sumbawa, Nusa Tenggara Bar. 84316","Labuhan Badas, Kabupaten Sumbawa",NUSA TENGGARA BARAT,84316.0,Indonesia,37122439.0,,,-8.4591314,117.3623896,https://maps.google.com/?cid=0x0:0x989fa929bf9226aa,
hotel,hotel,Nusa Tenggara Bar. 84458,"Kec. Brang Rea, Kabupaten Sumbawa Barat, Nusa Tenggara Bar.","Kabupaten Sumbawa Barat, Nusa Tenggara Bar.",NUSA TENGGARA BARAT,,Indonesia,,,,-8.6999135,117.0087877,https://maps.google.com/?cid=0x0:0xd32541cc680b77d1,
hotel,hotel,Grand Royal Makati Hotel,"Gerbang KTC, Kuang, Kec. Taliwang, Kabupaten Sumbawa Barat, Nusa Tenggara Bar. 84455","Kuang, Kec. Taliwang, Kabupaten Sumbawa Barat",NUSA TENGGARA BARAT,84455.0,Indonesia,8111281575.0,,,-8.7495092,116.8536313,https://maps.google.com/?cid=0x0:0x35e54abc670e881d,
hotel,hotel,Tiu Batu caffe and Homestay,"F22C+HMQ Samping wisata bendungan, RT.002/RW.002, Beru, Marenteh, Kec. Alas, Kabupaten Sumbawa, Nusa Tenggara Bar. 84353","RT.002/RW.002, Beru, Marenteh, Kec. Alas, Kabupaten Sumbawa",NUSA TENGGARA BARAT,84353.0,Indonesia,81353431470.0,,,-8.5486579,117.0218507,https://maps.google.com/?cid=0x0:0x15950dd8ee39e78b,
hotel,hotel,Sollo-sollo Home Stay,"Labuan Kertasari, Kec. Taliwang, Kabupaten Sumbawa Barat, Nusa Tenggara Bar.","Kabupaten Sumbawa Barat, Nusa Tenggara Bar.",NUSA TENGGARA BARAT,,Indonesia,82341501569.0,,,-8.7195879,116.7872959,https://maps.google.com/?cid=0x0:0x37b8ab9f62371aae,
hotel,hotel,Kertasari Lodge,"Jl. Tano Kertasari, Labuan Kertasari, Kec. Taliwang, Kabupaten Sumbawa Barat, Nusa Tenggara Bar. 84455","Labuan Kertasari, Kec. Taliwang, Kabupaten Sumbawa Barat",NUSA TENGGARA BARAT,84455.0,Indonesia,82147680941.0,,,-8.6916879,116.7774247,https://maps.google.com/?cid=0x0:0x85b9e1f4f69f6ecd,
hotel,hotel,Bone puteh Homestay,"Desa Lab, Dusun Boneputeh, Labuan Kertasari, Kec. Taliwang, Kabupaten Sumbawa Barat, Nusa Tenggara Bar. 84455","Dusun Boneputeh, Labuan Kertasari, Kec. Taliwang, Kabupaten Sumbawa Barat",NUSA TENGGARA BARAT,84455.0,Indonesia,82339957773.0,,,-8.6901996,116.7764755,https://maps.google.com/?cid=0x0:0x5d202ba5dd8f1770,
hotel,hotel,Medya homestay,"8Q3P+52, Labuan Kertasari, Kec. Taliwang, Kabupaten Sumbawa Barat, Nusa Tenggara Bar.","Kabupaten Sumbawa Barat, Nusa Tenggara Bar.",NUSA TENGGARA BARAT,,Indonesia,82339687481.0,,,-8.6970473,116.7850437,https://maps.google.com/?cid=0x0:0xf88178273b432824,
hotel,hotel,Dewana Villa Balad,"Pantai Balad, Telaga Bertong, Kec. Taliwang, Kabupaten Sumbawa Barat, Nusa Tenggara Bar. 84455","Telaga Bertong, Kec. Taliwang, Kabupaten Sumbawa Barat",NUSA TENGGARA BARAT,84455.0,Indonesia,85239717888.0,,,-8.7647158,116.7921395,https://maps.google.com/?cid=0x0:0x88f9ba260840caa0,
hotel,hotel,WW Private two-bedroom villa with swimming pool,"Lemonga, Labuan Kertasari, Kec. Taliwang, Kabupaten Sumbawa Barat, Nusa Tenggara Bar.","Kabupaten Sumbawa Barat, Nusa Tenggara Bar.",NUSA TENGGARA BARAT,,Indonesia,81131137772.0,,,-8.6979516,116.7787263,https://maps.google.com/?cid=0x0:0xf5d75d915166cca4,
hotel,hotel,RedDoorz @ Taliwang Sumbawa Barat,"Jl. Sutan Syahrir No.25, Bugis, Kec. Taliwang, Kabupaten Sumbawa Barat, Nusa Tenggara Bar. 84455","Bugis, Kec. Taliwang, Kabupaten Sumbawa Barat",NUSA TENGGARA BARAT,84455.0,Indonesia,2180629666.0,,,-8.7422498,116.8428322,https://maps.google.com/?cid=0x0:0x3e5fea9228a60431,
hotel,hotel,Hotel Mawis,"7V52+4HG, Dalam, Kec. Taliwang, Kabupaten Sumbawa Barat, Nusa Tenggara Bar. 84455","Dalam, Kec. Taliwang, Kabupaten Sumbawa Barat",NUSA TENGGARA BARAT,84455.0,Indonesia,81918204999.0,,,-8.7421811,116.8514558,https://maps.google.com/?cid=0x0:0xc167d9d24b6d0dda,
hotel,hotel,Hotel Tubalong Syariah Taliwang,"Jl. Jend. Sudirman No.111, Dalam, Kec. Taliwang, Kabupaten Sumbawa Barat, Nusa Tenggara Bar. 84455","Dalam, Kec. Taliwang, Kabupaten Sumbawa Barat",NUSA TENGGARA BARAT,84455.0,Indonesia,82339563667.0,,,-8.7421603,116.8513468,https://maps.google.com/?cid=0x0:0x6d97c5e358911ef6,
hotel,hotel,Bale Sabara,"7R2M+5JP, Jalan Raya, Bugis, Taliwang, West Sumbawa Regency, West Nusa Tenggara 84455","Jalan Raya, Bugis, Taliwang, West Sumbawa Regency",NUSA TENGGARA BARAT,84455.0,Indonesia,81905811115.0,,,-8.7495415,116.8340904,https://maps.google.com/?cid=0x0:0xe15156a79b35b3fc,
hotel,hotel,Hotel LJ,"6R68+9VW, Telaga Bertong, Kec. Taliwang, Kabupaten Sumbawa Barat, Nusa Tenggara Bar. 84455","Telaga Bertong, Kec. Taliwang, Kabupaten Sumbawa Barat",NUSA TENGGARA BARAT,84455.0,Indonesia,81239194564.0,,,-8.7890393,116.8172033,https://maps.google.com/?cid=0x0:0xc7694fd56bf90138,
hotel,hotel,Hotel Sernu,"Jl. Bungur, Labuan Sumbawa, Labuhan Badas, Kabupaten Sumbawa, Nusa Tenggara Bar. 84316","Labuan Sumbawa, Labuhan Badas, Kabupaten Sumbawa",NUSA TENGGARA BARAT,84316.0,Indonesia,8565000031.0,,,-8.4774721,117.4020668,https://maps.google.com/?cid=0x0:0x2ab9cd61c6c5c1af,
hotel,hotel,Hong homestay,"Dsn padak, baru, Kec. Taliwang, Kabupaten Sumbawa Barat, Nusa Tenggara Bar. 84455","baru, Kec. Taliwang, Kabupaten Sumbawa Barat",NUSA TENGGARA BARAT,84455.0,Indonesia,85333121677.0,,,-8.7033982,116.7919534,https://maps.google.com/?cid=0x0:0x7e54e55ad4fc5530,
hotel,hotel,Mega Arafah Hotel  Resto,"2QM3+XRP, Kemuning, Kec. Sekongkang, Kabupaten Sumbawa Barat, Nusa Tenggara Bar. 84457","Kemuning, Kec. Sekongkang, Kabupaten Sumbawa Barat",NUSA TENGGARA BARAT,84457.0,Indonesia,,,,-8.9650449,116.7545888,https://maps.google.com/?cid=0x0:0xf8118a37acdbc403,
hotel,hotel,HOMESTAY,"7QRM+8W6, Labuan Kertasari, Kec. Taliwang, Kabupaten Sumbawa Barat, Nusa Tenggara Bar.","Kabupaten Sumbawa Barat, Nusa Tenggara Bar.",NUSA TENGGARA BARAT,,Indonesia,,,,-8.7092003,116.7847622,https://maps.google.com/?cid=0x0:0xf2f1171fcae05d0f,
hotel,hotel,GoodMuning,"7QJP+XW4, Labuan Kertasari, Kec. Taliwang, Kabupaten Sumbawa Barat, Nusa Tenggara Bar.","Kabupaten Sumbawa Barat, Nusa Tenggara Bar.",NUSA TENGGARA BARAT,,Indonesia,,,,-8.7176054,116.7873223,https://maps.google.com/?cid=0x0:0x25bf2a8e405628e0,
hotel,hotel,Hotel Samawa Rea,"Jl. Kebayan No.4, Uma Sima, Kec. Sumbawa, Kabupaten Sumbawa, Nusa Tenggara Bar. 84313","Uma Sima, Kec. Sumbawa, Kabupaten Sumbawa",NUSA TENGGARA BARAT,84313.0,Indonesia,37121133.0,,,-8.4888622,117.419907,https://maps.google.com/?cid=0x0:0xfb4a1ea19e2f33bd,
hotel,hotel,Tambora Hotel,"Samping kantor bupati, Jl. Kebayan No.2, Brang Biji, Kec. Sumbawa, Kabupaten Sumbawa, Nusa Tenggara Bar. 84318","Jl. Kebayan No.2, Brang Biji, Kec. Sumbawa, Kabupaten Sumbawa",NUSA TENGGARA BARAT,84318.0,Indonesia,37121555.0,,,-8.4888292,117.4190919,https://maps.google.com/?cid=0x0:0xb707bddf193b4191,
hotel,hotel,Alffiah Hotel,"826G+CH, Labuan Jambu, Kec. Tarano, Kabupaten Sumbawa, Nusa Tenggara Bar. 84384","Labuan Jambu, Kec. Tarano, Kabupaten Sumbawa",NUSA TENGGARA BARAT,84384.0,Indonesia,85198459541.0,,,-8.6892381,118.0268346,https://maps.google.com/?cid=0x0:0xb48b466e0469e2dd,
hotel,hotel,Mekar Sari Hotel,"Jl. Hasanudin No.47, Bugis, Kec. Sumbawa, Kabupaten Sumbawa, Nusa Tenggara Bar. 84313","Bugis, Kec. Sumbawa, Kabupaten Sumbawa",NUSA TENGGARA BARAT,84313.0,Indonesia,371626132.0,,,-8.4969608,117.4219705,https://maps.google.com/?cid=0x0:0x2d01369c76c700e6,
hotel,hotel,Hotel Villa Beach transit  Resto,"Jl. Lintas Sumbawa - Bima, Labuan Jambu, Kec. Tarano, Kabupaten Sumbawa, Nusa Tenggara Bar. 84384","Labuan Jambu, Kec. Tarano, Kabupaten Sumbawa",NUSA TENGGARA BARAT,84384.0,Indonesia,82340593248.0,,,-8.6928092,118.0222701,https://maps.google.com/?cid=0x0:0x29925ac682247746,
hotel,hotel,Asera Homestay,"Jl. Ki Hajar Dewantoro No.41, Pekat, Kec. Sumbawa, Kabupaten Sumbawa, Nusa Tenggara Bar. 84314","Pekat, Kec. Sumbawa, Kabupaten Sumbawa",NUSA TENGGARA BARAT,84314.0,Indonesia,85338653103.0,,,-8.5077257,117.4286715,https://maps.google.com/?cid=0x0:0xdf7141afc707293e,
hotel,hotel,Nusa Tenggara Bar. 84454,"Kec. Seteluk, Kabupaten Sumbawa Barat, Nusa Tenggara Bar.","Kabupaten Sumbawa Barat, Nusa Tenggara Bar.",NUSA TENGGARA BARAT,,Indonesia,,,,-8.5906982,116.8674757,https://maps.google.com/?cid=0x0:0xabcb20c0c162b41d,
hotel,hotel,Bukit Samudra Sumbawa,"Jl. Tano Kertasari, Labuan Kertasari, Kec. Taliwang, Kabupaten Sumbawa Barat, Nusa Tenggara Bar.","Kabupaten Sumbawa Barat, Nusa Tenggara Bar.",NUSA TENGGARA BARAT,,Indonesia,81339988865.0,,,-8.6696542,116.7628573,https://maps.google.com/?cid=0x0:0xc09ed52733f11adb,
hotel,hotel,Mocean Resort and Dive,"Jl. Tano Kertasari, Tua Nanga, Kec. Poto Tano, Kabupaten Sumbawa Barat, Nusa Tenggara Bar. 84454","Tua Nanga, Kec. Poto Tano, Kabupaten Sumbawa Barat",NUSA TENGGARA BARAT,84454.0,Indonesia,82144191647.0,,,-8.6741111,116.7670422,https://maps.google.com/?cid=0x0:0x87c05b2d81ebbb0a,
hotel,hotel,Sollo-sollo Home Stay,"Labuan Kertasari, Kec. Taliwang, Kabupaten Sumbawa Barat, Nusa Tenggara Bar.","Kabupaten Sumbawa Barat, Nusa Tenggara Bar.",NUSA TENGGARA BARAT,,Indonesia,82341501569.0,,,-8.7195879,116.7872959,https://maps.google.com/?cid=0x0:0x37b8ab9f62371aae,
hotel,hotel,Bone puteh Homestay,"Desa Lab, Dusun Boneputeh, Labuan Kertasari, Kec. Taliwang, Kabupaten Sumbawa Barat, Nusa Tenggara Bar. 84455","Dusun Boneputeh, Labuan Kertasari, Kec. Taliwang, Kabupaten Sumbawa Barat",NUSA TENGGARA BARAT,84455.0,Indonesia,82339957773.0,,,-8.6901996,116.7764755,https://maps.google.com/?cid=0x0:0x5d202ba5dd8f1770,
hotel,hotel,Kertasari Lodge,"Jl. Tano Kertasari, Labuan Kertasari, Kec. Taliwang, Kabupaten Sumbawa Barat, Nusa Tenggara Bar. 84455","Labuan Kertasari, Kec. Taliwang, Kabupaten Sumbawa Barat",NUSA TENGGARA BARAT,84455.0,Indonesia,82147680941.0,,,-8.6916879,116.7774247,https://maps.google.com/?cid=0x0:0x85b9e1f4f69f6ecd,
hotel,hotel,Medya homestay,"8Q3P+52, Labuan Kertasari, Kec. Taliwang, Kabupaten Sumbawa Barat, Nusa Tenggara Bar.","Kabupaten Sumbawa Barat, Nusa Tenggara Bar.",NUSA TENGGARA BARAT,,Indonesia,82339687481.0,,,-8.6970473,116.7850437,https://maps.google.com/?cid=0x0:0xf88178273b432824,
hotel,hotel,Hotel Tubalong Syariah Taliwang,"Jl. Jend. Sudirman No.111, Dalam, Kec. Taliwang, Kabupaten Sumbawa Barat, Nusa Tenggara Bar. 84455","Dalam, Kec. Taliwang, Kabupaten Sumbawa Barat",NUSA TENGGARA BARAT,84455.0,Indonesia,82339563667.0,,,-8.7421603,116.8513468,https://maps.google.com/?cid=0x0:0x6d97c5e358911ef6,
hotel,hotel,RedDoorz @ Taliwang Sumbawa Barat,"Jl. Sutan Syahrir No.25, Bugis, Kec. Taliwang, Kabupaten Sumbawa Barat, Nusa Tenggara Bar. 84455","Bugis, Kec. Taliwang, Kabupaten Sumbawa Barat",NUSA TENGGARA BARAT,84455.0,Indonesia,2180629666.0,,,-8.7422498,116.8428322,https://maps.google.com/?cid=0x0:0x3e5fea9228a60431,
hotel,hotel,Hong homestay,"Dsn padak, baru, Kec. Taliwang, Kabupaten Sumbawa Barat, Nusa Tenggara Bar. 84455","baru, Kec. Taliwang, Kabupaten Sumbawa Barat",NUSA TENGGARA BARAT,84455.0,Indonesia,85333121677.0,,,-8.7033982,116.7919534,https://maps.google.com/?cid=0x0:0x7e54e55ad4fc5530,
hotel,hotel,GoodMuning,"7QJP+XW4, Labuan Kertasari, Kec. Taliwang, Kabupaten Sumbawa Barat, Nusa Tenggara Bar.","Kabupaten Sumbawa Barat, Nusa Tenggara Bar.",NUSA TENGGARA BARAT,,Indonesia,,,,-8.7176054,116.7873223,https://maps.google.com/?cid=0x0:0x25bf2a8e405628e0,
hotel,hotel,Nusa Tenggara Bar. 84455,"Kabupaten Sumbawa Barat, Nusa Tenggara Bar.","Kabupaten Sumbawa Barat, Nusa Tenggara Bar.",NUSA TENGGARA BARAT,,Indonesia,,,,-8.7907453,116.8674757,https://maps.google.com/?cid=0x0:0x5fda0016832273b3,
hotel,hotel,Bukit Samudra Sumbawa,"Jl. Tano Kertasari, Labuan Kertasari, Kec. Taliwang, Kabupaten Sumbawa Barat, Nusa Tenggara Bar.","Kabupaten Sumbawa Barat, Nusa Tenggara Bar.",NUSA TENGGARA BARAT,,Indonesia,81339988865.0,,,-8.6696542,116.7628573,https://maps.google.com/?cid=0x0:0xc09ed52733f11adb,
hotel,hotel,Grand Royal Makati Hotel,"Gerbang KTC, Kuang, Kec. Taliwang, Kabupaten Sumbawa Barat, Nusa Tenggara Bar. 84455","Kuang, Kec. Taliwang, Kabupaten Sumbawa Barat",NUSA TENGGARA BARAT,84455.0,Indonesia,8111281575.0,,,-8.7495092,116.8536313,https://maps.google.com/?cid=0x0:0x35e54abc670e881d,
hotel,hotel,Whales  Waves,"Desa Labuan Kertasari, Kec. Taliwang, Labuan Kertasari, Kec. Taliwang, Kabupaten Sumbawa Barat, Nusa Tenggara Bar. 84355","Kec. Taliwang, Labuan Kertasari, Kec. Taliwang, Kabupaten Sumbawa Barat",NUSA TENGGARA BARAT,84355.0,Indonesia,81131137772.0,,,-8.697284,116.778061,https://maps.google.com/?cid=0x0:0xfc22f4706efa3f1b,
hotel,hotel,Kertasari Lodge,"Jl. Tano Kertasari, Labuan Kertasari, Kec. Taliwang, Kabupaten Sumbawa Barat, Nusa Tenggara Bar. 84455","Labuan Kertasari, Kec. Taliwang, Kabupaten Sumbawa Barat",NUSA TENGGARA BARAT,84455.0,Indonesia,82147680941.0,,,-8.6916879,116.7774247,https://maps.google.com/?cid=0x0:0x85b9e1f4f69f6ecd,
hotel,hotel,Pasir Putih Resort Sumbawa Barat NTB,"pantai, Pasir Putih, Kec. Maluk, Kabupaten Sumbawa Barat, Nusa Tenggara Bar. 84538","Pasir Putih, Kec. Maluk, Kabupaten Sumbawa Barat",NUSA TENGGARA BARAT,84538.0,Indonesia,8999090666.0,,,-8.9167766,116.7464519,https://maps.google.com/?cid=0x0:0xa1b62b15efd02e78,
hotel,hotel,MYAMO Beach Lodge,"Jelenga Bay, Beru, Kec. Jereweh, Kabupaten Sumbawa Barat, Nusa Tenggara Bar. 84456","Beru, Kec. Jereweh, Kabupaten Sumbawa Barat",NUSA TENGGARA BARAT,84456.0,Indonesia,82340478331.0,,,-8.8601377,116.7639313,https://maps.google.com/?cid=0x0:0xe35e7a204f8e0147,
hotel,hotel,,,,NUSA TENGGARA BARAT,,Indonesia,,,,,,https://maps.google.com/?cid=0x0:0xe35e7a204f8e0147%7C/g/11cs6lpdt4%7Cid-ID,
hotel,hotel,Damai Bungalows,"Beru, Kec. Jereweh, Jelenga, Nusa Tenggara Bar. 84456","Kec. Jereweh, Jelenga",NUSA TENGGARA BARAT,84456.0,Indonesia,85333138974.0,,,-8.8629012,116.7656583,https://maps.google.com/?cid=0x0:0xc628f68f8a6f806f,
hotel,hotel,CONJIOO HOTEL SUMBAWA,"Jl. Raya Maluk No.88, Maluk, Kec. Maluk, Sumbawa, Nusa Tenggara Bar. 84310","Maluk, Kec. Maluk, Sumbawa",NUSA TENGGARA BARAT,84310.0,Indonesia,82211223830.0,,,-8.9219852,116.7556059,https://maps.google.com/?cid=0x0:0xedfcc77c656153e3,
hotel,hotel,Scar Reef Resort,"Beru, Jereweh, Beru, Kec. Jereweh, Kabupaten Sumbawa Barat, Nusa Tenggara Bar.","Kabupaten Sumbawa Barat, Nusa Tenggara Bar.",NUSA TENGGARA BARAT,,Indonesia,81235775627.0,,,-8.8588781,116.7648221,https://maps.google.com/?cid=0x0:0x8741119822a9ba9b,
hotel,hotel,Dewana Villa Balad,"Pantai Balad, Telaga Bertong, Kec. Taliwang, Kabupaten Sumbawa Barat, Nusa Tenggara Bar. 84455","Telaga Bertong, Kec. Taliwang, Kabupaten Sumbawa Barat",NUSA TENGGARA BARAT,84455.0,Indonesia,85239717888.0,,,-8.7647158,116.7921395,https://maps.google.com/?cid=0x0:0x88f9ba260840caa0,
hotel,hotel,Aisyah Villa Sumbawa,"4QQ9+V58, Beru, Kec. Taliwang, Kabupaten Sumbawa Barat, Nusa Tenggara Bar. 84456","Beru, Kec. Taliwang, Kabupaten Sumbawa Barat",NUSA TENGGARA BARAT,84456.0,Indonesia,82340830336.0,,,-8.8603125,116.7679375,https://maps.google.com/?cid=0x0:0x31c59088ba31b5b6,
hotel,hotel,Bone puteh Homestay,"Desa Lab, Dusun Boneputeh, Labuan Kertasari, Kec. Taliwang, Kabupaten Sumbawa Barat, Nusa Tenggara Bar. 84455","Dusun Boneputeh, Labuan Kertasari, Kec. Taliwang, Kabupaten Sumbawa Barat",NUSA TENGGARA BARAT,84455.0,Indonesia,82339957773.0,,,-8.6901996,116.7764755,https://maps.google.com/?cid=0x0:0x5d202ba5dd8f1770,
hotel,hotel,Scar Reef Homestay + Starlink Wifi,"Dusun Jelenga, Beru, Kec. Jereweh, Kabupaten Sumbawa Barat, Nusa Tenggara Bar. 84456","Beru, Kec. Jereweh, Kabupaten Sumbawa Barat",NUSA TENGGARA BARAT,84456.0,Indonesia,85882559831.0,,,-8.8612982,116.7690928,https://maps.google.com/?cid=0x0:0xbacddf8b4ae99e44,
hotel,hotel,Maluk Surfhouse,"Jl. Raya Pasir Putih, Pasir Putih, Maluk, West Sumbawa Regency, West Nusa Tenggara 84456","Pasir Putih, Maluk, West Sumbawa Regency",NUSA TENGGARA BARAT,84456.0,Indonesia,85339291109.0,,,-8.9161609,116.7475389,https://maps.google.com/?cid=0x0:0xa56457ef50fc543,
hotel,hotel,Medya homestay,"8Q3P+52, Labuan Kertasari, Kec. Taliwang, Kabupaten Sumbawa Barat, Nusa Tenggara Bar.","Kabupaten Sumbawa Barat, Nusa Tenggara Bar.",NUSA TENGGARA BARAT,,Indonesia,82339687481.0,,,-8.6970473,116.7850437,https://maps.google.com/?cid=0x0:0xf88178273b432824,
hotel,hotel,SuperSuck Hotel,"Sekongkang, Sekongkang Bawah, Kec. Maluk, sumbawa, Nusa Tenggara Bar.","sumbawa, Nusa Tenggara Bar.",NUSA TENGGARA BARAT,,Indonesia,,,,-8.9303284,116.7460245,https://maps.google.com/?cid=0x0:0xd776bc40395bc9ab,
hotel,hotel,Maluk Stay,"Bukit Damai, Kec. Maluk, Kabupaten Sumbawa Barat, Nusa Tenggara Bar. 84459","Kec. Maluk, Kabupaten Sumbawa Barat",NUSA TENGGARA BARAT,84459.0,Indonesia,82220333896.0,,,-8.9122804,116.751775,https://maps.google.com/?cid=0x0:0x20085915e550b003,
hotel,hotel,Passifika Sumbawa,"Jl. Batu Hijau, Pasir Putih, Kec. Maluk, Kabupaten Sumbawa Barat, Nusa Tenggara Bar. 84456","Pasir Putih, Kec. Maluk, Kabupaten Sumbawa Barat",NUSA TENGGARA BARAT,84456.0,Indonesia,81337218343.0,,,-8.9155005,116.7516761,https://maps.google.com/?cid=0x0:0xca928b7feee37b14,
hotel,hotel,Sollo-sollo Home Stay,"Labuan Kertasari, Kec. Taliwang, Kabupaten Sumbawa Barat, Nusa Tenggara Bar.","Kabupaten Sumbawa Barat, Nusa Tenggara Bar.",NUSA TENGGARA BARAT,,Indonesia,82341501569.0,,,-8.7195879,116.7872959,https://maps.google.com/?cid=0x0:0x37b8ab9f62371aae,
hotel,hotel,The Beach Hut,"4QQ7+M4H, Unnamed Road, Beru, Jereweh, West Sumbawa Regency, West Nusa Tenggara 84456","Unnamed Road, Beru, Jereweh, West Sumbawa Regency",NUSA TENGGARA BARAT,84456.0,Indonesia,8123721555.0,,,-8.8608102,116.7628638,https://maps.google.com/?cid=0x0:0x1d6a4d1c2a6ed4de,
hotel,hotel,WW Private two-bedroom villa with swimming pool,"Lemonga, Labuan Kertasari, Kec. Taliwang, Kabupaten Sumbawa Barat, Nusa Tenggara Bar.","Kabupaten Sumbawa Barat, Nusa Tenggara Bar.",NUSA TENGGARA BARAT,,Indonesia,81131137772.0,,,-8.6979516,116.7787263,https://maps.google.com/?cid=0x0:0xf5d75d915166cca4,
hotel,hotel,Maluk,"Kec. Maluk, Kabupaten Sumbawa Barat, Nusa Tenggara Bar.","Kabupaten Sumbawa Barat, Nusa Tenggara Bar.",NUSA TENGGARA BARAT,,Indonesia,,,,-8.9238233,116.7673237,https://maps.google.com/?cid=0x0:0x47ef5cc6638a6493,
hotel,hotel,CONJIOO HOTEL SUMBAWA,"Jl. Raya Maluk No.88, Maluk, Kec. Maluk, Sumbawa, Nusa Tenggara Bar. 84310","Maluk, Kec. Maluk, Sumbawa",NUSA TENGGARA BARAT,84310.0,Indonesia,82211223830.0,,,-8.9219852,116.7556059,https://maps.google.com/?cid=0x0:0xedfcc77c656153e3,
hotel,hotel,Pasir Putih Resort Sumbawa Barat NTB,"pantai, Pasir Putih, Kec. Maluk, Kabupaten Sumbawa Barat, Nusa Tenggara Bar. 84538","Pasir Putih, Kec. Maluk, Kabupaten Sumbawa Barat",NUSA TENGGARA BARAT,84538.0,Indonesia,8999090666.0,,,-8.9167766,116.7464519,https://maps.google.com/?cid=0x0:0xa1b62b15efd02e78,
hotel,hotel,Passifika Sumbawa,"Jl. Batu Hijau, Pasir Putih, Kec. Maluk, Kabupaten Sumbawa Barat, Nusa Tenggara Bar. 84456","Pasir Putih, Kec. Maluk, Kabupaten Sumbawa Barat",NUSA TENGGARA BARAT,84456.0,Indonesia,81337218343.0,,,-8.9155005,116.7516761,https://maps.google.com/?cid=0x0:0xca928b7feee37b14,
hotel,hotel,Maluk Stay,"Bukit Damai, Kec. Maluk, Kabupaten Sumbawa Barat, Nusa Tenggara Bar. 84459","Kec. Maluk, Kabupaten Sumbawa Barat",NUSA TENGGARA BARAT,84459.0,Indonesia,82220333896.0,,,-8.9122804,116.751775,https://maps.google.com/?cid=0x0:0x20085915e550b003,
hotel,hotel,SuperSuck Hotel,"Sekongkang, Sekongkang Bawah, Kec. Maluk, sumbawa, Nusa Tenggara Bar.","sumbawa, Nusa Tenggara Bar.",NUSA TENGGARA BARAT,,Indonesia,,,,-8.9303284,116.7460245,https://maps.google.com/?cid=0x0:0xd776bc40395bc9ab,
hotel,hotel,Kacchapa Beach Resort and Restaurant,"Jl Lingkar Selatan, Sekongkang Bawah, Kec. Sekongkang, Kabupaten Sumbawa Barat, Nusa Tenggara Bar. 84457","Sekongkang Bawah, Kec. Sekongkang, Kabupaten Sumbawa Barat",NUSA TENGGARA BARAT,84457.0,Indonesia,81239792055.0,,,-8.9799213,116.7370082,https://maps.google.com/?cid=0x0:0x989eaf9bbdaa929e,
hotel,hotel,Mama Nings Beach Hotel,"2PFP+4X, Sekongkang Bawah, Kec. Sekongkang, Kabupaten Sumbawa Barat, Nusa Tenggara Bar. 84457","Sekongkang Bawah, Kec. Sekongkang, Kabupaten Sumbawa Barat",NUSA TENGGARA BARAT,84457.0,Indonesia,81353818041.0,,,-8.9774419,116.7373088,https://maps.google.com/?cid=0x0:0x9efaaaa0efbfe38b,
hotel,hotel,Damai Bungalows,"Beru, Kec. Jereweh, Jelenga, Nusa Tenggara Bar. 84456","Kec. Jereweh, Jelenga",NUSA TENGGARA BARAT,84456.0,Indonesia,85333138974.0,,,-8.8629012,116.7656583,https://maps.google.com/?cid=0x0:0xc628f68f8a6f806f,
hotel,hotel,Kini Resort,"Sekongkang Bawah, Kec. Sekongkang, Kabupaten Sumbawa Barat, Nusa Tenggara Bar. 84457","Kec. Sekongkang, Kabupaten Sumbawa Barat",NUSA TENGGARA BARAT,84457.0,Indonesia,82144956038.0,,,-8.9705127,116.7322418,https://maps.google.com/?cid=0x0:0x7300be216facf977,
hotel,hotel,Surfindo - Rantung Beach Hotel,"Balong Balong Surf Bungalows, Jl. Raya Rantung, Sekongkang Bawah, Kec. Sekongkang, Kabupaten Sumbawa Barat, Nusa Tenggara Bar.","Kabupaten Sumbawa Barat, Nusa Tenggara Bar.",NUSA TENGGARA BARAT,,Indonesia,82236742200.0,,,-8.979395,116.7373685,https://maps.google.com/?cid=0x0:0x519f69b12edb85ef,
hotel,hotel,Scar Reef Resort,"Beru, Jereweh, Beru, Kec. Jereweh, Kabupaten Sumbawa Barat, Nusa Tenggara Bar.","Kabupaten Sumbawa Barat, Nusa Tenggara Bar.",NUSA TENGGARA BARAT,,Indonesia,81235775627.0,,,-8.8588781,116.7648221,https://maps.google.com/?cid=0x0:0x8741119822a9ba9b,
hotel,hotel,Trophy Hotel,"Jl. Raya Maluk, Maluk, Kec. Maluk, Kabupaten Sumbawa Barat, Nusa Tenggara Bar. 83126","Maluk, Kec. Maluk, Kabupaten Sumbawa Barat",NUSA TENGGARA BARAT,83126.0,Indonesia,81339710711.0,,,-8.9147984,116.7519249,https://maps.google.com/?cid=0x0:0xa2ec449d61fddddc,
hotel,hotel,Castaway Surf Retreat,"Jl. Raya Rantung, Sekongkang Bawah, Kec. Sekongkang, Kabupaten Sumbawa Barat, Nusa Tenggara Bar.","Kabupaten Sumbawa Barat, Nusa Tenggara Bar.",NUSA TENGGARA BARAT,,Indonesia,81138113331.0,,,-8.9789824,116.737397,https://maps.google.com/?cid=0x0:0xeb159f92381f08a8,
hotel,hotel,Kirana Retreat,"2PPH+F4P Pantai Lawar, Sekongkang Bawah, Kec. Sekongkang, Kabupaten Sumbawa Barat, Nusa Tenggara Bar. 84457","Sekongkang Bawah, Kec. Sekongkang, Kabupaten Sumbawa Barat",NUSA TENGGARA BARAT,84457.0,Indonesia,82144956038.0,,,-8.9638462,116.7278614,https://maps.google.com/?cid=0x0:0xf682c25ff5844787,
hotel,hotel,MYAMO Beach Lodge,"Jelenga Bay, Beru, Kec. Jereweh, Kabupaten Sumbawa Barat, Nusa Tenggara Bar. 84456","Beru, Kec. Jereweh, Kabupaten Sumbawa Barat",NUSA TENGGARA BARAT,84456.0,Indonesia,82340478331.0,,,-8.8601377,116.7639313,https://maps.google.com/?cid=0x0:0xe35e7a204f8e0147,
hotel,hotel,,,,NUSA TENGGARA BARAT,,Indonesia,,,,,,https://maps.google.com/?cid=0x0:0xe35e7a204f8e0147%7C/g/11cs6lpdt4%7Cid-ID,
hotel,hotel,Kahurangi,"2PGQ+2J, Sekongkang Bawah, Kec. Sekongkang, Kabupaten Sumbawa Barat, Nusa Tenggara Bar.","Kabupaten Sumbawa Barat, Nusa Tenggara Bar.",NUSA TENGGARA BARAT,,Indonesia,82236744204.0,,,-8.9749954,116.7390895,https://maps.google.com/?cid=0x0:0x2e95a4c7192fcde9,
hotel,hotel,Aisyah Villa Sumbawa,"4QQ9+V58, Beru, Kec. Taliwang, Kabupaten Sumbawa Barat, Nusa Tenggara Bar. 84456","Beru, Kec. Taliwang, Kabupaten Sumbawa Barat",NUSA TENGGARA BARAT,84456.0,Indonesia,82340830336.0,,,-8.8603125,116.7679375,https://maps.google.com/?cid=0x0:0x31c59088ba31b5b6,
hotel,hotel,Maluk House,"Selatan, RT.13/RW.03, Pasir Putih, Kec. Maluk, Kabupaten Sumbawa Barat, Nusa Tenggara Bar. 84456","RT.13/RW.03, Pasir Putih, Kec. Maluk, Kabupaten Sumbawa Barat",NUSA TENGGARA BARAT,84456.0,Indonesia,81339778622.0,,,-8.9290097,116.750274,https://maps.google.com/?cid=0x0:0xbed1f8036c06c54b,
hotel,hotel,Kiwi Hotel,"Jl. Pariwisata, Pasir Putih, Kec. Maluk, Kabupaten Sumbawa Barat, Nusa Tenggara Bar. 84456","Pasir Putih, Kec. Maluk, Kabupaten Sumbawa Barat",NUSA TENGGARA BARAT,84456.0,Indonesia,,,,-8.9171021,116.7506847,https://maps.google.com/?cid=0x0:0xeac708f9b7525aa,
hotel,hotel,Scar Reef Homestay + Starlink Wifi,"Dusun Jelenga, Beru, Kec. Jereweh, Kabupaten Sumbawa Barat, Nusa Tenggara Bar. 84456","Beru, Kec. Jereweh, Kabupaten Sumbawa Barat",NUSA TENGGARA BARAT,84456.0,Indonesia,85882559831.0,,,-8.8612982,116.7690928,https://maps.google.com/?cid=0x0:0xbacddf8b4ae99e44,
hotel,hotel,Hotel Lia,"3QQ2+68V, Mantun, Kec. Maluk, Kabupaten Sumbawa Barat, Nusa Tenggara Bar. 84456","Mantun, Kec. Maluk, Kabupaten Sumbawa Barat",NUSA TENGGARA BARAT,84456.0,Indonesia,87887709290.0,,,-8.9118926,116.7507851,https://maps.google.com/?cid=0x0:0xbfe0035e72ba710d,
hotel,hotel,Kost Putih/White Guest House,"Gang Bukit Indah, Sekongkang Bawah, Kec. Sekongkang, Kabupaten Sumbawa Barat, Nusa Tenggara Bar. 84457","Sekongkang Bawah, Kec. Sekongkang, Kabupaten Sumbawa Barat",NUSA TENGGARA BARAT,84457.0,Indonesia,81997997994.0,,,-8.9661411,116.7541254,https://maps.google.com/?cid=0x0:0xb71fb2d1cfdc8bdc,
hotel,hotel,The Beach Hut,"4QQ7+M4H, Unnamed Road, Beru, Jereweh, West Sumbawa Regency, West Nusa Tenggara 84456","Unnamed Road, Beru, Jereweh, West Sumbawa Regency",NUSA TENGGARA BARAT,84456.0,Indonesia,8123721555.0,,,-8.8608102,116.7628638,https://maps.google.com/?cid=0x0:0x1d6a4d1c2a6ed4de,
restaurant,restaurant,Nusa Tenggara Bar. 84456,"Kec. Jereweh, Kabupaten Sumbawa Barat, Nusa Tenggara Bar.","Kabupaten Sumbawa Barat, Nusa Tenggara Bar.",NUSA TENGGARA BARAT,,Indonesia,,,,-8.947527,116.9145901,https://maps.google.com/?cid=0x0:0xd8d94f4df4b390cb,
restaurant,Restoran,Gia's cafe + restaurant,"4QQ9+C8X, Beru, Kec. Jereweh, Kabupaten Sumbawa Barat, Nusa Tenggara Bar.","Kabupaten Sumbawa Barat, Nusa Tenggara Bar.",NUSA TENGGARA BARAT,,Indonesia,85339246405.0,,,-8.8615556,116.7682767,https://maps.google.com/?cid=0x0:0x741f634d0f3f07e0,
restaurant,restaurant,SCARbucks Cafe,"4QQ9+C8X, Beru, Kec. Jereweh, Kabupaten Sumbawa Barat, Nusa Tenggara Bar.","Kabupaten Sumbawa Barat, Nusa Tenggara Bar.",NUSA TENGGARA BARAT,,Indonesia,82145605190.0,,,-8.8615803,116.7682715,https://maps.google.com/?cid=0x0:0x4b7ac68d75932b39,
restaurant,Indonesia,SHARDANA,"4QRC+GGJ, Beru, Kec. Jereweh, Kabupaten Sumbawa Barat, Nusa Tenggara Bar. 84456","Beru, Kec. Jereweh, Kabupaten Sumbawa Barat",NUSA TENGGARA BARAT,84456.0,Indonesia,82266433800.0,,,-8.8586875,116.7713125,https://maps.google.com/?cid=0x0:0x2974f1f3e5790390,
restaurant,Kantor Perusahaan,BIJE JARI RESTO,"Jalan Sadar Wisata, Pasir Putih, Kec. Maluk, Kabupaten Sumbawa Barat, Nusa Tenggara Bar. 84456","Pasir Putih, Kec. Maluk, Kabupaten Sumbawa Barat",NUSA TENGGARA BARAT,84456.0,Indonesia,87860055758.0,,,-8.9177705,116.751543,https://maps.google.com/?cid=0x0:0xbeed92b2ec7c9b02,
restaurant,Restoran,RUMAH MAKAN DUA PUTRI,"4RRG+V5P, Jl. Pahlawan, Beru, Kec. Jereweh, Kabupaten Sumbawa Barat, Nusa Tenggara Bar. 84456","Jl. Pahlawan, Beru, Kec. Jereweh, Kabupaten Sumbawa Barat",NUSA TENGGARA BARAT,84456.0,Indonesia,81239223695.0,,,-8.8577981,116.8254464,https://maps.google.com/?cid=0x0:0xec1fe0fb0173fba9,
restaurant,Kafe,Restaurant Putra Pagaruyung,"Jl. Maluk - Sekongkang, Maluk, Kec. Maluk, Kabupaten Sumbawa Barat, Nusa Tenggara Bar. 84456","Maluk, Kec. Maluk, Kabupaten Sumbawa Barat",NUSA TENGGARA BARAT,84456.0,Indonesia,85217569090.0,,,-8.9240306,116.7572559,https://maps.google.com/?cid=0x0:0xe6b4864f6e85c9e7,
restaurant,Betawi,Rohani,"Pasar Jereweh Los 3, No. 29, JL Merdeka, RT 13, Beru, Jereweh, Sumbawa Barat, Beru, Sumbawa Besar, Kabupaten Sumbawa Barat, Nusa Tenggara Bar. 84456","No. 29, JL Merdeka, RT 13, Beru, Jereweh, Sumbawa Barat, Beru, Sumbawa Besar, Kabupaten Sumbawa Barat",NUSA TENGGARA BARAT,84456.0,Indonesia,85239725956.0,,,-8.8575854,116.8247499,https://maps.google.com/?cid=0x0:0x58f68ce8289d07b9,
restaurant,Kafe,De Sallero Cafe  Restaurant,"3QH4+28R, Maluk, Kec. Maluk, Kabupaten Sumbawa Barat, Nusa Tenggara Bar. 84456","Maluk, Kec. Maluk, Kabupaten Sumbawa Barat",NUSA TENGGARA BARAT,84456.0,Indonesia,,,,-8.9218209,116.7555443,https://maps.google.com/?cid=0x0:0x6a9c78420b447b3e,
restaurant,Restoran,Warung TIGA PUTRI,"3QP2+4JH, Pasir Putih, Kec. Maluk, Kabupaten Sumbawa Barat, Nusa Tenggara Bar. 84456","Pasir Putih, Kec. Maluk, Kabupaten Sumbawa Barat",NUSA TENGGARA BARAT,84456.0,Indonesia,,,,-8.9146842,116.7515994,https://maps.google.com/?cid=0x0:0x3acb02504a9f3c8d,
restaurant,Steak,KABA Steak  Seafood,"Pantai, Pasir Putih, Kec. Maluk, Kabupaten Sumbawa Barat, Nusa Tenggara Bar. 84456","Pasir Putih, Kec. Maluk, Kabupaten Sumbawa Barat",NUSA TENGGARA BARAT,84456.0,Indonesia,81935959555.0,,,-8.9154157,116.744618,https://maps.google.com/?cid=0x0:0x76025a79067dc69f,
restaurant,Rumah wisata,Pasir Putih Resto  Homestay,"Jalan, Pasir Putih, Kec. Maluk, Kabupaten Sumbawa Barat, Nusa Tenggara Bar. 84456","Pasir Putih, Kec. Maluk, Kabupaten Sumbawa Barat",NUSA TENGGARA BARAT,84456.0,Indonesia,,,,-8.9168212,116.746193,https://maps.google.com/?cid=0x0:0x81e5468c9d94ee4e,
restaurant,Restoran,Happy Restaurant,"Jl. Raya Rantung, Sekongkang Bawah, Kec. Sekongkang, Kabupaten Sumbawa Barat, Nusa Tenggara Bar. 84457","Sekongkang Bawah, Kec. Sekongkang, Kabupaten Sumbawa Barat",NUSA TENGGARA BARAT,84457.0,Indonesia,82339283873.0,,,-8.9747448,116.7401087,https://maps.google.com/?cid=0x0:0x44592230e9bc2b83,
restaurant,Kedai Kopi,Stand Selere Bru.ayam Krispy,"jl lalu magaparang,gg belimbing 3,rt/rw,07/04, Beru, Kec. Jereweh, Kabupaten Sumbawa Barat, Nusa Tenggara Bar. 84456","Beru, Kec. Jereweh, Kabupaten Sumbawa Barat",NUSA TENGGARA BARAT,84456.0,Indonesia,82235780468.0,,,-8.8595057,116.8271223,https://maps.google.com/?cid=0x0:0x97bf535636410270,
restaurant,Indonesia,Hj. Halimah,"Pasar Jereweh, Los 2, No. 10, JL Merdeka, RT 13, Beru, Jereweh, Sumbawa Barat, Beru, Sumbawa Besar, Kabupaten Sumbawa Barat, Nusa Tenggara Bar. 84456","Los 2, No. 10, JL Merdeka, RT 13, Beru, Jereweh, Sumbawa Barat, Beru, Sumbawa Besar, Kabupaten Sumbawa Barat",NUSA TENGGARA BARAT,84456.0,Indonesia,85239725956.0,,,-8.8575854,116.8247501,https://maps.google.com/?cid=0x0:0xd58e47fed98a7bf5,
restaurant,Bakso,BAKSO RECEH,"5R4C+C3R, Jl. Pendidikan, Dasan Anyar, Kec. Jereweh, Kabupaten Sumbawa Barat, Nusa Tenggara Bar. 84456","Jl. Pendidikan, Dasan Anyar, Kec. Jereweh, Kabupaten Sumbawa Barat",NUSA TENGGARA BARAT,84456.0,Indonesia,,,,-8.8438806,116.8201396,https://maps.google.com/?cid=0x0:0x6b9875111b96e938,
restaurant,Indonesia,Cahya Resto,"Jl. Raya Rantung No.10, Sekongkang Bawah, Kec. Sekongkang, Kabupaten Sumbawa Barat, Nusa Tenggara Bar. 84457","Sekongkang Bawah, Kec. Sekongkang, Kabupaten Sumbawa Barat",NUSA TENGGARA BARAT,84457.0,Indonesia,,,,-8.9659987,116.7452405,https://maps.google.com/?cid=0x0:0xa36b869e8a4e86ab,
restaurant,Restoran,Rumah Makan Bening,"Jl. Pendidikan, Beru, Kec. Jereweh, Kabupaten Sumbawa Barat, Nusa Tenggara Bar. 84456","Beru, Kec. Jereweh, Kabupaten Sumbawa Barat",NUSA TENGGARA BARAT,84456.0,Indonesia,,,,-8.8574737,116.8225516,https://maps.google.com/?cid=0x0:0xa33c470e513e903,
restaurant,Indonesia,Warung NGANJUK,"Jalan Raya, Pasir Putih, Maluk, West Sumbawa Regency, West Nusa Tenggara 84456","Pasir Putih, Maluk, West Sumbawa Regency",NUSA TENGGARA BARAT,84456.0,Indonesia,81235401781.0,,,-8.9164685,116.7526762,https://maps.google.com/?cid=0x0:0xb5765bdc2c15fc95,
restaurant,restaurant,MYAMO Beach Lodge,"Jelenga Bay, Beru, Kec. Jereweh, Kabupaten Sumbawa Barat, Nusa Tenggara Bar. 84456","Beru, Kec. Jereweh, Kabupaten Sumbawa Barat",NUSA TENGGARA BARAT,84456.0,Indonesia,82340478331.0,,,-8.8601377,116.7639313,https://maps.google.com/?cid=0x0:0xe35e7a204f8e0147,
restaurant,restaurant,,,,NUSA TENGGARA BARAT,,Indonesia,,,,,,https://maps.google.com/?cid=0x0:0xe35e7a204f8e0147%7C/g/11cs6lpdt4%7Cid-ID,
restaurant,restaurant,Damai Bungalows,"Beru, Kec. Jereweh, Jelenga, Nusa Tenggara Bar. 84456","Kec. Jereweh, Jelenga",NUSA TENGGARA BARAT,84456.0,Indonesia,85333138974.0,,,-8.8629012,116.7656583,https://maps.google.com/?cid=0x0:0xc628f68f8a6f806f,
restaurant,restaurant,CONJIOO HOTEL SUMBAWA,"Jl. Raya Maluk No.88, Maluk, Kec. Maluk, Sumbawa, Nusa Tenggara Bar. 84310","Maluk, Kec. Maluk, Sumbawa",NUSA TENGGARA BARAT,84310.0,Indonesia,82211223830.0,,,-8.9219852,116.7556059,https://maps.google.com/?cid=0x0:0xedfcc77c656153e3,
restaurant,restaurant,Pantai Jelenga,"Beru, Kec. Jereweh, Kabupaten Sumbawa Barat, Nusa Tenggara Bar. 84456","Kec. Jereweh, Kabupaten Sumbawa Barat",NUSA TENGGARA BARAT,84456.0,Indonesia,,,,-8.8569148,116.7661202,https://maps.google.com/?cid=0x0:0x109d6a1dc5edca3e,
restaurant,restaurant,Taliwang,"Kuang, Kec. Taliwang, Kabupaten Sumbawa Barat, Nusa Tenggara Bar.","Kabupaten Sumbawa Barat, Nusa Tenggara Bar.",NUSA TENGGARA BARAT,,Indonesia,,,,-8.751946,116.854599,https://maps.google.com/?cid=0x0:0xf98bdc32d4193ccb,
restaurant,Ayam,Rm Taliwang Khas Lombok ibu Nur,"Unnamed Road, Nusa Tenggara Bar. 84455, Bugis, Taliwang, West Sumbawa Regency, West Nusa Tenggara 84455",Nusa Tenggara Bar.,NUSA TENGGARA BARAT,84455.0,Indonesia,,,,-8.7419049,116.8480157,https://maps.google.com/?cid=0x0:0xca9099e2dd30c899,
restaurant,Ayam,Warung ayam bakar taliwang arrosyid,"Jl. Jend. Sudirman No.14, Dalam, Kec. Taliwang, Kabupaten Sumbawa Barat, Nusa Tenggara Bar. 84455","Dalam, Kec. Taliwang, Kabupaten Sumbawa Barat",NUSA TENGGARA BARAT,84455.0,Indonesia,,,,-8.7419131,116.845829,https://maps.google.com/?cid=0x0:0x87d0246423e69d76,
restaurant,Mi,Bakso Malang 2 Taliwang,"7R6X+982, Dalam, Kec. Taliwang, Kabupaten Sumbawa Barat, Nusa Tenggara Bar. 84455","Dalam, Kec. Taliwang, Kabupaten Sumbawa Barat",NUSA TENGGARA BARAT,84455.0,Indonesia,87766966446.0,,,-8.7391066,116.8482797,https://maps.google.com/?cid=0x0:0xf9402e0b1c3b1603,
restaurant,Jawa,Lesehan Ayam Taliwang Tanamira,"Dalam, Kec. Taliwang, Kabupaten Sumbawa Barat, Nusa Tenggara Bar. 84455","Kec. Taliwang, Kabupaten Sumbawa Barat",NUSA TENGGARA BARAT,84455.0,Indonesia,8113907628.0,,,-8.7332859,116.8505196,https://maps.google.com/?cid=0x0:0x7ba40734f9d618d8,
restaurant,Nasi,Warung Jawa Taliwang,"7R5X+5PG, Dalam, Kec. Taliwang, Kabupaten Sumbawa Barat, Nusa Tenggara Bar. 84455","Dalam, Kec. Taliwang, Kabupaten Sumbawa Barat",NUSA TENGGARA BARAT,84455.0,Indonesia,,,,-8.7420692,116.8493303,https://maps.google.com/?cid=0x0:0x4ba8808c85acb43e,
restaurant,Kafe,ISG Coffe  Eatery,"Kuang, Kec. Taliwang, Kabupaten Sumbawa Barat, Nusa Tenggara Bar.","Kabupaten Sumbawa Barat, Nusa Tenggara Bar.",NUSA TENGGARA BARAT,,Indonesia,,,,-8.7501871,116.8385539,https://maps.google.com/?cid=0x0:0x96a66e4ef435435e,
restaurant,Padang,Rumah Makan Sumber Rezeki Masakan padang,"Kuang, Kec. Taliwang, Kabupaten Sumbawa Barat, Nusa Tenggara Bar. 84455","Kec. Taliwang, Kabupaten Sumbawa Barat",NUSA TENGGARA BARAT,84455.0,Indonesia,,,,-8.7422839,116.8496203,https://maps.google.com/?cid=0x0:0xf1cb792a57a8753a,
restaurant,Jawa,Warung Makan Dan Lesehan,"7R5X+2VR, Dalam, Kec. Taliwang, Kabupaten Sumbawa Barat, Nusa Tenggara Bar. 84455","Dalam, Kec. Taliwang, Kabupaten Sumbawa Barat",NUSA TENGGARA BARAT,84455.0,Indonesia,,,,-8.7423764,116.8496386,https://maps.google.com/?cid=0x0:0x7b153e16e22da0d7,
restaurant,Pembangunan Perumahan,Bale santong,"6VX3+6RH, Kuang, Kec. Taliwang, Kabupaten Sumbawa Barat, Nusa Tenggara Bar.","Kabupaten Sumbawa Barat, Nusa Tenggara Bar.",NUSA TENGGARA BARAT,,Indonesia,,,,-8.751946,116.854599,https://maps.google.com/?cid=0x0:0x1fb8c2bace7160e,
restaurant,Brunch,Rumah Makan Chaca,"6RQ7+RC7, Jl. Labuhan Balat, Telaga Bertong, Kec. Taliwang, Kabupaten Sumbawa Barat, Nusa Tenggara Bar. 84455","Jl. Labuhan Balat, Telaga Bertong, Kec. Taliwang, Kabupaten Sumbawa Barat",NUSA TENGGARA BARAT,84455.0,Indonesia,,,,-8.7604744,116.8135505,https://maps.google.com/?cid=0x0:0xb15bb378488959bb,
restaurant,Padang,Rumah Makan ''Soraya'',"Jl. Ps. Baru No.4, Dalam, Kec. Taliwang, Kabupaten Sumbawa Barat, Nusa Tenggara Bar. 84455","Dalam, Kec. Taliwang, Kabupaten Sumbawa Barat",NUSA TENGGARA BARAT,84455.0,Indonesia,,,,-8.7435288,116.8471447,https://maps.google.com/?cid=0x0:0xb327e32e5491c69,
restaurant,Jawa,Rumah Makan Asli,"7V92+QM9, JL Pasar Taliwang, Sumbawa Barat, Komplek Central Pasar Taliwang, Dalam, Kec. Taliwang, Kabupaten Sumbawa Barat, Nusa Tenggara Bar. 84455","JL Pasar Taliwang, Sumbawa Barat, Komplek Central Pasar Taliwang, Dalam, Kec. Taliwang, Kabupaten Sumbawa Barat",NUSA TENGGARA BARAT,84455.0,Indonesia,81998948943.0,,,-8.7305756,116.8517469,https://maps.google.com/?cid=0x0:0xcb6ea839c8d42b2d,
restaurant,Restoran,Warung nasi campur,"7V42+C7C, Kuang, Kec. Taliwang, Kabupaten Sumbawa Barat, Nusa Tenggara Bar. 84455","Kuang, Kec. Taliwang, Kabupaten Sumbawa Barat",NUSA TENGGARA BARAT,84455.0,Indonesia,,,,-8.7439256,116.8506356,https://maps.google.com/?cid=0x0:0x17b9368796090947,
restaurant,Nasi,D'CAMPING,"6VX3+828, Kuang, Kec. Taliwang, Kabupaten Sumbawa Barat, Nusa Tenggara Bar. 84455","Kuang, Kec. Taliwang, Kabupaten Sumbawa Barat",NUSA TENGGARA BARAT,84455.0,Indonesia,82341481052.0,,,-8.752735,116.852881,https://maps.google.com/?cid=0x0:0x19cdba0790af5819,
restaurant,Restoran,Warung Pojok KTC,"6VQ2+5PQ, Jl. Mawar Gg. Teratai Lingkungan, Menala, Kec. Taliwang, Kabupaten Sumbawa Barat, Nusa Tenggara Bar. 84455","Jl. Mawar Gg. Teratai Lingkungan, Menala, Kec. Taliwang, Kabupaten Sumbawa Barat",NUSA TENGGARA BARAT,84455.0,Indonesia,81327656000.0,,,-8.761996,116.8513131,https://maps.google.com/?cid=0x0:0xeff68e40e488efef,
restaurant,Monumen,TUGU KTC TALIWANG,"6VW3+F7J, Unnamed Rd, Nusa Tenggara Bar., Kuang, Kec. Taliwang, Kabupaten Sumbawa Barat, Nusa Tenggara Bar. 84455","Unnamed Rd, Nusa Tenggara Bar., Kuang, Kec. Taliwang, Kabupaten Sumbawa Barat",NUSA TENGGARA BARAT,84455.0,Indonesia,8533902390.0,,,-8.7537751,116.8531357,https://maps.google.com/?cid=0x0:0x6bb6a7864a01c63e,
restaurant,Jawa,Warung ayam bakar Taliwang khas lombok,"7V52+4FQ, Dalam, Kec. Taliwang, Kabupaten Sumbawa Barat, Nusa Tenggara Bar. 84455","Dalam, Kec. Taliwang, Kabupaten Sumbawa Barat",NUSA TENGGARA BARAT,84455.0,Indonesia,,,,-8.7421912,116.8511388,https://maps.google.com/?cid=0x0:0x8e606f4d4479c54e,
restaurant,Nasi,Nasi Puyung (Warung Lombok),"Bugis, Kec. Taliwang, Kabupaten Sumbawa Barat, Nusa Tenggara Bar. 84455","Kec. Taliwang, Kabupaten Sumbawa Barat",NUSA TENGGARA BARAT,84455.0,Indonesia,8175779120.0,,,-8.7418929,116.8438058,https://maps.google.com/?cid=0x0:0xb9cb405c7862e045,
restaurant,Ayam,Lesehan Sayang Anak,"7R3M+363, Jl. Labuhan Balat, Bugis, Kec. Taliwang, Kabupaten Sumbawa Barat, Nusa Tenggara Bar. 84455","Jl. Labuhan Balat, Bugis, Kec. Taliwang, Kabupaten Sumbawa Barat",NUSA TENGGARA BARAT,84455.0,Indonesia,81337486665.0,,,-8.7473554,116.833057,https://maps.google.com/?cid=0x0:0x5fa87f55f9418c0b,
restaurant,Kafe,Rumah Kebun Cafe and Resto,"Menala, Kec. Taliwang, Kabupaten Sumbawa Barat, Nusa Tenggara Bar. 84455","Kec. Taliwang, Kabupaten Sumbawa Barat",NUSA TENGGARA BARAT,84455.0,Indonesia,82339951921.0,,,-8.7592579,116.8521436,https://maps.google.com/?cid=0x0:0x98195eee973bffbd,
restaurant,Restoran,Resto Ex-ex,"Unnamed Rd, Menala, Kec. Taliwang, Kabupaten Sumbawa Barat, Nusa Tenggara Bar. 84455","Menala, Kec. Taliwang, Kabupaten Sumbawa Barat",NUSA TENGGARA BARAT,84455.0,Indonesia,82340004700.0,,,-8.7597904,116.8511657,https://maps.google.com/?cid=0x0:0xf25cfeb0ad7a92b2,
restaurant,Restoran,Resto Hanipati,"6VQ2+X7M, Menala, Kec. Taliwang, Kabupaten Sumbawa Barat, Nusa Tenggara Bar. 84455","Menala, Kec. Taliwang, Kabupaten Sumbawa Barat",NUSA TENGGARA BARAT,84455.0,Indonesia,,,,-8.7600452,116.8506837,https://maps.google.com/?cid=0x0:0xefd8ef726b96ea44,
restaurant,Kafe,VESCOBAR (vespa coffee bar),"Unnamed Road, Kuang, Kec. Taliwang, Kabupaten Sumbawa Barat, Nusa Tenggara Bar. 84455","Kuang, Kec. Taliwang, Kabupaten Sumbawa Barat",NUSA TENGGARA BARAT,84455.0,Indonesia,82144492333.0,,,-8.7494878,116.8421403,https://maps.google.com/?cid=0x0:0x7f5f46134086336d,
restaurant,Restoran,Resto Dapur BUNDA.,"7RPX+87C, Sampir, Kec. Taliwang, Kabupaten Sumbawa Barat, Nusa Tenggara Bar. 84455","Sampir, Kec. Taliwang, Kabupaten Sumbawa Barat",NUSA TENGGARA BARAT,84455.0,Indonesia,,,,-8.714198,116.8481404,https://maps.google.com/?cid=0x0:0xc1a2283857bb5835,
restaurant,Ayam,Taliwang Plaza,"Jl. Jend. Sudirman No.53, Dalam, Kec. Taliwang, Kabupaten Sumbawa Barat, Nusa Tenggara Bar. 84455","Dalam, Kec. Taliwang, Kabupaten Sumbawa Barat",NUSA TENGGARA BARAT,84455.0,Indonesia,82144999001.0,,,-8.7424086,116.8487664,https://maps.google.com/?cid=0x0:0x8815cc2f2a66c5f,
restaurant,Jawa,Restaurant sumbawa,"6VR2+8VW, Unnamed Road, Menala, Kec. Taliwang, Kabupaten Sumbawa Barat, Nusa Tenggara Bar. 84455","Unnamed Road, Menala, Kec. Taliwang, Kabupaten Sumbawa Barat",NUSA TENGGARA BARAT,84455.0,Indonesia,,,,-8.7591396,116.8522158,https://maps.google.com/?cid=0x0:0xad5fe08a2582aa7b,
restaurant,restaurant,Kec. Seteluk,"Kabupaten Sumbawa Barat, Nusa Tenggara Bar.","Kabupaten Sumbawa Barat, Nusa Tenggara Bar.",NUSA TENGGARA BARAT,,Indonesia,,,,-8.6251785,116.8652498,https://maps.google.com/?cid=0x0:0x81f1c5d92dcd6f07,
restaurant,Kafe,NEW BERLIND CAFE SETELUK,"9V96+R37, Jl. Bda Rea, Seteluk Tengah, Seteluk, West Sumbawa Regency, West Nusa Tenggara 84454","Jl. Bda Rea, Seteluk Tengah, Seteluk, West Sumbawa Regency",NUSA TENGGARA BARAT,84454.0,Indonesia,85238322954.0,,,-8.6304562,116.8601672,https://maps.google.com/?cid=0x0:0x68ef74b836a41d24,
restaurant,Bakso,Bakso NURUL HASANAH.,"9VF7+9PH, Jalan Raya, Seteluk Tengah, Seteluk, West Sumbawa Regency, West Nusa Tenggara 84454","Jalan Raya, Seteluk Tengah, Seteluk, West Sumbawa Regency",NUSA TENGGARA BARAT,84454.0,Indonesia,,,,-8.6265659,116.8643502,https://maps.google.com/?cid=0x0:0xcbf6e80b47404b5b,
restaurant,Bakso,Bakso Emak Seteluk,"samping SATERA HOMESTAY, Jalan Lintas Seteluk, Tapir, Kec. Seteluk, Kabupaten Sumbawa Barat, Nusa Tenggara Bar. 83454","Jalan Lintas Seteluk, Tapir, Kec. Seteluk, Kabupaten Sumbawa Barat",NUSA TENGGARA BARAT,83454.0,Indonesia,82342230807.0,,,-8.6314492,116.8596388,https://maps.google.com/?cid=0x0:0x4147b018b65b0bd3,
restaurant,Kafe,RETRO CAFE,"9VCC+VCH, Unnamed Road, Seteluk Atas, Kec. Seteluk, Kabupaten Sumbawa Barat, Nusa Tenggara Bar. 84454","Unnamed Road, Seteluk Atas, Kec. Seteluk, Kabupaten Sumbawa Barat",NUSA TENGGARA BARAT,84454.0,Indonesia,85238200106.0,,,-8.6278165,116.8711228,https://maps.google.com/?cid=0x0:0x535be949eb508571,
restaurant,Bakso,Bakso Seteluk,"8VX3+CQJ, Air Suning, Kec. Seteluk, Kabupaten Sumbawa Barat, Nusa Tenggara Bar. 84454","Air Suning, Kec. Seteluk, Kabupaten Sumbawa Barat",NUSA TENGGARA BARAT,84454.0,Indonesia,,,,-8.6514206,116.8543787,https://maps.google.com/?cid=0x0:0x438c450c23e56e26,
restaurant,Indonesia,Rumah Makan Sederhana,"CV4W+JQ3, Seteluk Tengah, Kec. Seteluk, Kabupaten Sumbawa Barat, Nusa Tenggara Bar. 84454","Seteluk Tengah, Kec. Seteluk, Kabupaten Sumbawa Barat",NUSA TENGGARA BARAT,84454.0,Indonesia,81338000109.0,,,-8.5934865,116.8969234,https://maps.google.com/?cid=0x0:0xe2afa87112bd898f,
restaurant,Nasi,Warung Nasi Goreng Yomani,"Jl. Raya Seteluk, Seteluk Tengah, Kec. Seteluk, Kabupaten Sumbawa Barat, Nusa Tenggara Bar. 84454","Seteluk Tengah, Kec. Seteluk, Kabupaten Sumbawa Barat",NUSA TENGGARA BARAT,84454.0,Indonesia,,,,-8.6276663,116.8631933,https://maps.google.com/?cid=0x0:0x147e7429197ce2e0,
restaurant,Rumah Makan,Rumah Makan Restu Bundo Famili,"depan gedung serbaguna, Jl.Badarea, Seteluk Tengah, Kec. Seteluk, Kabupaten Sumbawa Barat, Nusa Tenggara Bar. 84454","Jl.Badarea, Seteluk Tengah, Kec. Seteluk, Kabupaten Sumbawa Barat",NUSA TENGGARA BARAT,84454.0,Indonesia,85339250137.0,,,-8.6263066,116.8647795,https://maps.google.com/?cid=0x0:0x3eea4aba40e2e8a2,
restaurant,Makanan Siap Saji,Djojo Kentucky Seteluk,"Jl. Raya Seteluk, Seteluk Tengah, Kec. Seteluk, Kabupaten Sumbawa Barat, Nusa Tenggara Bar. 84454","Seteluk Tengah, Kec. Seteluk, Kabupaten Sumbawa Barat",NUSA TENGGARA BARAT,84454.0,Indonesia,85137826429.0,,,-8.6271306,116.8639698,https://maps.google.com/?cid=0x0:0x31b5c6af6863198b,
restaurant,Nasi,WAROENG LAZISSS,"9VG7+J7F, Jl. Raya Senayan Poto Tano, Seteluk Tengah, Kec. Seteluk, Kabupaten Sumbawa Barat, Nusa Tenggara Bar. 84454","Jl. Raya Senayan Poto Tano, Seteluk Tengah, Kec. Seteluk, Kabupaten Sumbawa Barat",NUSA TENGGARA BARAT,84454.0,Indonesia,,,,-8.6234299,116.8631833,https://maps.google.com/?cid=0x0:0xd187135fc4274e23,
restaurant,Indonesia,Rumah Makan Sederhana,"Dusun Tiu Jeruk RT. 015/008 Desa, Seteluk Tengah, Kec. Seteluk, Kabupaten Sumbawa Barat, Nusa Tenggara Bar. 84554","Seteluk Tengah, Kec. Seteluk, Kabupaten Sumbawa Barat",NUSA TENGGARA BARAT,84554.0,Indonesia,85238341422.0,,,-8.6258795,116.8662474,https://maps.google.com/?cid=0x0:0x2185f20a917c3b68,
restaurant,Italia,PIZZA DARA,"Air Suning, Kec. Seteluk, Kabupaten Sumbawa Barat, Nusa Tenggara Bar. 84454","Kec. Seteluk, Kabupaten Sumbawa Barat",NUSA TENGGARA BARAT,84454.0,Indonesia,82247627091.0,,,-8.6487514,116.8545771,https://maps.google.com/?cid=0x0:0xd60e9aad57e8750,
restaurant,Restoran,Rumah Makan Mbak Nining,"9V44+82W, Air Suning, Kec. Seteluk, Kabupaten Sumbawa Barat, Nusa Tenggara Bar. 84454","Air Suning, Kec. Seteluk, Kabupaten Sumbawa Barat",NUSA TENGGARA BARAT,84454.0,Indonesia,,,,-8.644146,116.8550652,https://maps.google.com/?cid=0x0:0x62a7df255e91acd5,
restaurant,Toko,Yeti Lestari,"Pasar Seteluk, Los Pelataran No. 152, JL Pasar Baru Seteluk, RT 08 RW 09, Seteluk Tengah, Seteluk, Sumbawa Barat, Seteluk Tengah, Sumbawa Besar, Kabupaten Sumbawa Barat, Nusa Tenggara Bar. 84454","Los Pelataran No. 152, JL Pasar Baru Seteluk, RT 08 RW 09, Seteluk Tengah, Seteluk, Sumbawa Barat, Seteluk Tengah, Sumbawa Besar, Kabupaten Sumbawa Barat",NUSA TENGGARA BARAT,84454.0,Indonesia,87863933189.0,,,-8.6229472,116.8626217,https://maps.google.com/?cid=0x0:0x2fa2e7f31b4eb555,
restaurant,Bakso,Bakso  Mie Ayam Om Dest,"Seteluk Tengah, Kec. Seteluk, Kabupaten Sumbawa Barat, Nusa Tenggara Bar. 84454","Kec. Seteluk, Kabupaten Sumbawa Barat",NUSA TENGGARA BARAT,84454.0,Indonesia,85238539682.0,,,-8.6251271,116.865326,https://maps.google.com/?cid=0x0:0x5741477633c7103e,
restaurant,Layanan Transportasi,WARUNG SIMPANG MANTAR,"Jalan Raya, Tapir, Seteluk, West Sumbawa Regency, West Nusa Tenggara 84454","Tapir, Seteluk, West Sumbawa Regency",NUSA TENGGARA BARAT,84454.0,Indonesia,,,,-8.6356264,116.8568809,https://maps.google.com/?cid=0x0:0x19df13462285b8af,
restaurant,Indonesia,Musta'ang,"Pasar Setelu, Los Kios No. 53, JL Pasar Baru Seteluk, RT 08 RW 09, Seteluk Tengah, Seteluk, Sumbawa Barat, Seteluk Tengah, Sumbawa Besar, Kabupaten Sumbawa Barat, Nusa Tenggara Bar. 84454","Los Kios No. 53, JL Pasar Baru Seteluk, RT 08 RW 09, Seteluk Tengah, Seteluk, Sumbawa Barat, Seteluk Tengah, Sumbawa Besar, Kabupaten Sumbawa Barat",NUSA TENGGARA BARAT,84454.0,Indonesia,87863933189.0,,,-8.628789,116.864094,https://maps.google.com/?cid=0x0:0xdf1bae2586c0e1c0,
restaurant,Indonesia,Rizal,"Pasar Setelu, Los Kios No. 76, JL Pasar Baru Seteluk, RT 08 RW 09, Seteluk Tengah, Seteluk, Sumbawa Barat, Seteluk Tengah, Sumbawa Besar, Kabupaten Sumbawa Barat, Nusa Tenggara Bar. 84454","Los Kios No. 76, JL Pasar Baru Seteluk, RT 08 RW 09, Seteluk Tengah, Seteluk, Sumbawa Barat, Seteluk Tengah, Sumbawa Besar, Kabupaten Sumbawa Barat",NUSA TENGGARA BARAT,84454.0,Indonesia,87863933189.0,,,-8.628789,116.864094,https://maps.google.com/?cid=0x0:0x9a3e85147ba7b12,
restaurant,Indonesia,Edi Sate Madura,"9VFF+87P, Seteluk Atas, Kec. Seteluk, Kabupaten Sumbawa Barat, Nusa Tenggara Bar. 84454","Seteluk Atas, Kec. Seteluk, Kabupaten Sumbawa Barat",NUSA TENGGARA BARAT,84454.0,Indonesia,,,,-8.626209,116.873427,https://maps.google.com/?cid=0x0:0x7560b593a72e6cb7,
restaurant,Rumah Makan,Rumah Makan Fajri,"8VW2+V9Q, Lamusung, Kec. Seteluk, Kabupaten Sumbawa Barat, Nusa Tenggara Bar. 84454","Lamusung, Kec. Seteluk, Kabupaten Sumbawa Barat",NUSA TENGGARA BARAT,84454.0,Indonesia,82146300852.0,,,-8.6527788,116.8509746,https://maps.google.com/?cid=0x0:0x1fdf914a5f9fd5ea,
restaurant,Restoran,Warung Taskiah,"9VG7+Q2R, Seteluk Tengah, Kec. Seteluk, Kabupaten Sumbawa Barat, Nusa Tenggara Bar. 84454","Seteluk Tengah, Kec. Seteluk, Kabupaten Sumbawa Barat",NUSA TENGGARA BARAT,84454.0,Indonesia,81325508243.0,,,-8.6230223,116.8625102,https://maps.google.com/?cid=0x0:0xea5c58f0ca9ba3eb,
restaurant,Indonesia,Eka,"Pasar Seteluk Los Pelataran, No. 59, JL Pasar Baru Seteluk, RT 08 RW 09, Seteluk Tengah, Seteluk, Sumbawa Barat Sumbawa Besar, Seteluk Tengah, Sumbawa Besar, Kabupaten Sumbawa Barat, Nusa Tenggara Bar. 84454","No. 59, JL Pasar Baru Seteluk, RT 08 RW 09, Seteluk Tengah, Seteluk, Sumbawa Barat Sumbawa Besar, Seteluk Tengah, Sumbawa Besar, Kabupaten Sumbawa Barat",NUSA TENGGARA BARAT,84454.0,Indonesia,87863933189.0,,,-8.628789,116.864094,https://maps.google.com/?cid=0x0:0x1ac6e614d28a43c6,
restaurant,Indonesia,Siwe,"Pasar Seteluk, Los Pelataran No. 93, JL Pasar Baru Seteluk, RT 08 RW 09, Seteluk Tengah, Seteluk, Sumbawa Barat, Seteluk Tengah, Sumbawa Besar, Kabupaten Sumbawa Barat, Nusa Tenggara Bar. 84454","Los Pelataran No. 93, JL Pasar Baru Seteluk, RT 08 RW 09, Seteluk Tengah, Seteluk, Sumbawa Barat, Seteluk Tengah, Sumbawa Besar, Kabupaten Sumbawa Barat",NUSA TENGGARA BARAT,84454.0,Indonesia,87863933189.0,,,-8.628789,116.864094,https://maps.google.com/?cid=0x0:0xbce3499f82d82bec,
restaurant,Restoran,Resto Ex-ex,"Unnamed Rd, Menala, Kec. Taliwang, Kabupaten Sumbawa Barat, Nusa Tenggara Bar. 84455","Menala, Kec. Taliwang, Kabupaten Sumbawa Barat",NUSA TENGGARA BARAT,84455.0,Indonesia,82340004700.0,,,-8.7597904,116.8511657,https://maps.google.com/?cid=0x0:0xf25cfeb0ad7a92b2,
restaurant,Nasi,Makanan,"Dusun Benteng, Seteluk Atas, Kec. Seteluk, Kabupaten Sumbawa Barat, Nusa Tenggara Bar. 84354","Seteluk Atas, Kec. Seteluk, Kabupaten Sumbawa Barat",NUSA TENGGARA BARAT,84354.0,Indonesia,81337099183.0,,,-8.6294149,116.8703213,https://maps.google.com/?cid=0x0:0xa025bd4a4990257d,
restaurant,Restoran,Happy Restaurant,"Jl. Raya Rantung, Sekongkang Bawah, Kec. Sekongkang, Kabupaten Sumbawa Barat, Nusa Tenggara Bar. 84457","Sekongkang Bawah, Kec. Sekongkang, Kabupaten Sumbawa Barat",NUSA TENGGARA BARAT,84457.0,Indonesia,82339283873.0,,,-8.9747448,116.7401087,https://maps.google.com/?cid=0x0:0x44592230e9bc2b83,
restaurant,restaurant,Warung Suramadu,"9VC6+RX3, Jalan Raya, Seteluk Tengah, Seteluk, West Sumbawa Regency, West Nusa Tenggara 84454","Jalan Raya, Seteluk Tengah, Seteluk, West Sumbawa Regency",NUSA TENGGARA BARAT,84454.0,Indonesia,87806897211.0,,,-8.6279939,116.8624268,https://maps.google.com/?cid=0x0:0xff7575931b816ba0,
restaurant,restaurant,Nusa Tenggara Bar. 84457,"Kec. Sekongkang, Kabupaten Sumbawa Barat, Nusa Tenggara Bar.","Kabupaten Sumbawa Barat, Nusa Tenggara Bar.",NUSA TENGGARA BARAT,,Indonesia,,,,-9.0278591,116.9145901,https://maps.google.com/?cid=0x0:0xa55d05be516dbaf,
restaurant,Restoran,Happy Restaurant,"Jl. Raya Rantung, Sekongkang Bawah, Kec. Sekongkang, Kabupaten Sumbawa Barat, Nusa Tenggara Bar. 84457","Sekongkang Bawah, Kec. Sekongkang, Kabupaten Sumbawa Barat",NUSA TENGGARA BARAT,84457.0,Indonesia,82339283873.0,,,-8.9747448,116.7401087,https://maps.google.com/?cid=0x0:0x44592230e9bc2b83,
restaurant,Indonesia,Kirana Restaurant,"Sekongkang Bawah, Kec. Sekongkang, Kabupaten Sumbawa Barat, Nusa Tenggara Bar. 84457","Kec. Sekongkang, Kabupaten Sumbawa Barat",NUSA TENGGARA BARAT,84457.0,Indonesia,82144956038.0,,,-8.9637857,116.727832,https://maps.google.com/?cid=0x0:0x959c23302966c58f,
restaurant,Indonesia,Cahya Resto,"Jl. Raya Rantung No.10, Sekongkang Bawah, Kec. Sekongkang, Kabupaten Sumbawa Barat, Nusa Tenggara Bar. 84457","Sekongkang Bawah, Kec. Sekongkang, Kabupaten Sumbawa Barat",NUSA TENGGARA BARAT,84457.0,Indonesia,,,,-8.9659987,116.7452405,https://maps.google.com/?cid=0x0:0xa36b869e8a4e86ab,
restaurant,Restoran,Saung Kuring Resto Batu Hijau,"Jln raya Batu Hijau, Sekongkang Bawah, Kec. Sekongkang, Kabupaten Sumbawa Barat, Nusa Tenggara Bar. 84357","Sekongkang Bawah, Kec. Sekongkang, Kabupaten Sumbawa Barat",NUSA TENGGARA BARAT,84357.0,Indonesia,81237398855.0,,,-8.9881627,116.7518534,https://maps.google.com/?cid=0x0:0x75ab2efd9d6f838c,
restaurant,Nasi,Warung Mbak Dewi,"2QQ6+H79, Jl. Raya Sekongkang, Kemuning, Kec. Sekongkang, Kabupaten Sumbawa Barat, Nusa Tenggara Bar. 84457","Jl. Raya Sekongkang, Kemuning, Kec. Sekongkang, Kabupaten Sumbawa Barat",NUSA TENGGARA BARAT,84457.0,Indonesia,,,,-8.9610862,116.7607387,https://maps.google.com/?cid=0x0:0xda023fd97800ffac,
restaurant,Jawa,Mama Nings Restaurant,"Jl. Raya Rantung, Sekongkang Bawah, Kec. Sekongkang, Sumbawa, Nusa Tenggara Bar. 84457","Sekongkang Bawah, Kec. Sekongkang, Sumbawa",NUSA TENGGARA BARAT,84457.0,Indonesia,87861832711.0,,,-8.9748317,116.7403675,https://maps.google.com/?cid=0x0:0xf2dabd1c62a860e1,
restaurant,restaurant,Kura Kura House,"2PHP+3P4, Sekongkang Bawah, Kec. Sekongkang, Kabupaten Sumbawa Barat, Nusa Tenggara Bar.","Kabupaten Sumbawa Barat, Nusa Tenggara Bar.",NUSA TENGGARA BARAT,,Indonesia,81540001577.0,,,-8.9720046,116.7368848,https://maps.google.com/?cid=0x0:0x1e393e461574c492,
restaurant,restaurant,Pantai Maluk,Nusa Tenggara Bar.,Nusa Tenggara Bar.,NUSA TENGGARA BARAT,,Indonesia,,,,-8.9179213,116.7474819,https://maps.google.com/?cid=0x0:0x7944b4cf78d60017,
restaurant,Makanan Siap Saji,Wr. BTS,"2QC7+7Q7, Jl. Batu Hijau Townsite, Sekongkang Atas, Kec. Sekongkang, Kabupaten Sumbawa Barat, Nusa Tenggara Bar. 84457","Jl. Batu Hijau Townsite, Sekongkang Atas, Kec. Sekongkang, Kabupaten Sumbawa Barat",NUSA TENGGARA BARAT,84457.0,Indonesia,,,,-8.9793328,116.7644243,https://maps.google.com/?cid=0x0:0xfdc31db3ccc05244,
restaurant,Jawa,Sawah kafe,"2Q64+P42, Jl. Batu Hijau Townsite, Sekongkang Atas, Kec. Sekongkang, Kabupaten Sumbawa Barat, Nusa Tenggara Bar. 84457","Jl. Batu Hijau Townsite, Sekongkang Atas, Kec. Sekongkang, Kabupaten Sumbawa Barat",NUSA TENGGARA BARAT,84457.0,Indonesia,8123754456.0,,,-8.9882493,116.7552723,https://maps.google.com/?cid=0x0:0x13d248e1c10aa1ad,
restaurant,restaurant,Kacchapa Beach Resort and Restaurant,"Jl Lingkar Selatan, Sekongkang Bawah, Kec. Sekongkang, Kabupaten Sumbawa Barat, Nusa Tenggara Bar. 84457","Sekongkang Bawah, Kec. Sekongkang, Kabupaten Sumbawa Barat",NUSA TENGGARA BARAT,84457.0,Indonesia,81239792055.0,,,-8.9799213,116.7370082,https://maps.google.com/?cid=0x0:0x989eaf9bbdaa929e,
restaurant,restaurant,Kedai Komando Sekongkang,"Sekongkang Bawah, Kec. Sekongkang, Kabupaten Sumbawa Barat, Nusa Tenggara Bar. 84457","Kec. Sekongkang, Kabupaten Sumbawa Barat",NUSA TENGGARA BARAT,84457.0,Indonesia,81353334659.0,,,-8.9654704,116.7535147,https://maps.google.com/?cid=0x0:0x3181ff457a6f53c9,
restaurant,Kedai Kopi,ROA Coffee,"Gili Dua Pantai Sekongkang, Sekongkang Bawah, Kec. Sekongkang, Kabupaten Sumbawa Barat, Nusa Tenggara Bar. 84457","Sekongkang Bawah, Kec. Sekongkang, Kabupaten Sumbawa Barat",NUSA TENGGARA BARAT,84457.0,Indonesia,85333616307.0,,,-8.9747519,116.735799,https://maps.google.com/?cid=0x0:0x7cd5589edefc2150,
restaurant,Dapur Umum,Pawon D nila,"2QM2+P7P, Jalan Raya, Sekongkang Bawah, Sekongkang, West Sumbawa Regency, West Nusa Tenggara 84457","Jalan Raya, Sekongkang Bawah, Sekongkang, West Sumbawa Regency",NUSA TENGGARA BARAT,84457.0,Indonesia,82340198949.0,,,-8.9656568,116.7506954,https://maps.google.com/?cid=0x0:0x348dedf3464cdcb8,
restaurant,Penginapan Dalam Ruangan,Foodcourt Townsite AMNT,"2Q77+XJ7, Sekongkang Atas, Kec. Sekongkang, Kabupaten Sumbawa Barat, Nusa Tenggara Bar. 84457","Sekongkang Atas, Kec. Sekongkang, Kabupaten Sumbawa Barat",NUSA TENGGARA BARAT,84457.0,Indonesia,,,,-8.9846824,116.7642537,https://maps.google.com/?cid=0x0:0x9b2f91f14ae68ea,
restaurant,Kompleks Apartemen,Sapphire by Kini,"2PHJ+PR, Sekongkang Bawah, Kec. Sekongkang, Kabupaten Sumbawa Barat, Nusa Tenggara Bar.","Kabupaten Sumbawa Barat, Nusa Tenggara Bar.",NUSA TENGGARA BARAT,,Indonesia,,,,-8.970711,116.7321235,https://maps.google.com/?cid=0x0:0x7e66d45c9ec977b3,
restaurant,Restoran,Warung Tiga Dara,"2QM3+P49, Jl. Raya Rantung Jl. Raya Sekongkang, Sekongkang Bawah, Kec. Sekongkang, Kabupaten Sumbawa Barat, Nusa Tenggara Bar. 84457","Jl. Raya Rantung Jl. Raya Sekongkang, Sekongkang Bawah, Kec. Sekongkang, Kabupaten Sumbawa Barat",NUSA TENGGARA BARAT,84457.0,Indonesia,,,,-8.9657156,116.7528459,https://maps.google.com/?cid=0x0:0x232720d8bdaa70f3,
restaurant,Indonesia,Warung Pak Zaenal,"2Q74+4FP, Jl. Batu Hijau Townsite, Sekongkang Atas, Kec. Sekongkang, Kabupaten Sumbawa Barat, Nusa Tenggara Bar. 84457","Jl. Batu Hijau Townsite, Sekongkang Atas, Kec. Sekongkang, Kabupaten Sumbawa Barat",NUSA TENGGARA BARAT,84457.0,Indonesia,85139049341.0,,,-8.98716,116.756198,https://maps.google.com/?cid=0x0:0x6440e266374c232c,
restaurant,restaurant,KEDAI SAUNG,"2P6X+R5W, Sekongkang Bawah, Kec. Sekongkang, Kabupaten Sumbawa Barat, Nusa Tenggara Bar.","Kabupaten Sumbawa Barat, Nusa Tenggara Bar.",NUSA TENGGARA BARAT,,Indonesia,,,,-8.987889,116.7479488,https://maps.google.com/?cid=0x0:0xdabb2df925cd1876,
restaurant,Jawa,Kedai Kemuning,"Jl. Raya Sekongkang No.28, Kemuning, Kec. Sekongkang, Kabupaten Sumbawa Barat, Nusa Tenggara Bar. 84457","Kemuning, Kec. Sekongkang, Kabupaten Sumbawa Barat",NUSA TENGGARA BARAT,84457.0,Indonesia,,,,-8.9636254,116.7595512,https://maps.google.com/?cid=0x0:0xa8e06f27e183ac12,
restaurant,restaurant,Santai Bungalows  Restaurant,"2PFP+9M4, Sekongkang Bawah, Kec. Sekongkang, Kabupaten Sumbawa Barat, Nusa Tenggara Bar. 84457","Sekongkang Bawah, Kec. Sekongkang, Kabupaten Sumbawa Barat",NUSA TENGGARA BARAT,84457.0,Indonesia,,,,-8.9766241,116.7366977,https://maps.google.com/?cid=0x0:0x404292105ea5aec7,
restaurant,restaurant,Kirana Retreat,"2PPH+F4P Pantai Lawar, Sekongkang Bawah, Kec. Sekongkang, Kabupaten Sumbawa Barat, Nusa Tenggara Bar. 84457","Sekongkang Bawah, Kec. Sekongkang, Kabupaten Sumbawa Barat",NUSA TENGGARA BARAT,84457.0,Indonesia,82144956038.0,,,-8.9638462,116.7278614,https://maps.google.com/?cid=0x0:0xf682c25ff5844787,
restaurant,Komplek perumahan,Mess Hall Karyawan PT AMNT,"2Q77+CPP, Unnamed Road, Sekongkang Atas, Kec. Sekongkang, Kabupaten Sumbawa Barat, Nusa Tenggara Bar. 84457","Unnamed Road, Sekongkang Atas, Kec. Sekongkang, Kabupaten Sumbawa Barat",NUSA TENGGARA BARAT,84457.0,Indonesia,,,,-8.9864162,116.7643127,https://maps.google.com/?cid=0x0:0x865682315113045b,
restaurant,restaurant,Nusa Tenggara Bar. 84458,"Kec. Brang Rea, Kabupaten Sumbawa Barat, Nusa Tenggara Bar.","Kabupaten Sumbawa Barat, Nusa Tenggara Bar.",NUSA TENGGARA BARAT,,Indonesia,,,,-8.6999135,117.0087877,https://maps.google.com/?cid=0x0:0xd32541cc680b77d1,
restaurant,Restoran,Rumah Makan H. Murni,"Sapugara Bree, Kec. Brang Rea, Kabupaten Sumbawa Barat, Nusa Tenggara Bar. 84455","Kec. Brang Rea, Kabupaten Sumbawa Barat",NUSA TENGGARA BARAT,84455.0,Indonesia,,,,-8.7332854,116.9051129,https://maps.google.com/?cid=0x0:0x630609b5c939d134,
restaurant,Restoran,Warung makan Asiah,"8X25+J9F, Rarak Road, Bangkat Monteh, Kec. Brang Rea, Kabupaten Sumbawa Barat, Nusa Tenggara Bar. 84458","Rarak Road, Bangkat Monteh, Kec. Brang Rea, Kabupaten Sumbawa Barat",NUSA TENGGARA BARAT,84458.0,Indonesia,,,,-8.6984355,116.958433,https://maps.google.com/?cid=0x0:0xda5b1a7e609febcb,
restaurant,Sate,Sate Daging Kuda Pak Samrah,"7WP9+H5C, Tepas, Kec. Brang Rea, Kabupaten Sumbawa Barat, Nusa Tenggara Bar. 84458","Tepas, Kec. Brang Rea, Kabupaten Sumbawa Barat",NUSA TENGGARA BARAT,84458.0,Indonesia,,,,-8.7135699,116.9179009,https://maps.google.com/?cid=0x0:0xeacc9f33cd312de7,
restaurant,Grosir Kopi,Kopi Langit Ai Kolang,"8XXP+QM, Rarak Rongis, Kec. Brang Rea, Kabupaten Sumbawa Barat, Nusa Tenggara Bar. 84458","Rarak Rongis, Kec. Brang Rea, Kabupaten Sumbawa Barat",NUSA TENGGARA BARAT,84458.0,Indonesia,,,,-8.6505977,116.9867166,https://maps.google.com/?cid=0x0:0x88a712ae91eca101,
restaurant,Brunch,Warung Mbak Dede Special Jaran,"7W83+GJ5, Jl. Baso Busing, Sapugara Bree, Kec. Brang Rea, Kabupaten Sumbawa Barat, Nusa Tenggara Bar. 84455","Jl. Baso Busing, Sapugara Bree, Kec. Brang Rea, Kabupaten Sumbawa Barat",NUSA TENGGARA BARAT,84455.0,Indonesia,,,,-8.7336964,116.9039513,https://maps.google.com/?cid=0x0:0x1abc950469c966,
restaurant,Restoran,Ew resto,"7W83+HMW, Jl. Brang Rea, Sapugara Bree, Kec. Brang Rea, Kabupaten Sumbawa Barat, Nusa Tenggara Bar. 84455","Jl. Brang Rea, Sapugara Bree, Kec. Brang Rea, Kabupaten Sumbawa Barat",NUSA TENGGARA BARAT,84455.0,Indonesia,,,,-8.7334794,116.9042618,https://maps.google.com/?cid=0x0:0xe973f5b2dd0bcb1e,
restaurant,Makanan Kecil,Rumah makan,"8XF3+QFV, Lamuntet, Kec. Brang Rea, Kabupaten Sumbawa Barat, Nusa Tenggara Bar. 84458","Lamuntet, Kec. Brang Rea, Kabupaten Sumbawa Barat",NUSA TENGGARA BARAT,84458.0,Indonesia,,,,-8.6755036,116.9536717,https://maps.google.com/?cid=0x0:0x7e3232592236f12d,
restaurant,Restoran,WARUNG MAKAN,"DSN ketango, RT.01/RW.01, Lamuntet, Kec. Brang Rea, Kabupaten Sumbawa Barat, Nusa Tenggara Bar. 84458","RT.01/RW.01, Lamuntet, Kec. Brang Rea, Kabupaten Sumbawa Barat",NUSA TENGGARA BARAT,84458.0,Indonesia,85338859367.0,,,-8.6783133,116.950695,https://maps.google.com/?cid=0x0:0xb822fcf115af3b7c,
restaurant,Bakso,Bakso Urat,"7WH8+V5J, Jl. Baso Busing, Tepas, Kec. Brang Rea, Kabupaten Sumbawa Barat, Nusa Tenggara Bar. 84458","Jl. Baso Busing, Tepas, Kec. Brang Rea, Kabupaten Sumbawa Barat",NUSA TENGGARA BARAT,84458.0,Indonesia,,,,-8.7202892,116.9154014,https://maps.google.com/?cid=0x0:0x372801766736af0c,
restaurant,Grosir Kopi,Kopi Kawa Rama,"Rarak Rongis, Kec. Brang Rea, Kabupaten Sumbawa Barat, Nusa Tenggara Bar. 84458","Kec. Brang Rea, Kabupaten Sumbawa Barat",NUSA TENGGARA BARAT,84458.0,Indonesia,82144644741.0,,,-8.6553858,116.9955912,https://maps.google.com/?cid=0x0:0xb89f7572c4070c37,
restaurant,Brunch,Jual Nasi Bungkus,"7WC5+M3M, Desa Beru, Kec. Brang Rea, Kabupaten Sumbawa Barat, Nusa Tenggara Bar. 84455","Desa Beru, Kec. Brang Rea, Kabupaten Sumbawa Barat",NUSA TENGGARA BARAT,84455.0,Indonesia,,,,-8.7280237,116.9080476,https://maps.google.com/?cid=0x0:0x1985df5b6feb8f13,
restaurant,Tujuan Wisata,Wisata Kebun Kopi Datu Bayung,"8XRX+6QX, Rarak Rongis, Kec. Brang Rea, Kabupaten Sumbawa Barat, Nusa Tenggara Bar. 84458","Rarak Rongis, Kec. Brang Rea, Kabupaten Sumbawa Barat",NUSA TENGGARA BARAT,84458.0,Indonesia,,,,-8.6593967,116.9994854,https://maps.google.com/?cid=0x0:0x1bf4dd3e528d57b1,
restaurant,Tujuan Wisata,Tiu Batu Resto,"Dusun Marente Beru, RT 02/02, Marenteh","Kabupaten Sumbawa, Nusa Tenggara Bar.",NUSA TENGGARA BARAT,,Indonesia,81353431470.0,,,-8.5486294,117.021496,https://maps.google.com/?cid=0x0:0x1abd73fe5c2443b2,
restaurant,Restoran,rumah mas ajhi,"62M3+V52, Tepas, Kec. Brang Rea, Kabupaten Sumbawa Barat, Nusa Tenggara Bar.","Kabupaten Sumbawa Barat, Nusa Tenggara Bar.",NUSA TENGGARA BARAT,,Indonesia,,,,-8.7653524,117.0029015,https://maps.google.com/?cid=0x0:0x9c3a18428978d302,
restaurant,Restoran,UD. AZ - ZAHRA,"Jl.Dangar permai Rt.10 Desa Desa Beru Depan KUD, Berang Rea, Moyohulu, Kabupaten Sumbawa, Nusa Tenggara Bar. 84455","Berang Rea, Moyohulu, Kabupaten Sumbawa",NUSA TENGGARA BARAT,84455.0,Indonesia,81805781857.0,,,-8.7270421,116.9108967,https://maps.google.com/?cid=0x0:0x37eacee235c1a7db,
restaurant,Brunch,Rumah Makan Chaca,"6RQ7+RC7, Jl. Labuhan Balat, Telaga Bertong, Kec. Taliwang, Kabupaten Sumbawa Barat, Nusa Tenggara Bar. 84455","Jl. Labuhan Balat, Telaga Bertong, Kec. Taliwang, Kabupaten Sumbawa Barat",NUSA TENGGARA BARAT,84455.0,Indonesia,,,,-8.7604744,116.8135505,https://maps.google.com/?cid=0x0:0xb15bb378488959bb,
restaurant,restaurant,Kec. Brang Rea,"Kabupaten Sumbawa Barat, Nusa Tenggara Bar.","Kabupaten Sumbawa Barat, Nusa Tenggara Bar.",NUSA TENGGARA BARAT,,Indonesia,,,,-8.7135824,116.9178603,https://maps.google.com/?cid=0x0:0xcddb557fd4509d8c,
restaurant,Sate,Warung Makan Simpang Tano,"FV5V+RCQ, Jl. Raya Senayan Poto Tano, Labuan Mapin, Kec. Alas Bar., Kabupaten Sumbawa, Nusa Tenggara Bar. 84454","Jl. Raya Senayan Poto Tano, Labuan Mapin, Kec. Alas Bar., Kabupaten Sumbawa",NUSA TENGGARA BARAT,84454.0,Indonesia,,,,-8.540421,116.8936153,https://maps.google.com/?cid=0x0:0x503468e129e9995,
restaurant,Kedai Kopi,Tanah nico,"8X87+CM5, Bangkat Monteh, Kec. Brang Rea, Kabupaten Sumbawa Barat, Nusa Tenggara Bar. 84458","Bangkat Monteh, Kec. Brang Rea, Kabupaten Sumbawa Barat",NUSA TENGGARA BARAT,84458.0,Indonesia,,,,-8.6833674,116.9647813,https://maps.google.com/?cid=0x0:0x3b1f28dcc950df8d,
restaurant,Pembangunan Perumahan,BALE RISKY ANSORY,"6W2V+2JV, Lampok, Kec. Brang Ene, Kabupaten Sumbawa Barat, Nusa Tenggara Bar. 84455","Lampok, Kec. Brang Ene, Kabupaten Sumbawa Barat",NUSA TENGGARA BARAT,84455.0,Indonesia,85139049615.0,,,-8.799897,116.9440313,https://maps.google.com/?cid=0x0:0x75865a734215fdd6,
restaurant,Es Krim,RUJAK CAMPUR ANEKA RASA,"7WC5+Q99, Jl. Baso Busing, Desa Beru, Kec. Brang Rea, Kabupaten Sumbawa Barat, Nusa Tenggara Bar. 84455","Jl. Baso Busing, Desa Beru, Kec. Brang Rea, Kabupaten Sumbawa Barat",NUSA TENGGARA BARAT,84455.0,Indonesia,,,,-8.7280978,116.9084888,https://maps.google.com/?cid=0x0:0xbe34bc8045afa435,
restaurant,Rumah Makan,TwOne Cafe and Resto,"Jalan TGKH Muhammad Zainuddin Abdul Majid, Kec. Taliwang, Nusa Tenggara Bar.","Kabupaten Sumbawa Barat, Nusa Tenggara Bar.",NUSA TENGGARA BARAT,,Indonesia,85339448128.0,,,-8.7494375,116.8359375,https://maps.google.com/?cid=0x0:0xc9a5fece726a1552,
restaurant,Restoran,Resto Ex-ex,"Unnamed Rd, Menala, Kec. Taliwang, Kabupaten Sumbawa Barat, Nusa Tenggara Bar. 84455","Menala, Kec. Taliwang, Kabupaten Sumbawa Barat",NUSA TENGGARA BARAT,84455.0,Indonesia,82340004700.0,,,-8.7597904,116.8511657,https://maps.google.com/?cid=0x0:0xf25cfeb0ad7a92b2,
restaurant,Restoran,Resto Hanipati,"6VQ2+X7M, Menala, Kec. Taliwang, Kabupaten Sumbawa Barat, Nusa Tenggara Bar. 84455","Menala, Kec. Taliwang, Kabupaten Sumbawa Barat",NUSA TENGGARA BARAT,84455.0,Indonesia,,,,-8.7600452,116.8506837,https://maps.google.com/?cid=0x0:0xefd8ef726b96ea44,
restaurant,Restoran,Happy Restaurant,"Jl. Raya Rantung, Sekongkang Bawah, Kec. Sekongkang, Kabupaten Sumbawa Barat, Nusa Tenggara Bar. 84457","Sekongkang Bawah, Kec. Sekongkang, Kabupaten Sumbawa Barat",NUSA TENGGARA BARAT,84457.0,Indonesia,82339283873.0,,,-8.9747448,116.7401087,https://maps.google.com/?cid=0x0:0x44592230e9bc2b83,
restaurant,Indonesia,Kirana Restaurant,"Sekongkang Bawah, Kec. Sekongkang, Kabupaten Sumbawa Barat, Nusa Tenggara Bar. 84457","Kec. Sekongkang, Kabupaten Sumbawa Barat",NUSA TENGGARA BARAT,84457.0,Indonesia,82144956038.0,,,-8.9637857,116.727832,https://maps.google.com/?cid=0x0:0x959c23302966c58f,
restaurant,restaurant,Nusa Tenggara Bar. 84454,"Kec. Seteluk, Kabupaten Sumbawa Barat, Nusa Tenggara Bar.","Kabupaten Sumbawa Barat, Nusa Tenggara Bar.",NUSA TENGGARA BARAT,,Indonesia,,,,-8.5906982,116.8674757,https://maps.google.com/?cid=0x0:0xabcb20c0c162b41d,
restaurant,Restoran,Warung Makan Ibu Nur,"Unnamed Road, Poto Tano, Kec. Poto Tano, Kabupaten Sumbawa Barat, Nusa Tenggara Bar. 84454","Poto Tano, Kec. Poto Tano, Kabupaten Sumbawa Barat",NUSA TENGGARA BARAT,84454.0,Indonesia,81997803229.0,,,-8.5002107,116.8352865,https://maps.google.com/?cid=0x0:0xb79a742fe8cf9922,
restaurant,Restoran,Rumah Makan Putri Lombok,"FV53+J3R, Jl. Raya Senayan Poto Tano, Poto Tano, Kec. Poto Tano, Kabupaten Sumbawa Barat, Nusa Tenggara Bar. 84454","Jl. Raya Senayan Poto Tano, Poto Tano, Kec. Poto Tano, Kabupaten Sumbawa Barat",NUSA TENGGARA BARAT,84454.0,Indonesia,,,,-8.5408945,116.8526305,https://maps.google.com/?cid=0x0:0x96863cafb30173e1,
restaurant,Rumah Makan,Depot 86,"FRGJ+C7X, Jl. Raya Labuhan Poto Tano, Poto Tano, Kec. Poto Tano, Kabupaten Sumbawa Barat, Nusa Tenggara Bar. 84454","Jl. Raya Labuhan Poto Tano, Poto Tano, Kec. Poto Tano, Kabupaten Sumbawa Barat",NUSA TENGGARA BARAT,84454.0,Indonesia,,,,-8.5238972,116.8307217,https://maps.google.com/?cid=0x0:0x196f4c5f5d4e66f0,
restaurant,Restoran,The Northern Right by Bukit Samudra,"Jl. Tano Kertasari, Labuan Kertasari, Kec. Poto Tano, Kabupaten Sumbawa Barat, Nusa Tenggara Bar. 84452","Labuan Kertasari, Kec. Poto Tano, Kabupaten Sumbawa Barat",NUSA TENGGARA BARAT,84452.0,Indonesia,81339988865.0,,,-8.669579,116.7629152,https://maps.google.com/?cid=0x0:0x4e231d1854ff5fd3,
restaurant,Restoran,Rumah Makan TIGA BERSAUDARA ( MASAKAN PADANG ),"Jl. Raya Labuhan Poto Tano, Poto Tano, Kec. Poto Tano, Kabupaten Sumbawa Barat, Nusa Tenggara Bar. 84454","Poto Tano, Kec. Poto Tano, Kabupaten Sumbawa Barat",NUSA TENGGARA BARAT,84454.0,Indonesia,81259477501.0,,,-8.525262,116.8307875,https://maps.google.com/?cid=0x0:0x152e1531362c0eb5,
restaurant,Sate,Warung Makan Simpang Tano,"FV5V+RCQ, Jl. Raya Senayan Poto Tano, Labuan Mapin, Kec. Alas Bar., Kabupaten Sumbawa, Nusa Tenggara Bar. 84454","Jl. Raya Senayan Poto Tano, Labuan Mapin, Kec. Alas Bar., Kabupaten Sumbawa",NUSA TENGGARA BARAT,84454.0,Indonesia,,,,-8.540421,116.8936153,https://maps.google.com/?cid=0x0:0x503468e129e9995,
restaurant,Restoran,Depot Kurnia,"9VP4+542, Jalan Raya, Senayan, Poto Tano, West Sumbawa Regency, West Nusa Tenggara 84454","Jalan Raya, Senayan, Poto Tano, West Sumbawa Regency",NUSA TENGGARA BARAT,84454.0,Indonesia,,,,-8.6146199,116.855257,https://maps.google.com/?cid=0x0:0x59562cb451c13c05,
restaurant,Restoran,Rumah Makan Blitar,"Poto Tano, Kec. Poto Tano, Kabupaten Sumbawa Barat, Nusa Tenggara Bar. 84454","Kec. Poto Tano, Kabupaten Sumbawa Barat",NUSA TENGGARA BARAT,84454.0,Indonesia,,,,-8.5337613,116.8358982,https://maps.google.com/?cid=0x0:0xadd74b09f48c7b33,
restaurant,Seblak,Warung Mbojo,"FVFH+2G2, Jl. Raya Senayan Poto Tano, Poto Tano, Kec. Poto Tano, Kabupaten Sumbawa Barat, Nusa Tenggara Bar. 84454","Jl. Raya Senayan Poto Tano, Poto Tano, Kec. Poto Tano, Kabupaten Sumbawa Barat",NUSA TENGGARA BARAT,84454.0,Indonesia,,,,-8.5274894,116.8787798,https://maps.google.com/?cid=0x0:0xed185f37bdb62465,
restaurant,Layanan Feri,Pelabuhan Poto Tano,"Poto Tano, Kec. Poto Tano, Kabupaten Sumbawa Barat, Nusa Tenggara Bar. 84454","Kec. Poto Tano, Kabupaten Sumbawa Barat",NUSA TENGGARA BARAT,84454.0,Indonesia,,,,-8.5221101,116.8310684,https://maps.google.com/?cid=0x0:0x11aef0438686cad0,
restaurant,Rumah wisata,Tourism informasi center,"FRGJ+Q77, Poto Tano, Kec. Poto Tano, Kabupaten Sumbawa Barat, Nusa Tenggara Bar. 84454","Poto Tano, Kec. Poto Tano, Kabupaten Sumbawa Barat",NUSA TENGGARA BARAT,84454.0,Indonesia,,,,-8.5230916,116.83068,https://maps.google.com/?cid=0x0:0x2f6f9d13ccb68bdd,
restaurant,Brunch,Mutiara by Mocean,"Jl. Tano Kertasari, Tua Nanga, Kec. Poto Tano, Kabupaten Sumbawa Barat, Nusa Tenggara Bar. 84454","Tua Nanga, Kec. Poto Tano, Kabupaten Sumbawa Barat",NUSA TENGGARA BARAT,84454.0,Indonesia,82144191647.0,,,-8.67389,116.7669314,https://maps.google.com/?cid=0x0:0x12e5332054793067,
restaurant,Restoran,Warung Ibu Nurhasanah,"CRMR+X5F, Upt Tambak Sari, Kec. Poto Tano, Kabupaten Sumbawa Barat, Nusa Tenggara Bar. 84454","Upt Tambak Sari, Kec. Poto Tano, Kabupaten Sumbawa Barat",NUSA TENGGARA BARAT,84454.0,Indonesia,82340430925.0,,,-8.5649825,116.8415798,https://maps.google.com/?cid=0x0:0x91e36cdd6ec5e3ba,
restaurant,Rumah Makan,TwOne Cafe and Resto,"Jalan TGKH Muhammad Zainuddin Abdul Majid, Kec. Taliwang, Nusa Tenggara Bar.","Kabupaten Sumbawa Barat, Nusa Tenggara Bar.",NUSA TENGGARA BARAT,,Indonesia,85339448128.0,,,-8.7494375,116.8359375,https://maps.google.com/?cid=0x0:0xc9a5fece726a1552,
restaurant,Restoran,Warung Nasi Inak Pur,"Kokar Lian, Kec. Poto Tano, Kabupaten Sumbawa Barat, Nusa Tenggara Bar. 84454","Kec. Poto Tano, Kabupaten Sumbawa Barat",NUSA TENGGARA BARAT,84454.0,Indonesia,,,,-8.5409553,116.8556728,https://maps.google.com/?cid=0x0:0x4cac97d20f5dab86,
restaurant,Nasi,Warung sate ayam  kerbau,"FRCJ+8RX, Poto Tano, Kec. Poto Tano, Kabupaten Sumbawa Barat, Nusa Tenggara Bar. 84454","Poto Tano, Kec. Poto Tano, Kabupaten Sumbawa Barat",NUSA TENGGARA BARAT,84454.0,Indonesia,81910380794.0,,,-8.5291326,116.832116,https://maps.google.com/?cid=0x0:0x5a9721df371cd404,
restaurant,Kedai Kopi,Warung PenSiti,"Jl. Raya Seteluk No.45, Senayan, Kec. Poto Tano, Kabupaten Sumbawa Barat, Nusa Tenggara Bar. 84454","Senayan, Kec. Poto Tano, Kabupaten Sumbawa Barat",NUSA TENGGARA BARAT,84454.0,Indonesia,,,,-8.611712,116.8513906,https://maps.google.com/?cid=0x0:0xd65d5a69565ee917,
restaurant,Restoran,Pizza House Putri,"9VH5+M8J, Jalan Raya, Senayan, Kec. Poto Tano, Kabupaten Sumbawa Barat, Nusa Tenggara Bar. 84454","Jalan Raya, Senayan, Kec. Poto Tano, Kabupaten Sumbawa Barat",NUSA TENGGARA BARAT,84454.0,Indonesia,85238440044.0,,,-8.6207838,116.858248,https://maps.google.com/?cid=0x0:0xfc37f2d40370a49d,
restaurant,Restoran,Rumah Makan Bunda Dinar,"9VP3+63X, Senayan, Kec. Poto Tano, Kabupaten Sumbawa Barat, Nusa Tenggara Bar.","Kabupaten Sumbawa Barat, Nusa Tenggara Bar.",NUSA TENGGARA BARAT,,Indonesia,,,,-8.6143813,116.8527461,https://maps.google.com/?cid=0x0:0xf77f3ee0f722d051,
restaurant,Bar Kopi Espresso,WARKOP TandOne,"REST AREA SENTRA IKM, Jl. Raya Poto Tano, Poto Tano, Kec. Poto Tano, Kabupaten Sumbawa Barat, Nusa Tenggara Bar. 84454","Jl. Raya Poto Tano, Poto Tano, Kec. Poto Tano, Kabupaten Sumbawa Barat",NUSA TENGGARA BARAT,84454.0,Indonesia,85238123060.0,,,-8.5380995,116.836788,https://maps.google.com/?cid=0x0:0xc8c002cb2d9f4e41,
restaurant,Dapur Umum,Poklahsar Pasir Putih,"FRFJ+2MH, Poto Tano, Kec. Poto Tano, Kabupaten Sumbawa Barat, Nusa Tenggara Bar. 84454","Poto Tano, Kec. Poto Tano, Kabupaten Sumbawa Barat",NUSA TENGGARA BARAT,84454.0,Indonesia,,,,-8.5274371,116.831738,https://maps.google.com/?cid=0x0:0x4075459d707344a6,
restaurant,Bakso,Garo Bakso,"Sepakek, Senayan, Kec. Poto Tano, Kabupaten Sumbawa Barat, Nusa Tenggara Bar. 84354","Senayan, Kec. Poto Tano, Kabupaten Sumbawa Barat",NUSA TENGGARA BARAT,84354.0,Indonesia,82237033749.0,,,-8.5812377,116.8284791,https://maps.google.com/?cid=0x0:0x3bd8e846d01e86ba,
restaurant,restaurant,Nusa Tenggara Bar. 84455,"Kabupaten Sumbawa Barat, Nusa Tenggara Bar.","Kabupaten Sumbawa Barat, Nusa Tenggara Bar.",NUSA TENGGARA BARAT,,Indonesia,,,,-8.7907453,116.8674757,https://maps.google.com/?cid=0x0:0x5fda0016832273b3,
restaurant,Restoran,Resto Ex-ex,"Unnamed Rd, Menala, Kec. Taliwang, Kabupaten Sumbawa Barat, Nusa Tenggara Bar. 84455","Menala, Kec. Taliwang, Kabupaten Sumbawa Barat",NUSA TENGGARA BARAT,84455.0,Indonesia,82340004700.0,,,-8.7597904,116.8511657,https://maps.google.com/?cid=0x0:0xf25cfeb0ad7a92b2,
restaurant,Kafe,Rumah Kebun Cafe and Resto,"Menala, Kec. Taliwang, Kabupaten Sumbawa Barat, Nusa Tenggara Bar. 84455","Kec. Taliwang, Kabupaten Sumbawa Barat",NUSA TENGGARA BARAT,84455.0,Indonesia,82339951921.0,,,-8.7592579,116.8521436,https://maps.google.com/?cid=0x0:0x98195eee973bffbd,
restaurant,Nasi,Nasi Puyung (Warung Lombok),"Bugis, Kec. Taliwang, Kabupaten Sumbawa Barat, Nusa Tenggara Bar. 84455","Kec. Taliwang, Kabupaten Sumbawa Barat",NUSA TENGGARA BARAT,84455.0,Indonesia,8175779120.0,,,-8.7418929,116.8438058,https://maps.google.com/?cid=0x0:0xb9cb405c7862e045,
restaurant,Restoran,Resto Hanipati,"6VQ2+X7M, Menala, Kec. Taliwang, Kabupaten Sumbawa Barat, Nusa Tenggara Bar. 84455","Menala, Kec. Taliwang, Kabupaten Sumbawa Barat",NUSA TENGGARA BARAT,84455.0,Indonesia,,,,-8.7600452,116.8506837,https://maps.google.com/?cid=0x0:0xefd8ef726b96ea44,
restaurant,Brunch,Warung Mbak Dede Special Jaran,"7W83+GJ5, Jl. Baso Busing, Sapugara Bree, Kec. Brang Rea, Kabupaten Sumbawa Barat, Nusa Tenggara Bar. 84455","Jl. Baso Busing, Sapugara Bree, Kec. Brang Rea, Kabupaten Sumbawa Barat",NUSA TENGGARA BARAT,84455.0,Indonesia,,,,-8.7336964,116.9039513,https://maps.google.com/?cid=0x0:0x1abc950469c966,
restaurant,Rumah Makan,Warung Baing Desa,"6QPQ+2R3, Jl. Labuhan Balat, Telaga Bertong, Kec. Taliwang, Kabupaten Sumbawa Barat, Nusa Tenggara Bar. 84455","Jl. Labuhan Balat, Telaga Bertong, Kec. Taliwang, Kabupaten Sumbawa Barat",NUSA TENGGARA BARAT,84455.0,Indonesia,,,,-8.764904,116.78978,https://maps.google.com/?cid=0x0:0x534e11d2025e2614,
restaurant,Hidangan Laut,Kedai Sawah KTC Resto  Family Karaoke,"Unnamed Road, Menala, Kec. Taliwang, Kabupaten Sumbawa Barat, Nusa Tenggara Bar. 84455","Menala, Kec. Taliwang, Kabupaten Sumbawa Barat",NUSA TENGGARA BARAT,84455.0,Indonesia,81236855557.0,,,-8.7587321,116.851987,https://maps.google.com/?cid=0x0:0xa17ba353601404ec,
restaurant,Padang,Rumah Makan Sumber Rezeki Masakan padang,"Kuang, Kec. Taliwang, Kabupaten Sumbawa Barat, Nusa Tenggara Bar. 84455","Kec. Taliwang, Kabupaten Sumbawa Barat",NUSA TENGGARA BARAT,84455.0,Indonesia,,,,-8.7422839,116.8496203,https://maps.google.com/?cid=0x0:0xf1cb792a57a8753a,
restaurant,Kedai Kopi,Kedai Teming Brang,"7V38+G3C, Jl. Lintas Taliwang, Menala, Kec. Taliwang, Kabupaten Sumbawa Barat, Nusa Tenggara Bar. 84455","Jl. Lintas Taliwang, Menala, Kec. Taliwang, Kabupaten Sumbawa Barat",NUSA TENGGARA BARAT,84455.0,Indonesia,82314048010.0,,,-8.746182,116.8651322,https://maps.google.com/?cid=0x0:0xd46a596b791879d3,
restaurant,Restoran,RM SARI GALI,"6R68+9VW, Telaga Bertong, Kec. Taliwang, Kabupaten Sumbawa Barat, Nusa Tenggara Bar. 84455","Telaga Bertong, Kec. Taliwang, Kabupaten Sumbawa Barat",NUSA TENGGARA BARAT,84455.0,Indonesia,,,,-8.7890245,116.8172088,https://maps.google.com/?cid=0x0:0x10858f453efd5c7b,
restaurant,Sate,Warung Santuri,"6RGF+4VW, Telaga Bertong, Kec. Taliwang, Kabupaten Sumbawa Barat, Nusa Tenggara Bar. 84455","Telaga Bertong, Kec. Taliwang, Kabupaten Sumbawa Barat",NUSA TENGGARA BARAT,84455.0,Indonesia,85333872140.0,,,-8.7746269,116.8246902,https://maps.google.com/?cid=0x0:0x886f865ab63f742f,
restaurant,Pembangunan Perumahan,Bale santong,"6VX3+6RH, Kuang, Kec. Taliwang, Kabupaten Sumbawa Barat, Nusa Tenggara Bar.","Kabupaten Sumbawa Barat, Nusa Tenggara Bar.",NUSA TENGGARA BARAT,,Indonesia,,,,-8.751946,116.854599,https://maps.google.com/?cid=0x0:0x1fb8c2bace7160e,
restaurant,Indonesia,Kirana Restaurant,"Sekongkang Bawah, Kec. Sekongkang, Kabupaten Sumbawa Barat, Nusa Tenggara Bar. 84457","Kec. Sekongkang, Kabupaten Sumbawa Barat",NUSA TENGGARA BARAT,84457.0,Indonesia,82144956038.0,,,-8.9637857,116.727832,https://maps.google.com/?cid=0x0:0x959c23302966c58f,
restaurant,Jawa,Lesehan Dhe Par,"7V52+R3R, JL. Arif Rahman Hakim, Sebok, Taliwang, Dalam, Kec. Taliwang, Kabupaten Sumbawa Barat, Nusa Tenggara Bar. 84455","JL. Arif Rahman Hakim, Sebok, Taliwang, Dalam, Kec. Taliwang, Kabupaten Sumbawa Barat",NUSA TENGGARA BARAT,84455.0,Indonesia,81935936818.0,,,-8.7403809,116.8501459,https://maps.google.com/?cid=0x0:0xcecbab94ba53697f,
restaurant,Rumah Makan,BLUE SAFIER BBQ 'N' SHABU-SHABU,"KTC, Menala, Kec. Taliwang, Kabupaten Sumbawa Barat, Nusa Tenggara Bar. 84455","Menala, Kec. Taliwang, Kabupaten Sumbawa Barat",NUSA TENGGARA BARAT,84455.0,Indonesia,85338993933.0,,,-8.7594597,116.8517808,https://maps.google.com/?cid=0x0:0x314dec230529a157,
restaurant,Nasi Goreng,NASI ABOK KAMP. MOTONG,"7V53+8CQ, Motong, kampung, Kuang, Kec. Taliwang, Kabupaten Sumbawa Barat, Nusa Tenggara Bar. 84455","Motong, kampung, Kuang, Kec. Taliwang, Kabupaten Sumbawa Barat",NUSA TENGGARA BARAT,84455.0,Indonesia,81339728811.0,,,-8.7416725,116.8536142,https://maps.google.com/?cid=0x0:0xd6b8223209844f75,
restaurant,Kafe,ISG Coffe  Eatery,"Kuang, Kec. Taliwang, Kabupaten Sumbawa Barat, Nusa Tenggara Bar.","Kabupaten Sumbawa Barat, Nusa Tenggara Bar.",NUSA TENGGARA BARAT,,Indonesia,,,,-8.7501871,116.8385539,https://maps.google.com/?cid=0x0:0x96a66e4ef435435e,
restaurant,Makanan Siap Saji,Selera Anda,"7R4W+7WR, Jl. Ngalu, Dalam, Kec. Taliwang, Kabupaten Sumbawa Barat, Nusa Tenggara Bar. 84455","Jl. Ngalu, Dalam, Kec. Taliwang, Kabupaten Sumbawa Barat",NUSA TENGGARA BARAT,84455.0,Indonesia,,,,-8.7442715,116.8472604,https://maps.google.com/?cid=0x0:0x1051a1ca08cf3f83,
restaurant,Ayam,Rm Taliwang Khas Lombok ibu Nur,"Unnamed Road, Nusa Tenggara Bar. 84455, Bugis, Taliwang, West Sumbawa Regency, West Nusa Tenggara 84455",Nusa Tenggara Bar.,NUSA TENGGARA BARAT,84455.0,Indonesia,,,,-8.7419049,116.8480157,https://maps.google.com/?cid=0x0:0xca9099e2dd30c899,
restaurant,Mi,Bakso Malang 2 Taliwang,"7R6X+982, Dalam, Kec. Taliwang, Kabupaten Sumbawa Barat, Nusa Tenggara Bar. 84455","Dalam, Kec. Taliwang, Kabupaten Sumbawa Barat",NUSA TENGGARA BARAT,84455.0,Indonesia,87766966446.0,,,-8.7391066,116.8482797,https://maps.google.com/?cid=0x0:0xf9402e0b1c3b1603,
restaurant,Dapur Umum,Dapur Fahira,"Gang Karyaci Jl. Sutan Syahrir, Bugis, Kec. Taliwang, Kabupaten Sumbawa Barat, Nusa Tenggara Bar. 84455","Bugis, Kec. Taliwang, Kabupaten Sumbawa Barat",NUSA TENGGARA BARAT,84455.0,Indonesia,81237262865.0,,,-8.7436315,116.8416524,https://maps.google.com/?cid=0x0:0x2d50dfd707732d6d,
restaurant,Ayam,Lesehan Sayang Anak,"7R3M+363, Jl. Labuhan Balat, Bugis, Kec. Taliwang, Kabupaten Sumbawa Barat, Nusa Tenggara Bar. 84455","Jl. Labuhan Balat, Bugis, Kec. Taliwang, Kabupaten Sumbawa Barat",NUSA TENGGARA BARAT,84455.0,Indonesia,81337486665.0,,,-8.7473554,116.833057,https://maps.google.com/?cid=0x0:0x5fa87f55f9418c0b,
restaurant,Ikan Bakar,"Kolam Pemancingan Ai Gerung. Mura, KSB","6VHJ+MP2, Mura, Kec. Brang Ene, Kabupaten Sumbawa Barat, Nusa Tenggara Bar. 84455","Mura, Kec. Brang Ene, Kabupaten Sumbawa Barat",NUSA TENGGARA BARAT,84455.0,Indonesia,81237927418.0,,,-8.7708674,116.881772,https://maps.google.com/?cid=0x0:0x6061b6a4544a718f,
restaurant,Jawa,Lesehan Lang Jalopang,"Jl. Lintas Taliwang Jl. Brang Rea No.KM. 1, Menala, Kec. Taliwang, Kabupaten Sumbawa Barat, Nusa Tenggara Bar. 84452","Menala, Kec. Taliwang, Kabupaten Sumbawa Barat",NUSA TENGGARA BARAT,84452.0,Indonesia,85239610897.0,,,-8.7463744,116.8652268,https://maps.google.com/?cid=0x0:0x46edbf4228ab3a78,
restaurant,Kantor Perusahaan,BIJE JARI RESTO,"Jalan Sadar Wisata, Pasir Putih, Kec. Maluk, Kabupaten Sumbawa Barat, Nusa Tenggara Bar. 84456","Pasir Putih, Kec. Maluk, Kabupaten Sumbawa Barat",NUSA TENGGARA BARAT,84456.0,Indonesia,87860055758.0,,,-8.9177705,116.751543,https://maps.google.com/?cid=0x0:0xbeed92b2ec7c9b02,
restaurant,Steak,KABA Steak  Seafood,"Pantai, Pasir Putih, Kec. Maluk, Kabupaten Sumbawa Barat, Nusa Tenggara Bar. 84456","Pasir Putih, Kec. Maluk, Kabupaten Sumbawa Barat",NUSA TENGGARA BARAT,84456.0,Indonesia,81935959555.0,,,-8.9154157,116.744618,https://maps.google.com/?cid=0x0:0x76025a79067dc69f,
restaurant,Restoran,Rm. Permata Bundo,"3QQ2+696, Jalan Raya, Mantun, Maluk, West Sumbawa Regency, West Nusa Tenggara 84456","Jalan Raya, Mantun, Maluk, West Sumbawa Regency",NUSA TENGGARA BARAT,84456.0,Indonesia,,,,-8.9119714,116.7508821,https://maps.google.com/?cid=0x0:0xa7dd168b5c49d7ed,
restaurant,Kafe,MINING CAFE,"3QM2+WP7 Jl. Raya Maluk, benete, Maluk, Kec. Maluk, Kabupaten Sumbawa Barat, Nusa Tenggara Bar. 84456","benete, Maluk, Kec. Maluk, Kabupaten Sumbawa Barat",NUSA TENGGARA BARAT,84456.0,Indonesia,,,,-8.9152701,116.7518143,https://maps.google.com/?cid=0x0:0x2ac429979fbfb8ac,
restaurant,Rumah Makan,Warung Bu Sugeng,"3QP2+XGR, Jalan Raya, Bukit Damai, Maluk, West Sumbawa Regency, West Nusa Tenggara 84456","Jalan Raya, Bukit Damai, Maluk, West Sumbawa Regency",NUSA TENGGARA BARAT,84456.0,Indonesia,,,,-8.9125448,116.7512694,https://maps.google.com/?cid=0x0:0x13624866890d8358,
restaurant,Kedai Kopi,Kedai Bakso Bandung,"3QJ3+GF4, Maluk, Kec. Maluk, Kabupaten Sumbawa Barat, Nusa Tenggara Bar. 84456","Maluk, Kec. Maluk, Kabupaten Sumbawa Barat",NUSA TENGGARA BARAT,84456.0,Indonesia,,,,-8.918738,116.7536915,https://maps.google.com/?cid=0x0:0x5689eac024ec8237,
restaurant,Restoran,Cobek bakar maluk,"jln. lala jinis bukit damai, Maluk, Kec. Maluk, Kabupaten Sumbawa Barat, Nusa Tenggara Bar. 84456","Maluk, Kec. Maluk, Kabupaten Sumbawa Barat",NUSA TENGGARA BARAT,84456.0,Indonesia,82111285399.0,,,-8.9129242,116.7516219,https://maps.google.com/?cid=0x0:0x153253ea5ce2136b,
restaurant,Restoran,Nasi Goreng Putra Bahari (asli tegal),"3QP2+HJ4, Maluk, Kec. Maluk, Kabupaten Sumbawa Barat, Nusa Tenggara Bar. 84456","Maluk, Kec. Maluk, Kabupaten Sumbawa Barat",NUSA TENGGARA BARAT,84456.0,Indonesia,,,,-8.9135794,116.7515404,https://maps.google.com/?cid=0x0:0x27b57ffbcfeb2462,
restaurant,Restoran,Sate Madura,"3QP2+QCX, Pasir Putih, Kec. Maluk, Kabupaten Sumbawa Barat, Nusa Tenggara Bar. 84456","Pasir Putih, Kec. Maluk, Kabupaten Sumbawa Barat",NUSA TENGGARA BARAT,84456.0,Indonesia,,,,-8.9130158,116.7513797,https://maps.google.com/?cid=0x0:0x9be7889d60936598,
restaurant,Rumah Makan,Bakso Bandit,"3QM2+6P5, Pasir Putih, Kec. Maluk, Kabupaten Sumbawa Barat, Nusa Tenggara Bar. 84456","Pasir Putih, Kec. Maluk, Kabupaten Sumbawa Barat",NUSA TENGGARA BARAT,84456.0,Indonesia,,,,-8.9185114,116.7517033,https://maps.google.com/?cid=0x0:0x33c16815eab626ac,
restaurant,Mi,Wrg.CITRA Maluk,"Jl. Raya Maluk Maluk Sumbawa Barat, Maluk, Kec. Maluk, Sumbawa, Nusa Tenggara Bar. 84456","Maluk, Kec. Maluk, Sumbawa",NUSA TENGGARA BARAT,84456.0,Indonesia,81339613875.0,,,-8.9176824,116.753559,https://maps.google.com/?cid=0x0:0x8fc2f25e673a61a5,
restaurant,Rumah Makan,Warung Kebun Toraja,"3QP2+VGF, Maluk, Kec. Maluk, Kabupaten Sumbawa Barat, Nusa Tenggara Bar. 84456","Maluk, Kec. Maluk, Kabupaten Sumbawa Barat",NUSA TENGGARA BARAT,84456.0,Indonesia,,,,-8.9128064,116.7512994,https://maps.google.com/?cid=0x0:0x74bfa384661135c8,
restaurant,Mi,Bakso dan mie ayam (bagus'fams),"Jl. Raya Maluk, Bukit Damai, Kec. Maluk, Kabupaten Sumbawa Barat, Nusa Tenggara Bar. 84456","Bukit Damai, Kec. Maluk, Kabupaten Sumbawa Barat",NUSA TENGGARA BARAT,84456.0,Indonesia,82359202024.0,,,-8.910871,116.7507545,https://maps.google.com/?cid=0x0:0xacda689a8881d99c,
restaurant,Indonesia,Bakso Pak Dhe Sari Roso,"3QQ2+495, Mantun, Kec. Maluk, Kabupaten Sumbawa Barat, Nusa Tenggara Bar. 84456","Mantun, Kec. Maluk, Kabupaten Sumbawa Barat",NUSA TENGGARA BARAT,84456.0,Indonesia,,,,-8.9122407,116.7509789,https://maps.google.com/?cid=0x0:0x3a070d05c1042987,
restaurant,Restoran,Warung PAK TO ikan bakar lamongan,"3QM2+XMH, Pasir Putih, Kec. Maluk, Kabupaten Sumbawa Barat, Nusa Tenggara Bar. 84456","Pasir Putih, Kec. Maluk, Kabupaten Sumbawa Barat",NUSA TENGGARA BARAT,84456.0,Indonesia,85230123609.0,,,-8.9150703,116.7516995,https://maps.google.com/?cid=0x0:0x88a6b3438c244a0d,
restaurant,restaurant,Rumah makan sulawesi,"3PPV+4CW, Pasir Putih, Kec. Maluk, Kabupaten Sumbawa Barat, Nusa Tenggara Bar. 84456","Pasir Putih, Kec. Maluk, Kabupaten Sumbawa Barat",NUSA TENGGARA BARAT,84456.0,Indonesia,,,,-8.9146152,116.7434206,https://maps.google.com/?cid=0x0:0xa96be2637878fd17,
restaurant,restaurant,NASI TEMPONG RINIE,"Samping masjid besar, Maluk, Kec. Maluk, Kabupaten Sumbawa Barat, Nusa Tenggara Bar. 84456","Maluk, Kec. Maluk, Kabupaten Sumbawa Barat",NUSA TENGGARA BARAT,84456.0,Indonesia,,,,-8.9128064,116.7512994,https://maps.google.com/?cid=0x0:0x76ec0a2bb743f4bd,
restaurant,Restoran,Warung Nasi Daun Bude,"Dekat Pandu Siwi, Pasir Putih, Kec. Maluk, Kabupaten Sumbawa Barat, Nusa Tenggara Bar. 84456","Pasir Putih, Kec. Maluk, Kabupaten Sumbawa Barat",NUSA TENGGARA BARAT,84456.0,Indonesia,,,,-8.9205761,116.7541244,https://maps.google.com/?cid=0x0:0x96ffb54e15b7c03f,
restaurant,Restoran,Rumah Makan Lilis Catering,"3QQ2+2FW, Bukit Damai, Kec. Maluk, Kabupaten Sumbawa Barat, Nusa Tenggara Bar. 84456","Bukit Damai, Kec. Maluk, Kabupaten Sumbawa Barat",NUSA TENGGARA BARAT,84456.0,Indonesia,,,,-8.9123927,116.7511971,https://maps.google.com/?cid=0x0:0x5b87126697e506d1,
restaurant,restaurant,Maluk,"Kec. Maluk, Kabupaten Sumbawa Barat, Nusa Tenggara Bar.","Kabupaten Sumbawa Barat, Nusa Tenggara Bar.",NUSA TENGGARA BARAT,,Indonesia,,,,-8.9238233,116.7673237,https://maps.google.com/?cid=0x0:0x47ef5cc6638a6493,
restaurant,Indonesia,Dunia Restaurant,"3QP2+QC8, Jalan Raya, Pasir Putih, Maluk, West Sumbawa Regency, West Nusa Tenggara 84456","Jalan Raya, Pasir Putih, Maluk, West Sumbawa Regency",NUSA TENGGARA BARAT,84456.0,Indonesia,372635168.0,,,-8.9130914,116.7510655,https://maps.google.com/?cid=0x0:0xcdedf4a71f0f0640,
restaurant,Kafe,De Sallero Cafe  Restaurant,"3QH4+28R, Maluk, Kec. Maluk, Kabupaten Sumbawa Barat, Nusa Tenggara Bar. 84456","Maluk, Kec. Maluk, Kabupaten Sumbawa Barat",NUSA TENGGARA BARAT,84456.0,Indonesia,,,,-8.9218209,116.7555443,https://maps.google.com/?cid=0x0:0x6a9c78420b447b3e,
restaurant,Kafe,Restaurant Putra Pagaruyung,"Jl. Maluk - Sekongkang, Maluk, Kec. Maluk, Kabupaten Sumbawa Barat, Nusa Tenggara Bar. 84456","Maluk, Kec. Maluk, Kabupaten Sumbawa Barat",NUSA TENGGARA BARAT,84456.0,Indonesia,85217569090.0,,,-8.9240306,116.7572559,https://maps.google.com/?cid=0x0:0xe6b4864f6e85c9e7,
restaurant,Restoran,Warung TIGA PUTRI,"3QP2+4JH, Pasir Putih, Kec. Maluk, Kabupaten Sumbawa Barat, Nusa Tenggara Bar. 84456","Pasir Putih, Kec. Maluk, Kabupaten Sumbawa Barat",NUSA TENGGARA BARAT,84456.0,Indonesia,,,,-8.9146842,116.7515994,https://maps.google.com/?cid=0x0:0x3acb02504a9f3c8d,
restaurant,Restoran,Coffeetaria's Cafe,"3QP3+X27, Jalan Raya, Bukit Damai, Maluk, West Sumbawa Regency, West Nusa Tenggara 84456","Jalan Raya, Bukit Damai, Maluk, West Sumbawa Regency",NUSA TENGGARA BARAT,84456.0,Indonesia,85237045500.0,,,-8.9125806,116.7525406,https://maps.google.com/?cid=0x0:0xd6669600b193e969,
restaurant,Restoran,Muchsin Satria,"3QJ3+HGX, Maluk, Kec. Maluk, Kabupaten Sumbawa Barat, Nusa Tenggara Bar. 84456","Maluk, Kec. Maluk, Kabupaten Sumbawa Barat",NUSA TENGGARA BARAT,84456.0,Indonesia,81339581859.0,,,-8.918516,116.7538613,https://maps.google.com/?cid=0x0:0x94f83d618fbaaac4,
restaurant,Indonesia,Warung Jembatan Maluk Sumbawa Barat,"3QJ3+3F3, Jalan Raya, Pasir Putih, Maluk, West Sumbawa Regency, West Nusa Tenggara 84456","Jalan Raya, Pasir Putih, Maluk, West Sumbawa Regency",NUSA TENGGARA BARAT,84456.0,Indonesia,,,,-8.9198678,116.7536787,https://maps.google.com/?cid=0x0:0x10676988cdc62c7c,
restaurant,Rumah wisata,Pasir Putih Resto  Homestay,"Jalan, Pasir Putih, Kec. Maluk, Kabupaten Sumbawa Barat, Nusa Tenggara Bar. 84456","Pasir Putih, Kec. Maluk, Kabupaten Sumbawa Barat",NUSA TENGGARA BARAT,84456.0,Indonesia,,,,-8.9168212,116.746193,https://maps.google.com/?cid=0x0:0x81e5468c9d94ee4e,
restaurant,Indonesia,Warung NGANJUK,"Jalan Raya, Pasir Putih, Maluk, West Sumbawa Regency, West Nusa Tenggara 84456","Pasir Putih, Maluk, West Sumbawa Regency",NUSA TENGGARA BARAT,84456.0,Indonesia,81235401781.0,,,-8.9164685,116.7526762,https://maps.google.com/?cid=0x0:0xb5765bdc2c15fc95,
cafe,cafe,Nusa Tenggara Bar. 84456,"Kec. Jereweh, Kabupaten Sumbawa Barat, Nusa Tenggara Bar.","Kabupaten Sumbawa Barat, Nusa Tenggara Bar.",NUSA TENGGARA BARAT,,Indonesia,,,,-8.947527,116.9145901,https://maps.google.com/?cid=0x0:0xd8d94f4df4b390cb,
cafe,Kedai Kopi,KAWAA (coffee for the soul),"lintas, Jl. Pahlawan, Beru, Jereweh, West Sumbawa Regency, West Nusa Tenggara 84456","Jl. Pahlawan, Beru, Jereweh, West Sumbawa Regency",NUSA TENGGARA BARAT,84456.0,Indonesia,,,,-8.8576312,116.8227313,https://maps.google.com/?cid=0x0:0x452de7a7f18a8c48,
cafe,Restoran,Gia's cafe + restaurant,"4QQ9+C8X, Beru, Kec. Jereweh, Kabupaten Sumbawa Barat, Nusa Tenggara Bar.","Kabupaten Sumbawa Barat, Nusa Tenggara Bar.",NUSA TENGGARA BARAT,,Indonesia,85339246405.0,,,-8.8615556,116.7682767,https://maps.google.com/?cid=0x0:0x741f634d0f3f07e0,
cafe,Brunch,Surf cafe,"Jl Wisata Jelenga Jelenga, Nusa Tenggara Bar. 84456","Kabupaten Sumbawa Barat, Nusa Tenggara Bar.",NUSA TENGGARA BARAT,,Indonesia,82133465723.0,,,-8.8583494,116.7651523,https://maps.google.com/?cid=0x0:0xdc145f31aaf12a67,
cafe,Restoran,Coffeetaria's Cafe,"3QP3+X27, Jalan Raya, Bukit Damai, Maluk, West Sumbawa Regency, West Nusa Tenggara 84456","Jalan Raya, Bukit Damai, Maluk, West Sumbawa Regency",NUSA TENGGARA BARAT,84456.0,Indonesia,85237045500.0,,,-8.9125806,116.7525406,https://maps.google.com/?cid=0x0:0xd6669600b193e969,
cafe,Kantor Perusahaan,BIJE JARI RESTO,"Jalan Sadar Wisata, Pasir Putih, Kec. Maluk, Kabupaten Sumbawa Barat, Nusa Tenggara Bar. 84456","Pasir Putih, Kec. Maluk, Kabupaten Sumbawa Barat",NUSA TENGGARA BARAT,84456.0,Indonesia,87860055758.0,,,-8.9177705,116.751543,https://maps.google.com/?cid=0x0:0xbeed92b2ec7c9b02,
cafe,Rumah wisata,Jereweh Garden,"Jalan Raya jelenga, Beru, Kec. Jereweh, Kabupaten Sumbawa Barat, Nusa Tenggara Bar. 84456","Beru, Kec. Jereweh, Kabupaten Sumbawa Barat",NUSA TENGGARA BARAT,84456.0,Indonesia,,,,-8.8584739,116.8191053,https://maps.google.com/?cid=0x0:0xaa4d851669d964c5,
cafe,Kedai Kopi,BK 194 .. Private Cafe Townsite,"2Q97+9FM, Sekongkang Atas, Kec. Sekongkang, Kabupaten Sumbawa Barat, Nusa Tenggara Bar. 84457","Sekongkang Atas, Kec. Sekongkang, Kabupaten Sumbawa Barat",NUSA TENGGARA BARAT,84457.0,Indonesia,,,,-8.9815461,116.7636737,https://maps.google.com/?cid=0x0:0xddaec69b61749b15,
cafe,Kafe,De Sallero Cafe  Restaurant,"3QH4+28R, Maluk, Kec. Maluk, Kabupaten Sumbawa Barat, Nusa Tenggara Bar. 84456","Maluk, Kec. Maluk, Kabupaten Sumbawa Barat",NUSA TENGGARA BARAT,84456.0,Indonesia,,,,-8.9218209,116.7555443,https://maps.google.com/?cid=0x0:0x6a9c78420b447b3e,
cafe,Indonesia,SHARDANA,"4QRC+GGJ, Beru, Kec. Jereweh, Kabupaten Sumbawa Barat, Nusa Tenggara Bar. 84456","Beru, Kec. Jereweh, Kabupaten Sumbawa Barat",NUSA TENGGARA BARAT,84456.0,Indonesia,82266433800.0,,,-8.8586875,116.7713125,https://maps.google.com/?cid=0x0:0x2974f1f3e5790390,
cafe,Kafe,Cia Cifana village and coffee shop,"3PPV+5CV, Pasir Putih, Kec. Maluk, Kabupaten Sumbawa Barat, Nusa Tenggara Bar. 84456","Pasir Putih, Kec. Maluk, Kabupaten Sumbawa Barat",NUSA TENGGARA BARAT,84456.0,Indonesia,81237210051.0,,,-8.9145188,116.7435431,https://maps.google.com/?cid=0x0:0x140dae2029e699e5,
cafe,Kedai Kopi,KEDAI TELIMUN,"4RPC+RQG, Jl. Pendidikan, Belo, Kec. Jereweh, Kabupaten Sumbawa Barat, Nusa Tenggara Bar. 84456","Jl. Pendidikan, Belo, Kec. Jereweh, Kabupaten Sumbawa Barat",NUSA TENGGARA BARAT,84456.0,Indonesia,,,,-8.8629499,116.8219393,https://maps.google.com/?cid=0x0:0x310473253a38a36b,
cafe,Kafe,Sumur sapi center,"Jelenga beach Jelenga, desa, Beru, Kec. Jereweh, Nusa Tenggara Bar.","Kabupaten Sumbawa Barat, Nusa Tenggara Bar.",NUSA TENGGARA BARAT,,Indonesia,82147906197.0,,,-8.860569,116.7686307,https://maps.google.com/?cid=0x0:0xe762ba11656badfe,
cafe,Kedai Kopi,Odette Cafe,"4Q53+F3, Benete, Kabupaten Sumbawa Barat, Nusa Tenggara Bar.","Kabupaten Sumbawa Barat, Nusa Tenggara Bar.",NUSA TENGGARA BARAT,,Indonesia,,,,-8.9158116,116.7355815,https://maps.google.com/?cid=0x0:0x52481202595baab4,
cafe,Kedai Kopi,Melolam Coffee  Nature,"Jl. Dasan Anyar, Dasan Anyar, Kec. Jereweh, Kabupaten Sumbawa Barat, Nusa Tenggara Bar.","Kabupaten Sumbawa Barat, Nusa Tenggara Bar.",NUSA TENGGARA BARAT,,Indonesia,81238714045.0,,,-8.8220591,116.8182725,https://maps.google.com/?cid=0x0:0xd383e28ef9cad4fd,
cafe,Kedai Kopi,ROA Coffee,"Gili Dua Pantai Sekongkang, Sekongkang Bawah, Kec. Sekongkang, Kabupaten Sumbawa Barat, Nusa Tenggara Bar. 84457","Sekongkang Bawah, Kec. Sekongkang, Kabupaten Sumbawa Barat",NUSA TENGGARA BARAT,84457.0,Indonesia,85333616307.0,,,-8.9747519,116.735799,https://maps.google.com/?cid=0x0:0x7cd5589edefc2150,
cafe,Kedai Kopi,New Odette Cafe,"Pasir Putih, Kabupaten Sumbawa Barat, Nusa Tenggara Bar.","Kabupaten Sumbawa Barat, Nusa Tenggara Bar.",NUSA TENGGARA BARAT,,Indonesia,81919061347.0,,,-8.9242387,116.7518677,https://maps.google.com/?cid=0x0:0x98314228554d89e,
cafe,Kafe,Rezha Coffee Shop,"Jl. Raya Maluk, Bukit Damai, Kec. Maluk, Kabupaten Sumbawa Barat, Nusa Tenggara Bar. 84456","Bukit Damai, Kec. Maluk, Kabupaten Sumbawa Barat",NUSA TENGGARA BARAT,84456.0,Indonesia,895802511456.0,,,-8.914026,116.7516765,https://maps.google.com/?cid=0x0:0xde41788353a663e1,
cafe,Kedai Kopi,INUM KAWA,"5R28+9MC, Goa, Kec. Jereweh, Kabupaten Sumbawa Barat, Nusa Tenggara Bar. 84465","Goa, Kec. Jereweh, Kabupaten Sumbawa Barat",NUSA TENGGARA BARAT,84465.0,Indonesia,,,,-8.8490699,116.8166301,https://maps.google.com/?cid=0x0:0xa31ed2860fa92f1a,
cafe,Kedai Kopi,Castaway Espresso,"Jl. Raya Rantung, Sekongkang Bawah, Kec. Sekongkang, Kabupaten Sumbawa Barat, Nusa Tenggara Bar.","Kabupaten Sumbawa Barat, Nusa Tenggara Bar.",NUSA TENGGARA BARAT,,Indonesia,81237616097.0,,,-8.9833107,116.7416427,https://maps.google.com/?cid=0x0:0x1090d6035325dd08,
cafe,Kafe,Mk COFFEE SHOP,"3QJ3+HFH, Jalan Raya, Pasir Putih, Maluk, West Sumbawa Regency, West Nusa Tenggara 84456","Jalan Raya, Pasir Putih, Maluk, West Sumbawa Regency",NUSA TENGGARA BARAT,84456.0,Indonesia,81246484879.0,,,-8.918551,116.7537234,https://maps.google.com/?cid=0x0:0x519be9233bc681a8,
cafe,Restoran,Soare Cafe Maluk,"3PJX+QX2, Pasir Putih, Kec. Maluk, Kabupaten Sumbawa Barat, Nusa Tenggara Bar.","Kabupaten Sumbawa Barat, Nusa Tenggara Bar.",NUSA TENGGARA BARAT,,Indonesia,,,,-8.9181123,116.7498884,https://maps.google.com/?cid=0x0:0xd8bbd1de75697ef2,
cafe,Kedai Kopi,Es teh solo.jereweh,"4RRC+HM4, Jl. Jelengah, Beru, Kec. Jereweh, Kabupaten Sumbawa Barat, Nusa Tenggara Bar. 84456","Jl. Jelengah, Beru, Kec. Jereweh, Kabupaten Sumbawa Barat",NUSA TENGGARA BARAT,84456.0,Indonesia,81339407358.0,,,-8.8586497,116.8216355,https://maps.google.com/?cid=0x0:0xb40ae7253e489151,
cafe,Kantor Perusahaan,"Yara Coffee House, Free WiFi","3QQ2+2F9, Jalan Raya, Mantun, Maluk, West Sumbawa Regency, West Nusa Tenggara 84456","Jalan Raya, Mantun, Maluk, West Sumbawa Regency",NUSA TENGGARA BARAT,84456.0,Indonesia,,,,-8.9124735,116.7512218,https://maps.google.com/?cid=0x0:0x8cbe190cd4bf4264,
cafe,cafe,Taliwang,"Kuang, Kec. Taliwang, Kabupaten Sumbawa Barat, Nusa Tenggara Bar.","Kabupaten Sumbawa Barat, Nusa Tenggara Bar.",NUSA TENGGARA BARAT,,Indonesia,,,,-8.751946,116.854599,https://maps.google.com/?cid=0x0:0xf98bdc32d4193ccb,
cafe,Kafe,VESCOBAR (vespa coffee bar),"Unnamed Road, Kuang, Kec. Taliwang, Kabupaten Sumbawa Barat, Nusa Tenggara Bar. 84455","Kuang, Kec. Taliwang, Kabupaten Sumbawa Barat",NUSA TENGGARA BARAT,84455.0,Indonesia,82144492333.0,,,-8.7494878,116.8421403,https://maps.google.com/?cid=0x0:0x7f5f46134086336d,
cafe,Kedai Kopi,Seduh kopi taliwang,"Jl pasar baru no 83 kampung Arab kenangan di depan toko Tiara grand, Dalam, Kec. Taliwang, Kabupaten Sumbawa Barat, Nusa Tenggara Bar. 84455","Dalam, Kec. Taliwang, Kabupaten Sumbawa Barat",NUSA TENGGARA BARAT,84455.0,Indonesia,81277272340.0,,,-8.7429985,116.8490663,https://maps.google.com/?cid=0x0:0xe4e01b7d3dfd468,
cafe,Kafe,ISG Coffe  Eatery,"Kuang, Kec. Taliwang, Kabupaten Sumbawa Barat, Nusa Tenggara Bar.","Kabupaten Sumbawa Barat, Nusa Tenggara Bar.",NUSA TENGGARA BARAT,,Indonesia,,,,-8.7501871,116.8385539,https://maps.google.com/?cid=0x0:0x96a66e4ef435435e,
cafe,Kafe,Rumah Kebun Cafe and Resto,"Menala, Kec. Taliwang, Kabupaten Sumbawa Barat, Nusa Tenggara Bar. 84455","Kec. Taliwang, Kabupaten Sumbawa Barat",NUSA TENGGARA BARAT,84455.0,Indonesia,82339951921.0,,,-8.7592579,116.8521436,https://maps.google.com/?cid=0x0:0x98195eee973bffbd,
cafe,Kafe,Point Coffee,"7R4X+C3X, Kuang, Kec. Taliwang, Kabupaten Sumbawa Barat, Nusa Tenggara Bar. 84455","Kuang, Kec. Taliwang, Kabupaten Sumbawa Barat",NUSA TENGGARA BARAT,84455.0,Indonesia,1500280.0,,,-8.7439668,116.8477427,https://maps.google.com/?cid=0x0:0x333c94a1af0d8b25,
cafe,Kedai Kopi,Cafe Coffee 21,"7R5V+5P6, Jalan Raya, Bugis, Taliwang, West Sumbawa Regency, West Nusa Tenggara 84455","Jalan Raya, Bugis, Taliwang, West Sumbawa Regency",NUSA TENGGARA BARAT,84455.0,Indonesia,81219739897.0,,,-8.742079,116.8442766,https://maps.google.com/?cid=0x0:0x9f3fc7d8995fd8a1,
cafe,Rumah Makan,TwOne Cafe and Resto,"Jalan TGKH Muhammad Zainuddin Abdul Majid, Kec. Taliwang, Nusa Tenggara Bar.","Kabupaten Sumbawa Barat, Nusa Tenggara Bar.",NUSA TENGGARA BARAT,,Indonesia,85339448128.0,,,-8.7494375,116.8359375,https://maps.google.com/?cid=0x0:0xc9a5fece726a1552,
cafe,Hidangan Laut,Kedai Sawah KTC Resto  Family Karaoke,"Unnamed Road, Menala, Kec. Taliwang, Kabupaten Sumbawa Barat, Nusa Tenggara Bar. 84455","Menala, Kec. Taliwang, Kabupaten Sumbawa Barat",NUSA TENGGARA BARAT,84455.0,Indonesia,81236855557.0,,,-8.7587321,116.851987,https://maps.google.com/?cid=0x0:0xa17ba353601404ec,
cafe,Kafe,dePOP Coffee Shop,"Jl. Jend. Sudirman, Dalam, Kec. Taliwang, Kabupaten Sumbawa Barat, Nusa Tenggara Bar. 84452","Dalam, Kec. Taliwang, Kabupaten Sumbawa Barat",NUSA TENGGARA BARAT,84452.0,Indonesia,82243893013.0,,,-8.7422135,116.8480531,https://maps.google.com/?cid=0x0:0xf689bea81ec94749,
cafe,Toko Roti,Bakery Shop Populer Taliwang,"Jalan cendrawasih no. 7 RT.001 RW.007 Kelurahan Arab Kenangan, Dalam, Taliwang, West Sumbawa Regency, West Nusa Tenggara 84455","Dalam, Taliwang, West Sumbawa Regency",NUSA TENGGARA BARAT,84455.0,Indonesia,81916914559.0,,,-8.7435393,116.8473387,https://maps.google.com/?cid=0x0:0xfde65c597ba7d473,
cafe,Restoran,SISTBRO poto ktc,"Menala, Kec. Taliwang, Kabupaten Sumbawa Barat, Nusa Tenggara Bar. 84455","Kec. Taliwang, Kabupaten Sumbawa Barat",NUSA TENGGARA BARAT,84455.0,Indonesia,82236952474.0,,,-8.7604588,116.8511364,https://maps.google.com/?cid=0x0:0x5fba329a193141f5,
cafe,cafe,Taliwang street food,"6VX3+6RH, Kuang, Kec. Taliwang, Kabupaten Sumbawa Barat, Nusa Tenggara Bar.","Kabupaten Sumbawa Barat, Nusa Tenggara Bar.",NUSA TENGGARA BARAT,,Indonesia,,,,-8.751946,116.854599,https://maps.google.com/?cid=0x0:0x49fc9e1ce4d8e603,
cafe,Warnet,Tiang Enam Hotspot Wifi,"7R4X+C4H, Kuang, Kec. Taliwang, Kabupaten Sumbawa Barat, Nusa Tenggara Bar. 84455","Kuang, Kec. Taliwang, Kabupaten Sumbawa Barat",NUSA TENGGARA BARAT,84455.0,Indonesia,3728283383.0,,,-8.743939,116.8478583,https://maps.google.com/?cid=0x0:0x672056fadd73d369,
cafe,Restoran,Resto Ex-ex,"Unnamed Rd, Menala, Kec. Taliwang, Kabupaten Sumbawa Barat, Nusa Tenggara Bar. 84455","Menala, Kec. Taliwang, Kabupaten Sumbawa Barat",NUSA TENGGARA BARAT,84455.0,Indonesia,82340004700.0,,,-8.7597904,116.8511657,https://maps.google.com/?cid=0x0:0xf25cfeb0ad7a92b2,
cafe,Kedai Kopi,Kafe Bonco,"7V64+PGV, Sampir, Kec. Taliwang, Kabupaten Sumbawa Barat, Nusa Tenggara Bar. 84455","Sampir, Kec. Taliwang, Kabupaten Sumbawa Barat",NUSA TENGGARA BARAT,84455.0,Indonesia,,,,-8.7381369,116.8562852,https://maps.google.com/?cid=0x0:0xb1a31cf6574e6554,
cafe,Kedai Kopi,ES 835,"Jl. Cendrawasih No.5, Kuang, Kec. Taliwang, Kabupaten Sumbawa Barat, Nusa Tenggara Bar. 84455","Kuang, Kec. Taliwang, Kabupaten Sumbawa Barat",NUSA TENGGARA BARAT,84455.0,Indonesia,85333028064.0,,,-8.7438629,116.8510443,https://maps.google.com/?cid=0x0:0xc68e83a3b957cc7c,
cafe,Restoran,KEBUN HIJAU,"7R4P+H23, Bugis, Kec. Taliwang, Kabupaten Sumbawa Barat, Nusa Tenggara Bar. 84455","Bugis, Kec. Taliwang, Kabupaten Sumbawa Barat",NUSA TENGGARA BARAT,84455.0,Indonesia,,,,-8.7436018,116.8350388,https://maps.google.com/?cid=0x0:0x6b8c2718483abea3,
cafe,Restoran,CASABLANCA CAFE,"6QMX+5VJ, Telaga Bertong, Kec. Taliwang, Kabupaten Sumbawa Barat, Nusa Tenggara Bar. 84455","Telaga Bertong, Kec. Taliwang, Kabupaten Sumbawa Barat",NUSA TENGGARA BARAT,84455.0,Indonesia,82339828898.0,,,-8.7670286,116.799636,https://maps.google.com/?cid=0x0:0xa946e23f655df1a6,
cafe,Kedai Kopi,Pos Kopi,"7R2J+4F3, Jl. Labuhan Balat, Bugis, Kec. Taliwang, Kabupaten Sumbawa Barat, Nusa Tenggara Bar. 84455","Jl. Labuhan Balat, Bugis, Kec. Taliwang, Kabupaten Sumbawa Barat",NUSA TENGGARA BARAT,84455.0,Indonesia,,,,-8.7497403,116.8311749,https://maps.google.com/?cid=0x0:0x870b313db4d4483a,
cafe,Restoran,Cinnamon,"KTC, Kuang, Kec. Taliwang, Kabupaten Sumbawa Barat, Nusa Tenggara Bar. 84455","Kuang, Kec. Taliwang, Kabupaten Sumbawa Barat",NUSA TENGGARA BARAT,84455.0,Indonesia,81917648167.0,,,-8.7608956,116.8513523,https://maps.google.com/?cid=0x0:0x9e78dfccab464402,
cafe,Restoran,Warung Pojok KTC,"6VQ2+5PQ, Jl. Mawar Gg. Teratai Lingkungan, Menala, Kec. Taliwang, Kabupaten Sumbawa Barat, Nusa Tenggara Bar. 84455","Jl. Mawar Gg. Teratai Lingkungan, Menala, Kec. Taliwang, Kabupaten Sumbawa Barat",NUSA TENGGARA BARAT,84455.0,Indonesia,81327656000.0,,,-8.761996,116.8513131,https://maps.google.com/?cid=0x0:0xeff68e40e488efef,
cafe,Restoran,Shng K Cafe  Resto,"7QQM+XJC, Labuan Kertasari, Kec. Taliwang, Kabupaten Sumbawa Barat, Nusa Tenggara Bar.","Kabupaten Sumbawa Barat, Nusa Tenggara Bar.",NUSA TENGGARA BARAT,,Indonesia,85338013883.0,,,-8.7099229,116.7839096,https://maps.google.com/?cid=0x0:0x8728b7bf1550c00f,
cafe,Jawa,Lesehan Ayam Taliwang Tanamira,"Dalam, Kec. Taliwang, Kabupaten Sumbawa Barat, Nusa Tenggara Bar. 84455","Kec. Taliwang, Kabupaten Sumbawa Barat",NUSA TENGGARA BARAT,84455.0,Indonesia,8113907628.0,,,-8.7332859,116.8505196,https://maps.google.com/?cid=0x0:0x7ba40734f9d618d8,
cafe,Kafe,Cafe,"Mangrove Road, Labuan Kertasari, Kec. Taliwang, Kabupaten Sumbawa Barat, Nusa Tenggara Bar. 83445","Labuan Kertasari, Kec. Taliwang, Kabupaten Sumbawa Barat",NUSA TENGGARA BARAT,83445.0,Indonesia,85253320890.0,,,-8.7169331,116.7843366,https://maps.google.com/?cid=0x0:0xe2bc17ec530a8c14,
cafe,cafe,Kec. Seteluk,"Kabupaten Sumbawa Barat, Nusa Tenggara Bar.","Kabupaten Sumbawa Barat, Nusa Tenggara Bar.",NUSA TENGGARA BARAT,,Indonesia,,,,-8.6251785,116.8652498,https://maps.google.com/?cid=0x0:0x81f1c5d92dcd6f07,
cafe,Kafe,NEW BERLIND CAFE SETELUK,"9V96+R37, Jl. Bda Rea, Seteluk Tengah, Seteluk, West Sumbawa Regency, West Nusa Tenggara 84454","Jl. Bda Rea, Seteluk Tengah, Seteluk, West Sumbawa Regency",NUSA TENGGARA BARAT,84454.0,Indonesia,85238322954.0,,,-8.6304562,116.8601672,https://maps.google.com/?cid=0x0:0x68ef74b836a41d24,
cafe,Kafe,RETRO CAFE,"9VCC+VCH, Unnamed Road, Seteluk Atas, Kec. Seteluk, Kabupaten Sumbawa Barat, Nusa Tenggara Bar. 84454","Unnamed Road, Seteluk Atas, Kec. Seteluk, Kabupaten Sumbawa Barat",NUSA TENGGARA BARAT,84454.0,Indonesia,85238200106.0,,,-8.6278165,116.8711228,https://maps.google.com/?cid=0x0:0x535be949eb508571,
cafe,Bar Kopi Espresso,WAW Coffee and Donut,"Dusun Tapir Luar, Tapir, Seteluk, West Nusa Tenggara 84454","Tapir, Seteluk",NUSA TENGGARA BARAT,84454.0,Indonesia,82247798145.0,,,-8.631618,116.8591367,https://maps.google.com/?cid=0x0:0x29e3ca2dd23c7045,
cafe,Kafe,..,"Air Suning, Kec. Seteluk, Kabupaten Sumbawa Barat, Nusa Tenggara Bar. 84454","Kec. Seteluk, Kabupaten Sumbawa Barat",NUSA TENGGARA BARAT,84454.0,Indonesia,82145868715.0,,,-8.6490579,116.8547893,https://maps.google.com/?cid=0x0:0xc9e7ee9f39e8fa0,
cafe,Kafe,Susupong,"9VG8+243, Seteluk Tengah, Kec. Seteluk, Kabupaten Sumbawa Barat, Nusa Tenggara Bar. 84454","Seteluk Tengah, Kec. Seteluk, Kabupaten Sumbawa Barat",NUSA TENGGARA BARAT,84454.0,Indonesia,83119966617.0,,,-8.6249815,116.865308,https://maps.google.com/?cid=0x0:0x4f6737d7bcb7711d,
cafe,Pastri,Koffee Shop Azka,"9V38+J9F, Rempe, Kec. Seteluk, Kabupaten Sumbawa Barat, Nusa Tenggara Bar. 84454","Rempe, Kec. Seteluk, Kabupaten Sumbawa Barat",NUSA TENGGARA BARAT,84454.0,Indonesia,,,,-8.6459358,116.8659195,https://maps.google.com/?cid=0x0:0xa0e46c7285dd882,
cafe,Taman,Taman Ermila,"Tapir, Kec. Seteluk, Kabupaten Sumbawa Barat, Nusa Tenggara Bar. 84454","Kec. Seteluk, Kabupaten Sumbawa Barat",NUSA TENGGARA BARAT,84454.0,Indonesia,82340546326.0,,,-8.6397417,116.8560862,https://maps.google.com/?cid=0x0:0x3740dd8bc88ae161,
cafe,Toko Makanan,Ai Bua,"9V64+53R, Desa mongal, Tapir, Kec. Seteluk, Kabupaten Sumbawa Barat, Nusa Tenggara Bar. 84454","Desa mongal, Tapir, Kec. Seteluk, Kabupaten Sumbawa Barat",NUSA TENGGARA BARAT,84454.0,Indonesia,82147504724.0,,,-8.6395172,116.855135,https://maps.google.com/?cid=0x0:0x601d7e432f36dfb9,
cafe,Toko Swalayan,KIOS BU NURAH,"9VFC+32C, Seteluk Atas, Kec. Seteluk, Kabupaten Sumbawa Barat, Nusa Tenggara Bar. 84454","Seteluk Atas, Kec. Seteluk, Kabupaten Sumbawa Barat",NUSA TENGGARA BARAT,84454.0,Indonesia,,,,-8.6273032,116.8700277,https://maps.google.com/?cid=0x0:0x434f68272c6246f,
cafe,Kafe,BALO CAFE,"9VCC+V8V, Unnamed Road, Seteluk Atas, Kec. Seteluk, Kabupaten Sumbawa Barat, Nusa Tenggara Bar. 84454","Unnamed Road, Seteluk Atas, Kec. Seteluk, Kabupaten Sumbawa Barat",NUSA TENGGARA BARAT,84454.0,Indonesia,85139045967.0,,,-8.6277584,116.8708115,https://maps.google.com/?cid=0x0:0x5146caa0752ddf6f,
cafe,cafe,kedai kirian,"9VG8+68J, Seteluk Tengah, Kec. Seteluk, Kabupaten Sumbawa Barat, Nusa Tenggara Bar.","Kabupaten Sumbawa Barat, Nusa Tenggara Bar.",NUSA TENGGARA BARAT,,Indonesia,,,,-8.6243879,116.8658065,https://maps.google.com/?cid=0x0:0xf40690e2392de885,
cafe,Kedai Kopi,Azizah BAKSO Nunuk,"9V33+XX6, Air Suning, Kec. Seteluk, Kabupaten Sumbawa Barat, Nusa Tenggara Bar. 84454","Air Suning, Kec. Seteluk, Kabupaten Sumbawa Barat",NUSA TENGGARA BARAT,84454.0,Indonesia,,,,-8.6450824,116.8548751,https://maps.google.com/?cid=0x0:0x10551efafa4befd7,
cafe,Toko bahan makanan,UD Sabar Seteluk,"Samping Pegadaian, Jl. Raya Seteluk, Seteluk Tengah, Kec. Seteluk, Kabupaten Sumbawa Barat, Nusa Tenggara Bar. 84454","Jl. Raya Seteluk, Seteluk Tengah, Kec. Seteluk, Kabupaten Sumbawa Barat",NUSA TENGGARA BARAT,84454.0,Indonesia,82145213828.0,,,-8.6273885,116.863655,https://maps.google.com/?cid=0x0:0x33335c03d9d004e5,
cafe,Kedai Kopi,Warung PenSiti,"Jl. Raya Seteluk No.45, Senayan, Kec. Poto Tano, Kabupaten Sumbawa Barat, Nusa Tenggara Bar. 84454","Senayan, Kec. Poto Tano, Kabupaten Sumbawa Barat",NUSA TENGGARA BARAT,84454.0,Indonesia,,,,-8.611712,116.8513906,https://maps.google.com/?cid=0x0:0xd65d5a69565ee917,
cafe,Nasi,RM. HIDAYAH (CENTRAL PRODUCT),"Seteluk Atas, Kec. Seteluk, Kabupaten Sumbawa Barat, Nusa Tenggara Bar. 84454","Kec. Seteluk, Kabupaten Sumbawa Barat",NUSA TENGGARA BARAT,84454.0,Indonesia,85937037240.0,,,-8.6288361,116.868789,https://maps.google.com/?cid=0x0:0xb268f4e9a5e6e540,
cafe,Makanan Siap Saji,Djojo Kentucky Seteluk,"Jl. Raya Seteluk, Seteluk Tengah, Kec. Seteluk, Kabupaten Sumbawa Barat, Nusa Tenggara Bar. 84454","Seteluk Tengah, Kec. Seteluk, Kabupaten Sumbawa Barat",NUSA TENGGARA BARAT,84454.0,Indonesia,85137826429.0,,,-8.6271306,116.8639698,https://maps.google.com/?cid=0x0:0x31b5c6af6863198b,
cafe,Kafe,MOHE JUICE,"9VF8+V73, Seteluk Tengah, Kec. Seteluk, Kabupaten Sumbawa Barat, Nusa Tenggara Bar. 84454","Seteluk Tengah, Kec. Seteluk, Kabupaten Sumbawa Barat",NUSA TENGGARA BARAT,84454.0,Indonesia,85237043657.0,,,-8.6253619,116.8656832,https://maps.google.com/?cid=0x0:0x603d94af14bec70f,
cafe,Bakso,Bakso NURUL HASANAH.,"9VF7+9PH, Jalan Raya, Seteluk Tengah, Seteluk, West Sumbawa Regency, West Nusa Tenggara 84454","Jalan Raya, Seteluk Tengah, Seteluk, West Sumbawa Regency",NUSA TENGGARA BARAT,84454.0,Indonesia,,,,-8.6265659,116.8643502,https://maps.google.com/?cid=0x0:0xcbf6e80b47404b5b,
cafe,cafe,Warung es campur,"9VG7+Q8X, Jl. Raya Senayan Poto Tano, Seteluk Tengah, Kec. Seteluk, Kabupaten Sumbawa Barat, Nusa Tenggara Bar. 84454","Jl. Raya Senayan Poto Tano, Seteluk Tengah, Kec. Seteluk, Kabupaten Sumbawa Barat",NUSA TENGGARA BARAT,84454.0,Indonesia,,,,-8.6230066,116.8634536,https://maps.google.com/?cid=0x0:0xa672cc169819bbea,
cafe,Nasi,WAROENG LAZISSS,"9VG7+J7F, Jl. Raya Senayan Poto Tano, Seteluk Tengah, Kec. Seteluk, Kabupaten Sumbawa Barat, Nusa Tenggara Bar. 84454","Jl. Raya Senayan Poto Tano, Seteluk Tengah, Kec. Seteluk, Kabupaten Sumbawa Barat",NUSA TENGGARA BARAT,84454.0,Indonesia,,,,-8.6234299,116.8631833,https://maps.google.com/?cid=0x0:0xd187135fc4274e23,
cafe,Inspektur Tempat Tinggal,Bale JIHAD,"8R6X+CQ6, Meraran, Kec. Seteluk, Kabupaten Sumbawa Barat, Nusa Tenggara Bar. 84455","Meraran, Kec. Seteluk, Kabupaten Sumbawa Barat",NUSA TENGGARA BARAT,84455.0,Indonesia,82341114062.0,,,-8.6889677,116.8493905,https://maps.google.com/?cid=0x0:0xe7f9ded2c220e2ac,
cafe,Restoran,Warung Taskiah,"9VG7+Q2R, Seteluk Tengah, Kec. Seteluk, Kabupaten Sumbawa Barat, Nusa Tenggara Bar. 84454","Seteluk Tengah, Kec. Seteluk, Kabupaten Sumbawa Barat",NUSA TENGGARA BARAT,84454.0,Indonesia,81325508243.0,,,-8.6230223,116.8625102,https://maps.google.com/?cid=0x0:0xea5c58f0ca9ba3eb,
cafe,cafe,Nusa Tenggara Bar. 84457,"Kec. Sekongkang, Kabupaten Sumbawa Barat, Nusa Tenggara Bar.","Kabupaten Sumbawa Barat, Nusa Tenggara Bar.",NUSA TENGGARA BARAT,,Indonesia,,,,-9.0278591,116.9145901,https://maps.google.com/?cid=0x0:0xa55d05be516dbaf,
cafe,cafe,Street coffee,"Jl. Raya Sekongkang No.17, Sekongkang Bawah, Kec. Sekongkang, Kabupaten Sumbawa Barat, Nusa Tenggara Bar. 84457","Sekongkang Bawah, Kec. Sekongkang, Kabupaten Sumbawa Barat",NUSA TENGGARA BARAT,84457.0,Indonesia,,,,-8.9654289,116.75032,https://maps.google.com/?cid=0x0:0xfbff0cd87f29601b,
cafe,Kedai Kopi,ROA Coffee,"Gili Dua Pantai Sekongkang, Sekongkang Bawah, Kec. Sekongkang, Kabupaten Sumbawa Barat, Nusa Tenggara Bar. 84457","Sekongkang Bawah, Kec. Sekongkang, Kabupaten Sumbawa Barat",NUSA TENGGARA BARAT,84457.0,Indonesia,85333616307.0,,,-8.9747519,116.735799,https://maps.google.com/?cid=0x0:0x7cd5589edefc2150,
cafe,Jawa,Sawah kafe,"2Q64+P42, Jl. Batu Hijau Townsite, Sekongkang Atas, Kec. Sekongkang, Kabupaten Sumbawa Barat, Nusa Tenggara Bar. 84457","Jl. Batu Hijau Townsite, Sekongkang Atas, Kec. Sekongkang, Kabupaten Sumbawa Barat",NUSA TENGGARA BARAT,84457.0,Indonesia,8123754456.0,,,-8.9882493,116.7552723,https://maps.google.com/?cid=0x0:0x13d248e1c10aa1ad,
cafe,Kedai Kopi,Castaway Espresso,"Jl. Raya Rantung, Sekongkang Bawah, Kec. Sekongkang, Kabupaten Sumbawa Barat, Nusa Tenggara Bar.","Kabupaten Sumbawa Barat, Nusa Tenggara Bar.",NUSA TENGGARA BARAT,,Indonesia,81237616097.0,,,-8.9833107,116.7416427,https://maps.google.com/?cid=0x0:0x1090d6035325dd08,
cafe,Kedai Kopi,Z Coffe Planet,"XR9C+Q7M ai' betaq desa, Ai Kangkung, Kec. Sekongkang, Kabupaten Sumbawa Barat, Nusa Tenggara Bar. 84457","Ai Kangkung, Kec. Sekongkang, Kabupaten Sumbawa Barat",NUSA TENGGARA BARAT,84457.0,Indonesia,,,,-9.0305367,116.8206564,https://maps.google.com/?cid=0x0:0xd940cae1219c0c73,
cafe,Kedai Kopi,Warung 24,"Jalan Lingkar Sslatan Jl. Raya Sejorong, Tongo, Kec. Sekongkang, Kabupaten Sumbawa Barat, Nusa Tenggara Bar. 84457","Tongo, Kec. Sekongkang, Kabupaten Sumbawa Barat",NUSA TENGGARA BARAT,84457.0,Indonesia,87847497135.0,,,-9.0269333,116.8069717,https://maps.google.com/?cid=0x0:0x2952a4d9106e3621,
cafe,Meksiko,Lisa's Garden,"Sekongkang Bawah, Kec. Sekongkang, Kabupaten Sumbawa Barat, Nusa Tenggara Bar. 84457","Kec. Sekongkang, Kabupaten Sumbawa Barat",NUSA TENGGARA BARAT,84457.0,Indonesia,81236000029.0,,,-8.9752044,116.7369413,https://maps.google.com/?cid=0x0:0x67ec674f09f0c5f8,
cafe,Kafe,UD. Empat Bersaudara,"2PJW+555, Sekongkang Bawah, Kec. Sekongkang, Kabupaten Sumbawa Barat, Nusa Tenggara Bar. 84457","Sekongkang Bawah, Kec. Sekongkang, Kabupaten Sumbawa Barat",NUSA TENGGARA BARAT,84457.0,Indonesia,,,,-8.9696152,116.7454732,https://maps.google.com/?cid=0x0:0xfb0d693c55c88a04,
cafe,Kedai Kopi,Kolev  Jev.co,"dusun Jl. Sejorong, Tongo, Kec. Sekongkang, Kabupaten Sumbawa Barat, Nusa Tenggara Bar. 84457","Tongo, Kec. Sekongkang, Kabupaten Sumbawa Barat",NUSA TENGGARA BARAT,84457.0,Indonesia,87763379826.0,,,-9.0246467,116.8090147,https://maps.google.com/?cid=0x0:0x283d6b4558b58ba9,
cafe,Kedai Kopi,Warung Widya,"XRF4+8W5, Jl. Raya Sejorong, Tongo, Kec. Sekongkang, Kabupaten Sumbawa Barat, Nusa Tenggara Bar. 84457","Jl. Raya Sejorong, Tongo, Kec. Sekongkang, Kabupaten Sumbawa Barat",NUSA TENGGARA BARAT,84457.0,Indonesia,81239768325.0,,,-9.026865,116.8073717,https://maps.google.com/?cid=0x0:0xc1fc4eb2415065a1,
cafe,Indonesia,Kirana Restaurant,"Sekongkang Bawah, Kec. Sekongkang, Kabupaten Sumbawa Barat, Nusa Tenggara Bar. 84457","Kec. Sekongkang, Kabupaten Sumbawa Barat",NUSA TENGGARA BARAT,84457.0,Indonesia,82144956038.0,,,-8.9637857,116.727832,https://maps.google.com/?cid=0x0:0x959c23302966c58f,
cafe,Kedai Kopi,elda cafe,"2QJ6+RPP, Sekongkang Atas, Kec. Sekongkang, Kabupaten Sumbawa Barat, Nusa Tenggara Bar. 84457","Sekongkang Atas, Kec. Sekongkang, Kabupaten Sumbawa Barat",NUSA TENGGARA BARAT,84457.0,Indonesia,,,,-8.9679026,116.7618283,https://maps.google.com/?cid=0x0:0x85bc1b7c3557f57a,
cafe,Restoran,Happy Restaurant,"Jl. Raya Rantung, Sekongkang Bawah, Kec. Sekongkang, Kabupaten Sumbawa Barat, Nusa Tenggara Bar. 84457","Sekongkang Bawah, Kec. Sekongkang, Kabupaten Sumbawa Barat",NUSA TENGGARA BARAT,84457.0,Indonesia,82339283873.0,,,-8.9747448,116.7401087,https://maps.google.com/?cid=0x0:0x44592230e9bc2b83,
cafe,Makanan Siap Saji,Wr. BTS,"2QC7+7Q7, Jl. Batu Hijau Townsite, Sekongkang Atas, Kec. Sekongkang, Kabupaten Sumbawa Barat, Nusa Tenggara Bar. 84457","Jl. Batu Hijau Townsite, Sekongkang Atas, Kec. Sekongkang, Kabupaten Sumbawa Barat",NUSA TENGGARA BARAT,84457.0,Indonesia,,,,-8.9793328,116.7644243,https://maps.google.com/?cid=0x0:0xfdc31db3ccc05244,
cafe,Tempat Acara Memancing,Pantai Cemara,"XR78+643, Ai Kangkung, Kec. Sekongkang, Kabupaten Sumbawa Barat, Nusa Tenggara Bar. 84457","Ai Kangkung, Kec. Sekongkang, Kabupaten Sumbawa Barat",NUSA TENGGARA BARAT,84457.0,Indonesia,,,,-9.0369801,116.8153025,https://maps.google.com/?cid=0x0:0x4a1e64d4cf161e9d,
cafe,cafe,Kedai Komando Sekongkang,"Sekongkang Bawah, Kec. Sekongkang, Kabupaten Sumbawa Barat, Nusa Tenggara Bar. 84457","Kec. Sekongkang, Kabupaten Sumbawa Barat",NUSA TENGGARA BARAT,84457.0,Indonesia,81353334659.0,,,-8.9654704,116.7535147,https://maps.google.com/?cid=0x0:0x3181ff457a6f53c9,
cafe,cafe,Pantai Maluk,Nusa Tenggara Bar.,Nusa Tenggara Bar.,NUSA TENGGARA BARAT,,Indonesia,,,,-8.9179213,116.7474819,https://maps.google.com/?cid=0x0:0x7944b4cf78d60017,
cafe,Pujasera,IU Thai Tea  Coffee,"Saung Kuring, Jl Batu Hijau, Sekongkang Atas, Kabupaten Sumbawa Barat, Nusa Tenggara Bar. 84357","Jl Batu Hijau, Sekongkang Atas, Kabupaten Sumbawa Barat",NUSA TENGGARA BARAT,84357.0,Indonesia,82340762206.0,,,-8.9882562,116.7517737,https://maps.google.com/?cid=0x0:0xac16b73878bd171b,
cafe,Restoran,Warung Tiga Dara,"2QM3+P49, Jl. Raya Rantung Jl. Raya Sekongkang, Sekongkang Bawah, Kec. Sekongkang, Kabupaten Sumbawa Barat, Nusa Tenggara Bar. 84457","Jl. Raya Rantung Jl. Raya Sekongkang, Sekongkang Bawah, Kec. Sekongkang, Kabupaten Sumbawa Barat",NUSA TENGGARA BARAT,84457.0,Indonesia,,,,-8.9657156,116.7528459,https://maps.google.com/?cid=0x0:0x232720d8bdaa70f3,
cafe,cafe,Kura Kura House,"2PHP+3P4, Sekongkang Bawah, Kec. Sekongkang, Kabupaten Sumbawa Barat, Nusa Tenggara Bar.","Kabupaten Sumbawa Barat, Nusa Tenggara Bar.",NUSA TENGGARA BARAT,,Indonesia,81540001577.0,,,-8.9720046,116.7368848,https://maps.google.com/?cid=0x0:0x1e393e461574c492,
cafe,Restoran,Lesehan dan rumah makan,"XR6R+F4, Ai Kangkung, Kec. Sekongkang, Kabupaten Sumbawa Barat, Nusa Tenggara Bar. 84457","Ai Kangkung, Kec. Sekongkang, Kabupaten Sumbawa Barat",NUSA TENGGARA BARAT,84457.0,Indonesia,,,,-9.0387532,116.8403766,https://maps.google.com/?cid=0x0:0xb6d2422719778820,
cafe,Restoran,Maison Pierre Boulangerie  Cafe (Townsite - Batu Hijau),"2Q87+2XF, Sekongkang Atas, Kec. Sekongkang, Kabupaten Sumbawa Barat, Nusa Tenggara Bar. 84454","Sekongkang Atas, Kec. Sekongkang, Kabupaten Sumbawa Barat",NUSA TENGGARA BARAT,84454.0,Indonesia,81779974513.0,,,-8.9849375,116.7649375,https://maps.google.com/?cid=0x0:0x63c943468a179247,
cafe,Kedai Kopi,New Odette Cafe,"Pasir Putih, Kabupaten Sumbawa Barat, Nusa Tenggara Bar.","Kabupaten Sumbawa Barat, Nusa Tenggara Bar.",NUSA TENGGARA BARAT,,Indonesia,81919061347.0,,,-8.9242387,116.7518677,https://maps.google.com/?cid=0x0:0x98314228554d89e,
cafe,cafe,Nusa Tenggara Bar. 84458,"Kec. Brang Rea, Kabupaten Sumbawa Barat, Nusa Tenggara Bar.","Kabupaten Sumbawa Barat, Nusa Tenggara Bar.",NUSA TENGGARA BARAT,,Indonesia,,,,-8.6999135,117.0087877,https://maps.google.com/?cid=0x0:0xd32541cc680b77d1,
cafe,Grosir Kopi,Kopi Langit Ai Kolang,"8XXP+QM, Rarak Rongis, Kec. Brang Rea, Kabupaten Sumbawa Barat, Nusa Tenggara Bar. 84458","Rarak Rongis, Kec. Brang Rea, Kabupaten Sumbawa Barat",NUSA TENGGARA BARAT,84458.0,Indonesia,,,,-8.6505977,116.9867166,https://maps.google.com/?cid=0x0:0x88a712ae91eca101,
cafe,Grosir Kopi,Kopi Kawa Rama,"Rarak Rongis, Kec. Brang Rea, Kabupaten Sumbawa Barat, Nusa Tenggara Bar. 84458","Kec. Brang Rea, Kabupaten Sumbawa Barat",NUSA TENGGARA BARAT,84458.0,Indonesia,82144644741.0,,,-8.6553858,116.9955912,https://maps.google.com/?cid=0x0:0xb89f7572c4070c37,
cafe,Tujuan Wisata,Wisata Kebun Kopi Datu Bayung,"8XRX+6QX, Rarak Rongis, Kec. Brang Rea, Kabupaten Sumbawa Barat, Nusa Tenggara Bar. 84458","Rarak Rongis, Kec. Brang Rea, Kabupaten Sumbawa Barat",NUSA TENGGARA BARAT,84458.0,Indonesia,,,,-8.6593967,116.9994854,https://maps.google.com/?cid=0x0:0x1bf4dd3e528d57b1,
cafe,Kedai Kopi,Tanah nico,"8X87+CM5, Bangkat Monteh, Kec. Brang Rea, Kabupaten Sumbawa Barat, Nusa Tenggara Bar. 84458","Bangkat Monteh, Kec. Brang Rea, Kabupaten Sumbawa Barat",NUSA TENGGARA BARAT,84458.0,Indonesia,,,,-8.6833674,116.9647813,https://maps.google.com/?cid=0x0:0x3b1f28dcc950df8d,
cafe,Kedai Kopi,Kopi Rarak UD DATU BAYUNG,"Desa rarak ronges RT 03/RW 01 Kec. Brang Rea, Rarak Rongis, Kec. Taliwang, Kabupaten Sumbawa Barat, Nusa Tenggara Bar. 84355","Rarak Rongis, Kec. Taliwang, Kabupaten Sumbawa Barat",NUSA TENGGARA BARAT,84355.0,Indonesia,82342038583.0,,,-8.6563356,116.996632,https://maps.google.com/?cid=0x0:0xc81dba1664b9e376,
cafe,Restoran,Warung makan Asiah,"8X25+J9F, Rarak Road, Bangkat Monteh, Kec. Brang Rea, Kabupaten Sumbawa Barat, Nusa Tenggara Bar. 84458","Rarak Road, Bangkat Monteh, Kec. Brang Rea, Kabupaten Sumbawa Barat",NUSA TENGGARA BARAT,84458.0,Indonesia,,,,-8.6984355,116.958433,https://maps.google.com/?cid=0x0:0xda5b1a7e609febcb,
cafe,Kedai Kopi,kedai,"7WM8+HPC, Tepas, Kec. Brang Rea, Kabupaten Sumbawa Barat, Nusa Tenggara Bar. 84458","Tepas, Kec. Brang Rea, Kabupaten Sumbawa Barat",NUSA TENGGARA BARAT,84458.0,Indonesia,,,,-8.7160493,116.9167312,https://maps.google.com/?cid=0x0:0xb1970210c972984f,
cafe,Kedai Kopi,JUT Lang Meraji Ode,"7WQ7+2XC, Tepas Sepakat, Kec. Brang Rea, Kabupaten Sumbawa Barat, Nusa Tenggara Bar.","Kabupaten Sumbawa Barat, Nusa Tenggara Bar.",NUSA TENGGARA BARAT,,Indonesia,,,,-8.7124365,116.9148913,https://maps.google.com/?cid=0x0:0x678fdc74acfd3ef9,
cafe,Restoran,Rumah Makan H. Murni,"Sapugara Bree, Kec. Brang Rea, Kabupaten Sumbawa Barat, Nusa Tenggara Bar. 84455","Kec. Brang Rea, Kabupaten Sumbawa Barat",NUSA TENGGARA BARAT,84455.0,Indonesia,,,,-8.7332854,116.9051129,https://maps.google.com/?cid=0x0:0x630609b5c939d134,
cafe,Sate,Sate Kuda Masjid Tepas Brang Rea,"8W28+568, Tepas Sepakat, Kec. Brang Rea, Kabupaten Sumbawa Barat, Nusa Tenggara Bar. 84458","Tepas Sepakat, Kec. Brang Rea, Kabupaten Sumbawa Barat",NUSA TENGGARA BARAT,84458.0,Indonesia,,,,-8.6995861,116.9155826,https://maps.google.com/?cid=0x0:0x21afd57bbc42e68f,
cafe,Kedai Kopi,TIKUM,"7WP8+6RR, Tepas, Kec. Brang Rea, Kabupaten Sumbawa Barat, Nusa Tenggara Bar.","Kabupaten Sumbawa Barat, Nusa Tenggara Bar.",NUSA TENGGARA BARAT,,Indonesia,,,,-8.714383,116.9170085,https://maps.google.com/?cid=0x0:0x458dc6ba14b9fa5f,
cafe,Brunch,Warung Mbak Dede Special Jaran,"7W83+GJ5, Jl. Baso Busing, Sapugara Bree, Kec. Brang Rea, Kabupaten Sumbawa Barat, Nusa Tenggara Bar. 84455","Jl. Baso Busing, Sapugara Bree, Kec. Brang Rea, Kabupaten Sumbawa Barat",NUSA TENGGARA BARAT,84455.0,Indonesia,,,,-8.7336964,116.9039513,https://maps.google.com/?cid=0x0:0x1abc950469c966,
cafe,cafe,Tiu Batu caffe and Homestay,"F22C+HMQ Samping wisata bendungan, RT.002/RW.002, Beru, Marenteh, Kec. Alas, Kabupaten Sumbawa, Nusa Tenggara Bar. 84353","RT.002/RW.002, Beru, Marenteh, Kec. Alas, Kabupaten Sumbawa",NUSA TENGGARA BARAT,84353.0,Indonesia,81353431470.0,,,-8.5486579,117.0218507,https://maps.google.com/?cid=0x0:0x15950dd8ee39e78b,
cafe,Tujuan Wisata,Agal Waterfall,"F332+C3W, Marenteh, Kec. Alas, Kabupaten Sumbawa, Nusa Tenggara Bar. 84353","Marenteh, Kec. Alas, Kabupaten Sumbawa",NUSA TENGGARA BARAT,84353.0,Indonesia,,,,-8.5463899,117.0502087,https://maps.google.com/?cid=0x0:0xd6d0f7b7c046fcb0,
cafe,Pusat Perbelanjaan,PASAR BRANG REA,"7WF8+M7J, Jl. Baso Busing, Desa Beru, Kec. Brang Rea, Kabupaten Sumbawa Barat, Nusa Tenggara Bar. 84458","Jl. Baso Busing, Desa Beru, Kec. Brang Rea, Kabupaten Sumbawa Barat",NUSA TENGGARA BARAT,84458.0,Indonesia,,,,-8.7257971,116.9156359,https://maps.google.com/?cid=0x0:0x78f8acc62de686a0,
cafe,Pembangunan Perumahan,BALE RISKY ANSORY,"6W2V+2JV, Lampok, Kec. Brang Ene, Kabupaten Sumbawa Barat, Nusa Tenggara Bar. 84455","Lampok, Kec. Brang Ene, Kabupaten Sumbawa Barat",NUSA TENGGARA BARAT,84455.0,Indonesia,85139049615.0,,,-8.799897,116.9440313,https://maps.google.com/?cid=0x0:0x75865a734215fdd6,
cafe,Restoran,Cenggo Caf,"Poco Rutang, Kecamatan Lembor, Kabupaten Manggarai Barat, Nusa Tenggara Tim.","Kabupaten Manggarai Barat, Nusa Tenggara Tim.",NUSA TENGGARA BARAT,,Indonesia,81236046012.0,,,-8.70507,120.1749807,https://maps.google.com/?cid=0x0:0x77eb7940ffc05709,
cafe,Restoran,WARUNG MAKAN,"DSN ketango, RT.01/RW.01, Lamuntet, Kec. Brang Rea, Kabupaten Sumbawa Barat, Nusa Tenggara Bar. 84458","RT.01/RW.01, Lamuntet, Kec. Brang Rea, Kabupaten Sumbawa Barat",NUSA TENGGARA BARAT,84458.0,Indonesia,85338859367.0,,,-8.6783133,116.950695,https://maps.google.com/?cid=0x0:0xb822fcf115af3b7c,
cafe,Kedai Kopi,Rengkawa Coffee,"atau Kantor Bawaslu, Gang Pengadilan lama, Seketeng, Kec. Sumbawa, Kabupaten Sumbawa, Nusa Tenggara Bar. 84311","Gang Pengadilan lama, Seketeng, Kec. Sumbawa, Kabupaten Sumbawa",NUSA TENGGARA BARAT,84311.0,Indonesia,85338402040.0,,,-8.5047979,117.4296128,https://maps.google.com/?cid=0x0:0x38a79bcbace6a91b,
cafe,Kafe,Marente,"C3F4+89V Wisata alam, Marenteh, Kec. Alas, Kabupaten Sumbawa, Nusa Tenggara Bar. 84353","Marenteh, Kec. Alas, Kabupaten Sumbawa",NUSA TENGGARA BARAT,84353.0,Indonesia,,,,-8.5766497,117.0559064,https://maps.google.com/?cid=0x0:0xba94d3ea8bd9b2ce,
cafe,Makanan Kecil,Rumah makan,"8XF3+QFV, Lamuntet, Kec. Brang Rea, Kabupaten Sumbawa Barat, Nusa Tenggara Bar. 84458","Lamuntet, Kec. Brang Rea, Kabupaten Sumbawa Barat",NUSA TENGGARA BARAT,84458.0,Indonesia,,,,-8.6755036,116.9536717,https://maps.google.com/?cid=0x0:0x7e3232592236f12d,
cafe,Rumah Makan,TwOne Cafe and Resto,"Jalan TGKH Muhammad Zainuddin Abdul Majid, Kec. Taliwang, Nusa Tenggara Bar.","Kabupaten Sumbawa Barat, Nusa Tenggara Bar.",NUSA TENGGARA BARAT,,Indonesia,85339448128.0,,,-8.7494375,116.8359375,https://maps.google.com/?cid=0x0:0xc9a5fece726a1552,
cafe,Kedai Kopi,ES KRIM,"Jl. Baso Busing, Desa Beru, Kec. Brang Rea, Kabupaten Sumbawa Barat, Nusa Tenggara Bar. 84455","Desa Beru, Kec. Brang Rea, Kabupaten Sumbawa Barat",NUSA TENGGARA BARAT,84455.0,Indonesia,81239735807.0,,,-8.7288084,116.9079916,https://maps.google.com/?cid=0x0:0xe77e0b09f4ffcd90,
cafe,cafe,Nusa Tenggara Bar. 84454,"Kec. Seteluk, Kabupaten Sumbawa Barat, Nusa Tenggara Bar.","Kabupaten Sumbawa Barat, Nusa Tenggara Bar.",NUSA TENGGARA BARAT,,Indonesia,,,,-8.5906982,116.8674757,https://maps.google.com/?cid=0x0:0xabcb20c0c162b41d,
cafe,Kedai Kopi,Garasi Vegan Coffee  Rest Area Near Pototano,"Dusun Sanggarahan Desa, Labuan Mapin, Kec. Alas Bar., Kabupaten Sumbawa, Nusa Tenggara Bar. 84354","Labuan Mapin, Kec. Alas Bar., Kabupaten Sumbawa",NUSA TENGGARA BARAT,84354.0,Indonesia,82146848452.0,,,-8.5236907,116.9344559,https://maps.google.com/?cid=0x0:0x20e7e0887e10f737,
cafe,Bar Kopi Espresso,WARKOP TandOne,"REST AREA SENTRA IKM, Jl. Raya Poto Tano, Poto Tano, Kec. Poto Tano, Kabupaten Sumbawa Barat, Nusa Tenggara Bar. 84454","Jl. Raya Poto Tano, Poto Tano, Kec. Poto Tano, Kabupaten Sumbawa Barat",NUSA TENGGARA BARAT,84454.0,Indonesia,85238123060.0,,,-8.5380995,116.836788,https://maps.google.com/?cid=0x0:0xc8c002cb2d9f4e41,
cafe,Pastri,AFTER SCHOOL COFFE,"Jalan Raya, Tapir, Seteluk, West Sumbawa Regency, West Nusa Tenggara 84454","Tapir, Seteluk, West Sumbawa Regency",NUSA TENGGARA BARAT,84454.0,Indonesia,82341661624.0,,,-8.6393675,116.8559179,https://maps.google.com/?cid=0x0:0xe960c1a44368a468,
cafe,Rumah Makan,Depot 86,"FRGJ+C7X, Jl. Raya Labuhan Poto Tano, Poto Tano, Kec. Poto Tano, Kabupaten Sumbawa Barat, Nusa Tenggara Bar. 84454","Jl. Raya Labuhan Poto Tano, Poto Tano, Kec. Poto Tano, Kabupaten Sumbawa Barat",NUSA TENGGARA BARAT,84454.0,Indonesia,,,,-8.5238972,116.8307217,https://maps.google.com/?cid=0x0:0x196f4c5f5d4e66f0,
cafe,Kedai Kopi,Anto cofee,"FVFM+C8V, Kokar Lian, Kec. Poto Tano, Kabupaten Sumbawa Barat, Nusa Tenggara Bar.","Kabupaten Sumbawa Barat, Nusa Tenggara Bar.",NUSA TENGGARA BARAT,,Indonesia,85338098740.0,,,-8.5263787,116.8833112,https://maps.google.com/?cid=0x0:0x4ef04c348bfd3f39,
cafe,Kedai Kopi,Warung PenSiti,"Jl. Raya Seteluk No.45, Senayan, Kec. Poto Tano, Kabupaten Sumbawa Barat, Nusa Tenggara Bar. 84454","Senayan, Kec. Poto Tano, Kabupaten Sumbawa Barat",NUSA TENGGARA BARAT,84454.0,Indonesia,,,,-8.611712,116.8513906,https://maps.google.com/?cid=0x0:0xd65d5a69565ee917,
cafe,Kafe,RETRO CAFE,"9VCC+VCH, Unnamed Road, Seteluk Atas, Kec. Seteluk, Kabupaten Sumbawa Barat, Nusa Tenggara Bar. 84454","Unnamed Road, Seteluk Atas, Kec. Seteluk, Kabupaten Sumbawa Barat",NUSA TENGGARA BARAT,84454.0,Indonesia,85238200106.0,,,-8.6278165,116.8711228,https://maps.google.com/?cid=0x0:0x535be949eb508571,
cafe,Dapur Umum,kafe bambu,"FVCH+R8R, Jl. Raya Senayan Poto Tano, Kokar Lian, Kec. Poto Tano, Kabupaten Sumbawa Barat, Nusa Tenggara Bar. 84454","Jl. Raya Senayan Poto Tano, Kokar Lian, Kec. Poto Tano, Kabupaten Sumbawa Barat",NUSA TENGGARA BARAT,84454.0,Indonesia,82341082809.0,,,-8.5278873,116.8782533,https://maps.google.com/?cid=0x0:0xf663bdc85ffdca61,
cafe,Kedai Kopi,Warung Rendra,"9RWW+3MX, Senayan, Kec. Poto Tano, Kabupaten Sumbawa Barat, Nusa Tenggara Bar. 84454","Senayan, Kec. Poto Tano, Kabupaten Sumbawa Barat",NUSA TENGGARA BARAT,84454.0,Indonesia,,,,-8.604611,116.8466609,https://maps.google.com/?cid=0x0:0xb4998808af69e05a,
cafe,Restoran,Warung Makan Ibu Nur,"Unnamed Road, Poto Tano, Kec. Poto Tano, Kabupaten Sumbawa Barat, Nusa Tenggara Bar. 84454","Poto Tano, Kec. Poto Tano, Kabupaten Sumbawa Barat",NUSA TENGGARA BARAT,84454.0,Indonesia,81997803229.0,,,-8.5002107,116.8352865,https://maps.google.com/?cid=0x0:0xb79a742fe8cf9922,
cafe,Kedai Kopi,Lapak Sri Hartati,"9VH5+M8J, Jalan Raya, Senayan, Kec. Poto Tano, Kabupaten Sumbawa Barat, Nusa Tenggara Bar. 84454","Jalan Raya, Senayan, Kec. Poto Tano, Kabupaten Sumbawa Barat",NUSA TENGGARA BARAT,84454.0,Indonesia,,,,-8.6207274,116.8582198,https://maps.google.com/?cid=0x0:0x751f0239eb2aa62d,
cafe,Kedai Kopi,Coffee shop,"9RRH+8CR, Mantar, Kec. Poto Tano, Kabupaten Sumbawa Barat, Nusa Tenggara Bar. 84454","Mantar, Kec. Poto Tano, Kabupaten Sumbawa Barat",NUSA TENGGARA BARAT,84454.0,Indonesia,81236224382.0,,,-8.6091465,116.8285275,https://maps.google.com/?cid=0x0:0x447249275e2e1e08,
cafe,Bar Kopi Espresso,WAW Coffee and Donut,"Dusun Tapir Luar, Tapir, Seteluk, West Nusa Tenggara 84454","Tapir, Seteluk",NUSA TENGGARA BARAT,84454.0,Indonesia,82247798145.0,,,-8.631618,116.8591367,https://maps.google.com/?cid=0x0:0x29e3ca2dd23c7045,
cafe,Kedai Kopi,Warung kopi  makanan ringan,"Desa, Poto Tano, Kec. Poto Tano, Kabupaten Sumbawa Barat, Nusa Tenggara Bar. 84454","Poto Tano, Kec. Poto Tano, Kabupaten Sumbawa Barat",NUSA TENGGARA BARAT,84454.0,Indonesia,8124303001.0,,,-8.5256038,116.8309919,https://maps.google.com/?cid=0x0:0x5dc5fd21e479b1ab,
cafe,Kedai Kopi,TONGKRONGAN Ifaila Milktea,"Daya Makmur, RT 06/03, Kokar Lian, Kec. Poto Tano, Kabupaten Sumbawa Barat, Nusa Tenggara Bar. 84454","RT 06/03, Kokar Lian, Kec. Poto Tano, Kabupaten Sumbawa Barat",NUSA TENGGARA BARAT,84454.0,Indonesia,85239583835.0,,,-8.5551826,116.8598926,https://maps.google.com/?cid=0x0:0xbce0924140d13c84,
cafe,Kafe,NEW BERLIND CAFE SETELUK,"9V96+R37, Jl. Bda Rea, Seteluk Tengah, Seteluk, West Sumbawa Regency, West Nusa Tenggara 84454","Jl. Bda Rea, Seteluk Tengah, Seteluk, West Sumbawa Regency",NUSA TENGGARA BARAT,84454.0,Indonesia,85238322954.0,,,-8.6304562,116.8601672,https://maps.google.com/?cid=0x0:0x68ef74b836a41d24,
cafe,Restoran,Rumah Makan Putri Lombok,"FV53+J3R, Jl. Raya Senayan Poto Tano, Poto Tano, Kec. Poto Tano, Kabupaten Sumbawa Barat, Nusa Tenggara Bar. 84454","Jl. Raya Senayan Poto Tano, Poto Tano, Kec. Poto Tano, Kabupaten Sumbawa Barat",NUSA TENGGARA BARAT,84454.0,Indonesia,,,,-8.5408945,116.8526305,https://maps.google.com/?cid=0x0:0x96863cafb30173e1,
cafe,Kafe,Point Coffee,"7R4X+C3X, Kuang, Kec. Taliwang, Kabupaten Sumbawa Barat, Nusa Tenggara Bar. 84455","Kuang, Kec. Taliwang, Kabupaten Sumbawa Barat",NUSA TENGGARA BARAT,84455.0,Indonesia,1500280.0,,,-8.7439668,116.8477427,https://maps.google.com/?cid=0x0:0x333c94a1af0d8b25,
cafe,Rumah wisata,Rumah Kenawa,"FRFJ+MG3, Jl. Raya Labuhan Poto Tano, Poto Tano, Kec. Poto Tano, Kabupaten Sumbawa Barat, Nusa Tenggara Bar. 84454","Jl. Raya Labuhan Poto Tano, Poto Tano, Kec. Poto Tano, Kabupaten Sumbawa Barat",NUSA TENGGARA BARAT,84454.0,Indonesia,82147822822.0,,,-8.5259257,116.8309287,https://maps.google.com/?cid=0x0:0x4cf20401d3bc4c21,
cafe,Seblak,Warung Mbojo,"FVFH+2G2, Jl. Raya Senayan Poto Tano, Poto Tano, Kec. Poto Tano, Kabupaten Sumbawa Barat, Nusa Tenggara Bar. 84454","Jl. Raya Senayan Poto Tano, Poto Tano, Kec. Poto Tano, Kabupaten Sumbawa Barat",NUSA TENGGARA BARAT,84454.0,Indonesia,,,,-8.5274894,116.8787798,https://maps.google.com/?cid=0x0:0xed185f37bdb62465,
cafe,Nasi,RM. Surabaya mbak lies,"FRFJ+Q9V, Poto Tano, Kec. Poto Tano, Kabupaten Sumbawa Barat, Nusa Tenggara Bar. 84454","Poto Tano, Kec. Poto Tano, Kabupaten Sumbawa Barat",NUSA TENGGARA BARAT,84454.0,Indonesia,81236220267.0,,,-8.5255116,116.8309237,https://maps.google.com/?cid=0x0:0xe19fed998728f074,
cafe,cafe,Nusa Tenggara Bar. 84455,"Kabupaten Sumbawa Barat, Nusa Tenggara Bar.","Kabupaten Sumbawa Barat, Nusa Tenggara Bar.",NUSA TENGGARA BARAT,,Indonesia,,,,-8.7907453,116.8674757,https://maps.google.com/?cid=0x0:0x5fda0016832273b3,
cafe,Kafe,VESCOBAR (vespa coffee bar),"Unnamed Road, Kuang, Kec. Taliwang, Kabupaten Sumbawa Barat, Nusa Tenggara Bar. 84455","Kuang, Kec. Taliwang, Kabupaten Sumbawa Barat",NUSA TENGGARA BARAT,84455.0,Indonesia,82144492333.0,,,-8.7494878,116.8421403,https://maps.google.com/?cid=0x0:0x7f5f46134086336d,
cafe,Restoran,Gorengan Ngampur,"6VHG+6V5, Desa Mura Brang Ene, Mura, Kec. Brang Ene, Taliwang KSB, Nusa Tenggara Bar. 84455","Desa Mura Brang Ene, Mura, Kec. Brang Ene, Taliwang KSB",NUSA TENGGARA BARAT,84455.0,Indonesia,82342171330.0,,,-8.7719878,116.8772211,https://maps.google.com/?cid=0x0:0x16bf4def923237f3,
cafe,Kedai Kopi,5KM Coffee,"Kuang, Kec. Taliwang, Kabupaten Sumbawa Barat, Nusa Tenggara Bar. 84455","Kec. Taliwang, Kabupaten Sumbawa Barat",NUSA TENGGARA BARAT,84455.0,Indonesia,,,,-8.7505601,116.8474963,https://maps.google.com/?cid=0x0:0x8762b8e0c75f8959,
cafe,Kedai Kopi,Deng Bale,"7V23+6J9, Jl. bungkarno, RW.5, Kuang, Kec. Taliwang, Kabupaten Sumbawa Barat, Nusa Tenggara Bar. 84455","Jl. bungkarno, RW.5, Kuang, Kec. Taliwang, Kabupaten Sumbawa Barat",NUSA TENGGARA BARAT,84455.0,Indonesia,,,,-8.7494188,116.8542067,https://maps.google.com/?cid=0x0:0xe93b03f4e743c1c4,
cafe,Kafe,Cappucino cincau mas anshory,"no.8 KSB 54455, Jl. Raya Taliwang, Bugis, Kec. Taliwang, Kabupaten Sumbawa Barat, Nusa Tenggara Bar. 84455","Jl. Raya Taliwang, Bugis, Kec. Taliwang, Kabupaten Sumbawa Barat",NUSA TENGGARA BARAT,84455.0,Indonesia,,,,-8.7449252,116.8369622,https://maps.google.com/?cid=0x0:0x89aa7818c82bbc5c,
cafe,Kafe,Point Coffee,"7R4X+C3X, Kuang, Kec. Taliwang, Kabupaten Sumbawa Barat, Nusa Tenggara Bar. 84455","Kuang, Kec. Taliwang, Kabupaten Sumbawa Barat",NUSA TENGGARA BARAT,84455.0,Indonesia,1500280.0,,,-8.7439668,116.8477427,https://maps.google.com/?cid=0x0:0x333c94a1af0d8b25,
cafe,Kedai Kopi,Seduh kopi taliwang,"Jl pasar baru no 83 kampung Arab kenangan di depan toko Tiara grand, Dalam, Kec. Taliwang, Kabupaten Sumbawa Barat, Nusa Tenggara Bar. 84455","Dalam, Kec. Taliwang, Kabupaten Sumbawa Barat",NUSA TENGGARA BARAT,84455.0,Indonesia,81277272340.0,,,-8.7429985,116.8490663,https://maps.google.com/?cid=0x0:0xe4e01b7d3dfd468,
cafe,Kedai Kopi,Dewa Gedong,"6RVW+QPM, Kuang, Kec. Taliwang, Kabupaten Sumbawa Barat, Nusa Tenggara Bar. 84455","Kuang, Kec. Taliwang, Kabupaten Sumbawa Barat",NUSA TENGGARA BARAT,84455.0,Indonesia,81237247372.0,,,-8.7555312,116.8467908,https://maps.google.com/?cid=0x0:0x1f940b8c08cacad8,
cafe,Warnet,Tiang Enam Hotspot Wifi,"7R4X+C4H, Kuang, Kec. Taliwang, Kabupaten Sumbawa Barat, Nusa Tenggara Bar. 84455","Kuang, Kec. Taliwang, Kabupaten Sumbawa Barat",NUSA TENGGARA BARAT,84455.0,Indonesia,3728283383.0,,,-8.743939,116.8478583,https://maps.google.com/?cid=0x0:0x672056fadd73d369,
cafe,Kafe,Rumah Kebun Cafe and Resto,"Menala, Kec. Taliwang, Kabupaten Sumbawa Barat, Nusa Tenggara Bar. 84455","Kec. Taliwang, Kabupaten Sumbawa Barat",NUSA TENGGARA BARAT,84455.0,Indonesia,82339951921.0,,,-8.7592579,116.8521436,https://maps.google.com/?cid=0x0:0x98195eee973bffbd,
cafe,Rumah Makan,TwOne Cafe and Resto,"Jalan TGKH Muhammad Zainuddin Abdul Majid, Kec. Taliwang, Nusa Tenggara Bar.","Kabupaten Sumbawa Barat, Nusa Tenggara Bar.",NUSA TENGGARA BARAT,,Indonesia,85339448128.0,,,-8.7494375,116.8359375,https://maps.google.com/?cid=0x0:0xc9a5fece726a1552,
cafe,Kedai Kopi,Cafe Coffee 21,"7R5V+5P6, Jalan Raya, Bugis, Taliwang, West Sumbawa Regency, West Nusa Tenggara 84455","Jalan Raya, Bugis, Taliwang, West Sumbawa Regency",NUSA TENGGARA BARAT,84455.0,Indonesia,81219739897.0,,,-8.742079,116.8442766,https://maps.google.com/?cid=0x0:0x9f3fc7d8995fd8a1,
cafe,Kedai Kopi,warung nyanset,"5RQ7+8C, Labuan Lalar, Kabupaten Sumbawa Barat, Nusa Tenggara Bar.","Kabupaten Sumbawa Barat, Nusa Tenggara Bar.",NUSA TENGGARA BARAT,,Indonesia,85333348761.0,,,-8.8116895,116.8135064,https://maps.google.com/?cid=0x0:0x9d3e1281b85c4794,
cafe,Restoran,Warung Senja,"Jl Raya Labuhan lalar kecamatan Taliwang Taliwang, Sumbawa Barat, Barat, Nusa Tenggara Bar. 84355","Sumbawa Barat, Barat",NUSA TENGGARA BARAT,84355.0,Indonesia,85333588032.0,,,-8.7970627,116.8117513,https://maps.google.com/?cid=0x0:0x873c2a7cf1350d0c,
cafe,Bar,Angkringan Jalan Baru (AJB),"Telaga Bertong, Kec. Taliwang, Kabupaten Sumbawa Barat, Nusa Tenggara Bar. 84455","Kec. Taliwang, Kabupaten Sumbawa Barat",NUSA TENGGARA BARAT,84455.0,Indonesia,,,,-8.7499735,116.8353462,https://maps.google.com/?cid=0x0:0x12dd8daba2a3ce25,
cafe,Kafe,dePOP Coffee Shop,"Jl. Jend. Sudirman, Dalam, Kec. Taliwang, Kabupaten Sumbawa Barat, Nusa Tenggara Bar. 84452","Dalam, Kec. Taliwang, Kabupaten Sumbawa Barat",NUSA TENGGARA BARAT,84452.0,Indonesia,82243893013.0,,,-8.7422135,116.8480531,https://maps.google.com/?cid=0x0:0xf689bea81ec94749,
cafe,Kedai Kopi,ES 835,"Jl. Cendrawasih No.5, Kuang, Kec. Taliwang, Kabupaten Sumbawa Barat, Nusa Tenggara Bar. 84455","Kuang, Kec. Taliwang, Kabupaten Sumbawa Barat",NUSA TENGGARA BARAT,84455.0,Indonesia,85333028064.0,,,-8.7438629,116.8510443,https://maps.google.com/?cid=0x0:0xc68e83a3b957cc7c,
cafe,Rumah Makan,COFFEED-20,"Jl. Dr. Wahidin No.2, Dalam, Kec. Taliwang, Kabupaten Sumbawa Barat, Nusa Tenggara Bar. 84455","Dalam, Kec. Taliwang, Kabupaten Sumbawa Barat",NUSA TENGGARA BARAT,84455.0,Indonesia,,,,-8.7406623,116.8499236,https://maps.google.com/?cid=0x0:0x609060220f4ae530,
cafe,Restoran,SISTBRO poto ktc,"Menala, Kec. Taliwang, Kabupaten Sumbawa Barat, Nusa Tenggara Bar. 84455","Kec. Taliwang, Kabupaten Sumbawa Barat",NUSA TENGGARA BARAT,84455.0,Indonesia,82236952474.0,,,-8.7604588,116.8511364,https://maps.google.com/?cid=0x0:0x5fba329a193141f5,
cafe,Kafetaria,Ruko Tumang,"6RPH+277, Jalan Raya, Telaga Bertong, Taliwang, West Sumbawa Regency, West Nusa Tenggara 84455","Jalan Raya, Telaga Bertong, Taliwang, West Sumbawa Regency",NUSA TENGGARA BARAT,84455.0,Indonesia,87761507627.0,,,-8.7649529,116.8281843,https://maps.google.com/?cid=0x0:0x8206440214b94a6a,
cafe,cafe,Living on air cafe,"7QVJ+H76, Labuan Kertasari, Kec. Taliwang, Kabupaten Sumbawa Barat, Nusa Tenggara Bar. 84452","Labuan Kertasari, Kec. Taliwang, Kabupaten Sumbawa Barat",NUSA TENGGARA BARAT,84452.0,Indonesia,,,,-8.7060785,116.780649,https://maps.google.com/?cid=0x0:0x9a21344a58155a38,
cafe,cafe,Maluk,"Kec. Maluk, Kabupaten Sumbawa Barat, Nusa Tenggara Bar.","Kabupaten Sumbawa Barat, Nusa Tenggara Bar.",NUSA TENGGARA BARAT,,Indonesia,,,,-8.9238233,116.7673237,https://maps.google.com/?cid=0x0:0x47ef5cc6638a6493,
cafe,Restoran,Coffeetaria's Cafe,"3QP3+X27, Jalan Raya, Bukit Damai, Maluk, West Sumbawa Regency, West Nusa Tenggara 84456","Jalan Raya, Bukit Damai, Maluk, West Sumbawa Regency",NUSA TENGGARA BARAT,84456.0,Indonesia,85237045500.0,,,-8.9125806,116.7525406,https://maps.google.com/?cid=0x0:0xd6669600b193e969,
cafe,Kantor Perusahaan,BIJE JARI RESTO,"Jalan Sadar Wisata, Pasir Putih, Kec. Maluk, Kabupaten Sumbawa Barat, Nusa Tenggara Bar. 84456","Pasir Putih, Kec. Maluk, Kabupaten Sumbawa Barat",NUSA TENGGARA BARAT,84456.0,Indonesia,87860055758.0,,,-8.9177705,116.751543,https://maps.google.com/?cid=0x0:0xbeed92b2ec7c9b02,
cafe,Kafe,Cia Cifana village and coffee shop,"3PPV+5CV, Pasir Putih, Kec. Maluk, Kabupaten Sumbawa Barat, Nusa Tenggara Bar. 84456","Pasir Putih, Kec. Maluk, Kabupaten Sumbawa Barat",NUSA TENGGARA BARAT,84456.0,Indonesia,81237210051.0,,,-8.9145188,116.7435431,https://maps.google.com/?cid=0x0:0x140dae2029e699e5,
cafe,Kedai Kopi,Kedai Bakso Bandung,"3QJ3+GF4, Maluk, Kec. Maluk, Kabupaten Sumbawa Barat, Nusa Tenggara Bar. 84456","Maluk, Kec. Maluk, Kabupaten Sumbawa Barat",NUSA TENGGARA BARAT,84456.0,Indonesia,,,,-8.918738,116.7536915,https://maps.google.com/?cid=0x0:0x5689eac024ec8237,
cafe,cafe,Kopi Pojok,"Jl. Raya Pasir Putih, Pasir Putih, Maluk, West Sumbawa Regency, West Nusa Tenggara 84456","Pasir Putih, Maluk, West Sumbawa Regency",NUSA TENGGARA BARAT,84456.0,Indonesia,85338208598.0,,,-8.9142625,116.7485912,https://maps.google.com/?cid=0x0:0xe980ca071890df0f,
cafe,Kafe,Gron cafe maluk,"3PJX+X4J, Pasir Putih, Kec. Maluk, Kabupaten Sumbawa Barat, Nusa Tenggara Bar. 84456","Pasir Putih, Kec. Maluk, Kabupaten Sumbawa Barat",NUSA TENGGARA BARAT,84456.0,Indonesia,,,,-8.917527,116.7477809,https://maps.google.com/?cid=0x0:0x715f25942d8fb162,
cafe,Tujuan Wisata,BBM Tempat Nongkrong,"3PJX+7R2, Pasir Putih, Kec. Maluk, Kabupaten Sumbawa Barat, Nusa Tenggara Bar. 84456","Pasir Putih, Kec. Maluk, Kabupaten Sumbawa Barat",NUSA TENGGARA BARAT,84456.0,Indonesia,82145192109.0,,,-8.9193547,116.7495064,https://maps.google.com/?cid=0x0:0x7c0a6ec6e7cbc3a6,
cafe,Restoran,Mie Mimpi,"Jl. Raya Maluk, Maluk, Kec. Maluk, Kabupaten Sumbawa Barat, Nusa Tenggara Bar. 84456","Maluk, Kec. Maluk, Kabupaten Sumbawa Barat",NUSA TENGGARA BARAT,84456.0,Indonesia,81805302328.0,,,-8.922304,116.7557007,https://maps.google.com/?cid=0x0:0x9536a4d471bac29,
cafe,Steak,KABA Steak  Seafood,"Pantai, Pasir Putih, Kec. Maluk, Kabupaten Sumbawa Barat, Nusa Tenggara Bar. 84456","Pasir Putih, Kec. Maluk, Kabupaten Sumbawa Barat",NUSA TENGGARA BARAT,84456.0,Indonesia,81935959555.0,,,-8.9154157,116.744618,https://maps.google.com/?cid=0x0:0x76025a79067dc69f,
cafe,Tujuan Wisata,Warkop Muchil,"3PJX+MC6, Pasir Putih, Kec. Maluk, Kabupaten Sumbawa Barat, Nusa Tenggara Bar. 84456","Pasir Putih, Kec. Maluk, Kabupaten Sumbawa Barat",NUSA TENGGARA BARAT,84456.0,Indonesia,85253306006.0,,,-8.9183352,116.7485249,https://maps.google.com/?cid=0x0:0x879b4a703978f092,
cafe,Restoran,Waroeng Empok Kenim,"3PMV+W2M, Mantun, Kec. Maluk, Kabupaten Sumbawa Barat, Nusa Tenggara Bar. 84456","Mantun, Kec. Maluk, Kabupaten Sumbawa Barat",NUSA TENGGARA BARAT,84456.0,Indonesia,,,,-8.9151545,116.7425576,https://maps.google.com/?cid=0x0:0x899619c1b0f603a9,
cafe,Kafe,Depot ibu gaul,"3PJW+XRR, Pasir Putih, Kec. Maluk, Kabupaten Sumbawa Barat, Nusa Tenggara Bar. 84456","Pasir Putih, Kec. Maluk, Kabupaten Sumbawa Barat",NUSA TENGGARA BARAT,84456.0,Indonesia,,,,-8.9175082,116.7470131,https://maps.google.com/?cid=0x0:0xda911cdf5a74d2e2,
cafe,Rumah Makan,Warung Bu Sugeng,"3QP2+XGR, Jalan Raya, Bukit Damai, Maluk, West Sumbawa Regency, West Nusa Tenggara 84456","Jalan Raya, Bukit Damai, Maluk, West Sumbawa Regency",NUSA TENGGARA BARAT,84456.0,Indonesia,,,,-8.9125448,116.7512694,https://maps.google.com/?cid=0x0:0x13624866890d8358,
cafe,Kedai Kopi,Thousand Sunny Coffee  Co,"Jl. Dr. Cipto No.3, Seketeng, Kec. Sumbawa, Kabupaten Sumbawa, Nusa Tenggara Bar. 84313","Seketeng, Kec. Sumbawa, Kabupaten Sumbawa",NUSA TENGGARA BARAT,84313.0,Indonesia,,,,-8.5044447,117.4285988,https://maps.google.com/?cid=0x0:0x6e138b74a89a1402,
cafe,Rumah Makan,Warung Kebun Toraja,"3QP2+VGF, Maluk, Kec. Maluk, Kabupaten Sumbawa Barat, Nusa Tenggara Bar. 84456","Maluk, Kec. Maluk, Kabupaten Sumbawa Barat",NUSA TENGGARA BARAT,84456.0,Indonesia,,,,-8.9128064,116.7512994,https://maps.google.com/?cid=0x0:0x74bfa384661135c8,
cafe,cafe,Pantai Maluk,Nusa Tenggara Bar.,Nusa Tenggara Bar.,NUSA TENGGARA BARAT,,Indonesia,,,,-8.9179213,116.7474819,https://maps.google.com/?cid=0x0:0x7944b4cf78d60017,
cafe,Mi,Wrg.CITRA Maluk,"Jl. Raya Maluk Maluk Sumbawa Barat, Maluk, Kec. Maluk, Sumbawa, Nusa Tenggara Bar. 84456","Maluk, Kec. Maluk, Sumbawa",NUSA TENGGARA BARAT,84456.0,Indonesia,81339613875.0,,,-8.9176824,116.753559,https://maps.google.com/?cid=0x0:0x8fc2f25e673a61a5,
cafe,cafe,Passifika Sumbawa,"Jl. Batu Hijau, Pasir Putih, Kec. Maluk, Kabupaten Sumbawa Barat, Nusa Tenggara Bar. 84456","Pasir Putih, Kec. Maluk, Kabupaten Sumbawa Barat",NUSA TENGGARA BARAT,84456.0,Indonesia,81337218343.0,,,-8.9155005,116.7516761,https://maps.google.com/?cid=0x0:0xca928b7feee37b14,
cafe,Mi,Bakso dan mie ayam (bagus'fams),"Jl. Raya Maluk, Bukit Damai, Kec. Maluk, Kabupaten Sumbawa Barat, Nusa Tenggara Bar. 84456","Bukit Damai, Kec. Maluk, Kabupaten Sumbawa Barat",NUSA TENGGARA BARAT,84456.0,Indonesia,82359202024.0,,,-8.910871,116.7507545,https://maps.google.com/?cid=0x0:0xacda689a8881d99c,
cafe,Kafe,De Sallero Cafe  Restaurant,"3QH4+28R, Maluk, Kec. Maluk, Kabupaten Sumbawa Barat, Nusa Tenggara Bar. 84456","Maluk, Kec. Maluk, Kabupaten Sumbawa Barat",NUSA TENGGARA BARAT,84456.0,Indonesia,,,,-8.9218209,116.7555443,https://maps.google.com/?cid=0x0:0x6a9c78420b447b3e,
cafe,Restoran,Soare Cafe Maluk,"3PJX+QX2, Pasir Putih, Kec. Maluk, Kabupaten Sumbawa Barat, Nusa Tenggara Bar.","Kabupaten Sumbawa Barat, Nusa Tenggara Bar.",NUSA TENGGARA BARAT,,Indonesia,,,,-8.9181123,116.7498884,https://maps.google.com/?cid=0x0:0xd8bbd1de75697ef2,
cafe,Kafe,Mk COFFEE SHOP,"3QJ3+HFH, Jalan Raya, Pasir Putih, Maluk, West Sumbawa Regency, West Nusa Tenggara 84456","Jalan Raya, Pasir Putih, Maluk, West Sumbawa Regency",NUSA TENGGARA BARAT,84456.0,Indonesia,81246484879.0,,,-8.918551,116.7537234,https://maps.google.com/?cid=0x0:0x519be9233bc681a8,
cafe,Restoran,Ambush Cafe,"l. Raya Maluk No.88A, Maluk, Sumbawa, Kabupaten Sumbawa Barat, Nusa Tenggara Bar. 84310","Maluk, Sumbawa, Kabupaten Sumbawa Barat",NUSA TENGGARA BARAT,84310.0,Indonesia,82211223830.0,,,-8.921988,116.7555429,https://maps.google.com/?cid=0x0:0xcd60163ce5b2df58,
cafe,cafe,Andromeda cafe,"3QJ2+CRJ, Pasir Putih, Kec. Maluk, Kabupaten Sumbawa Barat, Nusa Tenggara Bar.","Kabupaten Sumbawa Barat, Nusa Tenggara Bar.",NUSA TENGGARA BARAT,,Indonesia,,,,-8.9189036,116.752002,https://maps.google.com/?cid=0x0:0xd13f1a35cd0b67b7,
cafe,Konsultan makanan dan minuman,Batu Hijau Coffee,"Depan Masjid Nurul Islam, Jl. Raya Maluk, Mantun, Kec. Maluk, Kabupaten Sumbawa Barat, Nusa Tenggara Bar. 84453","Jl. Raya Maluk, Mantun, Kec. Maluk, Kabupaten Sumbawa Barat",NUSA TENGGARA BARAT,84453.0,Indonesia,82236745307.0,,,-8.9128578,116.7507081,https://maps.google.com/?cid=0x0:0x9c958730d561550f,
cafe,Klub Malam,HAPPY CAFE  BILLIARD,"3QM2+6P5, Pasir Putih, Kec. Maluk, Kabupaten Sumbawa Barat, Nusa Tenggara Bar. 84456","Pasir Putih, Kec. Maluk, Kabupaten Sumbawa Barat",NUSA TENGGARA BARAT,84456.0,Indonesia,,,,-8.9186959,116.7519055,https://maps.google.com/?cid=0x0:0xdae3801b7b309b80,
cafe,Restoran,Kedai Kopi Jack Maluk,"3QH4+28R, Maluk, Kec. Maluk, Kabupaten Sumbawa Barat, Nusa Tenggara Bar. 84456","Maluk, Kec. Maluk, Kabupaten Sumbawa Barat",NUSA TENGGARA BARAT,84456.0,Indonesia,,,,-8.9223788,116.7557524,https://maps.google.com/?cid=0x0:0x95e88f2a81a3d62b,
