Category,Real Category,Business Name,Address,City,State,Postal Code,Country,Phone,Email,Website,Latitude,Longitude,Map Link,Details Link
building materials,building materials,Nusa Tenggara Bar. 84456,"Kec. Jereweh, Kabupaten Sumbawa Barat, Nusa Tenggara Bar.","Kabupaten Sumbawa Barat, Nusa Tenggara Bar.",NUSA TENGGARA BARAT,,Indonesia,,,,-8.947527,116.9145901,https://maps.google.com/?cid=0x0:0xd8d94f4df4b390cb,
building materials,Toko Bahan Bangunan,TB. Abdi Jaya,"Jl. Pendidikan, Goa, Kec. Jereweh, Kabupaten Sumbawa Barat, Nusa Tenggara Bar. 84456","Goa, Kec. Jereweh, Kabupaten Sumbawa Barat",NUSA TENGGARA BARAT,84456,Indonesia,81803803804.0,,,-8.848384,116.8182737,https://maps.google.com/?cid=0x0:0xbf9f143789caef6b,
building materials,Toko,TB. PUTRA JAYA,"4Q48+HGV, Benete, Kec. Maluk, Kabupaten Sumbawa Barat, Nusa Tenggara Bar. 84456","Benete, Kec. Maluk, Kabupaten Sumbawa Barat",NUSA TENGGARA BARAT,84456,Indonesia,87863990444.0,,,-8.893501,116.7663076,https://maps.google.com/?cid=0x0:0x9ba23a3d8870d1c,
building materials,Toko Elektronik,Toko Teknik Bangunan,"Jl. Pendidikan No.2, Sekongkang Atas, Kec. Sekongkang, Kabupaten Sumbawa Barat, Nusa Tenggara Bar. 84457","Sekongkang Atas, Kec. Sekongkang, Kabupaten Sumbawa Barat",NUSA TENGGARA BARAT,84457,Indonesia,8175743451.0,,,-8.9668637,116.7607132,https://maps.google.com/?cid=0x0:0x94debd4e5d0ba0d7,
building materials,Toko Bahan Bangunan,UD.Balebesi,"Benete, Kec. Maluk, Kabupaten Sumbawa Barat, Nusa Tenggara Bar.","Kabupaten Sumbawa Barat, Nusa Tenggara Bar.",NUSA TENGGARA BARAT,,Indonesia,8113907367.0,,,-8.8961583,116.7724214,https://maps.google.com/?cid=0x0:0xf9995deb1310b2e7,
building materials,Toko Bahan Bangunan,Jotun Multicolor Center,"3QQ2+984, Jalan Raya, Mantun, Maluk, West Sumbawa Regency, West Nusa Tenggara 84456","Jalan Raya, Mantun, Maluk, West Sumbawa Regency",NUSA TENGGARA BARAT,84456,Indonesia,,,,-8.9116083,116.7508202,https://maps.google.com/?cid=0x0:0xdc64f94c315ca50a,
building materials,Toko Bahan Bangunan,Toko Bangunan UD.YUNIMAR,"3PPW+HPH, Jl. Raya Pasir Putih, Mantun, Maluk, West Sumbawa Regency, West Nusa Tenggara","Kabupaten Sumbawa Barat, Nusa Tenggara Bar.",NUSA TENGGARA BARAT,,Indonesia,,,,-8.9135543,116.7468585,https://maps.google.com/?cid=0x0:0xe1c60cead5be130e,
building materials,Toko Bahan Bangunan,TOKO BANGUNAN FINGKY,"5RF9+C4M, Dusun baru Pasinggah, RT.09/RW.03, Desa Dasan, Kec. Jereweh, Kabupaten Sumbawa Barat, Nusa Tenggara Bar.","Kabupaten Sumbawa Barat, Nusa Tenggara Bar.",NUSA TENGGARA BARAT,,Indonesia,85337254887.0,,,-8.8264127,116.8177822,https://maps.google.com/?cid=0x0:0x36d497bb51ffba6a,
building materials,Toko Bahan Bangunan,UD TAMPAK NAMA,"XRF6+C2P, Tongo, Kec. Sekongkang, Kabupaten Sumbawa Barat, Nusa Tenggara Bar. 84457","Tongo, Kec. Sekongkang, Kabupaten Sumbawa Barat",NUSA TENGGARA BARAT,84457,Indonesia,82340117146.0,,,-9.0264233,116.8100796,https://maps.google.com/?cid=0x0:0xaff393e26227ecbb,
building materials,Toko Bahan Bangunan,toko bangunan UD.SYIFA,"selatan, jalan sadar wisata, Pasir Putih, Maluk, West Sumbawa Regency, West Nusa Tenggara","Kabupaten Sumbawa Barat, Nusa Tenggara Bar.",NUSA TENGGARA BARAT,,Indonesia,85337230847.0,,,-8.9174535,116.7514763,https://maps.google.com/?cid=0x0:0x1ff3cfaa4f3b2f7e,
building materials,building materials,JYpLaLvoL5aQseMP7_2m8A8,,,NUSA TENGGARA BARAT,,Indonesia,87896401375.0,,,-8.911323,116.7620074,https://maps.google.com/?cid=0x0:0x1a2fe9521b046cc6,
building materials,Toko,UD.RAHAYU,"Jl. Pendidikan, Belo, Kec. Jereweh, Kabupaten Sumbawa Barat, Nusa Tenggara Bar. 84456","Belo, Kec. Jereweh, Kabupaten Sumbawa Barat",NUSA TENGGARA BARAT,84456,Indonesia,,,,-8.8578811,116.8223845,https://maps.google.com/?cid=0x0:0x292d6b15ebf4b9d4,
building materials,Toko Bahan Bangunan,UD. SARI MANDIRI,"Jln. Generong No.KM.3, Manemeng, Kec. Brang Ene, Kabupaten Sumbawa Barat, Nusa Tenggara Bar. 84355","Manemeng, Kec. Brang Ene, Kabupaten Sumbawa Barat",NUSA TENGGARA BARAT,84355,Indonesia,85904272594.0,,,-8.7743383,116.8681932,https://maps.google.com/?cid=0x0:0xf16c616f345392a7,
building materials,Jasa Konstruksi dan Bangunan,"PT ALDO JAYA (BANGUNAN, MEUBEL, ELEKTRONIK)","3QP3+762, Maluk, Kec. Maluk, Kabupaten Sumbawa Barat, Nusa Tenggara Bar. 84456","Maluk, Kec. Maluk, Kabupaten Sumbawa Barat",NUSA TENGGARA BARAT,84456,Indonesia,,,,-8.9143652,116.7530295,https://maps.google.com/?cid=0x0:0xce128e6e3040e92a,
building materials,Toko Bahan Bangunan,DISTRIBUTOR BATA RINGAN NTB DAN MORTAR NTB,"Maluk, Mantun, Sumbawa besar, Kabupaten Sumbawa Barat, Nusa Tenggara Timur 84313","Mantun, Sumbawa besar, Kabupaten Sumbawa Barat",NUSA TENGGARA BARAT,84313,Indonesia,81337651464.0,,,-8.9101355,116.753349,https://maps.google.com/?cid=0x0:0x1ff184f7484d9fd,
building materials,Toko Bahan Bangunan,TB. Artha Mas,"6VHG+986, Jl. Pd. Pesantren, Mura, Kec. Brang Ene, Kabupaten Sumbawa Barat, Nusa Tenggara Bar. 84455","Jl. Pd. Pesantren, Mura, Kec. Brang Ene, Kabupaten Sumbawa Barat",NUSA TENGGARA BARAT,84455,Indonesia,82342241204.0,,,-8.7715995,116.875767,https://maps.google.com/?cid=0x0:0x79c489e5c471f303,
building materials,Toko Bahan Bangunan,UD,"5W65+6WV, Desa, Mataiyang, Kec. Brang Ene, Kabupaten Sumbawa Barat, Nusa Tenggara Bar. 84355","Desa, Mataiyang, Kec. Brang Ene, Kabupaten Sumbawa Barat",NUSA TENGGARA BARAT,84355,Indonesia,82236844877.0,,,-8.8393967,116.909809,https://maps.google.com/?cid=0x0:0x6184151e4f57e4e0,
building materials,building materials,Dapur Bata Jereweh,"5R6H+VPP, Dasan Anyar, Kec. Jereweh, Kabupaten Sumbawa Barat, Nusa Tenggara Bar. 84456","Dasan Anyar, Kec. Jereweh, Kabupaten Sumbawa Barat",NUSA TENGGARA BARAT,84456,Indonesia,,,,-8.8377753,116.8293281,https://maps.google.com/?cid=0x0:0x3c3aebc387bce59a,
building materials,building materials,Taliwang,"Kuang, Kec. Taliwang, Kabupaten Sumbawa Barat, Nusa Tenggara Bar.","Kabupaten Sumbawa Barat, Nusa Tenggara Bar.",NUSA TENGGARA BARAT,,Indonesia,,,,-8.751946,116.854599,https://maps.google.com/?cid=0x0:0xf98bdc32d4193ccb,
building materials,Toko Bahan Bangunan,Ud.Cahaya Bangunan,"7V25+J7V Al-Ihlas, Jl. Pd. Pesantren JL, Dalam, Taliwang, West Sumbawa Regency, West Nusa Tenggara 84455","Jl. Pd. Pesantren JL, Dalam, Taliwang, West Sumbawa Regency",NUSA TENGGARA BARAT,84455,Indonesia,81339778911.0,,,-8.7483764,116.8581843,https://maps.google.com/?cid=0x0:0x43908cebd3732b04,
building materials,Toko Bahan Bangunan,Toko SAHABAT,"Bugis, Kec. Taliwang, Kabupaten Sumbawa Barat, Nusa Tenggara Bar. 84455","Kec. Taliwang, Kabupaten Sumbawa Barat",NUSA TENGGARA BARAT,84455,Indonesia,82341581315.0,,,-8.7486614,116.8308238,https://maps.google.com/?cid=0x0:0x8b8936b93636d7b7,
building materials,Toko Bahan Bangunan,Toko Senter Bangunan,"7R4W+QPW, Jl. Ps. Baru, Dalam, Kec. Taliwang, Kabupaten Sumbawa Barat, Nusa Tenggara Bar. 84455","Jl. Ps. Baru, Dalam, Kec. Taliwang, Kabupaten Sumbawa Barat",NUSA TENGGARA BARAT,84455,Indonesia,37281059.0,,,-8.7430177,116.8468144,https://maps.google.com/?cid=0x0:0x4caf7cd21eb7421c,
building materials,Toko Perlengkapan Rumah,UD. NIRMALA,"6RRJ+463, Jalan Raya, Telaga Bertong, Taliwang, West Sumbawa Regency, West Nusa Tenggara 84455","Jalan Raya, Telaga Bertong, Taliwang, West Sumbawa Regency",NUSA TENGGARA BARAT,84455,Indonesia,85239052302.0,,,-8.7597485,116.8305372,https://maps.google.com/?cid=0x0:0xef467d1e48df59e6,
building materials,Toko Bahan Bangunan,Gudang Cv.Putra Brama,"7V36+49M, Jl. Lintas Taliwang, Tamekan, Kec. Taliwang, Kabupaten Sumbawa Barat, Nusa Tenggara Bar. 84455","Jl. Lintas Taliwang, Tamekan, Kec. Taliwang, Kabupaten Sumbawa Barat",NUSA TENGGARA BARAT,84455,Indonesia,85238192154.0,,,-8.7471501,116.8609356,https://maps.google.com/?cid=0x0:0x72214ffad90109bd,
building materials,Toko Bahan Bangunan,Nopan Indah Gypsum,"7V82+593, JL. Lang Sasat, Dalam, Kec. Taliwang, Kabupaten Sumbawa Barat, Nusa Tenggara Bar. 84455","JL. Lang Sasat, Dalam, Kec. Taliwang, Kabupaten Sumbawa Barat",NUSA TENGGARA BARAT,84455,Indonesia,81339668205.0,,,-8.7346019,116.8509081,https://maps.google.com/?cid=0x0:0xd31631c4b813b7f3,
building materials,Toko Bahan Bangunan,Depo Bangunan Toko,"JL St Syahrir, RT 005/01, Bugis, Kec. Taliwang, Kabupaten Sumbawa Barat, Nusa Tenggara Bar. 84355","RT 005/01, Bugis, Kec. Taliwang, Kabupaten Sumbawa Barat",NUSA TENGGARA BARAT,84355,Indonesia,37281797.0,,,-8.7465406,116.8344096,https://maps.google.com/?cid=0x0:0x1c089e160c4a5868,
building materials,Toko Bahan Bangunan,UD Pandu,"7R4F+HJ6, Unnamed Road, Banjar, Kec. Taliwang, Kabupaten Sumbawa Barat, Nusa Tenggara Bar. 84455","Unnamed Road, Banjar, Kec. Taliwang, Kabupaten Sumbawa Barat",NUSA TENGGARA BARAT,84455,Indonesia,,,,-8.743578,116.8240186,https://maps.google.com/?cid=0x0:0x54c58c6ee8669806,
building materials,Toko Bahan Bangunan,UD. PUSAKA 45 Toko Bangunan,"Jl. Baso Busing No.Desa, Desa Beru, Kec. Taliwang, Kabupaten Sumbawa Barat, Nusa Tenggara Bar. 84458","Desa Beru, Kec. Taliwang, Kabupaten Sumbawa Barat",NUSA TENGGARA BARAT,84458,Indonesia,81339895887.0,,,-8.728729,116.90789,https://maps.google.com/?cid=0x0:0xdffa512d28b70117,
building materials,Toko Bahan Bangunan,TOKO INDOKERAMIK,"7R4X+PQF, Jl. Ps. Baru, Dalam, Kec. Taliwang, Kabupaten Sumbawa Barat, Nusa Tenggara Bar. 84455","Jl. Ps. Baru, Dalam, Kec. Taliwang, Kabupaten Sumbawa Barat",NUSA TENGGARA BARAT,84455,Indonesia,,,,-8.7431922,116.8494281,https://maps.google.com/?cid=0x0:0xdb3d452a270b3912,
building materials,Toko Bahan Bangunan,UD. ALAM INDAH,"7R6X+C42, Dalam, Kec. Taliwang, Kabupaten Sumbawa Barat, Nusa Tenggara Bar. 84455","Dalam, Kec. Taliwang, Kabupaten Sumbawa Barat",NUSA TENGGARA BARAT,84455,Indonesia,81237426655.0,,,-8.7389766,116.8477779,https://maps.google.com/?cid=0x0:0x64a070efff105fb,
building materials,Toko Bahan Bangunan,UD. Al Amin,"7V92+3JH, JL Pertokoan Komplek Pertokoan, Dalam, Kec. Taliwang, Kabupaten Sumbawa Barat, Nusa Tenggara Bar. 84455","JL Pertokoan Komplek Pertokoan, Dalam, Kec. Taliwang, Kabupaten Sumbawa Barat",NUSA TENGGARA BARAT,84455,Indonesia,81339634928.0,,,-8.732314,116.851602,https://maps.google.com/?cid=0x0:0x806d6c185f38e793,
building materials,Toko Bahan Bangunan,UD. SAHABAT,"7R4W+V5W, Jl. Ps. Baru, kampung arab, Dalam, Kec. Taliwang, Kabupaten Sumbawa Barat, Nusa Tenggara Bar. 84455","Jl. Ps. Baru, kampung arab, Dalam, Kec. Taliwang, Kabupaten Sumbawa Barat",NUSA TENGGARA BARAT,84455,Indonesia,,,,-8.7427593,116.8454638,https://maps.google.com/?cid=0x0:0xb133b2fc1f13c64c,
building materials,Toko Bahan Bangunan,RAJA GALVALUM,"6RQJ+J3H, Telaga Bertong, Kec. Taliwang, Kabupaten Sumbawa Barat, Nusa Tenggara Bar. 84455","Telaga Bertong, Kec. Taliwang, Kabupaten Sumbawa Barat",NUSA TENGGARA BARAT,84455,Indonesia,82340073337.0,,,-8.7602861,116.8303835,https://maps.google.com/?cid=0x0:0x715932b604006ade,
building materials,Toko Bahan Bangunan,Toko bangunan (UD.FITRAH),"7R2W+PV6, Kuang, Kec. Taliwang, Kabupaten Sumbawa Barat, Nusa Tenggara Bar. 84455","Kuang, Kec. Taliwang, Kabupaten Sumbawa Barat",NUSA TENGGARA BARAT,84455,Indonesia,,,,-8.7482188,116.8471476,https://maps.google.com/?cid=0x0:0x300faa66d2d782aa,
building materials,building materials,Kec. Seteluk,"Kabupaten Sumbawa Barat, Nusa Tenggara Bar.","Kabupaten Sumbawa Barat, Nusa Tenggara Bar.",NUSA TENGGARA BARAT,,Indonesia,,,,-8.6251785,116.8652498,https://maps.google.com/?cid=0x0:0x81f1c5d92dcd6f07,
building materials,Toko Pakaian,UD.Semoga Sukses,"Tapir, Kec. Seteluk, Kabupaten Sumbawa Barat, Nusa Tenggara Bar. 84454","Kec. Seteluk, Kabupaten Sumbawa Barat",NUSA TENGGARA BARAT,84454,Indonesia,81246540687.0,,,-8.6425492,116.8554132,https://maps.google.com/?cid=0x0:0xa43eae842cb2554b,
building materials,Toko Bahan Bangunan,Ud alam jaya bangunan,"8VX3+PMV, Air Suning, Kec. Seteluk, Kabupaten Sumbawa Barat, Nusa Tenggara Bar. 84454","Air Suning, Kec. Seteluk, Kabupaten Sumbawa Barat",NUSA TENGGARA BARAT,84454,Indonesia,,,,-8.6506254,116.854161,https://maps.google.com/?cid=0x0:0x635a519180c0c509,
building materials,Toko Bahan Bangunan,UD DUA PUTRA LAMUSUNG,"8VW2+QC7, Jl. Raya Seteluk, Lamusung, Kec. Seteluk, Kabupaten Sumbawa Barat, Nusa Tenggara Bar. 84454","Jl. Raya Seteluk, Lamusung, Kec. Seteluk, Kabupaten Sumbawa Barat",NUSA TENGGARA BARAT,84454,Indonesia,82339018121.0,,,-8.653084,116.851052,https://maps.google.com/?cid=0x0:0xb90429fb76e58972,
building materials,Toko Bahan Bangunan,Tk. Sakti Bangunan,"9VF7+CVQ, Jalan Raya, Seteluk Tengah, Seteluk, West Sumbawa Regency, West Nusa Tenggara 84454","Jalan Raya, Seteluk Tengah, Seteluk, West Sumbawa Regency",NUSA TENGGARA BARAT,84454,Indonesia,81249665679.0,,,-8.6264113,116.864744,https://maps.google.com/?cid=0x0:0x6313ba81cc631baf,
building materials,Toko Bahan Bangunan,UD. AZSIMA,"8RGV+CQ9, Jalan Raya, Kelanir, Seteluk, West Sumbawa Regency, West Nusa Tenggara 84454","Jalan Raya, Kelanir, Seteluk, West Sumbawa Regency",NUSA TENGGARA BARAT,84454,Indonesia,,,,-8.6739655,116.8444985,https://maps.google.com/?cid=0x0:0xa34eda6b6be947f5,
building materials,Toko,Toko Bahan Bangunan UD. TIGA PUTRA,"RT.007 RW. 004 Dusun Tapir Luar Desa Tapir Kec. Seteluk, Air Suning, Kec. Taliwang, Kabupaten Sumbawa Barat, Nusa Tenggara Bar. 84454","Air Suning, Kec. Taliwang, Kabupaten Sumbawa Barat",NUSA TENGGARA BARAT,84454,Indonesia,85338757245.0,,,-8.6447357,116.8553575,https://maps.google.com/?cid=0x0:0xaaaeb0d320927d2a,
building materials,Toko Bahan Bangunan,Agen Kubah Seteluk,"9VH5+JF5, Jl. Raya Seteluk, Air Suning, Kec. Seteluk, Kabupaten Sumbawa Barat, Nusa Tenggara Bar. 84454","Jl. Raya Seteluk, Air Suning, Kec. Seteluk, Kabupaten Sumbawa Barat",NUSA TENGGARA BARAT,84454,Indonesia,,,,-8.6209772,116.8587459,https://maps.google.com/?cid=0x0:0x1367602c14e2d45,
building materials,Toko Bahan Bangunan,GUDANG SUMBER BARU,"8RHV+889, Jalan Raya, Lamusung, Seteluk, West Sumbawa Regency, West Nusa Tenggara 84454","Jalan Raya, Lamusung, Seteluk, West Sumbawa Regency",NUSA TENGGARA BARAT,84454,Indonesia,,,,-8.671717,116.8433644,https://maps.google.com/?cid=0x0:0xab91e1ad99561959,
building materials,Pemasok Bahan Bangunan,UD. PILAR BANGUNAN,"8RHW+WHC, Jl. Raya Seteluk, Lamusung, Kec. Seteluk, Kabupaten Sumbawa Barat, Nusa Tenggara Bar. 84454","Jl. Raya Seteluk, Lamusung, Kec. Seteluk, Kabupaten Sumbawa Barat",NUSA TENGGARA BARAT,84454,Indonesia,,,,-8.6701894,116.8463839,https://maps.google.com/?cid=0x0:0xa752c2853d8d4fa6,
building materials,building materials,Nusa Tenggara Bar. 84457,"Kec. Sekongkang, Kabupaten Sumbawa Barat, Nusa Tenggara Bar.","Kabupaten Sumbawa Barat, Nusa Tenggara Bar.",NUSA TENGGARA BARAT,,Indonesia,,,,-9.0278591,116.9145901,https://maps.google.com/?cid=0x0:0xa55d05be516dbaf,
building materials,Toko Elektronik,Toko Teknik Bangunan,"Jl. Pendidikan No.2, Sekongkang Atas, Kec. Sekongkang, Kabupaten Sumbawa Barat, Nusa Tenggara Bar. 84457","Sekongkang Atas, Kec. Sekongkang, Kabupaten Sumbawa Barat",NUSA TENGGARA BARAT,84457,Indonesia,8175743451.0,,,-8.9668637,116.7607132,https://maps.google.com/?cid=0x0:0x94debd4e5d0ba0d7,
building materials,Toko Bahan Bangunan,UD TAMPAK NAMA,"XRF6+C2P, Tongo, Kec. Sekongkang, Kabupaten Sumbawa Barat, Nusa Tenggara Bar. 84457","Tongo, Kec. Sekongkang, Kabupaten Sumbawa Barat",NUSA TENGGARA BARAT,84457,Indonesia,82340117146.0,,,-9.0264233,116.8100796,https://maps.google.com/?cid=0x0:0xaff393e26227ecbb,
building materials,building materials,Kec. Sekongkang,"Kabupaten Sumbawa Barat, Nusa Tenggara Bar.","Kabupaten Sumbawa Barat, Nusa Tenggara Bar.",NUSA TENGGARA BARAT,,Indonesia,,,,-8.9626823,116.7596499,https://maps.google.com/?cid=0x0:0x441c9c22a41f54c9,
building materials,building materials,Nusa Tenggara Bar. 84458,"Kec. Brang Rea, Kabupaten Sumbawa Barat, Nusa Tenggara Bar.","Kabupaten Sumbawa Barat, Nusa Tenggara Bar.",NUSA TENGGARA BARAT,,Indonesia,,,,-8.6999135,117.0087877,https://maps.google.com/?cid=0x0:0xd32541cc680b77d1,
building materials,Toko Bahan Bangunan,UD. PUSAKA 45 Toko Bangunan,"Jl. Baso Busing No.Desa, Desa Beru, Kec. Taliwang, Kabupaten Sumbawa Barat, Nusa Tenggara Bar. 84458","Desa Beru, Kec. Taliwang, Kabupaten Sumbawa Barat",NUSA TENGGARA BARAT,84458,Indonesia,81339895887.0,,,-8.728729,116.90789,https://maps.google.com/?cid=0x0:0xdffa512d28b70117,
building materials,Toko Bahan Bangunan,TB. Artha Mas,"6VHG+986, Jl. Pd. Pesantren, Mura, Kec. Brang Ene, Kabupaten Sumbawa Barat, Nusa Tenggara Bar. 84455","Jl. Pd. Pesantren, Mura, Kec. Brang Ene, Kabupaten Sumbawa Barat",NUSA TENGGARA BARAT,84455,Indonesia,82342241204.0,,,-8.7715995,116.875767,https://maps.google.com/?cid=0x0:0x79c489e5c471f303,
building materials,Toko Bahan Bangunan,UD,"5W65+6WV, Desa, Mataiyang, Kec. Brang Ene, Kabupaten Sumbawa Barat, Nusa Tenggara Bar. 84355","Desa, Mataiyang, Kec. Brang Ene, Kabupaten Sumbawa Barat",NUSA TENGGARA BARAT,84355,Indonesia,82236844877.0,,,-8.8393967,116.909809,https://maps.google.com/?cid=0x0:0x6184151e4f57e4e0,
building materials,Toko Bahan Bangunan,UD. RIZQY,"FXGX+JWX, Juranalas, Kec. Alas, Kabupaten Sumbawa, Nusa Tenggara Bar. 84353","Juranalas, Kec. Alas, Kabupaten Sumbawa",NUSA TENGGARA BARAT,84353,Indonesia,81239758771.0,,,-8.5233853,116.9998699,https://maps.google.com/?cid=0x0:0x656f193d97148d40,
building materials,Kantor Pemerintah Distrik,Kantor Kecamatan Brang Rea,"Jl. Baso Busing No.- Desa, Tepas, Kec. Brang Rea, Kabupaten Sumbawa Barat, Nusa Tenggara Bar. 84458","Tepas, Kec. Brang Rea, Kabupaten Sumbawa Barat",NUSA TENGGARA BARAT,84458,Indonesia,82339196488.0,,,-8.7201352,116.9159326,https://maps.google.com/?cid=0x0:0xe5c54d25b24ef076,
building materials,Toko Bahan Bangunan,Sumber Bangunan,"JL Kartini, RT 03 RW 01, Brang Bara, Brang Bara, Kec. Sumbawa, Kabupaten Sumbawa, Nusa Tenggara Bar. 84313","RT 03 RW 01, Brang Bara, Brang Bara, Kec. Sumbawa, Kabupaten Sumbawa",NUSA TENGGARA BARAT,84313,Indonesia,37121908.0,,,-8.4999161,117.4244671,https://maps.google.com/?cid=0x0:0xb210178b31b4b53d,
building materials,Toko Bahan Bangunan,Rizki Jaya Bagunan,"FWHV+658, Jl. Mapin, Labuan Mapin, Kec. Alas Bar., Kabupaten Sumbawa, Nusa Tenggara Bar. 84353","Jl. Mapin, Labuan Mapin, Kec. Alas Bar., Kabupaten Sumbawa",NUSA TENGGARA BARAT,84353,Indonesia,,,,-8.5219621,116.9429401,https://maps.google.com/?cid=0x0:0x42ad94e5bd41e299,
building materials,building materials,UD Tekat Makmur,"CWVR+VW, Mapin Kebak, Kec. Alas Bar., Kabupaten Sumbawa, Nusa Tenggara Bar.","Kabupaten Sumbawa, Nusa Tenggara Bar.",NUSA TENGGARA BARAT,,Indonesia,,,,-8.5552729,116.9423342,https://maps.google.com/?cid=0x0:0xfbb1ae864ec9dbf,
building materials,Pemasok Bahan Bangunan,PERSATUAN BANGUNAN,"FCVH+6Q6, Pekat, Kec. Sumbawa, Kabupaten Sumbawa, Nusa Tenggara Bar. 84314","Pekat, Kec. Sumbawa, Kabupaten Sumbawa",NUSA TENGGARA BARAT,84314,Indonesia,81917571882.0,,,-8.5069613,117.4293907,https://maps.google.com/?cid=0x0:0x7e1c514d1135c33c,
building materials,Taman,BENDUNGAN BINTANG BANO,"7XJV+WP, Bangkat Monteh, Kec. Brang Rea, Kabupaten Sumbawa Barat, Nusa Tenggara Bar.","Kabupaten Sumbawa Barat, Nusa Tenggara Bar.",NUSA TENGGARA BARAT,,Indonesia,,,,-8.7116194,116.9879915,https://maps.google.com/?cid=0x0:0x9bc25f0c4963d850,
building materials,Toko Swalayan,TOKO DUA PUTRA,"FW4R+7HH, Jl. Mapin, Mapin Kebak, Kec. Alas Bar., Kabupaten Sumbawa, Nusa Tenggara Bar. 84353","Jl. Mapin, Mapin Kebak, Kec. Alas Bar., Kabupaten Sumbawa",NUSA TENGGARA BARAT,84353,Indonesia,,,,-8.5443238,116.9414924,https://maps.google.com/?cid=0x0:0x88f4b267e5171390,
building materials,Toko,TB. PUTRA JAYA,"4Q48+HGV, Benete, Kec. Maluk, Kabupaten Sumbawa Barat, Nusa Tenggara Bar. 84456","Benete, Kec. Maluk, Kabupaten Sumbawa Barat",NUSA TENGGARA BARAT,84456,Indonesia,87863990444.0,,,-8.893501,116.7663076,https://maps.google.com/?cid=0x0:0x9ba23a3d8870d1c,
building materials,Toko Bahan Bangunan,Toko Bahan Bangunan Persatuan Langam,"9HP6+P2P, Langam, Kec. Lopok, Kabupaten Sumbawa, Nusa Tenggara Bar. 84382","Langam, Kec. Lopok, Kabupaten Sumbawa",NUSA TENGGARA BARAT,84382,Indonesia,82381426190.0,,,-8.6131736,117.5600919,https://maps.google.com/?cid=0x0:0x5686887b9cbd5a30,
building materials,Toko Bahan Bangunan,Depo Bangunan Toko,"JL St Syahrir, RT 005/01, Bugis, Kec. Taliwang, Kabupaten Sumbawa Barat, Nusa Tenggara Bar. 84355","RT 005/01, Bugis, Kec. Taliwang, Kabupaten Sumbawa Barat",NUSA TENGGARA BARAT,84355,Indonesia,37281797.0,,,-8.7465406,116.8344096,https://maps.google.com/?cid=0x0:0x1c089e160c4a5868,
building materials,building materials,Kec. Brang Rea,"Kabupaten Sumbawa Barat, Nusa Tenggara Bar.","Kabupaten Sumbawa Barat, Nusa Tenggara Bar.",NUSA TENGGARA BARAT,,Indonesia,,,,-8.7135824,116.9178603,https://maps.google.com/?cid=0x0:0xcddb557fd4509d8c,
building materials,building materials,Nusa Tenggara Bar. 84454,"Kec. Seteluk, Kabupaten Sumbawa Barat, Nusa Tenggara Bar.","Kabupaten Sumbawa Barat, Nusa Tenggara Bar.",NUSA TENGGARA BARAT,,Indonesia,,,,-8.5906982,116.8674757,https://maps.google.com/?cid=0x0:0xabcb20c0c162b41d,
building materials,Toko Bahan Bangunan,UD Fauzi,"9VJ5+67, Tebo, Kec. Poto Tano, Kabupaten Sumbawa Barat, Nusa Tenggara Bar. 84454","Tebo, Kec. Poto Tano, Kabupaten Sumbawa Barat",NUSA TENGGARA BARAT,84454,Indonesia,,,,-8.6192122,116.8579074,https://maps.google.com/?cid=0x0:0xe77fe499a69db45f,
building materials,Toko Bahan Bangunan,Nopan Indah Gypsum,"7V82+593, JL. Lang Sasat, Dalam, Kec. Taliwang, Kabupaten Sumbawa Barat, Nusa Tenggara Bar. 84455","JL. Lang Sasat, Dalam, Kec. Taliwang, Kabupaten Sumbawa Barat",NUSA TENGGARA BARAT,84455,Indonesia,81339668205.0,,,-8.7346019,116.8509081,https://maps.google.com/?cid=0x0:0xd31631c4b813b7f3,
building materials,Toko Bahan Bangunan,UD. Amel,"9RVW+HX4, Jalan Raya, Senayan, Poto Tano, West Sumbawa Regency, West Nusa Tenggara 84454","Jalan Raya, Senayan, Poto Tano, West Sumbawa Regency",NUSA TENGGARA BARAT,84454,Indonesia,,,,-8.6061144,116.8474521,https://maps.google.com/?cid=0x0:0x9bc96a61544d4ccf,
building materials,Toko Bahan Bangunan,GUDANG SUMBER BARU,"8RHV+889, Jalan Raya, Lamusung, Seteluk, West Sumbawa Regency, West Nusa Tenggara 84454","Jalan Raya, Lamusung, Seteluk, West Sumbawa Regency",NUSA TENGGARA BARAT,84454,Indonesia,,,,-8.671717,116.8433644,https://maps.google.com/?cid=0x0:0xab91e1ad99561959,
building materials,Toko Bahan Bangunan,UD DUA PUTRA LAMUSUNG,"8VW2+QC7, Jl. Raya Seteluk, Lamusung, Kec. Seteluk, Kabupaten Sumbawa Barat, Nusa Tenggara Bar. 84454","Jl. Raya Seteluk, Lamusung, Kec. Seteluk, Kabupaten Sumbawa Barat",NUSA TENGGARA BARAT,84454,Indonesia,82339018121.0,,,-8.653084,116.851052,https://maps.google.com/?cid=0x0:0xb90429fb76e58972,
building materials,Toko Bahan Bangunan,TK MULYA JAYA,"Jl. Raya Seteluk No.21, Air Suning, Kec. Seteluk, Kabupaten Sumbawa Barat, Nusa Tenggara Bar. 84454","Air Suning, Kec. Seteluk, Kabupaten Sumbawa Barat",NUSA TENGGARA BARAT,84454,Indonesia,,,,-8.6461745,116.8556513,https://maps.google.com/?cid=0x0:0xae9882c72d73d96f,
building materials,Toko Bahan Bangunan,Tk. Sakti Bangunan,"9VF7+CVQ, Jalan Raya, Seteluk Tengah, Seteluk, West Sumbawa Regency, West Nusa Tenggara 84454","Jalan Raya, Seteluk Tengah, Seteluk, West Sumbawa Regency",NUSA TENGGARA BARAT,84454,Indonesia,81249665679.0,,,-8.6264113,116.864744,https://maps.google.com/?cid=0x0:0x6313ba81cc631baf,
building materials,Toko Bahan Bangunan,Ud alam jaya bangunan,"8VX3+PMV, Air Suning, Kec. Seteluk, Kabupaten Sumbawa Barat, Nusa Tenggara Bar. 84454","Air Suning, Kec. Seteluk, Kabupaten Sumbawa Barat",NUSA TENGGARA BARAT,84454,Indonesia,,,,-8.6506254,116.854161,https://maps.google.com/?cid=0x0:0x635a519180c0c509,
building materials,Toko,Toko Bahan Bangunan UD. TIGA PUTRA,"RT.007 RW. 004 Dusun Tapir Luar Desa Tapir Kec. Seteluk, Air Suning, Kec. Taliwang, Kabupaten Sumbawa Barat, Nusa Tenggara Bar. 84454","Air Suning, Kec. Taliwang, Kabupaten Sumbawa Barat",NUSA TENGGARA BARAT,84454,Indonesia,85338757245.0,,,-8.6447357,116.8553575,https://maps.google.com/?cid=0x0:0xaaaeb0d320927d2a,
building materials,Toko Bahan Bangunan,Depo Bangunan Toko,"JL St Syahrir, RT 005/01, Bugis, Kec. Taliwang, Kabupaten Sumbawa Barat, Nusa Tenggara Bar. 84355","RT 005/01, Bugis, Kec. Taliwang, Kabupaten Sumbawa Barat",NUSA TENGGARA BARAT,84355,Indonesia,37281797.0,,,-8.7465406,116.8344096,https://maps.google.com/?cid=0x0:0x1c089e160c4a5868,
building materials,Toko Bahan Bangunan,Bang Yusuf,"7V72+8F8, JL. Lang Sasat, Dalam, Kec. Taliwang, Kabupaten Sumbawa Barat, Nusa Tenggara Bar. 84455","JL. Lang Sasat, Dalam, Kec. Taliwang, Kabupaten Sumbawa Barat",NUSA TENGGARA BARAT,84455,Indonesia,81915820955.0,,,-8.7367203,116.8512113,https://maps.google.com/?cid=0x0:0x679a7bc59a5eecd8,
building materials,Toko Bahan Bangunan,UD. Gian Putra,"Jl. Pd. Pesantren No.99, Manemeng, Kec. Brang Ene, Kabupaten Sumbawa Barat, Nusa Tenggara Bar. 84455","Manemeng, Kec. Brang Ene, Kabupaten Sumbawa Barat",NUSA TENGGARA BARAT,84455,Indonesia,,,,-8.7664972,116.864616,https://maps.google.com/?cid=0x0:0xfb70dcec31499728,
building materials,Toko Bahan Bangunan,Gudang Cv.Putra Brama,"7V36+49M, Jl. Lintas Taliwang, Tamekan, Kec. Taliwang, Kabupaten Sumbawa Barat, Nusa Tenggara Bar. 84455","Jl. Lintas Taliwang, Tamekan, Kec. Taliwang, Kabupaten Sumbawa Barat",NUSA TENGGARA BARAT,84455,Indonesia,85238192154.0,,,-8.7471501,116.8609356,https://maps.google.com/?cid=0x0:0x72214ffad90109bd,
building materials,Toko Bahan Bangunan,Ud.Cahaya Bangunan,"7V25+J7V Al-Ihlas, Jl. Pd. Pesantren JL, Dalam, Taliwang, West Sumbawa Regency, West Nusa Tenggara 84455","Jl. Pd. Pesantren JL, Dalam, Taliwang, West Sumbawa Regency",NUSA TENGGARA BARAT,84455,Indonesia,81339778911.0,,,-8.7483764,116.8581843,https://maps.google.com/?cid=0x0:0x43908cebd3732b04,
building materials,Toko Bahan Bangunan,UD. AZSIMA,"8RGV+CQ9, Jalan Raya, Kelanir, Seteluk, West Sumbawa Regency, West Nusa Tenggara 84454","Jalan Raya, Kelanir, Seteluk, West Sumbawa Regency",NUSA TENGGARA BARAT,84454,Indonesia,,,,-8.6739655,116.8444985,https://maps.google.com/?cid=0x0:0xa34eda6b6be947f5,
building materials,Toko Bahan Bangunan,UD. PUSAKA 45 Toko Bangunan,"Jl. Baso Busing No.Desa, Desa Beru, Kec. Taliwang, Kabupaten Sumbawa Barat, Nusa Tenggara Bar. 84458","Desa Beru, Kec. Taliwang, Kabupaten Sumbawa Barat",NUSA TENGGARA BARAT,84458,Indonesia,81339895887.0,,,-8.728729,116.90789,https://maps.google.com/?cid=0x0:0xdffa512d28b70117,
building materials,Pemasok Bahan Bangunan,UD. PILAR BANGUNAN,"8RHW+WHC, Jl. Raya Seteluk, Lamusung, Kec. Seteluk, Kabupaten Sumbawa Barat, Nusa Tenggara Bar. 84454","Jl. Raya Seteluk, Lamusung, Kec. Seteluk, Kabupaten Sumbawa Barat",NUSA TENGGARA BARAT,84454,Indonesia,,,,-8.6701894,116.8463839,https://maps.google.com/?cid=0x0:0xa752c2853d8d4fa6,
building materials,Toko Bahan Bangunan,UD Pandu,"7R4F+HJ6, Unnamed Road, Banjar, Kec. Taliwang, Kabupaten Sumbawa Barat, Nusa Tenggara Bar. 84455","Unnamed Road, Banjar, Kec. Taliwang, Kabupaten Sumbawa Barat",NUSA TENGGARA BARAT,84455,Indonesia,,,,-8.743578,116.8240186,https://maps.google.com/?cid=0x0:0x54c58c6ee8669806,
building materials,Toko Bahan Bangunan,U.D PUTRA JAYA,"Jl. Raya Taliwang, Sampir, Kec. Taliwang, Kabupaten Sumbawa Barat, Nusa Tenggara Bar. 84452","Sampir, Kec. Taliwang, Kabupaten Sumbawa Barat",NUSA TENGGARA BARAT,84452,Indonesia,82340008122.0,,,-8.7240458,116.854266,https://maps.google.com/?cid=0x0:0xb93b8d48c0a7bdc9,
building materials,building materials,Kec. Poto Tano,"Kabupaten Sumbawa Barat, Nusa Tenggara Bar.","Kabupaten Sumbawa Barat, Nusa Tenggara Bar.",NUSA TENGGARA BARAT,,Indonesia,,,,-8.6112479,116.8509959,https://maps.google.com/?cid=0x0:0x7be8887b6d6e9b35,
building materials,Pemasok kayu,tempat somel. dan mebel,"Air Suning, sumbawa, Kabupaten Sumbawa Barat, Nusa Tenggara Bar. 84354","sumbawa, Kabupaten Sumbawa Barat",NUSA TENGGARA BARAT,84354,Indonesia,85253620832.0,,,-8.6482622,116.8526578,https://maps.google.com/?cid=0x0:0x20ed5df6eb212299,
building materials,Toko,TB. PUTRA JAYA,"4Q48+HGV, Benete, Kec. Maluk, Kabupaten Sumbawa Barat, Nusa Tenggara Bar. 84456","Benete, Kec. Maluk, Kabupaten Sumbawa Barat",NUSA TENGGARA BARAT,84456,Indonesia,87863990444.0,,,-8.893501,116.7663076,https://maps.google.com/?cid=0x0:0x9ba23a3d8870d1c,
building materials,building materials,Nusa Tenggara Bar. 84455,"Kabupaten Sumbawa Barat, Nusa Tenggara Bar.","Kabupaten Sumbawa Barat, Nusa Tenggara Bar.",NUSA TENGGARA BARAT,,Indonesia,,,,-8.7907453,116.8674757,https://maps.google.com/?cid=0x0:0x5fda0016832273b3,
building materials,Toko Bahan Bangunan,TB. Artha Mas,"6VHG+986, Jl. Pd. Pesantren, Mura, Kec. Brang Ene, Kabupaten Sumbawa Barat, Nusa Tenggara Bar. 84455","Jl. Pd. Pesantren, Mura, Kec. Brang Ene, Kabupaten Sumbawa Barat",NUSA TENGGARA BARAT,84455,Indonesia,82342241204.0,,,-8.7715995,116.875767,https://maps.google.com/?cid=0x0:0x79c489e5c471f303,
building materials,Toko Bahan Bangunan,UD. SARI MANDIRI,"Jln. Generong No.KM.3, Manemeng, Kec. Brang Ene, Kabupaten Sumbawa Barat, Nusa Tenggara Bar. 84355","Manemeng, Kec. Brang Ene, Kabupaten Sumbawa Barat",NUSA TENGGARA BARAT,84355,Indonesia,85904272594.0,,,-8.7743383,116.8681932,https://maps.google.com/?cid=0x0:0xf16c616f345392a7,
building materials,Toko Bahan Bangunan,Nopan Indah Gypsum,"7V82+593, JL. Lang Sasat, Dalam, Kec. Taliwang, Kabupaten Sumbawa Barat, Nusa Tenggara Bar. 84455","JL. Lang Sasat, Dalam, Kec. Taliwang, Kabupaten Sumbawa Barat",NUSA TENGGARA BARAT,84455,Indonesia,81339668205.0,,,-8.7346019,116.8509081,https://maps.google.com/?cid=0x0:0xd31631c4b813b7f3,
building materials,Toko Perlengkapan Rumah,UD. NIRMALA,"6RRJ+463, Jalan Raya, Telaga Bertong, Taliwang, West Sumbawa Regency, West Nusa Tenggara 84455","Jalan Raya, Telaga Bertong, Taliwang, West Sumbawa Regency",NUSA TENGGARA BARAT,84455,Indonesia,85239052302.0,,,-8.7597485,116.8305372,https://maps.google.com/?cid=0x0:0xef467d1e48df59e6,
building materials,Toko Bahan Bangunan,RAJA GALVALUM,"6RQJ+J3H, Telaga Bertong, Kec. Taliwang, Kabupaten Sumbawa Barat, Nusa Tenggara Bar. 84455","Telaga Bertong, Kec. Taliwang, Kabupaten Sumbawa Barat",NUSA TENGGARA BARAT,84455,Indonesia,82340073337.0,,,-8.7602861,116.8303835,https://maps.google.com/?cid=0x0:0x715932b604006ade,
building materials,Toko Bahan Bangunan,Gudang Cv.Putra Brama,"7V36+49M, Jl. Lintas Taliwang, Tamekan, Kec. Taliwang, Kabupaten Sumbawa Barat, Nusa Tenggara Bar. 84455","Jl. Lintas Taliwang, Tamekan, Kec. Taliwang, Kabupaten Sumbawa Barat",NUSA TENGGARA BARAT,84455,Indonesia,85238192154.0,,,-8.7471501,116.8609356,https://maps.google.com/?cid=0x0:0x72214ffad90109bd,
building materials,Toko Bahan Bangunan,UD. PUSAKA 45 Toko Bangunan,"Jl. Baso Busing No.Desa, Desa Beru, Kec. Taliwang, Kabupaten Sumbawa Barat, Nusa Tenggara Bar. 84458","Desa Beru, Kec. Taliwang, Kabupaten Sumbawa Barat",NUSA TENGGARA BARAT,84458,Indonesia,81339895887.0,,,-8.728729,116.90789,https://maps.google.com/?cid=0x0:0xdffa512d28b70117,
building materials,Toko Bahan Bangunan,Toko SAHABAT,"Bugis, Kec. Taliwang, Kabupaten Sumbawa Barat, Nusa Tenggara Bar. 84455","Kec. Taliwang, Kabupaten Sumbawa Barat",NUSA TENGGARA BARAT,84455,Indonesia,82341581315.0,,,-8.7486614,116.8308238,https://maps.google.com/?cid=0x0:0x8b8936b93636d7b7,
building materials,Toko Bahan Bangunan,UD,"5W65+6WV, Desa, Mataiyang, Kec. Brang Ene, Kabupaten Sumbawa Barat, Nusa Tenggara Bar. 84355","Desa, Mataiyang, Kec. Brang Ene, Kabupaten Sumbawa Barat",NUSA TENGGARA BARAT,84355,Indonesia,82236844877.0,,,-8.8393967,116.909809,https://maps.google.com/?cid=0x0:0x6184151e4f57e4e0,
building materials,Toko Bahan Bangunan,Bang Yusuf,"7V72+8F8, JL. Lang Sasat, Dalam, Kec. Taliwang, Kabupaten Sumbawa Barat, Nusa Tenggara Bar. 84455","JL. Lang Sasat, Dalam, Kec. Taliwang, Kabupaten Sumbawa Barat",NUSA TENGGARA BARAT,84455,Indonesia,81915820955.0,,,-8.7367203,116.8512113,https://maps.google.com/?cid=0x0:0x679a7bc59a5eecd8,
building materials,Toko Bahan Bangunan,Depo Bangunan Toko,"JL St Syahrir, RT 005/01, Bugis, Kec. Taliwang, Kabupaten Sumbawa Barat, Nusa Tenggara Bar. 84355","RT 005/01, Bugis, Kec. Taliwang, Kabupaten Sumbawa Barat",NUSA TENGGARA BARAT,84355,Indonesia,37281797.0,,,-8.7465406,116.8344096,https://maps.google.com/?cid=0x0:0x1c089e160c4a5868,
building materials,Toko Bahan Bangunan,Ud.Cahaya Bangunan,"7V25+J7V Al-Ihlas, Jl. Pd. Pesantren JL, Dalam, Taliwang, West Sumbawa Regency, West Nusa Tenggara 84455","Jl. Pd. Pesantren JL, Dalam, Taliwang, West Sumbawa Regency",NUSA TENGGARA BARAT,84455,Indonesia,81339778911.0,,,-8.7483764,116.8581843,https://maps.google.com/?cid=0x0:0x43908cebd3732b04,
building materials,Toko Bahan Bangunan,TB. Abdi Jaya,"Jl. Pendidikan, Goa, Kec. Jereweh, Kabupaten Sumbawa Barat, Nusa Tenggara Bar. 84456","Goa, Kec. Jereweh, Kabupaten Sumbawa Barat",NUSA TENGGARA BARAT,84456,Indonesia,81803803804.0,,,-8.848384,116.8182737,https://maps.google.com/?cid=0x0:0xbf9f143789caef6b,
building materials,Toko Bahan Bangunan,UD. SAHABAT,"7R4W+V5W, Jl. Ps. Baru, kampung arab, Dalam, Kec. Taliwang, Kabupaten Sumbawa Barat, Nusa Tenggara Bar. 84455","Jl. Ps. Baru, kampung arab, Dalam, Kec. Taliwang, Kabupaten Sumbawa Barat",NUSA TENGGARA BARAT,84455,Indonesia,,,,-8.7427593,116.8454638,https://maps.google.com/?cid=0x0:0xb133b2fc1f13c64c,
building materials,Toko Bahan Bangunan,UD Pandu,"7R4F+HJ6, Unnamed Road, Banjar, Kec. Taliwang, Kabupaten Sumbawa Barat, Nusa Tenggara Bar. 84455","Unnamed Road, Banjar, Kec. Taliwang, Kabupaten Sumbawa Barat",NUSA TENGGARA BARAT,84455,Indonesia,,,,-8.743578,116.8240186,https://maps.google.com/?cid=0x0:0x54c58c6ee8669806,
building materials,Toko Bahan Bangunan,Toko Senter Bangunan,"7R4W+QPW, Jl. Ps. Baru, Dalam, Kec. Taliwang, Kabupaten Sumbawa Barat, Nusa Tenggara Bar. 84455","Jl. Ps. Baru, Dalam, Kec. Taliwang, Kabupaten Sumbawa Barat",NUSA TENGGARA BARAT,84455,Indonesia,37281059.0,,,-8.7430177,116.8468144,https://maps.google.com/?cid=0x0:0x4caf7cd21eb7421c,
building materials,Toko Pakaian,UD.Semoga Sukses,"Tapir, Kec. Seteluk, Kabupaten Sumbawa Barat, Nusa Tenggara Bar. 84454","Kec. Seteluk, Kabupaten Sumbawa Barat",NUSA TENGGARA BARAT,84454,Indonesia,81246540687.0,,,-8.6425492,116.8554132,https://maps.google.com/?cid=0x0:0xa43eae842cb2554b,
building materials,Toko Bahan Bangunan,UD. ALAM INDAH,"7R6X+C42, Dalam, Kec. Taliwang, Kabupaten Sumbawa Barat, Nusa Tenggara Bar. 84455","Dalam, Kec. Taliwang, Kabupaten Sumbawa Barat",NUSA TENGGARA BARAT,84455,Indonesia,81237426655.0,,,-8.7389766,116.8477779,https://maps.google.com/?cid=0x0:0x64a070efff105fb,
building materials,Toko Perlengkapan Rumah,Taliwang Gypsum,"7R4X+PFR, Jl. Ps. Baru, Dalam, Kec. Taliwang, Kabupaten Sumbawa Barat, Nusa Tenggara Bar. 84455","Jl. Ps. Baru, Dalam, Kec. Taliwang, Kabupaten Sumbawa Barat",NUSA TENGGARA BARAT,84455,Indonesia,81339594628.0,,,-8.7431415,116.8486275,https://maps.google.com/?cid=0x0:0x91a5ba486731e41d,
building materials,building materials,Kec. Brang Ene,"Kabupaten Sumbawa Barat, Nusa Tenggara Bar.","Kabupaten Sumbawa Barat, Nusa Tenggara Bar.",NUSA TENGGARA BARAT,,Indonesia,,,,-8.7719585,116.8786607,https://maps.google.com/?cid=0x0:0xc4ea915074dc60f7,
building materials,Toko Bahan Bangunan,Sumber Bangunan,"JL Kartini, RT 03 RW 01, Brang Bara, Brang Bara, Kec. Sumbawa, Kabupaten Sumbawa, Nusa Tenggara Bar. 84313","RT 03 RW 01, Brang Bara, Brang Bara, Kec. Sumbawa, Kabupaten Sumbawa",NUSA TENGGARA BARAT,84313,Indonesia,37121908.0,,,-8.4999161,117.4244671,https://maps.google.com/?cid=0x0:0xb210178b31b4b53d,
building materials,Toko Bahan Bangunan,Tk Avina,"5RF8+3WV, Jalan, Dasan Anyar, Jereweh, West Sumbawa Regency, West Nusa Tenggara 84455","Jalan, Dasan Anyar, Jereweh, West Sumbawa Regency",NUSA TENGGARA BARAT,84455,Indonesia,,,,-8.827266,116.8172933,https://maps.google.com/?cid=0x0:0x5df5e38b4eac776,
building materials,Pemasok Bahan Bangunan,PERSATUAN BANGUNAN,"FCVH+6Q6, Pekat, Kec. Sumbawa, Kabupaten Sumbawa, Nusa Tenggara Bar. 84314","Pekat, Kec. Sumbawa, Kabupaten Sumbawa",NUSA TENGGARA BARAT,84314,Indonesia,81917571882.0,,,-8.5069613,117.4293907,https://maps.google.com/?cid=0x0:0x7e1c514d1135c33c,
building materials,Toko,TB. PUTRA JAYA,"4Q48+HGV, Benete, Kec. Maluk, Kabupaten Sumbawa Barat, Nusa Tenggara Bar. 84456","Benete, Kec. Maluk, Kabupaten Sumbawa Barat",NUSA TENGGARA BARAT,84456,Indonesia,87863990444.0,,,-8.893501,116.7663076,https://maps.google.com/?cid=0x0:0x9ba23a3d8870d1c,
building materials,Pusat Perbelanjaan,ALDO JAYA BANGUNAN,"3QQ2+Q55, Unnamed Road, Mantun, Kec. Maluk, Kabupaten Sumbawa Barat, Nusa Tenggara Bar. 84456","Unnamed Road, Mantun, Kec. Maluk, Kabupaten Sumbawa Barat",NUSA TENGGARA BARAT,84456,Indonesia,,,,-8.9106081,116.7504846,https://maps.google.com/?cid=0x0:0xe2906b0fb843a204,
building materials,Jasa Konstruksi dan Bangunan,"PT ALDO JAYA (BANGUNAN, MEUBEL, ELEKTRONIK)","3QP3+762, Maluk, Kec. Maluk, Kabupaten Sumbawa Barat, Nusa Tenggara Bar. 84456","Maluk, Kec. Maluk, Kabupaten Sumbawa Barat",NUSA TENGGARA BARAT,84456,Indonesia,,,,-8.9143652,116.7530295,https://maps.google.com/?cid=0x0:0xce128e6e3040e92a,
building materials,Toko Bahan Bangunan,Jotun Multicolor Center,"3QQ2+984, Jalan Raya, Mantun, Maluk, West Sumbawa Regency, West Nusa Tenggara 84456","Jalan Raya, Mantun, Maluk, West Sumbawa Regency",NUSA TENGGARA BARAT,84456,Indonesia,,,,-8.9116083,116.7508202,https://maps.google.com/?cid=0x0:0xdc64f94c315ca50a,
building materials,Toko Perlengkapan Rumah,Tk Rizqullah Maluk,"3QP3+6J2, pasar, Maluk, Kec. Maluk, Kabupaten Sumbawa Barat, Nusa Tenggara Bar. 84456","pasar, Maluk, Kec. Maluk, Kabupaten Sumbawa Barat",NUSA TENGGARA BARAT,84456,Indonesia,87766561022.0,,,-8.9144759,116.7540066,https://maps.google.com/?cid=0x0:0x57a8847ec8598ef5,
building materials,Toko Bahan Bangunan,Toko Bangunan UD.YUNIMAR,"3PPW+HPH, Jl. Raya Pasir Putih, Mantun, Maluk, West Sumbawa Regency, West Nusa Tenggara","Kabupaten Sumbawa Barat, Nusa Tenggara Bar.",NUSA TENGGARA BARAT,,Indonesia,,,,-8.9135543,116.7468585,https://maps.google.com/?cid=0x0:0xe1c60cead5be130e,
building improvement,building improvement,Nusa Tenggara Bar. 84456,"Kec. Jereweh, Kabupaten Sumbawa Barat, Nusa Tenggara Bar.","Kabupaten Sumbawa Barat, Nusa Tenggara Bar.",NUSA TENGGARA BARAT,,Indonesia,,,,-8.947527,116.9145901,https://maps.google.com/?cid=0x0:0xd8d94f4df4b390cb,
building improvement,Perhimpunan Pengembang Perumahan,Benete desa jereweh,"4Q48+GW8, Benete, Kec. Maluk, Kabupaten Sumbawa Barat, Nusa Tenggara Bar.","Kabupaten Sumbawa Barat, Nusa Tenggara Bar.",NUSA TENGGARA BARAT,,Indonesia,,,,-8.8937001,116.7673237,https://maps.google.com/?cid=0x0:0xcb1993a7cc2e7424,
building improvement,Kantor Perusahaan,PT Tradecorp Indonesia - Sumbawa Branch,"4Q3F+JWM, Benete, Kec. Maluk, Kabupaten Sumbawa Barat, Nusa Tenggara Bar. 84456","Benete, Kec. Maluk, Kabupaten Sumbawa Barat",NUSA TENGGARA BARAT,84456,Indonesia,81196512156.0,,,-8.8959474,116.7748127,https://maps.google.com/?cid=0x0:0x1bd8a398441e8e65,
building improvement,building improvement,Dapur Bata Jereweh,"5R6H+VPP, Dasan Anyar, Kec. Jereweh, Kabupaten Sumbawa Barat, Nusa Tenggara Bar. 84456","Dasan Anyar, Kec. Jereweh, Kabupaten Sumbawa Barat",NUSA TENGGARA BARAT,84456,Indonesia,,,,-8.8377753,116.8293281,https://maps.google.com/?cid=0x0:0x3c3aebc387bce59a,
building improvement,building improvement,Taliwang,"Kuang, Kec. Taliwang, Kabupaten Sumbawa Barat, Nusa Tenggara Bar.","Kabupaten Sumbawa Barat, Nusa Tenggara Bar.",NUSA TENGGARA BARAT,,Indonesia,,,,-8.751946,116.854599,https://maps.google.com/?cid=0x0:0xf98bdc32d4193ccb,
building improvement,Toko Bahan Bangunan,BIN TAHA Teknik  Bangunan,"Arken, Kec. Taliwang, Kabupaten Sumbawa Barat, Nusa Tenggara Bar. 84455","Kec. Taliwang, Kabupaten Sumbawa Barat",NUSA TENGGARA BARAT,84455,Indonesia,81246320617.0,,,-8.7428808,116.8475926,https://maps.google.com/?cid=0x0:0xdf06c77e8d11916c,
building improvement,Toko Bahan Bangunan,UD. Taliwang Bangunan,"7R2P+2C8, Jalan Raya, Telaga Bertong, Taliwang, West Sumbawa Regency, West Nusa Tenggara 84455","Jalan Raya, Telaga Bertong, Taliwang, West Sumbawa Regency",NUSA TENGGARA BARAT,84455,Indonesia,,,,-8.7499716,116.8360678,https://maps.google.com/?cid=0x0:0x968492bd91c92f40,
building improvement,Toko Bahan Bangunan,Toko Senter Bangunan,"7R4W+QPW, Jl. Ps. Baru, Dalam, Kec. Taliwang, Kabupaten Sumbawa Barat, Nusa Tenggara Bar. 84455","Jl. Ps. Baru, Dalam, Kec. Taliwang, Kabupaten Sumbawa Barat",NUSA TENGGARA BARAT,84455,Indonesia,37281059.0,,,-8.7430177,116.8468144,https://maps.google.com/?cid=0x0:0x4caf7cd21eb7421c,
building improvement,Kafe,ISG Coffe  Eatery,"Kuang, Kec. Taliwang, Kabupaten Sumbawa Barat, Nusa Tenggara Bar.","Kabupaten Sumbawa Barat, Nusa Tenggara Bar.",NUSA TENGGARA BARAT,,Indonesia,,,,-8.7501871,116.8385539,https://maps.google.com/?cid=0x0:0x96a66e4ef435435e,
building improvement,Komplek perumahan,Taliwang,"7R2J+359, Jl. Ps. Baru, Dalam, Kec. Taliwang, Kabupaten Sumbawa Barat, Nusa Tenggara Bar. 84455","Jl. Ps. Baru, Dalam, Kec. Taliwang, Kabupaten Sumbawa Barat",NUSA TENGGARA BARAT,84455,Indonesia,,,,-8.7498465,116.8304772,https://maps.google.com/?cid=0x0:0x9b1f8a5fe98ef01,
building improvement,Komplek perumahan,Perumahan Graha Bintang Perdana,"7R4G+898, Banjar, Kec. Taliwang, Kabupaten Sumbawa Barat, Nusa Tenggara Bar. 84455","Banjar, Kec. Taliwang, Kabupaten Sumbawa Barat",NUSA TENGGARA BARAT,84455,Indonesia,,,,-8.7442117,116.8259564,https://maps.google.com/?cid=0x0:0x8ce715ac2dcbcb7c,
building improvement,Pembangunan Perumahan,BMD TANAH BANGUNAN,"7V23+VCF, Kuang, Kec. Taliwang, Kabupaten Sumbawa Barat, Nusa Tenggara Bar. 84455","Kuang, Kec. Taliwang, Kabupaten Sumbawa Barat",NUSA TENGGARA BARAT,84455,Indonesia,,,,-8.7478105,116.8535464,https://maps.google.com/?cid=0x0:0xfd643ad90016caa0,
building improvement,Gedung Apartemen,TB 04,"7V72+XWJ, Dalam, Kec. Taliwang, Kabupaten Sumbawa Barat, Nusa Tenggara Bar. 84455","Dalam, Kec. Taliwang, Kabupaten Sumbawa Barat",NUSA TENGGARA BARAT,84455,Indonesia,,,,-8.73503,116.8522801,https://maps.google.com/?cid=0x0:0x241e5f9c0796a364,
building improvement,building improvement,Mall Pelayanan Publik Kabupaten Sumbawa Barat,"6VX3+3XW Komplek KTC, Kuang, Taliwang, West Sumbawa Regency, West Nusa Tenggara 84455","Kuang, Taliwang, West Sumbawa Regency",NUSA TENGGARA BARAT,84455,Indonesia,,,,-8.7523184,116.8550749,https://maps.google.com/?cid=0x0:0x5f71a2c475081b32,
building improvement,Tukang las aluminium,TALIWANG ALUMINIUM,"Dalam, Kec. Taliwang, Kabupaten Sumbawa Barat, Nusa Tenggara Bar. 83352","Kec. Taliwang, Kabupaten Sumbawa Barat",NUSA TENGGARA BARAT,83352,Indonesia,82340076798.0,,,-8.7411344,116.8501981,https://maps.google.com/?cid=0x0:0x7e9abb131240aff5,
building improvement,Pondok,BTN Baiti Janati,"Bugis, Kec. Taliwang, Kabupaten Sumbawa Barat, Nusa Tenggara Bar. 84455","Kec. Taliwang, Kabupaten Sumbawa Barat",NUSA TENGGARA BARAT,84455,Indonesia,,,,-8.7504445,116.8278113,https://maps.google.com/?cid=0x0:0x4cd4e30d7709d88c,
building improvement,Gereja Kristen,GBI R.O.C.K Taliwang - Sumbawa Barat,"6RJH+3J3, Telaga Bertong, Kec. Taliwang, Kabupaten Sumbawa Barat, Nusa Tenggara Bar. 84455","Telaga Bertong, Kec. Taliwang, Kabupaten Sumbawa Barat",NUSA TENGGARA BARAT,84455,Indonesia,85239577733.0,,,-8.7698585,116.8290575,https://maps.google.com/?cid=0x0:0xd3329f034b3b9c8b,
building improvement,Rumah wisata,Perumahan Graha Bintang Bertong,"6RGH+Q3C, Telaga Bertong, Kec. Taliwang, Kabupaten Sumbawa Barat, Nusa Tenggara Bar.","Kabupaten Sumbawa Barat, Nusa Tenggara Bar.",NUSA TENGGARA BARAT,,Indonesia,,,,-8.7728118,116.8274042,https://maps.google.com/?cid=0x0:0x4426684c0561df24,
building improvement,Perusahaan Konstruksi,"Direksi Keet PT PP (Persero),Tbk Proyek Bandara Amman Mineral Poto Tano","CQ2V+FQ, Kiantar, Kec. Poto Tano, Kabupaten Sumbawa Barat, Nusa Tenggara Bar. 84454","Kiantar, Kec. Poto Tano, Kabupaten Sumbawa Barat",NUSA TENGGARA BARAT,84454,Indonesia,82112001434.0,,,-8.5988595,116.7944177,https://maps.google.com/?cid=0x0:0x3655a5e9fa0aee58,
building improvement,building improvement,Kec. Taliwang,"Kabupaten Sumbawa Barat, Nusa Tenggara Bar.","Kabupaten Sumbawa Barat, Nusa Tenggara Bar.",NUSA TENGGARA BARAT,,Indonesia,,,,-8.7421518,116.849907,https://maps.google.com/?cid=0x0:0x5f3ccf95bc1870bd,
building improvement,Kantor Pemerintahan Daerah,Kantor Bupati Sumbawa Barat,"6VW4+53H, Kuang, Kec. Taliwang, Kabupaten Sumbawa Barat, Nusa Tenggara Bar. 84455","Kuang, Kec. Taliwang, Kabupaten Sumbawa Barat",NUSA TENGGARA BARAT,84455,Indonesia,,,,-8.7545724,116.8552376,https://maps.google.com/?cid=0x0:0x6ca1030e53374388,
building improvement,Taman Kota,Alun-alun Kota Taliwang,"7V33+4F4, Jl. Undru, Kuang, Kec. Taliwang, Kabupaten Sumbawa Barat, Nusa Tenggara Bar. 84455","Jl. Undru, Kuang, Kec. Taliwang, Kabupaten Sumbawa Barat",NUSA TENGGARA BARAT,84455,Indonesia,,,,-8.747242,116.8537064,https://maps.google.com/?cid=0x0:0x9a75b7cc66db6b41,
building improvement,Sekolah,TKN 4 TALIWANG,"7R5W+5J4, Jl. Jend. Sudirman, Bugis, Kec. Taliwang, Kabupaten Sumbawa Barat, Nusa Tenggara Bar. 84455","Jl. Jend. Sudirman, Bugis, Kec. Taliwang, Kabupaten Sumbawa Barat",NUSA TENGGARA BARAT,84455,Indonesia,85205020008.0,,,-8.7421039,116.8465837,https://maps.google.com/?cid=0x0:0xdc4d5334e672fbcf,
building improvement,Kantor Pemerintahan Wilayah,Dinas Lingkungan Hidup Sumbawa Barat,"6VW2+P4V, Unnamed Road, Kuang, Kec. Taliwang, Kabupaten Sumbawa Barat, Nusa Tenggara Bar. 84455","Unnamed Road, Kuang, Kec. Taliwang, Kabupaten Sumbawa Barat",NUSA TENGGARA BARAT,84455,Indonesia,,,,-8.7531266,116.8502899,https://maps.google.com/?cid=0x0:0x4e1cc4fdfe12ac3e,
building improvement,Pembangkit Listrik,PLTD Taliwang,"7R4Q+492, Bugis, Kec. Taliwang, Kabupaten Sumbawa Barat, Nusa Tenggara Bar. 84455","Bugis, Kec. Taliwang, Kabupaten Sumbawa Barat",NUSA TENGGARA BARAT,84455,Indonesia,,,,-8.7447447,116.8383899,https://maps.google.com/?cid=0x0:0x1dadfda99c65d2d5,
building improvement,Bengkel Mobil,Bengkel Taliwang project,"7R4V+HXV, Dalam, Kec. Taliwang, Kabupaten Sumbawa Barat, Nusa Tenggara Bar. 84455","Dalam, Kec. Taliwang, Kabupaten Sumbawa Barat",NUSA TENGGARA BARAT,84455,Indonesia,81939613919.0,,,-8.7433828,116.8448983,https://maps.google.com/?cid=0x0:0x6f7698ceb9dc67ba,
building improvement,Bengkel Logam,Tukang las taliwang,"Bugis, Kec. Taliwang, Kabupaten Sumbawa Barat, Nusa Tenggara Bar.","Kabupaten Sumbawa Barat, Nusa Tenggara Bar.",NUSA TENGGARA BARAT,,Indonesia,81353888083.0,,,-8.7592012,116.8194918,https://maps.google.com/?cid=0x0:0xbebab8b8be489ff,
building improvement,building improvement,Kec. Seteluk,"Kabupaten Sumbawa Barat, Nusa Tenggara Bar.","Kabupaten Sumbawa Barat, Nusa Tenggara Bar.",NUSA TENGGARA BARAT,,Indonesia,,,,-8.6251785,116.8652498,https://maps.google.com/?cid=0x0:0x81f1c5d92dcd6f07,
building improvement,Toko Bahan Bangunan,UD. MALOKA,"RT.01/RW.02, Air Suning, Kec. Seteluk, Kabupaten Sumbawa Barat, Nusa Tenggara Bar. 84454","Air Suning, Kec. Seteluk, Kabupaten Sumbawa Barat",NUSA TENGGARA BARAT,84454,Indonesia,81326235383.0,,,-8.6475574,116.85527,https://maps.google.com/?cid=0x0:0x816cff3f6992ff84,
building improvement,Toko,Tukang Is,"Seteluk Tengah, Kec. Seteluk, Kabupaten Sumbawa Barat, Nusa Tenggara Bar. 84454","Kec. Seteluk, Kabupaten Sumbawa Barat",NUSA TENGGARA BARAT,84454,Indonesia,85339100087.0,,,-8.6249217,116.8660961,https://maps.google.com/?cid=0x0:0x2eea7cb229f87329,
building improvement,Kantor Pemerintah,Desa Seteluk,"9V6H+3PR, sumbawa, Seran, Kec. Seteluk, Kabupaten Sumbawa Barat, Nusa Tenggara Bar. 84454","sumbawa, Seran, Kec. Seteluk, Kabupaten Sumbawa Barat",NUSA TENGGARA BARAT,84454,Indonesia,81349692220.0,,,-8.639769,116.8792553,https://maps.google.com/?cid=0x0:0x946d30e1664519d0,
building improvement,Kantor Perusahaan,KANTOR KUA KEC. SETELUK,"9VC7+R6X, Jalan Raya, Seteluk Tengah, Seteluk, West Sumbawa Regency, West Nusa Tenggara 84454","Jalan Raya, Seteluk Tengah, Seteluk, West Sumbawa Regency",NUSA TENGGARA BARAT,84454,Indonesia,,,,-8.6278886,116.8631038,https://maps.google.com/?cid=0x0:0x2b54b89c0b95bbc1,
building improvement,Masjid,Musholla Pamongo,"9VH6+39H, Seteluk Tengah, Kec. Seteluk, Kabupaten Sumbawa Barat, Nusa Tenggara Bar. 84454","Seteluk Tengah, Kec. Seteluk, Kabupaten Sumbawa Barat",NUSA TENGGARA BARAT,84454,Indonesia,,,,-8.6223164,116.8609867,https://maps.google.com/?cid=0x0:0xc8d01072bb2581a3,
building improvement,Sekolah Dasar,SDN 3 Seteluk,"9VG6+Q9W, Seteluk Tengah, Kec. Seteluk, Kabupaten Sumbawa Barat, Nusa Tenggara Bar. 84454","Seteluk Tengah, Kec. Seteluk, Kabupaten Sumbawa Barat",NUSA TENGGARA BARAT,84454,Indonesia,,,,-8.6230156,116.8609456,https://maps.google.com/?cid=0x0:0xac6b86957df8c918,
building improvement,Toko,Yeti Lestari,"Pasar Seteluk, Los Pelataran No. 152, JL Pasar Baru Seteluk, RT 08 RW 09, Seteluk Tengah, Seteluk, Sumbawa Barat, Seteluk Tengah, Sumbawa Besar, Kabupaten Sumbawa Barat, Nusa Tenggara Bar. 84454","Los Pelataran No. 152, JL Pasar Baru Seteluk, RT 08 RW 09, Seteluk Tengah, Seteluk, Sumbawa Barat, Seteluk Tengah, Sumbawa Besar, Kabupaten Sumbawa Barat",NUSA TENGGARA BARAT,84454,Indonesia,87863933189.0,,,-8.6229472,116.8626217,https://maps.google.com/?cid=0x0:0x2fa2e7f31b4eb555,
building improvement,Pembangunan Perumahan,Air suning,"9V23+HRG, Air Suning, Kec. Seteluk, Kabupaten Sumbawa Barat, Nusa Tenggara Bar. 84454","Air Suning, Kec. Seteluk, Kabupaten Sumbawa Barat",NUSA TENGGARA BARAT,84454,Indonesia,,,,-8.6485514,116.8545701,https://maps.google.com/?cid=0x0:0x6f89f58568671d8d,
building improvement,Toko,Sihab,"Pasar Seteluk Los : Kios No. 29, JL Pasar Baru Seteluk Tengah, RT 08 RW 09, Seteluk Tengah, Seteluk, Sumbawa Barat, Seteluk Tengah, Sumbawa Besar, Kabupaten Sumbawa Barat, Nusa Tenggara Bar. 84454","JL Pasar Baru Seteluk Tengah, RT 08 RW 09, Seteluk Tengah, Seteluk, Sumbawa Barat, Seteluk Tengah, Sumbawa Besar, Kabupaten Sumbawa Barat",NUSA TENGGARA BARAT,84454,Indonesia,87863933189.0,,,-8.628789,116.864094,https://maps.google.com/?cid=0x0:0xad3da462aa0f1b6f,
building improvement,Perusahaan Konstruksi,Workshop PT. LIP,"Jl. Batu Hijau Townsite, Sekongkang Bawah, Kec. Sekongkang, Kabupaten Sumbawa Barat, Nusa Tenggara Bar. 84457","Sekongkang Bawah, Kec. Sekongkang, Kabupaten Sumbawa Barat",NUSA TENGGARA BARAT,84457,Indonesia,82266534744.0,,,-8.9876141,116.7514897,https://maps.google.com/?cid=0x0:0x6190411e89ee0eba,
building improvement,Toko,SATERA MINIMARKET,"Jl. Bda Rea, Seteluk Tengah, Kec. Seteluk, Kabupaten Sumbawa Barat, Nusa Tenggara Bar. 84454","Seteluk Tengah, Kec. Seteluk, Kabupaten Sumbawa Barat",NUSA TENGGARA BARAT,84454,Indonesia,81917605341.0,,,-8.6311473,116.8599756,https://maps.google.com/?cid=0x0:0xf304f78502fffd4b,
building improvement,Toko,Sahariatun,"Pasar Seteluk Los 6, No. 15, JL Pasar Baru Seteluk, RT 08 RW 09, Seteluk Tengah, Seteluk, Sumbawa Barat, Seteluk Tengah, Sumbawa Besar, Kabupaten Sumbawa Barat, Nusa Tenggara Bar. 84454","No. 15, JL Pasar Baru Seteluk, RT 08 RW 09, Seteluk Tengah, Seteluk, Sumbawa Barat, Seteluk Tengah, Sumbawa Besar, Kabupaten Sumbawa Barat",NUSA TENGGARA BARAT,84454,Indonesia,87863933189.0,,,-8.628789,116.864094,https://maps.google.com/?cid=0x0:0x7ef32fbced826a04,
building improvement,Lembaga Swadaya Masyarakat (LSM),PKBM Batu Bulaeng,"JL. Beda Rea, RT. 24 / RW. 13, Seteluk, Seran, Kec. Seteluk, Kabupaten Sumbawa Barat, Nusa Tenggara Bar. 84354","RT. 24 / RW. 13, Seteluk, Seran, Kec. Seteluk, Kabupaten Sumbawa Barat",NUSA TENGGARA BARAT,84354,Indonesia,85339877960.0,,,-8.638389,116.881084,https://maps.google.com/?cid=0x0:0x30d1ccccf47d684d,
building improvement,Toko,Mut,"Pasar Seteluk Los Pelataran, No. 14, JL Pasar Baru Seteluk, RT 08 RW 09, Seteluk Tengah, Seteluk, Sumbawa Barat, Seteluk Tengah, Sumbawa Besar, Kabupaten Sumbawa Barat, Nusa Tenggara Bar. 84454","No. 14, JL Pasar Baru Seteluk, RT 08 RW 09, Seteluk Tengah, Seteluk, Sumbawa Barat, Seteluk Tengah, Sumbawa Besar, Kabupaten Sumbawa Barat",NUSA TENGGARA BARAT,84454,Indonesia,87863933189.0,,,-8.628789,116.864094,https://maps.google.com/?cid=0x0:0x83de265bee8fe0ba,
building improvement,Pemasok Produk Makanan,Darwaningsih,"Pasar Seteluk, Los Pelataran No. 175, JL Pasar Baru Seteluk, RT 08 RW 09, Seteluk Tengah, Seteluk, Sumbawa Barat, Seteluk Tengah, Sumbawa Besar, Kabupaten Sumbawa Barat, Nusa Tenggara Bar. 84454","Los Pelataran No. 175, JL Pasar Baru Seteluk, RT 08 RW 09, Seteluk Tengah, Seteluk, Sumbawa Barat, Seteluk Tengah, Sumbawa Besar, Kabupaten Sumbawa Barat",NUSA TENGGARA BARAT,84454,Indonesia,87863933189.0,,,-8.628789,116.864094,https://maps.google.com/?cid=0x0:0xd08fc26eed849b8e,
building improvement,Sekolah Menengah Umum,SMA Negeri 1 Seteluk,"9VH7+3R6, Seteluk Tengah, Kec. Seteluk, Kabupaten Sumbawa Barat, Nusa Tenggara Bar. 84454","Seteluk Tengah, Kec. Seteluk, Kabupaten Sumbawa Barat",NUSA TENGGARA BARAT,84454,Indonesia,3728282169.0,,,-8.6223486,116.86451,https://maps.google.com/?cid=0x0:0x3c4fa2a16c14e0f6,
building improvement,Kantor Pemerintah,GERAI TIKI SETELUK,"9VF8+P2C, Seteluk Tengah, Kec. Seteluk, Kabupaten Sumbawa Barat, Nusa Tenggara Bar. 84454","Seteluk Tengah, Kec. Seteluk, Kabupaten Sumbawa Barat",NUSA TENGGARA BARAT,84454,Indonesia,,,,-8.6256753,116.865003,https://maps.google.com/?cid=0x0:0x5ffe442bfb041a15,
building improvement,Toko,Tauhid,"Pasar Seteluk, Los Pelataran No. 213, JL Pasar Baru Seteluk, RT 08 RW 09, Seteluk Tengah, Seteluk, Sumbawa Barat, Seteluk Tengah, Sumbawa Besar, Kabupaten Sumbawa Barat, Nusa Tenggara Bar. 84454","Los Pelataran No. 213, JL Pasar Baru Seteluk, RT 08 RW 09, Seteluk Tengah, Seteluk, Sumbawa Barat, Seteluk Tengah, Sumbawa Besar, Kabupaten Sumbawa Barat",NUSA TENGGARA BARAT,84454,Indonesia,87863933189.0,,,-8.628789,116.864094,https://maps.google.com/?cid=0x0:0xb273a98746b30f51,
building improvement,building improvement,Nusa Tenggara Bar. 84457,"Kec. Sekongkang, Kabupaten Sumbawa Barat, Nusa Tenggara Bar.","Kabupaten Sumbawa Barat, Nusa Tenggara Bar.",NUSA TENGGARA BARAT,,Indonesia,,,,-9.0278591,116.9145901,https://maps.google.com/?cid=0x0:0xa55d05be516dbaf,
building improvement,Pengembang Realestat,Consist Suplay,"Jl. Raya Sekongkang, Sekongkang Bawah, Kec. Sekongkang, Kabupaten Sumbawa Barat, Nusa Tenggara Bar. 84457","Sekongkang Bawah, Kec. Sekongkang, Kabupaten Sumbawa Barat",NUSA TENGGARA BARAT,84457,Indonesia,85253339008.0,,,-8.9654102,116.7513774,https://maps.google.com/?cid=0x0:0x9c5a8c94befd9908,
building improvement,Perusahaan Konstruksi,Workshop PT. LIP,"Jl. Batu Hijau Townsite, Sekongkang Bawah, Kec. Sekongkang, Kabupaten Sumbawa Barat, Nusa Tenggara Bar. 84457","Sekongkang Bawah, Kec. Sekongkang, Kabupaten Sumbawa Barat",NUSA TENGGARA BARAT,84457,Indonesia,82266534744.0,,,-8.9876141,116.7514897,https://maps.google.com/?cid=0x0:0x6190411e89ee0eba,
building improvement,Perusahaan Konstruksi,PT. BAHARU PENTA KENCANA,"Sekongkang Atas, Kec. Sekongkang, Kabupaten Sumbawa Barat, Nusa Tenggara Bar.","Kabupaten Sumbawa Barat, Nusa Tenggara Bar.",NUSA TENGGARA BARAT,,Indonesia,2174707823.0,,,-8.993158,116.8042385,https://maps.google.com/?cid=0x0:0x6174f65c96e53302,
building improvement,Bengkel Elektronik,Bengkel Family Las,"Sekongkang Atas, Kec. Sekongkang, Kabupaten Sumbawa Barat, Nusa Tenggara Bar. 84457","Kec. Sekongkang, Kabupaten Sumbawa Barat",NUSA TENGGARA BARAT,84457,Indonesia,82359318822.0,,,-8.9669078,116.7607838,https://maps.google.com/?cid=0x0:0x426f7c000b7e5781,
building improvement,Perusahaan Konstruksi,PT. Pacific Dwiyasa Putra,"2R86+HMH, Unnamed Road, Sekongkang Atas, Sekongkang, West Sumbawa Regency, West Nusa Tenggara 84457","Unnamed Road, Sekongkang Atas, Sekongkang, West Sumbawa Regency",NUSA TENGGARA BARAT,84457,Indonesia,,,,-8.9835626,116.8117445,https://maps.google.com/?cid=0x0:0x4a36fcc20faff646,
building improvement,Perusahaan Konstruksi,Kantor Project PT. Nusa Raya Cipta Tbk.,"2Q74+988, Sekongkang Atas, Kec. Sekongkang, Kabupaten Sumbawa Barat, Nusa Tenggara Bar. 84457","Sekongkang Atas, Kec. Sekongkang, Kabupaten Sumbawa Barat",NUSA TENGGARA BARAT,84457,Indonesia,,,,-8.9861289,116.7556029,https://maps.google.com/?cid=0x0:0xa1467d4d7b877155,
building improvement,Agen Sewa Mobil,PT. Kemuning Baru Sekongkang,"2QV6+9MC Ujung pagar, Jl. NNT Batu Hijau, Kemuning, Kec. Sekongkang, Kabupaten Sumbawa Barat, Nusa Tenggara Bar. 84457","Jl. NNT Batu Hijau, Kemuning, Kec. Sekongkang, Kabupaten Sumbawa Barat",NUSA TENGGARA BARAT,84457,Indonesia,,,,-8.9574879,116.7608843,https://maps.google.com/?cid=0x0:0xede6bb1545d098e3,
building improvement,Fasilitas Militer,Koramil Sekongkang,"2QM2+RHP, Jalan Raya, Sekongkang Bawah, Sekongkang, West Sumbawa Regency, West Nusa Tenggara 84457","Jalan Raya, Sekongkang Bawah, Sekongkang, West Sumbawa Regency",NUSA TENGGARA BARAT,84457,Indonesia,,,,-8.9654215,116.7514604,https://maps.google.com/?cid=0x0:0x91f60b39a7457ee2,
building improvement,building improvement,Cosentrator sekongkang,"2Q62+V5V, Jl. Batu Hijau Townsite, Sekongkang Bawah, Kec. Sekongkang, Kabupaten Sumbawa Barat, Nusa Tenggara Bar. 84457","Jl. Batu Hijau Townsite, Sekongkang Bawah, Kec. Sekongkang, Kabupaten Sumbawa Barat",NUSA TENGGARA BARAT,84457,Indonesia,,,,-8.9877683,116.75042,https://maps.google.com/?cid=0x0:0x1df0d82466fe60a8,
building improvement,building improvement,Nusa Tenggara Bar. 84458,"Kec. Brang Rea, Kabupaten Sumbawa Barat, Nusa Tenggara Bar.","Kabupaten Sumbawa Barat, Nusa Tenggara Bar.",NUSA TENGGARA BARAT,,Indonesia,,,,-8.6999135,117.0087877,https://maps.google.com/?cid=0x0:0xd32541cc680b77d1,
building improvement,Penginapan,Gedung Serbaguna Jasa Sia,"7WQC+PPG, Unnamed Road, Tepas Sepakat, Kec. Brang Rea, Kabupaten Sumbawa Barat, Nusa Tenggara Bar. 84458","Unnamed Road, Tepas Sepakat, Kec. Brang Rea, Kabupaten Sumbawa Barat",NUSA TENGGARA BARAT,84458,Indonesia,,,,-8.7106977,116.9218291,https://maps.google.com/?cid=0x0:0xdeca2d388589ee7f,
building improvement,building improvement,Kec. Brang Rea,"Kabupaten Sumbawa Barat, Nusa Tenggara Bar.","Kabupaten Sumbawa Barat, Nusa Tenggara Bar.",NUSA TENGGARA BARAT,,Indonesia,,,,-8.7135824,116.9178603,https://maps.google.com/?cid=0x0:0xcddb557fd4509d8c,
building improvement,building improvement,PJUTS NTB,"7WQ9+4G3, Jalan, Tepas Sepakat, Brang Rea, West Sumbawa Regency, West Nusa Tenggara 84458","Jalan, Tepas Sepakat, Brang Rea, West Sumbawa Regency",NUSA TENGGARA BARAT,84458,Indonesia,,,,-8.7122276,116.9187827,https://maps.google.com/?cid=0x0:0xc924a699276708a4,
building improvement,Komplek perumahan,Rumah besi,"Desa,Tepas sepakat, Dusun sanggerahan RT 03 RW 01, Kec.Brang rea, Kec. Taliwang, Kabupaten Sumbawa Barat, Nusa Tenggara Bar. 84458","Dusun sanggerahan RT 03 RW 01, Kec.Brang rea, Kec. Taliwang, Kabupaten Sumbawa Barat",NUSA TENGGARA BARAT,84458,Indonesia,82126809817.0,,,-8.7008957,116.9881033,https://maps.google.com/?cid=0x0:0x8f9cec2d7fcaf4d7,
building improvement,Kantor Pemerintah Distrik,Kantor Kecamatan Brang Rea,"Jl. Baso Busing No.- Desa, Tepas, Kec. Brang Rea, Kabupaten Sumbawa Barat, Nusa Tenggara Bar. 84458","Tepas, Kec. Brang Rea, Kabupaten Sumbawa Barat",NUSA TENGGARA BARAT,84458,Indonesia,82339196488.0,,,-8.7201352,116.9159326,https://maps.google.com/?cid=0x0:0xe5c54d25b24ef076,
building improvement,Toko Bahan Bangunan,UD. PUSAKA 45 Toko Bangunan,"Jl. Baso Busing No.Desa, Desa Beru, Kec. Taliwang, Kabupaten Sumbawa Barat, Nusa Tenggara Bar. 84458","Desa Beru, Kec. Taliwang, Kabupaten Sumbawa Barat",NUSA TENGGARA BARAT,84458,Indonesia,81339895887.0,,,-8.728729,116.90789,https://maps.google.com/?cid=0x0:0xdffa512d28b70117,
building improvement,Taman,BENDUNGAN BINTANG BANO,"7XJV+WP, Bangkat Monteh, Kec. Brang Rea, Kabupaten Sumbawa Barat, Nusa Tenggara Bar.","Kabupaten Sumbawa Barat, Nusa Tenggara Bar.",NUSA TENGGARA BARAT,,Indonesia,,,,-8.7116194,116.9879915,https://maps.google.com/?cid=0x0:0x9bc25f0c4963d850,
building improvement,building improvement,Bale-ku,,,NUSA TENGGARA BARAT,,Indonesia,87777174000.0,,,-8.594985,117.5784346,https://maps.google.com/?cid=0x0:0x445cfadaf8fe33dc,
building improvement,building improvement,Nusa Tenggara Bar. 84454,"Kec. Seteluk, Kabupaten Sumbawa Barat, Nusa Tenggara Bar.","Kabupaten Sumbawa Barat, Nusa Tenggara Bar.",NUSA TENGGARA BARAT,,Indonesia,,,,-8.5906982,116.8674757,https://maps.google.com/?cid=0x0:0xabcb20c0c162b41d,
building improvement,Perusahaan Konstruksi,"Direksi Keet PT PP (Persero),Tbk Proyek Bandara Amman Mineral Poto Tano","CQ2V+FQ, Kiantar, Kec. Poto Tano, Kabupaten Sumbawa Barat, Nusa Tenggara Bar. 84454","Kiantar, Kec. Poto Tano, Kabupaten Sumbawa Barat",NUSA TENGGARA BARAT,84454,Indonesia,82112001434.0,,,-8.5988595,116.7944177,https://maps.google.com/?cid=0x0:0x3655a5e9fa0aee58,
building improvement,Terminal Feri,Pelabuhan Poto Tano,"Harbour, Poto Tano Kabupaten Sumbawa Barat, Nusa Tenggara Bar. 844ll6v54, Poto Tano, Kec. Poto Tano, Kabupaten Sumbawa Barat, Nusa Tenggara Bar. 84454","Poto Tano Kabupaten Sumbawa Barat, Nusa Tenggara Bar. 844ll6v54, Poto Tano, Kec. Poto Tano, Kabupaten Sumbawa Barat",NUSA TENGGARA BARAT,84454,Indonesia,,,,-8.5228283,116.8307943,https://maps.google.com/?cid=0x0:0xebb0c6b766aa41ca,
building improvement,building improvement,Kec. Poto Tano,"Kabupaten Sumbawa Barat, Nusa Tenggara Bar.","Kabupaten Sumbawa Barat, Nusa Tenggara Bar.",NUSA TENGGARA BARAT,,Indonesia,,,,-8.6112479,116.8509959,https://maps.google.com/?cid=0x0:0x7be8887b6d6e9b35,
building improvement,Toko Bahan Bangunan,UD. MALOKA,"RT.01/RW.02, Air Suning, Kec. Seteluk, Kabupaten Sumbawa Barat, Nusa Tenggara Bar. 84454","Air Suning, Kec. Seteluk, Kabupaten Sumbawa Barat",NUSA TENGGARA BARAT,84454,Indonesia,81326235383.0,,,-8.6475574,116.85527,https://maps.google.com/?cid=0x0:0x816cff3f6992ff84,
building improvement,Rumah wisata,SD Negeri Poto Tano,"Poto Tano, Kec. Poto Tano, Kabupaten Sumbawa Barat, Nusa Tenggara Bar. 84454","Kec. Poto Tano, Kabupaten Sumbawa Barat",NUSA TENGGARA BARAT,84454,Indonesia,,,,-8.5310312,116.8329202,https://maps.google.com/?cid=0x0:0x5af90309d82f47da,
building improvement,building improvement,Bale-ku,,,NUSA TENGGARA BARAT,,Indonesia,87777174000.0,,,-8.594985,117.5784346,https://maps.google.com/?cid=0x0:0x445cfadaf8fe33dc,
building improvement,Penginapan,Gedung Serbaguna Jasa Sia,"7WQC+PPG, Unnamed Road, Tepas Sepakat, Kec. Brang Rea, Kabupaten Sumbawa Barat, Nusa Tenggara Bar. 84458","Unnamed Road, Tepas Sepakat, Kec. Brang Rea, Kabupaten Sumbawa Barat",NUSA TENGGARA BARAT,84458,Indonesia,,,,-8.7106977,116.9218291,https://maps.google.com/?cid=0x0:0xdeca2d388589ee7f,
building improvement,building improvement,Nusa Tenggara Bar. 84455,"Kabupaten Sumbawa Barat, Nusa Tenggara Bar.","Kabupaten Sumbawa Barat, Nusa Tenggara Bar.",NUSA TENGGARA BARAT,,Indonesia,,,,-8.7907453,116.8674757,https://maps.google.com/?cid=0x0:0x5fda0016832273b3,
building improvement,Penginapan,Gedung Serbaguna Jasa Sia,"7WQC+PPG, Unnamed Road, Tepas Sepakat, Kec. Brang Rea, Kabupaten Sumbawa Barat, Nusa Tenggara Bar. 84458","Unnamed Road, Tepas Sepakat, Kec. Brang Rea, Kabupaten Sumbawa Barat",NUSA TENGGARA BARAT,84458,Indonesia,,,,-8.7106977,116.9218291,https://maps.google.com/?cid=0x0:0xdeca2d388589ee7f,
building improvement,Toko Bahan Bangunan,UD. PUSAKA 45 Toko Bangunan,"Jl. Baso Busing No.Desa, Desa Beru, Kec. Taliwang, Kabupaten Sumbawa Barat, Nusa Tenggara Bar. 84458","Desa Beru, Kec. Taliwang, Kabupaten Sumbawa Barat",NUSA TENGGARA BARAT,84458,Indonesia,81339895887.0,,,-8.728729,116.90789,https://maps.google.com/?cid=0x0:0xdffa512d28b70117,
building improvement,Toko Bahan Bangunan,Ud.Cahaya Bangunan,"7V25+J7V Al-Ihlas, Jl. Pd. Pesantren JL, Dalam, Taliwang, West Sumbawa Regency, West Nusa Tenggara 84455","Jl. Pd. Pesantren JL, Dalam, Taliwang, West Sumbawa Regency",NUSA TENGGARA BARAT,84455,Indonesia,81339778911.0,,,-8.7483764,116.8581843,https://maps.google.com/?cid=0x0:0x43908cebd3732b04,
building improvement,Pembangunan Perumahan,BMD TANAH BANGUNAN,"7V23+VCF, Kuang, Kec. Taliwang, Kabupaten Sumbawa Barat, Nusa Tenggara Bar. 84455","Kuang, Kec. Taliwang, Kabupaten Sumbawa Barat",NUSA TENGGARA BARAT,84455,Indonesia,,,,-8.7478105,116.8535464,https://maps.google.com/?cid=0x0:0xfd643ad90016caa0,
building improvement,Komplek perumahan,Rumah besi,"Desa,Tepas sepakat, Dusun sanggerahan RT 03 RW 01, Kec.Brang rea, Kec. Taliwang, Kabupaten Sumbawa Barat, Nusa Tenggara Bar. 84458","Dusun sanggerahan RT 03 RW 01, Kec.Brang rea, Kec. Taliwang, Kabupaten Sumbawa Barat",NUSA TENGGARA BARAT,84458,Indonesia,82126809817.0,,,-8.7008957,116.9881033,https://maps.google.com/?cid=0x0:0x8f9cec2d7fcaf4d7,
building improvement,Jasa Konstruksi dan Bangunan,Brngkel Las,"9V34+Q4X, Air Suning, Kec. Seteluk, Kabupaten Sumbawa Barat, Nusa Tenggara Bar. 84454","Air Suning, Kec. Seteluk, Kabupaten Sumbawa Barat",NUSA TENGGARA BARAT,84454,Indonesia,,,,-8.6455036,116.8553448,https://maps.google.com/?cid=0x0:0xc5454de6bf09b091,
building improvement,Perusahaan Konstruksi,PT. Panca Duta Prakarsa (SLTR Project),"Benete, Kec. Maluk, Kabupaten Sumbawa Barat, Nusa Tenggara Bar.","Kabupaten Sumbawa Barat, Nusa Tenggara Bar.",NUSA TENGGARA BARAT,,Indonesia,81384218572.0,,,-8.8931264,116.7825606,https://maps.google.com/?cid=0x0:0x7aba14882a817569,
building improvement,Perusahaan Konstruksi,BM-1 (Regas),"4P4P+H4, Mantun, Kec. Maluk, Kabupaten Sumbawa Barat, Nusa Tenggara Bar.","Kabupaten Sumbawa Barat, Nusa Tenggara Bar.",NUSA TENGGARA BARAT,,Indonesia,,,,-8.8935833,116.7353333,https://maps.google.com/?cid=0x0:0x5d73e0a65350331b,
building improvement,Vila,Grand Housing Maluk,"Maluk, Kec. Maluk, Kabupaten Sumbawa Barat, Nusa Tenggara Bar. 84456","Kec. Maluk, Kabupaten Sumbawa Barat",NUSA TENGGARA BARAT,84456,Indonesia,82147935511.0,,,-8.9204763,116.7552689,https://maps.google.com/?cid=0x0:0xdc5c908b8093b037,
building improvement,Toko Bahan Bangunan,UD. MALOKA,"RT.01/RW.02, Air Suning, Kec. Seteluk, Kabupaten Sumbawa Barat, Nusa Tenggara Bar. 84454","Air Suning, Kec. Seteluk, Kabupaten Sumbawa Barat",NUSA TENGGARA BARAT,84454,Indonesia,81326235383.0,,,-8.6475574,116.85527,https://maps.google.com/?cid=0x0:0x816cff3f6992ff84,
building improvement,building improvement,Maluk,"Kec. Maluk, Kabupaten Sumbawa Barat, Nusa Tenggara Bar.","Kabupaten Sumbawa Barat, Nusa Tenggara Bar.",NUSA TENGGARA BARAT,,Indonesia,,,,-8.9238233,116.7673237,https://maps.google.com/?cid=0x0:0x47ef5cc6638a6493,
building improvement,Pusat Perbelanjaan,Pasar Baru Maluk Sumbawa Barat,"3QP3+2QX Bar, Maluk, Kec. Maluk, Kabupaten Sumbawa Barat, Nusa Tenggara Bar. 84456","Maluk, Kec. Maluk, Kabupaten Sumbawa Barat",NUSA TENGGARA BARAT,84456,Indonesia,,,,-8.914894,116.7544872,https://maps.google.com/?cid=0x0:0x5728aa84c5c3f635,
building improvement,Kantor Perusahaan,PT. MITRA MALUK BERSAMA,"Taliwang, Jln. Mutiara Biru, Nusa Tenggara Bar. 84459",Jln. Mutiara Biru,NUSA TENGGARA BARAT,84459,Indonesia,82266440155.0,,,-8.9146761,116.7461457,https://maps.google.com/?cid=0x0:0xa580dbe8cc8b5e95,
building improvement,Otoritas Perumahan,Komplek Perumahan BTN MALUK INDAH,"3PPV+MGQ, Mantun, Kec. Maluk, Kabupaten Sumbawa Barat, Nusa Tenggara Bar. 84456","Mantun, Kec. Maluk, Kabupaten Sumbawa Barat",NUSA TENGGARA BARAT,84456,Indonesia,,,,-8.9132858,116.7438594,https://maps.google.com/?cid=0x0:0xeedc32aaae646afd,
building improvement,building improvement,PT. KJP,"3PQV+GHH, Mantun, Kec. Maluk, Kabupaten Sumbawa Barat, Nusa Tenggara Bar. 84456","Mantun, Kec. Maluk, Kabupaten Sumbawa Barat",NUSA TENGGARA BARAT,84456,Indonesia,,,,-8.9113634,116.7443474,https://maps.google.com/?cid=0x0:0xfc09baba1c319667,
building improvement,Gudang,LAYDOWN 10,"3PXW+GW8, Mantun, Kec. Maluk, Kabupaten Sumbawa Barat, Nusa Tenggara Bar.","Kabupaten Sumbawa Barat, Nusa Tenggara Bar.",NUSA TENGGARA BARAT,,Indonesia,,,,-8.9011049,116.7484346,https://maps.google.com/?cid=0x0:0x524771b0bb8cd139,
building improvement,Area Mendaki,OTAK KERIS,"3QJ7+PCX, Maluk, Kec. Maluk, Kabupaten Sumbawa Barat, Nusa Tenggara Bar. 84456","Maluk, Kec. Maluk, Kabupaten Sumbawa Barat",NUSA TENGGARA BARAT,84456,Indonesia,,,,-8.9181478,116.7636007,https://maps.google.com/?cid=0x0:0x94a705a034ef4703,
building improvement,Kantor Perusahaan,PT. Loyal Integritas Prima,"3QQ2+WM5, Bukit Damai, Kec. Maluk, Kabupaten Sumbawa Barat, Nusa Tenggara Bar. 84456","Bukit Damai, Kec. Maluk, Kabupaten Sumbawa Barat",NUSA TENGGARA BARAT,84456,Indonesia,,,,-8.9102362,116.7517212,https://maps.google.com/?cid=0x0:0x88121900d448040d,
building improvement,Produsen,smelter,"3QV4+966, Bukit Damai, Kec. Maluk, Kabupaten Sumbawa Barat, Nusa Tenggara Bar. 84456","Bukit Damai, Kec. Maluk, Kabupaten Sumbawa Barat",NUSA TENGGARA BARAT,84456,Indonesia,,,,-8.9065912,116.7555258,https://maps.google.com/?cid=0x0:0x8b255eccf1c2da80,
building improvement,Toko Elektronik,VAPE MALUK HEYHO,"Depan ALSHAN BAKERY, Jl. Raya Maluk, Mantun, Kec. Maluk, Kabupaten Sumbawa Barat, Nusa Tenggara Bar. 84456","Jl. Raya Maluk, Mantun, Kec. Maluk, Kabupaten Sumbawa Barat",NUSA TENGGARA BARAT,84456,Indonesia,85172107935.0,,,-8.9126027,116.7510708,https://maps.google.com/?cid=0x0:0xd35950c91b54b4b4,
hardware store,hardware store,Nusa Tenggara Bar. 84456,"Kec. Jereweh, Kabupaten Sumbawa Barat, Nusa Tenggara Bar.","Kabupaten Sumbawa Barat, Nusa Tenggara Bar.",NUSA TENGGARA BARAT,,Indonesia,,,,-8.947527,116.9145901,https://maps.google.com/?cid=0x0:0xd8d94f4df4b390cb,
hardware store,Toko Bahan Bangunan,TB. Abdi Jaya,"Jl. Pendidikan, Goa, Kec. Jereweh, Kabupaten Sumbawa Barat, Nusa Tenggara Bar. 84456","Goa, Kec. Jereweh, Kabupaten Sumbawa Barat",NUSA TENGGARA BARAT,84456,Indonesia,81803803804.0,,,-8.848384,116.8182737,https://maps.google.com/?cid=0x0:0xbf9f143789caef6b,
hardware store,Toko,TB. PUTRA JAYA,"4Q48+HGV, Benete, Kec. Maluk, Kabupaten Sumbawa Barat, Nusa Tenggara Bar. 84456","Benete, Kec. Maluk, Kabupaten Sumbawa Barat",NUSA TENGGARA BARAT,84456,Indonesia,87863990444.0,,,-8.893501,116.7663076,https://maps.google.com/?cid=0x0:0x9ba23a3d8870d1c,
hardware store,hardware store,B41LaMW9HPKR4-EPsb7g4AE,,,NUSA TENGGARA BARAT,,Indonesia,87896401375.0,,,-8.911323,116.7620074,https://maps.google.com/?cid=0x0:0x1a2fe9521b046cc6,
hardware store,Kafe,TOKO CIA CIFANA MEUBEL,"3PQX+5JJ, Unnamed Road, Mantun, Maluk, West Sumbawa Regency, West Nusa Tenggara 84456","Unnamed Road, Mantun, Maluk, West Sumbawa Regency",NUSA TENGGARA BARAT,84456,Indonesia,,,,-8.9120301,116.7490075,https://maps.google.com/?cid=0x0:0xf0eda3aec2d5d6b0,
hardware store,Toko Bahan Bangunan,Toko bangunan SKS,"3QP2+8HW, Jalan Raya, Pasir Putih, Maluk, West Sumbawa Regency, West Nusa Tenggara 84456","Jalan Raya, Pasir Putih, Maluk, West Sumbawa Regency",NUSA TENGGARA BARAT,84456,Indonesia,,,,-8.9141312,116.7514577,https://maps.google.com/?cid=0x0:0xdd6bb8086d0235a0,
hardware store,Toko Bahan Bangunan,DISTRIBUTOR BATA RINGAN NTB DAN MORTAR NTB,"Maluk, Mantun, Sumbawa besar, Kabupaten Sumbawa Barat, Nusa Tenggara Timur 84313","Mantun, Sumbawa besar, Kabupaten Sumbawa Barat",NUSA TENGGARA BARAT,84313,Indonesia,81337651464.0,,,-8.9101355,116.753349,https://maps.google.com/?cid=0x0:0x1ff184f7484d9fd,
hardware store,Toko Alat Tulis Kantor,Braay Stationery  Co,"Jl. Mangga No.64, Bukit Damai, Kec. Maluk, Kabupaten Sumbawa Barat, Nusa Tenggara Bar. 84456","Bukit Damai, Kec. Maluk, Kabupaten Sumbawa Barat",NUSA TENGGARA BARAT,84456,Indonesia,,,,-8.9113167,116.7518527,https://maps.google.com/?cid=0x0:0x8f3fea4d9816bf8e,
hardware store,Sekolah,SDN 1 JEREWEH,"4RRG+VRM, Jl. Pahlawan, Beru, Kec. Jereweh, Kabupaten Sumbawa Barat, Nusa Tenggara Bar. 84456","Jl. Pahlawan, Beru, Kec. Jereweh, Kabupaten Sumbawa Barat",NUSA TENGGARA BARAT,84456,Indonesia,,,,-8.857783,116.8270572,https://maps.google.com/?cid=0x0:0xbae8bbd8080cd3d6,
hardware store,hardware store,Kec. Jereweh,"Kabupaten Sumbawa Barat, Nusa Tenggara Bar.","Kabupaten Sumbawa Barat, Nusa Tenggara Bar.",NUSA TENGGARA BARAT,,Indonesia,,,,-8.8580742,116.8226069,https://maps.google.com/?cid=0x0:0xa328c630ac46064e,
hardware store,hardware store,Taliwang,"Kuang, Kec. Taliwang, Kabupaten Sumbawa Barat, Nusa Tenggara Bar.","Kabupaten Sumbawa Barat, Nusa Tenggara Bar.",NUSA TENGGARA BARAT,,Indonesia,,,,-8.751946,116.854599,https://maps.google.com/?cid=0x0:0xf98bdc32d4193ccb,
hardware store,Toko Bahan Bangunan,Ud.Cahaya Bangunan,"7V25+J7V Al-Ihlas, Jl. Pd. Pesantren JL, Dalam, Taliwang, West Sumbawa Regency, West Nusa Tenggara 84455","Jl. Pd. Pesantren JL, Dalam, Taliwang, West Sumbawa Regency",NUSA TENGGARA BARAT,84455,Indonesia,81339778911.0,,,-8.7483764,116.8581843,https://maps.google.com/?cid=0x0:0x43908cebd3732b04,
hardware store,Toko Bahan Bangunan,Toko SAHABAT,"Bugis, Kec. Taliwang, Kabupaten Sumbawa Barat, Nusa Tenggara Bar. 84455","Kec. Taliwang, Kabupaten Sumbawa Barat",NUSA TENGGARA BARAT,84455,Indonesia,82341581315.0,,,-8.7486614,116.8308238,https://maps.google.com/?cid=0x0:0x8b8936b93636d7b7,
hardware store,Toko Bahan Bangunan,Toko Senter Bangunan,"7R4W+QPW, Jl. Ps. Baru, Dalam, Kec. Taliwang, Kabupaten Sumbawa Barat, Nusa Tenggara Bar. 84455","Jl. Ps. Baru, Dalam, Kec. Taliwang, Kabupaten Sumbawa Barat",NUSA TENGGARA BARAT,84455,Indonesia,37281059.0,,,-8.7430177,116.8468144,https://maps.google.com/?cid=0x0:0x4caf7cd21eb7421c,
hardware store,Toko Bahan Bangunan,Toko bangunan (UD.FITRAH),"7R2W+PV6, Kuang, Kec. Taliwang, Kabupaten Sumbawa Barat, Nusa Tenggara Bar. 84455","Kuang, Kec. Taliwang, Kabupaten Sumbawa Barat",NUSA TENGGARA BARAT,84455,Indonesia,,,,-8.7482188,116.8471476,https://maps.google.com/?cid=0x0:0x300faa66d2d782aa,
hardware store,Toko Bahan Bangunan,UD. Taliwang Bangunan,"7R2P+2C8, Jalan Raya, Telaga Bertong, Taliwang, West Sumbawa Regency, West Nusa Tenggara 84455","Jalan Raya, Telaga Bertong, Taliwang, West Sumbawa Regency",NUSA TENGGARA BARAT,84455,Indonesia,,,,-8.7499716,116.8360678,https://maps.google.com/?cid=0x0:0x968492bd91c92f40,
hardware store,Toko Elektronik,Bouraq Sejahtera,"7V42+C46, Kuang, Kec. Taliwang, Kabupaten Sumbawa Barat, Nusa Tenggara Bar. 84455","Kuang, Kec. Taliwang, Kabupaten Sumbawa Barat",NUSA TENGGARA BARAT,84455,Indonesia,8123708355.0,,,-8.7439656,116.8502734,https://maps.google.com/?cid=0x0:0x6ff55beffae35da0,
hardware store,Toko Bahan Bangunan,BIN TAHA Teknik  Bangunan,"Arken, Kec. Taliwang, Kabupaten Sumbawa Barat, Nusa Tenggara Bar. 84455","Kec. Taliwang, Kabupaten Sumbawa Barat",NUSA TENGGARA BARAT,84455,Indonesia,81246320617.0,,,-8.7428808,116.8475926,https://maps.google.com/?cid=0x0:0xdf06c77e8d11916c,
hardware store,Toko Bahan Bangunan,TOKO INDOKERAMIK,"7R4X+PQF, Jl. Ps. Baru, Dalam, Kec. Taliwang, Kabupaten Sumbawa Barat, Nusa Tenggara Bar. 84455","Jl. Ps. Baru, Dalam, Kec. Taliwang, Kabupaten Sumbawa Barat",NUSA TENGGARA BARAT,84455,Indonesia,,,,-8.7431922,116.8494281,https://maps.google.com/?cid=0x0:0xdb3d452a270b3912,
hardware store,Toko Perlengkapan Rumah,Taliwang Gypsum,"7R4X+PFR, Jl. Ps. Baru, Dalam, Kec. Taliwang, Kabupaten Sumbawa Barat, Nusa Tenggara Bar. 84455","Jl. Ps. Baru, Dalam, Kec. Taliwang, Kabupaten Sumbawa Barat",NUSA TENGGARA BARAT,84455,Indonesia,81339594628.0,,,-8.7431415,116.8486275,https://maps.google.com/?cid=0x0:0x91a5ba486731e41d,
hardware store,Pusat Perbelanjaan,UD. QYNSHOP,"5RJ9+X6J, Depan Perumahan Apung, Labuan Lalar, Kec. Taliwang, Kabupaten Sumbawa Barat, Nusa Tenggara Bar.","Kabupaten Sumbawa Barat, Nusa Tenggara Bar.",NUSA TENGGARA BARAT,,Indonesia,,,,-8.8175343,116.8180159,https://maps.google.com/?cid=0x0:0x5c1e5f38e01e9b96,
hardware store,Toko Aksesori Komputer,Nayla Computer  Cell,"Kuang, Kec. Taliwang, Kabupaten Sumbawa Barat, Nusa Tenggara Bar. 84455","Kec. Taliwang, Kabupaten Sumbawa Barat",NUSA TENGGARA BARAT,84455,Indonesia,85183940626.0,,,-8.7432172,116.8537276,https://maps.google.com/?cid=0x0:0x3dc78497c6217a31,
hardware store,Monumen,TUGU KTC TALIWANG,"6VW3+F7J, Unnamed Rd, Nusa Tenggara Bar., Kuang, Kec. Taliwang, Kabupaten Sumbawa Barat, Nusa Tenggara Bar. 84455","Unnamed Rd, Nusa Tenggara Bar., Kuang, Kec. Taliwang, Kabupaten Sumbawa Barat",NUSA TENGGARA BARAT,84455,Indonesia,8533902390.0,,,-8.7537751,116.8531357,https://maps.google.com/?cid=0x0:0x6bb6a7864a01c63e,
hardware store,Minimarket,Tanamira Mart - K-Link,"Belakang Indomaret Tiangnam, Jl. Cendrawasih No.1, Kuang, Kec. Taliwang, Kabupaten Sumbawa Barat, Nusa Tenggara Bar. 84355","Jl. Cendrawasih No.1, Kuang, Kec. Taliwang, Kabupaten Sumbawa Barat",NUSA TENGGARA BARAT,84355,Indonesia,87784786101.0,,,-8.7438594,116.8476658,https://maps.google.com/?cid=0x0:0xf88346b466f3e1b6,
hardware store,Toko Elektronik,Raja Meubel  elektronik,"6RQJ+P3J, Jalan Raya, Telaga Bertong, Taliwang, West Sumbawa Regency, West Nusa Tenggara 84455","Jalan Raya, Telaga Bertong, Taliwang, West Sumbawa Regency",NUSA TENGGARA BARAT,84455,Indonesia,,,,-8.7606632,116.8301363,https://maps.google.com/?cid=0x0:0xa5b2800b154fb1c1,
hardware store,Toko,Indomaret Tiangnam,"7R4X+C39, Kuang, Kec. Taliwang, Kabupaten Sumbawa Barat, Nusa Tenggara Bar. 84455","Kuang, Kec. Taliwang, Kabupaten Sumbawa Barat",NUSA TENGGARA BARAT,84455,Indonesia,,,,-8.7439715,116.8477358,https://maps.google.com/?cid=0x0:0xe6096977e5ab6b9,
hardware store,Minimarket,Alfamart Undru,"Jl. Undru No.Kel, Kuang, Kec. Taliwang, Kabupaten Sumbawa Barat, Nusa Tenggara Bar. 84355","Kuang, Kec. Taliwang, Kabupaten Sumbawa Barat",NUSA TENGGARA BARAT,84355,Indonesia,1500959.0,,,-8.7470938,116.85323,https://maps.google.com/?cid=0x0:0x337ba4e8a83d5479,
hardware store,Toko Elektronik,BENTENG TEKNIK,"Bugis, Kec. Taliwang, Kabupaten Sumbawa Barat, Nusa Tenggara Bar. 84455","Kec. Taliwang, Kabupaten Sumbawa Barat",NUSA TENGGARA BARAT,84455,Indonesia,8170335748.0,,,-8.7427936,116.8405277,https://maps.google.com/?cid=0x0:0xfb04a58202ee5aa9,
hardware store,Bangunan Bersejarah,Gerbang KTC,"Komplek KTC, Kuang, Kec. Taliwang, Kabupaten Sumbawa Barat, Nusa Tenggara Bar. 84455","Kuang, Kec. Taliwang, Kabupaten Sumbawa Barat",NUSA TENGGARA BARAT,84455,Indonesia,,,,-8.7504716,116.8539236,https://maps.google.com/?cid=0x0:0xf9c438a866e03139,
hardware store,Kantor Perusahaan,Yamaha Tugu Mas Taliwang,"7R5V+47W, Bugis, Kec. Taliwang, Kabupaten Sumbawa Barat, Nusa Tenggara Bar. 84455","Bugis, Kec. Taliwang, Kabupaten Sumbawa Barat",NUSA TENGGARA BARAT,84455,Indonesia,,,,-8.7421251,116.8431919,https://maps.google.com/?cid=0x0:0xac1b0082ecf86381,
hardware store,Toko Bahan Bangunan,UD Pandu,"7R4F+HJ6, Unnamed Road, Banjar, Kec. Taliwang, Kabupaten Sumbawa Barat, Nusa Tenggara Bar. 84455","Unnamed Road, Banjar, Kec. Taliwang, Kabupaten Sumbawa Barat",NUSA TENGGARA BARAT,84455,Indonesia,,,,-8.743578,116.8240186,https://maps.google.com/?cid=0x0:0x54c58c6ee8669806,
hardware store,Toko Bahan Bangunan,UD. ALAM INDAH,"7R6X+C42, Dalam, Kec. Taliwang, Kabupaten Sumbawa Barat, Nusa Tenggara Bar. 84455","Dalam, Kec. Taliwang, Kabupaten Sumbawa Barat",NUSA TENGGARA BARAT,84455,Indonesia,81237426655.0,,,-8.7389766,116.8477779,https://maps.google.com/?cid=0x0:0x64a070efff105fb,
hardware store,Toko,Toko Bahan Bangunan UD. TIGA PUTRA,"RT.007 RW. 004 Dusun Tapir Luar Desa Tapir Kec. Seteluk, Air Suning, Kec. Taliwang, Kabupaten Sumbawa Barat, Nusa Tenggara Bar. 84454","Air Suning, Kec. Taliwang, Kabupaten Sumbawa Barat",NUSA TENGGARA BARAT,84454,Indonesia,85338757245.0,,,-8.6447357,116.8553575,https://maps.google.com/?cid=0x0:0xaaaeb0d320927d2a,
hardware store,Toko Ponsel,"TONYONK CELL"" (TOKO HP)""","Jl. Jend. Sudirman barat No.50, Kuang, Kec. Taliwang, Kabupaten Sumbawa Barat, Nusa Tenggara Bar. 84455","Kuang, Kec. Taliwang, Kabupaten Sumbawa Barat",NUSA TENGGARA BARAT,84455,Indonesia,81246092578.0,,,-8.7421849,116.8481532,https://maps.google.com/?cid=0x0:0xf892180917ef30d5,
hardware store,Toko,UD. AIRA,"Jl. Balong Niat No.9, Kuang, Kec. Taliwang, Kabupaten Sumbawa Barat, Nusa Tenggara Bar. 84455","Kuang, Kec. Taliwang, Kabupaten Sumbawa Barat",NUSA TENGGARA BARAT,84455,Indonesia,87863989757.0,,,-8.7455772,116.8517869,https://maps.google.com/?cid=0x0:0x77d08bd05833d5d8,
hardware store,Toko Pakaian,KANTY STORE,"Jl. Sutan Syahrir No.81, Bugis, Kec. Taliwang, Kabupaten Sumbawa Barat, Nusa Tenggara Bar. 84455","Bugis, Kec. Taliwang, Kabupaten Sumbawa Barat",NUSA TENGGARA BARAT,84455,Indonesia,8990230948.0,,,-8.745317,116.8356292,https://maps.google.com/?cid=0x0:0xad5503db1432f026,
hardware store,Toko Ponsel,Andy Cell,"Jl. Lintas Taliwang, Menala, Kec. Taliwang, Kabupaten Sumbawa Barat, Nusa Tenggara Bar. 84455","Menala, Kec. Taliwang, Kabupaten Sumbawa Barat",NUSA TENGGARA BARAT,84455,Indonesia,85239117129.0,,,-8.7446894,116.8621423,https://maps.google.com/?cid=0x0:0xd3f63e627f605c2b,
hardware store,Dealer Sepeda Motor,Tugu Mas Taliwang,"7R3J+QFC, Jalan Raya, Bugis, Taliwang, West Sumbawa Regency, West Nusa Tenggara 84455","Jalan Raya, Bugis, Taliwang, West Sumbawa Regency",NUSA TENGGARA BARAT,84455,Indonesia,85253026492.0,,,-8.7455567,116.8311279,https://maps.google.com/?cid=0x0:0x447d5176733fd8ea,
hardware store,Toko,Toko Mariam,"7V44+C6G, Jl. Lasap, Menala, Kec. Taliwang, Kabupaten Sumbawa Barat, Nusa Tenggara Bar. 84455","Jl. Lasap, Menala, Kec. Taliwang, Kabupaten Sumbawa Barat",NUSA TENGGARA BARAT,84455,Indonesia,,,,-8.7439394,116.8555917,https://maps.google.com/?cid=0x0:0xff38a5c372b124dc,
hardware store,Komplek perumahan,alamat,"9VFC+4GG, Seteluk Atas, Kec. Seteluk, Kabupaten Sumbawa Barat, Nusa Tenggara Bar. 84454","Seteluk Atas, Kec. Seteluk, Kabupaten Sumbawa Barat",NUSA TENGGARA BARAT,84454,Indonesia,81238955830.0,,,-8.6271856,116.8713415,https://maps.google.com/?cid=0x0:0xc11b6f6162c371a4,
hardware store,Pembangunan Perumahan,Seteluk atas,"9VFF+J2P, Seteluk Atas, Kec. Seteluk, Kabupaten Sumbawa Barat, Nusa Tenggara Bar. 84454","Seteluk Atas, Kec. Seteluk, Kabupaten Sumbawa Barat",NUSA TENGGARA BARAT,84454,Indonesia,,,,-8.625919,116.8725919,https://maps.google.com/?cid=0x0:0x9bde1925bd550187,
hardware store,hardware store,Kec. Seteluk,"Kabupaten Sumbawa Barat, Nusa Tenggara Bar.","Kabupaten Sumbawa Barat, Nusa Tenggara Bar.",NUSA TENGGARA BARAT,,Indonesia,,,,-8.6251785,116.8652498,https://maps.google.com/?cid=0x0:0x81f1c5d92dcd6f07,
hardware store,Sekolah Dasar,SDN 3 Seteluk,"9VG6+Q9W, Seteluk Tengah, Kec. Seteluk, Kabupaten Sumbawa Barat, Nusa Tenggara Bar. 84454","Seteluk Tengah, Kec. Seteluk, Kabupaten Sumbawa Barat",NUSA TENGGARA BARAT,84454,Indonesia,,,,-8.6230156,116.8609456,https://maps.google.com/?cid=0x0:0xac6b86957df8c918,
hardware store,Kantor Pemerintah,Desa Seteluk,"9V6H+3PR, sumbawa, Seran, Kec. Seteluk, Kabupaten Sumbawa Barat, Nusa Tenggara Bar. 84454","sumbawa, Seran, Kec. Seteluk, Kabupaten Sumbawa Barat",NUSA TENGGARA BARAT,84454,Indonesia,81349692220.0,,,-8.639769,116.8792553,https://maps.google.com/?cid=0x0:0x946d30e1664519d0,
hardware store,hardware store,Nusa Tenggara Bar. 84457,"Kec. Sekongkang, Kabupaten Sumbawa Barat, Nusa Tenggara Bar.","Kabupaten Sumbawa Barat, Nusa Tenggara Bar.",NUSA TENGGARA BARAT,,Indonesia,,,,-9.0278591,116.9145901,https://maps.google.com/?cid=0x0:0xa55d05be516dbaf,
hardware store,Toko Elektronik,Toko Teknik Bangunan,"Jl. Pendidikan No.2, Sekongkang Atas, Kec. Sekongkang, Kabupaten Sumbawa Barat, Nusa Tenggara Bar. 84457","Sekongkang Atas, Kec. Sekongkang, Kabupaten Sumbawa Barat",NUSA TENGGARA BARAT,84457,Indonesia,8175743451.0,,,-8.9668637,116.7607132,https://maps.google.com/?cid=0x0:0x94debd4e5d0ba0d7,
hardware store,hardware store,kY1LaI6eE8qa4-EPoKPU6AM,,,NUSA TENGGARA BARAT,,Indonesia,87896401375.0,,,-8.911323,116.7620074,https://maps.google.com/?cid=0x0:0x1a2fe9521b046cc6,
hardware store,hardware store,Nusa Tenggara Bar. 84458,"Kec. Brang Rea, Kabupaten Sumbawa Barat, Nusa Tenggara Bar.","Kabupaten Sumbawa Barat, Nusa Tenggara Bar.",NUSA TENGGARA BARAT,,Indonesia,,,,-8.6999135,117.0087877,https://maps.google.com/?cid=0x0:0xd32541cc680b77d1,
hardware store,Kantor Pemerintah Distrik,Kantor Kecamatan Brang Rea,"Jl. Baso Busing No.- Desa, Tepas, Kec. Brang Rea, Kabupaten Sumbawa Barat, Nusa Tenggara Bar. 84458","Tepas, Kec. Brang Rea, Kabupaten Sumbawa Barat",NUSA TENGGARA BARAT,84458,Indonesia,82339196488.0,,,-8.7201352,116.9159326,https://maps.google.com/?cid=0x0:0xe5c54d25b24ef076,
hardware store,Sekolah menengah,SMPN 2 Brang Rea,"8W2W+GCM, Unnamed Road, Bangkat Monteh, Kec. Brang Rea, Kabupaten Sumbawa Barat, Nusa Tenggara Bar. 84458","Unnamed Road, Bangkat Monteh, Kec. Brang Rea, Kabupaten Sumbawa Barat",NUSA TENGGARA BARAT,84458,Indonesia,,,,-8.6986684,116.9460411,https://maps.google.com/?cid=0x0:0x7d92de90b037b4e8,
hardware store,Komplek perumahan,Kantor Desa Desaberu,"7WC5+74V, Desa Beru, Kec. Brang Rea, Kabupaten Sumbawa Barat, Nusa Tenggara Bar. 84455","Desa Beru, Kec. Brang Rea, Kabupaten Sumbawa Barat",NUSA TENGGARA BARAT,84455,Indonesia,,,,-8.7292517,116.9078005,https://maps.google.com/?cid=0x0:0xc9ad772494908f52,
hardware store,Kantor Pemerintah,Desa bangkat monteh,"7WP9+H49, Tepas, Kec. Brang Rea, Kabupaten Sumbawa Barat, Nusa Tenggara Bar.","Kabupaten Sumbawa Barat, Nusa Tenggara Bar.",NUSA TENGGARA BARAT,,Indonesia,,,,-8.7135824,116.9178603,https://maps.google.com/?cid=0x0:0x6566d572bb55de47,
hardware store,hardware store,Kec. Brang Rea,"Kabupaten Sumbawa Barat, Nusa Tenggara Bar.","Kabupaten Sumbawa Barat, Nusa Tenggara Bar.",NUSA TENGGARA BARAT,,Indonesia,,,,-8.7135824,116.9178603,https://maps.google.com/?cid=0x0:0xcddb557fd4509d8c,
hardware store,Toko Bahan Bangunan,TB. Artha Mas,"6VHG+986, Jl. Pd. Pesantren, Mura, Kec. Brang Ene, Kabupaten Sumbawa Barat, Nusa Tenggara Bar. 84455","Jl. Pd. Pesantren, Mura, Kec. Brang Ene, Kabupaten Sumbawa Barat",NUSA TENGGARA BARAT,84455,Indonesia,82342241204.0,,,-8.7715995,116.875767,https://maps.google.com/?cid=0x0:0x79c489e5c471f303,
hardware store,Toko Pakaian,UD.Semoga Sukses,"Tapir, Kec. Seteluk, Kabupaten Sumbawa Barat, Nusa Tenggara Bar. 84454","Kec. Seteluk, Kabupaten Sumbawa Barat",NUSA TENGGARA BARAT,84454,Indonesia,81246540687.0,,,-8.6425492,116.8554132,https://maps.google.com/?cid=0x0:0xa43eae842cb2554b,
hardware store,Toko Perlengkapan Rumah,UD. NIRMALA,"6RRJ+463, Jalan Raya, Telaga Bertong, Taliwang, West Sumbawa Regency, West Nusa Tenggara 84455","Jalan Raya, Telaga Bertong, Taliwang, West Sumbawa Regency",NUSA TENGGARA BARAT,84455,Indonesia,85239052302.0,,,-8.7597485,116.8305372,https://maps.google.com/?cid=0x0:0xef467d1e48df59e6,
hardware store,Toko Bahan Bangunan,U.D PUTRA JAYA,"Jl. Raya Taliwang, Sampir, Kec. Taliwang, Kabupaten Sumbawa Barat, Nusa Tenggara Bar. 84452","Sampir, Kec. Taliwang, Kabupaten Sumbawa Barat",NUSA TENGGARA BARAT,84452,Indonesia,82340008122.0,,,-8.7240458,116.854266,https://maps.google.com/?cid=0x0:0xb93b8d48c0a7bdc9,
hardware store,Toko Bahan Bangunan,Ud.Cahaya Bangunan,"7V25+J7V Al-Ihlas, Jl. Pd. Pesantren JL, Dalam, Taliwang, West Sumbawa Regency, West Nusa Tenggara 84455","Jl. Pd. Pesantren JL, Dalam, Taliwang, West Sumbawa Regency",NUSA TENGGARA BARAT,84455,Indonesia,81339778911.0,,,-8.7483764,116.8581843,https://maps.google.com/?cid=0x0:0x43908cebd3732b04,
hardware store,Toko Perlengkapan Rumah,MR.DIY,"Jl. Jend. Sudirman, Kuang, Kec. Taliwang, Kabupaten Sumbawa Barat, Nusa Tenggara Bar. 84455","Kuang, Kec. Taliwang, Kabupaten Sumbawa Barat",NUSA TENGGARA BARAT,84455,Indonesia,,,,-8.7421295,116.8510449,https://maps.google.com/?cid=0x0:0x1ece83acdc2449bf,
hardware store,Toko Bahan Bangunan,Depo Bangunan Toko,"JL St Syahrir, RT 005/01, Bugis, Kec. Taliwang, Kabupaten Sumbawa Barat, Nusa Tenggara Bar. 84355","RT 005/01, Bugis, Kec. Taliwang, Kabupaten Sumbawa Barat",NUSA TENGGARA BARAT,84355,Indonesia,37281797.0,,,-8.7465406,116.8344096,https://maps.google.com/?cid=0x0:0x1c089e160c4a5868,
hardware store,Toko Alat Tulis Kantor,Toko Kosa Informatika,"7V44+6Q9, Menala, Kec. Taliwang, Kabupaten Sumbawa Barat, Nusa Tenggara Bar. 84455","Menala, Kec. Taliwang, Kabupaten Sumbawa Barat",NUSA TENGGARA BARAT,84455,Indonesia,,,,-8.7444517,116.8569783,https://maps.google.com/?cid=0x0:0x9301c51638488b5a,
hardware store,Toko Bahan Bangunan,TB. Abdi Jaya,"Jl. Pendidikan, Goa, Kec. Jereweh, Kabupaten Sumbawa Barat, Nusa Tenggara Bar. 84456","Goa, Kec. Jereweh, Kabupaten Sumbawa Barat",NUSA TENGGARA BARAT,84456,Indonesia,81803803804.0,,,-8.848384,116.8182737,https://maps.google.com/?cid=0x0:0xbf9f143789caef6b,
hardware store,Toko,Toko Bahan Bangunan UD. TIGA PUTRA,"RT.007 RW. 004 Dusun Tapir Luar Desa Tapir Kec. Seteluk, Air Suning, Kec. Taliwang, Kabupaten Sumbawa Barat, Nusa Tenggara Bar. 84454","Air Suning, Kec. Taliwang, Kabupaten Sumbawa Barat",NUSA TENGGARA BARAT,84454,Indonesia,85338757245.0,,,-8.6447357,116.8553575,https://maps.google.com/?cid=0x0:0xaaaeb0d320927d2a,
hardware store,Pemasok Bahan Bangunan,Supermarket Bahan Bangunan Sumber Mas,"Jl. Diponegoro No.18, Bugis, Kec. Sumbawa, Kabupaten Sumbawa, Nusa Tenggara Bar. 84313","Bugis, Kec. Sumbawa, Kabupaten Sumbawa",NUSA TENGGARA BARAT,84313,Indonesia,85338002696.0,,,-8.4976828,117.4243998,https://maps.google.com/?cid=0x0:0xec7dd62e6b040cfa,
hardware store,Penjahit,Toko Andaluri,"Jl. Patimura No.07, Bugis, Kec. Taliwang, Kabupaten Sumbawa Barat, Nusa Tenggara Bar. 84455","Bugis, Kec. Taliwang, Kabupaten Sumbawa Barat",NUSA TENGGARA BARAT,84455,Indonesia,37281159.0,,,-8.7415535,116.8479785,https://maps.google.com/?cid=0x0:0x180c945413781cf6,
hardware store,Toko,Toko alat tulis fotocopy - UD.MITRA MBOZO,"Jalan Pendidikan Lingkungan Telaga Baru A Rt/Rw 002/001, Telaga Bertong, Kec. Taliwang, Nusa Tenggara Bar. 84455","Telaga Bertong, Kec. Taliwang",NUSA TENGGARA BARAT,84455,Indonesia,82318258111.0,,,-8.7522818,116.832879,https://maps.google.com/?cid=0x0:0x5ce80e91c20a0123,
hardware store,Toko Alat Tulis Kantor,UD ARSAL,"Kelanir, Jl. Raya Lintas, Kelanir, Kec. Seteluk, Kabupaten Sumbawa Barat, Nusa Tenggara Bar. 84454","Jl. Raya Lintas, Kelanir, Kec. Seteluk, Kabupaten Sumbawa Barat",NUSA TENGGARA BARAT,84454,Indonesia,85238796804.0,,,-8.6763297,116.8331216,https://maps.google.com/?cid=0x0:0xe0bdb98631a866e,
hardware store,Toko Bahan Bangunan,Toko Bangunan Sumber Mas,"Jorok, Kec. Unter Iwes, Kabupaten Sumbawa, Nusa Tenggara Bar. 84316","Kec. Unter Iwes, Kabupaten Sumbawa",NUSA TENGGARA BARAT,84316,Indonesia,85338002696.0,,,-8.5324729,117.4373641,https://maps.google.com/?cid=0x0:0x98d60460abe23b2,
hardware store,Kantor Perusahaan,Yamaha Tugu Mas Taliwang,"7R5V+47W, Bugis, Kec. Taliwang, Kabupaten Sumbawa Barat, Nusa Tenggara Bar. 84455","Bugis, Kec. Taliwang, Kabupaten Sumbawa Barat",NUSA TENGGARA BARAT,84455,Indonesia,,,,-8.7421251,116.8431919,https://maps.google.com/?cid=0x0:0xac1b0082ecf86381,
hardware store,hardware store,Nusa Tenggara Bar. 84454,"Kec. Seteluk, Kabupaten Sumbawa Barat, Nusa Tenggara Bar.","Kabupaten Sumbawa Barat, Nusa Tenggara Bar.",NUSA TENGGARA BARAT,,Indonesia,,,,-8.5906982,116.8674757,https://maps.google.com/?cid=0x0:0xabcb20c0c162b41d,
hardware store,Toko Pakaian,UD.Semoga Sukses,"Tapir, Kec. Seteluk, Kabupaten Sumbawa Barat, Nusa Tenggara Bar. 84454","Kec. Seteluk, Kabupaten Sumbawa Barat",NUSA TENGGARA BARAT,84454,Indonesia,81246540687.0,,,-8.6425492,116.8554132,https://maps.google.com/?cid=0x0:0xa43eae842cb2554b,
hardware store,Toko Bahan Bangunan,U.D PUTRA JAYA,"Jl. Raya Taliwang, Sampir, Kec. Taliwang, Kabupaten Sumbawa Barat, Nusa Tenggara Bar. 84452","Sampir, Kec. Taliwang, Kabupaten Sumbawa Barat",NUSA TENGGARA BARAT,84452,Indonesia,82340008122.0,,,-8.7240458,116.854266,https://maps.google.com/?cid=0x0:0xb93b8d48c0a7bdc9,
hardware store,Toko Bahan Bangunan,Ud.Cahaya Bangunan,"7V25+J7V Al-Ihlas, Jl. Pd. Pesantren JL, Dalam, Taliwang, West Sumbawa Regency, West Nusa Tenggara 84455","Jl. Pd. Pesantren JL, Dalam, Taliwang, West Sumbawa Regency",NUSA TENGGARA BARAT,84455,Indonesia,81339778911.0,,,-8.7483764,116.8581843,https://maps.google.com/?cid=0x0:0x43908cebd3732b04,
hardware store,Toko Bahan Bangunan,Depo Bangunan Toko,"JL St Syahrir, RT 005/01, Bugis, Kec. Taliwang, Kabupaten Sumbawa Barat, Nusa Tenggara Bar. 84355","RT 005/01, Bugis, Kec. Taliwang, Kabupaten Sumbawa Barat",NUSA TENGGARA BARAT,84355,Indonesia,37281797.0,,,-8.7465406,116.8344096,https://maps.google.com/?cid=0x0:0x1c089e160c4a5868,
hardware store,Toko Alat Tulis Kantor,UD. Vharozo,"Dusun Bda Rea, RT./RW/RW.024/013, Seteluk Tengah, Kec. Seteluk, Kabupaten Sumbawa Barat, Nusa Tenggara Bar. 84454","RT./RW/RW.024/013, Seteluk Tengah, Kec. Seteluk, Kabupaten Sumbawa Barat",NUSA TENGGARA BARAT,84454,Indonesia,81353488597.0,,,-8.5934865,116.8969234,https://maps.google.com/?cid=0x0:0xf2aecd8d480e6136,
hardware store,Toko Alat Tulis Kantor,Toko Kosa Informatika,"7V44+6Q9, Menala, Kec. Taliwang, Kabupaten Sumbawa Barat, Nusa Tenggara Bar. 84455","Menala, Kec. Taliwang, Kabupaten Sumbawa Barat",NUSA TENGGARA BARAT,84455,Indonesia,,,,-8.7444517,116.8569783,https://maps.google.com/?cid=0x0:0x9301c51638488b5a,
hardware store,Toko,Toko alat tulis fotocopy - UD.MITRA MBOZO,"Jalan Pendidikan Lingkungan Telaga Baru A Rt/Rw 002/001, Telaga Bertong, Kec. Taliwang, Nusa Tenggara Bar. 84455","Telaga Bertong, Kec. Taliwang",NUSA TENGGARA BARAT,84455,Indonesia,82318258111.0,,,-8.7522818,116.832879,https://maps.google.com/?cid=0x0:0x5ce80e91c20a0123,
hardware store,Toko Perlengkapan Rumah,MR.DIY,"Jl. Jend. Sudirman, Kuang, Kec. Taliwang, Kabupaten Sumbawa Barat, Nusa Tenggara Bar. 84455","Kuang, Kec. Taliwang, Kabupaten Sumbawa Barat",NUSA TENGGARA BARAT,84455,Indonesia,,,,-8.7421295,116.8510449,https://maps.google.com/?cid=0x0:0x1ece83acdc2449bf,
hardware store,Toko Perlengkapan Rumah,UD. NIRMALA,"6RRJ+463, Jalan Raya, Telaga Bertong, Taliwang, West Sumbawa Regency, West Nusa Tenggara 84455","Jalan Raya, Telaga Bertong, Taliwang, West Sumbawa Regency",NUSA TENGGARA BARAT,84455,Indonesia,85239052302.0,,,-8.7597485,116.8305372,https://maps.google.com/?cid=0x0:0xef467d1e48df59e6,
hardware store,Toko Alat Tulis Kantor,UD ARSAL,"Kelanir, Jl. Raya Lintas, Kelanir, Kec. Seteluk, Kabupaten Sumbawa Barat, Nusa Tenggara Bar. 84454","Jl. Raya Lintas, Kelanir, Kec. Seteluk, Kabupaten Sumbawa Barat",NUSA TENGGARA BARAT,84454,Indonesia,85238796804.0,,,-8.6763297,116.8331216,https://maps.google.com/?cid=0x0:0xe0bdb98631a866e,
hardware store,Toko,Toko Bahan Bangunan UD. TIGA PUTRA,"RT.007 RW. 004 Dusun Tapir Luar Desa Tapir Kec. Seteluk, Air Suning, Kec. Taliwang, Kabupaten Sumbawa Barat, Nusa Tenggara Bar. 84454","Air Suning, Kec. Taliwang, Kabupaten Sumbawa Barat",NUSA TENGGARA BARAT,84454,Indonesia,85338757245.0,,,-8.6447357,116.8553575,https://maps.google.com/?cid=0x0:0xaaaeb0d320927d2a,
hardware store,hardware store,Kec. Poto Tano,"Kabupaten Sumbawa Barat, Nusa Tenggara Bar.","Kabupaten Sumbawa Barat, Nusa Tenggara Bar.",NUSA TENGGARA BARAT,,Indonesia,,,,-8.6112479,116.8509959,https://maps.google.com/?cid=0x0:0x7be8887b6d6e9b35,
hardware store,hardware store,Nusa Tenggara Bar. 84455,"Kabupaten Sumbawa Barat, Nusa Tenggara Bar.","Kabupaten Sumbawa Barat, Nusa Tenggara Bar.",NUSA TENGGARA BARAT,,Indonesia,,,,-8.7907453,116.8674757,https://maps.google.com/?cid=0x0:0x5fda0016832273b3,
hardware store,Toko Bahan Bangunan,TB. Artha Mas,"6VHG+986, Jl. Pd. Pesantren, Mura, Kec. Brang Ene, Kabupaten Sumbawa Barat, Nusa Tenggara Bar. 84455","Jl. Pd. Pesantren, Mura, Kec. Brang Ene, Kabupaten Sumbawa Barat",NUSA TENGGARA BARAT,84455,Indonesia,82342241204.0,,,-8.7715995,116.875767,https://maps.google.com/?cid=0x0:0x79c489e5c471f303,
hardware store,Toko Perlengkapan Rumah,UD. NIRMALA,"6RRJ+463, Jalan Raya, Telaga Bertong, Taliwang, West Sumbawa Regency, West Nusa Tenggara 84455","Jalan Raya, Telaga Bertong, Taliwang, West Sumbawa Regency",NUSA TENGGARA BARAT,84455,Indonesia,85239052302.0,,,-8.7597485,116.8305372,https://maps.google.com/?cid=0x0:0xef467d1e48df59e6,
hardware store,Toko Pakaian,UD.Semoga Sukses,"Tapir, Kec. Seteluk, Kabupaten Sumbawa Barat, Nusa Tenggara Bar. 84454","Kec. Seteluk, Kabupaten Sumbawa Barat",NUSA TENGGARA BARAT,84454,Indonesia,81246540687.0,,,-8.6425492,116.8554132,https://maps.google.com/?cid=0x0:0xa43eae842cb2554b,
hardware store,Toko Bahan Bangunan,Ud.Cahaya Bangunan,"7V25+J7V Al-Ihlas, Jl. Pd. Pesantren JL, Dalam, Taliwang, West Sumbawa Regency, West Nusa Tenggara 84455","Jl. Pd. Pesantren JL, Dalam, Taliwang, West Sumbawa Regency",NUSA TENGGARA BARAT,84455,Indonesia,81339778911.0,,,-8.7483764,116.8581843,https://maps.google.com/?cid=0x0:0x43908cebd3732b04,
hardware store,Toko Bahan Bangunan,Depo Bangunan Toko,"JL St Syahrir, RT 005/01, Bugis, Kec. Taliwang, Kabupaten Sumbawa Barat, Nusa Tenggara Bar. 84355","RT 005/01, Bugis, Kec. Taliwang, Kabupaten Sumbawa Barat",NUSA TENGGARA BARAT,84355,Indonesia,37281797.0,,,-8.7465406,116.8344096,https://maps.google.com/?cid=0x0:0x1c089e160c4a5868,
hardware store,Toko Bahan Bangunan,U.D PUTRA JAYA,"Jl. Raya Taliwang, Sampir, Kec. Taliwang, Kabupaten Sumbawa Barat, Nusa Tenggara Bar. 84452","Sampir, Kec. Taliwang, Kabupaten Sumbawa Barat",NUSA TENGGARA BARAT,84452,Indonesia,82340008122.0,,,-8.7240458,116.854266,https://maps.google.com/?cid=0x0:0xb93b8d48c0a7bdc9,
hardware store,Toko Perlengkapan Rumah,MR.DIY,"Jl. Jend. Sudirman, Kuang, Kec. Taliwang, Kabupaten Sumbawa Barat, Nusa Tenggara Bar. 84455","Kuang, Kec. Taliwang, Kabupaten Sumbawa Barat",NUSA TENGGARA BARAT,84455,Indonesia,,,,-8.7421295,116.8510449,https://maps.google.com/?cid=0x0:0x1ece83acdc2449bf,
hardware store,Toko Alat Tulis Kantor,Toko Kosa Informatika,"7V44+6Q9, Menala, Kec. Taliwang, Kabupaten Sumbawa Barat, Nusa Tenggara Bar. 84455","Menala, Kec. Taliwang, Kabupaten Sumbawa Barat",NUSA TENGGARA BARAT,84455,Indonesia,,,,-8.7444517,116.8569783,https://maps.google.com/?cid=0x0:0x9301c51638488b5a,
hardware store,Toko Alat Tulis Kantor,Feby Potocopy,"Desa Labuhan lalar, RT.01, dusun wara A, Kec. Taliwang, Kabupaten Sumbawa Barat, Nusa Tenggara Bar. 84355","RT.01, dusun wara A, Kec. Taliwang, Kabupaten Sumbawa Barat",NUSA TENGGARA BARAT,84355,Indonesia,85205223773.0,,,-8.8127232,116.8167421,https://maps.google.com/?cid=0x0:0xc1eea206af6c93ce,
hardware store,Toko,TB. PUTRA JAYA,"4Q48+HGV, Benete, Kec. Maluk, Kabupaten Sumbawa Barat, Nusa Tenggara Bar. 84456","Benete, Kec. Maluk, Kabupaten Sumbawa Barat",NUSA TENGGARA BARAT,84456,Indonesia,87863990444.0,,,-8.893501,116.7663076,https://maps.google.com/?cid=0x0:0x9ba23a3d8870d1c,
hardware store,hardware store,II5LaNLIG_ie4-EPwIOpmQw,,,NUSA TENGGARA BARAT,,Indonesia,87896401375.0,,,-8.911323,116.7620074,https://maps.google.com/?cid=0x0:0x1a2fe9521b046cc6,
hardware store,Toko,Toko alat tulis fotocopy - UD.MITRA MBOZO,"Jalan Pendidikan Lingkungan Telaga Baru A Rt/Rw 002/001, Telaga Bertong, Kec. Taliwang, Nusa Tenggara Bar. 84455","Telaga Bertong, Kec. Taliwang",NUSA TENGGARA BARAT,84455,Indonesia,82318258111.0,,,-8.7522818,116.832879,https://maps.google.com/?cid=0x0:0x5ce80e91c20a0123,
hardware store,Sekolah menengah,SMPN 1 BRANG ENE,"Mura, Kec. Brang Ene, Kabupaten Sumbawa Barat, Nusa Tenggara Bar. 84455","Kec. Brang Ene, Kabupaten Sumbawa Barat",NUSA TENGGARA BARAT,84455,Indonesia,82340708426.0,,,-8.7718846,116.8752901,https://maps.google.com/?cid=0x0:0x277a28635c7ca731,
hardware store,Toko Alat Tulis Kantor,UD.TAMPARANG PRINTING,"5RP8+78V, Labuan Lalar, Kec. Taliwang, Kabupaten Sumbawa Barat, Nusa Tenggara Bar.","Kabupaten Sumbawa Barat, Nusa Tenggara Bar.",NUSA TENGGARA BARAT,,Indonesia,85337269997.0,,,-8.8142565,116.8157959,https://maps.google.com/?cid=0x0:0x4a48862d59593f88,
hardware store,Penjahit,Toko Andaluri,"Jl. Patimura No.07, Bugis, Kec. Taliwang, Kabupaten Sumbawa Barat, Nusa Tenggara Bar. 84455","Bugis, Kec. Taliwang, Kabupaten Sumbawa Barat",NUSA TENGGARA BARAT,84455,Indonesia,37281159.0,,,-8.7415535,116.8479785,https://maps.google.com/?cid=0x0:0x180c945413781cf6,
hardware store,Toko,Toko Bahan Bangunan UD. TIGA PUTRA,"RT.007 RW. 004 Dusun Tapir Luar Desa Tapir Kec. Seteluk, Air Suning, Kec. Taliwang, Kabupaten Sumbawa Barat, Nusa Tenggara Bar. 84454","Air Suning, Kec. Taliwang, Kabupaten Sumbawa Barat",NUSA TENGGARA BARAT,84454,Indonesia,85338757245.0,,,-8.6447357,116.8553575,https://maps.google.com/?cid=0x0:0xaaaeb0d320927d2a,
hardware store,Toko Alat Tulis Kantor,Toko Al-Barkah,"Lingkungan Telaga Baru A, RT.001/RW.001, Telaga Bertong, Kec. Taliwang, Kabupaten Sumbawa Barat, Nusa Tenggara Bar. 84455","RT.001/RW.001, Telaga Bertong, Kec. Taliwang, Kabupaten Sumbawa Barat",NUSA TENGGARA BARAT,84455,Indonesia,85338663262.0,,,-8.7498043,116.8308732,https://maps.google.com/?cid=0x0:0x711f8691f953ab73,
hardware store,Komplek perumahan,Dusun Mekarsari,"6VCF+738, Manemeng, Kec. Brang Ene, Kabupaten Sumbawa Barat, Nusa Tenggara Bar. 84455","Manemeng, Kec. Brang Ene, Kabupaten Sumbawa Barat",NUSA TENGGARA BARAT,84455,Indonesia,,,,-8.7793459,116.8727129,https://maps.google.com/?cid=0x0:0x8a2f8afbfa41b27,
hardware store,Toko Bahan Bangunan,DISTRIBUTOR BATA RINGAN NTB DAN MORTAR NTB,"Maluk, Mantun, Sumbawa besar, Kabupaten Sumbawa Barat, Nusa Tenggara Timur 84313","Mantun, Sumbawa besar, Kabupaten Sumbawa Barat",NUSA TENGGARA BARAT,84313,Indonesia,81337651464.0,,,-8.9101355,116.753349,https://maps.google.com/?cid=0x0:0x1ff184f7484d9fd,
hardware store,Toko Bahan Bangunan,UD,"5W65+6WV, Desa, Mataiyang, Kec. Brang Ene, Kabupaten Sumbawa Barat, Nusa Tenggara Bar. 84355","Desa, Mataiyang, Kec. Brang Ene, Kabupaten Sumbawa Barat",NUSA TENGGARA BARAT,84355,Indonesia,82236844877.0,,,-8.8393967,116.909809,https://maps.google.com/?cid=0x0:0x6184151e4f57e4e0,
hardware store,Toko Bahan Bangunan,Toko bangunan (UD.FITRAH),"7R2W+PV6, Kuang, Kec. Taliwang, Kabupaten Sumbawa Barat, Nusa Tenggara Bar. 84455","Kuang, Kec. Taliwang, Kabupaten Sumbawa Barat",NUSA TENGGARA BARAT,84455,Indonesia,,,,-8.7482188,116.8471476,https://maps.google.com/?cid=0x0:0x300faa66d2d782aa,
hardware store,Toko grosir,UD.EXITO 2,"6RVF+P34, Telaga Bertong, Kec. Taliwang, Kabupaten Sumbawa Barat, Nusa Tenggara Bar.","Kabupaten Sumbawa Barat, Nusa Tenggara Bar.",NUSA TENGGARA BARAT,,Indonesia,,,,-8.7557388,116.822698,https://maps.google.com/?cid=0x0:0xc2bd6496d487ab88,
hardware store,hardware store,Kec. Brang Ene,"Kabupaten Sumbawa Barat, Nusa Tenggara Bar.","Kabupaten Sumbawa Barat, Nusa Tenggara Bar.",NUSA TENGGARA BARAT,,Indonesia,,,,-8.7719585,116.8786607,https://maps.google.com/?cid=0x0:0xc4ea915074dc60f7,
hardware store,hardware store,Maluk,"Kec. Maluk, Kabupaten Sumbawa Barat, Nusa Tenggara Bar.","Kabupaten Sumbawa Barat, Nusa Tenggara Bar.",NUSA TENGGARA BARAT,,Indonesia,,,,-8.9238233,116.7673237,https://maps.google.com/?cid=0x0:0x47ef5cc6638a6493,
hardware store,Jasa Konstruksi dan Bangunan,"PT ALDO JAYA (BANGUNAN, MEUBEL, ELEKTRONIK)","3QP3+762, Maluk, Kec. Maluk, Kabupaten Sumbawa Barat, Nusa Tenggara Bar. 84456","Maluk, Kec. Maluk, Kabupaten Sumbawa Barat",NUSA TENGGARA BARAT,84456,Indonesia,,,,-8.9143652,116.7530295,https://maps.google.com/?cid=0x0:0xce128e6e3040e92a,
hardware store,Toko,TB. PUTRA JAYA,"4Q48+HGV, Benete, Kec. Maluk, Kabupaten Sumbawa Barat, Nusa Tenggara Bar. 84456","Benete, Kec. Maluk, Kabupaten Sumbawa Barat",NUSA TENGGARA BARAT,84456,Indonesia,87863990444.0,,,-8.893501,116.7663076,https://maps.google.com/?cid=0x0:0x9ba23a3d8870d1c,
hardware store,Grosir Khusus Penganan,TOKO ERNA,"4Q44+G6X, Gang Melati, Benete, Kec. Maluk, Kabupaten Sumbawa Barat, Nusa Tenggara Bar. 84456","Gang Melati, Benete, Kec. Maluk, Kabupaten Sumbawa Barat",NUSA TENGGARA BARAT,84456,Indonesia,,,,-8.8936418,116.7556186,https://maps.google.com/?cid=0x0:0xfcdcff5235e5dde1,
hardware store,Toko Bahan Bangunan,Toko bangunan SKS,"3QP2+8HW, Jalan Raya, Pasir Putih, Maluk, West Sumbawa Regency, West Nusa Tenggara 84456","Jalan Raya, Pasir Putih, Maluk, West Sumbawa Regency",NUSA TENGGARA BARAT,84456,Indonesia,,,,-8.9141312,116.7514577,https://maps.google.com/?cid=0x0:0xdd6bb8086d0235a0,
hardware store,Toko Bahan Bangunan,DISTRIBUTOR BATA RINGAN NTB DAN MORTAR NTB,"Maluk, Mantun, Sumbawa besar, Kabupaten Sumbawa Barat, Nusa Tenggara Timur 84313","Mantun, Sumbawa besar, Kabupaten Sumbawa Barat",NUSA TENGGARA BARAT,84313,Indonesia,81337651464.0,,,-8.9101355,116.753349,https://maps.google.com/?cid=0x0:0x1ff184f7484d9fd,
hardware store,Kafe,TOKO CIA CIFANA MEUBEL,"3PQX+5JJ, Unnamed Road, Mantun, Maluk, West Sumbawa Regency, West Nusa Tenggara 84456","Unnamed Road, Mantun, Maluk, West Sumbawa Regency",NUSA TENGGARA BARAT,84456,Indonesia,,,,-8.9120301,116.7490075,https://maps.google.com/?cid=0x0:0xf0eda3aec2d5d6b0,
hardware store,Bengkel Sepeda Motor,YAMAHA TUGU MAS MALUK,"3QQ2+F9H, Bukit Damai, Kec. Maluk, Kabupaten Sumbawa Barat, Nusa Tenggara Bar. 84456","Bukit Damai, Kec. Maluk, Kabupaten Sumbawa Barat",NUSA TENGGARA BARAT,84456,Indonesia,,,,-8.9113156,116.7509734,https://maps.google.com/?cid=0x0:0xf597c3dd98582395,
hardware store,Toko Alat Tulis Kantor,Braay Stationery  Co,"Jl. Mangga No.64, Bukit Damai, Kec. Maluk, Kabupaten Sumbawa Barat, Nusa Tenggara Bar. 84456","Bukit Damai, Kec. Maluk, Kabupaten Sumbawa Barat",NUSA TENGGARA BARAT,84456,Indonesia,,,,-8.9113167,116.7518527,https://maps.google.com/?cid=0x0:0x8f3fea4d9816bf8e,
hardware store,hardware store,U45LaNnZDLyv4-EP0OrciQg,,,NUSA TENGGARA BARAT,,Indonesia,87896401375.0,,,-8.911323,116.7620074,https://maps.google.com/?cid=0x0:0x1a2fe9521b046cc6,
toko bangunan,toko bangunan,Nusa Tenggara Bar. 84456,"Kec. Jereweh, Kabupaten Sumbawa Barat, Nusa Tenggara Bar.","Kabupaten Sumbawa Barat, Nusa Tenggara Bar.",NUSA TENGGARA BARAT,,Indonesia,,,,-8.947527,116.9145901,https://maps.google.com/?cid=0x0:0xd8d94f4df4b390cb,
toko bangunan,Toko Bahan Bangunan,TB. Abdi Jaya,"Jl. Pendidikan, Goa, Kec. Jereweh, Kabupaten Sumbawa Barat, Nusa Tenggara Bar. 84456","Goa, Kec. Jereweh, Kabupaten Sumbawa Barat",NUSA TENGGARA BARAT,84456,Indonesia,81803803804.0,,,-8.848384,116.8182737,https://maps.google.com/?cid=0x0:0xbf9f143789caef6b,
toko bangunan,Toko,TB. PUTRA JAYA,"4Q48+HGV, Benete, Kec. Maluk, Kabupaten Sumbawa Barat, Nusa Tenggara Bar. 84456","Benete, Kec. Maluk, Kabupaten Sumbawa Barat",NUSA TENGGARA BARAT,84456,Indonesia,87863990444.0,,,-8.893501,116.7663076,https://maps.google.com/?cid=0x0:0x9ba23a3d8870d1c,
toko bangunan,Toko Bahan Bangunan,Toko bangunan SKS,"3QP2+8HW, Jalan Raya, Pasir Putih, Maluk, West Sumbawa Regency, West Nusa Tenggara 84456","Jalan Raya, Pasir Putih, Maluk, West Sumbawa Regency",NUSA TENGGARA BARAT,84456,Indonesia,,,,-8.9141312,116.7514577,https://maps.google.com/?cid=0x0:0xdd6bb8086d0235a0,
toko bangunan,Toko Bahan Bangunan,Tk Avina,"5RF8+3WV, Jalan, Dasan Anyar, Jereweh, West Sumbawa Regency, West Nusa Tenggara 84455","Jalan, Dasan Anyar, Jereweh, West Sumbawa Regency",NUSA TENGGARA BARAT,84455,Indonesia,,,,-8.827266,116.8172933,https://maps.google.com/?cid=0x0:0x5df5e38b4eac776,
toko bangunan,Toko Bahan Bangunan,Toko Bangunan UD.YUNIMAR,"3PPW+HPH, Jl. Raya Pasir Putih, Mantun, Maluk, West Sumbawa Regency, West Nusa Tenggara","Kabupaten Sumbawa Barat, Nusa Tenggara Bar.",NUSA TENGGARA BARAT,,Indonesia,,,,-8.9135543,116.7468585,https://maps.google.com/?cid=0x0:0xe1c60cead5be130e,
toko bangunan,Toko Bahan Bangunan,toko bangunan UD.SYIFA,"selatan, jalan sadar wisata, Pasir Putih, Maluk, West Sumbawa Regency, West Nusa Tenggara","Kabupaten Sumbawa Barat, Nusa Tenggara Bar.",NUSA TENGGARA BARAT,,Indonesia,85337230847.0,,,-8.9174535,116.7514763,https://maps.google.com/?cid=0x0:0x1ff3cfaa4f3b2f7e,
toko bangunan,Toko Bahan Bangunan,TOKO BANGUNAN FINGKY,"5RF9+C4M, Dusun baru Pasinggah, RT.09/RW.03, Desa Dasan, Kec. Jereweh, Kabupaten Sumbawa Barat, Nusa Tenggara Bar.","Kabupaten Sumbawa Barat, Nusa Tenggara Bar.",NUSA TENGGARA BARAT,,Indonesia,85337254887.0,,,-8.8264127,116.8177822,https://maps.google.com/?cid=0x0:0x36d497bb51ffba6a,
toko bangunan,Toko Bahan Bangunan,Toko Bahan Bangunan  Elektronik Gonik Mas,"3QP2+8HP, Jl. Raya Maluk, Pasir Putih, Kec. Maluk, Kabupaten Sumbawa Barat, Nusa Tenggara Bar. 84456","Jl. Raya Maluk, Pasir Putih, Kec. Maluk, Kabupaten Sumbawa Barat",NUSA TENGGARA BARAT,84456,Indonesia,81220022293.0,,,-8.9141593,116.7514672,https://maps.google.com/?cid=0x0:0x8115c37c81e4f388,
toko bangunan,Toko Bahan Bangunan,Toko babguna,"Goa, Kec. Jereweh, Kabupaten Sumbawa Barat, Nusa Tenggara Bar. 84456","Kec. Jereweh, Kabupaten Sumbawa Barat",NUSA TENGGARA BARAT,84456,Indonesia,,,,-8.8408127,116.8026767,https://maps.google.com/?cid=0x0:0x27632e1874b66f43,
toko bangunan,Pusat Perbelanjaan,UD ICHAL JAYA BANGUNAN 01,"Kemuning, Kec. Sekongkang, Kabupaten Sumbawa Barat, Nusa Tenggara Bar. 84457","Kec. Sekongkang, Kabupaten Sumbawa Barat",NUSA TENGGARA BARAT,84457,Indonesia,,,,-8.9611053,116.7609123,https://maps.google.com/?cid=0x0:0x3a6ea3dbb3444a4e,
toko bangunan,Toko Bahan Bangunan,UD.Balebesi,"Benete, Kec. Maluk, Kabupaten Sumbawa Barat, Nusa Tenggara Bar.","Kabupaten Sumbawa Barat, Nusa Tenggara Bar.",NUSA TENGGARA BARAT,,Indonesia,8113907367.0,,,-8.8961583,116.7724214,https://maps.google.com/?cid=0x0:0xf9995deb1310b2e7,
toko bangunan,Toko Bahan Bangunan,Jotun Multicolor Center,"3QQ2+984, Jalan Raya, Mantun, Maluk, West Sumbawa Regency, West Nusa Tenggara 84456","Jalan Raya, Mantun, Maluk, West Sumbawa Regency",NUSA TENGGARA BARAT,84456,Indonesia,,,,-8.9116083,116.7508202,https://maps.google.com/?cid=0x0:0xdc64f94c315ca50a,
toko bangunan,Toko Bahan Bangunan,Toko Bangunan Sumber Mas,"Jorok, Kec. Unter Iwes, Kabupaten Sumbawa, Nusa Tenggara Bar. 84316","Kec. Unter Iwes, Kabupaten Sumbawa",NUSA TENGGARA BARAT,84316,Indonesia,85338002696.0,,,-8.5324729,117.4373641,https://maps.google.com/?cid=0x0:0x98d60460abe23b2,
toko bangunan,Toko Bahan Bangunan,UD TAMPAK NAMA,"XRF6+C2P, Tongo, Kec. Sekongkang, Kabupaten Sumbawa Barat, Nusa Tenggara Bar. 84457","Tongo, Kec. Sekongkang, Kabupaten Sumbawa Barat",NUSA TENGGARA BARAT,84457,Indonesia,82340117146.0,,,-9.0264233,116.8100796,https://maps.google.com/?cid=0x0:0xaff393e26227ecbb,
toko bangunan,Jasa Konstruksi dan Bangunan,"PT ALDO JAYA (BANGUNAN, MEUBEL, ELEKTRONIK)","3QP3+762, Maluk, Kec. Maluk, Kabupaten Sumbawa Barat, Nusa Tenggara Bar. 84456","Maluk, Kec. Maluk, Kabupaten Sumbawa Barat",NUSA TENGGARA BARAT,84456,Indonesia,,,,-8.9143652,116.7530295,https://maps.google.com/?cid=0x0:0xce128e6e3040e92a,
toko bangunan,Toko Bahan Bangunan,Depo Bangunan Toko,"JL St Syahrir, RT 005/01, Bugis, Kec. Taliwang, Kabupaten Sumbawa Barat, Nusa Tenggara Bar. 84355","RT 005/01, Bugis, Kec. Taliwang, Kabupaten Sumbawa Barat",NUSA TENGGARA BARAT,84355,Indonesia,37281797.0,,,-8.7465406,116.8344096,https://maps.google.com/?cid=0x0:0x1c089e160c4a5868,
toko bangunan,Toko Bahan Bangunan,DISTRIBUTOR BATA RINGAN NTB DAN MORTAR NTB,"Maluk, Mantun, Sumbawa besar, Kabupaten Sumbawa Barat, Nusa Tenggara Timur 84313","Mantun, Sumbawa besar, Kabupaten Sumbawa Barat",NUSA TENGGARA BARAT,84313,Indonesia,81337651464.0,,,-8.9101355,116.753349,https://maps.google.com/?cid=0x0:0x1ff184f7484d9fd,
toko bangunan,Toko Bahan Bangunan,Toko Graha Jaya Bangunan,"GCG3+9FG, Jl. Garuda, Labuan Sumbawa, Labuhan Badas, Kabupaten Sumbawa, Nusa Tenggara Bar. 84316","Jl. Garuda, Labuan Sumbawa, Labuhan Badas, Kabupaten Sumbawa",NUSA TENGGARA BARAT,84316,Indonesia,,,,-8.4740576,117.4036889,https://maps.google.com/?cid=0x0:0x23362865509fe3fc,
toko bangunan,Pusat Perbelanjaan,ALDO JAYA BANGUNAN,"3QQ2+Q55, Unnamed Road, Mantun, Kec. Maluk, Kabupaten Sumbawa Barat, Nusa Tenggara Bar. 84456","Unnamed Road, Mantun, Kec. Maluk, Kabupaten Sumbawa Barat",NUSA TENGGARA BARAT,84456,Indonesia,,,,-8.9106081,116.7504846,https://maps.google.com/?cid=0x0:0xe2906b0fb843a204,
toko bangunan,toko bangunan,Taliwang,"Kuang, Kec. Taliwang, Kabupaten Sumbawa Barat, Nusa Tenggara Bar.","Kabupaten Sumbawa Barat, Nusa Tenggara Bar.",NUSA TENGGARA BARAT,,Indonesia,,,,-8.751946,116.854599,https://maps.google.com/?cid=0x0:0xf98bdc32d4193ccb,
toko bangunan,Toko Bahan Bangunan,Ud.Cahaya Bangunan,"7V25+J7V Al-Ihlas, Jl. Pd. Pesantren JL, Dalam, Taliwang, West Sumbawa Regency, West Nusa Tenggara 84455","Jl. Pd. Pesantren JL, Dalam, Taliwang, West Sumbawa Regency",NUSA TENGGARA BARAT,84455,Indonesia,81339778911.0,,,-8.7483764,116.8581843,https://maps.google.com/?cid=0x0:0x43908cebd3732b04,
toko bangunan,Toko Bahan Bangunan,Toko Senter Bangunan,"7R4W+QPW, Jl. Ps. Baru, Dalam, Kec. Taliwang, Kabupaten Sumbawa Barat, Nusa Tenggara Bar. 84455","Jl. Ps. Baru, Dalam, Kec. Taliwang, Kabupaten Sumbawa Barat",NUSA TENGGARA BARAT,84455,Indonesia,37281059.0,,,-8.7430177,116.8468144,https://maps.google.com/?cid=0x0:0x4caf7cd21eb7421c,
toko bangunan,Toko Bahan Bangunan,Toko bangunan (UD.FITRAH),"7R2W+PV6, Kuang, Kec. Taliwang, Kabupaten Sumbawa Barat, Nusa Tenggara Bar. 84455","Kuang, Kec. Taliwang, Kabupaten Sumbawa Barat",NUSA TENGGARA BARAT,84455,Indonesia,,,,-8.7482188,116.8471476,https://maps.google.com/?cid=0x0:0x300faa66d2d782aa,
toko bangunan,Toko Bahan Bangunan,UD. Taliwang Bangunan,"7R2P+2C8, Jalan Raya, Telaga Bertong, Taliwang, West Sumbawa Regency, West Nusa Tenggara 84455","Jalan Raya, Telaga Bertong, Taliwang, West Sumbawa Regency",NUSA TENGGARA BARAT,84455,Indonesia,,,,-8.7499716,116.8360678,https://maps.google.com/?cid=0x0:0x968492bd91c92f40,
toko bangunan,Toko Bahan Bangunan,UD. PUSAKA 45 Toko Bangunan,"Jl. Baso Busing No.Desa, Desa Beru, Kec. Taliwang, Kabupaten Sumbawa Barat, Nusa Tenggara Bar. 84458","Desa Beru, Kec. Taliwang, Kabupaten Sumbawa Barat",NUSA TENGGARA BARAT,84458,Indonesia,81339895887.0,,,-8.728729,116.90789,https://maps.google.com/?cid=0x0:0xdffa512d28b70117,
toko bangunan,Toko Bahan Bangunan,Toko SAHABAT,"Bugis, Kec. Taliwang, Kabupaten Sumbawa Barat, Nusa Tenggara Bar. 84455","Kec. Taliwang, Kabupaten Sumbawa Barat",NUSA TENGGARA BARAT,84455,Indonesia,82341581315.0,,,-8.7486614,116.8308238,https://maps.google.com/?cid=0x0:0x8b8936b93636d7b7,
toko bangunan,Toko Perlengkapan Rumah,UD. NIRMALA,"6RRJ+463, Jalan Raya, Telaga Bertong, Taliwang, West Sumbawa Regency, West Nusa Tenggara 84455","Jalan Raya, Telaga Bertong, Taliwang, West Sumbawa Regency",NUSA TENGGARA BARAT,84455,Indonesia,85239052302.0,,,-8.7597485,116.8305372,https://maps.google.com/?cid=0x0:0xef467d1e48df59e6,
toko bangunan,Toko Bahan Bangunan,UD. SAHABAT,"7R4W+V5W, Jl. Ps. Baru, kampung arab, Dalam, Kec. Taliwang, Kabupaten Sumbawa Barat, Nusa Tenggara Bar. 84455","Jl. Ps. Baru, kampung arab, Dalam, Kec. Taliwang, Kabupaten Sumbawa Barat",NUSA TENGGARA BARAT,84455,Indonesia,,,,-8.7427593,116.8454638,https://maps.google.com/?cid=0x0:0xb133b2fc1f13c64c,
toko bangunan,Toko Bahan Bangunan,Gudang Cv.Putra Brama,"7V36+49M, Jl. Lintas Taliwang, Tamekan, Kec. Taliwang, Kabupaten Sumbawa Barat, Nusa Tenggara Bar. 84455","Jl. Lintas Taliwang, Tamekan, Kec. Taliwang, Kabupaten Sumbawa Barat",NUSA TENGGARA BARAT,84455,Indonesia,85238192154.0,,,-8.7471501,116.8609356,https://maps.google.com/?cid=0x0:0x72214ffad90109bd,
toko bangunan,Toko Bahan Bangunan,BIN TAHA Teknik  Bangunan,"Arken, Kec. Taliwang, Kabupaten Sumbawa Barat, Nusa Tenggara Bar. 84455","Kec. Taliwang, Kabupaten Sumbawa Barat",NUSA TENGGARA BARAT,84455,Indonesia,81246320617.0,,,-8.7428808,116.8475926,https://maps.google.com/?cid=0x0:0xdf06c77e8d11916c,
toko bangunan,Toko Bahan Bangunan,TOKO INDOKERAMIK,"7R4X+PQF, Jl. Ps. Baru, Dalam, Kec. Taliwang, Kabupaten Sumbawa Barat, Nusa Tenggara Bar. 84455","Jl. Ps. Baru, Dalam, Kec. Taliwang, Kabupaten Sumbawa Barat",NUSA TENGGARA BARAT,84455,Indonesia,,,,-8.7431922,116.8494281,https://maps.google.com/?cid=0x0:0xdb3d452a270b3912,
toko bangunan,Toko Bahan Bangunan,UD Pandu,"7R4F+HJ6, Unnamed Road, Banjar, Kec. Taliwang, Kabupaten Sumbawa Barat, Nusa Tenggara Bar. 84455","Unnamed Road, Banjar, Kec. Taliwang, Kabupaten Sumbawa Barat",NUSA TENGGARA BARAT,84455,Indonesia,,,,-8.743578,116.8240186,https://maps.google.com/?cid=0x0:0x54c58c6ee8669806,
toko bangunan,Toko Perlengkapan Rumah,Taliwang Gypsum,"7R4X+PFR, Jl. Ps. Baru, Dalam, Kec. Taliwang, Kabupaten Sumbawa Barat, Nusa Tenggara Bar. 84455","Jl. Ps. Baru, Dalam, Kec. Taliwang, Kabupaten Sumbawa Barat",NUSA TENGGARA BARAT,84455,Indonesia,81339594628.0,,,-8.7431415,116.8486275,https://maps.google.com/?cid=0x0:0x91a5ba486731e41d,
toko bangunan,Toko Bahan Bangunan,RAJA GALVALUM,"6RQJ+J3H, Telaga Bertong, Kec. Taliwang, Kabupaten Sumbawa Barat, Nusa Tenggara Bar. 84455","Telaga Bertong, Kec. Taliwang, Kabupaten Sumbawa Barat",NUSA TENGGARA BARAT,84455,Indonesia,82340073337.0,,,-8.7602861,116.8303835,https://maps.google.com/?cid=0x0:0x715932b604006ade,
toko bangunan,Toko Bahan Bangunan,UD. ALAM INDAH,"7R6X+C42, Dalam, Kec. Taliwang, Kabupaten Sumbawa Barat, Nusa Tenggara Bar. 84455","Dalam, Kec. Taliwang, Kabupaten Sumbawa Barat",NUSA TENGGARA BARAT,84455,Indonesia,81237426655.0,,,-8.7389766,116.8477779,https://maps.google.com/?cid=0x0:0x64a070efff105fb,
toko bangunan,Toko,Toko Bahan Bangunan UD. TIGA PUTRA,"RT.007 RW. 004 Dusun Tapir Luar Desa Tapir Kec. Seteluk, Air Suning, Kec. Taliwang, Kabupaten Sumbawa Barat, Nusa Tenggara Bar. 84454","Air Suning, Kec. Taliwang, Kabupaten Sumbawa Barat",NUSA TENGGARA BARAT,84454,Indonesia,85338757245.0,,,-8.6447357,116.8553575,https://maps.google.com/?cid=0x0:0xaaaeb0d320927d2a,
toko bangunan,Toko Bahan Bangunan,ALDO JAYA TALIWANG,"6RQH+5P7, Jalan Raya, Bugis, Taliwang, West Sumbawa Regency, West Nusa Tenggara 84455","Jalan Raya, Bugis, Taliwang, West Sumbawa Regency",NUSA TENGGARA BARAT,84455,Indonesia,8113901619.0,,,-8.7620795,116.8293057,https://maps.google.com/?cid=0x0:0xd1339fb1f9af8de9,
toko bangunan,Toko Bahan Bangunan,Toko Raja Cat,"6RRJ+448, Jalan Raya, Telaga Bertong, Taliwang, West Sumbawa Regency, West Nusa Tenggara 84455","Jalan Raya, Telaga Bertong, Taliwang, West Sumbawa Regency",NUSA TENGGARA BARAT,84455,Indonesia,8113901619.0,,,-8.7597177,116.8303372,https://maps.google.com/?cid=0x0:0xf9b5226aabe48073,
toko bangunan,Toko Bahan Bangunan,Toko Bangunan Sumber Mas,"Jorok, Kec. Unter Iwes, Kabupaten Sumbawa, Nusa Tenggara Bar. 84316","Kec. Unter Iwes, Kabupaten Sumbawa",NUSA TENGGARA BARAT,84316,Indonesia,85338002696.0,,,-8.5324729,117.4373641,https://maps.google.com/?cid=0x0:0x98d60460abe23b2,
toko bangunan,toko bangunan,Kec. Seteluk,"Kabupaten Sumbawa Barat, Nusa Tenggara Bar.","Kabupaten Sumbawa Barat, Nusa Tenggara Bar.",NUSA TENGGARA BARAT,,Indonesia,,,,-8.6251785,116.8652498,https://maps.google.com/?cid=0x0:0x81f1c5d92dcd6f07,
toko bangunan,Toko Bahan Bangunan,Tk. Sakti Bangunan,"9VF7+CVQ, Jalan Raya, Seteluk Tengah, Seteluk, West Sumbawa Regency, West Nusa Tenggara 84454","Jalan Raya, Seteluk Tengah, Seteluk, West Sumbawa Regency",NUSA TENGGARA BARAT,84454,Indonesia,81249665679.0,,,-8.6264113,116.864744,https://maps.google.com/?cid=0x0:0x6313ba81cc631baf,
toko bangunan,Toko Bahan Bangunan,TK MULYA JAYA,"Jl. Raya Seteluk No.21, Air Suning, Kec. Seteluk, Kabupaten Sumbawa Barat, Nusa Tenggara Bar. 84454","Air Suning, Kec. Seteluk, Kabupaten Sumbawa Barat",NUSA TENGGARA BARAT,84454,Indonesia,,,,-8.6461745,116.8556513,https://maps.google.com/?cid=0x0:0xae9882c72d73d96f,
toko bangunan,Toko,Toko Bahan Bangunan UD. TIGA PUTRA,"RT.007 RW. 004 Dusun Tapir Luar Desa Tapir Kec. Seteluk, Air Suning, Kec. Taliwang, Kabupaten Sumbawa Barat, Nusa Tenggara Bar. 84454","Air Suning, Kec. Taliwang, Kabupaten Sumbawa Barat",NUSA TENGGARA BARAT,84454,Indonesia,85338757245.0,,,-8.6447357,116.8553575,https://maps.google.com/?cid=0x0:0xaaaeb0d320927d2a,
toko bangunan,Toko Bahan Bangunan,UD. AZSIMA,"8RGV+CQ9, Jalan Raya, Kelanir, Seteluk, West Sumbawa Regency, West Nusa Tenggara 84454","Jalan Raya, Kelanir, Seteluk, West Sumbawa Regency",NUSA TENGGARA BARAT,84454,Indonesia,,,,-8.6739655,116.8444985,https://maps.google.com/?cid=0x0:0xa34eda6b6be947f5,
toko bangunan,Toko Pakaian,UD.Semoga Sukses,"Tapir, Kec. Seteluk, Kabupaten Sumbawa Barat, Nusa Tenggara Bar. 84454","Kec. Seteluk, Kabupaten Sumbawa Barat",NUSA TENGGARA BARAT,84454,Indonesia,81246540687.0,,,-8.6425492,116.8554132,https://maps.google.com/?cid=0x0:0xa43eae842cb2554b,
toko bangunan,Pemasok Bahan Bangunan,Gudang Kayu Bangunan,"lala jinis, jalan, jalan lala jinis, Seteluk Tengah, Seteluk, West Sumbawa Regency, West Nusa Tenggara 84454","jalan, jalan lala jinis, Seteluk Tengah, Seteluk, West Sumbawa Regency",NUSA TENGGARA BARAT,84454,Indonesia,82340078604.0,,,-8.6263781,116.8661595,https://maps.google.com/?cid=0x0:0xd2d76ff78994b3e6,
toko bangunan,Toko Bahan Bangunan,UD DUA PUTRA LAMUSUNG,"8VW2+QC7, Jl. Raya Seteluk, Lamusung, Kec. Seteluk, Kabupaten Sumbawa Barat, Nusa Tenggara Bar. 84454","Jl. Raya Seteluk, Lamusung, Kec. Seteluk, Kabupaten Sumbawa Barat",NUSA TENGGARA BARAT,84454,Indonesia,82339018121.0,,,-8.653084,116.851052,https://maps.google.com/?cid=0x0:0xb90429fb76e58972,
toko bangunan,Pemasok Bahan Bangunan,UD. PILAR BANGUNAN,"8RHW+WHC, Jl. Raya Seteluk, Lamusung, Kec. Seteluk, Kabupaten Sumbawa Barat, Nusa Tenggara Bar. 84454","Jl. Raya Seteluk, Lamusung, Kec. Seteluk, Kabupaten Sumbawa Barat",NUSA TENGGARA BARAT,84454,Indonesia,,,,-8.6701894,116.8463839,https://maps.google.com/?cid=0x0:0xa752c2853d8d4fa6,
toko bangunan,Toko Bahan Bangunan,UD Fauzi,"9VJ5+67, Tebo, Kec. Poto Tano, Kabupaten Sumbawa Barat, Nusa Tenggara Bar. 84454","Tebo, Kec. Poto Tano, Kabupaten Sumbawa Barat",NUSA TENGGARA BARAT,84454,Indonesia,,,,-8.6192122,116.8579074,https://maps.google.com/?cid=0x0:0xe77fe499a69db45f,
toko bangunan,toko bangunan,Nusa Tenggara Bar. 84457,"Kec. Sekongkang, Kabupaten Sumbawa Barat, Nusa Tenggara Bar.","Kabupaten Sumbawa Barat, Nusa Tenggara Bar.",NUSA TENGGARA BARAT,,Indonesia,,,,-9.0278591,116.9145901,https://maps.google.com/?cid=0x0:0xa55d05be516dbaf,
toko bangunan,Toko Elektronik,Toko Teknik Bangunan,"Jl. Pendidikan No.2, Sekongkang Atas, Kec. Sekongkang, Kabupaten Sumbawa Barat, Nusa Tenggara Bar. 84457","Sekongkang Atas, Kec. Sekongkang, Kabupaten Sumbawa Barat",NUSA TENGGARA BARAT,84457,Indonesia,8175743451.0,,,-8.9668637,116.7607132,https://maps.google.com/?cid=0x0:0x94debd4e5d0ba0d7,
toko bangunan,Toko Bahan Bangunan,UD TAMPAK NAMA,"XRF6+C2P, Tongo, Kec. Sekongkang, Kabupaten Sumbawa Barat, Nusa Tenggara Bar. 84457","Tongo, Kec. Sekongkang, Kabupaten Sumbawa Barat",NUSA TENGGARA BARAT,84457,Indonesia,82340117146.0,,,-9.0264233,116.8100796,https://maps.google.com/?cid=0x0:0xaff393e26227ecbb,
toko bangunan,Toko Bahan Bangunan,Toko bangunan SKS,"3QP2+8HW, Jalan Raya, Pasir Putih, Maluk, West Sumbawa Regency, West Nusa Tenggara 84456","Jalan Raya, Pasir Putih, Maluk, West Sumbawa Regency",NUSA TENGGARA BARAT,84456,Indonesia,,,,-8.9141312,116.7514577,https://maps.google.com/?cid=0x0:0xdd6bb8086d0235a0,
toko bangunan,toko bangunan,Nusa Tenggara Bar. 84458,"Kec. Brang Rea, Kabupaten Sumbawa Barat, Nusa Tenggara Bar.","Kabupaten Sumbawa Barat, Nusa Tenggara Bar.",NUSA TENGGARA BARAT,,Indonesia,,,,-8.6999135,117.0087877,https://maps.google.com/?cid=0x0:0xd32541cc680b77d1,
toko bangunan,Toko Bahan Bangunan,UD. PUSAKA 45 Toko Bangunan,"Jl. Baso Busing No.Desa, Desa Beru, Kec. Taliwang, Kabupaten Sumbawa Barat, Nusa Tenggara Bar. 84458","Desa Beru, Kec. Taliwang, Kabupaten Sumbawa Barat",NUSA TENGGARA BARAT,84458,Indonesia,81339895887.0,,,-8.728729,116.90789,https://maps.google.com/?cid=0x0:0xdffa512d28b70117,
toko bangunan,Toko Bahan Bangunan,Toko Bangunan Jonawan,"7P2J+4H5, Jl. Lintas Sumbawa - Bima, Brang Kolong, Kec. Plampang, Kabupaten Sumbawa, Nusa Tenggara Bar. 84383","Jl. Lintas Sumbawa - Bima, Brang Kolong, Kec. Plampang, Kabupaten Sumbawa",NUSA TENGGARA BARAT,84383,Indonesia,,,,-8.7497263,117.7314988,https://maps.google.com/?cid=0x0:0x168492a0befb48dc,
toko bangunan,Pemasok Bahan Bangunan,PERSATUAN BANGUNAN,"FCVH+6Q6, Pekat, Kec. Sumbawa, Kabupaten Sumbawa, Nusa Tenggara Bar. 84314","Pekat, Kec. Sumbawa, Kabupaten Sumbawa",NUSA TENGGARA BARAT,84314,Indonesia,81917571882.0,,,-8.5069613,117.4293907,https://maps.google.com/?cid=0x0:0x7e1c514d1135c33c,
toko bangunan,Toko Bahan Bangunan,Sumber Bangunan,"JL Kartini, RT 03 RW 01, Brang Bara, Brang Bara, Kec. Sumbawa, Kabupaten Sumbawa, Nusa Tenggara Bar. 84313","RT 03 RW 01, Brang Bara, Brang Bara, Kec. Sumbawa, Kabupaten Sumbawa",NUSA TENGGARA BARAT,84313,Indonesia,37121908.0,,,-8.4999161,117.4244671,https://maps.google.com/?cid=0x0:0xb210178b31b4b53d,
toko bangunan,Toko Bahan Bangunan,Toko Bangunan Sinar Kasih Wa089508785992,"Jl. Wae Ces, Mbaumuku, Kec. Langke Rembong, Kabupaten Manggarai, Nusa Tenggara Tim.","Kabupaten Manggarai, Nusa Tenggara Tim.",NUSA TENGGARA BARAT,,Indonesia,89508785992.0,,,-8.6047776,120.4661215,https://maps.google.com/?cid=0x0:0xdfaa29c8d1f1420f,
toko bangunan,Toko Bahan Bangunan,Toko Bahan Bangunan Persatuan Langam,"9HP6+P2P, Langam, Kec. Lopok, Kabupaten Sumbawa, Nusa Tenggara Bar. 84382","Langam, Kec. Lopok, Kabupaten Sumbawa",NUSA TENGGARA BARAT,84382,Indonesia,82381426190.0,,,-8.6131736,117.5600919,https://maps.google.com/?cid=0x0:0x5686887b9cbd5a30,
toko bangunan,Toko Bahan Bangunan,Toko Bangunan Saudara,"Mbaumuku, Kec. Langke Rembong, Kabupaten Manggarai, Nusa Tenggara Tim.","Kabupaten Manggarai, Nusa Tenggara Tim.",NUSA TENGGARA BARAT,,Indonesia,85239009102.0,,,-8.6086449,120.4648361,https://maps.google.com/?cid=0x0:0x5faafa24f0a0065f,
toko bangunan,Pemasok Bahan Bangunan,Bajo Sinar Bangunan,"Jalan Sernaru, Wae Kelambu, Labuan bajo, Kabupaten Manggarai Barat, Nusa Tenggara Tim.","Kabupaten Manggarai Barat, Nusa Tenggara Tim.",NUSA TENGGARA BARAT,,Indonesia,82322186283.0,,,-8.5024093,119.8993792,https://maps.google.com/?cid=0x0:0xa6cd908358e6c793,
toko bangunan,Toko,Toko Bahan Bangunan UD. TIGA PUTRA,"RT.007 RW. 004 Dusun Tapir Luar Desa Tapir Kec. Seteluk, Air Suning, Kec. Taliwang, Kabupaten Sumbawa Barat, Nusa Tenggara Bar. 84454","Air Suning, Kec. Taliwang, Kabupaten Sumbawa Barat",NUSA TENGGARA BARAT,84454,Indonesia,85338757245.0,,,-8.6447357,116.8553575,https://maps.google.com/?cid=0x0:0xaaaeb0d320927d2a,
toko bangunan,Toko Bahan Bangunan,TOKO SAHABAT INTI BANGUNAN,"JL. Ruteng - Labuan Bajo, Cancar, Wae Belang, Kec. Ruteng, Kabupaten Manggarai, Nusa Tenggara Tim.","Kabupaten Manggarai, Nusa Tenggara Tim.",NUSA TENGGARA BARAT,,Indonesia,81359982021.0,,,-8.5896405,120.3779527,https://maps.google.com/?cid=0x0:0x99120b0035e2b615,
toko bangunan,Toko Perlengkapan Rumah,Saudara Bangunan,"9C43+5CV, Wee Karou, Kec. Loli, Kabupaten Sumba Barat, Nusa Tenggara Tim.","Kabupaten Sumba Barat, Nusa Tenggara Tim.",NUSA TENGGARA BARAT,,Indonesia,,,,-9.6445021,119.403561,https://maps.google.com/?cid=0x0:0xbd0bec82e2e0b21f,
toko bangunan,Toko Bahan Bangunan,toko pelangi bangunan,"FVQP+VXF, Goron Talo, Kec. Komodo, Kabupaten Manggarai Barat, Nusa Tenggara Tim.","Kabupaten Manggarai Barat, Nusa Tenggara Tim.",NUSA TENGGARA BARAT,,Indonesia,82145627171.0,,,-8.5103078,119.8874183,https://maps.google.com/?cid=0x0:0x6f62dc0810d90ac8,
toko bangunan,Toko Bahan Bangunan,Harapan Baru,"FCWF+WPX, Jl. Kartini, RT.01/RW.04, Brang Bara, Kec. Sumbawa, Kabupaten Sumbawa, Nusa Tenggara Bar. 84313","Jl. Kartini, RT.01/RW.04, Brang Bara, Kec. Sumbawa, Kabupaten Sumbawa",NUSA TENGGARA BARAT,84313,Indonesia,37121174.0,,,-8.502637,117.4243453,https://maps.google.com/?cid=0x0:0xf9ade1843c78db8d,
toko bangunan,Toko Perlengkapan Rumah,Toko Bangunan Varli,"9FX3+5WJ, Jl. Hatta, Lawir, Kec. Langke Rembong, Kabupaten Manggarai, Nusa Tenggara Tim.","Kabupaten Manggarai, Nusa Tenggara Tim.",NUSA TENGGARA BARAT,,Indonesia,85379011870.0,,,-8.6020285,120.4547513,https://maps.google.com/?cid=0x0:0x93eab3c967e6bea0,
toko bangunan,Toko Elektronik,Toko Teknik Bangunan,"Jl. Pendidikan No.2, Sekongkang Atas, Kec. Sekongkang, Kabupaten Sumbawa Barat, Nusa Tenggara Bar. 84457","Sekongkang Atas, Kec. Sekongkang, Kabupaten Sumbawa Barat",NUSA TENGGARA BARAT,84457,Indonesia,8175743451.0,,,-8.9668637,116.7607132,https://maps.google.com/?cid=0x0:0x94debd4e5d0ba0d7,
toko bangunan,Toko Bahan Bangunan,Toko bangunan (UD.FITRAH),"7R2W+PV6, Kuang, Kec. Taliwang, Kabupaten Sumbawa Barat, Nusa Tenggara Bar. 84455","Kuang, Kec. Taliwang, Kabupaten Sumbawa Barat",NUSA TENGGARA BARAT,84455,Indonesia,,,,-8.7482188,116.8471476,https://maps.google.com/?cid=0x0:0x300faa66d2d782aa,
toko bangunan,Toko Bahan Bangunan,Toko Bangunan Sumber Mas,"Jorok, Kec. Unter Iwes, Kabupaten Sumbawa, Nusa Tenggara Bar. 84316","Kec. Unter Iwes, Kabupaten Sumbawa",NUSA TENGGARA BARAT,84316,Indonesia,85338002696.0,,,-8.5324729,117.4373641,https://maps.google.com/?cid=0x0:0x98d60460abe23b2,
toko bangunan,Pembangunan Perumahan,Toko bangunan,"8MRJ+688, Pemasar, Kec. Maronge, Kabupaten Sumbawa, Nusa Tenggara Bar. 84383","Pemasar, Kec. Maronge, Kabupaten Sumbawa",NUSA TENGGARA BARAT,84383,Indonesia,,,,-8.6599166,117.6801949,https://maps.google.com/?cid=0x0:0x7bc09654713ece90,
toko bangunan,Toko Bahan Bangunan,Bintang Bangunan,"Jl. Wae Mata RT/RW 003/002, Labuan Bajo, Komodo, West Manggarai Regency, East Nusa Tenggara","Kabupaten Manggarai Barat, Nusa Tenggara Tim.",NUSA TENGGARA BARAT,,Indonesia,81238189013.0,,,-8.500458,119.8913878,https://maps.google.com/?cid=0x0:0x31574b9f37f65560,
toko bangunan,Toko,Tunas Muda. UD,"7WQF+XJG, JL. Sultan Sahrir, Tepas Sepakat, Kec. Taliwang, Kabupaten Sumbawa Barat, Nusa Tenggara Bar. 84458","JL. Sultan Sahrir, Tepas Sepakat, Kec. Taliwang, Kabupaten Sumbawa Barat",NUSA TENGGARA BARAT,84458,Indonesia,81915818619.0,,,-8.710054,116.924066,https://maps.google.com/?cid=0x0:0x51bb106f8632e4f,
toko bangunan,Toko Bahan Bangunan,Rizki Jaya Bagunan,"FWHV+658, Jl. Mapin, Labuan Mapin, Kec. Alas Bar., Kabupaten Sumbawa, Nusa Tenggara Bar. 84353","Jl. Mapin, Labuan Mapin, Kec. Alas Bar., Kabupaten Sumbawa",NUSA TENGGARA BARAT,84353,Indonesia,,,,-8.5219621,116.9429401,https://maps.google.com/?cid=0x0:0x42ad94e5bd41e299,
toko bangunan,Toko Bahan Bangunan,Depo Bangunan Toko,"JL St Syahrir, RT 005/01, Bugis, Kec. Taliwang, Kabupaten Sumbawa Barat, Nusa Tenggara Bar. 84355","RT 005/01, Bugis, Kec. Taliwang, Kabupaten Sumbawa Barat",NUSA TENGGARA BARAT,84355,Indonesia,37281797.0,,,-8.7465406,116.8344096,https://maps.google.com/?cid=0x0:0x1c089e160c4a5868,
toko bangunan,Toko,TB. PUTRA JAYA,"4Q48+HGV, Benete, Kec. Maluk, Kabupaten Sumbawa Barat, Nusa Tenggara Bar. 84456","Benete, Kec. Maluk, Kabupaten Sumbawa Barat",NUSA TENGGARA BARAT,84456,Indonesia,87863990444.0,,,-8.893501,116.7663076,https://maps.google.com/?cid=0x0:0x9ba23a3d8870d1c,
toko bangunan,Toko Bahan Bangunan,UD. RIZQY,"FXGX+JWX, Juranalas, Kec. Alas, Kabupaten Sumbawa, Nusa Tenggara Bar. 84353","Juranalas, Kec. Alas, Kabupaten Sumbawa",NUSA TENGGARA BARAT,84353,Indonesia,81239758771.0,,,-8.5233853,116.9998699,https://maps.google.com/?cid=0x0:0x656f193d97148d40,
toko bangunan,Toko Swalayan,TOKO DUA PUTRA,"FW4R+7HH, Jl. Mapin, Mapin Kebak, Kec. Alas Bar., Kabupaten Sumbawa, Nusa Tenggara Bar. 84353","Jl. Mapin, Mapin Kebak, Kec. Alas Bar., Kabupaten Sumbawa",NUSA TENGGARA BARAT,84353,Indonesia,,,,-8.5443238,116.9414924,https://maps.google.com/?cid=0x0:0x88f4b267e5171390,
toko bangunan,Toko Bahan Bangunan,TOKO MITRA BANGUNAN,"Jl. Hasanudin No.15, Bugis, Kec. Sumbawa, Kabupaten Sumbawa, Nusa Tenggara Bar. 84313","Bugis, Kec. Sumbawa, Kabupaten Sumbawa",NUSA TENGGARA BARAT,84313,Indonesia,81915800003.0,,,-8.4982926,117.422344,https://maps.google.com/?cid=0x0:0x4b1ac8cd09c8c6bc,
toko bangunan,Toko Bahan Bangunan,"Singa Emas, CV, Pipa Rucika Sumbawa Besar","Jl. Kartini, RT.02/RW.03, Brang Bara, Kec. Sumbawa, Kabupaten Sumbawa, Nusa Tenggara Bar. 84313","RT.02/RW.03, Brang Bara, Kec. Sumbawa, Kabupaten Sumbawa",NUSA TENGGARA BARAT,84313,Indonesia,87756777889.0,,,-8.5016657,117.4244044,https://maps.google.com/?cid=0x0:0xb95a09e9952d9a0d,
toko bangunan,Toko Bahan Bangunan,Rajawali,"FCXF+6Q3, Jl. Kartini, RT.02/RW.03, Brang Bara, Kec. Sumbawa, Kabupaten Sumbawa, Nusa Tenggara Bar. 84313","Jl. Kartini, RT.02/RW.03, Brang Bara, Kec. Sumbawa, Kabupaten Sumbawa",NUSA TENGGARA BARAT,84313,Indonesia,8123717022.0,,,-8.5019972,117.4244175,https://maps.google.com/?cid=0x0:0xc6f8b3fd7983332d,
toko bangunan,toko bangunan,Nusa Tenggara Bar. 84454,"Kec. Seteluk, Kabupaten Sumbawa Barat, Nusa Tenggara Bar.","Kabupaten Sumbawa Barat, Nusa Tenggara Bar.",NUSA TENGGARA BARAT,,Indonesia,,,,-8.5906982,116.8674757,https://maps.google.com/?cid=0x0:0xabcb20c0c162b41d,
toko bangunan,Toko Bahan Bangunan,UD Fauzi,"9VJ5+67, Tebo, Kec. Poto Tano, Kabupaten Sumbawa Barat, Nusa Tenggara Bar. 84454","Tebo, Kec. Poto Tano, Kabupaten Sumbawa Barat",NUSA TENGGARA BARAT,84454,Indonesia,,,,-8.6192122,116.8579074,https://maps.google.com/?cid=0x0:0xe77fe499a69db45f,
toko bangunan,Toko Pakaian,UD.Semoga Sukses,"Tapir, Kec. Seteluk, Kabupaten Sumbawa Barat, Nusa Tenggara Bar. 84454","Kec. Seteluk, Kabupaten Sumbawa Barat",NUSA TENGGARA BARAT,84454,Indonesia,81246540687.0,,,-8.6425492,116.8554132,https://maps.google.com/?cid=0x0:0xa43eae842cb2554b,
toko bangunan,Toko Bahan Bangunan,UD. Amel,"9RVW+HX4, Jalan Raya, Senayan, Poto Tano, West Sumbawa Regency, West Nusa Tenggara 84454","Jalan Raya, Senayan, Poto Tano, West Sumbawa Regency",NUSA TENGGARA BARAT,84454,Indonesia,,,,-8.6061144,116.8474521,https://maps.google.com/?cid=0x0:0x9bc96a61544d4ccf,
toko bangunan,Toko Bahan Bangunan,Depo Bangunan Toko,"JL St Syahrir, RT 005/01, Bugis, Kec. Taliwang, Kabupaten Sumbawa Barat, Nusa Tenggara Bar. 84355","RT 005/01, Bugis, Kec. Taliwang, Kabupaten Sumbawa Barat",NUSA TENGGARA BARAT,84355,Indonesia,37281797.0,,,-8.7465406,116.8344096,https://maps.google.com/?cid=0x0:0x1c089e160c4a5868,
toko bangunan,Toko,Toko Bahan Bangunan UD. TIGA PUTRA,"RT.007 RW. 004 Dusun Tapir Luar Desa Tapir Kec. Seteluk, Air Suning, Kec. Taliwang, Kabupaten Sumbawa Barat, Nusa Tenggara Bar. 84454","Air Suning, Kec. Taliwang, Kabupaten Sumbawa Barat",NUSA TENGGARA BARAT,84454,Indonesia,85338757245.0,,,-8.6447357,116.8553575,https://maps.google.com/?cid=0x0:0xaaaeb0d320927d2a,
toko bangunan,Toko Bahan Bangunan,UD DUA PUTRA LAMUSUNG,"8VW2+QC7, Jl. Raya Seteluk, Lamusung, Kec. Seteluk, Kabupaten Sumbawa Barat, Nusa Tenggara Bar. 84454","Jl. Raya Seteluk, Lamusung, Kec. Seteluk, Kabupaten Sumbawa Barat",NUSA TENGGARA BARAT,84454,Indonesia,82339018121.0,,,-8.653084,116.851052,https://maps.google.com/?cid=0x0:0xb90429fb76e58972,
toko bangunan,Toko Bahan Bangunan,Ud.Cahaya Bangunan,"7V25+J7V Al-Ihlas, Jl. Pd. Pesantren JL, Dalam, Taliwang, West Sumbawa Regency, West Nusa Tenggara 84455","Jl. Pd. Pesantren JL, Dalam, Taliwang, West Sumbawa Regency",NUSA TENGGARA BARAT,84455,Indonesia,81339778911.0,,,-8.7483764,116.8581843,https://maps.google.com/?cid=0x0:0x43908cebd3732b04,
toko bangunan,Toko Bahan Bangunan,TK MULYA JAYA,"Jl. Raya Seteluk No.21, Air Suning, Kec. Seteluk, Kabupaten Sumbawa Barat, Nusa Tenggara Bar. 84454","Air Suning, Kec. Seteluk, Kabupaten Sumbawa Barat",NUSA TENGGARA BARAT,84454,Indonesia,,,,-8.6461745,116.8556513,https://maps.google.com/?cid=0x0:0xae9882c72d73d96f,
toko bangunan,Toko Bahan Bangunan,Ud alam jaya bangunan,"8VX3+PMV, Air Suning, Kec. Seteluk, Kabupaten Sumbawa Barat, Nusa Tenggara Bar. 84454","Air Suning, Kec. Seteluk, Kabupaten Sumbawa Barat",NUSA TENGGARA BARAT,84454,Indonesia,,,,-8.6506254,116.854161,https://maps.google.com/?cid=0x0:0x635a519180c0c509,
toko bangunan,Toko Bahan Bangunan,Toko Senter Bangunan,"7R4W+QPW, Jl. Ps. Baru, Dalam, Kec. Taliwang, Kabupaten Sumbawa Barat, Nusa Tenggara Bar. 84455","Jl. Ps. Baru, Dalam, Kec. Taliwang, Kabupaten Sumbawa Barat",NUSA TENGGARA BARAT,84455,Indonesia,37281059.0,,,-8.7430177,116.8468144,https://maps.google.com/?cid=0x0:0x4caf7cd21eb7421c,
toko bangunan,Toko Bahan Bangunan,TOKO MITRA BANGUNAN,"Jl. Hasanudin No.15, Bugis, Kec. Sumbawa, Kabupaten Sumbawa, Nusa Tenggara Bar. 84313","Bugis, Kec. Sumbawa, Kabupaten Sumbawa",NUSA TENGGARA BARAT,84313,Indonesia,81915800003.0,,,-8.4982926,117.422344,https://maps.google.com/?cid=0x0:0x4b1ac8cd09c8c6bc,
toko bangunan,Toko Bahan Bangunan,Nopan Indah Gypsum,"7V82+593, JL. Lang Sasat, Dalam, Kec. Taliwang, Kabupaten Sumbawa Barat, Nusa Tenggara Bar. 84455","JL. Lang Sasat, Dalam, Kec. Taliwang, Kabupaten Sumbawa Barat",NUSA TENGGARA BARAT,84455,Indonesia,81339668205.0,,,-8.7346019,116.8509081,https://maps.google.com/?cid=0x0:0xd31631c4b813b7f3,
toko bangunan,Pemasok Bahan Bangunan,Gudang Kayu Bangunan,"lala jinis, jalan, jalan lala jinis, Seteluk Tengah, Seteluk, West Sumbawa Regency, West Nusa Tenggara 84454","jalan, jalan lala jinis, Seteluk Tengah, Seteluk, West Sumbawa Regency",NUSA TENGGARA BARAT,84454,Indonesia,82340078604.0,,,-8.6263781,116.8661595,https://maps.google.com/?cid=0x0:0xd2d76ff78994b3e6,
toko bangunan,Toko Bahan Bangunan,UD. PUSAKA 45 Toko Bangunan,"Jl. Baso Busing No.Desa, Desa Beru, Kec. Taliwang, Kabupaten Sumbawa Barat, Nusa Tenggara Bar. 84458","Desa Beru, Kec. Taliwang, Kabupaten Sumbawa Barat",NUSA TENGGARA BARAT,84458,Indonesia,81339895887.0,,,-8.728729,116.90789,https://maps.google.com/?cid=0x0:0xdffa512d28b70117,
toko bangunan,Toko Bahan Bangunan,Bang Yusuf,"7V72+8F8, JL. Lang Sasat, Dalam, Kec. Taliwang, Kabupaten Sumbawa Barat, Nusa Tenggara Bar. 84455","JL. Lang Sasat, Dalam, Kec. Taliwang, Kabupaten Sumbawa Barat",NUSA TENGGARA BARAT,84455,Indonesia,81915820955.0,,,-8.7367203,116.8512113,https://maps.google.com/?cid=0x0:0x679a7bc59a5eecd8,
toko bangunan,Toko Bahan Bangunan,Toko SAHABAT,"Bugis, Kec. Taliwang, Kabupaten Sumbawa Barat, Nusa Tenggara Bar. 84455","Kec. Taliwang, Kabupaten Sumbawa Barat",NUSA TENGGARA BARAT,84455,Indonesia,82341581315.0,,,-8.7486614,116.8308238,https://maps.google.com/?cid=0x0:0x8b8936b93636d7b7,
toko bangunan,Toko Elektronik,Toko Teknik Bangunan,"Jl. Pendidikan No.2, Sekongkang Atas, Kec. Sekongkang, Kabupaten Sumbawa Barat, Nusa Tenggara Bar. 84457","Sekongkang Atas, Kec. Sekongkang, Kabupaten Sumbawa Barat",NUSA TENGGARA BARAT,84457,Indonesia,8175743451.0,,,-8.9668637,116.7607132,https://maps.google.com/?cid=0x0:0x94debd4e5d0ba0d7,
toko bangunan,Toko Bahan Bangunan,Toko Bangunan Sumber Mas,"Jorok, Kec. Unter Iwes, Kabupaten Sumbawa, Nusa Tenggara Bar. 84316","Kec. Unter Iwes, Kabupaten Sumbawa",NUSA TENGGARA BARAT,84316,Indonesia,85338002696.0,,,-8.5324729,117.4373641,https://maps.google.com/?cid=0x0:0x98d60460abe23b2,
toko bangunan,Pemasok Bahan Bangunan,UD. PILAR BANGUNAN,"8RHW+WHC, Jl. Raya Seteluk, Lamusung, Kec. Seteluk, Kabupaten Sumbawa Barat, Nusa Tenggara Bar. 84454","Jl. Raya Seteluk, Lamusung, Kec. Seteluk, Kabupaten Sumbawa Barat",NUSA TENGGARA BARAT,84454,Indonesia,,,,-8.6701894,116.8463839,https://maps.google.com/?cid=0x0:0xa752c2853d8d4fa6,
toko bangunan,Toko Bahan Bangunan,U.D PUTRA JAYA,"Jl. Raya Taliwang, Sampir, Kec. Taliwang, Kabupaten Sumbawa Barat, Nusa Tenggara Bar. 84452","Sampir, Kec. Taliwang, Kabupaten Sumbawa Barat",NUSA TENGGARA BARAT,84452,Indonesia,82340008122.0,,,-8.7240458,116.854266,https://maps.google.com/?cid=0x0:0xb93b8d48c0a7bdc9,
toko bangunan,Toko Bahan Bangunan,UD. Gian Putra,"Jl. Pd. Pesantren No.99, Manemeng, Kec. Brang Ene, Kabupaten Sumbawa Barat, Nusa Tenggara Bar. 84455","Manemeng, Kec. Brang Ene, Kabupaten Sumbawa Barat",NUSA TENGGARA BARAT,84455,Indonesia,,,,-8.7664972,116.864616,https://maps.google.com/?cid=0x0:0xfb70dcec31499728,
toko bangunan,Toko Bahan Bangunan,Toko Bangunan Jonawan,"7P2J+4H5, Jl. Lintas Sumbawa - Bima, Brang Kolong, Kec. Plampang, Kabupaten Sumbawa, Nusa Tenggara Bar. 84383","Jl. Lintas Sumbawa - Bima, Brang Kolong, Kec. Plampang, Kabupaten Sumbawa",NUSA TENGGARA BARAT,84383,Indonesia,,,,-8.7497263,117.7314988,https://maps.google.com/?cid=0x0:0x168492a0befb48dc,
toko bangunan,toko bangunan,Nusa Tenggara Bar. 84455,"Kabupaten Sumbawa Barat, Nusa Tenggara Bar.","Kabupaten Sumbawa Barat, Nusa Tenggara Bar.",NUSA TENGGARA BARAT,,Indonesia,,,,-8.7907453,116.8674757,https://maps.google.com/?cid=0x0:0x5fda0016832273b3,
toko bangunan,Toko Bahan Bangunan,TB. Artha Mas,"6VHG+986, Jl. Pd. Pesantren, Mura, Kec. Brang Ene, Kabupaten Sumbawa Barat, Nusa Tenggara Bar. 84455","Jl. Pd. Pesantren, Mura, Kec. Brang Ene, Kabupaten Sumbawa Barat",NUSA TENGGARA BARAT,84455,Indonesia,82342241204.0,,,-8.7715995,116.875767,https://maps.google.com/?cid=0x0:0x79c489e5c471f303,
toko bangunan,Toko Bahan Bangunan,Ud.Cahaya Bangunan,"7V25+J7V Al-Ihlas, Jl. Pd. Pesantren JL, Dalam, Taliwang, West Sumbawa Regency, West Nusa Tenggara 84455","Jl. Pd. Pesantren JL, Dalam, Taliwang, West Sumbawa Regency",NUSA TENGGARA BARAT,84455,Indonesia,81339778911.0,,,-8.7483764,116.8581843,https://maps.google.com/?cid=0x0:0x43908cebd3732b04,
toko bangunan,Toko Bahan Bangunan,Toko SAHABAT,"Bugis, Kec. Taliwang, Kabupaten Sumbawa Barat, Nusa Tenggara Bar. 84455","Kec. Taliwang, Kabupaten Sumbawa Barat",NUSA TENGGARA BARAT,84455,Indonesia,82341581315.0,,,-8.7486614,116.8308238,https://maps.google.com/?cid=0x0:0x8b8936b93636d7b7,
toko bangunan,Toko Bahan Bangunan,Depo Bangunan Toko,"JL St Syahrir, RT 005/01, Bugis, Kec. Taliwang, Kabupaten Sumbawa Barat, Nusa Tenggara Bar. 84355","RT 005/01, Bugis, Kec. Taliwang, Kabupaten Sumbawa Barat",NUSA TENGGARA BARAT,84355,Indonesia,37281797.0,,,-8.7465406,116.8344096,https://maps.google.com/?cid=0x0:0x1c089e160c4a5868,
toko bangunan,Toko Bahan Bangunan,UD. SARI MANDIRI,"Jln. Generong No.KM.3, Manemeng, Kec. Brang Ene, Kabupaten Sumbawa Barat, Nusa Tenggara Bar. 84355","Manemeng, Kec. Brang Ene, Kabupaten Sumbawa Barat",NUSA TENGGARA BARAT,84355,Indonesia,85904272594.0,,,-8.7743383,116.8681932,https://maps.google.com/?cid=0x0:0xf16c616f345392a7,
toko bangunan,Toko Perlengkapan Rumah,UD. NIRMALA,"6RRJ+463, Jalan Raya, Telaga Bertong, Taliwang, West Sumbawa Regency, West Nusa Tenggara 84455","Jalan Raya, Telaga Bertong, Taliwang, West Sumbawa Regency",NUSA TENGGARA BARAT,84455,Indonesia,85239052302.0,,,-8.7597485,116.8305372,https://maps.google.com/?cid=0x0:0xef467d1e48df59e6,
toko bangunan,Toko Bahan Bangunan,UD. Gian Putra,"Jl. Pd. Pesantren No.99, Manemeng, Kec. Brang Ene, Kabupaten Sumbawa Barat, Nusa Tenggara Bar. 84455","Manemeng, Kec. Brang Ene, Kabupaten Sumbawa Barat",NUSA TENGGARA BARAT,84455,Indonesia,,,,-8.7664972,116.864616,https://maps.google.com/?cid=0x0:0xfb70dcec31499728,
toko bangunan,Toko Bahan Bangunan,Toko Senter Bangunan,"7R4W+QPW, Jl. Ps. Baru, Dalam, Kec. Taliwang, Kabupaten Sumbawa Barat, Nusa Tenggara Bar. 84455","Jl. Ps. Baru, Dalam, Kec. Taliwang, Kabupaten Sumbawa Barat",NUSA TENGGARA BARAT,84455,Indonesia,37281059.0,,,-8.7430177,116.8468144,https://maps.google.com/?cid=0x0:0x4caf7cd21eb7421c,
toko bangunan,Toko Bahan Bangunan,TB. Abdi Jaya,"Jl. Pendidikan, Goa, Kec. Jereweh, Kabupaten Sumbawa Barat, Nusa Tenggara Bar. 84456","Goa, Kec. Jereweh, Kabupaten Sumbawa Barat",NUSA TENGGARA BARAT,84456,Indonesia,81803803804.0,,,-8.848384,116.8182737,https://maps.google.com/?cid=0x0:0xbf9f143789caef6b,
toko bangunan,Toko Bahan Bangunan,RAJA GALVALUM,"6RQJ+J3H, Telaga Bertong, Kec. Taliwang, Kabupaten Sumbawa Barat, Nusa Tenggara Bar. 84455","Telaga Bertong, Kec. Taliwang, Kabupaten Sumbawa Barat",NUSA TENGGARA BARAT,84455,Indonesia,82340073337.0,,,-8.7602861,116.8303835,https://maps.google.com/?cid=0x0:0x715932b604006ade,
toko bangunan,Toko Bahan Bangunan,Gudang Cv.Putra Brama,"7V36+49M, Jl. Lintas Taliwang, Tamekan, Kec. Taliwang, Kabupaten Sumbawa Barat, Nusa Tenggara Bar. 84455","Jl. Lintas Taliwang, Tamekan, Kec. Taliwang, Kabupaten Sumbawa Barat",NUSA TENGGARA BARAT,84455,Indonesia,85238192154.0,,,-8.7471501,116.8609356,https://maps.google.com/?cid=0x0:0x72214ffad90109bd,
toko bangunan,Toko Bahan Bangunan,Toko bangunan (UD.FITRAH),"7R2W+PV6, Kuang, Kec. Taliwang, Kabupaten Sumbawa Barat, Nusa Tenggara Bar. 84455","Kuang, Kec. Taliwang, Kabupaten Sumbawa Barat",NUSA TENGGARA BARAT,84455,Indonesia,,,,-8.7482188,116.8471476,https://maps.google.com/?cid=0x0:0x300faa66d2d782aa,
toko bangunan,Toko Bahan Bangunan,Nopan Indah Gypsum,"7V82+593, JL. Lang Sasat, Dalam, Kec. Taliwang, Kabupaten Sumbawa Barat, Nusa Tenggara Bar. 84455","JL. Lang Sasat, Dalam, Kec. Taliwang, Kabupaten Sumbawa Barat",NUSA TENGGARA BARAT,84455,Indonesia,81339668205.0,,,-8.7346019,116.8509081,https://maps.google.com/?cid=0x0:0xd31631c4b813b7f3,
toko bangunan,Toko Bahan Bangunan,Bang Yusuf,"7V72+8F8, JL. Lang Sasat, Dalam, Kec. Taliwang, Kabupaten Sumbawa Barat, Nusa Tenggara Bar. 84455","JL. Lang Sasat, Dalam, Kec. Taliwang, Kabupaten Sumbawa Barat",NUSA TENGGARA BARAT,84455,Indonesia,81915820955.0,,,-8.7367203,116.8512113,https://maps.google.com/?cid=0x0:0x679a7bc59a5eecd8,
toko bangunan,Toko Bahan Bangunan,UD Ringgit Perkasa,"7R4W+VV6, Dalam, Kec. Taliwang, Kabupaten Sumbawa Barat, Nusa Tenggara Bar. 84455","Dalam, Kec. Taliwang, Kabupaten Sumbawa Barat",NUSA TENGGARA BARAT,84455,Indonesia,81916848476.0,,,-8.742836,116.8471396,https://maps.google.com/?cid=0x0:0x92b291d347aeb6e7,
toko bangunan,Toko Bahan Bangunan,UD. Taliwang Bangunan,"7R2P+2C8, Jalan Raya, Telaga Bertong, Taliwang, West Sumbawa Regency, West Nusa Tenggara 84455","Jalan Raya, Telaga Bertong, Taliwang, West Sumbawa Regency",NUSA TENGGARA BARAT,84455,Indonesia,,,,-8.7499716,116.8360678,https://maps.google.com/?cid=0x0:0x968492bd91c92f40,
toko bangunan,Toko Bahan Bangunan,UD Pandu,"7R4F+HJ6, Unnamed Road, Banjar, Kec. Taliwang, Kabupaten Sumbawa Barat, Nusa Tenggara Bar. 84455","Unnamed Road, Banjar, Kec. Taliwang, Kabupaten Sumbawa Barat",NUSA TENGGARA BARAT,84455,Indonesia,,,,-8.743578,116.8240186,https://maps.google.com/?cid=0x0:0x54c58c6ee8669806,
toko bangunan,Toko Bahan Bangunan,UD. SAHABAT,"7R4W+V5W, Jl. Ps. Baru, kampung arab, Dalam, Kec. Taliwang, Kabupaten Sumbawa Barat, Nusa Tenggara Bar. 84455","Jl. Ps. Baru, kampung arab, Dalam, Kec. Taliwang, Kabupaten Sumbawa Barat",NUSA TENGGARA BARAT,84455,Indonesia,,,,-8.7427593,116.8454638,https://maps.google.com/?cid=0x0:0xb133b2fc1f13c64c,
toko bangunan,Toko Bahan Bangunan,UD,"5W65+6WV, Desa, Mataiyang, Kec. Brang Ene, Kabupaten Sumbawa Barat, Nusa Tenggara Bar. 84355","Desa, Mataiyang, Kec. Brang Ene, Kabupaten Sumbawa Barat",NUSA TENGGARA BARAT,84355,Indonesia,82236844877.0,,,-8.8393967,116.909809,https://maps.google.com/?cid=0x0:0x6184151e4f57e4e0,
toko bangunan,Toko Bahan Bangunan,Toko Raja Cat,"6RRJ+448, Jalan Raya, Telaga Bertong, Taliwang, West Sumbawa Regency, West Nusa Tenggara 84455","Jalan Raya, Telaga Bertong, Taliwang, West Sumbawa Regency",NUSA TENGGARA BARAT,84455,Indonesia,8113901619.0,,,-8.7597177,116.8303372,https://maps.google.com/?cid=0x0:0xf9b5226aabe48073,
toko bangunan,toko bangunan,Maluk,"Kec. Maluk, Kabupaten Sumbawa Barat, Nusa Tenggara Bar.","Kabupaten Sumbawa Barat, Nusa Tenggara Bar.",NUSA TENGGARA BARAT,,Indonesia,,,,-8.9238233,116.7673237,https://maps.google.com/?cid=0x0:0x47ef5cc6638a6493,
toko bangunan,Toko Bahan Bangunan,Toko bangunan SKS,"3QP2+8HW, Jalan Raya, Pasir Putih, Maluk, West Sumbawa Regency, West Nusa Tenggara 84456","Jalan Raya, Pasir Putih, Maluk, West Sumbawa Regency",NUSA TENGGARA BARAT,84456,Indonesia,,,,-8.9141312,116.7514577,https://maps.google.com/?cid=0x0:0xdd6bb8086d0235a0,
toko bangunan,Jasa Konstruksi dan Bangunan,"PT ALDO JAYA (BANGUNAN, MEUBEL, ELEKTRONIK)","3QP3+762, Maluk, Kec. Maluk, Kabupaten Sumbawa Barat, Nusa Tenggara Bar. 84456","Maluk, Kec. Maluk, Kabupaten Sumbawa Barat",NUSA TENGGARA BARAT,84456,Indonesia,,,,-8.9143652,116.7530295,https://maps.google.com/?cid=0x0:0xce128e6e3040e92a,
toko bangunan,Toko Bahan Bangunan,Toko Bahan Bangunan  Elektronik Gonik Mas,"3QP2+8HP, Jl. Raya Maluk, Pasir Putih, Kec. Maluk, Kabupaten Sumbawa Barat, Nusa Tenggara Bar. 84456","Jl. Raya Maluk, Pasir Putih, Kec. Maluk, Kabupaten Sumbawa Barat",NUSA TENGGARA BARAT,84456,Indonesia,81220022293.0,,,-8.9141593,116.7514672,https://maps.google.com/?cid=0x0:0x8115c37c81e4f388,
toko bangunan,Toko,TB. PUTRA JAYA,"4Q48+HGV, Benete, Kec. Maluk, Kabupaten Sumbawa Barat, Nusa Tenggara Bar. 84456","Benete, Kec. Maluk, Kabupaten Sumbawa Barat",NUSA TENGGARA BARAT,84456,Indonesia,87863990444.0,,,-8.893501,116.7663076,https://maps.google.com/?cid=0x0:0x9ba23a3d8870d1c,
toko bangunan,Toko Bahan Bangunan,Toko Bangunan UD.YUNIMAR,"3PPW+HPH, Jl. Raya Pasir Putih, Mantun, Maluk, West Sumbawa Regency, West Nusa Tenggara","Kabupaten Sumbawa Barat, Nusa Tenggara Bar.",NUSA TENGGARA BARAT,,Indonesia,,,,-8.9135543,116.7468585,https://maps.google.com/?cid=0x0:0xe1c60cead5be130e,
toko bangunan,Toko Perlengkapan Rumah,Tk Rizqullah Maluk,"3QP3+6J2, pasar, Maluk, Kec. Maluk, Kabupaten Sumbawa Barat, Nusa Tenggara Bar. 84456","pasar, Maluk, Kec. Maluk, Kabupaten Sumbawa Barat",NUSA TENGGARA BARAT,84456,Indonesia,87766561022.0,,,-8.9144759,116.7540066,https://maps.google.com/?cid=0x0:0x57a8847ec8598ef5,
toko bangunan,Toko Bahan Bangunan,toko bangunan UD.SYIFA,"selatan, jalan sadar wisata, Pasir Putih, Maluk, West Sumbawa Regency, West Nusa Tenggara","Kabupaten Sumbawa Barat, Nusa Tenggara Bar.",NUSA TENGGARA BARAT,,Indonesia,85337230847.0,,,-8.9174535,116.7514763,https://maps.google.com/?cid=0x0:0x1ff3cfaa4f3b2f7e,
toko bangunan,Toko Bahan Bangunan,Jotun Multicolor Center,"3QQ2+984, Jalan Raya, Mantun, Maluk, West Sumbawa Regency, West Nusa Tenggara 84456","Jalan Raya, Mantun, Maluk, West Sumbawa Regency",NUSA TENGGARA BARAT,84456,Indonesia,,,,-8.9116083,116.7508202,https://maps.google.com/?cid=0x0:0xdc64f94c315ca50a,
toko bangunan,Toko Bahan Bangunan,UD.Balebesi,"Benete, Kec. Maluk, Kabupaten Sumbawa Barat, Nusa Tenggara Bar.","Kabupaten Sumbawa Barat, Nusa Tenggara Bar.",NUSA TENGGARA BARAT,,Indonesia,8113907367.0,,,-8.8961583,116.7724214,https://maps.google.com/?cid=0x0:0xf9995deb1310b2e7,
toko bangunan,Komplek perumahan,Jual beli tanah dan bangunan,"Jalan Raya Benete, RT. 01 RW. 01, Dusun Jereweh, Desa Benete, Benete, Kec. Maluk, Maluk - Sumbawa Barat, Nusa Tenggara Bar. 84456","RT. 01 RW. 01, Dusun Jereweh, Desa Benete, Benete, Kec. Maluk, Maluk - Sumbawa Barat",NUSA TENGGARA BARAT,84456,Indonesia,81239465128.0,,,-8.8942619,116.7733748,https://maps.google.com/?cid=0x0:0x572bfd55c5ebf407,
toko bangunan,Toko Elektronik,Toko Teknik Bangunan,"Jl. Pendidikan No.2, Sekongkang Atas, Kec. Sekongkang, Kabupaten Sumbawa Barat, Nusa Tenggara Bar. 84457","Sekongkang Atas, Kec. Sekongkang, Kabupaten Sumbawa Barat",NUSA TENGGARA BARAT,84457,Indonesia,8175743451.0,,,-8.9668637,116.7607132,https://maps.google.com/?cid=0x0:0x94debd4e5d0ba0d7,
toko bangunan,Pusat Perbelanjaan,Pasar Baru Maluk Sumbawa Barat,"3QP3+2QX Bar, Maluk, Kec. Maluk, Kabupaten Sumbawa Barat, Nusa Tenggara Bar. 84456","Maluk, Kec. Maluk, Kabupaten Sumbawa Barat",NUSA TENGGARA BARAT,84456,Indonesia,,,,-8.914894,116.7544872,https://maps.google.com/?cid=0x0:0x5728aa84c5c3f635,
toko bangunan,Toko Bahan Bangunan,DISTRIBUTOR BATA RINGAN NTB DAN MORTAR NTB,"Maluk, Mantun, Sumbawa besar, Kabupaten Sumbawa Barat, Nusa Tenggara Timur 84313","Mantun, Sumbawa besar, Kabupaten Sumbawa Barat",NUSA TENGGARA BARAT,84313,Indonesia,81337651464.0,,,-8.9101355,116.753349,https://maps.google.com/?cid=0x0:0x1ff184f7484d9fd,
