Category,Real Category,Business Name,Address,City,State,Postal Code,Country,Phone,Email,Website,Latitude,Longitude,Map Link,Details Link
mall,mall,Nusa Tenggara Bar. 84456,"Kec. Jereweh, Kabupaten Sumbawa Barat, Nusa Tenggara Bar.","Kabupaten Sumbawa Barat, Nusa Tenggara Bar.",NUSA TENGGARA BARAT,,Indonesia,,,,-8.947527,116.9145901,https://maps.google.com/?cid=0x0:0xd8d94f4df4b390cb,
mall,Pusat Perbelanjaan,Pasar Baru Maluk Sumbawa Barat,"3QP3+2QX Bar, Maluk, Kec. Maluk, Kabupaten Sumbawa Barat, Nusa Tenggara Bar. 84456","Maluk, Kec. Maluk, Kabupaten Sumbawa Barat",NUSA TENGGARA BARAT,84456.0,Indonesia,,,,-8.914894,116.7544872,https://maps.google.com/?cid=0x0:0x5728aa84c5c3f635,
mall,Pembangunan Perumahan,FIRLY MOTOR JEREWEH BELO KSB,"4RPC+FR4, Jl. Raya Taliwang, Belo, Kec. Jereweh, Kabupaten Sumbawa Barat, Nusa Tenggara Bar. 84456","Jl. Raya Taliwang, Belo, Kec. Jereweh, Kabupaten Sumbawa Barat",NUSA TENGGARA BARAT,84456.0,Indonesia,82247185985.0,,,-8.8638701,116.822071,https://maps.google.com/?cid=0x0:0x796975ae7d267267,
mall,Toko,Toko NN Electrik,"4RQH+X9F, Jl. Pahlawan, Beru, Kec. Jereweh, Kabupaten Sumbawa Barat, Nusa Tenggara Bar. 84456","Jl. Pahlawan, Beru, Kec. Jereweh, Kabupaten Sumbawa Barat",NUSA TENGGARA BARAT,84456.0,Indonesia,,,,-8.8600611,116.828431,https://maps.google.com/?cid=0x0:0x19d2809cf03deab7,
mall,Pusat Perbelanjaan,Nurul outlet,"3QQ3+6G4, Jl. Sultan Hamdan, Bukit Damai, Kec. Maluk, Kabupaten Sumbawa Barat, Nusa Tenggara Bar. 84456","Jl. Sultan Hamdan, Bukit Damai, Kec. Maluk, Kabupaten Sumbawa Barat",NUSA TENGGARA BARAT,84456.0,Indonesia,85205068817.0,,,-8.9119903,116.7538242,https://maps.google.com/?cid=0x0:0xa74ea175b0a80b57,
mall,Toko,Indrajoes Shop,"3QP3+GM8, Maluk, Kec. Maluk, Kabupaten Sumbawa Barat, Nusa Tenggara Bar. 84456","Maluk, Kec. Maluk, Kabupaten Sumbawa Barat",NUSA TENGGARA BARAT,84456.0,Indonesia,85333091575.0,,,-8.9137044,116.7542078,https://maps.google.com/?cid=0x0:0x9995d6c4918006e3,
mall,Jasa Konstruksi dan Bangunan,"PT ALDO JAYA (BANGUNAN, MEUBEL, ELEKTRONIK)","3QP3+762, Maluk, Kec. Maluk, Kabupaten Sumbawa Barat, Nusa Tenggara Bar. 84456","Maluk, Kec. Maluk, Kabupaten Sumbawa Barat",NUSA TENGGARA BARAT,84456.0,Indonesia,,,,-8.9143652,116.7530295,https://maps.google.com/?cid=0x0:0xce128e6e3040e92a,
mall,Toko,ASTRIV FASTORE,"Pasir Putih Maluk Rt 11, RW.3, Pasir Putih, Kec. Maluk, Kabupaten Sumbawa Barat, Nusa Tenggara Bar. 84456","RW.3, Pasir Putih, Kec. Maluk, Kabupaten Sumbawa Barat",NUSA TENGGARA BARAT,84456.0,Indonesia,83862416848.0,,,-8.9179617,116.7536157,https://maps.google.com/?cid=0x0:0x52ac157a75f42beb,
mall,Toko,Rapulung Artshop,"5RH9+779, RT.9/RW.3, Dasan Anyar, Kec. Jereweh, Kabupaten Sumbawa Barat, Nusa Tenggara Bar.","Kabupaten Sumbawa Barat, Nusa Tenggara Bar.",NUSA TENGGARA BARAT,,Indonesia,,,,-8.8218437,116.8182485,https://maps.google.com/?cid=0x0:0xba5b6ec4a79424ff,
mall,Area Mendaki,Indomart Townsite PT. AMNT,"2Q97+CF4, Sekongkang Atas, Kec. Sekongkang, Kabupaten Sumbawa Barat, Nusa Tenggara Bar. 84457","Sekongkang Atas, Kec. Sekongkang, Kabupaten Sumbawa Barat",NUSA TENGGARA BARAT,84457.0,Indonesia,,,,-8.9814974,116.7637065,https://maps.google.com/?cid=0x0:0x6cf9729d2b51651f,
mall,Penyewaan Kapal Pancing,Toko Pancing Maluk FISHING store,"3QQ2+Q97, Bukit Damai, Kec. Maluk, Kabupaten Sumbawa Barat, Nusa Tenggara Bar. 84456","Bukit Damai, Kec. Maluk, Kabupaten Sumbawa Barat",NUSA TENGGARA BARAT,84456.0,Indonesia,,,,-8.9105937,116.7509312,https://maps.google.com/?cid=0x0:0x159270027242f47b,
mall,Toko Kosmetik,Agen Resmi WBS Cosmetic(SITI),"3QH5+V6M, Maluk, Kec. Maluk, Kabupaten Sumbawa Barat, Nusa Tenggara Bar. 84456","Maluk, Kec. Maluk, Kabupaten Sumbawa Barat",NUSA TENGGARA BARAT,84456.0,Indonesia,,,,-8.9202927,116.7580591,https://maps.google.com/?cid=0x0:0xa61b7f6782808bcc,
mall,Pusat Perbelanjaan,UD ICHAL JAYA BANGUNAN 01,"Kemuning, Kec. Sekongkang, Kabupaten Sumbawa Barat, Nusa Tenggara Bar. 84457","Kec. Sekongkang, Kabupaten Sumbawa Barat",NUSA TENGGARA BARAT,84457.0,Indonesia,,,,-8.9611053,116.7609123,https://maps.google.com/?cid=0x0:0x3a6ea3dbb3444a4e,
mall,Toko Elektronik,Raffi cell,"2PMX+RC4, Jalan Raya, Sekongkang Bawah, Sekongkang, West Sumbawa Regency, West Nusa Tenggara 84457","Jalan Raya, Sekongkang Bawah, Sekongkang, West Sumbawa Regency",NUSA TENGGARA BARAT,84457.0,Indonesia,,,,-8.9654991,116.7485732,https://maps.google.com/?cid=0x0:0xd1886390d73951ca,
mall,Toko Swalayan,UD. BAROKAH,"2QP2+46R, Dusun batu belawang, RT.01/RW.01, Sekongkang Bawah, Kec. Sekongkang, Kabupaten Sumbawa Barat, Nusa Tenggara Bar.","Kabupaten Sumbawa Barat, Nusa Tenggara Bar.",NUSA TENGGARA BARAT,,Indonesia,,,,-8.9646475,116.7505114,https://maps.google.com/?cid=0x0:0x58704e512c0cd591,
mall,Pusat Perbelanjaan,Samawa Great Mall,"Jl. DR. Wahidin, Brang Bara, Kec. Sumbawa, Kabupaten Sumbawa, Nusa Tenggara Bar. 84313","Brang Bara, Kec. Sumbawa, Kabupaten Sumbawa",NUSA TENGGARA BARAT,84313.0,Indonesia,,,,-8.5004221,117.4263353,https://maps.google.com/?cid=0x0:0x412a6da322a9bdf9,
mall,Toko Swalayan,Alfamart,"Jl. Raya Maluk No.Kel, Pasir Putih, Kec. Maluk, Kabupaten Sumbawa Barat, Nusa Tenggara Bar. 84456","Pasir Putih, Kec. Maluk, Kabupaten Sumbawa Barat",NUSA TENGGARA BARAT,84456.0,Indonesia,1500959.0,,,-8.9135432,116.7512495,https://maps.google.com/?cid=0x0:0x55c3c94bbde91b85,
mall,Pusat Perbelanjaan,UD MITRA BARUNA,"dusun Wara No.B Desa, RT.03/RW.02, Labuan Lalar, Kec. Taliwang, Kabupaten Sumbawa Barat, Nusa Tenggara Bar. 83352","RT.03/RW.02, Labuan Lalar, Kec. Taliwang, Kabupaten Sumbawa Barat",NUSA TENGGARA BARAT,83352.0,Indonesia,85337216899.0,,,-8.814365,116.8157412,https://maps.google.com/?cid=0x0:0x50898a5effec07cf,
mall,Toko,Warung MAMA SANTI,"3QM2+QWC, Jl. Raya Maluk, Maluk, Kec. Maluk, Kabupaten Sumbawa Barat, Nusa Tenggara Bar. 84456","Jl. Raya Maluk, Maluk, Kec. Maluk, Kabupaten Sumbawa Barat",NUSA TENGGARA BARAT,84456.0,Indonesia,,,,-8.9155641,116.7522701,https://maps.google.com/?cid=0x0:0xc0321bd162b740e4,
mall,Pusat Perbelanjaan,Ud.NUR BLOK.A,"3QM3+WW6, Maluk, Kec. Maluk, Kabupaten Sumbawa Barat, Nusa Tenggara Bar. 84456","Maluk, Kec. Maluk, Kabupaten Sumbawa Barat",NUSA TENGGARA BARAT,84456.0,Indonesia,81238069938.0,,,-8.9152025,116.7547763,https://maps.google.com/?cid=0x0:0xa5aa589078e5994c,
mall,mall,Taliwang,"Kuang, Kec. Taliwang, Kabupaten Sumbawa Barat, Nusa Tenggara Bar.","Kabupaten Sumbawa Barat, Nusa Tenggara Bar.",NUSA TENGGARA BARAT,,Indonesia,,,,-8.751946,116.854599,https://maps.google.com/?cid=0x0:0xf98bdc32d4193ccb,
mall,Pusat Perbelanjaan,KSB Mall UMKM,"7V33+86W, Jl. Undru, Kuang, Kec. Taliwang, Kabupaten Sumbawa Barat, Nusa Tenggara Bar. 84455","Jl. Undru, Kuang, Kec. Taliwang, Kabupaten Sumbawa Barat",NUSA TENGGARA BARAT,84455.0,Indonesia,82145222000.0,,,-8.7466326,116.8530713,https://maps.google.com/?cid=0x0:0xfb72753c93f0721f,
mall,mall,Mall Pelayanan Publik Kabupaten Sumbawa Barat,"6VX3+3XW Komplek KTC, Kuang, Taliwang, West Sumbawa Regency, West Nusa Tenggara 84455","Kuang, Taliwang, West Sumbawa Regency",NUSA TENGGARA BARAT,84455.0,Indonesia,,,,-8.7523184,116.8550749,https://maps.google.com/?cid=0x0:0x5f71a2c475081b32,
mall,Toko,Tiara Grand taliwang,"Jl. Jend. Sudirman No.53, Dalam, Kec. Taliwang, Kabupaten Sumbawa Barat, Nusa Tenggara Bar. 84455","Dalam, Kec. Taliwang, Kabupaten Sumbawa Barat",NUSA TENGGARA BARAT,84455.0,Indonesia,,,,-8.7430813,116.8489005,https://maps.google.com/?cid=0x0:0xe7224062c6ab5577,
mall,Minimarket,Toko Selek,"6VX3+6RH, Kuang, Kec. Taliwang, Kabupaten Sumbawa Barat, Nusa Tenggara Bar. 84455","Kuang, Kec. Taliwang, Kabupaten Sumbawa Barat",NUSA TENGGARA BARAT,84455.0,Indonesia,,,,-8.751946,116.854599,https://maps.google.com/?cid=0x0:0x96d2348c96c3ff2a,
mall,Pusat Perbelanjaan,Bale Bargo,"Jl. Sutan Syahrir No.19, Bugis, Kec. Taliwang, Kabupaten Sumbawa Barat, Nusa Tenggara Bar. 84455","Bugis, Kec. Taliwang, Kabupaten Sumbawa Barat",NUSA TENGGARA BARAT,84455.0,Indonesia,87777114273.0,,,-8.7408514,116.841217,https://maps.google.com/?cid=0x0:0xca93ea7d045ade47,
mall,Toko,Indomaret lintas Taliwang,"7V37+W63, Jl. Lintas Taliwang, Menala, Kec. Taliwang, Kabupaten Sumbawa Barat, Nusa Tenggara Bar. 84455","Jl. Lintas Taliwang, Menala, Kec. Taliwang, Kabupaten Sumbawa Barat",NUSA TENGGARA BARAT,84455.0,Indonesia,,,,-8.7452451,116.8630443,https://maps.google.com/?cid=0x0:0x46ba9c0f74a6dc28,
mall,Toko Perlengkapan Olahraga,Malino Sport Taliwang,"7R4W+JPH, Dalam, Kec. Taliwang, Kabupaten Sumbawa Barat, Nusa Tenggara Bar. 84455","Dalam, Kec. Taliwang, Kabupaten Sumbawa Barat",NUSA TENGGARA BARAT,84455.0,Indonesia,,,,-8.7434474,116.8468512,https://maps.google.com/?cid=0x0:0xe41aaeb10e55aaa6,
mall,Pusat Perbelanjaan,Agsyaashopp,"7R3X+W35, Kuang, Kec. Taliwang, Kabupaten Sumbawa Barat, Nusa Tenggara Bar. 84455","Kuang, Kec. Taliwang, Kabupaten Sumbawa Barat",NUSA TENGGARA BARAT,84455.0,Indonesia,85337363803.0,,,-8.7452286,116.8477475,https://maps.google.com/?cid=0x0:0x991ca587406124a0,
mall,Pusat Perbelanjaan,Istora Favorit Taliwang,"Jl. Cendrawasih No.3, Kuang, Kec. Taliwang, Kabupaten Sumbawa Barat, Nusa Tenggara Bar. 84455","Kuang, Kec. Taliwang, Kabupaten Sumbawa Barat",NUSA TENGGARA BARAT,84455.0,Indonesia,87864432495.0,,,-8.7439816,116.8491134,https://maps.google.com/?cid=0x0:0xf5beb8acaea87837,
mall,Kios,Kios Bude Lilis,"7R3W+9H2, Kuang, Kec. Taliwang, Kabupaten Sumbawa Barat, Nusa Tenggara Bar. 84455","Kuang, Kec. Taliwang, Kabupaten Sumbawa Barat",NUSA TENGGARA BARAT,84455.0,Indonesia,,,,-8.7466055,116.8463799,https://maps.google.com/?cid=0x0:0xa849f380abe64677,
mall,mall,Kec. Taliwang,"Kabupaten Sumbawa Barat, Nusa Tenggara Bar.","Kabupaten Sumbawa Barat, Nusa Tenggara Bar.",NUSA TENGGARA BARAT,,Indonesia,,,,-8.7421518,116.849907,https://maps.google.com/?cid=0x0:0x5f3ccf95bc1870bd,
mall,Kantor Pemerintah,Kota Taliwang,"6VX3+6RH, Kuang, Kec. Taliwang, Kabupaten Sumbawa Barat, Nusa Tenggara Bar.","Kabupaten Sumbawa Barat, Nusa Tenggara Bar.",NUSA TENGGARA BARAT,,Indonesia,,,,-8.751946,116.854599,https://maps.google.com/?cid=0x0:0x2808aa0b3bbf4d8c,
mall,Rumah Kaca,Bale Kebun,"7V37+G5Q, Jl. Lintas Taliwang, Menala, Kec. Taliwang, Kabupaten Sumbawa Barat, Nusa Tenggara Bar. 84455","Jl. Lintas Taliwang, Menala, Kec. Taliwang, Kabupaten Sumbawa Barat",NUSA TENGGARA BARAT,84455.0,Indonesia,81239730659.0,,,-8.7461645,116.8629733,https://maps.google.com/?cid=0x0:0x4ff4aa9a1c95dbc4,
mall,Pusat Perbelanjaan,UD. GG,"7V24+H3W, Menala, Kec. Taliwang, Kabupaten Sumbawa Barat, Nusa Tenggara Bar. 84455","Menala, Kec. Taliwang, Kabupaten Sumbawa Barat",NUSA TENGGARA BARAT,84455.0,Indonesia,,,,-8.7485215,116.8551899,https://maps.google.com/?cid=0x0:0x793d081328f0847,
mall,Toko Ponsel,MASALEMBO CELL,"7R5V+5JG, Bugis, Kec. Taliwang, Kabupaten Sumbawa Barat, Nusa Tenggara Bar. 84455","Bugis, Kec. Taliwang, Kabupaten Sumbawa Barat",NUSA TENGGARA BARAT,84455.0,Indonesia,,,,-8.742065,116.8440898,https://maps.google.com/?cid=0x0:0x140643f1c269bf06,
mall,Pusat Perbelanjaan,UD PERJUANGAN,"7QMP+9R7, Labuan Kertasari, Kec. Taliwang, Kabupaten Sumbawa Barat, Nusa Tenggara Bar. 84455","Labuan Kertasari, Kec. Taliwang, Kabupaten Sumbawa Barat",NUSA TENGGARA BARAT,84455.0,Indonesia,85212525367.0,,,-8.7165831,116.7870361,https://maps.google.com/?cid=0x0:0xb8fa1e55ed7fbe20,
mall,Smart shop,UD. Linda,"7R37+VV3, Unnamed Road, Banjar, Kec. Taliwang, Kabupaten Sumbawa Barat, Nusa Tenggara Bar. 84455","Unnamed Road, Banjar, Kec. Taliwang, Kabupaten Sumbawa Barat",NUSA TENGGARA BARAT,84455.0,Indonesia,,,,-8.745357,116.8146684,https://maps.google.com/?cid=0x0:0x5e3227d8ca7d083f,
mall,Toko,Rikavenia shopp,"7R6V+CH7, Unnamed Road, Bugis, Kec. Taliwang, Kabupaten Sumbawa Barat, Nusa Tenggara Bar. 84455","Unnamed Road, Bugis, Kec. Taliwang, Kabupaten Sumbawa Barat",NUSA TENGGARA BARAT,84455.0,Indonesia,82340778380.0,,,-8.7389683,116.8439133,https://maps.google.com/?cid=0x0:0x7b54da01e209ed7b,
mall,Toko,UD. MAGIS,"7V52+R9P, Kuang, Kec. Taliwang, Kabupaten Sumbawa Barat, Nusa Tenggara Bar. 84455","Kuang, Kec. Taliwang, Kabupaten Sumbawa Barat",NUSA TENGGARA BARAT,84455.0,Indonesia,85238903089.0,,,-8.7404138,116.8509449,https://maps.google.com/?cid=0x0:0xbc0d7fe6104dd86a,
mall,Toko,UD. IKHWANSYAH MERARAN,"Jl. Raya Taliwang No.17, Meraran, Kec. Seteluk, Kabupaten Sumbawa Barat, Nusa Tenggara Bar. 84455","Meraran, Kec. Seteluk, Kabupaten Sumbawa Barat",NUSA TENGGARA BARAT,84455.0,Indonesia,,,,-8.6870098,116.8498842,https://maps.google.com/?cid=0x0:0xee616d7fda751804,
mall,Monumen,TUGU KTC TALIWANG,"6VW3+F7J, Unnamed Rd, Nusa Tenggara Bar., Kuang, Kec. Taliwang, Kabupaten Sumbawa Barat, Nusa Tenggara Bar. 84455","Unnamed Rd, Nusa Tenggara Bar., Kuang, Kec. Taliwang, Kabupaten Sumbawa Barat",NUSA TENGGARA BARAT,84455.0,Indonesia,8533902390.0,,,-8.7537751,116.8531357,https://maps.google.com/?cid=0x0:0x6bb6a7864a01c63e,
mall,mall,Kec. Seteluk,"Kabupaten Sumbawa Barat, Nusa Tenggara Bar.","Kabupaten Sumbawa Barat, Nusa Tenggara Bar.",NUSA TENGGARA BARAT,,Indonesia,,,,-8.6251785,116.8652498,https://maps.google.com/?cid=0x0:0x81f1c5d92dcd6f07,
mall,Toko Perlengkapan Rumah,UD.Tiga Putra Blok M,"8R6X+WC8, Meraran, Kec. Seteluk, Kabupaten Sumbawa Barat, Nusa Tenggara Bar. 84454","Meraran, Kec. Seteluk, Kabupaten Sumbawa Barat",NUSA TENGGARA BARAT,84454.0,Indonesia,82341178722.0,,,-8.6877115,116.8485887,https://maps.google.com/?cid=0x0:0x3e7365f309c75791,
mall,Toko,SATERA MINIMARKET,"Jl. Bda Rea, Seteluk Tengah, Kec. Seteluk, Kabupaten Sumbawa Barat, Nusa Tenggara Bar. 84454","Seteluk Tengah, Kec. Seteluk, Kabupaten Sumbawa Barat",NUSA TENGGARA BARAT,84454.0,Indonesia,81917605341.0,,,-8.6311473,116.8599756,https://maps.google.com/?cid=0x0:0xf304f78502fffd4b,
mall,Komplek perumahan,alamat,"9VFC+4GG, Seteluk Atas, Kec. Seteluk, Kabupaten Sumbawa Barat, Nusa Tenggara Bar. 84454","Seteluk Atas, Kec. Seteluk, Kabupaten Sumbawa Barat",NUSA TENGGARA BARAT,84454.0,Indonesia,81238955830.0,,,-8.6271856,116.8713415,https://maps.google.com/?cid=0x0:0xc11b6f6162c371a4,
mall,Pusat Perbelanjaan,Sentra IKM Kabupaten Sumbawa Barat,"FR6P+PJG, Jl. Raya Labuhan Poto Tano, Upt Tambak Sari, Kec. Poto Tano, Kabupaten Sumbawa Barat, Nusa Tenggara Bar. 84454","Jl. Raya Labuhan Poto Tano, Upt Tambak Sari, Kec. Poto Tano, Kabupaten Sumbawa Barat",NUSA TENGGARA BARAT,84454.0,Indonesia,,,,-8.5381986,116.836585,https://maps.google.com/?cid=0x0:0x4751713fb0c627f6,
mall,Minimarket,Alfamart Seteluk,"9VF7+GXV, Jl. Raya Seteluk, Seteluk Tengah, Kec. Seteluk, Kabupaten Sumbawa Barat, Nusa Tenggara Bar. 84354","Jl. Raya Seteluk, Seteluk Tengah, Kec. Seteluk, Kabupaten Sumbawa Barat",NUSA TENGGARA BARAT,84354.0,Indonesia,1500959.0,,,-8.6259412,116.8650526,https://maps.google.com/?cid=0x0:0x5653f9b0bd40a731,
mall,Pusat Perbelanjaan,KSB Mall UMKM,"7V33+86W, Jl. Undru, Kuang, Kec. Taliwang, Kabupaten Sumbawa Barat, Nusa Tenggara Bar. 84455","Jl. Undru, Kuang, Kec. Taliwang, Kabupaten Sumbawa Barat",NUSA TENGGARA BARAT,84455.0,Indonesia,82145222000.0,,,-8.7466326,116.8530713,https://maps.google.com/?cid=0x0:0xfb72753c93f0721f,
mall,Toko,UD. IKHWANSYAH MERARAN,"Jl. Raya Taliwang No.17, Meraran, Kec. Seteluk, Kabupaten Sumbawa Barat, Nusa Tenggara Bar. 84455","Meraran, Kec. Seteluk, Kabupaten Sumbawa Barat",NUSA TENGGARA BARAT,84455.0,Indonesia,,,,-8.6870098,116.8498842,https://maps.google.com/?cid=0x0:0xee616d7fda751804,
mall,mall,Mall Pelayanan Publik Kabupaten Sumbawa Barat,"6VX3+3XW Komplek KTC, Kuang, Taliwang, West Sumbawa Regency, West Nusa Tenggara 84455","Kuang, Taliwang, West Sumbawa Regency",NUSA TENGGARA BARAT,84455.0,Indonesia,,,,-8.7523184,116.8550749,https://maps.google.com/?cid=0x0:0x5f71a2c475081b32,
mall,Toko Swalayan,UD. BUENTELU 2,"Jl. Raya Taliwang tapir, Meraran, Kec. Seteluk, Kabupaten Sumbawa Barat, Nusa Tenggara Bar. 84454","Meraran, Kec. Seteluk, Kabupaten Sumbawa Barat",NUSA TENGGARA BARAT,84454.0,Indonesia,85337539455.0,,,-8.6742801,116.8447619,https://maps.google.com/?cid=0x0:0xde2941b5a02303a1,
mall,mall,Septi.Net,"9VF8+MJ4, Seteluk Tengah, Kec. Seteluk, Kabupaten Sumbawa Barat, Nusa Tenggara Bar. 84454","Seteluk Tengah, Kec. Seteluk, Kabupaten Sumbawa Barat",NUSA TENGGARA BARAT,84454.0,Indonesia,,,,-8.625874,116.8665803,https://maps.google.com/?cid=0x0:0xe90ad74533ae0f75,
mall,Pembangunan Perumahan,Seteluk atas,"9VFF+J2P, Seteluk Atas, Kec. Seteluk, Kabupaten Sumbawa Barat, Nusa Tenggara Bar. 84454","Seteluk Atas, Kec. Seteluk, Kabupaten Sumbawa Barat",NUSA TENGGARA BARAT,84454.0,Indonesia,,,,-8.625919,116.8725919,https://maps.google.com/?cid=0x0:0x9bde1925bd550187,
mall,Toko,Pasar Seteluk,"9VC7+9MM, Seteluk Tengah, Kec. Seteluk, Kabupaten Sumbawa Barat, Nusa Tenggara Bar. 84454","Seteluk Tengah, Kec. Seteluk, Kabupaten Sumbawa Barat",NUSA TENGGARA BARAT,84454.0,Indonesia,,,,-8.629038,116.8641764,https://maps.google.com/?cid=0x0:0x5a05909906b4a3b8,
mall,mall,Nusa Tenggara Bar. 84457,"Kec. Sekongkang, Kabupaten Sumbawa Barat, Nusa Tenggara Bar.","Kabupaten Sumbawa Barat, Nusa Tenggara Bar.",NUSA TENGGARA BARAT,,Indonesia,,,,-9.0278591,116.9145901,https://maps.google.com/?cid=0x0:0xa55d05be516dbaf,
mall,Area Mendaki,Indomart Townsite PT. AMNT,"2Q97+CF4, Sekongkang Atas, Kec. Sekongkang, Kabupaten Sumbawa Barat, Nusa Tenggara Bar. 84457","Sekongkang Atas, Kec. Sekongkang, Kabupaten Sumbawa Barat",NUSA TENGGARA BARAT,84457.0,Indonesia,,,,-8.9814974,116.7637065,https://maps.google.com/?cid=0x0:0x6cf9729d2b51651f,
mall,Toko Swalayan,UD. BAROKAH,"2QP2+46R, Dusun batu belawang, RT.01/RW.01, Sekongkang Bawah, Kec. Sekongkang, Kabupaten Sumbawa Barat, Nusa Tenggara Bar.","Kabupaten Sumbawa Barat, Nusa Tenggara Bar.",NUSA TENGGARA BARAT,,Indonesia,,,,-8.9646475,116.7505114,https://maps.google.com/?cid=0x0:0x58704e512c0cd591,
mall,Pusat Perbelanjaan,UD ICHAL JAYA BANGUNAN 01,"Kemuning, Kec. Sekongkang, Kabupaten Sumbawa Barat, Nusa Tenggara Bar. 84457","Kec. Sekongkang, Kabupaten Sumbawa Barat",NUSA TENGGARA BARAT,84457.0,Indonesia,,,,-8.9611053,116.7609123,https://maps.google.com/?cid=0x0:0x3a6ea3dbb3444a4e,
mall,Pusat Perbelanjaan,Pasar Baru Maluk Sumbawa Barat,"3QP3+2QX Bar, Maluk, Kec. Maluk, Kabupaten Sumbawa Barat, Nusa Tenggara Bar. 84456","Maluk, Kec. Maluk, Kabupaten Sumbawa Barat",NUSA TENGGARA BARAT,84456.0,Indonesia,,,,-8.914894,116.7544872,https://maps.google.com/?cid=0x0:0x5728aa84c5c3f635,
mall,Toko Swalayan,UD TRUNA SETELU,"XRF7+283, Jl. Raya Sejorong, Ai Kangkung, Kec. Sekongkang, Kabupaten Sumbawa Barat, Nusa Tenggara Bar. 84457","Jl. Raya Sejorong, Ai Kangkung, Kec. Sekongkang, Kabupaten Sumbawa Barat",NUSA TENGGARA BARAT,84457.0,Indonesia,,,,-9.027495,116.8133067,https://maps.google.com/?cid=0x0:0xdd1b4b778b906a75,
mall,Komplek perumahan,BUMDES Ai kangkung,"Jl. Raya Senutuk, Ai Kangkung, Kec. Sekongkang, Kabupaten Sumbawa Barat, Nusa Tenggara Bar. 84457","Ai Kangkung, Kec. Sekongkang, Kabupaten Sumbawa Barat",NUSA TENGGARA BARAT,84457.0,Indonesia,,,,-9.0317506,116.8248383,https://maps.google.com/?cid=0x0:0x85db5860b614e893,
mall,Pusat Perbelanjaan,UD BATAKO PRESS,"XR9C+MHW, Jl. Raya Senutuk, Ai Kangkung, Kec. Sekongkang, Kabupaten Sumbawa Barat, Nusa Tenggara Bar. 84457","Jl. Raya Senutuk, Ai Kangkung, Kec. Sekongkang, Kabupaten Sumbawa Barat",NUSA TENGGARA BARAT,84457.0,Indonesia,81338150805.0,,,-9.0307706,116.8214457,https://maps.google.com/?cid=0x0:0xd5b12b87ae799eb4,
mall,Pusat Perbelanjaan,KSB mart,"3PMX+6MP, Pasir Putih, Kec. Maluk, Kabupaten Sumbawa Barat, Nusa Tenggara Bar. 84456","Pasir Putih, Kec. Maluk, Kabupaten Sumbawa Barat",NUSA TENGGARA BARAT,84456.0,Indonesia,81236177776.0,,,-8.9169047,116.7492078,https://maps.google.com/?cid=0x0:0xb5090209f15fe391,
mall,Minimarket,SEKONGKANG ALFAMART,"Jl. Raya Sekongkang, Kemuning, Kec. Sekongkang, Kabupaten Sumbawa Barat, Nusa Tenggara Bar. 84457","Kemuning, Kec. Sekongkang, Kabupaten Sumbawa Barat",NUSA TENGGARA BARAT,84457.0,Indonesia,1500959.0,,,-8.9657693,116.7588507,https://maps.google.com/?cid=0x0:0xf8874c0fee6c332a,
mall,Pusat Perbelanjaan,Nurul outlet,"3QQ3+6G4, Jl. Sultan Hamdan, Bukit Damai, Kec. Maluk, Kabupaten Sumbawa Barat, Nusa Tenggara Bar. 84456","Jl. Sultan Hamdan, Bukit Damai, Kec. Maluk, Kabupaten Sumbawa Barat",NUSA TENGGARA BARAT,84456.0,Indonesia,85205068817.0,,,-8.9119903,116.7538242,https://maps.google.com/?cid=0x0:0xa74ea175b0a80b57,
mall,mall,UD Kembar,"Jl. Raya Sekongkang No.25, Kemuning, Kec. Sekongkang, Kabupaten Sumbawa Barat, Nusa Tenggara Bar. 84457","Kemuning, Kec. Sekongkang, Kabupaten Sumbawa Barat",NUSA TENGGARA BARAT,84457.0,Indonesia,,,,-8.9636695,116.7593449,https://maps.google.com/?cid=0x0:0x7a0f78403443d092,
mall,mall,Amak Roh,"XR8C+7H4, Unnamed Road, Ai Kangkung, Kec. Sekongkang, Kabupaten Sumbawa Barat, Nusa Tenggara Bar. 84457","Unnamed Road, Ai Kangkung, Kec. Sekongkang, Kabupaten Sumbawa Barat",NUSA TENGGARA BARAT,84457.0,Indonesia,,,,-9.0343632,116.8214447,https://maps.google.com/?cid=0x0:0x740c43f86c9143b2,
mall,Toko,ASTRIV FASTORE,"Pasir Putih Maluk Rt 11, RW.3, Pasir Putih, Kec. Maluk, Kabupaten Sumbawa Barat, Nusa Tenggara Bar. 84456","RW.3, Pasir Putih, Kec. Maluk, Kabupaten Sumbawa Barat",NUSA TENGGARA BARAT,84456.0,Indonesia,83862416848.0,,,-8.9179617,116.7536157,https://maps.google.com/?cid=0x0:0x52ac157a75f42beb,
mall,Jasa Konstruksi dan Bangunan,"PT ALDO JAYA (BANGUNAN, MEUBEL, ELEKTRONIK)","3QP3+762, Maluk, Kec. Maluk, Kabupaten Sumbawa Barat, Nusa Tenggara Bar. 84456","Maluk, Kec. Maluk, Kabupaten Sumbawa Barat",NUSA TENGGARA BARAT,84456.0,Indonesia,,,,-8.9143652,116.7530295,https://maps.google.com/?cid=0x0:0xce128e6e3040e92a,
mall,Toko Kosmetik,Agen Resmi WBS Cosmetic(SITI),"3QH5+V6M, Maluk, Kec. Maluk, Kabupaten Sumbawa Barat, Nusa Tenggara Bar. 84456","Maluk, Kec. Maluk, Kabupaten Sumbawa Barat",NUSA TENGGARA BARAT,84456.0,Indonesia,,,,-8.9202927,116.7580591,https://maps.google.com/?cid=0x0:0xa61b7f6782808bcc,
mall,Agen Sewa Mobil,PT. Kemuning Baru Sekongkang,"2QV6+9MC Ujung pagar, Jl. NNT Batu Hijau, Kemuning, Kec. Sekongkang, Kabupaten Sumbawa Barat, Nusa Tenggara Bar. 84457","Jl. NNT Batu Hijau, Kemuning, Kec. Sekongkang, Kabupaten Sumbawa Barat",NUSA TENGGARA BARAT,84457.0,Indonesia,,,,-8.9574879,116.7608843,https://maps.google.com/?cid=0x0:0xede6bb1545d098e3,
mall,Pusat Perbelanjaan,UD. Barata,"Jl. Maluk - Sekongkang, Sekongkang Bawah, Kec. Maluk, Kabupaten Sumbawa Barat, Nusa Tenggara Bar.","Kabupaten Sumbawa Barat, Nusa Tenggara Bar.",NUSA TENGGARA BARAT,,Indonesia,,,,-8.9175221,116.753233,https://maps.google.com/?cid=0x0:0x7d6b80dd2e619524,
mall,mall,Nusa Tenggara Bar. 84458,"Kec. Brang Rea, Kabupaten Sumbawa Barat, Nusa Tenggara Bar.","Kabupaten Sumbawa Barat, Nusa Tenggara Bar.",NUSA TENGGARA BARAT,,Indonesia,,,,-8.6999135,117.0087877,https://maps.google.com/?cid=0x0:0xd32541cc680b77d1,
mall,Toko bahan makanan,Miq cendawan,"7WXX+W59, Unnamed Road, Bangkat Monteh, Kec. Brang Rea, Kabupaten Sumbawa Barat, Nusa Tenggara Bar. 84458","Unnamed Road, Bangkat Monteh, Kec. Brang Rea, Kabupaten Sumbawa Barat",NUSA TENGGARA BARAT,84458.0,Indonesia,87703393446.0,,,-8.7002148,116.9479754,https://maps.google.com/?cid=0x0:0xbb483664b742d869,
mall,Grosir buah,Fruit fresh NJ,"7WF5+3VC, Jl. Baso Busing, Desa Beru, Kec. Brang Rea, Kabupaten Sumbawa Barat, Nusa Tenggara Bar. 84455","Jl. Baso Busing, Desa Beru, Kec. Brang Rea, Kabupaten Sumbawa Barat",NUSA TENGGARA BARAT,84455.0,Indonesia,82339794131.0,,,-8.7273327,116.9096549,https://maps.google.com/?cid=0x0:0x325cc056ff259f99,
mall,mall,Kios Chanca,"7WQ9+58H, Tepas Sepakat, Kec. Brang Rea, Kabupaten Sumbawa Barat, Nusa Tenggara Bar. 84458","Tepas Sepakat, Kec. Brang Rea, Kabupaten Sumbawa Barat",NUSA TENGGARA BARAT,84458.0,Indonesia,,,,-8.7117562,116.9182423,https://maps.google.com/?cid=0x0:0xa81712d6ba47222a,
mall,Toko,Kios Mariana,"7V6P+35M, Sapugara Bree, Kec. Brang Rea, Kabupaten Sumbawa Barat, Nusa Tenggara Bar. 84455","Sapugara Bree, Kec. Brang Rea, Kabupaten Sumbawa Barat",NUSA TENGGARA BARAT,84455.0,Indonesia,,,,-8.739794,116.8854349,https://maps.google.com/?cid=0x0:0xc0c7e58c4dd16377,
mall,mall,Nusa Tenggara Bar. 84454,"Kec. Seteluk, Kabupaten Sumbawa Barat, Nusa Tenggara Bar.","Kabupaten Sumbawa Barat, Nusa Tenggara Bar.",NUSA TENGGARA BARAT,,Indonesia,,,,-8.5906982,116.8674757,https://maps.google.com/?cid=0x0:0xabcb20c0c162b41d,
mall,Pusat Perbelanjaan,Sentra IKM Kabupaten Sumbawa Barat,"FR6P+PJG, Jl. Raya Labuhan Poto Tano, Upt Tambak Sari, Kec. Poto Tano, Kabupaten Sumbawa Barat, Nusa Tenggara Bar. 84454","Jl. Raya Labuhan Poto Tano, Upt Tambak Sari, Kec. Poto Tano, Kabupaten Sumbawa Barat",NUSA TENGGARA BARAT,84454.0,Indonesia,,,,-8.5381986,116.836585,https://maps.google.com/?cid=0x0:0x4751713fb0c627f6,
mall,Layanan Feri,Pelabuhan Poto Tano,"Poto Tano, Kec. Poto Tano, Kabupaten Sumbawa Barat, Nusa Tenggara Bar. 84454","Kec. Poto Tano, Kabupaten Sumbawa Barat",NUSA TENGGARA BARAT,84454.0,Indonesia,,,,-8.5221101,116.8310684,https://maps.google.com/?cid=0x0:0x11aef0438686cad0,
mall,mall,Mall Pelayanan Publik Kabupaten Sumbawa Barat,"6VX3+3XW Komplek KTC, Kuang, Taliwang, West Sumbawa Regency, West Nusa Tenggara 84455","Kuang, Taliwang, West Sumbawa Regency",NUSA TENGGARA BARAT,84455.0,Indonesia,,,,-8.7523184,116.8550749,https://maps.google.com/?cid=0x0:0x5f71a2c475081b32,
mall,Pusat Perbelanjaan,KSB Mall UMKM,"7V33+86W, Jl. Undru, Kuang, Kec. Taliwang, Kabupaten Sumbawa Barat, Nusa Tenggara Bar. 84455","Jl. Undru, Kuang, Kec. Taliwang, Kabupaten Sumbawa Barat",NUSA TENGGARA BARAT,84455.0,Indonesia,82145222000.0,,,-8.7466326,116.8530713,https://maps.google.com/?cid=0x0:0xfb72753c93f0721f,
mall,Toko Pertanian,UD.PAK TANI (Smart farmer),"CVR7+P84, Jl Raya Kerja Luris, Kokar Lian, Kec. Poto Tano, Kabupaten Sumbawa Barat, Nusa Tenggara Bar. 84354","Jl Raya Kerja Luris, Kokar Lian, Kec. Poto Tano, Kabupaten Sumbawa Barat",NUSA TENGGARA BARAT,84354.0,Indonesia,87766646779.0,,,-8.5582253,116.8633354,https://maps.google.com/?cid=0x0:0x1dda80a2998075b0,
mall,Toko,SATERA MINIMARKET,"Jl. Bda Rea, Seteluk Tengah, Kec. Seteluk, Kabupaten Sumbawa Barat, Nusa Tenggara Bar. 84454","Seteluk Tengah, Kec. Seteluk, Kabupaten Sumbawa Barat",NUSA TENGGARA BARAT,84454.0,Indonesia,81917605341.0,,,-8.6311473,116.8599756,https://maps.google.com/?cid=0x0:0xf304f78502fffd4b,
mall,Toko Perlengkapan Rumah,UD.Tiga Putra Blok M,"8R6X+WC8, Meraran, Kec. Seteluk, Kabupaten Sumbawa Barat, Nusa Tenggara Bar. 84454","Meraran, Kec. Seteluk, Kabupaten Sumbawa Barat",NUSA TENGGARA BARAT,84454.0,Indonesia,82341178722.0,,,-8.6877115,116.8485887,https://maps.google.com/?cid=0x0:0x3e7365f309c75791,
mall,Pusat Perbelanjaan,UD DELTA,"Jl. Ahmad Yani, Sampir, Kec. Taliwang, Kabupaten Sumbawa Barat, Nusa Tenggara Bar. 84455","Sampir, Kec. Taliwang, Kabupaten Sumbawa Barat",NUSA TENGGARA BARAT,84455.0,Indonesia,87864264268.0,,,-8.742825,116.8549845,https://maps.google.com/?cid=0x0:0x2217e56f6e9f0ab1,
mall,Pusat Perbelanjaan,Bale Bargo,"Jl. Sutan Syahrir No.19, Bugis, Kec. Taliwang, Kabupaten Sumbawa Barat, Nusa Tenggara Bar. 84455","Bugis, Kec. Taliwang, Kabupaten Sumbawa Barat",NUSA TENGGARA BARAT,84455.0,Indonesia,87777114273.0,,,-8.7408514,116.841217,https://maps.google.com/?cid=0x0:0xca93ea7d045ade47,
mall,Toko,Toko Sumanti Blok M,"Meraran, Kec. Seteluk, Kabupaten Sumbawa Barat, Nusa Tenggara Bar. 84454","Kec. Seteluk, Kabupaten Sumbawa Barat",NUSA TENGGARA BARAT,84454.0,Indonesia,82236844825.0,,,-8.6877163,116.8485879,https://maps.google.com/?cid=0x0:0x5be759b02a9d067e,
mall,Toko Mebel,SANJAYA MEUBEL@SANJAYA PERFECT SHOES,"Telaga Bertong, Kec. Taliwang, Kabupaten Sumbawa Barat, Nusa Tenggara Bar. 84455","Kec. Taliwang, Kabupaten Sumbawa Barat",NUSA TENGGARA BARAT,84455.0,Indonesia,82147031302.0,,,-8.7602228,116.8298119,https://maps.google.com/?cid=0x0:0xaf0ba7a684e23a97,
mall,Rumah wisata,SD Negeri Poto Tano,"Poto Tano, Kec. Poto Tano, Kabupaten Sumbawa Barat, Nusa Tenggara Bar. 84454","Kec. Poto Tano, Kabupaten Sumbawa Barat",NUSA TENGGARA BARAT,84454.0,Indonesia,,,,-8.5310312,116.8329202,https://maps.google.com/?cid=0x0:0x5af90309d82f47da,
mall,Indonesia,UD. Nova Noa,"7R3P+G43, Bugis, Kec. Taliwang, Kabupaten Sumbawa Barat, Nusa Tenggara Bar. 84455","Bugis, Kec. Taliwang, Kabupaten Sumbawa Barat",NUSA TENGGARA BARAT,84455.0,Indonesia,81337529222.0,,,-8.746232,116.8353037,https://maps.google.com/?cid=0x0:0xd4775fe11a678371,
mall,Rumah Kaca,Bale Kebun,"7V37+G5Q, Jl. Lintas Taliwang, Menala, Kec. Taliwang, Kabupaten Sumbawa Barat, Nusa Tenggara Bar. 84455","Jl. Lintas Taliwang, Menala, Kec. Taliwang, Kabupaten Sumbawa Barat",NUSA TENGGARA BARAT,84455.0,Indonesia,81239730659.0,,,-8.7461645,116.8629733,https://maps.google.com/?cid=0x0:0x4ff4aa9a1c95dbc4,
mall,Kantor Perusahaan,Distributor Resmi NASA KSB,"BAKSO MAS FREE, jl raya taliwang sumbawa No.RT 04/03, Daya Makmur, Kokar Lian, Kec. Poto Tano, Kabupaten Sumbawa Barat, Nusa Tenggara Bar. 84454","jl raya taliwang sumbawa No.RT 04/03, Daya Makmur, Kokar Lian, Kec. Poto Tano, Kabupaten Sumbawa Barat",NUSA TENGGARA BARAT,84454.0,Indonesia,85237329252.0,,,-8.5581021,116.8636524,https://maps.google.com/?cid=0x0:0x48c11a7a49150bf1,
mall,Toko bahan makanan,Kios Hj.zaenab,"CWW4+Q6, Mapin Kebak, Kec. Alas Bar., Kabupaten Sumbawa, Nusa Tenggara Bar.","Kabupaten Sumbawa, Nusa Tenggara Bar.",NUSA TENGGARA BARAT,,Indonesia,,,,-8.5530648,116.9049842,https://maps.google.com/?cid=0x0:0x54799f3334073d17,
mall,Pusat Perbelanjaan,Orbit Bata Merah,"FV6W+RM5, Labuan Mapin, Kec. Alas Bar., Kabupaten Sumbawa, Nusa Tenggara Bar. 84353","Labuan Mapin, Kec. Alas Bar., Kabupaten Sumbawa",NUSA TENGGARA BARAT,84353.0,Indonesia,85339204947.0,,,-8.5379752,116.8967347,https://maps.google.com/?cid=0x0:0xbd62ae6a38b5fe7f,
mall,mall,tmpat belanja,"9Q4G+HW6, Tua Nanga, Kec. Poto Tano, Kabupaten Sumbawa Barat, Nusa Tenggara Bar.","Kabupaten Sumbawa Barat, Nusa Tenggara Bar.",NUSA TENGGARA BARAT,,Indonesia,,,,-8.6435764,116.7772788,https://maps.google.com/?cid=0x0:0xdbec1767fe9cdc83,
mall,Pusat Kesehatan Masyarakat,Puskesmas Poto Tano,"Jalan Lobster Raya, Upt Tambak Sari, Kec. Poto Tano, Kabupaten Sumbawa Barat, Nusa Tenggara Bar. 84454","Upt Tambak Sari, Kec. Poto Tano, Kabupaten Sumbawa Barat",NUSA TENGGARA BARAT,84454.0,Indonesia,,,,-8.5677737,116.8444924,https://maps.google.com/?cid=0x0:0x1e21e1e2f47f596d,
mall,mall,Nusa Tenggara Bar. 84455,"Kabupaten Sumbawa Barat, Nusa Tenggara Bar.","Kabupaten Sumbawa Barat, Nusa Tenggara Bar.",NUSA TENGGARA BARAT,,Indonesia,,,,-8.7907453,116.8674757,https://maps.google.com/?cid=0x0:0x5fda0016832273b3,
mall,mall,Mall Pelayanan Publik Kabupaten Sumbawa Barat,"6VX3+3XW Komplek KTC, Kuang, Taliwang, West Sumbawa Regency, West Nusa Tenggara 84455","Kuang, Taliwang, West Sumbawa Regency",NUSA TENGGARA BARAT,84455.0,Indonesia,,,,-8.7523184,116.8550749,https://maps.google.com/?cid=0x0:0x5f71a2c475081b32,
mall,Pasar,Pasar Rakyat Brang Ene,"6VH9+3Q7, Jl. Pd. Pesantren, Manemeng, Kec. Brang Ene, Kabupaten Sumbawa Barat, Nusa Tenggara Bar. 84455","Jl. Pd. Pesantren, Manemeng, Kec. Brang Ene, Kabupaten Sumbawa Barat",NUSA TENGGARA BARAT,84455.0,Indonesia,,,,-8.7723273,116.8694322,https://maps.google.com/?cid=0x0:0xd612ffc010320894,
mall,Pusat Perbelanjaan,Bale Bargo,"Jl. Sutan Syahrir No.19, Bugis, Kec. Taliwang, Kabupaten Sumbawa Barat, Nusa Tenggara Bar. 84455","Bugis, Kec. Taliwang, Kabupaten Sumbawa Barat",NUSA TENGGARA BARAT,84455.0,Indonesia,87777114273.0,,,-8.7408514,116.841217,https://maps.google.com/?cid=0x0:0xca93ea7d045ade47,
mall,Minimarket,Toko Selek,"6VX3+6RH, Kuang, Kec. Taliwang, Kabupaten Sumbawa Barat, Nusa Tenggara Bar. 84455","Kuang, Kec. Taliwang, Kabupaten Sumbawa Barat",NUSA TENGGARA BARAT,84455.0,Indonesia,,,,-8.751946,116.854599,https://maps.google.com/?cid=0x0:0x96d2348c96c3ff2a,
mall,Pusat Perbelanjaan,UD DELTA,"Jl. Ahmad Yani, Sampir, Kec. Taliwang, Kabupaten Sumbawa Barat, Nusa Tenggara Bar. 84455","Sampir, Kec. Taliwang, Kabupaten Sumbawa Barat",NUSA TENGGARA BARAT,84455.0,Indonesia,87864264268.0,,,-8.742825,116.8549845,https://maps.google.com/?cid=0x0:0x2217e56f6e9f0ab1,
mall,Pusat Perbelanjaan,UD. GG,"7V24+H3W, Menala, Kec. Taliwang, Kabupaten Sumbawa Barat, Nusa Tenggara Bar. 84455","Menala, Kec. Taliwang, Kabupaten Sumbawa Barat",NUSA TENGGARA BARAT,84455.0,Indonesia,,,,-8.7485215,116.8551899,https://maps.google.com/?cid=0x0:0x793d081328f0847,
mall,Rumah Kaca,Bale Kebun,"7V37+G5Q, Jl. Lintas Taliwang, Menala, Kec. Taliwang, Kabupaten Sumbawa Barat, Nusa Tenggara Bar. 84455","Jl. Lintas Taliwang, Menala, Kec. Taliwang, Kabupaten Sumbawa Barat",NUSA TENGGARA BARAT,84455.0,Indonesia,81239730659.0,,,-8.7461645,116.8629733,https://maps.google.com/?cid=0x0:0x4ff4aa9a1c95dbc4,
mall,Toko Mebel,SANJAYA MEUBEL@SANJAYA PERFECT SHOES,"Telaga Bertong, Kec. Taliwang, Kabupaten Sumbawa Barat, Nusa Tenggara Bar. 84455","Kec. Taliwang, Kabupaten Sumbawa Barat",NUSA TENGGARA BARAT,84455.0,Indonesia,82147031302.0,,,-8.7602228,116.8298119,https://maps.google.com/?cid=0x0:0xaf0ba7a684e23a97,
mall,Toko,Rikavenia shopp,"7R6V+CH7, Unnamed Road, Bugis, Kec. Taliwang, Kabupaten Sumbawa Barat, Nusa Tenggara Bar. 84455","Unnamed Road, Bugis, Kec. Taliwang, Kabupaten Sumbawa Barat",NUSA TENGGARA BARAT,84455.0,Indonesia,82340778380.0,,,-8.7389683,116.8439133,https://maps.google.com/?cid=0x0:0x7b54da01e209ed7b,
mall,Grosir buah,Fruit fresh NJ,"7WF5+3VC, Jl. Baso Busing, Desa Beru, Kec. Brang Rea, Kabupaten Sumbawa Barat, Nusa Tenggara Bar. 84455","Jl. Baso Busing, Desa Beru, Kec. Brang Rea, Kabupaten Sumbawa Barat",NUSA TENGGARA BARAT,84455.0,Indonesia,82339794131.0,,,-8.7273327,116.9096549,https://maps.google.com/?cid=0x0:0x325cc056ff259f99,
mall,Indonesia,UD. Nova Noa,"7R3P+G43, Bugis, Kec. Taliwang, Kabupaten Sumbawa Barat, Nusa Tenggara Bar. 84455","Bugis, Kec. Taliwang, Kabupaten Sumbawa Barat",NUSA TENGGARA BARAT,84455.0,Indonesia,81337529222.0,,,-8.746232,116.8353037,https://maps.google.com/?cid=0x0:0xd4775fe11a678371,
mall,Pusat Perbelanjaan,Bale Mpak Mbak Gyna,"Jl. Ps. Baru No.3, Dalam, Kec. Taliwang, Kabupaten Sumbawa Barat, Nusa Tenggara Bar. 84455","Dalam, Kec. Taliwang, Kabupaten Sumbawa Barat",NUSA TENGGARA BARAT,84455.0,Indonesia,82247920610.0,,,-8.7430084,116.8470119,https://maps.google.com/?cid=0x0:0xeb156657fe435ef4,
mall,Pusat Perbelanjaan,Agsyaashopp,"7R3X+W35, Kuang, Kec. Taliwang, Kabupaten Sumbawa Barat, Nusa Tenggara Bar. 84455","Kuang, Kec. Taliwang, Kabupaten Sumbawa Barat",NUSA TENGGARA BARAT,84455.0,Indonesia,85337363803.0,,,-8.7452286,116.8477475,https://maps.google.com/?cid=0x0:0x991ca587406124a0,
mall,Toko Ponsel,MASALEMBO CELL,"7R5V+5JG, Bugis, Kec. Taliwang, Kabupaten Sumbawa Barat, Nusa Tenggara Bar. 84455","Bugis, Kec. Taliwang, Kabupaten Sumbawa Barat",NUSA TENGGARA BARAT,84455.0,Indonesia,,,,-8.742065,116.8440898,https://maps.google.com/?cid=0x0:0x140643f1c269bf06,
mall,Toko,Kios Mariana,"7V6P+35M, Sapugara Bree, Kec. Brang Rea, Kabupaten Sumbawa Barat, Nusa Tenggara Bar. 84455","Sapugara Bree, Kec. Brang Rea, Kabupaten Sumbawa Barat",NUSA TENGGARA BARAT,84455.0,Indonesia,,,,-8.739794,116.8854349,https://maps.google.com/?cid=0x0:0xc0c7e58c4dd16377,
mall,Toko,Tiara Grand taliwang,"Jl. Jend. Sudirman No.53, Dalam, Kec. Taliwang, Kabupaten Sumbawa Barat, Nusa Tenggara Bar. 84455","Dalam, Kec. Taliwang, Kabupaten Sumbawa Barat",NUSA TENGGARA BARAT,84455.0,Indonesia,,,,-8.7430813,116.8489005,https://maps.google.com/?cid=0x0:0xe7224062c6ab5577,
mall,Smart shop,UD. Linda,"7R37+VV3, Unnamed Road, Banjar, Kec. Taliwang, Kabupaten Sumbawa Barat, Nusa Tenggara Bar. 84455","Unnamed Road, Banjar, Kec. Taliwang, Kabupaten Sumbawa Barat",NUSA TENGGARA BARAT,84455.0,Indonesia,,,,-8.745357,116.8146684,https://maps.google.com/?cid=0x0:0x5e3227d8ca7d083f,
mall,Pusat Perbelanjaan,UD PERJUANGAN,"7QMP+9R7, Labuan Kertasari, Kec. Taliwang, Kabupaten Sumbawa Barat, Nusa Tenggara Bar. 84455","Labuan Kertasari, Kec. Taliwang, Kabupaten Sumbawa Barat",NUSA TENGGARA BARAT,84455.0,Indonesia,85212525367.0,,,-8.7165831,116.7870361,https://maps.google.com/?cid=0x0:0xb8fa1e55ed7fbe20,
mall,Toko Perlengkapan Rumah,UD. Alfin,"7R5X+43P, Dalam, Kec. Taliwang, Kabupaten Sumbawa Barat, Nusa Tenggara Bar. 84455","Dalam, Kec. Taliwang, Kabupaten Sumbawa Barat",NUSA TENGGARA BARAT,84455.0,Indonesia,,,,-8.7421672,116.8477013,https://maps.google.com/?cid=0x0:0x11b52c04b7370094,
mall,Toko Bahan Bangunan,BIN TAHA Teknik  Bangunan,"Arken, Kec. Taliwang, Kabupaten Sumbawa Barat, Nusa Tenggara Bar. 84455","Kec. Taliwang, Kabupaten Sumbawa Barat",NUSA TENGGARA BARAT,84455.0,Indonesia,81246320617.0,,,-8.7428808,116.8475926,https://maps.google.com/?cid=0x0:0xdf06c77e8d11916c,
mall,Pusat Perbelanjaan,KSB mart,"3PMX+6MP, Pasir Putih, Kec. Maluk, Kabupaten Sumbawa Barat, Nusa Tenggara Bar. 84456","Pasir Putih, Kec. Maluk, Kabupaten Sumbawa Barat",NUSA TENGGARA BARAT,84456.0,Indonesia,81236177776.0,,,-8.9169047,116.7492078,https://maps.google.com/?cid=0x0:0xb5090209f15fe391,
mall,Toko,Indrajoes Shop,"3QP3+GM8, Maluk, Kec. Maluk, Kabupaten Sumbawa Barat, Nusa Tenggara Bar. 84456","Maluk, Kec. Maluk, Kabupaten Sumbawa Barat",NUSA TENGGARA BARAT,84456.0,Indonesia,85333091575.0,,,-8.9137044,116.7542078,https://maps.google.com/?cid=0x0:0x9995d6c4918006e3,
mall,Pusat Perbelanjaan,Samawa Great Mall,"Jl. DR. Wahidin, Brang Bara, Kec. Sumbawa, Kabupaten Sumbawa, Nusa Tenggara Bar. 84313","Brang Bara, Kec. Sumbawa, Kabupaten Sumbawa",NUSA TENGGARA BARAT,84313.0,Indonesia,,,,-8.5004221,117.4263353,https://maps.google.com/?cid=0x0:0x412a6da322a9bdf9,
mall,Pusat Perbelanjaan,Pasar Baru Maluk Sumbawa Barat,"3QP3+2QX Bar, Maluk, Kec. Maluk, Kabupaten Sumbawa Barat, Nusa Tenggara Bar. 84456","Maluk, Kec. Maluk, Kabupaten Sumbawa Barat",NUSA TENGGARA BARAT,84456.0,Indonesia,,,,-8.914894,116.7544872,https://maps.google.com/?cid=0x0:0x5728aa84c5c3f635,
mall,Jasa Konstruksi dan Bangunan,"PT ALDO JAYA (BANGUNAN, MEUBEL, ELEKTRONIK)","3QP3+762, Maluk, Kec. Maluk, Kabupaten Sumbawa Barat, Nusa Tenggara Bar. 84456","Maluk, Kec. Maluk, Kabupaten Sumbawa Barat",NUSA TENGGARA BARAT,84456.0,Indonesia,,,,-8.9143652,116.7530295,https://maps.google.com/?cid=0x0:0xce128e6e3040e92a,
mall,Pusat Perbelanjaan,Nurul outlet,"3QQ3+6G4, Jl. Sultan Hamdan, Bukit Damai, Kec. Maluk, Kabupaten Sumbawa Barat, Nusa Tenggara Bar. 84456","Jl. Sultan Hamdan, Bukit Damai, Kec. Maluk, Kabupaten Sumbawa Barat",NUSA TENGGARA BARAT,84456.0,Indonesia,85205068817.0,,,-8.9119903,116.7538242,https://maps.google.com/?cid=0x0:0xa74ea175b0a80b57,
mall,Toko Swalayan,Alfamart,"Jl. Raya Maluk No.Kel, Pasir Putih, Kec. Maluk, Kabupaten Sumbawa Barat, Nusa Tenggara Bar. 84456","Pasir Putih, Kec. Maluk, Kabupaten Sumbawa Barat",NUSA TENGGARA BARAT,84456.0,Indonesia,1500959.0,,,-8.9135432,116.7512495,https://maps.google.com/?cid=0x0:0x55c3c94bbde91b85,
mall,Toko,ASTRIV FASTORE,"Pasir Putih Maluk Rt 11, RW.3, Pasir Putih, Kec. Maluk, Kabupaten Sumbawa Barat, Nusa Tenggara Bar. 84456","RW.3, Pasir Putih, Kec. Maluk, Kabupaten Sumbawa Barat",NUSA TENGGARA BARAT,84456.0,Indonesia,83862416848.0,,,-8.9179617,116.7536157,https://maps.google.com/?cid=0x0:0x52ac157a75f42beb,
mall,Pusat Perbelanjaan,Ud.NUR BLOK.A,"3QM3+WW6, Maluk, Kec. Maluk, Kabupaten Sumbawa Barat, Nusa Tenggara Bar. 84456","Maluk, Kec. Maluk, Kabupaten Sumbawa Barat",NUSA TENGGARA BARAT,84456.0,Indonesia,81238069938.0,,,-8.9152025,116.7547763,https://maps.google.com/?cid=0x0:0xa5aa589078e5994c,
mall,Penyewaan Kapal Pancing,Toko Pancing Maluk FISHING store,"3QQ2+Q97, Bukit Damai, Kec. Maluk, Kabupaten Sumbawa Barat, Nusa Tenggara Bar. 84456","Bukit Damai, Kec. Maluk, Kabupaten Sumbawa Barat",NUSA TENGGARA BARAT,84456.0,Indonesia,,,,-8.9105937,116.7509312,https://maps.google.com/?cid=0x0:0x159270027242f47b,
mall,Toko Kosmetik,Agen Resmi WBS Cosmetic(SITI),"3QH5+V6M, Maluk, Kec. Maluk, Kabupaten Sumbawa Barat, Nusa Tenggara Bar. 84456","Maluk, Kec. Maluk, Kabupaten Sumbawa Barat",NUSA TENGGARA BARAT,84456.0,Indonesia,,,,-8.9202927,116.7580591,https://maps.google.com/?cid=0x0:0xa61b7f6782808bcc,
mall,Toko,Warung MAMA SANTI,"3QM2+QWC, Jl. Raya Maluk, Maluk, Kec. Maluk, Kabupaten Sumbawa Barat, Nusa Tenggara Bar. 84456","Jl. Raya Maluk, Maluk, Kec. Maluk, Kabupaten Sumbawa Barat",NUSA TENGGARA BARAT,84456.0,Indonesia,,,,-8.9155641,116.7522701,https://maps.google.com/?cid=0x0:0xc0321bd162b740e4,
mall,Vila,Grand Housing Maluk,"Maluk, Kec. Maluk, Kabupaten Sumbawa Barat, Nusa Tenggara Bar. 84456","Kec. Maluk, Kabupaten Sumbawa Barat",NUSA TENGGARA BARAT,84456.0,Indonesia,82147935511.0,,,-8.9204763,116.7552689,https://maps.google.com/?cid=0x0:0xdc5c908b8093b037,
mall,Masjid,Masjid At Taqwa - Maluk Loka,"3QJ4+P86, Maluk, Kec. Maluk, Kabupaten Sumbawa Barat, Nusa Tenggara Bar. 84456","Maluk, Kec. Maluk, Kabupaten Sumbawa Barat",NUSA TENGGARA BARAT,84456.0,Indonesia,,,,-8.9182118,116.7557789,https://maps.google.com/?cid=0x0:0x40ad25b10ec37c,
mall,Vila,Maluk Surfhouse,"Jl. Raya Pasir Putih, Pasir Putih, Maluk, West Sumbawa Regency, West Nusa Tenggara 84456","Pasir Putih, Maluk, West Sumbawa Regency",NUSA TENGGARA BARAT,84456.0,Indonesia,85339291109.0,,,-8.9161609,116.7475389,https://maps.google.com/?cid=0x0:0xa56457ef50fc543,
mall,mall,Pantai Maluk,Nusa Tenggara Bar.,Nusa Tenggara Bar.,NUSA TENGGARA BARAT,,Indonesia,,,,-8.9179213,116.7474819,https://maps.google.com/?cid=0x0:0x7944b4cf78d60017,
mall,Pusat Perbelanjaan,ALDO JAYA BANGUNAN,"3QQ2+Q55, Unnamed Road, Mantun, Kec. Maluk, Kabupaten Sumbawa Barat, Nusa Tenggara Bar. 84456","Unnamed Road, Mantun, Kec. Maluk, Kabupaten Sumbawa Barat",NUSA TENGGARA BARAT,84456.0,Indonesia,,,,-8.9106081,116.7504846,https://maps.google.com/?cid=0x0:0xe2906b0fb843a204,
supermarket,supermarket,Nusa Tenggara Bar. 84456,"Kec. Jereweh, Kabupaten Sumbawa Barat, Nusa Tenggara Bar.","Kabupaten Sumbawa Barat, Nusa Tenggara Bar.",NUSA TENGGARA BARAT,,Indonesia,,,,-8.947527,116.9145901,https://maps.google.com/?cid=0x0:0xd8d94f4df4b390cb,
supermarket,Toko bahan makanan,Toko MERDEKA JAYA,"4RRC+RX2, Beru, Kec. Jereweh, Kabupaten Sumbawa Barat, Nusa Tenggara Bar. 84456","Beru, Kec. Jereweh, Kabupaten Sumbawa Barat",NUSA TENGGARA BARAT,84456.0,Indonesia,82339388855.0,,,-8.8579881,116.8223784,https://maps.google.com/?cid=0x0:0x9680a634187810de,
supermarket,Toko,UD.RAHAYU,"Jl. Pendidikan, Belo, Kec. Jereweh, Kabupaten Sumbawa Barat, Nusa Tenggara Bar. 84456","Belo, Kec. Jereweh, Kabupaten Sumbawa Barat",NUSA TENGGARA BARAT,84456.0,Indonesia,,,,-8.8578811,116.8223845,https://maps.google.com/?cid=0x0:0x292d6b15ebf4b9d4,
supermarket,Minimarket,Alfamart,"Jl. Pendidikan, Beru, Kec. Jereweh, Kabupaten Sumbawa Barat, Nusa Tenggara Bar. 84356","Beru, Kec. Jereweh, Kabupaten Sumbawa Barat",NUSA TENGGARA BARAT,84356.0,Indonesia,1500959.0,,,-8.85834,116.8225,https://maps.google.com/?cid=0x0:0x4155453e5686d85f,
supermarket,Toko bahan makanan,UD. Djastha Mandiri,"Belo, Kec. Jereweh, Kabupaten Sumbawa Barat, Nusa Tenggara Bar. 84456","Kec. Jereweh, Kabupaten Sumbawa Barat",NUSA TENGGARA BARAT,84456.0,Indonesia,,,,-8.8619522,116.8293117,https://maps.google.com/?cid=0x0:0x169166b613d181b7,
supermarket,Pusat Perbelanjaan,moro seneng retail,"Jl. Raya Maluk No.46, Pasir Putih, Kec. Maluk, Kabupaten Sumbawa Barat, Nusa Tenggara Bar. 84456","Pasir Putih, Kec. Maluk, Kabupaten Sumbawa Barat",NUSA TENGGARA BARAT,84456.0,Indonesia,82342630000.0,,,-8.9147901,116.7515588,https://maps.google.com/?cid=0x0:0xc2fe3c8783bf2622,
supermarket,Toko bahan makanan,Rofiqi Be Smart,"Jl. Pendidikan, Goa, Kec. Jereweh, Kabupaten Sumbawa Barat, Nusa Tenggara Bar. 84456","Goa, Kec. Jereweh, Kabupaten Sumbawa Barat",NUSA TENGGARA BARAT,84456.0,Indonesia,,,,-8.8489293,116.8184826,https://maps.google.com/?cid=0x0:0x1c13a9bd27561f7e,
supermarket,Toko,Her,"Pasar Jereweh Los 3, No. 36, JL Merdeka, RT 13, Beru, Jereweh, Sumbawa Barat, Beru, Sumbawa Besar, Kabupaten Sumbawa Barat, Nusa Tenggara Bar. 84456","No. 36, JL Merdeka, RT 13, Beru, Jereweh, Sumbawa Barat, Beru, Sumbawa Besar, Kabupaten Sumbawa Barat",NUSA TENGGARA BARAT,84456.0,Indonesia,85239725956.0,,,-8.8575854,116.8247499,https://maps.google.com/?cid=0x0:0xf9402a7d1b18bd59,
supermarket,Toko bahan makanan,Toko Rizal Jaya,"3QP2+9HF, Pasir Putih, Kec. Maluk, Kabupaten Sumbawa Barat, Nusa Tenggara Bar. 84456","Pasir Putih, Kec. Maluk, Kabupaten Sumbawa Barat",NUSA TENGGARA BARAT,84456.0,Indonesia,85239647769.0,,,-8.914055,116.751427,https://maps.google.com/?cid=0x0:0xb23155017a5d3768,
supermarket,Toko,Pasar Jereweh,"4RW9+4W2, Jl. Pendidikan, Goa, Kec. Jereweh, Kabupaten Sumbawa Barat, Nusa Tenggara Bar. 84456","Jl. Pendidikan, Goa, Kec. Jereweh, Kabupaten Sumbawa Barat",NUSA TENGGARA BARAT,84456.0,Indonesia,,,,-8.8545912,116.8196741,https://maps.google.com/?cid=0x0:0x1db7f3e7b2e38765,
supermarket,Ikan,LAPAK IKAN SEGAR,"Belo, Kec. Jereweh, Kabupaten Sumbawa Barat, Nusa Tenggara Bar. 84456","Kec. Jereweh, Kabupaten Sumbawa Barat",NUSA TENGGARA BARAT,84456.0,Indonesia,,,,-8.8629375,116.8289375,https://maps.google.com/?cid=0x0:0xbd16aa4a23b5320f,
supermarket,Toko,Ratnawati,"Pasar Jereweh Los 4, No. 13, JL Merdeka, RT 13, Beru, Jereweh, Sumbawa Barat, Beru, Sumbawa Besar, Kabupaten Sumbawa Barat, Nusa Tenggara Bar. 84456","No. 13, JL Merdeka, RT 13, Beru, Jereweh, Sumbawa Barat, Beru, Sumbawa Besar, Kabupaten Sumbawa Barat",NUSA TENGGARA BARAT,84456.0,Indonesia,85239725956.0,,,-8.8575854,116.8247499,https://maps.google.com/?cid=0x0:0x1c71f7f0451d13ab,
supermarket,Toko bahan makanan,Hikmah,"Pasar Jereweh Los 3, No. 37, JL Merdeka, RT 13, Beru, Jereweh, Sumbawa Barat, Beru, Sumbawa Besar, Kabupaten Sumbawa Barat, Nusa Tenggara Bar. 84456","No. 37, JL Merdeka, RT 13, Beru, Jereweh, Sumbawa Barat, Beru, Sumbawa Besar, Kabupaten Sumbawa Barat",NUSA TENGGARA BARAT,84456.0,Indonesia,85239725956.0,,,-8.8575854,116.8247499,https://maps.google.com/?cid=0x0:0x432f6d7588368aa3,
supermarket,Toko,Rahmah,"Pasar Jereweh Los : Pelataran No. 78, JL Merdeka, RT 13, Beru, Jereweh, Sumbawa Barat, Beru, Sumbawa Besar, Kabupaten Sumbawa Barat, Nusa Tenggara Bar. 84456","JL Merdeka, RT 13, Beru, Jereweh, Sumbawa Barat, Beru, Sumbawa Besar, Kabupaten Sumbawa Barat",NUSA TENGGARA BARAT,84456.0,Indonesia,85239725956.0,,,-8.8575854,116.8247501,https://maps.google.com/?cid=0x0:0xa9f38587bd81eb5d,
supermarket,Toko,Thrift Shop Jereweh,"Pasar Baru Jereweh, Beru, Kec. Jereweh, Kabupaten Sumbawa Barat, Nusa Tenggara Bar. 84456","Beru, Kec. Jereweh, Kabupaten Sumbawa Barat",NUSA TENGGARA BARAT,84456.0,Indonesia,81233940040.0,,,-8.8544238,116.8196424,https://maps.google.com/?cid=0x0:0xb15132189b198427,
supermarket,Kantor Polisi,Polsek Jereweh,"4RRF+HFR Bar, Beru, Kec. Jereweh, Kabupaten Sumbawa Barat, Nusa Tenggara Bar. 84456","Beru, Kec. Jereweh, Kabupaten Sumbawa Barat",NUSA TENGGARA BARAT,84456.0,Indonesia,82146789200.0,,,-8.8583769,116.8227074,https://maps.google.com/?cid=0x0:0xb24e0f532a47fbd2,
supermarket,Toko,Zuriati,"Pasar Jereweh Los 4, No. 3, JL Merdeka, RT 13, Beru, Jereweh, Sumbawa Barat, Beru, Sumbawa Besar, Kabupaten Sumbawa Barat, Nusa Tenggara Bar. 84456","No. 3, JL Merdeka, RT 13, Beru, Jereweh, Sumbawa Barat, Beru, Sumbawa Besar, Kabupaten Sumbawa Barat",NUSA TENGGARA BARAT,84456.0,Indonesia,85239725956.0,,,-8.8575854,116.8247499,https://maps.google.com/?cid=0x0:0x7305a51e27b6f692,
supermarket,Toko,Idemah,"Pasar Jereweh Los 3, No. 39, JL Merdeka, RT 13, Beru, Jereweh, Sumbawa Barat, Beru, Sumbawa Besar, Kabupaten Sumbawa Barat, Nusa Tenggara Bar. 84456","No. 39, JL Merdeka, RT 13, Beru, Jereweh, Sumbawa Barat, Beru, Sumbawa Besar, Kabupaten Sumbawa Barat",NUSA TENGGARA BARAT,84456.0,Indonesia,85239725956.0,,,-8.8575854,116.8247499,https://maps.google.com/?cid=0x0:0x70442b60d3bccd32,
supermarket,Toko umum,Toko Ghirfa Cell,"RT.011/RW.004, Belo, Kec. Jereweh, Kabupaten Sumbawa Barat, Nusa Tenggara Bar. 84456","Belo, Kec. Jereweh, Kabupaten Sumbawa Barat",NUSA TENGGARA BARAT,84456.0,Indonesia,81337085753.0,,,-8.8701887,116.8187033,https://maps.google.com/?cid=0x0:0xf110af89b2abb6c8,
supermarket,Toko,Penah,"Pasar Jereweh Los 3, No. 38, JL Merdeka, RT 13, Beru, Jereweh, Sumbawa Barat, Beru, Sumbawa Besar, Kabupaten Sumbawa Barat, Nusa Tenggara Bar. 84456","No. 38, JL Merdeka, RT 13, Beru, Jereweh, Sumbawa Barat, Beru, Sumbawa Besar, Kabupaten Sumbawa Barat",NUSA TENGGARA BARAT,84456.0,Indonesia,85239725956.0,,,-8.8575854,116.8247499,https://maps.google.com/?cid=0x0:0x3c487234cf34ed57,
supermarket,Toko Perlengkapan Rumah,UD.KARYA INDAH,"4RX9+Q7P, Jl. Pendidikan, Goa, Kec. Jereweh, Kabupaten Sumbawa Barat, Nusa Tenggara Bar. 84456","Jl. Pendidikan, Goa, Kec. Jereweh, Kabupaten Sumbawa Barat",NUSA TENGGARA BARAT,84456.0,Indonesia,,,,-8.850544,116.818206,https://maps.google.com/?cid=0x0:0x702170c2023f7085,
supermarket,Toko,Batu Hijau Mini Market Food and Groceries,"2Q97+FHC, Jl. Batu Hijau Townsite, Sekongkang Atas, Kec. Sekongkang, Kabupaten Sumbawa Barat, Nusa Tenggara Bar. 84457","Jl. Batu Hijau Townsite, Sekongkang Atas, Kec. Sekongkang, Kabupaten Sumbawa Barat",NUSA TENGGARA BARAT,84457.0,Indonesia,,,,-8.9813095,116.7638959,https://maps.google.com/?cid=0x0:0x53682546cc0f252c,
supermarket,Toko,UD. Tiga Bersaudara,"Dusun Batu Pisak No.007, RT.009/RW.002, Beru, Kec. Jereweh, Kabupaten Sumbawa Barat, Nusa Tenggara Bar. 84456","RT.009/RW.002, Beru, Kec. Jereweh, Kabupaten Sumbawa Barat",NUSA TENGGARA BARAT,84456.0,Indonesia,,,,-8.8583889,116.8280755,https://maps.google.com/?cid=0x0:0x87c66cea2cd8be1,
supermarket,Toko Buah dan Sayuran,Toko Sederhana Hj.Sendawan,"2PMX+QQR, Sekongkang Bawah, Kec. Sekongkang, Kabupaten Sumbawa Barat, Nusa Tenggara Bar. 84457","Sekongkang Bawah, Kec. Sekongkang, Kabupaten Sumbawa Barat",NUSA TENGGARA BARAT,84457.0,Indonesia,81906901647.0,,,-8.9655218,116.7493976,https://maps.google.com/?cid=0x0:0xea4e7a19423a9302,
supermarket,Toko Swalayan,Toko Surya Borneo  Cake,"3QP2+MHM, Jalan Raya, Pasir Putih, Maluk, West Sumbawa Regency, West Nusa Tenggara 84456","Jalan Raya, Pasir Putih, Maluk, West Sumbawa Regency",NUSA TENGGARA BARAT,84456.0,Indonesia,81239967303.0,,,-8.913295,116.7514374,https://maps.google.com/?cid=0x0:0x1c406e23881c3ebf,
supermarket,Toko Swalayan,sinar rezeki,"Mantun, Kec. Maluk, Kabupaten Sumbawa Barat, Nusa Tenggara Bar. 84456","Kec. Maluk, Kabupaten Sumbawa Barat",NUSA TENGGARA BARAT,84456.0,Indonesia,82145130699.0,,,-8.910943,116.7506128,https://maps.google.com/?cid=0x0:0xaa9dfe29ed5320e1,
supermarket,Toko Swalayan,Alfamart,"Jl. Raya Maluk No.Kel, Pasir Putih, Kec. Maluk, Kabupaten Sumbawa Barat, Nusa Tenggara Bar. 84456","Pasir Putih, Kec. Maluk, Kabupaten Sumbawa Barat",NUSA TENGGARA BARAT,84456.0,Indonesia,1500959.0,,,-8.9135432,116.7512495,https://maps.google.com/?cid=0x0:0x55c3c94bbde91b85,
supermarket,Toko,Rabirah,"Pasar Jereweh Los 4, No. 2, JL Merdeka, RT 13, Beru, Jereweh, Sumbawa Barat, Beru, Sumbawa Besar, Kabupaten Sumbawa Barat, Nusa Tenggara Bar. 84456","No. 2, JL Merdeka, RT 13, Beru, Jereweh, Sumbawa Barat, Beru, Sumbawa Besar, Kabupaten Sumbawa Barat",NUSA TENGGARA BARAT,84456.0,Indonesia,85239725956.0,,,-8.8575854,116.8247499,https://maps.google.com/?cid=0x0:0x49f2e069e3a32097,
supermarket,Toko,Salimin,"Pasar Jereweh Los 4, No. 17, JL Merdeka, RT 13, Beru, Jereweh, Sumbawa Barat, Beru, Sumbawa Besar, Kabupaten Sumbawa Barat, Nusa Tenggara Bar. 84456","No. 17, JL Merdeka, RT 13, Beru, Jereweh, Sumbawa Barat, Beru, Sumbawa Besar, Kabupaten Sumbawa Barat",NUSA TENGGARA BARAT,84456.0,Indonesia,85239725956.0,,,-8.8575854,116.8247499,https://maps.google.com/?cid=0x0:0x1d86288716e5fb26,
supermarket,supermarket,Taliwang,"Kuang, Kec. Taliwang, Kabupaten Sumbawa Barat, Nusa Tenggara Bar.","Kabupaten Sumbawa Barat, Nusa Tenggara Bar.",NUSA TENGGARA BARAT,,Indonesia,,,,-8.751946,116.854599,https://maps.google.com/?cid=0x0:0xf98bdc32d4193ccb,
supermarket,Toko bahan makanan,UD.Risma,"7R5V+68F, Jl. Raya Taliwang, Bugis, Kec. Taliwang, Kabupaten Sumbawa Barat, Nusa Tenggara Bar. 84455","Jl. Raya Taliwang, Bugis, Kec. Taliwang, Kabupaten Sumbawa Barat",NUSA TENGGARA BARAT,84455.0,Indonesia,,,,-8.7419314,116.8433102,https://maps.google.com/?cid=0x0:0x169c8e4d7527da8b,
supermarket,Minimarket,Toko Aldi,"7V82+M9Q, Jalan Raya, Dalam, Taliwang, West Sumbawa Regency, West Nusa Tenggara 84455","Jalan Raya, Dalam, Taliwang, West Sumbawa Regency",NUSA TENGGARA BARAT,84455.0,Indonesia,87863512525.0,,,-8.7332942,116.8509791,https://maps.google.com/?cid=0x0:0x913a816b45d2c7df,
supermarket,Minimarket,Alfamart,"Jl. Ahmad Yani No.Kel, Menala, Kec. Taliwang, Kabupaten Sumbawa Barat, Nusa Tenggara Bar. 84355","Menala, Kec. Taliwang, Kabupaten Sumbawa Barat",NUSA TENGGARA BARAT,84355.0,Indonesia,1500959.0,,,-8.7437928,116.8572664,https://maps.google.com/?cid=0x0:0x28cd69e2132a1f8b,
supermarket,Toko Swalayan,IMRAN CELL,"6RWX+5CR, Kuang, Kec. Taliwang, Kabupaten Sumbawa Barat, Nusa Tenggara Bar.","Kabupaten Sumbawa Barat, Nusa Tenggara Bar.",NUSA TENGGARA BARAT,,Indonesia,,,,-8.7545147,116.8485226,https://maps.google.com/?cid=0x0:0x1fb94111e0ac3823,
supermarket,Minimarket,Lasap Indomaret,"7V43+HGP, Menala, Kec. Taliwang, Kabupaten Sumbawa Barat, Nusa Tenggara Bar. 84455","Menala, Kec. Taliwang, Kabupaten Sumbawa Barat",NUSA TENGGARA BARAT,84455.0,Indonesia,,,,-8.7435291,116.8538135,https://maps.google.com/?cid=0x0:0x83b072b261a7befe,
supermarket,Toko bahan makanan,UD IDAN,"7R3M+4R6, Bugis, Kec. Taliwang, Kabupaten Sumbawa Barat, Nusa Tenggara Bar. 84455","Bugis, Kec. Taliwang, Kabupaten Sumbawa Barat",NUSA TENGGARA BARAT,84455.0,Indonesia,,,,-8.7472015,116.834525,https://maps.google.com/?cid=0x0:0x98e4d062d2fa08c2,
supermarket,Toko,Indomaret Tiangnam,"7R4X+C39, Kuang, Kec. Taliwang, Kabupaten Sumbawa Barat, Nusa Tenggara Bar. 84455","Kuang, Kec. Taliwang, Kabupaten Sumbawa Barat",NUSA TENGGARA BARAT,84455.0,Indonesia,,,,-8.7439715,116.8477358,https://maps.google.com/?cid=0x0:0xe6096977e5ab6b9,
supermarket,Minimarket,Alfamart,"Jl. Raya Taliwang No.Kel, Telaga Bertong, Kec. Taliwang, Kabupaten Sumbawa Barat, Nusa Tenggara Bar. 84455","Telaga Bertong, Kec. Taliwang, Kabupaten Sumbawa Barat",NUSA TENGGARA BARAT,84455.0,Indonesia,1500959.0,,,-8.7489039,116.8337608,https://maps.google.com/?cid=0x0:0xd904d685115acc20,
supermarket,Minimarket,Alfamart Taliwang Dalam,"7R4J+GHW, Jalan Lang Sasat, Bugis, Taliwang, West Sumbawa Regency, West Nusa Tenggara 84455","Jalan Lang Sasat, Bugis, Taliwang, West Sumbawa Regency",NUSA TENGGARA BARAT,84455.0,Indonesia,,,,-8.7436439,116.8314501,https://maps.google.com/?cid=0x0:0xd7e364ff5fd356,
supermarket,Minimarket,Alfamart,"Jl. Jend. Sudirman, Dalam, Kec. Taliwang, Kabupaten Sumbawa Barat, Nusa Tenggara Bar. 84355","Dalam, Kec. Taliwang, Kabupaten Sumbawa Barat",NUSA TENGGARA BARAT,84355.0,Indonesia,1500959.0,,,-8.7421932,116.8517956,https://maps.google.com/?cid=0x0:0xa67000dd69b9dd1d,
supermarket,Minimarket,Alfamart Lasap Menala,"Jl. Lasap, Menala, Kec. Taliwang, Kabupaten Sumbawa Barat, Nusa Tenggara Bar. 84355","Menala, Kec. Taliwang, Kabupaten Sumbawa Barat",NUSA TENGGARA BARAT,84355.0,Indonesia,1500959.0,,,-8.7436444,116.8545236,https://maps.google.com/?cid=0x0:0xeb8eabc14d215520,
supermarket,Toko Pakaian,Toko Bu Aisyah,"6R89+3P6, Jalan Raya, Telaga Bertong, Taliwang, West Sumbawa Regency, West Nusa Tenggara 84455","Jalan Raya, Telaga Bertong, Taliwang, West Sumbawa Regency",NUSA TENGGARA BARAT,84455.0,Indonesia,,,,-8.7848434,116.8192792,https://maps.google.com/?cid=0x0:0x2c8403911e49fcac,
supermarket,Minimarket,Alfamart,"Jl. Raya Bertong No.Kel, Telaga Bertong, Kec. Taliwang, Kabupaten Sumbawa Barat, Nusa Tenggara Bar. 84455","Telaga Bertong, Kec. Taliwang, Kabupaten Sumbawa Barat",NUSA TENGGARA BARAT,84455.0,Indonesia,1500959.0,,,-8.778514,116.8224296,https://maps.google.com/?cid=0x0:0x166a323a57290e3a,
supermarket,Minimarket,Alfamart,"Jl. Raya Ktc Kal, Bugis, Kec. Taliwang, Kabupaten Sumbawa Barat, Nusa Tenggara Bar. 84355","Bugis, Kec. Taliwang, Kabupaten Sumbawa Barat",NUSA TENGGARA BARAT,84355.0,Indonesia,1500959.0,,,-8.7589697,116.8518761,https://maps.google.com/?cid=0x0:0xde9b05ee5f090c3,
supermarket,Minimarket,Alfamart,"Kud, Jl. Raya Taliwang, Dalam, Kec. Taliwang, Kabupaten Sumbawa Barat, Nusa Tenggara Bar. 84355","Jl. Raya Taliwang, Dalam, Kec. Taliwang, Kabupaten Sumbawa Barat",NUSA TENGGARA BARAT,84355.0,Indonesia,1500959.0,,,-8.73821,116.8505385,https://maps.google.com/?cid=0x0:0x8aec2b9356935f04,
supermarket,supermarket,Alfamart taliwang,"6VX3+6RH, Kuang, Kec. Taliwang, Kabupaten Sumbawa Barat, Nusa Tenggara Bar.","Kabupaten Sumbawa Barat, Nusa Tenggara Bar.",NUSA TENGGARA BARAT,,Indonesia,,,,-8.751946,116.854599,https://maps.google.com/?cid=0x0:0xa52c362a4b374980,
supermarket,Toko Makanan,Shiva buah,"7R4X+9XX, Kuang, Kec. Taliwang, Kabupaten Sumbawa Barat, Nusa Tenggara Bar. 84455","Kuang, Kec. Taliwang, Kabupaten Sumbawa Barat",NUSA TENGGARA BARAT,84455.0,Indonesia,,,,-8.7440047,116.8499886,https://maps.google.com/?cid=0x0:0x14ac3e27acc10725,
supermarket,Toko bahan makanan,Jualan sayuran dan buah-buahan pak li,"6VX3+6RH Ar ken, Kuang, Kec. Taliwang, Kabupaten Sumbawa Barat, Nusa Tenggara Bar. 84355","Kuang, Kec. Taliwang, Kabupaten Sumbawa Barat",NUSA TENGGARA BARAT,84355.0,Indonesia,85338746665.0,,,-8.751946,116.854599,https://maps.google.com/?cid=0x0:0x15dc173fc23ebded,
supermarket,Minimarket,Alfamart,"Jl. Cendrawasih Kel.Kuang, Dalam, Kec. Taliwang, Kabupaten Sumbawa Barat, Nusa Tenggara Bar. 84355","Dalam, Kec. Taliwang, Kabupaten Sumbawa Barat",NUSA TENGGARA BARAT,84355.0,Indonesia,1500959.0,,,-8.7437251,116.8472531,https://maps.google.com/?cid=0x0:0x283d47b3e161d1d4,
supermarket,Toko,UD. TIGA PUTRA,"Bugis, Kec. Taliwang, Kabupaten Sumbawa Barat, Nusa Tenggara Bar. 84455","Kec. Taliwang, Kabupaten Sumbawa Barat",NUSA TENGGARA BARAT,84455.0,Indonesia,,,,-8.7409971,116.8444706,https://maps.google.com/?cid=0x0:0x3619237aac8e35f2,
supermarket,Minimarket,Glf,"6RRJ+VHG, Telaga Bertong, Kec. Taliwang, Kabupaten Sumbawa Barat, Nusa Tenggara Bar. 84455","Telaga Bertong, Kec. Taliwang, Kabupaten Sumbawa Barat",NUSA TENGGARA BARAT,84455.0,Indonesia,,,,-8.7578248,116.8314544,https://maps.google.com/?cid=0x0:0x8b8b3065d580edcf,
supermarket,Toko,Toko Mariam,"7V44+C6G, Jl. Lasap, Menala, Kec. Taliwang, Kabupaten Sumbawa Barat, Nusa Tenggara Bar. 84455","Jl. Lasap, Menala, Kec. Taliwang, Kabupaten Sumbawa Barat",NUSA TENGGARA BARAT,84455.0,Indonesia,,,,-8.7439394,116.8555917,https://maps.google.com/?cid=0x0:0xff38a5c372b124dc,
supermarket,Toko Bahan Bangunan,ALDO JAYA TALIWANG,"6RQH+5P7, Jalan Raya, Bugis, Taliwang, West Sumbawa Regency, West Nusa Tenggara 84455","Jalan Raya, Bugis, Taliwang, West Sumbawa Regency",NUSA TENGGARA BARAT,84455.0,Indonesia,8113901619.0,,,-8.7620795,116.8293057,https://maps.google.com/?cid=0x0:0xd1339fb1f9af8de9,
supermarket,Hidangan Laut,Kedai Sawah KTC Resto  Family Karaoke,"Unnamed Road, Menala, Kec. Taliwang, Kabupaten Sumbawa Barat, Nusa Tenggara Bar. 84455","Menala, Kec. Taliwang, Kabupaten Sumbawa Barat",NUSA TENGGARA BARAT,84455.0,Indonesia,81236855557.0,,,-8.7587321,116.851987,https://maps.google.com/?cid=0x0:0xa17ba353601404ec,
supermarket,Toko Elektronik,Ardi Cell,"6VX3+6RH, Kuang, Kec. Taliwang, Kabupaten Sumbawa Barat, Nusa Tenggara Bar. 84455","Kuang, Kec. Taliwang, Kabupaten Sumbawa Barat",NUSA TENGGARA BARAT,84455.0,Indonesia,819989999330.0,,,-8.751946,116.854599,https://maps.google.com/?cid=0x0:0x91a7fa78bdc2ed55,
supermarket,Minimarket,Alfamart,"Jl. Sutan Syahrir, Bugis, Kec. Taliwang, Kabupaten Sumbawa Barat, Nusa Tenggara Bar. 84355","Bugis, Kec. Taliwang, Kabupaten Sumbawa Barat",NUSA TENGGARA BARAT,84355.0,Indonesia,1500959.0,,,-8.7434377,116.8391494,https://maps.google.com/?cid=0x0:0xa4028e42ca46fcc7,
supermarket,supermarket,Kec. Seteluk,"Kabupaten Sumbawa Barat, Nusa Tenggara Bar.","Kabupaten Sumbawa Barat, Nusa Tenggara Bar.",NUSA TENGGARA BARAT,,Indonesia,,,,-8.6251785,116.8652498,https://maps.google.com/?cid=0x0:0x81f1c5d92dcd6f07,
supermarket,Minimarket,Alfamart Seteluk,"9VF7+GXV, Jl. Raya Seteluk, Seteluk Tengah, Kec. Seteluk, Kabupaten Sumbawa Barat, Nusa Tenggara Bar. 84354","Jl. Raya Seteluk, Seteluk Tengah, Kec. Seteluk, Kabupaten Sumbawa Barat",NUSA TENGGARA BARAT,84354.0,Indonesia,1500959.0,,,-8.6259412,116.8650526,https://maps.google.com/?cid=0x0:0x5653f9b0bd40a731,
supermarket,Toko sembako pemerintah,UD BUIN TELU,"Jl. Raya Seteluk, Tapir, Kec. Seteluk, Kabupaten Sumbawa Barat, Nusa Tenggara Bar. 84454","Tapir, Kec. Seteluk, Kabupaten Sumbawa Barat",NUSA TENGGARA BARAT,84454.0,Indonesia,85337539456.0,,,-8.6327246,116.8589835,https://maps.google.com/?cid=0x0:0xc9f0f4552f6b8037,
supermarket,Toko,Kios Nurintan,"9VC9+PXF, Unnamed Road, Seteluk Atas, Kec. Seteluk, Kabupaten Sumbawa Barat, Nusa Tenggara Bar. 84454","Unnamed Road, Seteluk Atas, Kec. Seteluk, Kabupaten Sumbawa Barat",NUSA TENGGARA BARAT,84454.0,Indonesia,,,,-8.628195,116.8699274,https://maps.google.com/?cid=0x0:0x54737dfddbcb039e,
supermarket,Toko,Pasar Seteluk,"9VC7+9MM, Seteluk Tengah, Kec. Seteluk, Kabupaten Sumbawa Barat, Nusa Tenggara Bar. 84454","Seteluk Tengah, Kec. Seteluk, Kabupaten Sumbawa Barat",NUSA TENGGARA BARAT,84454.0,Indonesia,,,,-8.629038,116.8641764,https://maps.google.com/?cid=0x0:0x5a05909906b4a3b8,
supermarket,Toko bahan makanan,RAYA SETELUK KM 1,"9VF8+W4M, Seteluk Tengah, Kec. Seteluk, Kabupaten Sumbawa Barat, Nusa Tenggara Bar. 84454","Seteluk Tengah, Kec. Seteluk, Kabupaten Sumbawa Barat",NUSA TENGGARA BARAT,84454.0,Indonesia,,,,-8.6251534,116.8652906,https://maps.google.com/?cid=0x0:0xda715ae1bbc8f85b,
supermarket,Toko Pertanian,UD IHSAN TANI,"9VC6+3CW, Seteluk Tengah, Kec. Seteluk, Kabupaten Sumbawa Barat, Nusa Tenggara Bar. 84454","Seteluk Tengah, Kec. Seteluk, Kabupaten Sumbawa Barat",NUSA TENGGARA BARAT,84454.0,Indonesia,,,,-8.6297552,116.8610929,https://maps.google.com/?cid=0x0:0x31f8a22def6191f8,
supermarket,Toko bahan makanan,UD. Diva Rizki Raya,"9VG8+523, Jalan Raya, Seteluk Tengah, Seteluk, West Sumbawa Regency, West Nusa Tenggara 84454","Jalan Raya, Seteluk Tengah, Seteluk, West Sumbawa Regency",NUSA TENGGARA BARAT,84454.0,Indonesia,,,,-8.6246,116.8650442,https://maps.google.com/?cid=0x0:0xbdb67917ff7159a2,
supermarket,Toko,Siswari,"Pasar Seteluk Los 4 No. 5, JL Pasar Baru Seteluk Tengah, RT 08 RW 09, Seteluk Tengah, Seteluk, Sumbawa Barat, Seteluk Tengah, Sumbawa Besar, Kabupaten Sumbawa Barat, Nusa Tenggara Bar. 84454","JL Pasar Baru Seteluk Tengah, RT 08 RW 09, Seteluk Tengah, Seteluk, Sumbawa Barat, Seteluk Tengah, Sumbawa Besar, Kabupaten Sumbawa Barat",NUSA TENGGARA BARAT,84454.0,Indonesia,87863933189.0,,,-8.628778,116.864083,https://maps.google.com/?cid=0x0:0xd293c5a9778e7ef2,
supermarket,Toko Pertanian,UD MITRA TANI SETELUK,"Seteluk Tengah, Kec. Seteluk, Kabupaten Sumbawa Barat, Nusa Tenggara Bar. 84454","Kec. Seteluk, Kabupaten Sumbawa Barat",NUSA TENGGARA BARAT,84454.0,Indonesia,,,,-8.630563,116.8604872,https://maps.google.com/?cid=0x0:0xb23588d6d5452980,
supermarket,Toko,Sadaria,"Pasar Seteluk Los 4 No. 6, JL Pasar Baru Seteluk Tengah, RT 08 RW 09, Seteluk Tengah, Seteluk, Sumbawa Barat, Seteluk Tengah, Sumbawa Besar, Kabupaten Sumbawa Barat, Nusa Tenggara Bar. 84454","JL Pasar Baru Seteluk Tengah, RT 08 RW 09, Seteluk Tengah, Seteluk, Sumbawa Barat, Seteluk Tengah, Sumbawa Besar, Kabupaten Sumbawa Barat",NUSA TENGGARA BARAT,84454.0,Indonesia,87863933189.0,,,-8.628778,116.864083,https://maps.google.com/?cid=0x0:0x4c65a5a9a6326bd3,
supermarket,Minimarket,Indomaret RAYA SETELUK KM 3,"8VX3+WQC, Air Suning, Kec. Seteluk, Kabupaten Sumbawa Barat, Nusa Tenggara Bar.","Kabupaten Sumbawa Barat, Nusa Tenggara Bar.",NUSA TENGGARA BARAT,,Indonesia,,,,-8.6501894,116.8543972,https://maps.google.com/?cid=0x0:0x2f4c036af1f91a80,
supermarket,Toko Organik,Heti,"Pasar Seteluk Los 4 No. 15, JL Pasar Baru Seteluk Tengah, RT 08 RW 09, Seteluk Tengah, Seteluk, Sumbawa Barat, Seteluk Tengah, Sumbawa Besar, Kabupaten Sumbawa Barat, Nusa Tenggara Bar. 84454","JL Pasar Baru Seteluk Tengah, RT 08 RW 09, Seteluk Tengah, Seteluk, Sumbawa Barat, Seteluk Tengah, Sumbawa Besar, Kabupaten Sumbawa Barat",NUSA TENGGARA BARAT,84454.0,Indonesia,87863933189.0,,,-8.628778,116.864083,https://maps.google.com/?cid=0x0:0x3cc7c52df662b715,
supermarket,Toko,Elmi,"Pasar Seteluk Los 4 No. 4, JL Pasar Baru Seteluk Tengah, RT 08 RW 09, Seteluk Tengah, Seteluk, Sumbawa Barat, Seteluk Tengah, Sumbawa Besar, Kabupaten Sumbawa Barat, Nusa Tenggara Bar. 84454","JL Pasar Baru Seteluk Tengah, RT 08 RW 09, Seteluk Tengah, Seteluk, Sumbawa Barat, Seteluk Tengah, Sumbawa Besar, Kabupaten Sumbawa Barat",NUSA TENGGARA BARAT,84454.0,Indonesia,87863933189.0,,,-8.628778,116.864083,https://maps.google.com/?cid=0x0:0xa4126ff973cf96dc,
supermarket,Toko bahan makanan,Ratmanila,"Pasar Seteluk Los 4 No. 14, JL Pasar Baru Seteluk Tengah, RT 08 RW 09, Seteluk Tengah, Seteluk, Sumbawa Barat, Seteluk Tengah, Sumbawa Besar, Kabupaten Sumbawa Barat, Nusa Tenggara Bar. 84454","JL Pasar Baru Seteluk Tengah, RT 08 RW 09, Seteluk Tengah, Seteluk, Sumbawa Barat, Seteluk Tengah, Sumbawa Besar, Kabupaten Sumbawa Barat",NUSA TENGGARA BARAT,84454.0,Indonesia,87863933189.0,,,-8.628778,116.864083,https://maps.google.com/?cid=0x0:0x3bbea725b2f53360,
supermarket,Toko,Rianah,"Pasar Seteluk Los 4 No. 26, JL Pasar Baru Seteluk Tengah, RT 08 RW 09, Seteluk Tengah, Seteluk, Sumbawa Barat, Seteluk Tengah, Sumbawa Besar, Kabupaten Sumbawa Barat, Nusa Tenggara Bar. 84454","JL Pasar Baru Seteluk Tengah, RT 08 RW 09, Seteluk Tengah, Seteluk, Sumbawa Barat, Seteluk Tengah, Sumbawa Besar, Kabupaten Sumbawa Barat",NUSA TENGGARA BARAT,84454.0,Indonesia,87863933189.0,,,-8.628778,116.864083,https://maps.google.com/?cid=0x0:0x1d5180fea7f7ec30,
supermarket,Minimarket,Indomaret,"9VF8+V5C, Seteluk Tengah, Kec. Seteluk, Kabupaten Sumbawa Barat, Nusa Tenggara Bar. 84454","Seteluk Tengah, Kec. Seteluk, Kabupaten Sumbawa Barat",NUSA TENGGARA BARAT,84454.0,Indonesia,,,,-8.625321,116.8653845,https://maps.google.com/?cid=0x0:0xca0663ba2133661,
supermarket,Toko,Asminati,"Pasar Seteluk Los 4 No. 7, JL Pasar Baru Seteluk Tengah, RT 08 RW 09, Seteluk Tengah, Seteluk, Sumbawa Barat, Seteluk Tengah, Sumbawa Besar, Kabupaten Sumbawa Barat, Nusa Tenggara Bar. 84454","JL Pasar Baru Seteluk Tengah, RT 08 RW 09, Seteluk Tengah, Seteluk, Sumbawa Barat, Seteluk Tengah, Sumbawa Besar, Kabupaten Sumbawa Barat",NUSA TENGGARA BARAT,84454.0,Indonesia,87863933189.0,,,-8.628778,116.864083,https://maps.google.com/?cid=0x0:0x60051678eca95d56,
supermarket,Grosir,Nurhasanah,"Pasar Seteluk Los 4 No. 1, JL Pasar Baru Seteluk Tengah, RT 08 RW 09, Seteluk Tengah, Seteluk, Sumbawa Barat, Seteluk Tengah, Sumbawa Besar, Kabupaten Sumbawa Barat, Nusa Tenggara Bar. 84454","JL Pasar Baru Seteluk Tengah, RT 08 RW 09, Seteluk Tengah, Seteluk, Sumbawa Barat, Seteluk Tengah, Sumbawa Besar, Kabupaten Sumbawa Barat",NUSA TENGGARA BARAT,84454.0,Indonesia,87863933189.0,,,-8.628778,116.864083,https://maps.google.com/?cid=0x0:0x183c665a83bd305f,
supermarket,Toko Organik,Maria Ulfa,"Pasar Seteluk Los 4 No. 24, JL Pasar Baru Seteluk Tengah, RT 08 RW 09, Seteluk Tengah, Seteluk, Sumbawa Barat, Seteluk Tengah, Sumbawa Besar, Kabupaten Sumbawa Barat, Nusa Tenggara Bar. 84454","JL Pasar Baru Seteluk Tengah, RT 08 RW 09, Seteluk Tengah, Seteluk, Sumbawa Barat, Seteluk Tengah, Sumbawa Besar, Kabupaten Sumbawa Barat",NUSA TENGGARA BARAT,84454.0,Indonesia,87863933189.0,,,-8.628778,116.864083,https://maps.google.com/?cid=0x0:0xc1421b84c8ab115e,
supermarket,Toko,Ina Yuan,"Pasar Seteluk Los1 No. 18, JL Pasar Baru Seteluk Tengah, RT 08 RW 09, Seteluk Tengah, Seteluk, Sumbawa Barat, Seteluk Tengah, Sumbawa Besar, Kabupaten Sumbawa Barat, Nusa Tenggara Bar. 84454","JL Pasar Baru Seteluk Tengah, RT 08 RW 09, Seteluk Tengah, Seteluk, Sumbawa Barat, Seteluk Tengah, Sumbawa Besar, Kabupaten Sumbawa Barat",NUSA TENGGARA BARAT,84454.0,Indonesia,87863933189.0,,,-8.628789,116.864094,https://maps.google.com/?cid=0x0:0x7764461161242ad1,
supermarket,Toko,SELVI CELL,"9VF8+HHX, Seteluk Tengah, Kec. Seteluk, Kabupaten Sumbawa Barat, Nusa Tenggara Bar. 84454","Seteluk Tengah, Kec. Seteluk, Kabupaten Sumbawa Barat",NUSA TENGGARA BARAT,84454.0,Indonesia,87863966432.0,,,-8.6260188,116.8664787,https://maps.google.com/?cid=0x0:0x1cde16ee34ee4a8,
supermarket,Toko,SATERA MINIMARKET,"Jl. Bda Rea, Seteluk Tengah, Kec. Seteluk, Kabupaten Sumbawa Barat, Nusa Tenggara Bar. 84454","Seteluk Tengah, Kec. Seteluk, Kabupaten Sumbawa Barat",NUSA TENGGARA BARAT,84454.0,Indonesia,81917605341.0,,,-8.6311473,116.8599756,https://maps.google.com/?cid=0x0:0xf304f78502fffd4b,
supermarket,Toko bahan makanan,Riza FRUITS SETELUK,"9VC9+F72, Seteluk Atas, Kec. Seteluk, Kabupaten Sumbawa Barat, Nusa Tenggara Bar. 84454","Seteluk Atas, Kec. Seteluk, Kabupaten Sumbawa Barat",NUSA TENGGARA BARAT,84454.0,Indonesia,,,,-8.6288617,116.8681519,https://maps.google.com/?cid=0x0:0xe5b215d907b8f926,
supermarket,Toko Organik,Mita,"Pasar Seteluk Los 3 No. 19, JL Pasar Baru Seteluk Tengah, RT 08 RW 09, Seteluk Tengah, Seteluk, Sumbawa Barat, Seteluk Tengah, Sumbawa Besar, Kabupaten Sumbawa Barat, Nusa Tenggara Bar. 84454","JL Pasar Baru Seteluk Tengah, RT 08 RW 09, Seteluk Tengah, Seteluk, Sumbawa Barat, Seteluk Tengah, Sumbawa Besar, Kabupaten Sumbawa Barat",NUSA TENGGARA BARAT,84454.0,Indonesia,87863933189.0,,,-8.628778,116.864083,https://maps.google.com/?cid=0x0:0x4fa501d8a668a561,
supermarket,Toko,Selmiati,"Pasar Seteluk Los 6, No. 1, JL Pasar Baru Seteluk, RT 08 RW 09, Seteluk Tengah, Seteluk, Sumbawa Barat, Seteluk Tengah, Sumbawa Besar, Kabupaten Sumbawa Barat, Nusa Tenggara Bar. 84454","No. 1, JL Pasar Baru Seteluk, RT 08 RW 09, Seteluk Tengah, Seteluk, Sumbawa Barat, Seteluk Tengah, Sumbawa Besar, Kabupaten Sumbawa Barat",NUSA TENGGARA BARAT,84454.0,Indonesia,87863933189.0,,,-8.628789,116.864094,https://maps.google.com/?cid=0x0:0x3db5ea3133ac131c,
supermarket,Toko,H. Sahdan,"Pasar Seteluk Los : Kios No. 22, JL Pasar Baru Seteluk Tengah, RT 08 RW 09, Seteluk Tengah, Seteluk, Sumbawa Barat, Seteluk Tengah, Sumbawa Besar, Kabupaten Sumbawa Barat, Nusa Tenggara Bar. 84454","JL Pasar Baru Seteluk Tengah, RT 08 RW 09, Seteluk Tengah, Seteluk, Sumbawa Barat, Seteluk Tengah, Sumbawa Besar, Kabupaten Sumbawa Barat",NUSA TENGGARA BARAT,84454.0,Indonesia,87863933189.0,,,-8.628789,116.864094,https://maps.google.com/?cid=0x0:0x6cf7d75331a6a6e9,
supermarket,Toko,Sudaimah,"Pasar Seteluk, Los Pelataran No. 137, JL Pasar Baru Seteluk, RT 08 RW 09, Seteluk Tengah, Seteluk, Sumbawa Barat, Seteluk Tengah, Sumbawa Besar, Kabupaten Sumbawa Barat, Nusa Tenggara Bar. 84454","Los Pelataran No. 137, JL Pasar Baru Seteluk, RT 08 RW 09, Seteluk Tengah, Seteluk, Sumbawa Barat, Seteluk Tengah, Sumbawa Besar, Kabupaten Sumbawa Barat",NUSA TENGGARA BARAT,84454.0,Indonesia,87863933189.0,,,-8.628789,116.864094,https://maps.google.com/?cid=0x0:0x9b95d4864cce0920,
supermarket,Toko Organik,Atun,"Pasar Seteluk Los 6, No. 19, JL Pasar Baru Seteluk, RT 08 RW 09, Seteluk Tengah, Seteluk, Sumbawa Barat, Seteluk Tengah, Sumbawa Besar, Kabupaten Sumbawa Barat, Nusa Tenggara Bar. 84454","No. 19, JL Pasar Baru Seteluk, RT 08 RW 09, Seteluk Tengah, Seteluk, Sumbawa Barat, Seteluk Tengah, Sumbawa Besar, Kabupaten Sumbawa Barat",NUSA TENGGARA BARAT,84454.0,Indonesia,87863933189.0,,,-8.628789,116.864094,https://maps.google.com/?cid=0x0:0xd7608a779ab0e024,
supermarket,supermarket,Nusa Tenggara Bar. 84457,"Kec. Sekongkang, Kabupaten Sumbawa Barat, Nusa Tenggara Bar.","Kabupaten Sumbawa Barat, Nusa Tenggara Bar.",NUSA TENGGARA BARAT,,Indonesia,,,,-9.0278591,116.9145901,https://maps.google.com/?cid=0x0:0xa55d05be516dbaf,
supermarket,Toko Swalayan,Ayu Mart,"2P9Q+HJ, Sekongkang Bawah, Kec. Sekongkang, Kabupaten Sumbawa Barat, Nusa Tenggara Bar.","Kabupaten Sumbawa Barat, Nusa Tenggara Bar.",NUSA TENGGARA BARAT,,Indonesia,87817201481.0,,,-8.98096,116.7390691,https://maps.google.com/?cid=0x0:0xaf4584eb81c3d2ca,
supermarket,Layanan Transportasi,Warung Trans Sekongkang,"2QQ6+G9, Jl. Raya Sekongkang No.27, Kemuning, Kec. Sekongkang, Kabupaten Sumbawa Barat, Nusa Tenggara Bar. 84457","Jl. Raya Sekongkang No.27, Kemuning, Kec. Sekongkang, Kabupaten Sumbawa Barat",NUSA TENGGARA BARAT,84457.0,Indonesia,87820783522.0,,,-8.9634701,116.7593764,https://maps.google.com/?cid=0x0:0x865a5237c5e80056,
supermarket,Minimarket,SEKONGKANG ALFAMART,"Jl. Raya Sekongkang, Kemuning, Kec. Sekongkang, Kabupaten Sumbawa Barat, Nusa Tenggara Bar. 84457","Kemuning, Kec. Sekongkang, Kabupaten Sumbawa Barat",NUSA TENGGARA BARAT,84457.0,Indonesia,1500959.0,,,-8.9657693,116.7588507,https://maps.google.com/?cid=0x0:0xf8874c0fee6c332a,
supermarket,Toko Buah dan Sayuran,Toko Sederhana Hj.Sendawan,"2PMX+QQR, Sekongkang Bawah, Kec. Sekongkang, Kabupaten Sumbawa Barat, Nusa Tenggara Bar. 84457","Sekongkang Bawah, Kec. Sekongkang, Kabupaten Sumbawa Barat",NUSA TENGGARA BARAT,84457.0,Indonesia,81906901647.0,,,-8.9655218,116.7493976,https://maps.google.com/?cid=0x0:0xea4e7a19423a9302,
supermarket,Toko sembako pemerintah,Al- Furqon MART,"Jl. Raya Sejorong, Ai Kangkung, Kec. Sekongkang, Kabupaten Sumbawa Barat, Nusa Tenggara Bar. 84457","Ai Kangkung, Kec. Sekongkang, Kabupaten Sumbawa Barat",NUSA TENGGARA BARAT,84457.0,Indonesia,,,,-9.0288089,116.8153366,https://maps.google.com/?cid=0x0:0xec0e0367b0672db0,
supermarket,Toko bahan makanan,Mini Market Koperasi Katala,"2Q67+RC7, Sekongkang Atas, Kec. Sekongkang, Kabupaten Sumbawa Barat, Nusa Tenggara Bar. 84457","Sekongkang Atas, Kec. Sekongkang, Kabupaten Sumbawa Barat",NUSA TENGGARA BARAT,84457.0,Indonesia,,,,-8.9879629,116.7635481,https://maps.google.com/?cid=0x0:0x7d513f3848819e4b,
supermarket,Pusat Perbelanjaan,ud dipta barokah,"Sekongkang Atas, Kec. Sekongkang, Kabupaten Sumbawa Barat, Nusa Tenggara Bar. 84457","Kec. Sekongkang, Kabupaten Sumbawa Barat",NUSA TENGGARA BARAT,84457.0,Indonesia,82359318224.0,,,-8.9674383,116.7615333,https://maps.google.com/?cid=0x0:0xbd7286bbef687239,
supermarket,Toko Swalayan,UD SP RINJANI,"Jl. Raya Senutuk, Ai Kangkung, Kec. Sekongkang, Kabupaten Sumbawa Barat, Nusa Tenggara Bar. 84457","Ai Kangkung, Kec. Sekongkang, Kabupaten Sumbawa Barat",NUSA TENGGARA BARAT,84457.0,Indonesia,81338150805.0,,,-9.0366495,116.8305922,https://maps.google.com/?cid=0x0:0x39bf66b194a7803a,
supermarket,supermarket,PATIH GANA TOKKO,"WXHJ+PX, Talonang Baru, Kec. Sekongkang, Kabupaten Sumbawa Barat, Nusa Tenggara Bar.","Kabupaten Sumbawa Barat, Nusa Tenggara Bar.",NUSA TENGGARA BARAT,,Indonesia,82340090317.0,,,-9.0701267,116.9818777,https://maps.google.com/?cid=0x0:0xd2af472e25afc75,
supermarket,Toko bahan makanan,Pasar Rakyat Sekongkang,"2QQ5+2PV, Kemuning, Kec. Sekongkang, Kabupaten Sumbawa Barat, Nusa Tenggara Bar. 84457","Kemuning, Kec. Sekongkang, Kabupaten Sumbawa Barat",NUSA TENGGARA BARAT,84457.0,Indonesia,,,,-8.962396,116.759289,https://maps.google.com/?cid=0x0:0x697b88b26aa55098,
supermarket,Toko Swalayan,Warung Inaq Wir,"WXGR+W3W, Talonang Baru, Kec. Sekongkang, Kabupaten Sumbawa Barat, Nusa Tenggara Bar. 84457","Talonang Baru, Kec. Sekongkang, Kabupaten Sumbawa Barat",NUSA TENGGARA BARAT,84457.0,Indonesia,87755386200.0,,,-9.0726316,116.9902068,https://maps.google.com/?cid=0x0:0x8e76033bc04ba701,
supermarket,Toko Swalayan,ERVINA,"2PGV+G7J, Jl. Sekongkang Bawah, Sekongkang Atas, Kec. Sekongkang, Kabupaten Sumbawa Barat, Nusa Tenggara Bar. 84457","Jl. Sekongkang Bawah, Sekongkang Atas, Kec. Sekongkang, Kabupaten Sumbawa Barat",NUSA TENGGARA BARAT,84457.0,Indonesia,85333216266.0,,,-8.9736588,116.7431464,https://maps.google.com/?cid=0x0:0x146b467d180a1d14,
supermarket,Toko Swalayan,Warung Pak Nurdin dan ibu Nurhayati,"W287+2Q8, Talonang Baru, Kec. Sekongkang, Kabupaten Sumbawa Barat, Nusa Tenggara Bar. 84457","Talonang Baru, Kec. Sekongkang, Kabupaten Sumbawa Barat",NUSA TENGGARA BARAT,84457.0,Indonesia,,,,-9.0849659,117.0144535,https://maps.google.com/?cid=0x0:0xeaeb7a259e41004a,
supermarket,Toko bahan makanan,UD. ZAFIQ M (Toko Pak Farid),"XRC8+C4P, Ai Kangkung, Kec. Sekongkang, Kabupaten Sumbawa Barat, Nusa Tenggara Bar. 84457","Ai Kangkung, Kec. Sekongkang, Kabupaten Sumbawa Barat",NUSA TENGGARA BARAT,84457.0,Indonesia,,,,-9.0287353,116.8162462,https://maps.google.com/?cid=0x0:0xe29c2a74200ece35,
supermarket,Minimarket,Indomaret,"Jl. Raya Sekongkang No.13, Kemuning, Kec. Sekongkang, Kabupaten Sumbawa Barat, Nusa Tenggara Bar. 84457","Kemuning, Kec. Sekongkang, Kabupaten Sumbawa Barat",NUSA TENGGARA BARAT,84457.0,Indonesia,,,,-8.9657422,116.7598573,https://maps.google.com/?cid=0x0:0x3ba7cc20786a7873,
supermarket,Toko sembako pemerintah,Agen Bank,"XRF6+7VR, Jl. Raya Sejorong, Ai Kangkung, Kec. Sekongkang, Kabupaten Sumbawa Barat, Nusa Tenggara Bar. 84457","Jl. Raya Sejorong, Ai Kangkung, Kec. Sekongkang, Kabupaten Sumbawa Barat",NUSA TENGGARA BARAT,84457.0,Indonesia,82188235583.0,,,-9.0267579,116.8121527,https://maps.google.com/?cid=0x0:0x618f4bc0122b99ca,
supermarket,Toko Swalayan,UD. PANJI MAKMUR,"Jl. Raya Sejorong, Tongo, Kec. Sekongkang, Kabupaten Sumbawa Barat, Nusa Tenggara Bar. 84457","Tongo, Kec. Sekongkang, Kabupaten Sumbawa Barat",NUSA TENGGARA BARAT,84457.0,Indonesia,81337278866.0,,,-9.0263653,116.8116673,https://maps.google.com/?cid=0x0:0xc700dcd710e26ae1,
supermarket,Toko bahan makanan,INDOMARET TBGF BATU HIJAU SBR,"2Q97+9FW, Jl. Batu Hijau Townsite, Sekongkang Atas, Kec. Sekongkang, Kabupaten Sumbawa Barat, Nusa Tenggara Bar. 84457","Jl. Batu Hijau Townsite, Sekongkang Atas, Kec. Sekongkang, Kabupaten Sumbawa Barat",NUSA TENGGARA BARAT,84457.0,Indonesia,,,,-8.9815105,116.7637075,https://maps.google.com/?cid=0x0:0xba0be6519f601f7,
supermarket,Pusat Perbelanjaan,moro seneng retail,"Jl. Raya Maluk No.46, Pasir Putih, Kec. Maluk, Kabupaten Sumbawa Barat, Nusa Tenggara Bar. 84456","Pasir Putih, Kec. Maluk, Kabupaten Sumbawa Barat",NUSA TENGGARA BARAT,84456.0,Indonesia,82342630000.0,,,-8.9147901,116.7515588,https://maps.google.com/?cid=0x0:0xc2fe3c8783bf2622,
supermarket,Kantor Perusahaan,Commissary MMA,"2VP4+XW7, Jl. NNT Batu Hijau, Sekongkang Atas, Kec. Sekongkang, Kabupaten Sumbawa Barat, Nusa Tenggara Bar. 84456","Jl. NNT Batu Hijau, Sekongkang Atas, Kec. Sekongkang, Kabupaten Sumbawa Barat",NUSA TENGGARA BARAT,84456.0,Indonesia,,,,-8.9625956,116.8573109,https://maps.google.com/?cid=0x0:0x5b2e117134a9a6a6,
supermarket,Toko bahan makanan,Kios Aziza,"XR7J+566, Jl. Raya Senutuk, Ai Kangkung, Kec. Sekongkang, Kabupaten Sumbawa Barat, Nusa Tenggara Bar. 84457","Jl. Raya Senutuk, Ai Kangkung, Kec. Sekongkang, Kabupaten Sumbawa Barat",NUSA TENGGARA BARAT,84457.0,Indonesia,81338150805.0,,,-9.0370959,116.8305264,https://maps.google.com/?cid=0x0:0x29473bb82db39023,
supermarket,Toko,"GrandLucky Sumbawa, Town site Batu Hijau","2Q87+2XF, Sekongkang Atas, Kec. Sekongkang, Kabupaten Sumbawa Barat, Nusa Tenggara Bar.","Kabupaten Sumbawa Barat, Nusa Tenggara Bar.",NUSA TENGGARA BARAT,,Indonesia,,,,-8.9849498,116.7649192,https://maps.google.com/?cid=0x0:0x5fae2871fc82c1ab,
supermarket,Kebun Raya,Anugrah Farm,"Sekongkang Bawah, Kec. Sekongkang, Kabupaten Sumbawa Barat, Nusa Tenggara Bar.","Kabupaten Sumbawa Barat, Nusa Tenggara Bar.",NUSA TENGGARA BARAT,,Indonesia,81236283699.0,,,-8.9896792,116.7539346,https://maps.google.com/?cid=0x0:0x215454aae9fdbb6d,
supermarket,Toko Swalayan,Kios rafa,"2PHW+J79, Sekongkang Bawah, Kec. Sekongkang, Kabupaten Sumbawa Barat, Nusa Tenggara Bar. 84457","Sekongkang Bawah, Kec. Sekongkang, Kabupaten Sumbawa Barat",NUSA TENGGARA BARAT,84457.0,Indonesia,,,,-8.9719019,116.7447007,https://maps.google.com/?cid=0x0:0x18865f52acb15893,
supermarket,supermarket,Nusa Tenggara Bar. 84458,"Kec. Brang Rea, Kabupaten Sumbawa Barat, Nusa Tenggara Bar.","Kabupaten Sumbawa Barat, Nusa Tenggara Bar.",NUSA TENGGARA BARAT,,Indonesia,,,,-8.6999135,117.0087877,https://maps.google.com/?cid=0x0:0xd32541cc680b77d1,
supermarket,Minimarket,Alfamart,"7WH8+V52, Tepas, Kec. Brang Rea, Kabupaten Sumbawa Barat, Nusa Tenggara Bar. 84458","Tepas, Kec. Brang Rea, Kabupaten Sumbawa Barat",NUSA TENGGARA BARAT,84458.0,Indonesia,,,,-8.7203595,116.9153878,https://maps.google.com/?cid=0x0:0x49bb589ff0dd9767,
supermarket,Minimarket,UD. Sumber Kautsar,"Jl. Baso Busing, Dusun Dangar Permai, Desa Beru, Kec. Brang Rea, Kabupaten Sumbawa Barat, Nusa Tenggara Bar. 84458","Dusun Dangar Permai, Desa Beru, Kec. Brang Rea, Kabupaten Sumbawa Barat",NUSA TENGGARA BARAT,84458.0,Indonesia,81339858399.0,,,-8.7255224,116.913832,https://maps.google.com/?cid=0x0:0xea1bab3920aa112e,
supermarket,Pusat Perbelanjaan,PASAR BRANG REA,"7WF8+M7J, Jl. Baso Busing, Desa Beru, Kec. Brang Rea, Kabupaten Sumbawa Barat, Nusa Tenggara Bar. 84458","Jl. Baso Busing, Desa Beru, Kec. Brang Rea, Kabupaten Sumbawa Barat",NUSA TENGGARA BARAT,84458.0,Indonesia,,,,-8.7257971,116.9156359,https://maps.google.com/?cid=0x0:0x78f8acc62de686a0,
supermarket,Toko umum,UD. Ghea,"7W67+C8C, Seminar Salit, Kec. Brang Rea, Kabupaten Sumbawa Barat, Nusa Tenggara Bar. 84455","Seminar Salit, Kec. Brang Rea, Kabupaten Sumbawa Barat",NUSA TENGGARA BARAT,84455.0,Indonesia,,,,-8.738931,116.9132692,https://maps.google.com/?cid=0x0:0xd250f9f984a6c8d0,
supermarket,Pemasok Produk Makanan,UD. Razka Tirta ( Minnie Market ),"7WF7+RG5, Jl. Baso Busing, Dusun Dangar Permai, Desa Beru, Kec. Brang Rea, Kabupaten Sumbawa Barat, Nusa Tenggara Bar. 84458","Jl. Baso Busing, Dusun Dangar Permai, Desa Beru, Kec. Brang Rea, Kabupaten Sumbawa Barat",NUSA TENGGARA BARAT,84458.0,Indonesia,85333138383.0,,,-8.7256817,116.9137805,https://maps.google.com/?cid=0x0:0x6dffd4031eab7a5b,
supermarket,Toko,UD.NOLA,"7W82+Q38, Sapugara Bree, Kec. Brang Rea, Kabupaten Sumbawa Barat, Nusa Tenggara Bar. 84455","Sapugara Bree, Kec. Brang Rea, Kabupaten Sumbawa Barat",NUSA TENGGARA BARAT,84455.0,Indonesia,,,,-8.7330977,116.9002158,https://maps.google.com/?cid=0x0:0x60dca1e1551b786c,
supermarket,Toko,Ud. Pelangi Sapugara,"7W82+QPF, Sapugara Bree, Kec. Brang Rea, Kabupaten Sumbawa Barat, Nusa Tenggara Bar. 84455","Sapugara Bree, Kec. Brang Rea, Kabupaten Sumbawa Barat",NUSA TENGGARA BARAT,84455.0,Indonesia,,,,-8.7330605,116.9018012,https://maps.google.com/?cid=0x0:0xc4f5994a7840a583,
supermarket,Toko bahan makanan,UD INDIK,"CWRW+7W6, Mapin Rea, Kec. Alas Bar., Kabupaten Sumbawa, Nusa Tenggara Bar. 84353","Mapin Rea, Kec. Alas Bar., Kabupaten Sumbawa",NUSA TENGGARA BARAT,84353.0,Indonesia,,,,-8.559349,116.947268,https://maps.google.com/?cid=0x0:0x474892bbd4c713b8,
supermarket,Grosir Kopi,Kopi Langit Ai Kolang,"8XXP+QM, Rarak Rongis, Kec. Brang Rea, Kabupaten Sumbawa Barat, Nusa Tenggara Bar. 84458","Rarak Rongis, Kec. Brang Rea, Kabupaten Sumbawa Barat",NUSA TENGGARA BARAT,84458.0,Indonesia,,,,-8.6505977,116.9867166,https://maps.google.com/?cid=0x0:0x88a712ae91eca101,
supermarket,Grosir Kopi,Kopi Kawa Rama,"Rarak Rongis, Kec. Brang Rea, Kabupaten Sumbawa Barat, Nusa Tenggara Bar. 84458","Kec. Brang Rea, Kabupaten Sumbawa Barat",NUSA TENGGARA BARAT,84458.0,Indonesia,82144644741.0,,,-8.6553858,116.9955912,https://maps.google.com/?cid=0x0:0xb89f7572c4070c37,
supermarket,,Fanin cell,"7XW5+Q42, Bangkat Monteh, Kec. Brang Rea, Kabupaten Sumbawa Barat, Nusa Tenggara Bar. 84458","Bangkat Monteh, Kec. Brang Rea, Kabupaten Sumbawa Barat",NUSA TENGGARA BARAT,84458.0,Indonesia,,,,-8.7025489,116.9578225,https://maps.google.com/?cid=0x0:0x3af345ddb9153833,
supermarket,Kantor Perusahaan,Fresh Water,"7W67+5FM, Unnamed Road, Seminar Salit, Kec. Brang Rea, Kabupaten Sumbawa Barat, Nusa Tenggara Bar. 84458","Unnamed Road, Seminar Salit, Kec. Brang Rea, Kabupaten Sumbawa Barat",NUSA TENGGARA BARAT,84458.0,Indonesia,81283564818.0,,,-8.7395345,116.9136614,https://maps.google.com/?cid=0x0:0xaf6cbb7e87742474,
supermarket,Toko,Kios Majid,"7WC5+5HR, Desa Beru, Kec. Brang Rea, Kabupaten Sumbawa Barat, Nusa Tenggara Bar.","Kabupaten Sumbawa Barat, Nusa Tenggara Bar.",NUSA TENGGARA BARAT,,Indonesia,,,,-8.7295143,116.9088787,https://maps.google.com/?cid=0x0:0xebb4a5b51246faf7,
supermarket,Grosir,Toko Riski Dita,"7WM9+Q5G, Tepas, Kec. Brang Rea, Kabupaten Sumbawa Barat, Nusa Tenggara Bar.","Kabupaten Sumbawa Barat, Nusa Tenggara Bar.",NUSA TENGGARA BARAT,,Indonesia,,,,-8.7155521,116.9179685,https://maps.google.com/?cid=0x0:0x9888beb364f4bd9d,
supermarket,Toko bahan makanan,UD UWAIS,"8XF2+2H7, Lamuntet, Kec. Brang Rea, Kabupaten Sumbawa Barat, Nusa Tenggara Bar. 84458","Lamuntet, Kec. Brang Rea, Kabupaten Sumbawa Barat",NUSA TENGGARA BARAT,84458.0,Indonesia,,,,-8.677753,116.9508614,https://maps.google.com/?cid=0x0:0x40385023dde92ee5,
supermarket,Minimarket,UD RAMA,"CWRW+HMQ, Mapin Rea, Kec. Alas Bar., Kabupaten Sumbawa, Nusa Tenggara Bar. 84353","Mapin Rea, Kec. Alas Bar., Kabupaten Sumbawa",NUSA TENGGARA BARAT,84353.0,Indonesia,,,,-8.5585264,116.9467448,https://maps.google.com/?cid=0x0:0xda9ecd70e4e35368,
supermarket,supermarket,UD AYUNAILA,"7V8W+Q82 Dsn Bree, RT.011/RW004, Sapugara Bree, Kec. Brang Rea, Kabupaten Sumbawa Barat, Nusa Tenggara Bar. 84455","RT.011/RW004, Sapugara Bree, Kec. Brang Rea, Kabupaten Sumbawa Barat",NUSA TENGGARA BARAT,84455.0,Indonesia,82340120337.0,,,-8.7331136,116.8957568,https://maps.google.com/?cid=0x0:0x74361de968d7ce32,
supermarket,Toko,KIOS KANAYA,"8W2H+RQ, Moteng, Kec. Brang Rea, Kabupaten Sumbawa Barat, Nusa Tenggara Bar. 84458","Moteng, Kec. Brang Rea, Kabupaten Sumbawa Barat",NUSA TENGGARA BARAT,84458.0,Indonesia,,,,-8.6979468,116.9293677,https://maps.google.com/?cid=0x0:0xa06a49127ae78666,
supermarket,Toko Ponsel,KONTER HP SECOND (RFM STORE),"7WC5+CFJ, Jl. Baso Busing, Desa Beru, Kec. Brang Rea, Kabupaten Sumbawa Barat, Nusa Tenggara Bar. 84455","Jl. Baso Busing, Desa Beru, Kec. Brang Rea, Kabupaten Sumbawa Barat",NUSA TENGGARA BARAT,84455.0,Indonesia,85339328392.0,,,-8.7289112,116.9086373,https://maps.google.com/?cid=0x0:0x4605146f161c5d80,
supermarket,Toko,UD Perbatasan,"7W84+8QJ, Seminar Salit, Kec. Brang Rea, Kabupaten Sumbawa Barat, Nusa Tenggara Bar.","Kabupaten Sumbawa Barat, Nusa Tenggara Bar.",NUSA TENGGARA BARAT,,Indonesia,,,,-8.7341692,116.906884,https://maps.google.com/?cid=0x0:0xc137587eadb806ca,
supermarket,Kantor Pemerintah Distrik,Kantor Kecamatan Brang Rea,"Jl. Baso Busing No.- Desa, Tepas, Kec. Brang Rea, Kabupaten Sumbawa Barat, Nusa Tenggara Bar. 84458","Tepas, Kec. Brang Rea, Kabupaten Sumbawa Barat",NUSA TENGGARA BARAT,84458.0,Indonesia,82339196488.0,,,-8.7201352,116.9159326,https://maps.google.com/?cid=0x0:0xe5c54d25b24ef076,
supermarket,Toko Makanan,Adlyn Cake n Cookies Brang Rea,"RT 09 Dusun Aman Desa Tepas Kecamatan Brang Rea, Taliwang, Nusa Tenggara Bar. 84358",Taliwang,NUSA TENGGARA BARAT,84358.0,Indonesia,87876313892.0,,,-8.713432,116.917916,https://maps.google.com/?cid=0x0:0xfd5e507d91f8fb6f,
supermarket,,Arkan Cell,"7WC5+XWM, Desa Beru, Kec. Brang Rea, Kabupaten Sumbawa Barat, Nusa Tenggara Bar. 84455","Desa Beru, Kec. Brang Rea, Kabupaten Sumbawa Barat",NUSA TENGGARA BARAT,84455.0,Indonesia,85239793944.0,,,-8.7275498,116.9097945,https://maps.google.com/?cid=0x0:0xc1582ca250c2af71,
supermarket,supermarket,Nusa Tenggara Bar. 84454,"Kec. Seteluk, Kabupaten Sumbawa Barat, Nusa Tenggara Bar.","Kabupaten Sumbawa Barat, Nusa Tenggara Bar.",NUSA TENGGARA BARAT,,Indonesia,,,,-8.5906982,116.8674757,https://maps.google.com/?cid=0x0:0xabcb20c0c162b41d,
supermarket,Toko bahan makanan,Alfamart Raya Pelabuhan Pototano,"Jl. Raya Pototano Kel.Pototano, Kec, Poto Tano, Kab, Kabupaten Sumbawa Barat, Nusa Tenggara Bar. 84454","Kec, Poto Tano, Kab, Kabupaten Sumbawa Barat",NUSA TENGGARA BARAT,84454.0,Indonesia,211500959.0,,,-8.5241233,116.8306782,https://maps.google.com/?cid=0x0:0x1ec8bed16015da1e,
supermarket,Minimarket,Indomaret Raya Poto Tano,"FRGJ+554, Jl. Raya Labuhan Poto Tano, Poto Tano, Kec. Poto Tano, Kabupaten Sumbawa Barat, Nusa Tenggara Bar. 84454","Jl. Raya Labuhan Poto Tano, Poto Tano, Kec. Poto Tano, Kabupaten Sumbawa Barat",NUSA TENGGARA BARAT,84454.0,Indonesia,,,,-8.524614,116.830445,https://maps.google.com/?cid=0x0:0xa524a6339a680a42,
supermarket,Toko,UD. Niaga,"FRFJ+W7H, Jl. Raya Labuhan Poto Tano, Poto Tano, Kec. Poto Tano, Kabupaten Sumbawa Barat, Nusa Tenggara Bar. 84454","Jl. Raya Labuhan Poto Tano, Poto Tano, Kec. Poto Tano, Kabupaten Sumbawa Barat",NUSA TENGGARA BARAT,84454.0,Indonesia,,,,-8.525176,116.830735,https://maps.google.com/?cid=0x0:0x321b3a80f0e28533,
supermarket,Toko umum,UD. BASMALAH,"Senayan, Kec. Poto Tano, Kabupaten Sumbawa Barat, Nusa Tenggara Bar. 84454","Kec. Poto Tano, Kabupaten Sumbawa Barat",NUSA TENGGARA BARAT,84454.0,Indonesia,85339100231.0,,,-8.6071692,116.8478746,https://maps.google.com/?cid=0x0:0xb87e59b10931551e,
supermarket,Toko umum,UD. Duta Karya Indah,"CRFV+8WV, Jl. Raya Senayan Poto Tano, Upt Tambak Sari, Kec. Poto Tano, Kabupaten Sumbawa Barat, Nusa Tenggara Bar. 84454","Jl. Raya Senayan Poto Tano, Upt Tambak Sari, Kec. Poto Tano, Kabupaten Sumbawa Barat",NUSA TENGGARA BARAT,84454.0,Indonesia,,,,-8.5766275,116.8447936,https://maps.google.com/?cid=0x0:0x3c68f296fe555b21,
supermarket,Toko Swalayan,Toko Dika Cell,"FV53+MHM, Kokar Lian, Kec. Poto Tano, Kabupaten Sumbawa Barat, Nusa Tenggara Bar. 84454","Kokar Lian, Kec. Poto Tano, Kabupaten Sumbawa Barat",NUSA TENGGARA BARAT,84454.0,Indonesia,82116322104.0,,,-8.5407858,116.8539303,https://maps.google.com/?cid=0x0:0xf0843621323b0ab4,
supermarket,Toko Swalayan,UD VIRA CELL,"Daya Makmur, RT.06/RW.03, Kokar Lian, Kec. Poto Tano, Kabupaten Sumbawa Barat, Nusa Tenggara Bar. 84454","RT.06/RW.03, Kokar Lian, Kec. Poto Tano, Kabupaten Sumbawa Barat",NUSA TENGGARA BARAT,84454.0,Indonesia,81906987272.0,,,-8.5537521,116.8591911,https://maps.google.com/?cid=0x0:0xa8224ebf70b57418,
supermarket,Toko Swalayan,UD VIRA CELL,"CVJ3+F7R, Jl. Raya Senayan Poto Tano, Kokar Lian, Kec. Poto Tano, Kabupaten Sumbawa Barat, Nusa Tenggara Bar. 84454","Jl. Raya Senayan Poto Tano, Kokar Lian, Kec. Poto Tano, Kabupaten Sumbawa Barat",NUSA TENGGARA BARAT,84454.0,Indonesia,81906987272.0,,,-8.5687695,116.853136,https://maps.google.com/?cid=0x0:0x4dd81bac8d4af7d7,
supermarket,Toko bahan makanan,Warung sembako mbk ana,"FV54+M5X, Jl. Raya Senayan Poto Tano, Kokar Lian, Kec. Poto Tano, Kabupaten Sumbawa Barat, Nusa Tenggara Bar. 84454","Jl. Raya Senayan Poto Tano, Kokar Lian, Kec. Poto Tano, Kabupaten Sumbawa Barat",NUSA TENGGARA BARAT,84454.0,Indonesia,,,,-8.5407711,116.8554774,https://maps.google.com/?cid=0x0:0x54140706d394d21,
supermarket,Toko sembako pemerintah,UD BUIN TELU,"Jl. Raya Seteluk, Tapir, Kec. Seteluk, Kabupaten Sumbawa Barat, Nusa Tenggara Bar. 84454","Tapir, Kec. Seteluk, Kabupaten Sumbawa Barat",NUSA TENGGARA BARAT,84454.0,Indonesia,85337539456.0,,,-8.6327246,116.8589835,https://maps.google.com/?cid=0x0:0xc9f0f4552f6b8037,
supermarket,Toko,Kios Nurintan,"9VC9+PXF, Unnamed Road, Seteluk Atas, Kec. Seteluk, Kabupaten Sumbawa Barat, Nusa Tenggara Bar. 84454","Unnamed Road, Seteluk Atas, Kec. Seteluk, Kabupaten Sumbawa Barat",NUSA TENGGARA BARAT,84454.0,Indonesia,,,,-8.628195,116.8699274,https://maps.google.com/?cid=0x0:0x54737dfddbcb039e,
supermarket,Toko Perlengkapan Rumah,UD. FERDY,"CVWF+8XW, Kokar Lian, Kec. Poto Tano, Kabupaten Sumbawa Barat, Nusa Tenggara Bar. 84454","Kokar Lian, Kec. Poto Tano, Kabupaten Sumbawa Barat",NUSA TENGGARA BARAT,84454.0,Indonesia,81246635044.0,,,-8.5541271,116.8749669,https://maps.google.com/?cid=0x0:0xd22a560414ce9916,
supermarket,Toko,Kedai Fitri,"9RMG+G9P, Unnamed Road, Mantar, Poto Tano, West Sumbawa Regency, West Nusa Tenggara 84454","Unnamed Road, Mantar, Poto Tano, West Sumbawa Regency",NUSA TENGGARA BARAT,84454.0,Indonesia,,,,-8.6161533,116.8259392,https://maps.google.com/?cid=0x0:0x8bd71786e8f69acb,
supermarket,Toko Perlengkapan Rumah,UD.TIGA LESTARI,"9V34+F72, Air Suning, Kec. Seteluk, Kabupaten Sumbawa Barat, Nusa Tenggara Bar. 84454","Air Suning, Kec. Seteluk, Kabupaten Sumbawa Barat",NUSA TENGGARA BARAT,84454.0,Indonesia,85239879574.0,,,-8.6463525,116.8556483,https://maps.google.com/?cid=0x0:0xe6c9de93e8273f5b,
supermarket,Toko bahan makanan,toko pak saman,"Mantar, Kec. Poto Tano, Kabupaten Sumbawa Barat, Nusa Tenggara Bar. 84454","Kec. Poto Tano, Kabupaten Sumbawa Barat",NUSA TENGGARA BARAT,84454.0,Indonesia,81953826237.0,,,-8.6151795,116.825196,https://maps.google.com/?cid=0x0:0xcc1d425dc7e26520,
supermarket,Toko Elektronik,Hotspot balenet,"Senayan, Kec. Poto Tano, Kabupaten Sumbawa Barat, Nusa Tenggara Bar. 84454","Kec. Poto Tano, Kabupaten Sumbawa Barat",NUSA TENGGARA BARAT,84454.0,Indonesia,,,,-8.6126213,116.8520243,https://maps.google.com/?cid=0x0:0xffd1dad35f77fe78,
supermarket,Toko Bahan Bangunan,UD Fauzi,"9VJ5+67, Tebo, Kec. Poto Tano, Kabupaten Sumbawa Barat, Nusa Tenggara Bar. 84454","Tebo, Kec. Poto Tano, Kabupaten Sumbawa Barat",NUSA TENGGARA BARAT,84454.0,Indonesia,,,,-8.6192122,116.8579074,https://maps.google.com/?cid=0x0:0xe77fe499a69db45f,
supermarket,Minimarket,Alfamart Seteluk,"9VF7+GXV, Jl. Raya Seteluk, Seteluk Tengah, Kec. Seteluk, Kabupaten Sumbawa Barat, Nusa Tenggara Bar. 84354","Jl. Raya Seteluk, Seteluk Tengah, Kec. Seteluk, Kabupaten Sumbawa Barat",NUSA TENGGARA BARAT,84354.0,Indonesia,1500959.0,,,-8.6259412,116.8650526,https://maps.google.com/?cid=0x0:0x5653f9b0bd40a731,
supermarket,Toko Pertanian,UD. IKHLAS,"CVVF+R3G, Jl. Raya Senayan Poto Tano, Kokar Lian, Kec. Poto Tano, Kabupaten Sumbawa Barat, Nusa Tenggara Bar. 84454","Jl. Raya Senayan Poto Tano, Kokar Lian, Kec. Poto Tano, Kabupaten Sumbawa Barat",NUSA TENGGARA BARAT,84454.0,Indonesia,,,,-8.5554292,116.8727054,https://maps.google.com/?cid=0x0:0x40bbe7bab511836,
supermarket,Pusat Perbelanjaan,Ajeng shop,"Poto Tano, Kec. Poto Tano, Kabupaten Sumbawa Barat, Nusa Tenggara Bar. 84454","Kec. Poto Tano, Kabupaten Sumbawa Barat",NUSA TENGGARA BARAT,84454.0,Indonesia,87759989038.0,,,-8.5269767,116.8316772,https://maps.google.com/?cid=0x0:0x3c0fb4f15bf75f11,
supermarket,Minimarket,Alfamart Simpang Tiga Mapin,"FV5V+PG5, Labuan Mapin, Kec. Alas Bar., Kabupaten Sumbawa, Nusa Tenggara Bar. 84353","Labuan Mapin, Kec. Alas Bar., Kabupaten Sumbawa",NUSA TENGGARA BARAT,84353.0,Indonesia,,,,-8.5407336,116.8938523,https://maps.google.com/?cid=0x0:0xb406ff4bfb430ec5,
supermarket,Toko,Ud.Fika Alinakokarlian,"CVWG+545, Jl. Raya Senayan Poto Tano, Kokar Lian, Kec. Poto Tano, Kabupaten Sumbawa Barat, Nusa Tenggara Bar. 84454","Jl. Raya Senayan Poto Tano, Kokar Lian, Kec. Poto Tano, Kabupaten Sumbawa Barat",NUSA TENGGARA BARAT,84454.0,Indonesia,82341966286.0,,,-8.5546171,116.8753473,https://maps.google.com/?cid=0x0:0xf457ca8968ec318c,
supermarket,Layanan Percetakan Undangan,UD. Artha Store (Pusatnya Cetak Undangan),"Dusun Daya Makmur RT05 RW03, Desa, Kokar Lian, Kec. Poto Tano, Kabupaten Sumbawa Barat, Nusa Tenggara Bar. 84454","Desa, Kokar Lian, Kec. Poto Tano, Kabupaten Sumbawa Barat",NUSA TENGGARA BARAT,84454.0,Indonesia,85333688433.0,,,-8.5430085,116.856675,https://maps.google.com/?cid=0x0:0x5e4f11cd83c939db,
supermarket,supermarket,Nusa Tenggara Bar. 84455,"Kabupaten Sumbawa Barat, Nusa Tenggara Bar.","Kabupaten Sumbawa Barat, Nusa Tenggara Bar.",NUSA TENGGARA BARAT,,Indonesia,,,,-8.7907453,116.8674757,https://maps.google.com/?cid=0x0:0x5fda0016832273b3,
supermarket,Toko bahan makanan,Pabriansyah Mandiri,"Unnamed Road, Lalar Liang, Kec. Taliwang, Kabupaten Sumbawa Barat, Nusa Tenggara Bar. 84455","Lalar Liang, Kec. Taliwang, Kabupaten Sumbawa Barat",NUSA TENGGARA BARAT,84455.0,Indonesia,85337040335.0,,,-8.8249016,116.8309946,https://maps.google.com/?cid=0x0:0x5d5757c685b754f6,
supermarket,Minimarket,Alfamart,"Jl. Baso Busing, Desa Beru, Kec. Brang Rea, Kabupaten Sumbawa Barat, Nusa Tenggara Bar. 84455","Desa Beru, Kec. Brang Rea, Kabupaten Sumbawa Barat",NUSA TENGGARA BARAT,84455.0,Indonesia,1500959.0,,,-8.729913,116.9071859,https://maps.google.com/?cid=0x0:0x2d99ab640d69cf4a,
supermarket,Toko bahan makanan,UD.Risma,"7R5V+68F, Jl. Raya Taliwang, Bugis, Kec. Taliwang, Kabupaten Sumbawa Barat, Nusa Tenggara Bar. 84455","Jl. Raya Taliwang, Bugis, Kec. Taliwang, Kabupaten Sumbawa Barat",NUSA TENGGARA BARAT,84455.0,Indonesia,,,,-8.7419314,116.8433102,https://maps.google.com/?cid=0x0:0x169c8e4d7527da8b,
supermarket,Toko,KIOS BAROKAH,"RT.005/RW.002 Dusun Buin Selamu, Manemeng, Kec. Brang Ene, Kabupaten Sumbawa Barat, Nusa Tenggara Bar. 84455","Manemeng, Kec. Brang Ene, Kabupaten Sumbawa Barat",NUSA TENGGARA BARAT,84455.0,Indonesia,,,,-8.7694825,116.8680587,https://maps.google.com/?cid=0x0:0xe00e6c00793c3341,
supermarket,Toko Swalayan,UD.Nurul,"7R4R+XVG, Unnamed Road, Bugis, Kec. Taliwang, Kabupaten Sumbawa Barat, Nusa Tenggara Bar. 84455","Unnamed Road, Bugis, Kec. Taliwang, Kabupaten Sumbawa Barat",NUSA TENGGARA BARAT,84455.0,Indonesia,85239837661.0,,,-8.742568,116.8421946,https://maps.google.com/?cid=0x0:0x4643b48c6b0195fb,
supermarket,Toko,UD HIRA,"7V52+2GV, Kuang, Kec. Taliwang, Kabupaten Sumbawa Barat, Nusa Tenggara Bar. 84455","Kuang, Kec. Taliwang, Kabupaten Sumbawa Barat",NUSA TENGGARA BARAT,84455.0,Indonesia,,,,-8.7423937,116.8512816,https://maps.google.com/?cid=0x0:0x1555a49d8aa727ea,
supermarket,Toko bahan makanan,UD IDAN,"7R3M+4R6, Bugis, Kec. Taliwang, Kabupaten Sumbawa Barat, Nusa Tenggara Bar. 84455","Bugis, Kec. Taliwang, Kabupaten Sumbawa Barat",NUSA TENGGARA BARAT,84455.0,Indonesia,,,,-8.7472015,116.834525,https://maps.google.com/?cid=0x0:0x98e4d062d2fa08c2,
supermarket,Toko,UD. TIGA PUTRA,"Bugis, Kec. Taliwang, Kabupaten Sumbawa Barat, Nusa Tenggara Bar. 84455","Kec. Taliwang, Kabupaten Sumbawa Barat",NUSA TENGGARA BARAT,84455.0,Indonesia,,,,-8.7409971,116.8444706,https://maps.google.com/?cid=0x0:0x3619237aac8e35f2,
supermarket,Toko Kelontong Asia,UD Baruk Budizal,"6VV6+F5W, Menala, Kec. Taliwang, Kabupaten Sumbawa Barat, Nusa Tenggara Bar. 84455","Menala, Kec. Taliwang, Kabupaten Sumbawa Barat",NUSA TENGGARA BARAT,84455.0,Indonesia,,,,-8.7562674,116.860451,https://maps.google.com/?cid=0x0:0xf1d3b6652ae7462a,
supermarket,Toko,Kios Wales,"6V9P+42G, Kalimantong, Kec. Brang Ene, Kabupaten Sumbawa Barat, Nusa Tenggara Bar. 84455","Kalimantong, Kec. Brang Ene, Kabupaten Sumbawa Barat",NUSA TENGGARA BARAT,84455.0,Indonesia,,,,-8.7824223,116.8849507,https://maps.google.com/?cid=0x0:0xd36c3fb701da0981,
supermarket,Toko makanan beku,Ud. Putra gemini ( toko oni),"Jl. K.H. Agus Salim No.36, Sampir, Kec. Taliwang, Kabupaten Sumbawa Barat, Nusa Tenggara Bar. 84455","Sampir, Kec. Taliwang, Kabupaten Sumbawa Barat",NUSA TENGGARA BARAT,84455.0,Indonesia,85338897319.0,,,-8.7408471,116.8558013,https://maps.google.com/?cid=0x0:0x4ca99be73f1f687,
supermarket,Toko bahan makanan,KIOS DUA DADARA,"6R8C+X7P, Telaga Bertong, Kec. Taliwang, Kabupaten Sumbawa Barat, Nusa Tenggara Bar. 84455","Telaga Bertong, Kec. Taliwang, Kabupaten Sumbawa Barat",NUSA TENGGARA BARAT,84455.0,Indonesia,82340524504.0,,,-8.7825374,116.8206911,https://maps.google.com/?cid=0x0:0xfcd9a5aa01823100,
supermarket,Minimarket,Glf,"6RRJ+VHG, Telaga Bertong, Kec. Taliwang, Kabupaten Sumbawa Barat, Nusa Tenggara Bar. 84455","Telaga Bertong, Kec. Taliwang, Kabupaten Sumbawa Barat",NUSA TENGGARA BARAT,84455.0,Indonesia,,,,-8.7578248,116.8314544,https://maps.google.com/?cid=0x0:0x8b8b3065d580edcf,
supermarket,Toko Swalayan,IMRAN CELL,"6RWX+5CR, Kuang, Kec. Taliwang, Kabupaten Sumbawa Barat, Nusa Tenggara Bar.","Kabupaten Sumbawa Barat, Nusa Tenggara Bar.",NUSA TENGGARA BARAT,,Indonesia,,,,-8.7545147,116.8485226,https://maps.google.com/?cid=0x0:0x1fb94111e0ac3823,
supermarket,Toko Pakaian,Toko Bu Aisyah,"6R89+3P6, Jalan Raya, Telaga Bertong, Taliwang, West Sumbawa Regency, West Nusa Tenggara 84455","Jalan Raya, Telaga Bertong, Taliwang, West Sumbawa Regency",NUSA TENGGARA BARAT,84455.0,Indonesia,,,,-8.7848434,116.8192792,https://maps.google.com/?cid=0x0:0x2c8403911e49fcac,
supermarket,Toko Bahan Bangunan,TB. Artha Mas,"6VHG+986, Jl. Pd. Pesantren, Mura, Kec. Brang Ene, Kabupaten Sumbawa Barat, Nusa Tenggara Bar. 84455","Jl. Pd. Pesantren, Mura, Kec. Brang Ene, Kabupaten Sumbawa Barat",NUSA TENGGARA BARAT,84455.0,Indonesia,82342241204.0,,,-8.7715995,116.875767,https://maps.google.com/?cid=0x0:0x79c489e5c471f303,
supermarket,Toko,Indomaret Tiangnam,"7R4X+C39, Kuang, Kec. Taliwang, Kabupaten Sumbawa Barat, Nusa Tenggara Bar. 84455","Kuang, Kec. Taliwang, Kabupaten Sumbawa Barat",NUSA TENGGARA BARAT,84455.0,Indonesia,,,,-8.7439715,116.8477358,https://maps.google.com/?cid=0x0:0xe6096977e5ab6b9,
supermarket,Grosir,Pemtol Nanda,"6V9P+42G, Kalimantong, Kec. Brang Ene, Kabupaten Sumbawa Barat, Nusa Tenggara Bar. 84455","Kalimantong, Kec. Brang Ene, Kabupaten Sumbawa Barat",NUSA TENGGARA BARAT,84455.0,Indonesia,,,,-8.781973,116.8850403,https://maps.google.com/?cid=0x0:0xaa34fef1a9098b95,
supermarket,Toko bahan makanan,Toko UD. AEN,"Jl. Jend. Sudirman No.1, Dalam, Kec. Taliwang, Kabupaten Sumbawa Barat, Nusa Tenggara Bar. 84355","Dalam, Kec. Taliwang, Kabupaten Sumbawa Barat",NUSA TENGGARA BARAT,84355.0,Indonesia,,,,-8.7420925,116.8496683,https://maps.google.com/?cid=0x0:0xfd4270d5fa445e93,
supermarket,Toko Swalayan,UD RENSA Taliwang,"Lingkungan Temempang, Bugis, Kec. Taliwang, Kabupaten Sumbawa Barat, Nusa Tenggara Bar. 84455","Bugis, Kec. Taliwang, Kabupaten Sumbawa Barat",NUSA TENGGARA BARAT,84455.0,Indonesia,8175745773.0,,,-8.7400885,116.841793,https://maps.google.com/?cid=0x0:0x25df40e1d651032a,
supermarket,Minimarket,Toko Aldi,"7V82+M9Q, Jalan Raya, Dalam, Taliwang, West Sumbawa Regency, West Nusa Tenggara 84455","Jalan Raya, Dalam, Taliwang, West Sumbawa Regency",NUSA TENGGARA BARAT,84455.0,Indonesia,87863512525.0,,,-8.7332942,116.8509791,https://maps.google.com/?cid=0x0:0x913a816b45d2c7df,
supermarket,Minimarket,Alfamart,"Jl. Raya Bertong No.Kel, Telaga Bertong, Kec. Taliwang, Kabupaten Sumbawa Barat, Nusa Tenggara Bar. 84455","Telaga Bertong, Kec. Taliwang, Kabupaten Sumbawa Barat",NUSA TENGGARA BARAT,84455.0,Indonesia,1500959.0,,,-8.778514,116.8224296,https://maps.google.com/?cid=0x0:0x166a323a57290e3a,
supermarket,Toko Swalayan,Virilla Cell,"7V62+QCV, Dalam, Kec. Taliwang, Kabupaten Sumbawa Barat, Nusa Tenggara Bar. 84455","Dalam, Kec. Taliwang, Kabupaten Sumbawa Barat",NUSA TENGGARA BARAT,84455.0,Indonesia,87866951369.0,,,-8.7380066,116.8510539,https://maps.google.com/?cid=0x0:0xdd3a806f72fd4c3b,
supermarket,Toko Pakaian,MILLION STORE,"6VJ9+M5Q, Jl. Pd. Pesantren, Manemeng, Kec. Brang Ene, Kabupaten Sumbawa Barat, Nusa Tenggara Bar. 84455","Jl. Pd. Pesantren, Manemeng, Kec. Brang Ene, Kabupaten Sumbawa Barat",NUSA TENGGARA BARAT,84455.0,Indonesia,82339709178.0,,,-8.7682927,116.8679706,https://maps.google.com/?cid=0x0:0xe8734024f74f5873,
supermarket,Toko,Toko Balingka Helm dan Acc,"Jl. Jend. Sudirman, Bugis, Kec. Taliwang, Kabupaten Sumbawa Barat, Nusa Tenggara Bar. 84455","Bugis, Kec. Taliwang, Kabupaten Sumbawa Barat",NUSA TENGGARA BARAT,84455.0,Indonesia,85363293081.0,,,-8.7419262,116.8465415,https://maps.google.com/?cid=0x0:0xfa2a036a6e12aa5,
supermarket,Pusat Perbelanjaan,Toko Dunia Baru,"Jl. Raya Maluk, Loka, Kec. Maluk, Kabupaten Sumbawa Barat, Nusa Tenggara Bar. 84456","Loka, Kec. Maluk, Kabupaten Sumbawa Barat",NUSA TENGGARA BARAT,84456.0,Indonesia,,,,-8.9187652,116.7556984,https://maps.google.com/?cid=0x0:0x3ef942a52c66ca1a,
supermarket,Toko Swalayan,Alfamart,"Jl. Raya Maluk No.Kel, Pasir Putih, Kec. Maluk, Kabupaten Sumbawa Barat, Nusa Tenggara Bar. 84456","Pasir Putih, Kec. Maluk, Kabupaten Sumbawa Barat",NUSA TENGGARA BARAT,84456.0,Indonesia,1500959.0,,,-8.9135432,116.7512495,https://maps.google.com/?cid=0x0:0x55c3c94bbde91b85,
supermarket,Pusat Perbelanjaan,moro seneng retail,"Jl. Raya Maluk No.46, Pasir Putih, Kec. Maluk, Kabupaten Sumbawa Barat, Nusa Tenggara Bar. 84456","Pasir Putih, Kec. Maluk, Kabupaten Sumbawa Barat",NUSA TENGGARA BARAT,84456.0,Indonesia,82342630000.0,,,-8.9147901,116.7515588,https://maps.google.com/?cid=0x0:0xc2fe3c8783bf2622,
supermarket,Pusat Perbelanjaan,Pasar Baru Maluk Sumbawa Barat,"3QP3+2QX Bar, Maluk, Kec. Maluk, Kabupaten Sumbawa Barat, Nusa Tenggara Bar. 84456","Maluk, Kec. Maluk, Kabupaten Sumbawa Barat",NUSA TENGGARA BARAT,84456.0,Indonesia,,,,-8.914894,116.7544872,https://maps.google.com/?cid=0x0:0x5728aa84c5c3f635,
supermarket,Minimarket,Maluk Indomaret,"3QP2+GFX, Jalan Raya, Pasir Putih, Maluk, West Sumbawa Regency, West Nusa Tenggara 84456","Jalan Raya, Pasir Putih, Maluk, West Sumbawa Regency",NUSA TENGGARA BARAT,84456.0,Indonesia,,,,-8.913642,116.7512385,https://maps.google.com/?cid=0x0:0x21cea28760e51083,
supermarket,Toko Buah dan Sayur,WARUNG BATAK MALUK,"3QG4+X8C, Jl. Raya Maluk, Pasir Putih, Kec. Maluk, Kabupaten Sumbawa Barat, Nusa Tenggara Bar. 84456","Jl. Raya Maluk, Pasir Putih, Kec. Maluk, Kabupaten Sumbawa Barat",NUSA TENGGARA BARAT,84456.0,Indonesia,,,,-8.9225523,116.7557592,https://maps.google.com/?cid=0x0:0x6aaaf4ae0a2e049b,
supermarket,Toko bahan makanan,Toko Rizal Jaya,"3QP2+9HF, Pasir Putih, Kec. Maluk, Kabupaten Sumbawa Barat, Nusa Tenggara Bar. 84456","Pasir Putih, Kec. Maluk, Kabupaten Sumbawa Barat",NUSA TENGGARA BARAT,84456.0,Indonesia,85239647769.0,,,-8.914055,116.751427,https://maps.google.com/?cid=0x0:0xb23155017a5d3768,
supermarket,Pusat Perbelanjaan,KSB mart,"3PMX+6MP, Pasir Putih, Kec. Maluk, Kabupaten Sumbawa Barat, Nusa Tenggara Bar. 84456","Pasir Putih, Kec. Maluk, Kabupaten Sumbawa Barat",NUSA TENGGARA BARAT,84456.0,Indonesia,81236177776.0,,,-8.9169047,116.7492078,https://maps.google.com/?cid=0x0:0xb5090209f15fe391,
supermarket,supermarket,Maluk,"Kec. Maluk, Kabupaten Sumbawa Barat, Nusa Tenggara Bar.","Kabupaten Sumbawa Barat, Nusa Tenggara Bar.",NUSA TENGGARA BARAT,,Indonesia,,,,-8.9238233,116.7673237,https://maps.google.com/?cid=0x0:0x47ef5cc6638a6493,
supermarket,Toko Swalayan,sinar rezeki,"Mantun, Kec. Maluk, Kabupaten Sumbawa Barat, Nusa Tenggara Bar. 84456","Kec. Maluk, Kabupaten Sumbawa Barat",NUSA TENGGARA BARAT,84456.0,Indonesia,82145130699.0,,,-8.910943,116.7506128,https://maps.google.com/?cid=0x0:0xaa9dfe29ed5320e1,
supermarket,Minimarket,Indomaret Maluk 2,"3QQ2+F9H, Bukit Damai, Kec. Maluk, Kabupaten Sumbawa Barat, Nusa Tenggara Bar. 84456","Bukit Damai, Kec. Maluk, Kabupaten Sumbawa Barat",NUSA TENGGARA BARAT,84456.0,Indonesia,,,,-8.9114023,116.751075,https://maps.google.com/?cid=0x0:0xe1ca7fb1562b4e73,
supermarket,Toko Swalayan,Toko Surya Borneo  Cake,"3QP2+MHM, Jalan Raya, Pasir Putih, Maluk, West Sumbawa Regency, West Nusa Tenggara 84456","Jalan Raya, Pasir Putih, Maluk, West Sumbawa Regency",NUSA TENGGARA BARAT,84456.0,Indonesia,81239967303.0,,,-8.913295,116.7514374,https://maps.google.com/?cid=0x0:0x1c406e23881c3ebf,
supermarket,Jasa Konstruksi dan Bangunan,"PT ALDO JAYA (BANGUNAN, MEUBEL, ELEKTRONIK)","3QP3+762, Maluk, Kec. Maluk, Kabupaten Sumbawa Barat, Nusa Tenggara Bar. 84456","Maluk, Kec. Maluk, Kabupaten Sumbawa Barat",NUSA TENGGARA BARAT,84456.0,Indonesia,,,,-8.9143652,116.7530295,https://maps.google.com/?cid=0x0:0xce128e6e3040e92a,
supermarket,Penyewaan Kapal Pancing,Toko Pancing Maluk FISHING store,"3QQ2+Q97, Bukit Damai, Kec. Maluk, Kabupaten Sumbawa Barat, Nusa Tenggara Bar. 84456","Bukit Damai, Kec. Maluk, Kabupaten Sumbawa Barat",NUSA TENGGARA BARAT,84456.0,Indonesia,,,,-8.9105937,116.7509312,https://maps.google.com/?cid=0x0:0x159270027242f47b,
supermarket,Kios,UD DIASETUJU,"3QQ2+79C, Jalan Raya, Mantun, Maluk, West Sumbawa Regency, West Nusa Tenggara 84456","Jalan Raya, Mantun, Maluk, West Sumbawa Regency",NUSA TENGGARA BARAT,84456.0,Indonesia,,,,-8.911811,116.7508876,https://maps.google.com/?cid=0x0:0xd5c0b46c42788fcd,
supermarket,Pemasok dupa,SYAHID.R STORE,"3QH3+GXC, Jl. Raya Maluk, Maluk, Kec. Maluk, Kabupaten Sumbawa Barat, Nusa Tenggara Bar. 84456","Jl. Raya Maluk, Maluk, Kec. Maluk, Kabupaten Sumbawa Barat",NUSA TENGGARA BARAT,84456.0,Indonesia,85237822754.0,,,-8.9214614,116.7551031,https://maps.google.com/?cid=0x0:0xc1f4692323173f7c,
supermarket,Toko Aksesori Ponsel,GIGIH CELL Maluk,"3QP2+WG8, Jalan Raya Maluk, RT.03/RW.01, Bukit Damai, Kec. Maluk, Kabupaten Sumbawa Barat, Nusa Tenggara Bar. 84456","Jalan Raya Maluk, RT.03/RW.01, Bukit Damai, Kec. Maluk, Kabupaten Sumbawa Barat",NUSA TENGGARA BARAT,84456.0,Indonesia,85333340567.0,,,-8.9127169,116.7513255,https://maps.google.com/?cid=0x0:0xe8d125dadc3de5cc,
supermarket,Toko Pakaian,Aprilia Store Maluk,"Pasir Putih, Kec. Maluk, Kabupaten Sumbawa Barat, Nusa Tenggara Bar. 84456","Kec. Maluk, Kabupaten Sumbawa Barat",NUSA TENGGARA BARAT,84456.0,Indonesia,82341190469.0,,,-8.914387,116.751536,https://maps.google.com/?cid=0x0:0x690f32b452fff1b8,
supermarket,Toko Fotokopi,Photocopy Maluk Indah,"3QP2+CM2, Jalan Raya, Bukit Damai, Maluk, West Sumbawa Regency, West Nusa Tenggara 84456","Jalan Raya, Bukit Damai, Maluk, West Sumbawa Regency",NUSA TENGGARA BARAT,84456.0,Indonesia,,,,-8.9139906,116.7516359,https://maps.google.com/?cid=0x0:0x64637ecac6640c2,
supermarket,Pusat Perbelanjaan,Aldo Jaya Frozen,"Jl. Raya Maluk, Mantun, Kec. Maluk, Kabupaten Sumbawa Barat, Nusa Tenggara Bar. 84456","Mantun, Kec. Maluk, Kabupaten Sumbawa Barat",NUSA TENGGARA BARAT,84456.0,Indonesia,81233226176.0,,,-8.9099553,116.7502435,https://maps.google.com/?cid=0x0:0x2997b6f40c3c8b70,
supermarket,Toko Perlengkapan Rumah,Tk Rizqullah Maluk,"3QP3+6J2, pasar, Maluk, Kec. Maluk, Kabupaten Sumbawa Barat, Nusa Tenggara Bar. 84456","pasar, Maluk, Kec. Maluk, Kabupaten Sumbawa Barat",NUSA TENGGARA BARAT,84456.0,Indonesia,87766561022.0,,,-8.9144759,116.7540066,https://maps.google.com/?cid=0x0:0x57a8847ec8598ef5,
supermarket,Minimarket,Indomaret Raya Maluk 143,"3QM3+964, Maluk, Kec. Maluk, Kabupaten Sumbawa Barat, Nusa Tenggara Bar.","Kabupaten Sumbawa Barat, Nusa Tenggara Bar.",NUSA TENGGARA BARAT,,Indonesia,,,,-8.9166095,116.7530825,https://maps.google.com/?cid=0x0:0x675b4e3ae2a7d85,
supermarket,Kios,Ibu Mut,"3QP3+X27, Jalan Raya, Bukit Damai, Kec. Maluk, Kabupaten Sumbawa Barat, Nusa Tenggara Bar. 84456","Jalan Raya, Bukit Damai, Kec. Maluk, Kabupaten Sumbawa Barat",NUSA TENGGARA BARAT,84456.0,Indonesia,,,,-8.9126151,116.7525465,https://maps.google.com/?cid=0x0:0xb06d15ad5b08f856,
