Category,Real Category,Business Name,Address,City,State,Postal Code,Country,Phone,Email,Website,Latitude,Longitude,Map Link,Details Link
perumahan,perumahan,Nusa Tenggara Bar. 84456,"Kec. Jereweh, Kabupaten Sumbawa Barat, Nusa Tenggara Bar.","Kabupaten Sumbawa Barat, Nusa Tenggara Bar.",NUSA TENGGARA BARAT,,Indonesia,,,,-8.947527,116.9145901,https://maps.google.com/?cid=0x0:0xd8d94f4df4b390cb,
perumahan,Perhimpunan Pengembang Perumahan,Jelenga,"4QMF+XH9, Jelenga, Beru, Kec. Jereweh, Kabupaten Sumbawa Barat, Nusa Tenggara Bar. 84455","Jelenga, Beru, Kec. Jereweh, Kabupaten Sumbawa Barat",NUSA TENGGARA BARAT,84455.0,Indonesia,,,,-8.865128,116.7739268,https://maps.google.com/?cid=0x0:0xf7bb34703d147afc,
perumahan,Komplek perumahan,Sumbawa,"3VCR+7CM, Beru, Kec. Jereweh, Kabupaten Sumbawa Barat, Nusa Tenggara Bar. 84456","Beru, Kec. Jereweh, Kabupaten Sumbawa Barat",NUSA TENGGARA BARAT,84456.0,Indonesia,,,,-8.9292907,116.8910342,https://maps.google.com/?cid=0x0:0x20b3ffcae66d3aa0,
perumahan,Komplek perumahan,Dhia Queen,"5RC8+7QM, Dasan Anyar, Kec. Jereweh, Kabupaten Sumbawa Barat, Nusa Tenggara Bar. 84456","Dasan Anyar, Kec. Jereweh, Kabupaten Sumbawa Barat",NUSA TENGGARA BARAT,84456.0,Indonesia,,,,-8.8290062,116.8176202,https://maps.google.com/?cid=0x0:0x8acaab8df77e5ec7,
perumahan,Pembangunan Perumahan,Perumahan Guru,"Jl. Pendidikan No.3, Beru, Kec. Jereweh, Kabupaten Sumbawa Barat, Nusa Tenggara Bar. 84456","Beru, Kec. Jereweh, Kabupaten Sumbawa Barat",NUSA TENGGARA BARAT,84456.0,Indonesia,,,,-8.8570257,116.8242265,https://maps.google.com/?cid=0x0:0x5b3b3854cedc4692,
perumahan,Perhimpunan Pengembang Perumahan,Rony wijaya,"5R28+P9X, Unnamed Rd, Goa, Kec. Jereweh, Kabupaten Sumbawa Barat, Nusa Tenggara Bar. 84456","Unnamed Rd, Goa, Kec. Jereweh, Kabupaten Sumbawa Barat",NUSA TENGGARA BARAT,84456.0,Indonesia,,,,-8.8487556,116.8153628,https://maps.google.com/?cid=0x0:0x1b4470c6ccc023e7,
perumahan,Komplek perumahan,Rumah Saya,"5R29+4JV, Goa, Kec. Jereweh, Kabupaten Sumbawa Barat, Nusa Tenggara Bar. 84456","Goa, Kec. Jereweh, Kabupaten Sumbawa Barat",NUSA TENGGARA BARAT,84456.0,Indonesia,,,,-8.8496464,116.8190522,https://maps.google.com/?cid=0x0:0x72f559d6ff234ccb,
perumahan,Komplek perumahan,Rumah Ferdi,"4RQH+HW7, Belo, Kec. Jereweh, Kabupaten Sumbawa Barat, Nusa Tenggara Bar. 84456","Belo, Kec. Jereweh, Kabupaten Sumbawa Barat",NUSA TENGGARA BARAT,84456.0,Indonesia,,,,-8.8610779,116.8297975,https://maps.google.com/?cid=0x0:0xd15a8d1d9a4023e1,
perumahan,Pembangunan Perumahan,Dusun sumber rezeki,"5R53+M3F, Goa, Kec. Jereweh, Kabupaten Sumbawa Barat, Nusa Tenggara Bar.","Kabupaten Sumbawa Barat, Nusa Tenggara Bar.",NUSA TENGGARA BARAT,,Indonesia,,,,-8.8408127,116.8026767,https://maps.google.com/?cid=0x0:0x2d6f622848ad114f,
perumahan,Pembangunan Perumahan,Rumah Burhanuddin bin abu kasim,"4RQH+3PM, Jl. Pahlawan, Belo, Kec. Jereweh, Kabupaten Sumbawa Barat, Nusa Tenggara Bar. 84456","Jl. Pahlawan, Belo, Kec. Jereweh, Kabupaten Sumbawa Barat",NUSA TENGGARA BARAT,84456.0,Indonesia,,,,-8.8621956,116.8292751,https://maps.google.com/?cid=0x0:0x80d57b9c15166166,
perumahan,Komplek perumahan,Rumah Pribadi,"5R98+4XR, Dasan Anyar, Kec. Jereweh, Kabupaten Sumbawa Barat, Nusa Tenggara Bar. 84456","Dasan Anyar, Kec. Jereweh, Kabupaten Sumbawa Barat",NUSA TENGGARA BARAT,84456.0,Indonesia,,,,-8.8321481,116.8174046,https://maps.google.com/?cid=0x0:0x98d26df3a577fd73,
perumahan,Pembangunan Perumahan,Mhamy jelenge,"4QPR+FPP, Beru, Kec. Jereweh, Kabupaten Sumbawa Barat, Nusa Tenggara Bar.","Kabupaten Sumbawa Barat, Nusa Tenggara Bar.",NUSA TENGGARA BARAT,,Indonesia,,,,-8.8637781,116.7918174,https://maps.google.com/?cid=0x0:0xf0d7e88902673db2,
perumahan,Komplek perumahan,aira home,"4RX9+99R, gang angsa putih, RT.07/RW.3, Goa, Kec. Jereweh, Kabupaten Sumbawa Barat, Nusa Tenggara Bar.","Kabupaten Sumbawa Barat, Nusa Tenggara Bar.",NUSA TENGGARA BARAT,,Indonesia,,,,-8.8515086,116.818387,https://maps.google.com/?cid=0x0:0x4c6c17b0c62a8dd9,
perumahan,Kompleks Kondominium,Rumah Suparno/Herda irawati,"Dusun mekar sari Jl. Mangga No.rt03/01, Bukit Damai, Kec. Maluk, Kabupaten Sumbawa Barat, Nusa Tenggara Bar. 84456","Bukit Damai, Kec. Maluk, Kabupaten Sumbawa Barat",NUSA TENGGARA BARAT,84456.0,Indonesia,,,,-8.9104255,116.7516731,https://maps.google.com/?cid=0x0:0x6e23d5d463a97ed9,
perumahan,Pemasok peralatan binatu yang dioperasikan dengan koin,Loundry depot,"4QR9+4CW, Beru, Kec. Jereweh, Kabupaten Sumbawa Barat, Nusa Tenggara Bar. 84456","Beru, Kec. Jereweh, Kabupaten Sumbawa Barat",NUSA TENGGARA BARAT,84456.0,Indonesia,,,,-8.8601377,116.769256,https://maps.google.com/?cid=0x0:0xe4cd94e4f6d6f1c3,
perumahan,Komplek perumahan,Dusun Beru Des Beru KC jereweh,"KC, Jln lalu magaparang no 11, RT.07/RW.04, Beru, Kec. Jereweh","Kabupaten Sumbawa Barat, Nusa Tenggara Bar.",NUSA TENGGARA BARAT,,Indonesia,,,,-8.8590859,116.8274787,https://maps.google.com/?cid=0x0:0x5ec5c05ae32b5823,
perumahan,Komplek perumahan,Rumah Zanuar,"4RJC+MRC, Belo, Kec. Jereweh, Kabupaten Sumbawa Barat, Nusa Tenggara Bar.","Kabupaten Sumbawa Barat, Nusa Tenggara Bar.",NUSA TENGGARA BARAT,,Indonesia,,,,-8.8683085,116.8220054,https://maps.google.com/?cid=0x0:0x9f1e0c9a8c9fd374,
perumahan,Komplek perumahan,Kgebegek Basecamp,"4RQH+Q6C, Belo, Kec. Jereweh, Kabupaten Sumbawa Barat, Nusa Tenggara Bar. 84456","Belo, Kec. Jereweh, Kabupaten Sumbawa Barat",NUSA TENGGARA BARAT,84456.0,Indonesia,,,,-8.8605614,116.8280108,https://maps.google.com/?cid=0x0:0xfdaaf5571de05e54,
perumahan,Komplek perumahan,House siti,"4QRC+GGJ, Beru, Kec. Jereweh, Kabupaten Sumbawa Barat, Nusa Tenggara Bar. 84456","Beru, Kec. Jereweh, Kabupaten Sumbawa Barat",NUSA TENGGARA BARAT,84456.0,Indonesia,,,,-8.8591533,116.7710105,https://maps.google.com/?cid=0x0:0x931afe2f82608487,
perumahan,Komplek perumahan,Rumah Fat,"4QP8+P42 gang gorden gol, RT.10/RW.5, dusun jelenga, Beru, Kec. Jereweh, Kabupaten Sumbawa Barat, Nusa Tenggara Bar. 84456","RT.10/RW.5, dusun jelenga, Beru, Kec. Jereweh, Kabupaten Sumbawa Barat",NUSA TENGGARA BARAT,84456.0,Indonesia,,,,-8.8632262,116.7652548,https://maps.google.com/?cid=0x0:0x860836180457185d,
perumahan,Komplek perumahan,Muhammad yasin,"4QQ9+VJX, Beru, Kec. Jereweh, Kabupaten Sumbawa Barat, Nusa Tenggara Bar. 84456","Beru, Kec. Jereweh, Kabupaten Sumbawa Barat",NUSA TENGGARA BARAT,84456.0,Indonesia,,,,-8.8602726,116.7691109,https://maps.google.com/?cid=0x0:0x850149aa54b5e6dc,
perumahan,Komplek perumahan,Rumah farhan,"4QQ9+8F2, Beru, Kec. Jereweh, Kabupaten Sumbawa Barat, Nusa Tenggara Bar. 84456","Beru, Kec. Jereweh, Kabupaten Sumbawa Barat",NUSA TENGGARA BARAT,84456.0,Indonesia,,,,-8.8617309,116.7686404,https://maps.google.com/?cid=0x0:0x7661198cd5c59fe5,
perumahan,Vila,Grand Housing Maluk,"Maluk, Kec. Maluk, Kabupaten Sumbawa Barat, Nusa Tenggara Bar. 84456","Kec. Maluk, Kabupaten Sumbawa Barat",NUSA TENGGARA BARAT,84456.0,Indonesia,82147935511.0,,,-8.9204763,116.7552689,https://maps.google.com/?cid=0x0:0xdc5c908b8093b037,
perumahan,Komplek perumahan,SISA,"Jl. Kartini Dsn. Bage Bungkur No.32, Beru, Kec. Jereweh, Kabupaten Sumbawa Barat, Nusa Tenggara Bar. 84456","Beru, Kec. Jereweh, Kabupaten Sumbawa Barat",NUSA TENGGARA BARAT,84456.0,Indonesia,,,,-8.8575273,116.8243486,https://maps.google.com/?cid=0x0:0x65163dcbd1f8fbbd,
perumahan,perumahan,Taliwang,"Kuang, Kec. Taliwang, Kabupaten Sumbawa Barat, Nusa Tenggara Bar.","Kabupaten Sumbawa Barat, Nusa Tenggara Bar.",NUSA TENGGARA BARAT,,Indonesia,,,,-8.751946,116.854599,https://maps.google.com/?cid=0x0:0xf98bdc32d4193ccb,
perumahan,Komplek perumahan,Perumahan Graha Bintang Perdana,"7R4G+898, Banjar, Kec. Taliwang, Kabupaten Sumbawa Barat, Nusa Tenggara Bar. 84455","Banjar, Kec. Taliwang, Kabupaten Sumbawa Barat",NUSA TENGGARA BARAT,84455.0,Indonesia,,,,-8.7442117,116.8259564,https://maps.google.com/?cid=0x0:0x8ce715ac2dcbcb7c,
perumahan,Rumah Kayu,TPQ Khairunnaba' (Rumah Syafruddin),"6VX3+6RH, Kuang, Kec. Taliwang, Kabupaten Sumbawa Barat, Nusa Tenggara Bar.","Kabupaten Sumbawa Barat, Nusa Tenggara Bar.",NUSA TENGGARA BARAT,,Indonesia,,,,-8.751946,116.854599,https://maps.google.com/?cid=0x0:0x6372d91076898465,
perumahan,Komplek perumahan,perumahan konglomerat,"7R3P+RVX, Bugis, Kec. Taliwang, Kabupaten Sumbawa Barat, Nusa Tenggara Bar. 84455","Bugis, Kec. Taliwang, Kabupaten Sumbawa Barat",NUSA TENGGARA BARAT,84455.0,Indonesia,,,,-8.7453366,116.8373147,https://maps.google.com/?cid=0x0:0x6e4b1b4a1f1f998c,
perumahan,Pondok,BTN Baiti Janati,"Bugis, Kec. Taliwang, Kabupaten Sumbawa Barat, Nusa Tenggara Bar. 84455","Kec. Taliwang, Kabupaten Sumbawa Barat",NUSA TENGGARA BARAT,84455.0,Indonesia,,,,-8.7504445,116.8278113,https://maps.google.com/?cid=0x0:0x4cd4e30d7709d88c,
perumahan,Komplek perumahan,Rumah gerald dan arnold,"6VX3+6RH, Kuang, Kec. Taliwang, Kabupaten Sumbawa Barat, Nusa Tenggara Bar.","Kabupaten Sumbawa Barat, Nusa Tenggara Bar.",NUSA TENGGARA BARAT,,Indonesia,,,,-8.751946,116.854599,https://maps.google.com/?cid=0x0:0xabd0bd2968226712,
perumahan,Pembangunan Perumahan,Bakat monte,"6VX3+6RH, Kuang, Kec. Taliwang, Kabupaten Sumbawa Barat, Nusa Tenggara Bar.","Kabupaten Sumbawa Barat, Nusa Tenggara Bar.",NUSA TENGGARA BARAT,,Indonesia,,,,-8.751946,116.854599,https://maps.google.com/?cid=0x0:0x214bd839ee8cc312,
perumahan,Komplek perumahan,D-wa,"6VW3+F7J Ktc square, Kuang, Kec. Taliwang, Kabupaten Sumbawa Barat, Nusa Tenggara Bar.","Kabupaten Sumbawa Barat, Nusa Tenggara Bar.",NUSA TENGGARA BARAT,,Indonesia,,,,-8.7537751,116.8531357,https://maps.google.com/?cid=0x0:0x6dbf3709fa417926,
perumahan,Pembangunan Perumahan,Koskosa,"6VX3+6RH, Kuang, Kec. Taliwang, Kabupaten Sumbawa Barat, Nusa Tenggara Bar.","Kabupaten Sumbawa Barat, Nusa Tenggara Bar.",NUSA TENGGARA BARAT,,Indonesia,,,,-8.751946,116.854599,https://maps.google.com/?cid=0x0:0x55911d65a2cb7ed9,
perumahan,Rumah wisata,Perumahan Graha Bintang Bertong,"6RGH+Q3C, Telaga Bertong, Kec. Taliwang, Kabupaten Sumbawa Barat, Nusa Tenggara Bar.","Kabupaten Sumbawa Barat, Nusa Tenggara Bar.",NUSA TENGGARA BARAT,,Indonesia,,,,-8.7728118,116.8274042,https://maps.google.com/?cid=0x0:0x4426684c0561df24,
perumahan,Komplek perumahan,Mbuu,"6VX3+6RH, Kuang, Kec. Taliwang, Kabupaten Sumbawa Barat, Nusa Tenggara Bar.","Kabupaten Sumbawa Barat, Nusa Tenggara Bar.",NUSA TENGGARA BARAT,,Indonesia,,,,-8.751946,116.854599,https://maps.google.com/?cid=0x0:0x42ae4d3dbd35c9e8,
perumahan,Monumen,TUGU KTC TALIWANG,"6VW3+F7J, Unnamed Rd, Nusa Tenggara Bar., Kuang, Kec. Taliwang, Kabupaten Sumbawa Barat, Nusa Tenggara Bar. 84455","Unnamed Rd, Nusa Tenggara Bar., Kuang, Kec. Taliwang, Kabupaten Sumbawa Barat",NUSA TENGGARA BARAT,84455.0,Indonesia,8533902390.0,,,-8.7537751,116.8531357,https://maps.google.com/?cid=0x0:0x6bb6a7864a01c63e,
perumahan,Rumah Kayu,Bale lang,"6VX3+6RH, muhajirin, Kec. Taliwang, Kabupaten Sumbawa Barat, Nusa Tenggara Bar.","Kabupaten Sumbawa Barat, Nusa Tenggara Bar.",NUSA TENGGARA BARAT,,Indonesia,,,,-8.751946,116.854599,https://maps.google.com/?cid=0x0:0x7c75c1272434b816,
perumahan,Rumah wisata,Rumah pak dewan sumbawa taliwang,"6VX3+6RH, Kuang, Kec. Taliwang, Kabupaten Sumbawa Barat, Nusa Tenggara Bar.","Kabupaten Sumbawa Barat, Nusa Tenggara Bar.",NUSA TENGGARA BARAT,,Indonesia,,,,-8.751946,116.854599,https://maps.google.com/?cid=0x0:0x5ada1730eeff310c,
perumahan,Komplek perumahan,SUMBAWA barat,"7V54+C96, Sampir, Kec. Taliwang, Kabupaten Sumbawa Barat, Nusa Tenggara Bar. 84455","Sampir, Kec. Taliwang, Kabupaten Sumbawa Barat",NUSA TENGGARA BARAT,84455.0,Indonesia,,,,-8.741459,116.8558851,https://maps.google.com/?cid=0x0:0x8cc3ffd5ced233b1,
perumahan,Ruang Serbaguna,Graha Bukit Bintang Taliwang,"7V82+X79, Jalan Raya, Dalam, Taliwang, West Sumbawa Regency, West Nusa Tenggara 84455","Jalan Raya, Dalam, Taliwang, West Sumbawa Regency",NUSA TENGGARA BARAT,84455.0,Indonesia,,,,-8.7325886,116.8507463,https://maps.google.com/?cid=0x0:0x70f326b18e68ec16,
perumahan,perumahan,Kec. Seteluk,"Kabupaten Sumbawa Barat, Nusa Tenggara Bar.","Kabupaten Sumbawa Barat, Nusa Tenggara Bar.",NUSA TENGGARA BARAT,,Indonesia,,,,-8.6251785,116.8652498,https://maps.google.com/?cid=0x0:0x81f1c5d92dcd6f07,
perumahan,Komplek perumahan,alamat,"9VFC+4GG, Seteluk Atas, Kec. Seteluk, Kabupaten Sumbawa Barat, Nusa Tenggara Bar. 84454","Seteluk Atas, Kec. Seteluk, Kabupaten Sumbawa Barat",NUSA TENGGARA BARAT,84454.0,Indonesia,81238955830.0,,,-8.6271856,116.8713415,https://maps.google.com/?cid=0x0:0xc11b6f6162c371a4,
perumahan,Pembangunan Perumahan,Rumah farhad,"9VC9+969, Seteluk Atas, Kec. Seteluk, Kabupaten Sumbawa Barat, Nusa Tenggara Bar. 84454","Seteluk Atas, Kec. Seteluk, Kabupaten Sumbawa Barat",NUSA TENGGARA BARAT,84454.0,Indonesia,,,,-8.6290963,116.8681195,https://maps.google.com/?cid=0x0:0x7e6d7da0d76c1723,
perumahan,Komplek perumahan,Blok M,"9VC6+PVG, Jl. Raya Seteluk, Seteluk Tengah, Kec. Seteluk, Kabupaten Sumbawa Barat, Nusa Tenggara Bar. 84454","Jl. Raya Seteluk, Seteluk Tengah, Kec. Seteluk, Kabupaten Sumbawa Barat",NUSA TENGGARA BARAT,84454.0,Indonesia,,,,-8.6281025,116.8621976,https://maps.google.com/?cid=0x0:0x65f1ea606cb2e42a,
perumahan,Komplek perumahan,Rumah Marliana,"9VC8+QM5, Seteluk Tengah, Kec. Seteluk, Kabupaten Sumbawa Barat, Nusa Tenggara Bar. 84454","Seteluk Tengah, Kec. Seteluk, Kabupaten Sumbawa Barat",NUSA TENGGARA BARAT,84454.0,Indonesia,,,,-8.6281021,116.8667315,https://maps.google.com/?cid=0x0:0x60a182697fce3eb3,
perumahan,Komplek perumahan,Rumah Mahmud M. Nur,"8VRH+P6M, Seran, Kec. Seteluk, Kabupaten Sumbawa Barat, Nusa Tenggara Bar. 84454","Seran, Kec. Seteluk, Kabupaten Sumbawa Barat",NUSA TENGGARA BARAT,84454.0,Indonesia,,,,-8.6581618,116.8780469,https://maps.google.com/?cid=0x0:0x83b62c2a89cd9add,
perumahan,Komplek perumahan,M. Saleh Masrang,"9VC8+PW3, Seteluk Tengah, Kec. Seteluk, Kabupaten Sumbawa Barat, Nusa Tenggara Bar. 84454","Seteluk Tengah, Kec. Seteluk, Kabupaten Sumbawa Barat",NUSA TENGGARA BARAT,84454.0,Indonesia,,,,-8.6280614,116.8673326,https://maps.google.com/?cid=0x0:0xe2cb5ee4a2ba357e,
perumahan,Komplek perumahan,Rumah Hendri,"9VFC+7WJ, Seteluk Atas, Kec. Seteluk, Kabupaten Sumbawa Barat, Nusa Tenggara Bar. 84454","Seteluk Atas, Kec. Seteluk, Kabupaten Sumbawa Barat",NUSA TENGGARA BARAT,84454.0,Indonesia,,,,-8.626781,116.8722581,https://maps.google.com/?cid=0x0:0x5e4c3b2b81282279,
perumahan,Komplek perumahan,Bale eko ta,"9V38+78Q, Rempe, Kec. Seteluk, Kabupaten Sumbawa Barat, Nusa Tenggara Bar. 84454","Rempe, Kec. Seteluk, Kabupaten Sumbawa Barat",NUSA TENGGARA BARAT,84454.0,Indonesia,,,,-8.64656,116.865583,https://maps.google.com/?cid=0x0:0xb58e81994f3626a8,
perumahan,Komplek perumahan,Yudha,"9VF9+2MP, Seteluk Atas, Kec. Seteluk, Kabupaten Sumbawa Barat, Nusa Tenggara Bar. 84454","Seteluk Atas, Kec. Seteluk, Kabupaten Sumbawa Barat",NUSA TENGGARA BARAT,84454.0,Indonesia,,,,-8.627135,116.869354,https://maps.google.com/?cid=0x0:0x86c7a79a9e4ed46e,
perumahan,Komplek perumahan,Kos Seteluk,"CV4W+JQ3, Seteluk Tengah, Kec. Seteluk, Kabupaten Sumbawa Barat, Nusa Tenggara Bar. 84454","Seteluk Tengah, Kec. Seteluk, Kabupaten Sumbawa Barat",NUSA TENGGARA BARAT,84454.0,Indonesia,,,,-8.5934865,116.8969234,https://maps.google.com/?cid=0x0:0xb0de55025be29295,
perumahan,Kantor Pemerintah,seran,"8VWP+73C, Seran, Kec. Seteluk, Kabupaten Sumbawa Barat, Nusa Tenggara Bar. 84454","Seran, Kec. Seteluk, Kabupaten Sumbawa Barat",NUSA TENGGARA BARAT,84454.0,Indonesia,,,,-8.6543176,116.8851448,https://maps.google.com/?cid=0x0:0x9bd3de5251a02be2,
perumahan,Komplek perumahan,trisna,"9VF9+6JJ, Unnamed Road, Seteluk Tengah, Kec. Seteluk, Kabupaten Sumbawa Barat, Nusa Tenggara Bar. 84454","Unnamed Road, Seteluk Tengah, Kec. Seteluk, Kabupaten Sumbawa Barat",NUSA TENGGARA BARAT,84454.0,Indonesia,,,,-8.6269207,116.8690089,https://maps.google.com/?cid=0x0:0x6cf4377b7366a5a2,
perumahan,Perhimpunan Pengembang Perumahan,Rumah nyai kalsum,"8R7X+6W4, Meraran, Kec. Seteluk, Kabupaten Sumbawa Barat, Nusa Tenggara Bar. 84454","Meraran, Kec. Seteluk, Kabupaten Sumbawa Barat",NUSA TENGGARA BARAT,84454.0,Indonesia,,,,-8.6875415,116.8476992,https://maps.google.com/?cid=0x0:0xf9503645a2ae6379,
perumahan,Komplek perumahan,Rumah Vita Abet,"9VGW+JQ7, Seteluk Atas, Kec. Seteluk, Kabupaten Sumbawa Barat, Nusa Tenggara Bar. 84454","Seteluk Atas, Kec. Seteluk, Kabupaten Sumbawa Barat",NUSA TENGGARA BARAT,84454.0,Indonesia,,,,-8.6234512,116.8969234,https://maps.google.com/?cid=0x0:0x9f8a95d69b1feb74,
perumahan,perumahan,Rumah bos rolex,"9VFC+82W, Seteluk Atas, Kec. Seteluk, Kabupaten Sumbawa Barat, Nusa Tenggara Bar. 84454","Seteluk Atas, Kec. Seteluk, Kabupaten Sumbawa Barat",NUSA TENGGARA BARAT,84454.0,Indonesia,,,,-8.6266533,116.870068,https://maps.google.com/?cid=0x0:0xd0f8caeacbee38f2,
perumahan,Komplek perumahan,Bale Aves,"8VX3+FPX, Air Suning, Kec. Seteluk, Kabupaten Sumbawa Barat, Nusa Tenggara Bar. 84454","Air Suning, Kec. Seteluk, Kabupaten Sumbawa Barat",NUSA TENGGARA BARAT,84454.0,Indonesia,,,,-8.6510778,116.8550444,https://maps.google.com/?cid=0x0:0xc048a98f2122cd6c,
perumahan,Komplek perumahan,Air suning city,"9V23+6H9, Air Suning, Kec. Seteluk, Kabupaten Sumbawa Barat, Nusa Tenggara Bar. 84454","Air Suning, Kec. Seteluk, Kabupaten Sumbawa Barat",NUSA TENGGARA BARAT,84454.0,Indonesia,,,,-8.6494568,116.8539762,https://maps.google.com/?cid=0x0:0x56c784d9beadc697,
perumahan,Perhimpunan Pengembang Perumahan,Rumah Sopyan majid,"8R6X+5P3, Jl. Raya Taliwang, Meraran, Kec. Seteluk, Kabupaten Sumbawa Barat, Nusa Tenggara Bar. 84454","Jl. Raya Taliwang, Meraran, Kec. Seteluk, Kabupaten Sumbawa Barat",NUSA TENGGARA BARAT,84454.0,Indonesia,,,,-8.6895536,116.849098,https://maps.google.com/?cid=0x0:0xe56e9dfa13ae94df,
perumahan,Pembangunan Perumahan,Zaidatul Uyun,"9VF7+XV5, Seteluk Tengah, Kec. Seteluk, Kabupaten Sumbawa Barat, Nusa Tenggara Bar. 84454","Seteluk Tengah, Kec. Seteluk, Kabupaten Sumbawa Barat",NUSA TENGGARA BARAT,84454.0,Indonesia,,,,-8.6251182,116.8647336,https://maps.google.com/?cid=0x0:0x53f9bf1aaac2b3f2,
perumahan,Pembangunan Perumahan,Bale oghut achy,"8VX4+W4F, Air Suning, Kec. Seteluk, Kabupaten Sumbawa Barat, Nusa Tenggara Bar. 84454","Air Suning, Kec. Seteluk, Kabupaten Sumbawa Barat",NUSA TENGGARA BARAT,84454.0,Indonesia,,,,-8.6501889,116.8553088,https://maps.google.com/?cid=0x0:0x8e0abf88e5255c7c,
perumahan,Komplek perumahan,Bale ardanil,"9V38+57M, Rempe, Kec. Seteluk, Kabupaten Sumbawa Barat, Nusa Tenggara Bar. 84454","Rempe, Kec. Seteluk, Kabupaten Sumbawa Barat",NUSA TENGGARA BARAT,84454.0,Indonesia,,,,-8.6470417,116.8656732,https://maps.google.com/?cid=0x0:0x9f0f509caf64e311,
perumahan,Pembangunan Perumahan,Air suning,"9V23+HRG, Air Suning, Kec. Seteluk, Kabupaten Sumbawa Barat, Nusa Tenggara Bar. 84454","Air Suning, Kec. Seteluk, Kabupaten Sumbawa Barat",NUSA TENGGARA BARAT,84454.0,Indonesia,,,,-8.6485514,116.8545701,https://maps.google.com/?cid=0x0:0x6f89f58568671d8d,
perumahan,perumahan,Nusa Tenggara Bar. 84457,"Kec. Sekongkang, Kabupaten Sumbawa Barat, Nusa Tenggara Bar.","Kabupaten Sumbawa Barat, Nusa Tenggara Bar.",NUSA TENGGARA BARAT,,Indonesia,,,,-9.0278591,116.9145901,https://maps.google.com/?cid=0x0:0xa55d05be516dbaf,
perumahan,Perumahan,Perumahan Guru SDN 2 Sekongkang,"2QJ7+WJH Lapangan Lama, Sekongkang Atas, Kec. Sekongkang, Kabupaten Sumbawa Barat, Nusa Tenggara Bar. 84457","Sekongkang Atas, Kec. Sekongkang, Kabupaten Sumbawa Barat",NUSA TENGGARA BARAT,84457.0,Indonesia,82341247148.0,,,-8.9676758,116.7641222,https://maps.google.com/?cid=0x0:0xbd57f9cfd9a512a6,
perumahan,Hostel,RUMAH QUEEN,"2QM6+2JF, Sekongkang Atas, Kec. Sekongkang, Kabupaten Sumbawa Barat, Nusa Tenggara Bar. 84457","Sekongkang Atas, Kec. Sekongkang, Kabupaten Sumbawa Barat",NUSA TENGGARA BARAT,84457.0,Indonesia,,,,-8.9676854,116.7609472,https://maps.google.com/?cid=0x0:0x98dad685ec7783ff,
perumahan,Rumah Pondokan,Rumah singgah sekongkang,"2QP5+WVC, Kemuning, Kec. Sekongkang, Kabupaten Sumbawa Barat, Nusa Tenggara Bar.","Kabupaten Sumbawa Barat, Nusa Tenggara Bar.",NUSA TENGGARA BARAT,,Indonesia,,,,-8.9626823,116.7596499,https://maps.google.com/?cid=0x0:0x98faf431281be221,
perumahan,Perusahaan Konstruksi,Benete,"2QCF+R7G, Jl. Batu Hijau Townsite, Sekongkang Atas, Kec. Sekongkang, Kabupaten Sumbawa Barat, Nusa Tenggara Bar. 84457","Jl. Batu Hijau Townsite, Sekongkang Atas, Kec. Sekongkang, Kabupaten Sumbawa Barat",NUSA TENGGARA BARAT,84457.0,Indonesia,,,,-8.97793,116.7731896,https://maps.google.com/?cid=0x0:0x57211cf70f726f01,
perumahan,Komplek perumahan,Rumah mamiq,"2QP2+CJQ, Sekongkang Bawah, Kec. Sekongkang, Kabupaten Sumbawa Barat, Nusa Tenggara Bar.","Kabupaten Sumbawa Barat, Nusa Tenggara Bar.",NUSA TENGGARA BARAT,,Indonesia,,,,-8.9639013,116.7516057,https://maps.google.com/?cid=0x0:0x61d1eb418ed7539c,
perumahan,Komplek perumahan,Rumah wahyu,"2Q63+7J9, Jl. Batu Hijau Townsite, Sekongkang Atas, Kec. Sekongkang, Kabupaten Sumbawa Barat, Nusa Tenggara Bar. 84457","Jl. Batu Hijau Townsite, Sekongkang Atas, Kec. Sekongkang, Kabupaten Sumbawa Barat",NUSA TENGGARA BARAT,84457.0,Indonesia,,,,-8.9898859,116.753845,https://maps.google.com/?cid=0x0:0xa559cef94ff359e0,
perumahan,Komplek perumahan,Rumah Pak Amnran Darwis dan Ibu Jawariah,"2PMX+QQR, Sekongkang Bawah, Kec. Sekongkang, Kabupaten Sumbawa Barat, Nusa Tenggara Bar. 84457","Sekongkang Bawah, Kec. Sekongkang, Kabupaten Sumbawa Barat",NUSA TENGGARA BARAT,84457.0,Indonesia,,,,-8.9655749,116.7494284,https://maps.google.com/?cid=0x0:0xac5be949b2ae78fe,
perumahan,Perumahan,Campsite,"2Q75+9X3, Sekongkang Atas, Kec. Sekongkang, Kabupaten Sumbawa Barat, Nusa Tenggara Bar.","Kabupaten Sumbawa Barat, Nusa Tenggara Bar.",NUSA TENGGARA BARAT,,Indonesia,,,,-8.9866054,116.7599067,https://maps.google.com/?cid=0x0:0x7463b7c6f14518eb,
perumahan,Komplek perumahan,Rumah Pipit,"Housing PT AMNT, Jl. Bambu Jl. Batu Hijau Townsite No.375, Sekongkang Atas, Kec. Sekongkang, Kabupaten Sumbawa Barat, Nusa Tenggara Bar. 84457","Jl. Bambu Jl. Batu Hijau Townsite No.375, Sekongkang Atas, Kec. Sekongkang, Kabupaten Sumbawa Barat",NUSA TENGGARA BARAT,84457.0,Indonesia,,,,-8.9792923,116.7632918,https://maps.google.com/?cid=0x0:0x83c237d1238e421f,
perumahan,Komplek perumahan,Towsite,"2QFC+3CQ, Sekongkang Atas, Kec. Sekongkang, Kabupaten Sumbawa Barat, Nusa Tenggara Bar.","Kabupaten Sumbawa Barat, Nusa Tenggara Bar.",NUSA TENGGARA BARAT,,Indonesia,,,,-8.977299,116.7710943,https://maps.google.com/?cid=0x0:0xaf10cd8370a92f16,
perumahan,Area Mendaki,Melati 07 Townsite,"2Q87+99G, Sekongkang Atas, Kec. Sekongkang, Kabupaten Sumbawa Barat, Nusa Tenggara Bar. 84457","Sekongkang Atas, Kec. Sekongkang, Kabupaten Sumbawa Barat",NUSA TENGGARA BARAT,84457.0,Indonesia,,,,-8.9841307,116.7625032,https://maps.google.com/?cid=0x0:0x931f3c51462d305a,
perumahan,Pembangunan Perumahan,Rumah Ecang,"2PJW+85R, Sekongkang Bawah, Kec. Sekongkang, Kabupaten Sumbawa Barat, Nusa Tenggara Bar. 84457","Sekongkang Bawah, Kec. Sekongkang, Kabupaten Sumbawa Barat",NUSA TENGGARA BARAT,84457.0,Indonesia,,,,-8.9689495,116.745387,https://maps.google.com/?cid=0x0:0x58211f038109dde8,
perumahan,Komplek perumahan,Lukman hakim,"XR6Q+CXM, Jl. Raya Senutuk, Ai Kangkung, Kec. Sekongkang, Kabupaten Sumbawa Barat, Nusa Tenggara Bar. 84457","Jl. Raya Senutuk, Ai Kangkung, Kec. Sekongkang, Kabupaten Sumbawa Barat",NUSA TENGGARA BARAT,84457.0,Indonesia,,,,-9.0389095,116.8399176,https://maps.google.com/?cid=0x0:0x85ad110884dae658,
perumahan,Perhimpunan Pengembang Perumahan,Yoni House,"Jl. Bambu Jl. Batu Hijau Townsite No.375, Sekongkang Atas, Kec. Sekongkang, Kabupaten Sumbawa Barat, Nusa Tenggara Bar. 84457","Sekongkang Atas, Kec. Sekongkang, Kabupaten Sumbawa Barat",NUSA TENGGARA BARAT,84457.0,Indonesia,,,,-8.9793726,116.7642277,https://maps.google.com/?cid=0x0:0x419e125b672d68ad,
perumahan,Komplek perumahan,H. Taufiq,"2QJ7+X7G, Sekongkang Atas, Kec. Sekongkang, Kabupaten Sumbawa Barat, Nusa Tenggara Bar. 84457","Sekongkang Atas, Kec. Sekongkang, Kabupaten Sumbawa Barat",NUSA TENGGARA BARAT,84457.0,Indonesia,,,,-8.9675711,116.7632163,https://maps.google.com/?cid=0x0:0x55f324cdaed21713,
perumahan,Komplek perumahan,Rumah HENDRA US BLOK E,"WXGJ+GP, Talonang Baru, Kec. Sekongkang, Kabupaten Sumbawa Barat, Nusa Tenggara Bar.","Kabupaten Sumbawa Barat, Nusa Tenggara Bar.",NUSA TENGGARA BARAT,,Indonesia,,,,-9.0736445,116.9818019,https://maps.google.com/?cid=0x0:0x8ae0710b83b0f569,
perumahan,Pembangunan Perumahan,Suhairi S.Pd,"XR7H+W22, Ai Kangkung, Kec. Sekongkang, Kabupaten Sumbawa Barat, Nusa Tenggara Bar. 84457","Ai Kangkung, Kec. Sekongkang, Kabupaten Sumbawa Barat",NUSA TENGGARA BARAT,84457.0,Indonesia,,,,-9.0352816,116.8282269,https://maps.google.com/?cid=0x0:0x6f0b9423e121e8c9,
perumahan,Hostel,Rumah dwik,"XR5M+3MC, Ai Kangkung, Kec. Sekongkang, Kabupaten Sumbawa Barat, Nusa Tenggara Bar. 84457","Ai Kangkung, Kec. Sekongkang, Kabupaten Sumbawa Barat",NUSA TENGGARA BARAT,84457.0,Indonesia,,,,-9.0423012,116.8341339,https://maps.google.com/?cid=0x0:0xb267e9923f27635a,
perumahan,Komplek perumahan,Rumah Sule ganteng,"2P7V+JGC, Sekongkang Bawah, Kec. Sekongkang, Kabupaten Sumbawa Barat, Nusa Tenggara Bar.","Kabupaten Sumbawa Barat, Nusa Tenggara Bar.",NUSA TENGGARA BARAT,,Indonesia,,,,-8.9859417,116.7437518,https://maps.google.com/?cid=0x0:0x10e19f8fce32daf5,
perumahan,Komplek perumahan,E housing,"2PJP+F7, Sekongkang Bawah, Kec. Sekongkang, Kabupaten Sumbawa Barat, Nusa Tenggara Bar.","Kabupaten Sumbawa Barat, Nusa Tenggara Bar.",NUSA TENGGARA BARAT,,Indonesia,,,,-8.9696176,116.7345127,https://maps.google.com/?cid=0x0:0x6179dddc2ab7dba3,
perumahan,Restoran,Mess Karyawan T6 AMNT,"2Q78+VFX, Sekongkang Atas, Kec. Sekongkang, Kabupaten Sumbawa Barat, Nusa Tenggara Bar. 84457","Sekongkang Atas, Kec. Sekongkang, Kabupaten Sumbawa Barat",NUSA TENGGARA BARAT,84457.0,Indonesia,,,,-8.9857252,116.7654794,https://maps.google.com/?cid=0x0:0xaa2335c1c0ab7064,
perumahan,Komplek perumahan,RUMAH PAK LUKMAN,"WXHJ+PX, Talonang Baru, Kec. Sekongkang, Kabupaten Sumbawa Barat, Nusa Tenggara Bar.","Kabupaten Sumbawa Barat, Nusa Tenggara Bar.",NUSA TENGGARA BARAT,,Indonesia,,,,-9.0706743,116.98243,https://maps.google.com/?cid=0x0:0xf937960df3e5228d,
perumahan,Tengara budaya,Tongo atas,"XRH4+43G, Jl. Raya Sejorong, Tongo, Kec. Sekongkang, Kabupaten Sumbawa Barat, Nusa Tenggara Bar. 84457","Jl. Raya Sejorong, Tongo, Kec. Sekongkang, Kabupaten Sumbawa Barat",NUSA TENGGARA BARAT,84457.0,Indonesia,,,,-9.0221937,116.805199,https://maps.google.com/?cid=0x0:0xfa23c585676b1fe3,
perumahan,perumahan,Nusa Tenggara Bar. 84458,"Kec. Brang Rea, Kabupaten Sumbawa Barat, Nusa Tenggara Bar.","Kabupaten Sumbawa Barat, Nusa Tenggara Bar.",NUSA TENGGARA BARAT,,Indonesia,,,,-8.6999135,117.0087877,https://maps.google.com/?cid=0x0:0xd32541cc680b77d1,
perumahan,Pembangunan Perumahan,Moteng,"8XG3+8FX, Lamuntet, Kec. Brang Rea, Kabupaten Sumbawa Barat, Nusa Tenggara Bar. 84458","Lamuntet, Kec. Brang Rea, Kabupaten Sumbawa Barat",NUSA TENGGARA BARAT,84458.0,Indonesia,,,,-8.6743245,116.9539576,https://maps.google.com/?cid=0x0:0xfd21c2e12e01e885,
perumahan,Toko bahan makanan,Rumah mapin rea,"CXC4+987, Mapin Rea, Kec. Alas Bar., Kabupaten Sumbawa, Nusa Tenggara Bar. 84353","Mapin Rea, Kec. Alas Bar., Kabupaten Sumbawa",NUSA TENGGARA BARAT,84353.0,Indonesia,,,,-8.5790886,116.9558067,https://maps.google.com/?cid=0x0:0xce29bfdefc807ec6,
perumahan,Komplek perumahan,Irsan,"8XG3+65, Lamuntet, Kec. Brang Rea, Kabupaten Sumbawa Barat, Nusa Tenggara Bar. 84458","Lamuntet, Kec. Brang Rea, Kabupaten Sumbawa Barat",NUSA TENGGARA BARAT,84458.0,Indonesia,,,,-8.674505,116.953483,https://maps.google.com/?cid=0x0:0x7fe81e1e233f2c36,
perumahan,Pembangunan Perumahan,Komplek dadara pitu,"62M3+V52, Tepas, Kec. Brang Rea, Kabupaten Sumbawa Barat, Nusa Tenggara Bar. 84458","Tepas, Kec. Brang Rea, Kabupaten Sumbawa Barat",NUSA TENGGARA BARAT,84458.0,Indonesia,,,,-8.7653524,117.0029015,https://maps.google.com/?cid=0x0:0xa519b8a9a95409ff,
perumahan,Komplek perumahan,Rangga Internasional,"7WP9+G7P, Tepas, Kec. Brang Rea, Kabupaten Sumbawa Barat, Nusa Tenggara Bar. 84458","Tepas, Kec. Brang Rea, Kabupaten Sumbawa Barat",NUSA TENGGARA BARAT,84458.0,Indonesia,,,,-8.7136561,116.9182047,https://maps.google.com/?cid=0x0:0xd3db16b8d1ae06a7,
perumahan,Pembangunan Perumahan,Azzam House,"8XG3+65, Lamuntet, Kec. Brang Rea, Kabupaten Sumbawa Barat, Nusa Tenggara Bar. 84458","Lamuntet, Kec. Brang Rea, Kabupaten Sumbawa Barat",NUSA TENGGARA BARAT,84458.0,Indonesia,,,,-8.6745021,116.9528987,https://maps.google.com/?cid=0x0:0xb558a17f83015353,
perumahan,Pembangunan Perumahan,Komplek dadara pitu,"7WJ8+9M6, Tepas, Kec. Brang Rea, Kabupaten Sumbawa Barat, Nusa Tenggara Bar. 84458","Tepas, Kec. Brang Rea, Kabupaten Sumbawa Barat",NUSA TENGGARA BARAT,84458.0,Indonesia,,,,-8.7190998,116.9166325,https://maps.google.com/?cid=0x0:0x26d018b1701a1605,
perumahan,perumahan,Amir,"7WP9+H49, Tepas, Kec. Brang Rea, Kabupaten Sumbawa Barat, Nusa Tenggara Bar.","Kabupaten Sumbawa Barat, Nusa Tenggara Bar.",NUSA TENGGARA BARAT,,Indonesia,,,,-8.7135824,116.9178603,https://maps.google.com/?cid=0x0:0x9c2f001461bb7886,
perumahan,Pembangunan Perumahan,BAITI,"7WP9+H57, Tepas, Kec. Brang Rea, Kabupaten Sumbawa Barat, Nusa Tenggara Bar.","Kabupaten Sumbawa Barat, Nusa Tenggara Bar.",NUSA TENGGARA BARAT,,Indonesia,,,,-8.7135824,116.9179084,https://maps.google.com/?cid=0x0:0x85f63849ea700e2b,
perumahan,Pembangunan Perumahan,Anjas anugrah,"8W9X+7P, Lamuntet, Kec. Brang Rea, Kabupaten Sumbawa Barat, Nusa Tenggara Bar. 84458","Lamuntet, Kec. Brang Rea, Kabupaten Sumbawa Barat",NUSA TENGGARA BARAT,84458.0,Indonesia,,,,-8.6819303,116.9493124,https://maps.google.com/?cid=0x0:0xb74eb672070383a,
perumahan,Komplek perumahan,Rumah pak Rt,"7W67+9HF, Seminar Salit, Kec. Brang Rea, Kabupaten Sumbawa Barat, Nusa Tenggara Bar. 84458","Seminar Salit, Kec. Brang Rea, Kabupaten Sumbawa Barat",NUSA TENGGARA BARAT,84458.0,Indonesia,,,,-8.7390705,116.9139283,https://maps.google.com/?cid=0x0:0xefcb76addb4f0032,
perumahan,Pembangunan Perumahan,Andre House,"8XG3+65, Lamuntet, Kec. Brang Rea, Kabupaten Sumbawa Barat, Nusa Tenggara Bar. 84458","Lamuntet, Kec. Brang Rea, Kabupaten Sumbawa Barat",NUSA TENGGARA BARAT,84458.0,Indonesia,85333349585.0,,,-8.674753,116.9532049,https://maps.google.com/?cid=0x0:0x860218ac34e5e849,
perumahan,Komplek perumahan,Evan ofrandah,"7WRG+VQ5, Tepas Sepakat, Kec. Brang Rea, Kabupaten Sumbawa Barat, Nusa Tenggara Bar. 84458","Tepas Sepakat, Kec. Brang Rea, Kabupaten Sumbawa Barat",NUSA TENGGARA BARAT,84458.0,Indonesia,,,,-8.7076123,116.9272019,https://maps.google.com/?cid=0x0:0xdbdffc8186c2863e,
perumahan,Komplek perumahan,Ardi Lucintaluna,"8XG3+65, Lamuntet, Kec. Brang Rea, Kabupaten Sumbawa Barat, Nusa Tenggara Bar. 84458","Lamuntet, Kec. Brang Rea, Kabupaten Sumbawa Barat",NUSA TENGGARA BARAT,84458.0,Indonesia,,,,-8.6745731,116.9529592,https://maps.google.com/?cid=0x0:0x53578a8c22df4d6d,
perumahan,Pembangunan Perumahan,Bale Dol/Mar,"7WXW+RV9, Bangkat Monteh, Kec. Brang Rea, Kabupaten Sumbawa Barat, Nusa Tenggara Bar. 84458","Bangkat Monteh, Kec. Brang Rea, Kabupaten Sumbawa Barat",NUSA TENGGARA BARAT,84458.0,Indonesia,82145431863.0,,,-8.6995461,116.9465824,https://maps.google.com/?cid=0x0:0xcef75fc6d8a88019,
perumahan,Komplek perumahan,Balai kuning,"8W6H+JP7 Jln. Erat moyang, RT./rw/RW.04/02, Moteng, Kec. Brang Rea, Kabupaten Sumbawa Barat, Nusa Tenggara Bar. 84458","RT./rw/RW.04/02, Moteng, Kec. Brang Rea, Kabupaten Sumbawa Barat",NUSA TENGGARA BARAT,84458.0,Indonesia,,,,-8.6884644,116.9293112,https://maps.google.com/?cid=0x0:0x1752b08e376601a2,
perumahan,perumahan,RUMAH JAWA BANI,"FXGX+MX8, Juranalas, Kec. Alas, Kabupaten Sumbawa, Nusa Tenggara Bar. 84353","Juranalas, Kec. Alas, Kabupaten Sumbawa",NUSA TENGGARA BARAT,84353.0,Indonesia,,,,-8.5228592,116.9992542,https://maps.google.com/?cid=0x0:0xaddadeb1b35cfee7,
perumahan,Kantor Pemerintah,SALIT BRANG REA,"6WGX+6XM, Seminar Salit, Kec. Brang Rea, Kabupaten Sumbawa Barat, Nusa Tenggara Bar. 84455","Seminar Salit, Kec. Brang Rea, Kabupaten Sumbawa Barat",NUSA TENGGARA BARAT,84455.0,Indonesia,,,,-8.774419,116.9499191,https://maps.google.com/?cid=0x0:0xf4a5ed6d989144e1,
perumahan,Kompleks Kondominium,Bree,"7V8W+JQF, Sapugara Bree, Kec. Brang Rea, Kabupaten Sumbawa Barat, Nusa Tenggara Bar. 84455","Sapugara Bree, Kec. Brang Rea, Kabupaten Sumbawa Barat",NUSA TENGGARA BARAT,84455.0,Indonesia,,,,-8.7334339,116.8969234,https://maps.google.com/?cid=0x0:0x6bbd0b6cad6de98b,
perumahan,Rumah Kaca,Rumah Adit Sawit,"7V8W+64V, Jalan, Sapugara Bree, Kec. Brang Rea, Kabupaten Sumbawa Barat, Nusa Tenggara Bar. 84455","Jalan, Sapugara Bree, Kec. Brang Rea, Kabupaten Sumbawa Barat",NUSA TENGGARA BARAT,84455.0,Indonesia,,,,-8.7339765,116.8955096,https://maps.google.com/?cid=0x0:0x6c637ae38f6c5d26,
perumahan,Perhimpunan Pengembang Perumahan,Rumah Pak Ayang,"74F9+9RM, Mungkin, Kec. Orong Telu, Kabupaten Sumbawa, Nusa Tenggara Bar.","Kabupaten Sumbawa, Nusa Tenggara Bar.",NUSA TENGGARA BARAT,,Indonesia,,,,-8.7265419,117.1195356,https://maps.google.com/?cid=0x0:0x6f6151229ac26d3c,
perumahan,perumahan,Nusa Tenggara Bar. 84454,"Kec. Seteluk, Kabupaten Sumbawa Barat, Nusa Tenggara Bar.","Kabupaten Sumbawa Barat, Nusa Tenggara Bar.",NUSA TENGGARA BARAT,,Indonesia,,,,-8.5906982,116.8674757,https://maps.google.com/?cid=0x0:0xabcb20c0c162b41d,
perumahan,Rumah wisata,Perumahan cluster Poto Tano,"FR9M+GMR, Jl. Raya Labuhan Poto Tano, Poto Tano, Kec. Poto Tano, Kabupaten Sumbawa Barat, Nusa Tenggara Bar. 84454","Jl. Raya Labuhan Poto Tano, Poto Tano, Kec. Poto Tano, Kabupaten Sumbawa Barat",NUSA TENGGARA BARAT,84454.0,Indonesia,,,,-8.5311403,116.8341447,https://maps.google.com/?cid=0x0:0xa7e3af0db17c417c,
perumahan,Kantor Perusahaan,Desa Tebo Kecamatan Poto Tano KSBNTB,"CV36+GJW, Tebo, Kec. Poto Tano, Kabupaten Sumbawa Barat, Nusa Tenggara Bar. 84454","Tebo, Kec. Poto Tano, Kabupaten Sumbawa Barat",NUSA TENGGARA BARAT,84454.0,Indonesia,,,,-8.5961332,116.8615857,https://maps.google.com/?cid=0x0:0x77922da905409823,
perumahan,Perhimpunan Pengembang Perumahan,Bale gino,"FR9M+GMR, Jl. Raya Labuhan Poto Tano, Poto Tano, Kec. Poto Tano, Kabupaten Sumbawa Barat, Nusa Tenggara Bar. 84454","Jl. Raya Labuhan Poto Tano, Poto Tano, Kec. Poto Tano, Kabupaten Sumbawa Barat",NUSA TENGGARA BARAT,84454.0,Indonesia,,,,-8.530659,116.833755,https://maps.google.com/?cid=0x0:0x575ab322aeddb458,
perumahan,Layanan Feri,Pelabuhan Poto Tano,"Poto Tano, Kec. Poto Tano, Kabupaten Sumbawa Barat, Nusa Tenggara Bar. 84454","Kec. Poto Tano, Kabupaten Sumbawa Barat",NUSA TENGGARA BARAT,84454.0,Indonesia,,,,-8.5221101,116.8310684,https://maps.google.com/?cid=0x0:0x11aef0438686cad0,
perumahan,Terminal Feri,Pelabuhan Poto tano,"FR3Q+3GV, Jl. Raya Labuhan Poto Tano, Upt Tambak Sari, Kec. Poto Tano, Kabupaten Sumbawa Barat, Nusa Tenggara Bar. 84454","Jl. Raya Labuhan Poto Tano, Upt Tambak Sari, Kec. Poto Tano, Kabupaten Sumbawa Barat",NUSA TENGGARA BARAT,84454.0,Indonesia,,,,-8.5472675,116.8387967,https://maps.google.com/?cid=0x0:0xf98f3dae27f2d4e2,
perumahan,Kantor Pemerintah,Kantor Desa Tua Nanga,"9Q3G+PFJ, Tua Nanga, Kec. Poto Tano, Kabupaten Sumbawa Barat, Nusa Tenggara Bar. 84454","Tua Nanga, Kec. Poto Tano, Kabupaten Sumbawa Barat",NUSA TENGGARA BARAT,84454.0,Indonesia,,,,-8.6463236,116.7764506,https://maps.google.com/?cid=0x0:0x525d4c0bf525050,
perumahan,perumahan,rumah fotocopy,"7RMG+J77, Batu Putih, Kec. Taliwang, Kabupaten Sumbawa Barat, Nusa Tenggara Bar.","Kabupaten Sumbawa Barat, Nusa Tenggara Bar.",NUSA TENGGARA BARAT,,Indonesia,,,,-8.715972,116.8256788,https://maps.google.com/?cid=0x0:0x26dcfc46c14fa35a,
perumahan,Pembangunan Perumahan,Wira Yudha Yudhi,"9RRX+2PR, Senayan, Kec. Poto Tano, Kabupaten Sumbawa Barat, Nusa Tenggara Bar.","Kabupaten Sumbawa Barat, Nusa Tenggara Bar.",NUSA TENGGARA BARAT,,Indonesia,,,,-8.6098832,116.849267,https://maps.google.com/?cid=0x0:0xb43117582c30191d,
perumahan,Perhimpunan Pengembang Perumahan,MES BPTD NTB,"Jl. Raya Labuhan Poto Tano, Poto Tano, Kec. Poto Tano, Kabupaten Sumbawa Barat, Nusa Tenggara Bar. 84454","Poto Tano, Kec. Poto Tano, Kabupaten Sumbawa Barat",NUSA TENGGARA BARAT,84454.0,Indonesia,,,,-8.52211,116.8310684,https://maps.google.com/?cid=0x0:0x68ed5557072f6dd9,
perumahan,Komplek perumahan,Rumah nurkiya,"9VP2+R9C, Senayan, Kec. Poto Tano, Kabupaten Sumbawa Barat, Nusa Tenggara Bar. 84454","Senayan, Kec. Poto Tano, Kabupaten Sumbawa Barat",NUSA TENGGARA BARAT,84454.0,Indonesia,,,,-8.6128812,116.8505682,https://maps.google.com/?cid=0x0:0xedc352cc343bfdfb,
perumahan,perumahan,Alas,"9VQ2+G95, Senayan, Kec. Poto Tano, Kabupaten Sumbawa Barat, Nusa Tenggara Bar.","Kabupaten Sumbawa Barat, Nusa Tenggara Bar.",NUSA TENGGARA BARAT,,Indonesia,,,,-8.6112479,116.8509959,https://maps.google.com/?cid=0x0:0xf2f74b7220ae1111,
perumahan,Terminal Feri,Dermaga Rakyat Poto Tano,"FRCM+M6H, Unnamed Road, Poto Tano, West Sumbawa Regency, West Nusa Tenggara 84454","Unnamed Road, Poto Tano, West Sumbawa Regency",NUSA TENGGARA BARAT,84454.0,Indonesia,,,,-8.52831,116.8331224,https://maps.google.com/?cid=0x0:0x4085e1b57627e858,
perumahan,perumahan,RUMAH ARZILA,"FW76+GFQ desa mapin beruk, Jalan raya, Labuan Mapin, Kec. Poto Tano, Kabupaten Sumbawa, Nusa Tenggara Bar.","Kabupaten Sumbawa, Nusa Tenggara Bar.",NUSA TENGGARA BARAT,,Indonesia,,,,-8.5361738,116.9112374,https://maps.google.com/?cid=0x0:0x432817bd6c4e6e1f,
perumahan,Perhimpunan Pengembang Perumahan,Putra mandiri,"CVWF+7R8, Jl. Raya Senayan Poto Tano, Kokar Lian, Kec. Poto Tano, Kabupaten Sumbawa Barat, Nusa Tenggara Bar. 84454","Jl. Raya Senayan Poto Tano, Kokar Lian, Kec. Poto Tano, Kabupaten Sumbawa Barat",NUSA TENGGARA BARAT,84454.0,Indonesia,,,,-8.5543386,116.8745813,https://maps.google.com/?cid=0x0:0xf06b797bf9df95d0,
perumahan,Komplek perumahan,RUMAH HARI SYAPUTRA,"9QWX+Q4F, Kiantar, Kec. Poto Tano, Kabupaten Sumbawa Barat, Nusa Tenggara Bar.","Kabupaten Sumbawa Barat, Nusa Tenggara Bar.",NUSA TENGGARA BARAT,,Indonesia,,,,-8.6031882,116.7982969,https://maps.google.com/?cid=0x0:0x95a77831006e7f96,
perumahan,Pelabuhan,Penyeberangan Pototano - Kayangan,"FRHJ+6HF, Jl. Raya Poto Tano, Labuhan Lombok, Kec. Poto Tano, Kabupaten Sumbawa Barat, Nusa Tenggara Bar. 84454","Jl. Raya Poto Tano, Labuhan Lombok, Kec. Poto Tano, Kabupaten Sumbawa Barat",NUSA TENGGARA BARAT,84454.0,Indonesia,,,,-8.5219306,116.8314373,https://maps.google.com/?cid=0x0:0x5ee459dc124ec4d5,
perumahan,perumahan,Lista cantiwkk,"CVVF+V8H, Kokar Lian, Kec. Poto Tano, Kabupaten Sumbawa Barat, Nusa Tenggara Bar. 84454","Kokar Lian, Kec. Poto Tano, Kabupaten Sumbawa Barat",NUSA TENGGARA BARAT,84454.0,Indonesia,,,,-8.5553108,116.8733656,https://maps.google.com/?cid=0x0:0xbb7afb72e0b1d07d,
perumahan,Jembatan,JEMBATAN KEMAR,"9RVW+MQX, Jalan Raya, Senayan, Kec. Poto Tano, Kabupaten Sumbawa Barat, Nusa Tenggara Bar. 84454","Jalan Raya, Senayan, Kec. Poto Tano, Kabupaten Sumbawa Barat",NUSA TENGGARA BARAT,84454.0,Indonesia,,,,-8.6057659,116.8469804,https://maps.google.com/?cid=0x0:0x28850d68d4d0bfe4,
perumahan,Pembangunan Perumahan,Makasau,"FRCJ+9JV, Jl. Raya Poto Tano, Poto Tano, Kec. Poto Tano, Kabupaten Sumbawa Barat, Nusa Tenggara Bar. 84454","Jl. Raya Poto Tano, Poto Tano, Kec. Poto Tano, Kabupaten Sumbawa Barat",NUSA TENGGARA BARAT,84454.0,Indonesia,,,,-8.5290156,116.8315412,https://maps.google.com/?cid=0x0:0xb519332ad5d06929,
perumahan,Rumah wisata,Rumah Kenawa,"FRFJ+MG3, Jl. Raya Labuhan Poto Tano, Poto Tano, Kec. Poto Tano, Kabupaten Sumbawa Barat, Nusa Tenggara Bar. 84454","Jl. Raya Labuhan Poto Tano, Poto Tano, Kec. Poto Tano, Kabupaten Sumbawa Barat",NUSA TENGGARA BARAT,84454.0,Indonesia,82147822822.0,,,-8.5259257,116.8309287,https://maps.google.com/?cid=0x0:0x4cf20401d3bc4c21,
perumahan,Toko Buah dan Sayuran,Rumah sayur MAS FREE,"CVV5+CV5, Kokar Lian, Kec. Poto Tano, Kabupaten Sumbawa Barat, Nusa Tenggara Bar. 84454","Kokar Lian, Kec. Poto Tano, Kabupaten Sumbawa Barat",NUSA TENGGARA BARAT,84454.0,Indonesia,,,,-8.5564993,116.8597219,https://maps.google.com/?cid=0x0:0xff992480fa3a6f6c,
perumahan,perumahan,Nusa Tenggara Bar. 84455,"Kabupaten Sumbawa Barat, Nusa Tenggara Bar.","Kabupaten Sumbawa Barat, Nusa Tenggara Bar.",NUSA TENGGARA BARAT,,Indonesia,,,,-8.7907453,116.8674757,https://maps.google.com/?cid=0x0:0x5fda0016832273b3,
perumahan,Komplek perumahan,Rumah ku,"6VHH+8R6, Unnamed Road, Mura, Kec. Brang Ene, Kabupaten Sumbawa Barat, Nusa Tenggara Bar. 84455","Unnamed Road, Mura, Kec. Brang Ene, Kabupaten Sumbawa Barat",NUSA TENGGARA BARAT,84455.0,Indonesia,,,,-8.7717058,116.8795038,https://maps.google.com/?cid=0x0:0x2a2cbc50e639e001,
perumahan,Pertanian,Lang bere,"6V98+MC2, Manemeng, Kec. Brang Ene, Kabupaten Sumbawa Barat, Nusa Tenggara Bar. 84455","Manemeng, Kec. Brang Ene, Kabupaten Sumbawa Barat",NUSA TENGGARA BARAT,84455.0,Indonesia,,,,-8.7808643,116.8660066,https://maps.google.com/?cid=0x0:0x467a09c6c28d360,
perumahan,Pembangunan Perumahan,Herman house,"6W57+FX, Mujahiddin, Kec. Brang Ene, Kabupaten Sumbawa Barat, Nusa Tenggara Bar. 84455","Mujahiddin, Kec. Brang Ene, Kabupaten Sumbawa Barat",NUSA TENGGARA BARAT,84455.0,Indonesia,,,,-8.791284,116.9149777,https://maps.google.com/?cid=0x0:0x67076c13dc9d79bc,
perumahan,Pembangunan Perumahan,simon,"Unnamed Road, Manemeng, Kec. Brang Ene, Kabupaten Sumbawa Barat, Nusa Tenggara Bar. 84455","Manemeng, Kec. Brang Ene, Kabupaten Sumbawa Barat",NUSA TENGGARA BARAT,84455.0,Indonesia,,,,-8.7811854,116.8611076,https://maps.google.com/?cid=0x0:0xc269d69ef35da75f,
perumahan,Pembangunan Perumahan,Dodi Tin,"6VCW+MVM, Lampok, Kec. Brang Ene, Kabupaten Sumbawa Barat, Nusa Tenggara Bar. 84455","Lampok, Kec. Brang Ene, Kabupaten Sumbawa Barat",NUSA TENGGARA BARAT,84455.0,Indonesia,,,,-8.7781849,116.8972386,https://maps.google.com/?cid=0x0:0xfa02e4123d8c260b,
perumahan,Komplek perumahan,Rumah Detha dan Atha,"6VHF+P62, Jl. Pd. Pesantren, Mura, Kec. Brang Ene, Kabupaten Sumbawa Barat, Nusa Tenggara Bar. 84455","Jl. Pd. Pesantren, Mura, Kec. Brang Ene, Kabupaten Sumbawa Barat",NUSA TENGGARA BARAT,84455.0,Indonesia,,,,-8.770726,116.8730283,https://maps.google.com/?cid=0x0:0xd25d6857bd71ec2,
perumahan,Komplek perumahan,Rumah Chand,"6V8P+X65, Kalimantong, Kec. Brang Ene, Kabupaten Sumbawa Barat, Nusa Tenggara Bar. 84455","Kalimantong, Kec. Brang Ene, Kabupaten Sumbawa Barat",NUSA TENGGARA BARAT,84455.0,Indonesia,,,,-8.7826115,116.8856196,https://maps.google.com/?cid=0x0:0x3a7a636bb2ffe677,
perumahan,Komplek perumahan,Perumahan Graha Bintang Perdana,"7R4G+898, Banjar, Kec. Taliwang, Kabupaten Sumbawa Barat, Nusa Tenggara Bar. 84455","Banjar, Kec. Taliwang, Kabupaten Sumbawa Barat",NUSA TENGGARA BARAT,84455.0,Indonesia,,,,-8.7442117,116.8259564,https://maps.google.com/?cid=0x0:0x8ce715ac2dcbcb7c,
perumahan,Pembangunan Perumahan,Olat rarang,"Olat rarang btn, Manemeng, Kec. Brang Ene, Kabupaten Sumbawa Barat, Nusa Tenggara Bar. 84455","Manemeng, Kec. Brang Ene, Kabupaten Sumbawa Barat",NUSA TENGGARA BARAT,84455.0,Indonesia,,,,-8.8236111,116.8808333,https://maps.google.com/?cid=0x0:0x7991c66e277b2999,
perumahan,Komplek perumahan,Bale Edy Priantara,"6V8W+XXP, Jl. Desa Fajar, Mujahiddin, Kec. Brang Ene, Kabupaten Sumbawa Barat, Nusa Tenggara Bar. 84455","Jl. Desa Fajar, Mujahiddin, Kec. Brang Ene, Kabupaten Sumbawa Barat",NUSA TENGGARA BARAT,84455.0,Indonesia,,,,-8.7825374,116.8974495,https://maps.google.com/?cid=0x0:0x468848aa940172c7,
perumahan,Komplek perumahan,Rumah bagas,"7R4W+99R, Jl. Reformasi I, Dalam, Kec. Taliwang, Kabupaten Sumbawa Barat, Nusa Tenggara Bar. 84455","Jl. Reformasi I, Dalam, Kec. Taliwang, Kabupaten Sumbawa Barat",NUSA TENGGARA BARAT,84455.0,Indonesia,,,,-8.7440254,116.8459561,https://maps.google.com/?cid=0x0:0xfc43501cfbb605cd,
perumahan,Komplek perumahan,Rumah Rizka negara Karpo,"7V25+X9C, Menala, Kec. Taliwang, Kabupaten Sumbawa Barat, Nusa Tenggara Bar. 84455","Menala, Kec. Taliwang, Kabupaten Sumbawa Barat",NUSA TENGGARA BARAT,84455.0,Indonesia,,,,-8.7475602,116.8584059,https://maps.google.com/?cid=0x0:0x96e0052e3054b264,
perumahan,Pembangunan Perumahan,Rumah Wandi,"7R3X+PX9, Lingkungan Tiang Enam, Kuang, Kec. Taliwang, Kabupaten Sumbawa Barat, Nusa Tenggara Bar. 84455","Lingkungan Tiang Enam, Kuang, Kec. Taliwang, Kabupaten Sumbawa Barat",NUSA TENGGARA BARAT,84455.0,Indonesia,,,,-8.7457088,116.8499952,https://maps.google.com/?cid=0x0:0x874c1d5d6c2742ea,
perumahan,Komplek perumahan,Rumah IRMA DEDI,"6VHH+FHR, Mura, Kec. Brang Ene, Kabupaten Sumbawa Barat, Nusa Tenggara Bar. 84455","Mura, Kec. Brang Ene, Kabupaten Sumbawa Barat",NUSA TENGGARA BARAT,84455.0,Indonesia,,,,-8.7712718,116.8788895,https://maps.google.com/?cid=0x0:0x30ffe641e99ab479,
perumahan,Pembangunan Perumahan,Bale Opi,"6V8M+98P, Kalimantong, Kec. Brang Ene, Kabupaten Sumbawa Barat, Nusa Tenggara Bar. 84455","Kalimantong, Kec. Brang Ene, Kabupaten Sumbawa Barat",NUSA TENGGARA BARAT,84455.0,Indonesia,,,,-8.7840257,116.8833409,https://maps.google.com/?cid=0x0:0x22d7065e4b5325e2,
perumahan,Komplek perumahan,Gio Febrian Hous,"6V96+F6F, Manemeng, Kec. Brang Ene, Kabupaten Sumbawa Barat, Nusa Tenggara Bar. 84455","Manemeng, Kec. Brang Ene, Kabupaten Sumbawa Barat",NUSA TENGGARA BARAT,84455.0,Indonesia,,,,-8.7811548,116.8615383,https://maps.google.com/?cid=0x0:0x1e53a80a9360fdf9,
perumahan,Komplek perumahan,Karang Poto,"RT. 02/08 Lingk. Kemutar telu, Menala, Kec. Taliwang, Kabupaten Sumbawa Barat, Nusa Tenggara Bar. 84455","Menala, Kec. Taliwang, Kabupaten Sumbawa Barat",NUSA TENGGARA BARAT,84455.0,Indonesia,,,,-8.7471916,116.8577063,https://maps.google.com/?cid=0x0:0xa809e3116db12b70,
perumahan,Perhimpunan Pengembang Perumahan,Bale pak asrul,"6WC2+9FX, Lampok, Kec. Brang Ene, Kabupaten Sumbawa Barat, Nusa Tenggara Bar. 84455","Lampok, Kec. Brang Ene, Kabupaten Sumbawa Barat",NUSA TENGGARA BARAT,84455.0,Indonesia,,,,-8.7799409,116.9014555,https://maps.google.com/?cid=0x0:0xdd8830920ad31774,
perumahan,Komplek perumahan,Sumbawa Barat,"6V4P+63J, Kalimantong, Kec. Brang Ene, Kabupaten Sumbawa Barat, Nusa Tenggara Bar. 84455","Kalimantong, Kec. Brang Ene, Kabupaten Sumbawa Barat",NUSA TENGGARA BARAT,84455.0,Indonesia,,,,-8.7944008,116.8851448,https://maps.google.com/?cid=0x0:0xf871b586e3fa02ac,
perumahan,Perhimpunan Pengembang Perumahan,ASHAR,"5W56+J3V, Mataiyang, Kec. Brang Ene, Kabupaten Sumbawa Barat, Nusa Tenggara Bar. 84455","Mataiyang, Kec. Brang Ene, Kabupaten Sumbawa Barat",NUSA TENGGARA BARAT,84455.0,Indonesia,,,,-8.8408932,116.9101694,https://maps.google.com/?cid=0x0:0xfe43b079c9e8e12b,
perumahan,Kantor Pemerintah,SALIT BRANG REA,"6WGX+6XM, Seminar Salit, Kec. Brang Rea, Kabupaten Sumbawa Barat, Nusa Tenggara Bar. 84455","Seminar Salit, Kec. Brang Rea, Kabupaten Sumbawa Barat",NUSA TENGGARA BARAT,84455.0,Indonesia,,,,-8.774419,116.9499191,https://maps.google.com/?cid=0x0:0xf4a5ed6d989144e1,
perumahan,Komplek perumahan,Rumah irhamsyah,"6VCX+9WV, Lampok, Kec. Brang Ene, Kabupaten Sumbawa Barat, Nusa Tenggara Bar. 84455","Lampok, Kec. Brang Ene, Kabupaten Sumbawa Barat",NUSA TENGGARA BARAT,84455.0,Indonesia,,,,-8.7790126,116.8997832,https://maps.google.com/?cid=0x0:0x5c45be4ff15ff015,
perumahan,Gedung Apartemen,Rumah Ellen,"7V55+H62, Sampir, Kec. Taliwang, Kabupaten Sumbawa Barat, Nusa Tenggara Bar. 84455","Sampir, Kec. Taliwang, Kabupaten Sumbawa Barat",NUSA TENGGARA BARAT,84455.0,Indonesia,,,,-8.7411083,116.8580057,https://maps.google.com/?cid=0x0:0x2e67c372370c728,
perumahan,Komplek perumahan,Rumah abdurrahman mancis,"6R8C+P9J, Telaga Bertong, Kec. Taliwang, Kabupaten Sumbawa Barat, Nusa Tenggara Bar. 84455","Telaga Bertong, Kec. Taliwang, Kabupaten Sumbawa Barat",NUSA TENGGARA BARAT,84455.0,Indonesia,,,,-8.783018,116.8219832,https://maps.google.com/?cid=0x0:0x10afa7a1c3d1b64,
perumahan,Komplek perumahan,ROOM HANTU,"Jl. Pd. Pesantren, Menala, Kec. Taliwang, Kabupaten Sumbawa Barat, Nusa Tenggara Bar. 84455","Menala, Kec. Taliwang, Kabupaten Sumbawa Barat",NUSA TENGGARA BARAT,84455.0,Indonesia,,,,-8.7576956,116.8622148,https://maps.google.com/?cid=0x0:0xe02cc7c80759e348,
perumahan,Vila,Grand Housing Maluk,"Maluk, Kec. Maluk, Kabupaten Sumbawa Barat, Nusa Tenggara Bar. 84456","Kec. Maluk, Kabupaten Sumbawa Barat",NUSA TENGGARA BARAT,84456.0,Indonesia,82147935511.0,,,-8.9204763,116.7552689,https://maps.google.com/?cid=0x0:0xdc5c908b8093b037,
perumahan,Otoritas Perumahan,Komplek Perumahan BTN MALUK INDAH,"3PPV+MGQ, Mantun, Kec. Maluk, Kabupaten Sumbawa Barat, Nusa Tenggara Bar. 84456","Mantun, Kec. Maluk, Kabupaten Sumbawa Barat",NUSA TENGGARA BARAT,84456.0,Indonesia,,,,-8.9132858,116.7438594,https://maps.google.com/?cid=0x0:0xeedc32aaae646afd,
perumahan,perumahan,Maluk Surfhouse,"Jl. Raya Pasir Putih, Pasir Putih, Maluk, West Sumbawa Regency, West Nusa Tenggara 84456","Pasir Putih, Maluk, West Sumbawa Regency",NUSA TENGGARA BARAT,84456.0,Indonesia,85339291109.0,,,-8.9161609,116.7475389,https://maps.google.com/?cid=0x0:0xa56457ef50fc543,
perumahan,perumahan,Merdeka House,"Pasir Putih, Kec. Maluk, Kabupaten Sumbawa Barat, Nusa Tenggara Bar. 84456","Kec. Maluk, Kabupaten Sumbawa Barat",NUSA TENGGARA BARAT,84456.0,Indonesia,82247417866.0,,,-8.9283108,116.7498848,https://maps.google.com/?cid=0x0:0xfefff27543a96f7e,
perumahan,perumahan,Maluk House,"Selatan, RT.13/RW.03, Pasir Putih, Kec. Maluk, Kabupaten Sumbawa Barat, Nusa Tenggara Bar. 84456","RT.13/RW.03, Pasir Putih, Kec. Maluk, Kabupaten Sumbawa Barat",NUSA TENGGARA BARAT,84456.0,Indonesia,81339778622.0,,,-8.9290097,116.750274,https://maps.google.com/?cid=0x0:0xbed1f8036c06c54b,
perumahan,perumahan,Maluk,"Kec. Maluk, Kabupaten Sumbawa Barat, Nusa Tenggara Bar.","Kabupaten Sumbawa Barat, Nusa Tenggara Bar.",NUSA TENGGARA BARAT,,Indonesia,,,,-8.9238233,116.7673237,https://maps.google.com/?cid=0x0:0x47ef5cc6638a6493,
perumahan,Pembangunan Perumahan,Al-Limungi People,"3PQX+CFQ, Mantun, Kec. Maluk, Kabupaten Sumbawa Barat, Nusa Tenggara Bar. 84456","Mantun, Kec. Maluk, Kabupaten Sumbawa Barat",NUSA TENGGARA BARAT,84456.0,Indonesia,,,,-8.9114166,116.7487331,https://maps.google.com/?cid=0x0:0xade75ae34f7413a7,
perumahan,Komplek perumahan,Kos pikri,"3QM3+C7G, Maluk, Kec. Maluk, Kabupaten Sumbawa Barat, Nusa Tenggara Bar. 84456","Maluk, Kec. Maluk, Kabupaten Sumbawa Barat",NUSA TENGGARA BARAT,84456.0,Indonesia,,,,-8.9163784,116.7532506,https://maps.google.com/?cid=0x0:0x53808b2c9acfe19e,
perumahan,Komplek perumahan,Maluk loka,"3QJ4+F7W, Maluk, Kec. Maluk, Kabupaten Sumbawa Barat, Nusa Tenggara Bar. 84456","Maluk, Kec. Maluk, Kabupaten Sumbawa Barat",NUSA TENGGARA BARAT,84456.0,Indonesia,,,,-8.9187652,116.7556984,https://maps.google.com/?cid=0x0:0x4f58b1667f18a5d1,
perumahan,Otoritas Perumahan,BTN Trophy,"3QF5+G5X, Pasir Putih, Kec. Maluk, Kabupaten Sumbawa Barat, Nusa Tenggara Bar. 84456","Pasir Putih, Kec. Maluk, Kabupaten Sumbawa Barat",NUSA TENGGARA BARAT,84456.0,Indonesia,,,,-8.9261292,116.7579942,https://maps.google.com/?cid=0x0:0x178be78d592f1924,
perumahan,Kompleks Kondominium,Rumah Suparno/Herda irawati,"Dusun mekar sari Jl. Mangga No.rt03/01, Bukit Damai, Kec. Maluk, Kabupaten Sumbawa Barat, Nusa Tenggara Bar. 84456","Bukit Damai, Kec. Maluk, Kabupaten Sumbawa Barat",NUSA TENGGARA BARAT,84456.0,Indonesia,,,,-8.9104255,116.7516731,https://maps.google.com/?cid=0x0:0x6e23d5d463a97ed9,
perumahan,Komplek perumahan,Mes MJB Maluk,"3QJ4+HR6, Maluk, Kec. Maluk, Kabupaten Sumbawa Barat, Nusa Tenggara Bar. 84456","Maluk, Kec. Maluk, Kabupaten Sumbawa Barat",NUSA TENGGARA BARAT,84456.0,Indonesia,,,,-8.9185766,116.7570301,https://maps.google.com/?cid=0x0:0xac0d590486c8af24,
perumahan,Otoritas Perumahan,Btn Mutiara Pasir Putih Maluk,"3PPX+J83, Pasir Putih, Kec. Maluk, Kabupaten Sumbawa Barat, Nusa Tenggara Bar. 84456","Pasir Putih, Kec. Maluk, Kabupaten Sumbawa Barat",NUSA TENGGARA BARAT,84456.0,Indonesia,,,,-8.9134972,116.7482927,https://maps.google.com/?cid=0x0:0x5232dc6a36649b00,
perumahan,Pembangunan Perumahan,My home,"3QQ2+7XJ, Bukit Damai, Kec. Maluk, Kabupaten Sumbawa Barat, Nusa Tenggara Bar. 84456","Bukit Damai, Kec. Maluk, Kabupaten Sumbawa Barat",NUSA TENGGARA BARAT,84456.0,Indonesia,,,,-8.9117841,116.7523812,https://maps.google.com/?cid=0x0:0x899a0cdcd7464fde,
perumahan,Komplek perumahan,ZULKARNAIN,"3QM4+PC5, Maluk, Kec. Maluk, Kabupaten Sumbawa Barat, Nusa Tenggara Bar. 84456","Maluk, Kec. Maluk, Kabupaten Sumbawa Barat",NUSA TENGGARA BARAT,84456.0,Indonesia,,,,-8.9157444,116.7560951,https://maps.google.com/?cid=0x0:0x111b2d133669ccbc,
perumahan,Komplek perumahan,Tanah,"3QQ2+3R5, Jl. Mangga, Bukit Damai, Kec. Maluk, Kabupaten Sumbawa Barat, Nusa Tenggara Bar. 84456","Jl. Mangga, Bukit Damai, Kec. Maluk, Kabupaten Sumbawa Barat",NUSA TENGGARA BARAT,84456.0,Indonesia,,,,-8.912356,116.7521242,https://maps.google.com/?cid=0x0:0xce190d88a8841b81,
perumahan,Otoritas Perumahan,Alita,"3PQX+4PP, Unnamed Road, Mantun, Kec. Maluk, Kabupaten Sumbawa Barat, Nusa Tenggara Bar. 84456","Unnamed Road, Mantun, Kec. Maluk, Kabupaten Sumbawa Barat",NUSA TENGGARA BARAT,84456.0,Indonesia,,,,-8.9121686,116.7493131,https://maps.google.com/?cid=0x0:0x1e37f12f8cff079e,
perumahan,Komplek perumahan,Kadir,"3Q85+54G, Jl. Maluk - Sekongkang, Maluk, Kec. Maluk, Kabupaten Sumbawa Barat, Nusa Tenggara Bar. 84456","Jl. Maluk - Sekongkang, Maluk, Kec. Maluk, Kabupaten Sumbawa Barat",NUSA TENGGARA BARAT,84456.0,Indonesia,,,,-8.9345621,116.7578386,https://maps.google.com/?cid=0x0:0x9aa60ddfbb5b96f8,
perumahan,Hotel,Kost Pondok Elen,"Bukit Damai, Kec. Maluk, Kabupaten Sumbawa Barat, Nusa Tenggara Bar. 84456","Kec. Maluk, Kabupaten Sumbawa Barat",NUSA TENGGARA BARAT,84456.0,Indonesia,85253094531.0,,,-8.9101967,116.7531432,https://maps.google.com/?cid=0x0:0xec8a9dbecfb003df,
perumahan,Komplek perumahan,Rumah,"3QP2+VX6, Maluk, Kec. Maluk, Kabupaten Sumbawa Barat, Nusa Tenggara Bar. 84456","Maluk, Kec. Maluk, Kabupaten Sumbawa Barat",NUSA TENGGARA BARAT,84456.0,Indonesia,,,,-8.9128494,116.7523886,https://maps.google.com/?cid=0x0:0x7701404dc9a4bcee,
perumahan,perumahan,SuperSuck Hotel,"Sekongkang, Sekongkang Bawah, Kec. Maluk, sumbawa, Nusa Tenggara Bar.","sumbawa, Nusa Tenggara Bar.",NUSA TENGGARA BARAT,,Indonesia,,,,-8.9303284,116.7460245,https://maps.google.com/?cid=0x0:0xd776bc40395bc9ab,
perumahan,perumahan,Maluk Stay,"Bukit Damai, Kec. Maluk, Kabupaten Sumbawa Barat, Nusa Tenggara Bar. 84459","Kec. Maluk, Kabupaten Sumbawa Barat",NUSA TENGGARA BARAT,84459.0,Indonesia,82220333896.0,,,-8.9122804,116.751775,https://maps.google.com/?cid=0x0:0x20085915e550b003,
perumahan,perumahan,Castaway Surf Retreat,"Jl. Raya Rantung, Sekongkang Bawah, Kec. Sekongkang, Kabupaten Sumbawa Barat, Nusa Tenggara Bar.","Kabupaten Sumbawa Barat, Nusa Tenggara Bar.",NUSA TENGGARA BARAT,,Indonesia,81138113331.0,,,-8.9789824,116.737397,https://maps.google.com/?cid=0x0:0xeb159f92381f08a8,
perumahan,perumahan,Kahurangi,"2PGQ+2J, Sekongkang Bawah, Kec. Sekongkang, Kabupaten Sumbawa Barat, Nusa Tenggara Bar.","Kabupaten Sumbawa Barat, Nusa Tenggara Bar.",NUSA TENGGARA BARAT,,Indonesia,82236744204.0,,,-8.9749954,116.7390895,https://maps.google.com/?cid=0x0:0x2e95a4c7192fcde9,
perumahan,perumahan,Outside Bungalow,"Jalan lingkar selatan, Sekongkang Bawah, Kec. Sekongkang, Kabupaten Sumbawa Barat, Nusa Tenggara Bar. 84457","Sekongkang Bawah, Kec. Sekongkang, Kabupaten Sumbawa Barat",NUSA TENGGARA BARAT,84457.0,Indonesia,,,,-8.9753511,116.739085,https://maps.google.com/?cid=0x0:0xbcbe254409f2e589,
perumahan,perumahan,Mama Nings Beach Hotel,"2PFP+4X, Sekongkang Bawah, Kec. Sekongkang, Kabupaten Sumbawa Barat, Nusa Tenggara Bar. 84457","Sekongkang Bawah, Kec. Sekongkang, Kabupaten Sumbawa Barat",NUSA TENGGARA BARAT,84457.0,Indonesia,81353818041.0,,,-8.9774419,116.7373088,https://maps.google.com/?cid=0x0:0x9efaaaa0efbfe38b,
perumahan,perumahan,Surfindo - Rantung Beach Hotel,"Balong Balong Surf Bungalows, Jl. Raya Rantung, Sekongkang Bawah, Kec. Sekongkang, Kabupaten Sumbawa Barat, Nusa Tenggara Bar.","Kabupaten Sumbawa Barat, Nusa Tenggara Bar.",NUSA TENGGARA BARAT,,Indonesia,82236742200.0,,,-8.979395,116.7373685,https://maps.google.com/?cid=0x0:0x519f69b12edb85ef,
perumahan,Rumah wisata,HEYHO HOMESTAY,"belakang bakso pak D sari roso, Jl. Raya Maluk, Pasir Putih, Kec. Maluk, Kabupaten Sumbawa Barat, Nusa Tenggara Bar. 84456","Jl. Raya Maluk, Pasir Putih, Kec. Maluk, Kabupaten Sumbawa Barat",NUSA TENGGARA BARAT,84456.0,Indonesia,81357155570.0,,,-8.9121786,116.7506975,https://maps.google.com/?cid=0x0:0x46d61661b64b695c,
perumahan,Rumah Sakit,POSKESDES DESA MALUK,"3QJ4+W6G, Maluk, Kec. Maluk, Kabupaten Sumbawa Barat, Nusa Tenggara Bar. 84456","Maluk, Kec. Maluk, Kabupaten Sumbawa Barat",NUSA TENGGARA BARAT,84456.0,Indonesia,87865798829.0,,,-8.9176763,116.7555817,https://maps.google.com/?cid=0x0:0xaa74af50a43badda,
