Category,Real Category,Business Name,Address,City,State,Postal Code,Country,Phone,Email,Website,Latitude,Longitude,Map Link,Details Link
toko bangunan,Toko Bahan Bangunan,Toko Bangunan ANUGRAH Bukit Raya,"Jl. Bukit Raya XII No.2a, Palangka, Kec. Jekan Raya, Kota Palangka Raya, Kalimantan Tengah 74874","Palangka, Kec. Jekan Raya, Kota Palangka Raya",KALIMANTAN TENGAH,74874.0,Indonesia, 083899586603,,,-2.2066708,113.891134,https://maps.google.com/?cid=0x0:0xea480f473a624160,
toko bangunan,Toko Bahan Bangunan,Bukit Raya Bangunan,"Jl. Mad Nur, Iwul, Kec. Parung, Kabupaten Bogor, Jawa Barat 16330","Iwul, Kec. Parung, Kabupaten Bogor",KALIMANTAN TENGAH,16330.0,Indonesia, 08111559981,,,-6.4616862,106.7069828,https://maps.google.com/?cid=0x0:0xc4d947072e4a48df,
toko bangunan,Toko Bahan Bangunan,Toko bangunan a2 berkah,"Jl. Sisingamangaraja Jl. Raden Saleh II No.samping, Menteng, Kec. Jekan Raya, Kota Palangka Raya, Kalimantan Tengah 74874","Menteng, Kec. Jekan Raya, Kota Palangka Raya",KALIMANTAN TENGAH,74874.0,Indonesia, 085256292462,,,-2.2230046,113.911702,https://maps.google.com/?cid=0x0:0xeb2a0d6eb984dcb8,
toko bangunan,Toko Bahan Bangunan,Toko bangunan parung bukit murah bangunan,"Jl. H. Mawi No.8, Waru, Kec. Parung, Kabupaten Bogor, Jawa Barat 16330","Waru, Kec. Parung, Kabupaten Bogor",KALIMANTAN TENGAH,16330.0,Indonesia, 087863629998,,,-6.4311513,106.7180319,https://maps.google.com/?cid=0x0:0x6133c5faaa2e3955,
toko bangunan,Toko Bahan Bangunan,Toko bangunan parung bukit murah jaya,"Jl. H. Mawi, RT.02/RW.02, Parung, Kec. Parung, Kabupaten Bogor, Jawa Barat 16330","RT.02/RW.02, Parung, Kec. Parung, Kabupaten Bogor",KALIMANTAN TENGAH,16330.0,Indonesia, 085942026999,,,-6.4251051,106.7269814,https://maps.google.com/?cid=0x0:0x8fe5c01751f73961,
toko bangunan,Toko Bahan Bangunan,Toko ACC,"Jl. Bukit Duri Barat No. 270 Bukit Duri Tebet Jakarta Selatan DKI Jakarta, RT.7/RW.3, Manggarai, Kec. Tebet, Kota Jakarta Selatan, Daerah Khusus Ibukota Jakarta 12850","RT.7/RW.3, Manggarai, Kec. Tebet, Kota Jakarta Selatan",KALIMANTAN TENGAH,12850.0,Indonesia, 087761141363,,,-6.2171326,106.8547294,https://maps.google.com/?cid=0x0:0xf3e0dd4501e21a4d,
toko bangunan,Toko Bahan Bangunan,Sumber Bukit Raya Toko Bahan Bangunan,"Jl. Raya Industri No.2, Pasirsari, Cikarang Sel., Kabupaten Bekasi, Jawa Barat 17530","Pasirsari, Cikarang Sel., Kabupaten Bekasi",KALIMANTAN TENGAH,17530.0,Indonesia, 085777883592,,,-6.2979706,107.1462232,https://maps.google.com/?cid=0x0:0x7a73ea2a0773d074,
toko bangunan,Toko Bahan Bangunan,Toko Bangunan Bukit Murah Bangunan 3,"Jl. Raya Parung No.56, RT.04/RW.06, Kemang, Kec. Kemang, Kabupaten Bogor, Jawa Barat 16310","RT.04/RW.06, Kemang, Kec. Kemang, Kabupaten Bogor",KALIMANTAN TENGAH,16310.0,Indonesia, 083871856701,,,-6.5126744,106.7570953,https://maps.google.com/?cid=0x0:0xfbd0d9c866f47c6e,
toko bangunan,Pasar bahan bangunan,Toko Bangunan Bukit Pasifik,"Jl. Pendidikan II No.64, Pengasinan, Kec. Gn. Sindur, Kabupaten Bogor, Jawa Barat 16340","Pengasinan, Kec. Gn. Sindur, Kabupaten Bogor",KALIMANTAN TENGAH,16340.0,Indonesia, 083161072773,,,-6.3661398,106.7013854,https://maps.google.com/?cid=0x0:0xd45902f6f79eb61c,
toko bangunan,Toko Bahan Bangunan,Bangun Permai Building Material and Tools Shop,"Jl. Boulevard Raya No.FW1/16, Klp. Gading Tim., Kec. Klp. Gading, Jakarta, Daerah Khusus Ibukota Jakarta 14240","Klp. Gading Tim., Kec. Klp. Gading, Jakarta",KALIMANTAN TENGAH,14240.0,Indonesia, 081574797312,,,-6.164102,106.903328,https://maps.google.com/?cid=0x0:0x68aa247ea439f78,
toko bangunan,Toko Bahan Bangunan,Bukit bangunan,"Jl. Raya Dago No.2, Kabasiran, Kec. Parung Panjang, Kabupaten Bogor, Jawa Barat 16360","Kabasiran, Kec. Parung Panjang, Kabupaten Bogor",KALIMANTAN TENGAH,16360.0,Indonesia,,,,-6.3581866,106.5829988,https://maps.google.com/?cid=0x0:0x48ec8d55147e086d,
toko bangunan,Toko Bahan Bangunan,Toko Bukit Barisan,"Jl. Karang Tengah Raya No.3 8, RT.3/RW.6, Lb. Bulus, Kec. Cilandak, Kota Jakarta Selatan, Daerah Khusus Ibukota Jakarta 12440","RT.3/RW.6, Lb. Bulus, Kec. Cilandak, Kota Jakarta Selatan",KALIMANTAN TENGAH,12440.0,Indonesia, 0217392879,,,-6.3133931,106.7812626,https://maps.google.com/?cid=0x0:0xb05a685bcfb77cf,
toko bangunan,Toko Bahan Bangunan,Toko Bangunan,"RT.9/RW.1, Bukit Duri, Kec. Tebet, Kota Jakarta Selatan, Daerah Khusus Ibukota Jakarta 12850","Bukit Duri, Kec. Tebet, Kota Jakarta Selatan",KALIMANTAN TENGAH,12850.0,Indonesia, 081574797312,,,-6.2171976,106.854571,https://maps.google.com/?cid=0x0:0x98904c7c38080d5,
toko bangunan,Toko Bahan Bangunan,PD. Mitra Bangunan,"Jln.kp Dukuh, Dukuh, Kec. Cikupa, Kabupaten Tangerang, Banten 15710","Dukuh, Kec. Cikupa, Kabupaten Tangerang",KALIMANTAN TENGAH,15710.0,Indonesia, 082110831659,,,-6.2351255,106.5374894,https://maps.google.com/?cid=0x0:0xf9f736df3442008e,
toko bangunan,Toko Bahan Bangunan,TB. Bukit Indah,"Jalan Pasir Jaya, RT.12 RW05/RW.No 88, Pasir Jaya, Kec. Cikupa, Kabupaten Tangerang, Banten 15710","RT.12 RW05/RW.No 88, Pasir Jaya, Kec. Cikupa, Kabupaten Tangerang",KALIMANTAN TENGAH,15710.0,Indonesia, 081298593783,,,-6.1984511,106.5314358,https://maps.google.com/?cid=0x0:0x6ffadd144a0661b,
toko bangunan,Toko Bahan Bangunan,Toko Bangunan ANUGRAH Bukit Raya,"Jl. Bukit Raya XII No.2a, Palangka, Kec. Jekan Raya, Kota Palangka Raya, Kalimantan Tengah 74874","Palangka, Kec. Jekan Raya, Kota Palangka Raya",KALIMANTAN TENGAH,74874.0,Indonesia, 083899586603,,,-2.2066708,113.891134,https://maps.google.com/?cid=0x0:0xea480f473a624160,
toko bangunan,Toko Bahan Bangunan,Toko bangunan a2 berkah,"Jl. Sisingamangaraja Jl. Raden Saleh II No.samping, Menteng, Kec. Jekan Raya, Kota Palangka Raya, Kalimantan Tengah 74874","Menteng, Kec. Jekan Raya, Kota Palangka Raya",KALIMANTAN TENGAH,74874.0,Indonesia, 085256292462,,,-2.2230046,113.911702,https://maps.google.com/?cid=0x0:0xeb2a0d6eb984dcb8,
toko bangunan,toko bangunan,Kec. Bukit Raya,"Kota Pekanbaru, Riau","Kota Pekanbaru, Riau",KALIMANTAN TENGAH,,Indonesia,,,,0.4636738,101.4579441,https://maps.google.com/?cid=0x0:0xd5ade03770fa607a,
toko bangunan,Toko Bahan Bangunan,TB Pasaman Indah 1,"Jl. Kesadaran, Tengkerang Labuai, Kec. Bukit Raya, Kota Pekanbaru, Riau 28284","Tengkerang Labuai, Kec. Bukit Raya, Kota Pekanbaru",KALIMANTAN TENGAH,28284.0,Indonesia,,,,0.4847891,101.4735424,https://maps.google.com/?cid=0x0:0x3db001eb4b41cd8e,
toko bangunan,Toko Bahan Bangunan,TB Amanah,"Belakang Universitas Islam Riau, Jl. Karya I sebelah Gg. Chaniago No.Ujung, Simpang Baru, Kec. Bukit Raya, Kota Pekanbaru, Riau 28284","Jl. Karya I sebelah Gg. Chaniago No.Ujung, Simpang Baru, Kec. Bukit Raya, Kota Pekanbaru",KALIMANTAN TENGAH,28284.0,Indonesia, 08982702111,,,0.4416171,101.4630891,https://maps.google.com/?cid=0x0:0xb7cbf3684c81f42a,
toko bangunan,Toko Bahan Bangunan,Toko Bangunan Rentas,"FF38+9CM, Jl. Sei Mintan, Simpang Tiga, Kec. Bukit Raya, Kota Pekanbaru, Riau 28282","Jl. Sei Mintan, Simpang Tiga, Kec. Bukit Raya, Kota Pekanbaru",KALIMANTAN TENGAH,28282.0,Indonesia, 083181673940,,,0.4534557,101.4660341,https://maps.google.com/?cid=0x0:0x840caa2f731c472a,
toko bangunan,Toko Bahan Bangunan,Toko Fauzi Bangunan,"FF48+PHP, Jl. Tengku Bey, Simpang Tiga, Kec. Bukit Raya, Kota Pekanbaru, Riau 28282","Jl. Tengku Bey, Simpang Tiga, Kec. Bukit Raya, Kota Pekanbaru",KALIMANTAN TENGAH,28282.0,Indonesia, 085166900649,,,0.4568377,101.4664653,https://maps.google.com/?cid=0x0:0x60bc3952951f4b91,
toko bangunan,Toko Perlengkapan Rumah,Toko Bangunan karya dua harapan,"CCFX+V7X, Jl. Gading Marpoyan Raya, Pandau Jaya, Kec. Bukit Raya, Kabupaten Kampar, Riau 28284","Jl. Gading Marpoyan Raya, Pandau Jaya, Kec. Bukit Raya, Kabupaten Kampar",KALIMANTAN TENGAH,28284.0,Indonesia, 0817312372,,,0.4247387,101.4482285,https://maps.google.com/?cid=0x0:0xdb5d5d4e7e328ce5,
toko bangunan,Toko Bahan Bangunan,Toko karya dua harapan 4,"Gg. Miduk 2 No.3, Simpang Tiga, Kec. Bukit Raya, Kota Pekanbaru, Riau 28284","Simpang Tiga, Kec. Bukit Raya, Kota Pekanbaru",KALIMANTAN TENGAH,28284.0,Indonesia, 083181673940,,,0.4423448,101.4607298,https://maps.google.com/?cid=0x0:0x4ee292bd8dc8ea57,
toko bangunan,Toko Bahan Bangunan,MH Bangunan,"JL Sei Mintan 1, No. 5, Simpang Tiga, Bukit Raya, Simpang Tiga, Pekanbaru, Kota Pekanbaru, Riau 28284","No. 5, Simpang Tiga, Bukit Raya, Simpang Tiga, Pekanbaru, Kota Pekanbaru",KALIMANTAN TENGAH,28284.0,Indonesia, 081288887869,,,0.4537529,101.466405,https://maps.google.com/?cid=0x0:0xb7e49283b69b7e75,
toko bangunan,Toko Bahan Bangunan,Mulya Bangunan 2,"Jl. Kaharuddin Nst No.15000, Simpang Tiga, Kec. Bukit Raya, Kota Pekanbaru, Riau 28284","Simpang Tiga, Kec. Bukit Raya, Kota Pekanbaru",KALIMANTAN TENGAH,28284.0,Indonesia,,,,0.4463385,101.4504639,https://maps.google.com/?cid=0x0:0xa181b4569e171dec,
toko bangunan,Pasar bahan bangunan,Toko Besi Sinar Bangunan,"Jalan Imam Munandar Noi 320 C, Tengkerang Labuai, Kec. Bukit Raya, Kota Pekanbaru, Riau 28131","Tengkerang Labuai, Kec. Bukit Raya, Kota Pekanbaru",KALIMANTAN TENGAH,28131.0,Indonesia, 08979773926,,,0.4995065,101.4776794,https://maps.google.com/?cid=0x0:0xe17e9697dc51d21f,
toko bangunan,Toko Bahan Bangunan,Toko Bangunan Berkah Jaya,"Jl. Karya Cipta, Simpang Tiga, Kec. Bukit Raya, Kota Pekanbaru, Riau 28284","Simpang Tiga, Kec. Bukit Raya, Kota Pekanbaru",KALIMANTAN TENGAH,28284.0,Indonesia, 085271639764,,,0.4436614,101.4638814,https://maps.google.com/?cid=0x0:0xc5b232f1de103de2,
toko bangunan,Toko Bahan Bangunan,Toko Kawan Sejati,"Jl. Kaharuddin Nst No.9-10, Simpang Tiga, Kec. Bukit Raya, Kota Pekanbaru, Riau 28284","Simpang Tiga, Kec. Bukit Raya, Kota Pekanbaru",KALIMANTAN TENGAH,28284.0,Indonesia, 085249868282,,,0.4361852,101.4465225,https://maps.google.com/?cid=0x0:0xf17d902e32d8724,
toko bangunan,Pemasok Bahan Bangunan,Toko Bangunan Pilar Raya,"Jl. Kakap No.12, Tengkerang Sel., Kec. Bukit Raya, Kota Pekanbaru, Riau 28414","Tengkerang Sel., Kec. Bukit Raya, Kota Pekanbaru",KALIMANTAN TENGAH,28414.0,Indonesia, 085166900649,,,0.4980666,101.4610011,https://maps.google.com/?cid=0x0:0x10a732e27cc37d33,
toko bangunan,Toko Bahan Bangunan,Toko Bangunan Jaya Abadi,"CCGR+V43, Jl. Kaharuddin Nst, Simpang Tiga, Kec. Bukit Raya, Kota Pekanbaru, Riau 28284","Jl. Kaharuddin Nst, Simpang Tiga, Kec. Bukit Raya, Kota Pekanbaru",KALIMANTAN TENGAH,28284.0,Indonesia, 081276078797,,,0.4271479,101.440306,https://maps.google.com/?cid=0x0:0x89b199c42154bcf2,
toko bangunan,Toko Bahan Bangunan,Toko Bangunan Pasaman Indah,"Jl. Kelapa Sawit, Tengkerang Labuai, Kec. Bukit Raya, Kota Pekanbaru, Riau 28126","Tengkerang Labuai, Kec. Bukit Raya, Kota Pekanbaru",KALIMANTAN TENGAH,28126.0,Indonesia, 083177681591,,,0.4945789,101.4723929,https://maps.google.com/?cid=0x0:0xf202b9f97fdd082d,
toko bangunan,Toko Bahan Bangunan,Sinar Harapan,"Jl. Harapan Raya No.177d, RT.002/RW.RT 2, Tengkerang Utara, Kec. Bukit Raya, Kota Pekanbaru, Riau 28126","RT.002/RW.RT 2, Tengkerang Utara, Kec. Bukit Raya, Kota Pekanbaru",KALIMANTAN TENGAH,28126.0,Indonesia, 082182357020,,,0.49971,101.462729,https://maps.google.com/?cid=0x0:0xcc7760a59d4f371a,
toko bangunan,Toko Bahan Bangunan,"MULTI JAYA (TOKO BESI, BANGUNAN DAN KERAMIK)","Jl. Imam Munandar No.77A/B, Tengkerang Utara, Kec. Bukit Raya, Kota Pekanbaru, Riau 28126","Tengkerang Utara, Kec. Bukit Raya, Kota Pekanbaru",KALIMANTAN TENGAH,28126.0,Indonesia, 085102600421,,,0.5004202,101.4691813,https://maps.google.com/?cid=0x0:0x4a001721ecb1e326,
toko bangunan,Toko Bahan Bangunan,TB Sinar Mutiara,"Jl. Harapan Raya No.23, Tengkerang Utara, Kec. Bukit Raya, Kota Pekanbaru, Riau 28284","Tengkerang Utara, Kec. Bukit Raya, Kota Pekanbaru",KALIMANTAN TENGAH,28284.0,Indonesia,,,,0.4995318,101.461977,https://maps.google.com/?cid=0x0:0xcf263dcba9395da5,
toko bangunan,Toko Bahan Bangunan,UD ANDA 2,"Jl. Tengku Bey, Simpang Tiga, Kec. Bukit Raya, Kota Pekanbaru, Riau 28282","Simpang Tiga, Kec. Bukit Raya, Kota Pekanbaru",KALIMANTAN TENGAH,28282.0,Indonesia, 085166900649,,,0.4582404,101.4645542,https://maps.google.com/?cid=0x0:0xb13b6a1bdfaacbe,
toko bangunan,Toko Bahan Bangunan,"TOKO BANGUNAN BERKAH MANDIRI, PT. BERKAH MANDIRI BERTUAH DAN CV. OGHI KARYA KONSULTAN JALAN PINANG MERAH BUKIT BARISAN","Jl. Pinang Merah, Jl. Bukit Barisan Jl. Parit Indah No.Ujung, Harapan Raya, Kota Pekanbaru, Riau 28284","Jl. Bukit Barisan Jl. Parit Indah No.Ujung, Harapan Raya, Kota Pekanbaru",KALIMANTAN TENGAH,28284.0,Indonesia, 082268694192,,,0.4786718,101.4925603,https://maps.google.com/?cid=0x0:0x57e61724e01f4504,
toko bangunan,Toko,Toko Bangunan Berkat Raya,"Jalan Bukit Raya RT.OI, Palangka, Kec. Jekan Raya, Kota Palangka Raya, Kalimantan Tengah 74874","Palangka, Kec. Jekan Raya, Kota Palangka Raya",KALIMANTAN TENGAH,74874.0,Indonesia, 0817210881,,,-2.2044373,113.8963593,https://maps.google.com/?cid=0x0:0xb3d6509aa78552f1,
toko bangunan,Toko Bahan Bangunan,Toko Bangunan Berkah Jaya,"Jl. Antang Jl. Rajawali No.4, RT.OI54O54/RW.249/RW, simpang 4, Palangka, Kec. Jekan Raya, Kota Palangka Raya, Kalimantan Tengah 74874","RT.OI54O54/RW.249/RW, simpang 4, Palangka, Kec. Jekan Raya, Kota Palangka Raya",KALIMANTAN TENGAH,74874.0,Indonesia, 081396801512,,,-2.1983968,113.897133,https://maps.google.com/?cid=0x0:0x4ff1483c11343f16,
toko bangunan,toko bangunan,Riau 28288,"Kec. Marpoyan Damai, Kota Pekanbaru, Riau","Kota Pekanbaru, Riau",KALIMANTAN TENGAH,,Indonesia,,,,0.4643982,101.4509506,https://maps.google.com/?cid=0x0:0x8218df0cbbc860cd,
toko bangunan,Toko Bahan Bangunan,Toko sinar jaya keramik,"Jl. Kaharuddin Nst, Simpang Tiga, Kec. Bukit Raya, Kota Pekanbaru, Riau 28288","Simpang Tiga, Kec. Bukit Raya, Kota Pekanbaru",KALIMANTAN TENGAH,28288.0,Indonesia, 085272447604,,,0.4593365,101.4529354,https://maps.google.com/?cid=0x0:0xedd7c32e7aae0f84,
toko bangunan,Toko Bahan Bangunan,Toko Bangunan Simpang Tiga (BST),"Jl. Kaharuddin Nst No.140-141, Simpang Tiga, Kec. Bukit Raya, Kota Pekanbaru, Riau 28125","Simpang Tiga, Kec. Bukit Raya, Kota Pekanbaru",KALIMANTAN TENGAH,28125.0,Indonesia, 08161999912,,,0.4620842,101.452718,https://maps.google.com/?cid=0x0:0xe15a49ccb0ee3c9c,
toko bangunan,Toko Bahan Bangunan,Toko Bangunan Rentas,"FF38+9CM, Jl. Sei Mintan, Simpang Tiga, Kec. Bukit Raya, Kota Pekanbaru, Riau 28282","Jl. Sei Mintan, Simpang Tiga, Kec. Bukit Raya, Kota Pekanbaru",KALIMANTAN TENGAH,28282.0,Indonesia, 083181673940,,,0.4534557,101.4660341,https://maps.google.com/?cid=0x0:0x840caa2f731c472a,
toko bangunan,Toko Elektronik,Mulya Bangun Utama,"FF75+G3H, JL Utama / Tengku Bey, Simpang Tiga, Bukit Raya, Simpang Tiga, Pekanbaru, Kota Pekanbaru, Riau 28288","JL Utama / Tengku Bey, Simpang Tiga, Bukit Raya, Simpang Tiga, Pekanbaru, Kota Pekanbaru",KALIMANTAN TENGAH,28288.0,Indonesia, 083181673940,,,0.4638045,101.4577295,https://maps.google.com/?cid=0x0:0xe76b7bd6897c7d77,
toko bangunan,Toko Bahan Bangunan,Toko Fauzi Bangunan,"FF48+PHP, Jl. Tengku Bey, Simpang Tiga, Kec. Bukit Raya, Kota Pekanbaru, Riau 28282","Jl. Tengku Bey, Simpang Tiga, Kec. Bukit Raya, Kota Pekanbaru",KALIMANTAN TENGAH,28282.0,Indonesia, 085166900649,,,0.4568377,101.4664653,https://maps.google.com/?cid=0x0:0x60bc3952951f4b91,
toko bangunan,Toko Bahan Bangunan,Rentas Bangunan,"FF66+78H, JL Utama/Tengku Bey, Simpang Tiga, Bukit Raya, Simpang Tiga, Pekanbaru, Kota Pekanbaru, Riau 28289","JL Utama/Tengku Bey, Simpang Tiga, Bukit Raya, Simpang Tiga, Pekanbaru, Kota Pekanbaru",KALIMANTAN TENGAH,28289.0,Indonesia, 083181673940,,,0.4606924,101.4608664,https://maps.google.com/?cid=0x0:0x63f75837783be0e7,
toko bangunan,Toko Bahan Bangunan,TOKO BANGUNAN INTAN UTAMA,"CCPW+9H7, Simpang Tiga, Kec. Bukit Raya, Kota Pekanbaru, Riau 28284","Simpang Tiga, Kec. Bukit Raya, Kota Pekanbaru",KALIMANTAN TENGAH,28284.0,Indonesia, 082186923375,,,0.4359087,101.4464206,https://maps.google.com/?cid=0x0:0x707c4ae430707b43,
toko bangunan,Toko Bahan Bangunan,Toko Mulia Agung,"Jl. Kaharuddin Nst No.A7, Perhentian Marpoyan, Kec. Marpoyan Damai, Kota Pekanbaru, Riau 28288","Perhentian Marpoyan, Kec. Marpoyan Damai, Kota Pekanbaru",KALIMANTAN TENGAH,28288.0,Indonesia, 082323458877,,,0.4476857,101.451349,https://maps.google.com/?cid=0x0:0x13afe8ee6d65f30c,
toko bangunan,Toko Mebel,Perabot Harapan Baru,"FF33+662, Jl. Kaharudin Nasutionpekan 1 Baru, Simpang Tiga, Kec. Bukit Raya, Kota Pekanbaru, Riau 28288","Jl. Kaharudin Nasutionpekan 1 Baru, Simpang Tiga, Kec. Bukit Raya, Kota Pekanbaru",KALIMANTAN TENGAH,28288.0,Indonesia, 08127559400,,,0.4530079,101.4530145,https://maps.google.com/?cid=0x0:0x7083ab5c51756b37,
toko bangunan,Toko Bahan Bangunan,3 bangunan,"FF57+8PG, Jl. Tengku Bey, Simpang Tiga, Kec. Bukit Raya, Kota Pekanbaru, Riau 28282","Jl. Tengku Bey, Simpang Tiga, Kec. Bukit Raya, Kota Pekanbaru",KALIMANTAN TENGAH,28282.0,Indonesia, 082287011110,,,0.4583249,101.4643369,https://maps.google.com/?cid=0x0:0x6b66559f4d92807,
toko bangunan,Toko Bahan Bangunan,Mulya Bangunan 2,"Jl. Kaharuddin Nst No.15000, Simpang Tiga, Kec. Bukit Raya, Kota Pekanbaru, Riau 28284","Simpang Tiga, Kec. Bukit Raya, Kota Pekanbaru",KALIMANTAN TENGAH,28284.0,Indonesia,,,,0.4463385,101.4504639,https://maps.google.com/?cid=0x0:0xa181b4569e171dec,
toko bangunan,Jasa Konstruksi dan Bangunan,Rumah Bangunan,"Jl. Tengku Bey No.82, Simpang Tiga, Kec. Bukit Raya, Kota Pekanbaru, Riau 28289","Simpang Tiga, Kec. Bukit Raya, Kota Pekanbaru",KALIMANTAN TENGAH,28289.0,Indonesia, 07617733331,,,0.4618545,101.4594318,https://maps.google.com/?cid=0x0:0xc87aaa451b07164b,
toko bangunan,Toko Bahan Bangunan,UD ANDA 2,"Jl. Tengku Bey, Simpang Tiga, Kec. Bukit Raya, Kota Pekanbaru, Riau 28282","Simpang Tiga, Kec. Bukit Raya, Kota Pekanbaru",KALIMANTAN TENGAH,28282.0,Indonesia, 085166900649,,,0.4582404,101.4645542,https://maps.google.com/?cid=0x0:0xb13b6a1bdfaacbe,
toko bangunan,Toko Bahan Bangunan,Riau Bangunan Ceramic,"Jl. Kaharuddin Nst No.15000, Simpang Tiga, Kec. Bukit Raya, Kota Pekanbaru, Riau 28284","Simpang Tiga, Kec. Bukit Raya, Kota Pekanbaru",KALIMANTAN TENGAH,28284.0,Indonesia, 085264076990,,,0.4463385,101.4504639,https://maps.google.com/?cid=0x0:0x4df8907d553ee82,
toko bangunan,Toko Bahan Bangunan,Dhiya Sejahtera Bangunan,"Jl. Tengku Bey No.100, Simpang Tiga, Kec. Bukit Raya, Kota Pekanbaru, Riau 28289","Simpang Tiga, Kec. Bukit Raya, Kota Pekanbaru",KALIMANTAN TENGAH,28289.0,Indonesia, 081268147755,,,0.4609864,101.4605379,https://maps.google.com/?cid=0x0:0xfbc5bffe86e7da76,
toko bangunan,Toko Bahan Bangunan,Gudang Kayu Dewi Putri Ayu,"Jl. Air Dingin No.45, Simpang Tiga, Kec. Bukit Raya, Kota Pekanbaru, Riau 28288","Simpang Tiga, Kec. Bukit Raya, Kota Pekanbaru",KALIMANTAN TENGAH,28288.0,Indonesia, 081378138898,,,0.4495081,101.4577549,https://maps.google.com/?cid=0x0:0xd3a8e502a1312175,
toko bangunan,Toko Bahan Bangunan,MH Bangunan,"JL Sei Mintan 1, No. 5, Simpang Tiga, Bukit Raya, Simpang Tiga, Pekanbaru, Kota Pekanbaru, Riau 28284","No. 5, Simpang Tiga, Bukit Raya, Simpang Tiga, Pekanbaru, Kota Pekanbaru",KALIMANTAN TENGAH,28284.0,Indonesia, 081288887869,,,0.4537529,101.466405,https://maps.google.com/?cid=0x0:0xb7e49283b69b7e75,
toko bangunan,Toko Bahan Bangunan,Toko karya dua harapan 4,"Gg. Miduk 2 No.3, Simpang Tiga, Kec. Bukit Raya, Kota Pekanbaru, Riau 28284","Simpang Tiga, Kec. Bukit Raya, Kota Pekanbaru",KALIMANTAN TENGAH,28284.0,Indonesia, 083181673940,,,0.4423448,101.4607298,https://maps.google.com/?cid=0x0:0x4ee292bd8dc8ea57,
toko bangunan,Toko Bahan Bangunan,Semen Padang,"FF75+C3X, Jl. Tengku Bey, Simpang Tiga, Kec. Bukit Raya, Kota Pekanbaru, Riau 28288","Jl. Tengku Bey, Simpang Tiga, Kec. Bukit Raya, Kota Pekanbaru",KALIMANTAN TENGAH,28288.0,Indonesia, 082164640055,,,0.4636102,101.457734,https://maps.google.com/?cid=0x0:0xc44331a097b3a46a,
toko bangunan,Toko,Toko Bangunan Berkat Raya,"Jalan Bukit Raya RT.OI, Palangka, Kec. Jekan Raya, Kota Palangka Raya, Kalimantan Tengah 74874","Palangka, Kec. Jekan Raya, Kota Palangka Raya",KALIMANTAN TENGAH,74874.0,Indonesia, 0817210881,,,-2.2044373,113.8963593,https://maps.google.com/?cid=0x0:0xb3d6509aa78552f1,
toko bangunan,Toko Bahan Bangunan,Toko Bangunan Berkah Jaya,"Jl. Antang Jl. Rajawali No.4, RT.OI54O54/RW.249/RW, simpang 4, Palangka, Kec. Jekan Raya, Kota Palangka Raya, Kalimantan Tengah 74874","RT.OI54O54/RW.249/RW, simpang 4, Palangka, Kec. Jekan Raya, Kota Palangka Raya",KALIMANTAN TENGAH,74874.0,Indonesia, 081396801512,,,-2.1983968,113.897133,https://maps.google.com/?cid=0x0:0x4ff1483c11343f16,
toko bangunan,Toko Bahan Bangunan,Rentas Bangunan,"FF66+78H, JL Utama/Tengku Bey, Simpang Tiga, Bukit Raya, Simpang Tiga, Pekanbaru, Kota Pekanbaru, Riau 28289","JL Utama/Tengku Bey, Simpang Tiga, Bukit Raya, Simpang Tiga, Pekanbaru, Kota Pekanbaru",KALIMANTAN TENGAH,28289.0,Indonesia, 083181673940,,,0.4606924,101.4608664,https://maps.google.com/?cid=0x0:0x63f75837783be0e7,
toko bangunan,toko bangunan,Riau 28289,"Kota Pekanbaru, Riau","Kota Pekanbaru, Riau",KALIMANTAN TENGAH,,Indonesia,,,,0.4643421,101.4850309,https://maps.google.com/?cid=0x0:0xe269f8a063c035df,
toko bangunan,Toko Bahan Bangunan,Toko Bangunan Jaya Indah,"Jl. Sepakat Perum MKP No.99, Tengkerang Tim., Kec. Tenayan Raya, Kota Pekanbaru, Riau 28289","Tengkerang Tim., Kec. Tenayan Raya, Kota Pekanbaru",KALIMANTAN TENGAH,28289.0,Indonesia, 087740350813,,,0.4803324,101.5097234,https://maps.google.com/?cid=0x0:0x54f4e5ac05c89d4e,
toko bangunan,Toko Bahan Bangunan,Anggun Bangunan,"Jl. Kapau Sari No.Kelurahan, Tengkerang Tim., Kec. Tenayan Raya, Kota Pekanbaru, Riau 28289","Tengkerang Tim., Kec. Tenayan Raya, Kota Pekanbaru",KALIMANTAN TENGAH,28289.0,Indonesia, 081371716334,,,0.4768868,101.4977405,https://maps.google.com/?cid=0x0:0x5d3d96d61ef45798,
toko bangunan,Toko Bahan Bangunan,TOKO BANGUNAN JASA BERSAMA,"FFMW+J7H, Jl. Kapau Sari, Tengkerang Tim., Kec. Tenayan Raya, Kota Pekanbaru, Riau 28289","Jl. Kapau Sari, Tengkerang Tim., Kec. Tenayan Raya, Kota Pekanbaru",KALIMANTAN TENGAH,28289.0,Indonesia, 0817312372,,,0.4840639,101.4957466,https://maps.google.com/?cid=0x0:0x539eb774d41f9725,
toko bangunan,Toko Bahan Bangunan,Toko Fauzi Bangunan,"FF48+PHP, Jl. Tengku Bey, Simpang Tiga, Kec. Bukit Raya, Kota Pekanbaru, Riau 28282","Jl. Tengku Bey, Simpang Tiga, Kec. Bukit Raya, Kota Pekanbaru",KALIMANTAN TENGAH,28282.0,Indonesia, 085166900649,,,0.4568377,101.4664653,https://maps.google.com/?cid=0x0:0x60bc3952951f4b91,
toko bangunan,Jasa Konstruksi dan Bangunan,Rumah Bangunan,"Jl. Tengku Bey No.82, Simpang Tiga, Kec. Bukit Raya, Kota Pekanbaru, Riau 28289","Simpang Tiga, Kec. Bukit Raya, Kota Pekanbaru",KALIMANTAN TENGAH,28289.0,Indonesia, 07617733331,,,0.4618545,101.4594318,https://maps.google.com/?cid=0x0:0xc87aaa451b07164b,
toko bangunan,Toko Bahan Bangunan,Toko Sinar Mulya,"Jl. Kaharuddin Nst No.115, Simpang Tiga, Kec. Bukit Raya, Kota Pekanbaru, Riau 28288","Simpang Tiga, Kec. Bukit Raya, Kota Pekanbaru",KALIMANTAN TENGAH,28288.0,Indonesia, 0761673338,,,0.4625848,101.4530955,https://maps.google.com/?cid=0x0:0xa976b71bd9d096fb,
toko bangunan,Toko Bahan Bangunan,Binjati bangunan,"Jl. Lintas Sumatra No.km 13, Kulim, Kec. Tenayan Raya, Kota Pekanbaru, Riau 28289","Kulim, Kec. Tenayan Raya, Kota Pekanbaru",KALIMANTAN TENGAH,28289.0,Indonesia, 082387663182,,,0.4665787,101.5174364,https://maps.google.com/?cid=0x0:0xa68ebfa7e408c1e7,
toko bangunan,Toko Bahan Bangunan,Toko Bangunan Simpang Tiga (BST),"Jl. Kaharuddin Nst No.140-141, Simpang Tiga, Kec. Bukit Raya, Kota Pekanbaru, Riau 28125","Simpang Tiga, Kec. Bukit Raya, Kota Pekanbaru",KALIMANTAN TENGAH,28125.0,Indonesia, 08161999912,,,0.4620842,101.452718,https://maps.google.com/?cid=0x0:0xe15a49ccb0ee3c9c,
toko bangunan,Toko Bahan Bangunan,Toko Jaya Bangunan,"Jl. Lintas Sumatra No.88, Kulim, Kec. Tenayan Raya, Kota Pekanbaru, Riau 28289","Kulim, Kec. Tenayan Raya, Kota Pekanbaru",KALIMANTAN TENGAH,28289.0,Indonesia, 081385661699,,,0.4855946,101.5202851,https://maps.google.com/?cid=0x0:0xe7794839cf0b3c98,
toko bangunan,Toko Bahan Bangunan,Dhiya Sejahtera Bangunan,"Jl. Tengku Bey No.100, Simpang Tiga, Kec. Bukit Raya, Kota Pekanbaru, Riau 28289","Simpang Tiga, Kec. Bukit Raya, Kota Pekanbaru",KALIMANTAN TENGAH,28289.0,Indonesia, 081268147755,,,0.4609864,101.4605379,https://maps.google.com/?cid=0x0:0xfbc5bffe86e7da76,
toko bangunan,Toko Bahan Bangunan,TOKO BANGUNAN BB BERSAUDARA 2,"Jl. Sepakat No.12, Tengkerang Tim., Kec. Tenayan Raya, Kota Pekanbaru, Riau 28289","Tengkerang Tim., Kec. Tenayan Raya, Kota Pekanbaru",KALIMANTAN TENGAH,28289.0,Indonesia, 0817312372,,,0.4835529,101.5065434,https://maps.google.com/?cid=0x0:0x8c033ddedcfe3047,
toko bangunan,Toko Cat,INTI WARNA BANGUNAN,"FC7F+JQ6, Jl. Sidomulyo, Sidomulyo Tim., Kec. Marpoyan Damai, Kota Pekanbaru, Riau 28289","Jl. Sidomulyo, Sidomulyo Tim., Kec. Marpoyan Damai, Kota Pekanbaru",KALIMANTAN TENGAH,28289.0,Indonesia, 082182357020,,,0.464041,101.4243852,https://maps.google.com/?cid=0x0:0x3a98de41a2527cf1,
toko bangunan,Toko Bahan Bangunan,3 bangunan,"FF57+8PG, Jl. Tengku Bey, Simpang Tiga, Kec. Bukit Raya, Kota Pekanbaru, Riau 28282","Jl. Tengku Bey, Simpang Tiga, Kec. Bukit Raya, Kota Pekanbaru",KALIMANTAN TENGAH,28282.0,Indonesia, 082287011110,,,0.4583249,101.4643369,https://maps.google.com/?cid=0x0:0x6b66559f4d92807,
toko bangunan,Toko Bahan Bangunan,TOKO BAHAN BANGUNAN TUNAS HARAPAN,"FG54+X83, Jl. Kadiran, Kulim, Kec. Tenayan Raya, Kota Pekanbaru, Riau 28289","Jl. Kadiran, Kulim, Kec. Tenayan Raya, Kota Pekanbaru",KALIMANTAN TENGAH,28289.0,Indonesia, 05270084224,,,0.4597237,101.5057926,https://maps.google.com/?cid=0x0:0x6c82ca939692395d,
toko bangunan,Toko Bahan Bangunan,Toko Bangunan Rentas,"FF38+9CM, Jl. Sei Mintan, Simpang Tiga, Kec. Bukit Raya, Kota Pekanbaru, Riau 28282","Jl. Sei Mintan, Simpang Tiga, Kec. Bukit Raya, Kota Pekanbaru",KALIMANTAN TENGAH,28282.0,Indonesia, 083181673940,,,0.4534557,101.4660341,https://maps.google.com/?cid=0x0:0x840caa2f731c472a,
toko bangunan,Toko Bahan Bangunan,Berlin Jaya Bangunan,"Jl. Sepakat Perum MKP, Kulim, Kec. Tenayan Raya, Kota Pekanbaru, Riau 28289","Kulim, Kec. Tenayan Raya, Kota Pekanbaru",KALIMANTAN TENGAH,28289.0,Indonesia, 085271494649,,,0.476803,101.5121838,https://maps.google.com/?cid=0x0:0x4646fa36ef897add,
toko bangunan,Toko Bahan Bangunan,UD ANDA 2,"Jl. Tengku Bey, Simpang Tiga, Kec. Bukit Raya, Kota Pekanbaru, Riau 28282","Simpang Tiga, Kec. Bukit Raya, Kota Pekanbaru",KALIMANTAN TENGAH,28282.0,Indonesia, 085166900649,,,0.4582404,101.4645542,https://maps.google.com/?cid=0x0:0xb13b6a1bdfaacbe,
toko bangunan,Toko Bahan Bangunan,Toko Bangunan Usaha Serba Ada,"Jl. Kapau Sari No.8, Tengkerang Tim., Kec. Tenayan Raya, Kota Pekanbaru, Riau 28131","Tengkerang Tim., Kec. Tenayan Raya, Kota Pekanbaru",KALIMANTAN TENGAH,28131.0,Indonesia, 082123326232,,,0.4837396,101.4958043,https://maps.google.com/?cid=0x0:0x14f49ada31bc492b,
toko bangunan,Toko Bahan Bangunan,Toko Bangunan ANUGRAH Bukit Raya,"Jl. Bukit Raya XII No.2a, Palangka, Kec. Jekan Raya, Kota Palangka Raya, Kalimantan Tengah 74874","Palangka, Kec. Jekan Raya, Kota Palangka Raya",KALIMANTAN TENGAH,74874.0,Indonesia, 083899586603,,,-2.2066708,113.891134,https://maps.google.com/?cid=0x0:0xea480f473a624160,
toko bangunan,toko bangunan,Kalimantan Tengah 74457,"Kabupaten Katingan, Kalimantan Tengah","Kabupaten Katingan, Kalimantan Tengah",KALIMANTAN TENGAH,,Indonesia,,,,-1.0501582,112.3337769,https://maps.google.com/?cid=0x0:0x96f7cae7d4b2ca52,
toko bangunan,Toko,Toko Bangunan Berkat Raya,"Jalan Bukit Raya RT.OI, Palangka, Kec. Jekan Raya, Kota Palangka Raya, Kalimantan Tengah 74874","Palangka, Kec. Jekan Raya, Kota Palangka Raya",KALIMANTAN TENGAH,74874.0,Indonesia, 0817210881,,,-2.2044373,113.8963593,https://maps.google.com/?cid=0x0:0xb3d6509aa78552f1,
toko bangunan,Toko Bahan Bangunan,Bukit berbunga,"WPQC+C97, Tewah, Kec. Tewah, Kabupaten Gunung MAS, Kalimantan Tengah","Kabupaten Gunung MAS, Kalimantan Tengah",KALIMANTAN TENGAH,,Indonesia, 081351901944,,,-1.0614522,113.720935,https://maps.google.com/?cid=0x0:0x355dbdb3e8422f46,
toko bangunan,toko bangunan,Supermarket Bangunan ACC Lenteng,"MRMP+HCX, Jl. L. Agung Blok Asraya, RT.6/RW.8, Lenteng Agung, Kec. Jagakarsa, Kota Jakarta Selatan, Daerah Khusus Ibukota Jakarta","Kota Jakarta Selatan, Daerah Khusus Ibukota Jakarta",KALIMANTAN TENGAH,,Indonesia, 0217827424,,,-6.3160229,106.8361158,https://maps.google.com/?cid=0x0:0xbc31493e6cebc8a7,
toko bangunan,Toko Bahan Bangunan,Toko Bangunan Bukit Permai,"Jl. Lap. Tembak No.1, RT.12/RW.2, Cibubur, Kec. Ciracas, Kota Jakarta Timur, Daerah Khusus Ibukota Jakarta 13720","RT.12/RW.2, Cibubur, Kec. Ciracas, Kota Jakarta Timur",KALIMANTAN TENGAH,13720.0,Indonesia, 085166900649,,,-6.3465196,106.8732042,https://maps.google.com/?cid=0x0:0xf5d1c17dc7e33abc,
toko bangunan,Toko Bahan Bangunan,Bukit Raya Bangunan,"Jl. Mad Nur, Iwul, Kec. Parung, Kabupaten Bogor, Jawa Barat 16330","Iwul, Kec. Parung, Kabupaten Bogor",KALIMANTAN TENGAH,16330.0,Indonesia, 08111559981,,,-6.4616862,106.7069828,https://maps.google.com/?cid=0x0:0xc4d947072e4a48df,
toko bangunan,Toko Bahan Bangunan,Sampurna Agung,"Jl. Raya Lenteng Agung No.58A 5, RT.5/RW.2, Lenteng Agung, Kec. Jagakarsa, Kota Jakarta Selatan, Daerah Khusus Ibukota Jakarta 12610","RT.5/RW.2, Lenteng Agung, Kec. Jagakarsa, Kota Jakarta Selatan",KALIMANTAN TENGAH,12610.0,Indonesia, 08129550161,,,-6.3169821,106.8376807,https://maps.google.com/?cid=0x0:0x5c63f3f16e3f2d83,
toko bangunan,Toko Bahan Bangunan,"RumahPlus Jagakarsa, Toko Cat, Toko Bangunan, Hardware Tools, Listrik, Plumbing","Jl. Jeruk Raya No.7, RT.5/RW.1, Jagakarsa, Kec. Jagakarsa, Kota Jakarta Selatan, Daerah Khusus Ibukota Jakarta 12620","RT.5/RW.1, Jagakarsa, Kec. Jagakarsa, Kota Jakarta Selatan",KALIMANTAN TENGAH,12620.0,Indonesia, 0811917063,,,-6.3318356,106.8290329,https://maps.google.com/?cid=0x0:0x5a7548c116356cb3,
toko bangunan,Toko Bahan Bangunan,Tb. Mitra Gintung,"Jl. Gintung No.64, RT.8/RW.6, Tj. Bar., Kec. Jagakarsa, Kota Jakarta Selatan, Daerah Khusus Ibukota Jakarta 12530","RT.8/RW.6, Tj. Bar., Kec. Jagakarsa, Kota Jakarta Selatan",KALIMANTAN TENGAH,12530.0,Indonesia, 085169981293,,,-6.3142361,106.8458551,https://maps.google.com/?cid=0x0:0x8255820de89dd7b2,
toko bangunan,Toko Bahan Bangunan,Toko Cahaya Harapan,"Jl. Langgar No.53 4, RT.2/RW.6, Tj. Bar., Kec. Jagakarsa, Kota Jakarta Selatan, Daerah Khusus Ibukota Jakarta 12530","RT.2/RW.6, Tj. Bar., Kec. Jagakarsa, Kota Jakarta Selatan",KALIMANTAN TENGAH,12530.0,Indonesia,,,,-6.3102398,106.8468403,https://maps.google.com/?cid=0x0:0xc3ddc8847750624e,
toko bangunan,Toko Bahan Bangunan,Berjaya Makmur Bangunan,"Ruko Jl. Tj. Mas Utama B1/37, Tj. Bar., Kec. Jagakarsa, Kota Jakarta Selatan, Daerah Khusus Ibukota Jakarta 12530","Tj. Bar., Kec. Jagakarsa, Kota Jakarta Selatan",KALIMANTAN TENGAH,12530.0,Indonesia, 085132478941,,,-6.3082399,106.839739,https://maps.google.com/?cid=0x0:0x87a3054b9d243fe6,
toko bangunan,Toko Bahan Bangunan,"109. TB. Bangkit Jaya, Tj. Barat","Jl. Tj. Barat Selatan No.7 8, RT.7/RW.1, Tj. Bar., Kec. Jagakarsa, Kota Jakarta Selatan, Daerah Khusus Ibukota Jakarta 12530","RT.7/RW.1, Tj. Bar., Kec. Jagakarsa, Kota Jakarta Selatan",KALIMANTAN TENGAH,12530.0,Indonesia, 085220736691,,,-6.3153857,106.8438424,https://maps.google.com/?cid=0x0:0x497c1bb3ad98cd4b,
toko bangunan,Toko Bahan Bangunan,Toko Bangunan Sumber Makmur,"Nomer Jl. Guru No.18 6, RT.6/RW.2, Lenteng Agung, Kec. Jagakarsa, Kota Jakarta Selatan, Daerah Khusus Ibukota Jakarta 12610","RT.6/RW.2, Lenteng Agung, Kec. Jagakarsa, Kota Jakarta Selatan",KALIMANTAN TENGAH,12610.0,Indonesia, 081574797312,,,-6.319313,106.838118,https://maps.google.com/?cid=0x0:0xf3a49afd05dca8de,
toko bangunan,Toko Bahan Bangunan,Toko Bangunan Bin Mu'thi,"Jl. Langgar No.38C 1, RT.1/RW.6, Tj. Bar., Kec. Jagakarsa, Kota Jakarta Selatan, Daerah Khusus Ibukota Jakarta 12530","RT.1/RW.6, Tj. Bar., Kec. Jagakarsa, Kota Jakarta Selatan",KALIMANTAN TENGAH,12530.0,Indonesia, 081574797312,,,-6.3070587,106.8451362,https://maps.google.com/?cid=0x0:0x48c352999abcb9a6,
toko bangunan,Toko Tegel,Toko Tirta Mas,"Jl. Raya Lenteng Agung No.15A 6, RT.6/RW.2, Lenteng Agung, Kec. Jagakarsa, Kota Jakarta Selatan, Daerah Khusus Ibukota Jakarta 12610","RT.6/RW.2, Lenteng Agung, Kec. Jagakarsa, Kota Jakarta Selatan",KALIMANTAN TENGAH,12610.0,Indonesia, 02178844273,,,-6.3200562,106.8372052,https://maps.google.com/?cid=0x0:0xbad63be327480ecf,
toko bangunan,Toko Bahan Bangunan,TB. Aneka bangunan,"Jl. Raya Tj. Barat No.5, RT.5/RW.1, Tj. Bar., Kec. Jagakarsa, Kota Jakarta Selatan, Daerah Khusus Ibukota Jakarta 12530","RT.5/RW.1, Tj. Bar., Kec. Jagakarsa, Kota Jakarta Selatan",KALIMANTAN TENGAH,12530.0,Indonesia,,,,-6.3115975,106.8387043,https://maps.google.com/?cid=0x0:0xaf613bda1c3a717,
toko bangunan,Toko Bahan Bangunan,TB. M HARRIS,"Gg. Masjid Nurul Islam No.25 5, RT.5/RW.6, Tj. Bar., Kec. Jagakarsa, Kota Jakarta Selatan, Daerah Khusus Ibukota Jakarta 12530","RT.5/RW.6, Tj. Bar., Kec. Jagakarsa, Kota Jakarta Selatan",KALIMANTAN TENGAH,12530.0,Indonesia, 02178844470,,,-6.3109291,106.8489098,https://maps.google.com/?cid=0x0:0xe1bfd21b602e6daa,
toko bangunan,Toko Bahan Bangunan,TB. MITRA Lenteng Agung,"Musala An-Nur, Jl. Agung Raya II No.22 Kel, RT.1/RW.4, Lenteng Agung, Kec. Jagakarsa, Kota Jakarta Selatan, Daerah Khusus Ibukota Jakarta 12630","Jl. Agung Raya II No.22 Kel, RT.1/RW.4, Lenteng Agung, Kec. Jagakarsa, Kota Jakarta Selatan",KALIMANTAN TENGAH,12630.0,Indonesia, 082110664120,,,-6.3275328,106.8396164,https://maps.google.com/?cid=0x0:0x83650b2712cee365,
toko bangunan,Toko Bahan Bangunan,TB. Sinar Lenteng,"Jl. Raya Lenteng Agung Gg. H. Tahir No.16 10, RT.10/RW.4, Lenteng Agung, Kec. Jagakarsa, Kota Jakarta Selatan, Daerah Khusus Ibukota Jakarta 12630","RT.10/RW.4, Lenteng Agung, Kec. Jagakarsa, Kota Jakarta Selatan",KALIMANTAN TENGAH,12630.0,Indonesia, 02178885033,,,-6.3297348,106.834942,https://maps.google.com/?cid=0x0:0xc77429af9413cf84,
toko bangunan,Toko Bahan Bangunan,TB. Kaisar Kiasa Kasih,"Jl. Kebagusan Raya No.10 10, RT.10/RW.7, Ragunan, Ps. Minggu, Kota Jakarta Selatan, Daerah Khusus Ibukota Jakarta 12620","RT.10/RW.7, Ragunan, Ps. Minggu, Kota Jakarta Selatan",KALIMANTAN TENGAH,12620.0,Indonesia, 0217821021,,,-6.3129501,106.8255278,https://maps.google.com/?cid=0x0:0x16aa26d52ae74b92,
toko bangunan,Toko Bahan Bangunan,Toko Bangunan Hidup Makmur,"Jl. H.Remaih No.30 4, RT.4/RW.7, Baru, Kec. Ps. Rebo, Kota Jakarta Timur, Daerah Khusus Ibukota Jakarta 13780","RT.4/RW.7, Baru, Kec. Ps. Rebo, Kota Jakarta Timur",KALIMANTAN TENGAH,13780.0,Indonesia, 0218411119,,,-6.3249115,106.8456365,https://maps.google.com/?cid=0x0:0x6fa7cf8ce1c09239,
toko bangunan,Toko Bahan Bangunan,Ak Akbar,"Jl. Raya Lenteng Agung No.11 6, RT.6/RW.2, Lenteng Agung, Kec. Jagakarsa, Kota Jakarta Selatan, Daerah Khusus Ibukota Jakarta 12610","RT.6/RW.2, Lenteng Agung, Kec. Jagakarsa, Kota Jakarta Selatan",KALIMANTAN TENGAH,12610.0,Indonesia, 02170632379,,,-6.3203602,106.8370474,https://maps.google.com/?cid=0x0:0x7a406fd9b5ed3d86,
toko bangunan,Toko Bahan Bangunan,Tb. Joe Jaya,"Jl. Joe Klp. Tiga No.6-7 6, RT.6/RW.3, Lenteng Agung, Kec. Jagakarsa, Kota Jakarta Selatan, Daerah Khusus Ibukota Jakarta 12620","RT.6/RW.3, Lenteng Agung, Kec. Jagakarsa, Kota Jakarta Selatan",KALIMANTAN TENGAH,12620.0,Indonesia,,,,-6.328605,106.8291409,https://maps.google.com/?cid=0x0:0x9f3a4a9a63c37269,
toko bangunan,toko bangunan,Kalimantan Tengah 74462,"Kabupaten Katingan, Kalimantan Tengah","Kabupaten Katingan, Kalimantan Tengah",KALIMANTAN TENGAH,,Indonesia,,,,-2.3296062,113.4776098,https://maps.google.com/?cid=0x0:0x3d01dd11e05807f8,
toko bangunan,Toko Bahan Bangunan,Toko Sumber Berkah,"36CC+3XQ, Jl. Trans Kalimantan, Hampalit, Kec. Katingan Hilir, Kabupaten Katingan, Kalimantan Tengah 74413","Jl. Trans Kalimantan, Hampalit, Kec. Katingan Hilir, Kabupaten Katingan",KALIMANTAN TENGAH,74413.0,Indonesia, 081396801512,,,-1.9297944,113.2224787,https://maps.google.com/?cid=0x0:0x47ccc1b4bcbb7e2,
toko bangunan,Toko Bahan Bangunan,Toko Guna Bangun,"473R+3R9 Pesan Antar Chat No T0k0 Kami 0  7  • I 5 5 O • 6 6 I O TOKO, Jl. Trans Kalimantan, Hampalit, Kec. Katingan Hilir, Kabupaten Katingan, Kalimantan Tengah 74413","Jl. Trans Kalimantan, Hampalit, Kec. Katingan Hilir, Kabupaten Katingan",KALIMANTAN TENGAH,74413.0,Indonesia, 082186748640,,,-1.8973498,113.2921119,https://maps.google.com/?cid=0x0:0xe441bb500ea13fcb,
toko bangunan,Toko Bahan Bangunan,Keramika,"Jl. Tjilik Riwut, Lama, Kec. Katingan Hilir, Kabupaten Katingan, Kalimantan Tengah 74413","Lama, Kec. Katingan Hilir, Kabupaten Katingan",KALIMANTAN TENGAH,74413.0,Indonesia, 08115218088,,,-1.8920631,113.3916119,https://maps.google.com/?cid=0x0:0x162617e9e154e73f,
toko bangunan,Toko Bahan Bangunan,Toko Bangunan Fasya,"Jln. Tumbang samba km 27, desa, Karya unggang, Kec. Tewang Sangalang Garing, Kabupaten Katingan, Kalimantan Tengah 74453","desa, Karya unggang, Kec. Tewang Sangalang Garing, Kabupaten Katingan",KALIMANTAN TENGAH,74453.0,Indonesia, 081396801512,,,-1.7299252,113.1453314,https://maps.google.com/?cid=0x0:0x44bf5edc4ed75ac0,
toko bangunan,Toko Bahan Bangunan,TOKO BANGUN BERKAH,"Tumbang Tahai, Kec. Bukit Batu, Kota Palangka Raya, Kalimantan Tengah 73112","Kec. Bukit Batu, Kota Palangka Raya",KALIMANTAN TENGAH,73112.0,Indonesia, 081396801512,,,-2.0146151,113.7617208,https://maps.google.com/?cid=0x0:0x9cf218a5f8d4e11,
toko bangunan,Toko Bahan Bangunan,AL-fatih,"Hampalit, Kec. Katingan Hilir, Kabupaten Katingan, Kalimantan Tengah 74413","Kec. Katingan Hilir, Kabupaten Katingan",KALIMANTAN TENGAH,74413.0,Indonesia, 085251272440,,,-1.895977,113.2995481,https://maps.google.com/?cid=0x0:0x1e3bd6f2e59dbeca,
toko bangunan,Toko Bahan Bangunan,Toko yani,"4853+4HQ, Jl. Trans Kalimantan, Hampalit, Kec. Katingan Hilir, Kabupaten Katingan, Kalimantan Tengah 74413","Jl. Trans Kalimantan, Hampalit, Kec. Katingan Hilir, Kabupaten Katingan",KALIMANTAN TENGAH,74413.0,Indonesia, 081396801512,,,-1.8921562,113.3039841,https://maps.google.com/?cid=0x0:0x89fe1a8572d36158,
toko bangunan,Toko Bahan Bangunan,CV.Vivi Anugrah Lestari,"X936+QV, Tumbang Panggo, Kec. Tasik Payawan, Kabupaten Katingan, Kalimantan Tengah","Kabupaten Katingan, Kalimantan Tengah",KALIMANTAN TENGAH,,Indonesia, 082254349134,,,-2.045585,113.362218,https://maps.google.com/?cid=0x0:0xe458b2a10e497eed,
toko bangunan,Toko Bahan Bangunan,Tb banua jaya kasongan,"Jl. Tjilik Riwut No.202, Kasongan Lama, Kec. Katingan Hilir, Kabupaten Katingan, Kalimantan Tengah 74413","Kasongan Lama, Kec. Katingan Hilir, Kabupaten Katingan",KALIMANTAN TENGAH,74413.0,Indonesia, 081396801512,,,-1.9166381,113.3785659,https://maps.google.com/?cid=0x0:0x3002d99ec746a851,
toko bangunan,Toko Bahan Bangunan,Toko rona bangunan,"35FJ+QWC, Jl. Trans Kalimantan, Pundu, Kec. Cempaga Hulu, Kabupaten Kotawaringin Timur, Kalimantan Tengah 74413","Jl. Trans Kalimantan, Pundu, Kec. Cempaga Hulu, Kabupaten Kotawaringin Timur",KALIMANTAN TENGAH,74413.0,Indonesia, 081385661699,,,-1.9255711,113.1822518,https://maps.google.com/?cid=0x0:0x4931a7eb09c4f86,
toko bangunan,Kompleks Kondominium,Tb efendi kereng pangi,"474X+F69, Jl. Trans Kalimantan, Hampalit, Kec. Katingan Hilir, Kabupaten Katingan, Kalimantan Tengah 74413","Jl. Trans Kalimantan, Hampalit, Kec. Katingan Hilir, Kabupaten Katingan",KALIMANTAN TENGAH,74413.0,Indonesia,,,,-1.8938365,113.2980356,https://maps.google.com/?cid=0x0:0x8c4d78ad04a99a99,
toko bangunan,Toko Bahan Bangunan,Gemilang Pusat Bahan Bangunan RTA Milono Palangka Raya,"Jl. RTA Milono, Menteng, Kec. Jekan Raya, Kota Palangka Raya, Kalimantan Tengah 74874","Menteng, Kec. Jekan Raya, Kota Palangka Raya",KALIMANTAN TENGAH,74874.0,Indonesia, 081250170853,,,-2.240658,113.919759,https://maps.google.com/?cid=0x0:0xd0ff11a63ca3103f,
toko bangunan,Toko Bahan Bangunan,Toko bangunan Mulia Batako,"37V7+XC6, Hampalit, Kec. Katingan Hilir, Kabupaten Katingan, Kalimantan Tengah 74413","Hampalit, Kec. Katingan Hilir, Kabupaten Katingan",KALIMANTAN TENGAH,74413.0,Indonesia, 081396801512,,,-1.9050835,113.2635143,https://maps.google.com/?cid=0x0:0x76397f80d1a8e81e,
toko bangunan,Toko Elektronik,Aka Teknik,"39QQ+MJP, Kasongan Lama, Kec. Katingan Hilir, Kabupaten Katingan, Kalimantan Tengah 74413","Kasongan Lama, Kec. Katingan Hilir, Kabupaten Katingan",KALIMANTAN TENGAH,74413.0,Indonesia, 085249247731,,,-1.9107989,113.3890676,https://maps.google.com/?cid=0x0:0x88f64f896c3237a7,
toko bangunan,Toko Bahan Bangunan,Tb. Rizquna,"Kasongan Lama, Kec. Katingan Hilir, Kabupaten Katingan, Kalimantan Tengah","Kabupaten Katingan, Kalimantan Tengah",KALIMANTAN TENGAH,,Indonesia,,,,-1.8875986,113.4130843,https://maps.google.com/?cid=0x0:0x1ab050668c17080e,
toko bangunan,Toko Bahan Bangunan,Toko cahaya baru,"39QQ+MC7, Jl. Kenangan, Kasongan Lama, Kec. Katingan Hilir, Kabupaten Katingan, Kalimantan Tengah 74413","Jl. Kenangan, Kasongan Lama, Kec. Katingan Hilir, Kabupaten Katingan",KALIMANTAN TENGAH,74413.0,Indonesia, 05314041157,,,-1.9108406,113.3885405,https://maps.google.com/?cid=0x0:0x6f7446b93c854edd,
toko bangunan,Toko Bahan Bangunan,LANGGANAN,"Tumbang Tahai, Kec. Bukit Batu, Kota Palangka Raya, Kalimantan Tengah 73112","Kec. Bukit Batu, Kota Palangka Raya",KALIMANTAN TENGAH,73112.0,Indonesia, 082173389240,,,-2.0144964,113.7617259,https://maps.google.com/?cid=0x0:0x320f07c9b1f8b0be,
toko bangunan,Toko Bahan Bangunan,Tb. Mahkota Kasongan,"Kasongan Lama, Kec. Katingan Hilir, Kabupaten Katingan, Kalimantan Tengah","Kabupaten Katingan, Kalimantan Tengah",KALIMANTAN TENGAH,,Indonesia,,,,-1.8993977,113.3860996,https://maps.google.com/?cid=0x0:0x9161b31569a210b8,
toko bangunan,Pemasok produk beton,PT. Kalimantan Prakarsa Mandiri,"Jl. Natai Arahan, Baru, Kec. Arut Sel., Kabupaten Kotawaringin Barat, Kalimantan Tengah 74113","Baru, Kec. Arut Sel., Kabupaten Kotawaringin Barat",KALIMANTAN TENGAH,74113.0,Indonesia, 082253830806,,,-2.6713434,111.6564264,https://maps.google.com/?cid=0x0:0x4d5d9ce94f73c7db,
toko bangunan,toko bangunan,Toko bangunan Erma baun bango,"Jln MT manunggal No.148, Baun Bango, Kec. Kamipang, Kabupaten Katingan, Kalimantan Tengah 74462","Baun Bango, Kec. Kamipang, Kabupaten Katingan",KALIMANTAN TENGAH,74462.0,Indonesia, 082252117373,,,-2.2674485,113.4761868,https://maps.google.com/?cid=0x0:0x3ef90f880ad26c72,
toko bangunan,toko bangunan,Kalimantan Tengah 74413,"Kec. Katingan Hilir, Kabupaten Katingan, Kalimantan Tengah","Kabupaten Katingan, Kalimantan Tengah",KALIMANTAN TENGAH,,Indonesia,,,,-1.9350378,113.2394452,https://maps.google.com/?cid=0x0:0xff4c20b50314124d,
toko bangunan,Toko Bahan Bangunan,Toko Guna Bangun,"473R+3R9 Pesan Antar Chat No T0k0 Kami 0  7  • I 5 5 O • 6 6 I O TOKO, Jl. Trans Kalimantan, Hampalit, Kec. Katingan Hilir, Kabupaten Katingan, Kalimantan Tengah 74413","Jl. Trans Kalimantan, Hampalit, Kec. Katingan Hilir, Kabupaten Katingan",KALIMANTAN TENGAH,74413.0,Indonesia, 082186748640,,,-1.8973498,113.2921119,https://maps.google.com/?cid=0x0:0xe441bb500ea13fcb,
toko bangunan,Toko Bahan Bangunan,Toko Harapan,"493Q+F7X, Kasongan Lama, Kec. Katingan Hilir, Kabupaten Katingan, Kalimantan Tengah 74413","Kasongan Lama, Kec. Katingan Hilir, Kabupaten Katingan",KALIMANTAN TENGAH,74413.0,Indonesia, 085249325527,,,-1.8962514,113.388248,https://maps.google.com/?cid=0x0:0xdd29ea1dc1d3f8d1,
toko bangunan,Toko Bahan Bangunan,Toko Sumber Berkah,"36CC+3XQ, Jl. Trans Kalimantan, Hampalit, Kec. Katingan Hilir, Kabupaten Katingan, Kalimantan Tengah 74413","Jl. Trans Kalimantan, Hampalit, Kec. Katingan Hilir, Kabupaten Katingan",KALIMANTAN TENGAH,74413.0,Indonesia, 081396801512,,,-1.9297944,113.2224787,https://maps.google.com/?cid=0x0:0x47ccc1b4bcbb7e2,
toko bangunan,Toko Bahan Bangunan,AL-fatih,"Hampalit, Kec. Katingan Hilir, Kabupaten Katingan, Kalimantan Tengah 74413","Kec. Katingan Hilir, Kabupaten Katingan",KALIMANTAN TENGAH,74413.0,Indonesia, 085251272440,,,-1.895977,113.2995481,https://maps.google.com/?cid=0x0:0x1e3bd6f2e59dbeca,
toko bangunan,Toko Bahan Bangunan,Tb banua jaya kasongan,"Jl. Tjilik Riwut No.202, Kasongan Lama, Kec. Katingan Hilir, Kabupaten Katingan, Kalimantan Tengah 74413","Kasongan Lama, Kec. Katingan Hilir, Kabupaten Katingan",KALIMANTAN TENGAH,74413.0,Indonesia, 081396801512,,,-1.9166381,113.3785659,https://maps.google.com/?cid=0x0:0x3002d99ec746a851,
toko bangunan,Toko Bahan Bangunan,Keramika,"Jl. Tjilik Riwut, Lama, Kec. Katingan Hilir, Kabupaten Katingan, Kalimantan Tengah 74413","Lama, Kec. Katingan Hilir, Kabupaten Katingan",KALIMANTAN TENGAH,74413.0,Indonesia, 08115218088,,,-1.8920631,113.3916119,https://maps.google.com/?cid=0x0:0x162617e9e154e73f,
toko bangunan,Toko Bahan Bangunan,Toko rona bangunan,"35FJ+QWC, Jl. Trans Kalimantan, Pundu, Kec. Cempaga Hulu, Kabupaten Kotawaringin Timur, Kalimantan Tengah 74413","Jl. Trans Kalimantan, Pundu, Kec. Cempaga Hulu, Kabupaten Kotawaringin Timur",KALIMANTAN TENGAH,74413.0,Indonesia, 081385661699,,,-1.9255711,113.1822518,https://maps.google.com/?cid=0x0:0x4931a7eb09c4f86,
toko bangunan,Toko Bahan Bangunan,Toko cahaya baru,"39QQ+MC7, Jl. Kenangan, Kasongan Lama, Kec. Katingan Hilir, Kabupaten Katingan, Kalimantan Tengah 74413","Jl. Kenangan, Kasongan Lama, Kec. Katingan Hilir, Kabupaten Katingan",KALIMANTAN TENGAH,74413.0,Indonesia, 05314041157,,,-1.9108406,113.3885405,https://maps.google.com/?cid=0x0:0x6f7446b93c854edd,
toko bangunan,Kompleks Kondominium,Tb efendi kereng pangi,"474X+F69, Jl. Trans Kalimantan, Hampalit, Kec. Katingan Hilir, Kabupaten Katingan, Kalimantan Tengah 74413","Jl. Trans Kalimantan, Hampalit, Kec. Katingan Hilir, Kabupaten Katingan",KALIMANTAN TENGAH,74413.0,Indonesia,,,,-1.8938365,113.2980356,https://maps.google.com/?cid=0x0:0x8c4d78ad04a99a99,
toko bangunan,Toko Bahan Bangunan,Toko yani,"4853+4HQ, Jl. Trans Kalimantan, Hampalit, Kec. Katingan Hilir, Kabupaten Katingan, Kalimantan Tengah 74413","Jl. Trans Kalimantan, Hampalit, Kec. Katingan Hilir, Kabupaten Katingan",KALIMANTAN TENGAH,74413.0,Indonesia, 081396801512,,,-1.8921562,113.3039841,https://maps.google.com/?cid=0x0:0x89fe1a8572d36158,
toko bangunan,Toko Bahan Bangunan,Toko Al Banjari,"37XW+XXJ, Jl. Pembangunan, Hampalit, Kec. Katingan Hilir, Kabupaten Katingan, Kalimantan Tengah 74413","Jl. Pembangunan, Hampalit, Kec. Katingan Hilir, Kabupaten Katingan",KALIMANTAN TENGAH,74413.0,Indonesia, 082152733402,,,-1.9000387,113.2974003,https://maps.google.com/?cid=0x0:0xcb60c1c0bc81e79b,
toko bangunan,Toko Bahan Bangunan,Toko Bangunan Fasya,"Jln. Tumbang samba km 27, desa, Karya unggang, Kec. Tewang Sangalang Garing, Kabupaten Katingan, Kalimantan Tengah 74453","desa, Karya unggang, Kec. Tewang Sangalang Garing, Kabupaten Katingan",KALIMANTAN TENGAH,74453.0,Indonesia, 081396801512,,,-1.7299252,113.1453314,https://maps.google.com/?cid=0x0:0x44bf5edc4ed75ac0,
toko bangunan,Toko Bahan Bangunan,Toko Sinar Diesel,"474X+8C8, Jl. Pahlawan, Hampalit, Kec. Katingan Hilir, Kabupaten Katingan, Kalimantan Tengah 74413","Jl. Pahlawan, Hampalit, Kec. Katingan Hilir, Kabupaten Katingan",KALIMANTAN TENGAH,74413.0,Indonesia,,,,-1.8942021,113.2985916,https://maps.google.com/?cid=0x0:0xa27f1e4e5080d633,
toko bangunan,Toko Bahan Bangunan,Tb. Sinar Jaya,"474X+GPW, Jl. Trans Kalimantan, Hampalit, Kec. Katingan Hilir, Kabupaten Katingan, Kalimantan Tengah 74413","Jl. Trans Kalimantan, Hampalit, Kec. Katingan Hilir, Kabupaten Katingan",KALIMANTAN TENGAH,74413.0,Indonesia,,,,-1.8936492,113.299341,https://maps.google.com/?cid=0x0:0xc9788e95eec5181a,
toko bangunan,Toko Elektronik,Aka Teknik,"39QQ+MJP, Kasongan Lama, Kec. Katingan Hilir, Kabupaten Katingan, Kalimantan Tengah 74413","Kasongan Lama, Kec. Katingan Hilir, Kabupaten Katingan",KALIMANTAN TENGAH,74413.0,Indonesia, 085249247731,,,-1.9107989,113.3890676,https://maps.google.com/?cid=0x0:0x88f64f896c3237a7,
toko bangunan,Toko Bahan Bangunan,Toko Mitra Jaya,"37WJ+JMF, Hampalit, Kec. Katingan Hilir, Kabupaten Katingan, Kalimantan Tengah 74413","Hampalit, Kec. Katingan Hilir, Kabupaten Katingan",KALIMANTAN TENGAH,74413.0,Indonesia,,,,-1.9034301,113.2816831,https://maps.google.com/?cid=0x0:0x21e97c7fadc533ba,
toko bangunan,Toko Bahan Bangunan,Toko Rahmah,"Jalan kereng pangi No.11, Baun Bango, Kec. Katingan Hilir, Kabupaten Katingan, Kalimantan Tengah","Kabupaten Katingan, Kalimantan Tengah",KALIMANTAN TENGAH,,Indonesia,,,,-1.9872772,113.2860994,https://maps.google.com/?cid=0x0:0x18c1c99ec25f8d5d,
toko bangunan,Toko Swalayan,Tawakal,"H32W+X64, Samba Danum, Kec. Katingan Tengah, Kabupaten Katingan, Kalimantan Tengah 74454","Samba Danum, Kec. Katingan Tengah, Kabupaten Katingan",KALIMANTAN TENGAH,74454.0,Indonesia, 085249734073,,,-1.447611,113.0955706,https://maps.google.com/?cid=0x0:0x406c9483e1012f46,
toko bangunan,Toko Bahan Bangunan,Tb. Rizquna,"Kasongan Lama, Kec. Katingan Hilir, Kabupaten Katingan, Kalimantan Tengah","Kabupaten Katingan, Kalimantan Tengah",KALIMANTAN TENGAH,,Indonesia,,,,-1.8875986,113.4130843,https://maps.google.com/?cid=0x0:0x1ab050668c17080e,
toko bangunan,Toko Bahan Bangunan,Tb. Mahkota Kasongan,"Kasongan Lama, Kec. Katingan Hilir, Kabupaten Katingan, Kalimantan Tengah","Kabupaten Katingan, Kalimantan Tengah",KALIMANTAN TENGAH,,Indonesia,,,,-1.8993977,113.3860996,https://maps.google.com/?cid=0x0:0x9161b31569a210b8,
toko bangunan,Toko Bahan Bangunan,Bayu rizki,"Jl. Trans Kalimantan, Hampalit, Kec. Katingan Hilir, Kabupaten Katingan, Kalimantan Tengah 74413","Hampalit, Kec. Katingan Hilir, Kabupaten Katingan",KALIMANTAN TENGAH,74413.0,Indonesia, 082122228701,,,-1.894291,113.293523,https://maps.google.com/?cid=0x0:0x7ec286d1dcc4fe92,
toko bangunan,Toko Bahan Bangunan,Toko Bangunan Fasya,"Jln. Tumbang samba km 27, desa, Karya unggang, Kec. Tewang Sangalang Garing, Kabupaten Katingan, Kalimantan Tengah 74453","desa, Karya unggang, Kec. Tewang Sangalang Garing, Kabupaten Katingan",KALIMANTAN TENGAH,74453.0,Indonesia, 081396801512,,,-1.7299252,113.1453314,https://maps.google.com/?cid=0x0:0x44bf5edc4ed75ac0,
toko bangunan,Toko Bahan Bangunan,Toko Sumber Berkah,"36CC+3XQ, Jl. Trans Kalimantan, Hampalit, Kec. Katingan Hilir, Kabupaten Katingan, Kalimantan Tengah 74413","Jl. Trans Kalimantan, Hampalit, Kec. Katingan Hilir, Kabupaten Katingan",KALIMANTAN TENGAH,74413.0,Indonesia, 081396801512,,,-1.9297944,113.2224787,https://maps.google.com/?cid=0x0:0x47ccc1b4bcbb7e2,
toko bangunan,toko bangunan,Kalimantan Tengah 74457,"Kabupaten Katingan, Kalimantan Tengah","Kabupaten Katingan, Kalimantan Tengah",KALIMANTAN TENGAH,,Indonesia,,,,-1.0501582,112.3337769,https://maps.google.com/?cid=0x0:0x96f7cae7d4b2ca52,
toko bangunan,Toko Bahan Bangunan,Toko Harapan,"493Q+F7X, Kasongan Lama, Kec. Katingan Hilir, Kabupaten Katingan, Kalimantan Tengah 74413","Kasongan Lama, Kec. Katingan Hilir, Kabupaten Katingan",KALIMANTAN TENGAH,74413.0,Indonesia, 085249325527,,,-1.8962514,113.388248,https://maps.google.com/?cid=0x0:0xdd29ea1dc1d3f8d1,
toko bangunan,Toko Bahan Bangunan,Keramika,"Jl. Tjilik Riwut, Lama, Kec. Katingan Hilir, Kabupaten Katingan, Kalimantan Tengah 74413","Lama, Kec. Katingan Hilir, Kabupaten Katingan",KALIMANTAN TENGAH,74413.0,Indonesia, 08115218088,,,-1.8920631,113.3916119,https://maps.google.com/?cid=0x0:0x162617e9e154e73f,
toko bangunan,Toko Bahan Bangunan,toko bangunan cv. widia,"G4R3+MX3, Jl. danau mare, Samba Danum, Kec. Katingan Tengah, Kabupaten Katingan, Kalimantan Tengah 74454","Jl. danau mare, Samba Danum, Kec. Katingan Tengah, Kabupaten Katingan",KALIMANTAN TENGAH,74454.0,Indonesia, 081396801512,,,-1.4583595,113.1049086,https://maps.google.com/?cid=0x0:0xb4f2fb207f4e0616,
toko bangunan,Toko Bahan Bangunan,Toko yani,"4853+4HQ, Jl. Trans Kalimantan, Hampalit, Kec. Katingan Hilir, Kabupaten Katingan, Kalimantan Tengah 74413","Jl. Trans Kalimantan, Hampalit, Kec. Katingan Hilir, Kabupaten Katingan",KALIMANTAN TENGAH,74413.0,Indonesia, 081396801512,,,-1.8921562,113.3039841,https://maps.google.com/?cid=0x0:0x89fe1a8572d36158,
toko bangunan,Toko Bahan Bangunan,Tb banua jaya kasongan,"Jl. Tjilik Riwut No.202, Kasongan Lama, Kec. Katingan Hilir, Kabupaten Katingan, Kalimantan Tengah 74413","Kasongan Lama, Kec. Katingan Hilir, Kabupaten Katingan",KALIMANTAN TENGAH,74413.0,Indonesia, 081396801512,,,-1.9166381,113.3785659,https://maps.google.com/?cid=0x0:0x3002d99ec746a851,
toko bangunan,Toko Bahan Bangunan,Toko Guna Bangun,"473R+3R9 Pesan Antar Chat No T0k0 Kami 0  7  • I 5 5 O • 6 6 I O TOKO, Jl. Trans Kalimantan, Hampalit, Kec. Katingan Hilir, Kabupaten Katingan, Kalimantan Tengah 74413","Jl. Trans Kalimantan, Hampalit, Kec. Katingan Hilir, Kabupaten Katingan",KALIMANTAN TENGAH,74413.0,Indonesia, 082186748640,,,-1.8973498,113.2921119,https://maps.google.com/?cid=0x0:0xe441bb500ea13fcb,
toko bangunan,Toko Bahan Bangunan,Toko Bangunan DADUNG,"Sekuningan Baru, Kec. Balai Riam, Kabupaten Sukamara, Kalimantan Tengah 74172","Kec. Balai Riam, Kabupaten Sukamara",KALIMANTAN TENGAH,74172.0,Indonesia, 085373031678,,,-2.3423051,111.1879143,https://maps.google.com/?cid=0x0:0x661e5417c748891c,
toko bangunan,Toko Swalayan,Tawakal,"H32W+X64, Samba Danum, Kec. Katingan Tengah, Kabupaten Katingan, Kalimantan Tengah 74454","Samba Danum, Kec. Katingan Tengah, Kabupaten Katingan",KALIMANTAN TENGAH,74454.0,Indonesia, 085249734073,,,-1.447611,113.0955706,https://maps.google.com/?cid=0x0:0x406c9483e1012f46,
toko bangunan,Toko Bahan Bangunan,Toko rona bangunan,"35FJ+QWC, Jl. Trans Kalimantan, Pundu, Kec. Cempaga Hulu, Kabupaten Kotawaringin Timur, Kalimantan Tengah 74413","Jl. Trans Kalimantan, Pundu, Kec. Cempaga Hulu, Kabupaten Kotawaringin Timur",KALIMANTAN TENGAH,74413.0,Indonesia, 081385661699,,,-1.9255711,113.1822518,https://maps.google.com/?cid=0x0:0x4931a7eb09c4f86,
toko bangunan,Kompleks Kondominium,Tb efendi kereng pangi,"474X+F69, Jl. Trans Kalimantan, Hampalit, Kec. Katingan Hilir, Kabupaten Katingan, Kalimantan Tengah 74413","Jl. Trans Kalimantan, Hampalit, Kec. Katingan Hilir, Kabupaten Katingan",KALIMANTAN TENGAH,74413.0,Indonesia,,,,-1.8938365,113.2980356,https://maps.google.com/?cid=0x0:0x8c4d78ad04a99a99,
toko bangunan,Toko Bahan Bangunan,Toko cahaya baru,"39QQ+MC7, Jl. Kenangan, Kasongan Lama, Kec. Katingan Hilir, Kabupaten Katingan, Kalimantan Tengah 74413","Jl. Kenangan, Kasongan Lama, Kec. Katingan Hilir, Kabupaten Katingan",KALIMANTAN TENGAH,74413.0,Indonesia, 05314041157,,,-1.9108406,113.3885405,https://maps.google.com/?cid=0x0:0x6f7446b93c854edd,
toko bangunan,Toko Bahan Bangunan,AL-fatih,"Hampalit, Kec. Katingan Hilir, Kabupaten Katingan, Kalimantan Tengah 74413","Kec. Katingan Hilir, Kabupaten Katingan",KALIMANTAN TENGAH,74413.0,Indonesia, 085251272440,,,-1.895977,113.2995481,https://maps.google.com/?cid=0x0:0x1e3bd6f2e59dbeca,
toko bangunan,,TOKO BERKAT BERSAMA,"W7FM+M5C, Kp. Tengah, Kec. Katingan Kuala, Kabupaten Katingan, Kalimantan Tengah 74463","Kp. Tengah, Kec. Katingan Kuala, Kabupaten Katingan",KALIMANTAN TENGAH,74463.0,Indonesia,,,,-3.0758079,113.2829016,https://maps.google.com/?cid=0x0:0x513b6de517239391,
toko bangunan,Toko Bahan Bangunan,Tb. Rizquna,"Kasongan Lama, Kec. Katingan Hilir, Kabupaten Katingan, Kalimantan Tengah","Kabupaten Katingan, Kalimantan Tengah",KALIMANTAN TENGAH,,Indonesia,,,,-1.8875986,113.4130843,https://maps.google.com/?cid=0x0:0x1ab050668c17080e,
toko bangunan,Toko Perlengkapan Rumah,TOKO BANGUN TANI,"Jl. Brigjen Katamso, Melayu, Kec. Teweh Tengah, Kabupaten Barito Utara, Kalimantan Tengah 73814","Melayu, Kec. Teweh Tengah, Kabupaten Barito Utara",KALIMANTAN TENGAH,73814.0,Indonesia, 081351152210,,,-0.9427266,114.9047556,https://maps.google.com/?cid=0x0:0x8c679f1aad05b54d,
toko bangunan,Toko Bahan Bangunan,Toko Bangunan C.V. Citra Barito,"2VMJ+7M9, Jalan Negara, Kandui, Kec. Teweh Tengah, Kabupaten Barito Utara, Kalimantan Tengah 73814","Jalan Negara, Kandui, Kec. Teweh Tengah, Kabupaten Barito Utara",KALIMANTAN TENGAH,73814.0,Indonesia, 083899586603,,,-0.9668375,114.8817444,https://maps.google.com/?cid=0x0:0xf185322732339ff6,
toko bangunan,Toko Bahan Bangunan,Toko Wengga Bangunan,"tepat di depan hotel wella, Jln tjilik riwut, Baamang Tengah, Kec. Baamang, Kabupaten Kotawaringin Timur, Kalimantan Tengah 74312","Jln tjilik riwut, Baamang Tengah, Kec. Baamang, Kabupaten Kotawaringin Timur",KALIMANTAN TENGAH,74312.0,Indonesia, 08161999912,,,-2.5157477,112.9509568,https://maps.google.com/?cid=0x0:0xa693068d39f58919,
toko bangunan,Toko Bahan Bangunan,Toko bangunan,"Jl. Bandar Agung, Pelantaran, Kec. Cempaga Hulu, Kabupaten Kotawaringin Timur, Kalimantan Tengah 74354","Pelantaran, Kec. Cempaga Hulu, Kabupaten Kotawaringin Timur",KALIMANTAN TENGAH,74354.0,Indonesia, 08161999912,,,-2.0434116,112.9769704,https://maps.google.com/?cid=0x0:0x1c3ae9dd82e03e2f,
toko bangunan,Toko Bahan Bangunan,Bumi Bangunan,"Muara Teweh, Jl. Ampah No.RT 09, Ampah Kota, Kec. Dusun Tengah, Kabupaten Barito Timur, Kalimantan Tengah 73652","Jl. Ampah No.RT 09, Ampah Kota, Kec. Dusun Tengah, Kabupaten Barito Timur",KALIMANTAN TENGAH,73652.0,Indonesia, 081287458656,,,-1.7910596,115.1503415,https://maps.google.com/?cid=0x0:0x332c6d59f1964b74,
toko bangunan,Toko Bahan Bangunan,Toko Al Banjari,"37XW+XXJ, Jl. Pembangunan, Hampalit, Kec. Katingan Hilir, Kabupaten Katingan, Kalimantan Tengah 74413","Jl. Pembangunan, Hampalit, Kec. Katingan Hilir, Kabupaten Katingan",KALIMANTAN TENGAH,74413.0,Indonesia, 082152733402,,,-1.9000387,113.2974003,https://maps.google.com/?cid=0x0:0xcb60c1c0bc81e79b,
toko bangunan,toko bangunan,Kalimantan Tengah 74463,"Kabupaten Katingan, Kalimantan Tengah","Kabupaten Katingan, Kalimantan Tengah",KALIMANTAN TENGAH,,Indonesia,,,,-2.9195423,113.287085,https://maps.google.com/?cid=0x0:0x667e7a72fdeb8e94,
toko bangunan,,TOKO BERKAT BERSAMA,"W7FM+M5C, Kp. Tengah, Kec. Katingan Kuala, Kabupaten Katingan, Kalimantan Tengah 74463","Kp. Tengah, Kec. Katingan Kuala, Kabupaten Katingan",KALIMANTAN TENGAH,74463.0,Indonesia,,,,-3.0758079,113.2829016,https://maps.google.com/?cid=0x0:0x513b6de517239391,
toko bangunan,toko bangunan,Toko Bangunan BJA,"P8JP+6P9, Pegatan Hilir, Kec. Katingan Kuala, Kabupaten Katingan, Kalimantan Tengah 74463","Pegatan Hilir, Kec. Katingan Kuala, Kabupaten Katingan",KALIMANTAN TENGAH,74463.0,Indonesia,,,,-3.2694578,113.3368559,https://maps.google.com/?cid=0x0:0x76a7d6502aab84e9,
toko bangunan,toko bangunan,Kalimantan Tengah 74454,Kalimantan Tengah,Kalimantan Tengah,KALIMANTAN TENGAH,,Indonesia,,,,-1.4341471,113.1441558,https://maps.google.com/?cid=0x0:0x4b759053d82a4f96,
toko bangunan,Toko Swalayan,Tawakal,"H32W+X64, Samba Danum, Kec. Katingan Tengah, Kabupaten Katingan, Kalimantan Tengah 74454","Samba Danum, Kec. Katingan Tengah, Kabupaten Katingan",KALIMANTAN TENGAH,74454.0,Indonesia, 085249734073,,,-1.447611,113.0955706,https://maps.google.com/?cid=0x0:0x406c9483e1012f46,
toko bangunan,Toko Bahan Bangunan,toko bangunan cv. widia,"G4R3+MX3, Jl. danau mare, Samba Danum, Kec. Katingan Tengah, Kabupaten Katingan, Kalimantan Tengah 74454","Jl. danau mare, Samba Danum, Kec. Katingan Tengah, Kabupaten Katingan",KALIMANTAN TENGAH,74454.0,Indonesia, 081396801512,,,-1.4583595,113.1049086,https://maps.google.com/?cid=0x0:0xb4f2fb207f4e0616,
toko bangunan,Toko Bahan Bangunan,Toko Bangunan Fasya,"Jln. Tumbang samba km 27, desa, Karya unggang, Kec. Tewang Sangalang Garing, Kabupaten Katingan, Kalimantan Tengah 74453","desa, Karya unggang, Kec. Tewang Sangalang Garing, Kabupaten Katingan",KALIMANTAN TENGAH,74453.0,Indonesia, 081396801512,,,-1.7299252,113.1453314,https://maps.google.com/?cid=0x0:0x44bf5edc4ed75ac0,
toko bangunan,Toko Bahan Bangunan,Toko karya mandiri,"G3WX+5MG, Samba Danum, Kec. Katingan Tengah, Kabupaten Katingan, Kalimantan Tengah 74454","Samba Danum, Kec. Katingan Tengah, Kabupaten Katingan",KALIMANTAN TENGAH,74454.0,Indonesia,,,,-1.4545269,113.0992403,https://maps.google.com/?cid=0x0:0x99e13bc7f63be3ec,
toko bangunan,Toko Bahan Bangunan,Toko Sumber Berkah,"36CC+3XQ, Jl. Trans Kalimantan, Hampalit, Kec. Katingan Hilir, Kabupaten Katingan, Kalimantan Tengah 74413","Jl. Trans Kalimantan, Hampalit, Kec. Katingan Hilir, Kabupaten Katingan",KALIMANTAN TENGAH,74413.0,Indonesia, 081396801512,,,-1.9297944,113.2224787,https://maps.google.com/?cid=0x0:0x47ccc1b4bcbb7e2,
toko bangunan,Toko Bahan Bangunan,Toko bangunan Mulia Batako,"37V7+XC6, Hampalit, Kec. Katingan Hilir, Kabupaten Katingan, Kalimantan Tengah 74413","Hampalit, Kec. Katingan Hilir, Kabupaten Katingan",KALIMANTAN TENGAH,74413.0,Indonesia, 081396801512,,,-1.9050835,113.2635143,https://maps.google.com/?cid=0x0:0x76397f80d1a8e81e,
toko bangunan,Toko Bahan Bangunan,Toko Guna Bangun,"473R+3R9 Pesan Antar Chat No T0k0 Kami 0  7  • I 5 5 O • 6 6 I O TOKO, Jl. Trans Kalimantan, Hampalit, Kec. Katingan Hilir, Kabupaten Katingan, Kalimantan Tengah 74413","Jl. Trans Kalimantan, Hampalit, Kec. Katingan Hilir, Kabupaten Katingan",KALIMANTAN TENGAH,74413.0,Indonesia, 082186748640,,,-1.8973498,113.2921119,https://maps.google.com/?cid=0x0:0xe441bb500ea13fcb,
toko bangunan,Toko Bahan Bangunan,Toko yani,"4853+4HQ, Jl. Trans Kalimantan, Hampalit, Kec. Katingan Hilir, Kabupaten Katingan, Kalimantan Tengah 74413","Jl. Trans Kalimantan, Hampalit, Kec. Katingan Hilir, Kabupaten Katingan",KALIMANTAN TENGAH,74413.0,Indonesia, 081396801512,,,-1.8921562,113.3039841,https://maps.google.com/?cid=0x0:0x89fe1a8572d36158,
toko bangunan,Toko,Mama rya rasya,"Samba Katung, Kec. Katingan Tengah, Kabupaten Katingan, Kalimantan Tengah 74454","Kec. Katingan Tengah, Kabupaten Katingan",KALIMANTAN TENGAH,74454.0,Indonesia, 082256544898,,,-1.4348489,113.1019876,https://maps.google.com/?cid=0x0:0x1d87958fa55df4d5,
toko bangunan,Toko Swalayan,Rumah Ridho Saputra,"H3C3+MQG, Batu Badinding, Kec. Katingan Tengah, Kabupaten Katingan, Kalimantan Tengah 74454","Batu Badinding, Kec. Katingan Tengah, Kabupaten Katingan",KALIMANTAN TENGAH,74454.0,Indonesia,,,,-1.4286743,113.055207,https://maps.google.com/?cid=0x0:0xf137f7237eaf9d4e,
toko bangunan,Toko Perlengkapan Rumah,TOKO BANGUNAN TAMARA,"jl.walter tarung samping smpn 1 No.rt 3, Danau Pantau, Kec. Timpah, Kabupaten Kapuas, Kalimantan Tengah 73554","Danau Pantau, Kec. Timpah, Kabupaten Kapuas",KALIMANTAN TENGAH,73554.0,Indonesia, 081396801512,,,-1.7260029,114.4770706,https://maps.google.com/?cid=0x0:0xa949d7d7a8a004e5,
toko bangunan,Toko Bahan Bangunan,Tb banua jaya kasongan,"Jl. Tjilik Riwut No.202, Kasongan Lama, Kec. Katingan Hilir, Kabupaten Katingan, Kalimantan Tengah 74413","Kasongan Lama, Kec. Katingan Hilir, Kabupaten Katingan",KALIMANTAN TENGAH,74413.0,Indonesia, 081396801512,,,-1.9166381,113.3785659,https://maps.google.com/?cid=0x0:0x3002d99ec746a851,
toko bangunan,Toko Bahan Bangunan,Keramika,"Jl. Tjilik Riwut, Lama, Kec. Katingan Hilir, Kabupaten Katingan, Kalimantan Tengah 74413","Lama, Kec. Katingan Hilir, Kabupaten Katingan",KALIMANTAN TENGAH,74413.0,Indonesia, 08115218088,,,-1.8920631,113.3916119,https://maps.google.com/?cid=0x0:0x162617e9e154e73f,
toko bangunan,Toko Bahan Bangunan,Toko Harapan,"493Q+F7X, Kasongan Lama, Kec. Katingan Hilir, Kabupaten Katingan, Kalimantan Tengah 74413","Kasongan Lama, Kec. Katingan Hilir, Kabupaten Katingan",KALIMANTAN TENGAH,74413.0,Indonesia, 085249325527,,,-1.8962514,113.388248,https://maps.google.com/?cid=0x0:0xdd29ea1dc1d3f8d1,
toko bangunan,Toko Bahan Bangunan,Toko Bangunan SUMBER BAROKAH TIMPAH,"7FFF+2P8, Jl. Lintas Palangkaraya-Buntok, Danau Pantau, Kec. Timpah, Kabupaten Kapuas, Kalimantan Tengah 73553","Jl. Lintas Palangkaraya-Buntok, Danau Pantau, Kec. Timpah, Kabupaten Kapuas",KALIMANTAN TENGAH,73553.0,Indonesia,,,,-1.7274506,114.4743325,https://maps.google.com/?cid=0x0:0x6badedf667e0f1f5,
toko bangunan,Toko Bahan Bangunan,AL-fatih,"Hampalit, Kec. Katingan Hilir, Kabupaten Katingan, Kalimantan Tengah 74413","Kec. Katingan Hilir, Kabupaten Katingan",KALIMANTAN TENGAH,74413.0,Indonesia, 085251272440,,,-1.895977,113.2995481,https://maps.google.com/?cid=0x0:0x1e3bd6f2e59dbeca,
toko bangunan,toko bangunan,Kalimantan Tengah 74456,"Kabupaten Katingan, Kalimantan Tengah","Kabupaten Katingan, Kalimantan Tengah",KALIMANTAN TENGAH,,Indonesia,,,,-0.941524,112.6675398,https://maps.google.com/?cid=0x0:0xe4ef994f6c6adcfe,
toko bangunan,Toko Bahan Bangunan,toko bangunan cv. widia,"G4R3+MX3, Jl. danau mare, Samba Danum, Kec. Katingan Tengah, Kabupaten Katingan, Kalimantan Tengah 74454","Jl. danau mare, Samba Danum, Kec. Katingan Tengah, Kabupaten Katingan",KALIMANTAN TENGAH,74454.0,Indonesia, 081396801512,,,-1.4583595,113.1049086,https://maps.google.com/?cid=0x0:0xb4f2fb207f4e0616,
toko bangunan,Toko Bahan Bangunan,Toko bangunan Mulia Batako,"37V7+XC6, Hampalit, Kec. Katingan Hilir, Kabupaten Katingan, Kalimantan Tengah 74413","Hampalit, Kec. Katingan Hilir, Kabupaten Katingan",KALIMANTAN TENGAH,74413.0,Indonesia, 081396801512,,,-1.9050835,113.2635143,https://maps.google.com/?cid=0x0:0x76397f80d1a8e81e,
toko bangunan,Toko Bahan Bangunan,Toko bahan bangunan jorista,"Batu Belaman, Kec. Kumai, Kabupaten Kotawaringin Barat, Kalimantan Tengah","Kabupaten Kotawaringin Barat, Kalimantan Tengah",KALIMANTAN TENGAH,,Indonesia, 08161999912,,,-2.758467,111.6541483,https://maps.google.com/?cid=0x0:0xe25fd8845ba96f1d,
toko bangunan,Toko Bahan Bangunan,TOKO DIKA BANGUNAN,"Jl. Manduhara No.07, Kereng Bangkirai, Kec. Sebangau, Kota Palangka Raya, Kalimantan Tengah 74874","Kereng Bangkirai, Kec. Sebangau, Kota Palangka Raya",KALIMANTAN TENGAH,74874.0,Indonesia, 085129527464,,,-2.2921323,113.9152884,https://maps.google.com/?cid=0x0:0xfeea700768c0b6b9,
toko bangunan,,Toko tehnik bangunan,"Lintas DESA Tumbang Empas, Tuyun, Kec. Mihing Raya, Kabupaten Gunung MAS, Kalimantan Tengah 74863","Tuyun, Kec. Mihing Raya, Kabupaten Gunung MAS",KALIMANTAN TENGAH,74863.0,Indonesia, 085169982128,,,-1.3909624,113.9080079,https://maps.google.com/?cid=0x0:0xa9e884d75e90cf78,
toko bangunan,Toko Bahan Bangunan,Toko Bangunan Fasya,"Jln. Tumbang samba km 27, desa, Karya unggang, Kec. Tewang Sangalang Garing, Kabupaten Katingan, Kalimantan Tengah 74453","desa, Karya unggang, Kec. Tewang Sangalang Garing, Kabupaten Katingan",KALIMANTAN TENGAH,74453.0,Indonesia, 081396801512,,,-1.7299252,113.1453314,https://maps.google.com/?cid=0x0:0x44bf5edc4ed75ac0,
toko bangunan,Toko Bahan Bangunan,Toko Bangunan DADUNG,"Sekuningan Baru, Kec. Balai Riam, Kabupaten Sukamara, Kalimantan Tengah 74172","Kec. Balai Riam, Kabupaten Sukamara",KALIMANTAN TENGAH,74172.0,Indonesia, 085373031678,,,-2.3423051,111.1879143,https://maps.google.com/?cid=0x0:0x661e5417c748891c,
toko bangunan,Toko Bahan Bangunan,Toko Bangunan Sumber Mufakat,"Jl. Rajawali, Bukit Tunggal, Kec. Jekan Raya, Kota Palangka Raya, Kalimantan Tengah 74874","Bukit Tunggal, Kec. Jekan Raya, Kota Palangka Raya",KALIMANTAN TENGAH,74874.0,Indonesia, 082173389240,,,-2.1843431,113.8846027,https://maps.google.com/?cid=0x0:0xf37943877496f7bd,
toko bangunan,Toko Bahan Bangunan,Keramika,"Jl. Tjilik Riwut, Lama, Kec. Katingan Hilir, Kabupaten Katingan, Kalimantan Tengah 74413","Lama, Kec. Katingan Hilir, Kabupaten Katingan",KALIMANTAN TENGAH,74413.0,Indonesia, 08115218088,,,-1.8920631,113.3916119,https://maps.google.com/?cid=0x0:0x162617e9e154e73f,
toko bangunan,Toko Bahan Bangunan,Gemilang Pusat Bahan Bangunan RTA Milono Palangka Raya,"Jl. RTA Milono, Menteng, Kec. Jekan Raya, Kota Palangka Raya, Kalimantan Tengah 74874","Menteng, Kec. Jekan Raya, Kota Palangka Raya",KALIMANTAN TENGAH,74874.0,Indonesia, 081250170853,,,-2.240658,113.919759,https://maps.google.com/?cid=0x0:0xd0ff11a63ca3103f,
toko bangunan,Toko Perlengkapan Rumah,Toko Sri Rejeki 1,"Baamang Hulu, Kec. Baamang, Kabupaten Kotawaringin Timur, Kalimantan Tengah 74312","Kec. Baamang, Kabupaten Kotawaringin Timur",KALIMANTAN TENGAH,74312.0,Indonesia, 085185536616,,,-2.5049828,112.960501,https://maps.google.com/?cid=0x0:0xe3e83d537efd03b7,
toko bangunan,Toko Bahan Bangunan,Toko Guna Bangun,"473R+3R9 Pesan Antar Chat No T0k0 Kami 0  7  • I 5 5 O • 6 6 I O TOKO, Jl. Trans Kalimantan, Hampalit, Kec. Katingan Hilir, Kabupaten Katingan, Kalimantan Tengah 74413","Jl. Trans Kalimantan, Hampalit, Kec. Katingan Hilir, Kabupaten Katingan",KALIMANTAN TENGAH,74413.0,Indonesia, 082186748640,,,-1.8973498,113.2921119,https://maps.google.com/?cid=0x0:0xe441bb500ea13fcb,
toko bangunan,Toko Bahan Bangunan,Borneo Raya Cipta,"Jl. Menteng Raya No.I, Menteng, Kec. Jekan Raya, Kota Palangka Raya, Kalimantan Tengah 74874","Menteng, Kec. Jekan Raya, Kota Palangka Raya",KALIMANTAN TENGAH,74874.0,Indonesia, 081396801512,,,-2.2355202,113.9181017,https://maps.google.com/?cid=0x0:0x283a7c29902e4003,
toko bangunan,Toko Bahan Bangunan,Toko Bangunan ARINA,"Jl. Jati No.25e, Panarung, Kec. Pahandut, Kota Palangka Raya, Kalimantan Tengah 74874","Panarung, Kec. Pahandut, Kota Palangka Raya",KALIMANTAN TENGAH,74874.0,Indonesia, 081374133413,,,-2.2236068,113.9366515,https://maps.google.com/?cid=0x0:0xe4b2c50b07ba9361,
toko bangunan,Pemasok Bahan Bangunan,Toko Bangunan Risa,"HFX6+53C, Sebabi, Kec. Telawang, Kabupaten Kotawaringin Timur, Kalimantan Tengah 74353","Sebabi, Kec. Telawang, Kabupaten Kotawaringin Timur",KALIMANTAN TENGAH,74353.0,Indonesia, 081396801512,,,-2.4020531,112.4601441,https://maps.google.com/?cid=0x0:0x50207bf2e02af245,
toko bangunan,Toko Bahan Bangunan,Berkah doa'bersama,"Jln.Anjar Sugianto, Mulya Agung, Waringin timur, Kabupaten Kotawaringin Timur, Kalimantan Tengah 74344","Mulya Agung, Waringin timur, Kabupaten Kotawaringin Timur",KALIMANTAN TENGAH,74344.0,Indonesia, 082211056535,,,-1.5145677,112.7330892,https://maps.google.com/?cid=0x0:0x75e8635ab960e929,
toko bangunan,Toko Bahan Bangunan,Toko Bangunan Sumber Mulya,"5 No, Jl. RTA Milono, Langkai, Kec. Jekan Raya, Kota Palangka Raya, Kalimantan Tengah 74874","Jl. RTA Milono, Langkai, Kec. Jekan Raya, Kota Palangka Raya",KALIMANTAN TENGAH,74874.0,Indonesia, 087788060738,,,-2.2330886,113.9201231,https://maps.google.com/?cid=0x0:0xf07d53868252c69b,
toko bangunan,toko bangunan,TOKO BANGUNAN MASSAKI / SINAR LESTARI BANGUNAN,"Patam Lestari, Kec. Sekupang, Kota Batam, Kepulauan Riau","Kota Batam, Kepulauan Riau",KALIMANTAN TENGAH,,Indonesia, 085166903897,,,1.1232141,103.9689912,https://maps.google.com/?cid=0x0:0x3a86ef85e61cc8b8,
toko bangunan,Toko Bahan Bangunan,Mitra Bangunan,"Mendawai, Kec. Sukamara, Kabupaten Sukamara, Kalimantan Tengah 74172","Kec. Sukamara, Kabupaten Sukamara",KALIMANTAN TENGAH,74172.0,Indonesia, 081385661699,,,-2.7095273,111.172946,https://maps.google.com/?cid=0x0:0x803deb8352b48943,
toko bangunan,toko bangunan,Mendawai,"Tlk. Sebulu, Kec. Mendawai, Kabupaten Katingan, Kalimantan Tengah","Kabupaten Katingan, Kalimantan Tengah",KALIMANTAN TENGAH,,Indonesia,,,,-3.013896,113.2584,https://maps.google.com/?cid=0x0:0x44f7d29229cbfb62,
toko bangunan,Toko Perlengkapan Rumah,Toko Sri Rejeki 1,"Baamang Hulu, Kec. Baamang, Kabupaten Kotawaringin Timur, Kalimantan Tengah 74312","Kec. Baamang, Kabupaten Kotawaringin Timur",KALIMANTAN TENGAH,74312.0,Indonesia, 085185536616,,,-2.5049828,112.960501,https://maps.google.com/?cid=0x0:0xe3e83d537efd03b7,
toko bangunan,Toko Bahan Bangunan,Toko sumber bangunan,"75P8+JHX, Jl. Setia Yakin, Mendawai, Kec. Sukamara, Kabupaten Sukamara, Kalimantan Tengah 74172","Jl. Setia Yakin, Mendawai, Kec. Sukamara, Kabupaten Sukamara",KALIMANTAN TENGAH,74172.0,Indonesia, 085386667979,,,-2.7133757,111.1664878,https://maps.google.com/?cid=0x0:0x3909bc11f7b0ebc2,
toko bangunan,Toko Bahan Bangunan,toko bintang bangunan,"8J4G+Q57, Sidorejo, Kec. Arut Sel., Kabupaten Kotawaringin Barat, Kalimantan Tengah 74112","Sidorejo, Kec. Arut Sel., Kabupaten Kotawaringin Barat",KALIMANTAN TENGAH,74112.0,Indonesia, 082295703574,,,-2.6930953,111.6254124,https://maps.google.com/?cid=0x0:0xa9d41cf28beef9d8,
toko bangunan,Toko Bahan Bangunan,Toko Guna Bangun,"473R+3R9 Pesan Antar Chat No T0k0 Kami 0  7  • I 5 5 O • 6 6 I O TOKO, Jl. Trans Kalimantan, Hampalit, Kec. Katingan Hilir, Kabupaten Katingan, Kalimantan Tengah 74413","Jl. Trans Kalimantan, Hampalit, Kec. Katingan Hilir, Kabupaten Katingan",KALIMANTAN TENGAH,74413.0,Indonesia, 082186748640,,,-1.8973498,113.2921119,https://maps.google.com/?cid=0x0:0xe441bb500ea13fcb,
toko bangunan,Pusat Perbelanjaan,Toko bangunan,"GWM9+J82, Karangmulya, Kec. Pangkalan Banteng, Kabupaten Kotawaringin Barat, Kalimantan Tengah 74183","Karangmulya, Kec. Pangkalan Banteng, Kabupaten Kotawaringin Barat",KALIMANTAN TENGAH,74183.0,Indonesia, 081396801512,,,-2.4659895,111.9182751,https://maps.google.com/?cid=0x0:0x2a6ff9df88b77624,
toko bangunan,Toko Bahan Bangunan,Toko Bangunan Kalibata Jaya,"PWP6+45H, Jl. Kalibata, Menteng, Kec. Jekan Raya, Kota Palangka Raya, Kalimantan Tengah 74874","Jl. Kalibata, Menteng, Kec. Jekan Raya, Kota Palangka Raya",KALIMANTAN TENGAH,74874.0,Indonesia, 0816992047,,,-2.2638689,113.9107013,https://maps.google.com/?cid=0x0:0x4f1106acc8dfae3e,
toko bangunan,Toko Bahan Bangunan,Toko Bangunan ALBASITHU,"Jl. Bhayangkara No.35, Pasir Panjang, Kec. Arut Sel., Kabupaten Kotawaringin Barat, Kalimantan Tengah 74181","Pasir Panjang, Kec. Arut Sel., Kabupaten Kotawaringin Barat",KALIMANTAN TENGAH,74181.0,Indonesia, 082182357020,,,-2.7343091,111.6389463,https://maps.google.com/?cid=0x0:0x55b57a034739091,
toko bangunan,Toko Bahan Bangunan,Toko bangunan,"Jl. Bandar Agung, Pelantaran, Kec. Cempaga Hulu, Kabupaten Kotawaringin Timur, Kalimantan Tengah 74354","Pelantaran, Kec. Cempaga Hulu, Kabupaten Kotawaringin Timur",KALIMANTAN TENGAH,74354.0,Indonesia, 08161999912,,,-2.0434116,112.9769704,https://maps.google.com/?cid=0x0:0x1c3ae9dd82e03e2f,
toko bangunan,Toko Bahan Bangunan,Toko Bangunan Fasya,"Jln. Tumbang samba km 27, desa, Karya unggang, Kec. Tewang Sangalang Garing, Kabupaten Katingan, Kalimantan Tengah 74453","desa, Karya unggang, Kec. Tewang Sangalang Garing, Kabupaten Katingan",KALIMANTAN TENGAH,74453.0,Indonesia, 081396801512,,,-1.7299252,113.1453314,https://maps.google.com/?cid=0x0:0x44bf5edc4ed75ac0,
toko bangunan,Toko Bahan Bangunan,Toko Bangunan DADUNG,"Sekuningan Baru, Kec. Balai Riam, Kabupaten Sukamara, Kalimantan Tengah 74172","Kec. Balai Riam, Kabupaten Sukamara",KALIMANTAN TENGAH,74172.0,Indonesia, 085373031678,,,-2.3423051,111.1879143,https://maps.google.com/?cid=0x0:0x661e5417c748891c,
toko bangunan,,Toko tehnik bangunan,"Lintas DESA Tumbang Empas, Tuyun, Kec. Mihing Raya, Kabupaten Gunung MAS, Kalimantan Tengah 74863","Tuyun, Kec. Mihing Raya, Kabupaten Gunung MAS",KALIMANTAN TENGAH,74863.0,Indonesia, 085169982128,,,-1.3909624,113.9080079,https://maps.google.com/?cid=0x0:0xa9e884d75e90cf78,
toko bangunan,Toko Bahan Bangunan,Gemilang Pusat Bahan Bangunan RTA Milono Palangka Raya,"Jl. RTA Milono, Menteng, Kec. Jekan Raya, Kota Palangka Raya, Kalimantan Tengah 74874","Menteng, Kec. Jekan Raya, Kota Palangka Raya",KALIMANTAN TENGAH,74874.0,Indonesia, 081250170853,,,-2.240658,113.919759,https://maps.google.com/?cid=0x0:0xd0ff11a63ca3103f,
toko bangunan,Toko Bahan Bangunan,Toko Bangunan Sumber Mufakat,"Jl. Rajawali, Bukit Tunggal, Kec. Jekan Raya, Kota Palangka Raya, Kalimantan Tengah 74874","Bukit Tunggal, Kec. Jekan Raya, Kota Palangka Raya",KALIMANTAN TENGAH,74874.0,Indonesia, 082173389240,,,-2.1843431,113.8846027,https://maps.google.com/?cid=0x0:0xf37943877496f7bd,
toko bangunan,Toko Bahan Bangunan,Toko rona bangunan,"35FJ+QWC, Jl. Trans Kalimantan, Pundu, Kec. Cempaga Hulu, Kabupaten Kotawaringin Timur, Kalimantan Tengah 74413","Jl. Trans Kalimantan, Pundu, Kec. Cempaga Hulu, Kabupaten Kotawaringin Timur",KALIMANTAN TENGAH,74413.0,Indonesia, 081385661699,,,-1.9255711,113.1822518,https://maps.google.com/?cid=0x0:0x4931a7eb09c4f86,
toko bangunan,Toko Bahan Bangunan,Toko Bangunan Sumber Mulya,"5 No, Jl. RTA Milono, Langkai, Kec. Jekan Raya, Kota Palangka Raya, Kalimantan Tengah 74874","Jl. RTA Milono, Langkai, Kec. Jekan Raya, Kota Palangka Raya",KALIMANTAN TENGAH,74874.0,Indonesia, 087788060738,,,-2.2330886,113.9201231,https://maps.google.com/?cid=0x0:0xf07d53868252c69b,
toko bangunan,Toko Bahan Bangunan,"TOKO NBOBBY, Jual Bahan Bangunan, Alat Listrik, Pecah Belah, Dll","Jl. Bukit Kaminting, Palangka, Kec. Jekan Raya, Kota Palangka Raya, Kalimantan Tengah 74874","Palangka, Kec. Jekan Raya, Kota Palangka Raya",KALIMANTAN TENGAH,74874.0,Indonesia, 087788060738,,,-2.1990108,113.8845165,https://maps.google.com/?cid=0x0:0xcac1a820b28b16b7,
toko bangunan,Toko Bahan Bangunan,Toko bangunan Mulia Batako,"37V7+XC6, Hampalit, Kec. Katingan Hilir, Kabupaten Katingan, Kalimantan Tengah 74413","Hampalit, Kec. Katingan Hilir, Kabupaten Katingan",KALIMANTAN TENGAH,74413.0,Indonesia, 081396801512,,,-1.9050835,113.2635143,https://maps.google.com/?cid=0x0:0x76397f80d1a8e81e,
toko bangunan,,TOKO BERKAT BERSAMA,"W7FM+M5C, Kp. Tengah, Kec. Katingan Kuala, Kabupaten Katingan, Kalimantan Tengah 74463","Kp. Tengah, Kec. Katingan Kuala, Kabupaten Katingan",KALIMANTAN TENGAH,74463.0,Indonesia,,,,-3.0758079,113.2829016,https://maps.google.com/?cid=0x0:0x513b6de517239391,
toko bangunan,toko bangunan,,,,KALIMANTAN TENGAH,,Indonesia, 081256773171,,,,,https://maps.google.com/?cid=0x0:0x852ca20ee2645555,
toko bangunan,Toko Perlengkapan Rumah,TB Hari Jaya toko Bangunan dan cat,"8MQ2+XFF, Jl. Dr. H. Ujang Iskandar, Raja Seberang, Kec. Arut Sel., Kabupaten Kotawaringin Barat, Kalimantan Tengah 74111","Jl. Dr. H. Ujang Iskandar, Raja Seberang, Kec. Arut Sel., Kabupaten Kotawaringin Barat",KALIMANTAN TENGAH,74111.0,Indonesia, 082174980800,,,-2.6601133,111.6511884,https://maps.google.com/?cid=0x0:0xa2b142bed176fd36,
toko bangunan,Toko Bahan Bangunan,Toko Bangunan Fasya,"Jln. Tumbang samba km 27, desa, Karya unggang, Kec. Tewang Sangalang Garing, Kabupaten Katingan, Kalimantan Tengah 74453","desa, Karya unggang, Kec. Tewang Sangalang Garing, Kabupaten Katingan",KALIMANTAN TENGAH,74453.0,Indonesia, 081396801512,,,-1.7299252,113.1453314,https://maps.google.com/?cid=0x0:0x44bf5edc4ed75ac0,
toko bangunan,toko bangunan,Kalimantan Tengah 74455,"Kabupaten Katingan, Kalimantan Tengah","Kabupaten Katingan, Kalimantan Tengah",KALIMANTAN TENGAH,,Indonesia,,,,-0.9046398,112.9058802,https://maps.google.com/?cid=0x0:0x104255e14ad2f30a,
toko bangunan,Toko Bahan Bangunan,Toko bangunan Mulia Batako,"37V7+XC6, Hampalit, Kec. Katingan Hilir, Kabupaten Katingan, Kalimantan Tengah 74413","Hampalit, Kec. Katingan Hilir, Kabupaten Katingan",KALIMANTAN TENGAH,74413.0,Indonesia, 081396801512,,,-1.9050835,113.2635143,https://maps.google.com/?cid=0x0:0x76397f80d1a8e81e,
toko bangunan,Toko Swalayan,Tawakal,"H32W+X64, Samba Danum, Kec. Katingan Tengah, Kabupaten Katingan, Kalimantan Tengah 74454","Samba Danum, Kec. Katingan Tengah, Kabupaten Katingan",KALIMANTAN TENGAH,74454.0,Indonesia, 085249734073,,,-1.447611,113.0955706,https://maps.google.com/?cid=0x0:0x406c9483e1012f46,
toko bangunan,Bengkel Sepeda Motor,Bengkel motor sinar wijaya,"J38W+XCC, Rantau Bangkiang, Kec. Sanaman Mantikei, Kabupaten Katingan, Kalimantan Tengah 74455","Rantau Bangkiang, Kec. Sanaman Mantikei, Kabupaten Katingan",KALIMANTAN TENGAH,74455.0,Indonesia,,,,-1.3825579,113.0960039,https://maps.google.com/?cid=0x0:0x30b4095c5750afd8,
toko bangunan,Toko Bahan Bangunan,toko bangunan cv. widia,"G4R3+MX3, Jl. danau mare, Samba Danum, Kec. Katingan Tengah, Kabupaten Katingan, Kalimantan Tengah 74454","Jl. danau mare, Samba Danum, Kec. Katingan Tengah, Kabupaten Katingan",KALIMANTAN TENGAH,74454.0,Indonesia, 081396801512,,,-1.4583595,113.1049086,https://maps.google.com/?cid=0x0:0xb4f2fb207f4e0616,
toko bangunan,Toko Bahan Bangunan,Keramika,"Jl. Tjilik Riwut, Lama, Kec. Katingan Hilir, Kabupaten Katingan, Kalimantan Tengah 74413","Lama, Kec. Katingan Hilir, Kabupaten Katingan",KALIMANTAN TENGAH,74413.0,Indonesia, 08115218088,,,-1.8920631,113.3916119,https://maps.google.com/?cid=0x0:0x162617e9e154e73f,
toko bangunan,Toko Bahan Bangunan,AL-fatih,"Hampalit, Kec. Katingan Hilir, Kabupaten Katingan, Kalimantan Tengah 74413","Kec. Katingan Hilir, Kabupaten Katingan",KALIMANTAN TENGAH,74413.0,Indonesia, 085251272440,,,-1.895977,113.2995481,https://maps.google.com/?cid=0x0:0x1e3bd6f2e59dbeca,
toko bangunan,Toko Bahan Bangunan,Toko karya mandiri,"G3WX+5MG, Samba Danum, Kec. Katingan Tengah, Kabupaten Katingan, Kalimantan Tengah 74454","Samba Danum, Kec. Katingan Tengah, Kabupaten Katingan",KALIMANTAN TENGAH,74454.0,Indonesia,,,,-1.4545269,113.0992403,https://maps.google.com/?cid=0x0:0x99e13bc7f63be3ec,
toko bangunan,Toko Perlengkapan Rumah,TB Hari Jaya toko Bangunan dan cat,"8MQ2+XFF, Jl. Dr. H. Ujang Iskandar, Raja Seberang, Kec. Arut Sel., Kabupaten Kotawaringin Barat, Kalimantan Tengah 74111","Jl. Dr. H. Ujang Iskandar, Raja Seberang, Kec. Arut Sel., Kabupaten Kotawaringin Barat",KALIMANTAN TENGAH,74111.0,Indonesia, 082174980800,,,-2.6601133,111.6511884,https://maps.google.com/?cid=0x0:0xa2b142bed176fd36,
toko bangunan,Toko Swalayan,Rumah Ridho Saputra,"H3C3+MQG, Batu Badinding, Kec. Katingan Tengah, Kabupaten Katingan, Kalimantan Tengah 74454","Batu Badinding, Kec. Katingan Tengah, Kabupaten Katingan",KALIMANTAN TENGAH,74454.0,Indonesia,,,,-1.4286743,113.055207,https://maps.google.com/?cid=0x0:0xf137f7237eaf9d4e,
toko bangunan,Toko,Mama rya rasya,"Samba Katung, Kec. Katingan Tengah, Kabupaten Katingan, Kalimantan Tengah 74454","Kec. Katingan Tengah, Kabupaten Katingan",KALIMANTAN TENGAH,74454.0,Indonesia, 082256544898,,,-1.4348489,113.1019876,https://maps.google.com/?cid=0x0:0x1d87958fa55df4d5,
toko bangunan,toko bangunan,FaglaKb7OunuseMPndfasQ4,,,KALIMANTAN TENGAH,,Indonesia, 087897932698,,,-2.44565,117.8888,https://maps.google.com/?cid=0x0:0xf6293eba8646423e,
toko bangunan,Toko Bahan Bangunan,TOKO ADINDA,"J9V7+GQ9, RT.007/RW.008, Tumbang Talaken, Kec. Manuhing, Kabupaten Gunung MAS, Kalimantan Tengah","Kabupaten Gunung MAS, Kalimantan Tengah",KALIMANTAN TENGAH,,Indonesia,,,,-1.35622,113.3644925,https://maps.google.com/?cid=0x0:0x2bde6969eb0c93a2,
toko bangunan,toko bangunan,Permata indah,"H4C2+C76, Unnamed Road, Samba Katung, Kec. Katingan Tengah, Kabupaten Katingan, Kalimantan Tengah 74454","Unnamed Road, Samba Katung, Kec. Katingan Tengah, Kabupaten Katingan",KALIMANTAN TENGAH,74454.0,Indonesia,,,,-1.4289608,113.1006404,https://maps.google.com/?cid=0x0:0xdccb716cc2279e4f,
toko bangunan,toko bangunan,Toko Sumber Rezeki,"H492+FC6, Samba Katung, Kec. Katingan Tengah, Kabupaten Katingan, Kalimantan Tengah","Kabupaten Katingan, Kalimantan Tengah",KALIMANTAN TENGAH,,Indonesia,,,,-1.4313272,113.1010005,https://maps.google.com/?cid=0x0:0x6abbd22b30f4615b,
toko bangunan,toko bangunan,,,,KALIMANTAN TENGAH,,Indonesia, 081256773171,,,,,https://maps.google.com/?cid=0x0:0x852ca20ee2645555,
toko bangunan,toko bangunan,Kalimantan Tengah 74453,"Kec. Pulau Malan, Kabupaten Katingan, Kalimantan Tengah","Kabupaten Katingan, Kalimantan Tengah",KALIMANTAN TENGAH,,Indonesia,,,,-1.5758863,113.2394452,https://maps.google.com/?cid=0x0:0x9458e30e87579e9,
toko bangunan,Toko Bahan Bangunan,Toko bangunan Mulia Batako,"37V7+XC6, Hampalit, Kec. Katingan Hilir, Kabupaten Katingan, Kalimantan Tengah 74413","Hampalit, Kec. Katingan Hilir, Kabupaten Katingan",KALIMANTAN TENGAH,74413.0,Indonesia, 081396801512,,,-1.9050835,113.2635143,https://maps.google.com/?cid=0x0:0x76397f80d1a8e81e,
toko bangunan,Toko Bahan Bangunan,Toko Bangunan Fasya,"Jln. Tumbang samba km 27, desa, Karya unggang, Kec. Tewang Sangalang Garing, Kabupaten Katingan, Kalimantan Tengah 74453","desa, Karya unggang, Kec. Tewang Sangalang Garing, Kabupaten Katingan",KALIMANTAN TENGAH,74453.0,Indonesia, 081396801512,,,-1.7299252,113.1453314,https://maps.google.com/?cid=0x0:0x44bf5edc4ed75ac0,
toko bangunan,Toko Bahan Bangunan,Toko Guna Bangun,"473R+3R9 Pesan Antar Chat No T0k0 Kami 0  7  • I 5 5 O • 6 6 I O TOKO, Jl. Trans Kalimantan, Hampalit, Kec. Katingan Hilir, Kabupaten Katingan, Kalimantan Tengah 74413","Jl. Trans Kalimantan, Hampalit, Kec. Katingan Hilir, Kabupaten Katingan",KALIMANTAN TENGAH,74413.0,Indonesia, 082186748640,,,-1.8973498,113.2921119,https://maps.google.com/?cid=0x0:0xe441bb500ea13fcb,
toko bangunan,Toko Bahan Bangunan,Toko Sumber Berkah,"36CC+3XQ, Jl. Trans Kalimantan, Hampalit, Kec. Katingan Hilir, Kabupaten Katingan, Kalimantan Tengah 74413","Jl. Trans Kalimantan, Hampalit, Kec. Katingan Hilir, Kabupaten Katingan",KALIMANTAN TENGAH,74413.0,Indonesia, 081396801512,,,-1.9297944,113.2224787,https://maps.google.com/?cid=0x0:0x47ccc1b4bcbb7e2,
toko bangunan,Toko Bahan Bangunan,AL-fatih,"Hampalit, Kec. Katingan Hilir, Kabupaten Katingan, Kalimantan Tengah 74413","Kec. Katingan Hilir, Kabupaten Katingan",KALIMANTAN TENGAH,74413.0,Indonesia, 085251272440,,,-1.895977,113.2995481,https://maps.google.com/?cid=0x0:0x1e3bd6f2e59dbeca,
toko bangunan,Toko Bahan Bangunan,Toko Tiara Talaken,"J9WJ+XQW, Tumbang Talaken, Kec. Manuhing, Kabupaten Gunung MAS, Kalimantan Tengah 74562","Tumbang Talaken, Kec. Manuhing, Kabupaten Gunung MAS",KALIMANTAN TENGAH,74562.0,Indonesia,,,,-1.3525023,113.3819672,https://maps.google.com/?cid=0x0:0x374aa2e967ed6b13,
toko bangunan,Toko Bahan Bangunan,Toko Dayes,"67PV+X5F, Unnamed Road, Pendahara, jln. Tumbung ingei, Pendahara, Kec. Tewang Sangalang Garing, Kabupaten Katingan, Kalimantan Tengah 74452","Unnamed Road, Pendahara, jln. Tumbung ingei, Pendahara, Kec. Tewang Sangalang Garing, Kabupaten Katingan",KALIMANTAN TENGAH,74452.0,Indonesia, 082122228701,,,-1.7625565,113.292914,https://maps.google.com/?cid=0x0:0x7c924ee7e162d9a9,
toko bangunan,Toko Bahan Bangunan,toko bangunan cv. widia,"G4R3+MX3, Jl. danau mare, Samba Danum, Kec. Katingan Tengah, Kabupaten Katingan, Kalimantan Tengah 74454","Jl. danau mare, Samba Danum, Kec. Katingan Tengah, Kabupaten Katingan",KALIMANTAN TENGAH,74454.0,Indonesia, 081396801512,,,-1.4583595,113.1049086,https://maps.google.com/?cid=0x0:0xb4f2fb207f4e0616,
toko bangunan,Toko Bahan Bangunan,Toko yani,"4853+4HQ, Jl. Trans Kalimantan, Hampalit, Kec. Katingan Hilir, Kabupaten Katingan, Kalimantan Tengah 74413","Jl. Trans Kalimantan, Hampalit, Kec. Katingan Hilir, Kabupaten Katingan",KALIMANTAN TENGAH,74413.0,Indonesia, 081396801512,,,-1.8921562,113.3039841,https://maps.google.com/?cid=0x0:0x89fe1a8572d36158,
toko bangunan,Toko Swalayan,Tawakal,"H32W+X64, Samba Danum, Kec. Katingan Tengah, Kabupaten Katingan, Kalimantan Tengah 74454","Samba Danum, Kec. Katingan Tengah, Kabupaten Katingan",KALIMANTAN TENGAH,74454.0,Indonesia, 085249734073,,,-1.447611,113.0955706,https://maps.google.com/?cid=0x0:0x406c9483e1012f46,
toko bangunan,Toko Bahan Bangunan,Keramika,"Jl. Tjilik Riwut, Lama, Kec. Katingan Hilir, Kabupaten Katingan, Kalimantan Tengah 74413","Lama, Kec. Katingan Hilir, Kabupaten Katingan",KALIMANTAN TENGAH,74413.0,Indonesia, 08115218088,,,-1.8920631,113.3916119,https://maps.google.com/?cid=0x0:0x162617e9e154e73f,
toko bangunan,Toko Bahan Bangunan,Gemilang Pusat Bahan Bangunan RTA Milono Palangka Raya,"Jl. RTA Milono, Menteng, Kec. Jekan Raya, Kota Palangka Raya, Kalimantan Tengah 74874","Menteng, Kec. Jekan Raya, Kota Palangka Raya",KALIMANTAN TENGAH,74874.0,Indonesia, 081250170853,,,-2.240658,113.919759,https://maps.google.com/?cid=0x0:0xd0ff11a63ca3103f,
toko bangunan,Toko Bahan Bangunan,Toko Harapan,"493Q+F7X, Kasongan Lama, Kec. Katingan Hilir, Kabupaten Katingan, Kalimantan Tengah 74413","Kasongan Lama, Kec. Katingan Hilir, Kabupaten Katingan",KALIMANTAN TENGAH,74413.0,Indonesia, 085249325527,,,-1.8962514,113.388248,https://maps.google.com/?cid=0x0:0xdd29ea1dc1d3f8d1,
toko bangunan,Toko Bahan Bangunan,TB SINAR MULIA,"54MV+7G2, Tewang Rangkang, Kec. Tewang Sangalang Garing, Kabupaten Katingan, Kalimantan Tengah 74452","Tewang Rangkang, Kec. Tewang Sangalang Garing, Kabupaten Katingan",KALIMANTAN TENGAH,74452.0,Indonesia,,,,-1.8168585,113.1437582,https://maps.google.com/?cid=0x0:0xa550517df47ec2ad,
toko bangunan,toko bangunan,Kec. Sanaman Mantikei,"Kabupaten Katingan, Kalimantan Tengah","Kabupaten Katingan, Kalimantan Tengah",KALIMANTAN TENGAH,,Indonesia,,,,-1.2216918,113.0488541,https://maps.google.com/?cid=0x0:0x6a00f74436dadede,
toko bangunan,Bengkel Sepeda Motor,Bengkel motor sinar wijaya,"J38W+XCC, Rantau Bangkiang, Kec. Sanaman Mantikei, Kabupaten Katingan, Kalimantan Tengah 74455","Rantau Bangkiang, Kec. Sanaman Mantikei, Kabupaten Katingan",KALIMANTAN TENGAH,74455.0,Indonesia,,,,-1.3825579,113.0960039,https://maps.google.com/?cid=0x0:0x30b4095c5750afd8,
toko bangunan,Toko Bahan Bangunan,Toko Bangunan Fasya,"Jln. Tumbang samba km 27, desa, Karya unggang, Kec. Tewang Sangalang Garing, Kabupaten Katingan, Kalimantan Tengah 74453","desa, Karya unggang, Kec. Tewang Sangalang Garing, Kabupaten Katingan",KALIMANTAN TENGAH,74453.0,Indonesia, 081396801512,,,-1.7299252,113.1453314,https://maps.google.com/?cid=0x0:0x44bf5edc4ed75ac0,
toko bangunan,Sekolah menengah,SMA Negeri 1 Sanaman Mantikei,"M32W+WPR, Unnamed Road, Tumbang Labehu, Kec. Sanaman Mantikei, Kabupaten Katingan, Kalimantan Tengah 74455","Unnamed Road, Tumbang Labehu, Kec. Sanaman Mantikei, Kabupaten Katingan",KALIMANTAN TENGAH,74455.0,Indonesia,,,,-1.3476435,113.0967654,https://maps.google.com/?cid=0x0:0x4e4158fb47347aa5,
toko bangunan,Taman Kanak-kanak,Yayasan Pedidikan Dwima Sanaman Mantikei,"Komplek YPDSM, Tumbang Manggo, Sanaman Mantikei, Katingan Regency, Central Kalimantan 74455","Tumbang Manggo, Sanaman Mantikei, Katingan Regency",KALIMANTAN TENGAH,74455.0,Indonesia,,,,-1.3196025,113.0930461,https://maps.google.com/?cid=0x0:0x26307bdd9c2a572e,
toko bangunan,Toko Bahan Bangunan,Toko Tiara Talaken,"J9WJ+XQW, Tumbang Talaken, Kec. Manuhing, Kabupaten Gunung MAS, Kalimantan Tengah 74562","Tumbang Talaken, Kec. Manuhing, Kabupaten Gunung MAS",KALIMANTAN TENGAH,74562.0,Indonesia,,,,-1.3525023,113.3819672,https://maps.google.com/?cid=0x0:0x374aa2e967ed6b13,
toko bangunan,Toko Swalayan,Tawakal,"H32W+X64, Samba Danum, Kec. Katingan Tengah, Kabupaten Katingan, Kalimantan Tengah 74454","Samba Danum, Kec. Katingan Tengah, Kabupaten Katingan",KALIMANTAN TENGAH,74454.0,Indonesia, 085249734073,,,-1.447611,113.0955706,https://maps.google.com/?cid=0x0:0x406c9483e1012f46,
toko bangunan,Toko Bahan Bangunan,Toko karya mandiri,"G3WX+5MG, Samba Danum, Kec. Katingan Tengah, Kabupaten Katingan, Kalimantan Tengah 74454","Samba Danum, Kec. Katingan Tengah, Kabupaten Katingan",KALIMANTAN TENGAH,74454.0,Indonesia,,,,-1.4545269,113.0992403,https://maps.google.com/?cid=0x0:0x99e13bc7f63be3ec,
toko bangunan,Perhimpunan Pengembang Perumahan,Tumbang manggu,"M2JP+5QW, Tumbang Manggo, Kec. Sanaman Mantikei, Kabupaten Katingan, Kalimantan Tengah 74455","Tumbang Manggo, Kec. Sanaman Mantikei, Kabupaten Katingan",KALIMANTAN TENGAH,74455.0,Indonesia,,,,-1.3195049,113.0369406,https://maps.google.com/?cid=0x0:0xd15dca50da8f215,
toko bangunan,Toko Bahan Bangunan,TOKO ADINDA,"J9V7+GQ9, RT.007/RW.008, Tumbang Talaken, Kec. Manuhing, Kabupaten Gunung MAS, Kalimantan Tengah","Kabupaten Gunung MAS, Kalimantan Tengah",KALIMANTAN TENGAH,,Indonesia,,,,-1.35622,113.3644925,https://maps.google.com/?cid=0x0:0x2bde6969eb0c93a2,
toko bangunan,Sekolah Menengah Pertama,SMA GARING TARANTANG,"Jl. UPM No.100, Tumbang Manggo, Kec. Sanaman Mantikei, Kabupaten Katingan, Kalimantan Tengah 74455","Tumbang Manggo, Kec. Sanaman Mantikei, Kabupaten Katingan",KALIMANTAN TENGAH,74455.0,Indonesia,,,,-1.3275864,113.0911713,https://maps.google.com/?cid=0x0:0x691edb0cc19565c2,
toko bangunan,Toko Bahan Bangunan,Toko bangunan Mulia Batako,"37V7+XC6, Hampalit, Kec. Katingan Hilir, Kabupaten Katingan, Kalimantan Tengah 74413","Hampalit, Kec. Katingan Hilir, Kabupaten Katingan",KALIMANTAN TENGAH,74413.0,Indonesia, 081396801512,,,-1.9050835,113.2635143,https://maps.google.com/?cid=0x0:0x76397f80d1a8e81e,
toko bangunan,Toko Bahan Bangunan,AL-fatih,"Hampalit, Kec. Katingan Hilir, Kabupaten Katingan, Kalimantan Tengah 74413","Kec. Katingan Hilir, Kabupaten Katingan",KALIMANTAN TENGAH,74413.0,Indonesia, 085251272440,,,-1.895977,113.2995481,https://maps.google.com/?cid=0x0:0x1e3bd6f2e59dbeca,
toko bangunan,Toko,Mama rya rasya,"Samba Katung, Kec. Katingan Tengah, Kabupaten Katingan, Kalimantan Tengah 74454","Kec. Katingan Tengah, Kabupaten Katingan",KALIMANTAN TENGAH,74454.0,Indonesia, 082256544898,,,-1.4348489,113.1019876,https://maps.google.com/?cid=0x0:0x1d87958fa55df4d5,
toko bangunan,Sekolah Menengah Pertama,SMK Negeri 1 Sanaman Mantikei,"JL. Drs. Soemadi No.003, Tumbang Manggo, Sanaman Mantikei, Katingan Regency, Central Kalimantan 74455","Tumbang Manggo, Sanaman Mantikei, Katingan Regency",KALIMANTAN TENGAH,74455.0,Indonesia, 05363222770,,,-1.3184038,113.0936613,https://maps.google.com/?cid=0x0:0xd00b93e83d36c32e,
toko bangunan,toko bangunan,Kalimantan Tengah 74461,"Kabupaten Katingan, Kalimantan Tengah","Kabupaten Katingan, Kalimantan Tengah",KALIMANTAN TENGAH,,Indonesia,,,,-2.0043768,113.429984,https://maps.google.com/?cid=0x0:0xa5ce32c024942d72,
toko bangunan,Toko Bahan Bangunan,CV.Vivi Anugrah Lestari,"X936+QV, Tumbang Panggo, Kec. Tasik Payawan, Kabupaten Katingan, Kalimantan Tengah","Kabupaten Katingan, Kalimantan Tengah",KALIMANTAN TENGAH,,Indonesia, 082254349134,,,-2.045585,113.362218,https://maps.google.com/?cid=0x0:0xe458b2a10e497eed,
toko bangunan,Toko Bahan Bangunan,Toko Harapan,"493Q+F7X, Kasongan Lama, Kec. Katingan Hilir, Kabupaten Katingan, Kalimantan Tengah 74413","Kasongan Lama, Kec. Katingan Hilir, Kabupaten Katingan",KALIMANTAN TENGAH,74413.0,Indonesia, 085249325527,,,-1.8962514,113.388248,https://maps.google.com/?cid=0x0:0xdd29ea1dc1d3f8d1,
toko bangunan,Toko Bahan Bangunan,Toko Guna Bangun,"473R+3R9 Pesan Antar Chat No T0k0 Kami 0  7  • I 5 5 O • 6 6 I O TOKO, Jl. Trans Kalimantan, Hampalit, Kec. Katingan Hilir, Kabupaten Katingan, Kalimantan Tengah 74413","Jl. Trans Kalimantan, Hampalit, Kec. Katingan Hilir, Kabupaten Katingan",KALIMANTAN TENGAH,74413.0,Indonesia, 082186748640,,,-1.8973498,113.2921119,https://maps.google.com/?cid=0x0:0xe441bb500ea13fcb,
toko bangunan,Toko Bahan Bangunan,Toko Bangunan Fasya,"Jln. Tumbang samba km 27, desa, Karya unggang, Kec. Tewang Sangalang Garing, Kabupaten Katingan, Kalimantan Tengah 74453","desa, Karya unggang, Kec. Tewang Sangalang Garing, Kabupaten Katingan",KALIMANTAN TENGAH,74453.0,Indonesia, 081396801512,,,-1.7299252,113.1453314,https://maps.google.com/?cid=0x0:0x44bf5edc4ed75ac0,
toko bangunan,Toko Bahan Bangunan,Keramika,"Jl. Tjilik Riwut, Lama, Kec. Katingan Hilir, Kabupaten Katingan, Kalimantan Tengah 74413","Lama, Kec. Katingan Hilir, Kabupaten Katingan",KALIMANTAN TENGAH,74413.0,Indonesia, 08115218088,,,-1.8920631,113.3916119,https://maps.google.com/?cid=0x0:0x162617e9e154e73f,
toko bangunan,Toko Bahan Bangunan,Toko cahaya baru,"39QQ+MC7, Jl. Kenangan, Kasongan Lama, Kec. Katingan Hilir, Kabupaten Katingan, Kalimantan Tengah 74413","Jl. Kenangan, Kasongan Lama, Kec. Katingan Hilir, Kabupaten Katingan",KALIMANTAN TENGAH,74413.0,Indonesia, 05314041157,,,-1.9108406,113.3885405,https://maps.google.com/?cid=0x0:0x6f7446b93c854edd,
toko bangunan,Toko Bahan Bangunan,Toko Sumber Berkah,"36CC+3XQ, Jl. Trans Kalimantan, Hampalit, Kec. Katingan Hilir, Kabupaten Katingan, Kalimantan Tengah 74413","Jl. Trans Kalimantan, Hampalit, Kec. Katingan Hilir, Kabupaten Katingan",KALIMANTAN TENGAH,74413.0,Indonesia, 081396801512,,,-1.9297944,113.2224787,https://maps.google.com/?cid=0x0:0x47ccc1b4bcbb7e2,
toko bangunan,Toko Bahan Bangunan,Toko yani,"4853+4HQ, Jl. Trans Kalimantan, Hampalit, Kec. Katingan Hilir, Kabupaten Katingan, Kalimantan Tengah 74413","Jl. Trans Kalimantan, Hampalit, Kec. Katingan Hilir, Kabupaten Katingan",KALIMANTAN TENGAH,74413.0,Indonesia, 081396801512,,,-1.8921562,113.3039841,https://maps.google.com/?cid=0x0:0x89fe1a8572d36158,
toko bangunan,Toko Bahan Bangunan,Toko Rahmah,"Jalan kereng pangi No.11, Baun Bango, Kec. Katingan Hilir, Kabupaten Katingan, Kalimantan Tengah","Kabupaten Katingan, Kalimantan Tengah",KALIMANTAN TENGAH,,Indonesia,,,,-1.9872772,113.2860994,https://maps.google.com/?cid=0x0:0x18c1c99ec25f8d5d,
toko bangunan,Toko Bahan Bangunan,Tb. Rizquna,"Kasongan Lama, Kec. Katingan Hilir, Kabupaten Katingan, Kalimantan Tengah","Kabupaten Katingan, Kalimantan Tengah",KALIMANTAN TENGAH,,Indonesia,,,,-1.8875986,113.4130843,https://maps.google.com/?cid=0x0:0x1ab050668c17080e,
toko bangunan,Toko Bahan Bangunan,AL-fatih,"Hampalit, Kec. Katingan Hilir, Kabupaten Katingan, Kalimantan Tengah 74413","Kec. Katingan Hilir, Kabupaten Katingan",KALIMANTAN TENGAH,74413.0,Indonesia, 085251272440,,,-1.895977,113.2995481,https://maps.google.com/?cid=0x0:0x1e3bd6f2e59dbeca,
toko bangunan,Toko Bahan Bangunan,Toko bangunan Mulia Batako,"37V7+XC6, Hampalit, Kec. Katingan Hilir, Kabupaten Katingan, Kalimantan Tengah 74413","Hampalit, Kec. Katingan Hilir, Kabupaten Katingan",KALIMANTAN TENGAH,74413.0,Indonesia, 081396801512,,,-1.9050835,113.2635143,https://maps.google.com/?cid=0x0:0x76397f80d1a8e81e,
toko bangunan,Kompleks Kondominium,Tb efendi kereng pangi,"474X+F69, Jl. Trans Kalimantan, Hampalit, Kec. Katingan Hilir, Kabupaten Katingan, Kalimantan Tengah 74413","Jl. Trans Kalimantan, Hampalit, Kec. Katingan Hilir, Kabupaten Katingan",KALIMANTAN TENGAH,74413.0,Indonesia,,,,-1.8938365,113.2980356,https://maps.google.com/?cid=0x0:0x8c4d78ad04a99a99,
toko bangunan,Toko Elektronik,Aka Teknik,"39QQ+MJP, Kasongan Lama, Kec. Katingan Hilir, Kabupaten Katingan, Kalimantan Tengah 74413","Kasongan Lama, Kec. Katingan Hilir, Kabupaten Katingan",KALIMANTAN TENGAH,74413.0,Indonesia, 085249247731,,,-1.9107989,113.3890676,https://maps.google.com/?cid=0x0:0x88f64f896c3237a7,
toko bangunan,Toko Bahan Bangunan,Toko Al Banjari,"37XW+XXJ, Jl. Pembangunan, Hampalit, Kec. Katingan Hilir, Kabupaten Katingan, Kalimantan Tengah 74413","Jl. Pembangunan, Hampalit, Kec. Katingan Hilir, Kabupaten Katingan",KALIMANTAN TENGAH,74413.0,Indonesia, 082152733402,,,-1.9000387,113.2974003,https://maps.google.com/?cid=0x0:0xcb60c1c0bc81e79b,
toko bangunan,Toko Bahan Bangunan,Tb. Mahkota Kasongan,"Kasongan Lama, Kec. Katingan Hilir, Kabupaten Katingan, Kalimantan Tengah","Kabupaten Katingan, Kalimantan Tengah",KALIMANTAN TENGAH,,Indonesia,,,,-1.8993977,113.3860996,https://maps.google.com/?cid=0x0:0x9161b31569a210b8,
toko bangunan,Toko Bahan Bangunan,Toko Dayes,"67PV+X5F, Unnamed Road, Pendahara, jln. Tumbung ingei, Pendahara, Kec. Tewang Sangalang Garing, Kabupaten Katingan, Kalimantan Tengah 74452","Unnamed Road, Pendahara, jln. Tumbung ingei, Pendahara, Kec. Tewang Sangalang Garing, Kabupaten Katingan",KALIMANTAN TENGAH,74452.0,Indonesia, 082122228701,,,-1.7625565,113.292914,https://maps.google.com/?cid=0x0:0x7c924ee7e162d9a9,
toko bangunan,Toko Bahan Bangunan,TOKO BANGUN BERKAH,"Tumbang Tahai, Kec. Bukit Batu, Kota Palangka Raya, Kalimantan Tengah 73112","Kec. Bukit Batu, Kota Palangka Raya",KALIMANTAN TENGAH,73112.0,Indonesia, 081396801512,,,-2.0146151,113.7617208,https://maps.google.com/?cid=0x0:0x9cf218a5f8d4e11,
toko bangunan,Toko Perlengkapan Pagar,Tk.44 St.Fatimah,"Jl .A Yani Km 12, Gg Bengkel No.132 700, RT.03/RW.01","Kabupaten Katingan, Kalimantan Tengah",KALIMANTAN TENGAH,,Indonesia,,,,-1.8963116,113.3872074,https://maps.google.com/?cid=0x0:0x6db822db40de82fe,
toko bangunan,Toko Bahan Bangunan,Asia Bangunan - Supermarket Bahan Bangunan,"Jl. Sutisna Senjaya No.83-87, Lengkongsari, Kec. Tawang, Kab. Tasikmalaya, Jawa Barat 46111","Lengkongsari, Kec. Tawang, Kab. Tasikmalaya",KALIMANTAN TENGAH,46111.0,Indonesia, 082315657771,,,-7.327953,108.2291074,https://maps.google.com/?cid=0x0:0x26afdf18d480b6c6,
toko bangunan,Pemasok Bahan Bangunan,Depo SS Bangunan Tasikmalaya - Toko Bangunan Tasikmalaya Terlengkap dan Termurah,"Jl. Mayor S.L. Tobing No.127 - 132, Linggajaya, Kec. Mangkubumi, Kab. Tasikmalaya, Jawa Barat 46181","Linggajaya, Kec. Mangkubumi, Kab. Tasikmalaya",KALIMANTAN TENGAH,46181.0,Indonesia, 0265329267,,,-7.343304,108.1984123,https://maps.google.com/?cid=0x0:0xfbe710db479d30b4,
toko bangunan,Toko Bahan Bangunan,Toko Bangunan Cahaya Baru Singaparna,"Cikadongdong, Jl. Garut - Tasikmalaya Pengkolan, Cikadongdong, Kec. Singaparna, Kabupaten Tasikmalaya, Jawa Barat 46418","Jl. Garut - Tasikmalaya Pengkolan, Cikadongdong, Kec. Singaparna, Kabupaten Tasikmalaya",KALIMANTAN TENGAH,46418.0,Indonesia, 081312530830,,,-7.3370388,108.1558808,https://maps.google.com/?cid=0x0:0xbfb4a3fa195a0887,
toko bangunan,Toko Bahan Bangunan,Bangunan Utama Sanitary,"Jl. Mitra Batik No.129, Panglayungan, Kec. Cipedes, Kab. Tasikmalaya, Jawa Barat 46134","Panglayungan, Kec. Cipedes, Kab. Tasikmalaya",KALIMANTAN TENGAH,46134.0,Indonesia, 08997735346,,,-7.3213451,108.2154331,https://maps.google.com/?cid=0x0:0xe70c91dab17c40a4,
toko bangunan,Toko Bahan Bangunan,Toko Mitra Bangunan,"Jl. Mitra Batik No.87, Cipedes, Kec. Cipedes, Kab. Tasikmalaya, Jawa Barat 46133","Cipedes, Kec. Cipedes, Kab. Tasikmalaya",KALIMANTAN TENGAH,46133.0,Indonesia, 085767802761,,,-7.3192602,108.2150831,https://maps.google.com/?cid=0x0:0x301bf26918892c91,
toko bangunan,toko bangunan,Kalimantan Tengah 74452,"Kec. Tewang Sangalang Garing, Kabupaten Katingan, Kalimantan Tengah","Kabupaten Katingan, Kalimantan Tengah",KALIMANTAN TENGAH,,Indonesia,,,,-1.7909926,113.2394452,https://maps.google.com/?cid=0x0:0x28726fa62e11e1de,
toko bangunan,Toko Bahan Bangunan,Toko Bangunan Fasya,"Jln. Tumbang samba km 27, desa, Karya unggang, Kec. Tewang Sangalang Garing, Kabupaten Katingan, Kalimantan Tengah 74453","desa, Karya unggang, Kec. Tewang Sangalang Garing, Kabupaten Katingan",KALIMANTAN TENGAH,74453.0,Indonesia, 081396801512,,,-1.7299252,113.1453314,https://maps.google.com/?cid=0x0:0x44bf5edc4ed75ac0,
toko bangunan,Toko Bahan Bangunan,TB SINAR MULIA,"54MV+7G2, Tewang Rangkang, Kec. Tewang Sangalang Garing, Kabupaten Katingan, Kalimantan Tengah 74452","Tewang Rangkang, Kec. Tewang Sangalang Garing, Kabupaten Katingan",KALIMANTAN TENGAH,74452.0,Indonesia,,,,-1.8168585,113.1437582,https://maps.google.com/?cid=0x0:0xa550517df47ec2ad,
toko bangunan,Toko Bahan Bangunan,Toko Guna Bangun,"473R+3R9 Pesan Antar Chat No T0k0 Kami 0  7  • I 5 5 O • 6 6 I O TOKO, Jl. Trans Kalimantan, Hampalit, Kec. Katingan Hilir, Kabupaten Katingan, Kalimantan Tengah 74413","Jl. Trans Kalimantan, Hampalit, Kec. Katingan Hilir, Kabupaten Katingan",KALIMANTAN TENGAH,74413.0,Indonesia, 082186748640,,,-1.8973498,113.2921119,https://maps.google.com/?cid=0x0:0xe441bb500ea13fcb,
toko bangunan,Toko Bahan Bangunan,Toko rona bangunan,"35FJ+QWC, Jl. Trans Kalimantan, Pundu, Kec. Cempaga Hulu, Kabupaten Kotawaringin Timur, Kalimantan Tengah 74413","Jl. Trans Kalimantan, Pundu, Kec. Cempaga Hulu, Kabupaten Kotawaringin Timur",KALIMANTAN TENGAH,74413.0,Indonesia, 081385661699,,,-1.9255711,113.1822518,https://maps.google.com/?cid=0x0:0x4931a7eb09c4f86,
hardware store,hardware store,Bukit Raya,"Kabupaten Katingan, Kalimantan Tengah","Kabupaten Katingan, Kalimantan Tengah",KALIMANTAN TENGAH,,Indonesia,,,,-0.9447632,112.1907122,https://maps.google.com/?cid=0x0:0xc298887006da1c70,
hardware store,Toko Bahan Bangunan,"TOKO NBOBBY, Jual Bahan Bangunan, Alat Listrik, Pecah Belah, Dll","Jl. Bukit Kaminting, Palangka, Kec. Jekan Raya, Kota Palangka Raya, Kalimantan Tengah 74874","Palangka, Kec. Jekan Raya, Kota Palangka Raya",KALIMANTAN TENGAH,74874.0,Indonesia, 087788060738,,,-2.1990108,113.8845165,https://maps.google.com/?cid=0x0:0xcac1a820b28b16b7,
hardware store,Toko Bahan Bangunan,Toko Sumber Baja Teknik (khusus eceran bahan bangunan),"Jl. Yos Sudarso depan universitas palangka raya upr No.97A, Menteng, Kec. Jekan Raya, Kota Palangka Raya, Kalimantan Tengah 74874","Menteng, Kec. Jekan Raya, Kota Palangka Raya",KALIMANTAN TENGAH,74874.0,Indonesia, 081250273545,,,-2.2161447,113.9014595,https://maps.google.com/?cid=0x0:0xf6b0ce86a6aa9b1e,
hardware store,Toko Bahan Bangunan,TB Samudra Mandiri,"Jl. Imam Munandar No.111, Bencah Lesung, Kec. Tenayan Raya, Kota Pekanbaru, Riau 28131","Bencah Lesung, Kec. Tenayan Raya, Kota Pekanbaru",KALIMANTAN TENGAH,28131.0,Indonesia, 087839727880,,,0.4960449,101.4993931,https://maps.google.com/?cid=0x0:0xa883b0c57d87bdf6,
hardware store,Toko Bahan Bangunan,TOKO BANGUNAN BB BERSAUDARA 2,"Jl. Sepakat No.12, Tengkerang Tim., Kec. Tenayan Raya, Kota Pekanbaru, Riau 28289","Tengkerang Tim., Kec. Tenayan Raya, Kota Pekanbaru",KALIMANTAN TENGAH,28289.0,Indonesia, 0817312372,,,0.4835529,101.5065434,https://maps.google.com/?cid=0x0:0x8c033ddedcfe3047,
hardware store,Toko Alat-Alat,BataMzw group 5,"Badak dekat kantor walikota, Jl. Abdul Rahman Hamid, Bencah Lesung, Kec. Tenayan Raya, Kota Pekanbaru, Riau 28289","Jl. Abdul Rahman Hamid, Bencah Lesung, Kec. Tenayan Raya, Kota Pekanbaru",KALIMANTAN TENGAH,28289.0,Indonesia, 081351957400,,,0.4944731,101.5310926,https://maps.google.com/?cid=0x0:0x8a32fed9f69d80e3,
hardware store,Toko Bahan Bangunan,Angkasa Biru Jaya,"Jl. Harapan Raya No.149 E, Tengkerang Tim., Kec. Tenayan Raya, Kota Pekanbaru, Riau 28131","Tengkerang Tim., Kec. Tenayan Raya, Kota Pekanbaru",KALIMANTAN TENGAH,28131.0,Indonesia, 08117684774,,,0.49553,101.4905822,https://maps.google.com/?cid=0x0:0xeac84be8823809d4,
hardware store,Toko Bahan Bangunan,Brandon Hardware,"3 Everton Park, #01-65, Singapore 080003",#01-65,KALIMANTAN TENGAH,80003.0,Indonesia, +6562270889,,,1.2772189,103.838959,https://maps.google.com/?cid=0x0:0x79de170e0cc2b578,
hardware store,Toko Bahan Bangunan,Morde Trus Pekanbaru,"depan kantor disperindag, samping berkat 88, Jl. Hangtuah ujung No.126, Rejosari, Kec. Tenayan Raya, Kota Pekanbaru, Riau 28281","samping berkat 88, Jl. Hangtuah ujung No.126, Rejosari, Kec. Tenayan Raya, Kota Pekanbaru",KALIMANTAN TENGAH,28281.0,Indonesia, 082172471010,,,0.5165765,101.4856484,https://maps.google.com/?cid=0x0:0xab98b9fe7aaf8855,
hardware store,Toko Bahan Bangunan,CSM Hardware (Bukit Beruntung),"7, 2, Jalan Jenjarum 3d, Bandar Bukit Beruntung, 48300 Rawang, Selangor, Malaysia",Rawang,KALIMANTAN TENGAH,48300.0,Indonesia, +60351222588,,,3.4107093,101.5593323,https://maps.google.com/?cid=0x0:0x511a68358fb613f6,
hardware store,Toko Bahan Bangunan,tama jaya bangunan,"Jl. Budi Luhur, bakti ujung, Kec. Tenayan Raya, Kota Pekanbaru, Riau 28281","bakti ujung, Kec. Tenayan Raya, Kota Pekanbaru",KALIMANTAN TENGAH,28281.0,Indonesia, 082183195876,,,0.4948398,101.5291219,https://maps.google.com/?cid=0x0:0xd767fd2b043005c5,
hardware store,Toko Bahan Bangunan,Toko Bangunan Pelita Bukit Raya,"GG45+RGJ, Jl. Badak Ujung, Bencah Lesung, Kec. Tenayan Raya, Kota Pekanbaru, Riau 28131","Jl. Badak Ujung, Bencah Lesung, Kec. Tenayan Raya, Kota Pekanbaru",KALIMANTAN TENGAH,28131.0,Indonesia, 081363133880,,,0.5070984,101.5087568,https://maps.google.com/?cid=0x0:0x8aca78a80c32ea94,
hardware store,Toko Bahan Bangunan,Toko Arta Jaya,"Jl. Hangtuah No.317B, Bencah Lesung, Kec. Tenayan Raya, Kota Pekanbaru, Riau 28285","Bencah Lesung, Kec. Tenayan Raya, Kota Pekanbaru",KALIMANTAN TENGAH,28285.0,Indonesia, 082173117080,,,0.518609,101.4837988,https://maps.google.com/?cid=0x0:0x7b71c25d501a888c,
hardware store,Toko Bahan Bangunan,Sekrup Long pekanbaru,"Depan disperindag, Jl. Hangtuah No.ujung, Kota Pekanbaru, Riau 28111","Jl. Hangtuah No.ujung, Kota Pekanbaru",KALIMANTAN TENGAH,28111.0,Indonesia, 085264270070,,,0.5167753,101.4852708,https://maps.google.com/?cid=0x0:0xea5fa184e7d310a6,
hardware store,Toko Bahan Bangunan,Inessa Jaya Keramik,"Jl. Imam Munandar No.318C, Tengkerang Labuai, Kec. Bukit Raya, Kota Pekanbaru, Riau 28711","Tengkerang Labuai, Kec. Bukit Raya, Kota Pekanbaru",KALIMANTAN TENGAH,28711.0,Indonesia, 08971539577,,,0.4962854,101.4828051,https://maps.google.com/?cid=0x0:0xa6242908c2e69110,
hardware store,Toko Bahan Bangunan,Bangun Jaya,"FFVP+355, Jl. Bukit Barisan, Tengkerang Tim., Kec. Tenayan Raya, Kota Pekanbaru, Riau 28131","Jl. Bukit Barisan, Tengkerang Tim., Kec. Tenayan Raya, Kota Pekanbaru",KALIMANTAN TENGAH,28131.0,Indonesia,,,,0.4926291,101.4854955,https://maps.google.com/?cid=0x0:0xe70212e1df047c45,
hardware store,hardware store,CB,"Jl. Hang Tuah Ujung, Bencah Lesung, Kec. Tenayan Raya, Kota Pekanbaru, Riau 28131","Bencah Lesung, Kec. Tenayan Raya, Kota Pekanbaru",KALIMANTAN TENGAH,28131.0,Indonesia,,,,0.5068134,101.5089678,https://maps.google.com/?cid=0x0:0xfecd1b91540101c1,
hardware store,hardware store,Bukit Raya,"Kabupaten Katingan, Kalimantan Tengah","Kabupaten Katingan, Kalimantan Tengah",KALIMANTAN TENGAH,,Indonesia,,,,-0.9447632,112.1907122,https://maps.google.com/?cid=0x0:0xc298887006da1c70,
hardware store,Toko Bahan Bangunan,"TOKO NBOBBY, Jual Bahan Bangunan, Alat Listrik, Pecah Belah, Dll","Jl. Bukit Kaminting, Palangka, Kec. Jekan Raya, Kota Palangka Raya, Kalimantan Tengah 74874","Palangka, Kec. Jekan Raya, Kota Palangka Raya",KALIMANTAN TENGAH,74874.0,Indonesia, 087788060738,,,-2.1990108,113.8845165,https://maps.google.com/?cid=0x0:0xcac1a820b28b16b7,
hardware store,Toko Bahan Bangunan,Toko Sumber Baja Teknik (khusus eceran bahan bangunan),"Jl. Yos Sudarso depan universitas palangka raya upr No.97A, Menteng, Kec. Jekan Raya, Kota Palangka Raya, Kalimantan Tengah 74874","Menteng, Kec. Jekan Raya, Kota Palangka Raya",KALIMANTAN TENGAH,74874.0,Indonesia, 081250273545,,,-2.2161447,113.9014595,https://maps.google.com/?cid=0x0:0xf6b0ce86a6aa9b1e,
hardware store,Toko Bahan Bangunan,Ergya Sejahtera,"Jl. Kelapa Sawit Jl. Harapan Raya No.33B, Tengkerang Labuai, Kec. Bukit Raya, Kota Pekanbaru, Riau 28284","Tengkerang Labuai, Kec. Bukit Raya, Kota Pekanbaru",KALIMANTAN TENGAH,28284.0,Indonesia, 0811750474,,,0.49666,101.472688,https://maps.google.com/?cid=0x0:0x738fadfef1cc8c09,
hardware store,Toko Perlengkapan Rumah,MR.DIY,"Jl. Kaharuddin Nst No.17, Simpang Tiga, Kec. Bukit Raya, Kota Pekanbaru, Riau 28284","Simpang Tiga, Kec. Bukit Raya, Kota Pekanbaru",KALIMANTAN TENGAH,28284.0,Indonesia, 02130022789,,,0.4375184,101.4471772,https://maps.google.com/?cid=0x0:0x96b47c8653dbaaf7,
hardware store,hardware store,Bukit Raya,"Kabupaten Katingan, Kalimantan Tengah","Kabupaten Katingan, Kalimantan Tengah",KALIMANTAN TENGAH,,Indonesia,,,,-0.9447632,112.1907122,https://maps.google.com/?cid=0x0:0xc298887006da1c70,
hardware store,Toko Bahan Bangunan,"TOKO NBOBBY, Jual Bahan Bangunan, Alat Listrik, Pecah Belah, Dll","Jl. Bukit Kaminting, Palangka, Kec. Jekan Raya, Kota Palangka Raya, Kalimantan Tengah 74874","Palangka, Kec. Jekan Raya, Kota Palangka Raya",KALIMANTAN TENGAH,74874.0,Indonesia, 087788060738,,,-2.1990108,113.8845165,https://maps.google.com/?cid=0x0:0xcac1a820b28b16b7,
hardware store,Toko Bahan Bangunan,Toko Sumber Baja Teknik (khusus eceran bahan bangunan),"Jl. Yos Sudarso depan universitas palangka raya upr No.97A, Menteng, Kec. Jekan Raya, Kota Palangka Raya, Kalimantan Tengah 74874","Menteng, Kec. Jekan Raya, Kota Palangka Raya",KALIMANTAN TENGAH,74874.0,Indonesia, 081250273545,,,-2.2161447,113.9014595,https://maps.google.com/?cid=0x0:0xf6b0ce86a6aa9b1e,
hardware store,Toko Mebel,Perabot Harapan Baru,"FF33+662, Jl. Kaharudin Nasutionpekan 1 Baru, Simpang Tiga, Kec. Bukit Raya, Kota Pekanbaru, Riau 28288","Jl. Kaharudin Nasutionpekan 1 Baru, Simpang Tiga, Kec. Bukit Raya, Kota Pekanbaru",KALIMANTAN TENGAH,28288.0,Indonesia, 08127559400,,,0.4530079,101.4530145,https://maps.google.com/?cid=0x0:0x7083ab5c51756b37,
hardware store,Toko Bahan Bangunan,Toko Fauzi Bangunan,"FF48+PHP, Jl. Tengku Bey, Simpang Tiga, Kec. Bukit Raya, Kota Pekanbaru, Riau 28282","Jl. Tengku Bey, Simpang Tiga, Kec. Bukit Raya, Kota Pekanbaru",KALIMANTAN TENGAH,28282.0,Indonesia, 085166900649,,,0.4568377,101.4664653,https://maps.google.com/?cid=0x0:0x60bc3952951f4b91,
hardware store,Toko Bahan Bangunan,3 bangunan,"FF57+8PG, Jl. Tengku Bey, Simpang Tiga, Kec. Bukit Raya, Kota Pekanbaru, Riau 28282","Jl. Tengku Bey, Simpang Tiga, Kec. Bukit Raya, Kota Pekanbaru",KALIMANTAN TENGAH,28282.0,Indonesia, 082287011110,,,0.4583249,101.4643369,https://maps.google.com/?cid=0x0:0x6b66559f4d92807,
hardware store,Toko Bahan Bangunan,Toko Sinar Mulya,"Jl. Kaharuddin Nst No.115, Simpang Tiga, Kec. Bukit Raya, Kota Pekanbaru, Riau 28288","Simpang Tiga, Kec. Bukit Raya, Kota Pekanbaru",KALIMANTAN TENGAH,28288.0,Indonesia, 0761673338,,,0.4625848,101.4530955,https://maps.google.com/?cid=0x0:0xa976b71bd9d096fb,
hardware store,Toko,UD ZARA,"Jl. Soekarno hatta no. 38 cd, Sidomulyo Tim., Kec. Marpoyan Damai, Kota Pekanbaru, Riau 28289","Sidomulyo Tim., Kec. Marpoyan Damai, Kota Pekanbaru",KALIMANTAN TENGAH,28289.0,Indonesia, 081316222080,,,0.4449186,101.4194432,https://maps.google.com/?cid=0x0:0x6a5593075663e63c,
hardware store,Toko Bahan Bangunan,Aden Sumber Baut Toko,"Jl. Karet No.37, Sago, Kec. Senapelan, Kota Pekanbaru, Riau 28151","Sago, Kec. Senapelan, Kota Pekanbaru",KALIMANTAN TENGAH,28151.0,Indonesia, 0761999999,,,0.4682222,101.4274169,https://maps.google.com/?cid=0x0:0x7065681eab476d11,
hardware store,Toko Bahan Bangunan,Toko Bangunan Simpang Tiga (BST),"Jl. Kaharuddin Nst No.140-141, Simpang Tiga, Kec. Bukit Raya, Kota Pekanbaru, Riau 28125","Simpang Tiga, Kec. Bukit Raya, Kota Pekanbaru",KALIMANTAN TENGAH,28125.0,Indonesia, 08161999912,,,0.4620842,101.452718,https://maps.google.com/?cid=0x0:0xe15a49ccb0ee3c9c,
hardware store,Toko Bahan Bangunan,MH Bangunan,"JL Sei Mintan 1, No. 5, Simpang Tiga, Bukit Raya, Simpang Tiga, Pekanbaru, Kota Pekanbaru, Riau 28284","No. 5, Simpang Tiga, Bukit Raya, Simpang Tiga, Pekanbaru, Kota Pekanbaru",KALIMANTAN TENGAH,28284.0,Indonesia, 081288887869,,,0.4537529,101.466405,https://maps.google.com/?cid=0x0:0xb7e49283b69b7e75,
hardware store,Toko Bahan Bangunan,Toko Kawanda,"Jl. Bakti IX No.Kelurahan, Tengkerang Bar., Kec. Marpoyan Damai, Kota Pekanbaru, Riau 28282","Tengkerang Bar., Kec. Marpoyan Damai, Kota Pekanbaru",KALIMANTAN TENGAH,28282.0,Indonesia, 081276567238,,,0.480073,101.425215,https://maps.google.com/?cid=0x0:0x394e8cf1055d16c8,
hardware store,Toko Perlengkapan Rumah,MR.DIY,"Jl. Tengku Bey, Simpang Tiga, Kec. Bukit Raya, Kota Pekanbaru, Riau 28284","Simpang Tiga, Kec. Bukit Raya, Kota Pekanbaru",KALIMANTAN TENGAH,28284.0,Indonesia,,,,0.455739,101.46896,https://maps.google.com/?cid=0x0:0x843bbb1d19d24e39,
hardware store,Grosir Barang Pecah Belah,Azura Store,"Jl. Angsa Putih, Simpang Tiga, Kec. Bukit Raya, Kota Pekanbaru, Riau 28289","Simpang Tiga, Kec. Bukit Raya, Kota Pekanbaru",KALIMANTAN TENGAH,28289.0,Indonesia,,,,0.4724776,101.4623566,https://maps.google.com/?cid=0x0:0x48f286ed79e8ebc,
hardware store,Toko Bahan Bangunan,Mulya Bangunan 2,"Jl. Kaharuddin Nst No.15000, Simpang Tiga, Kec. Bukit Raya, Kota Pekanbaru, Riau 28284","Simpang Tiga, Kec. Bukit Raya, Kota Pekanbaru",KALIMANTAN TENGAH,28284.0,Indonesia,,,,0.4463385,101.4504639,https://maps.google.com/?cid=0x0:0xa181b4569e171dec,
hardware store,Toko Bahan Bangunan,Khaisyar Keramik,"Jl. Rambutan No.22 B, Sidomulyo Tim., Kec. Marpoyan Damai, Kota Pekanbaru, Riau 28125","Sidomulyo Tim., Kec. Marpoyan Damai, Kota Pekanbaru",KALIMANTAN TENGAH,28125.0,Indonesia, 082288061266,,,0.4724012,101.4269538,https://maps.google.com/?cid=0x0:0x2bf223a0fcb5e09a,
hardware store,Toko Bahan Bangunan,Toko Mulia Agung,"Jl. Kaharuddin Nst No.A7, Perhentian Marpoyan, Kec. Marpoyan Damai, Kota Pekanbaru, Riau 28288","Perhentian Marpoyan, Kec. Marpoyan Damai, Kota Pekanbaru",KALIMANTAN TENGAH,28288.0,Indonesia, 082323458877,,,0.4476857,101.451349,https://maps.google.com/?cid=0x0:0x13afe8ee6d65f30c,
hardware store,Pusat Perbelanjaan,Toko sumber jaya,"Jl. Kaharuddin Nst, Simpang Tiga, Kec. Bukit Raya, Kota Pekanbaru, Riau 28288","Simpang Tiga, Kec. Bukit Raya, Kota Pekanbaru",KALIMANTAN TENGAH,28288.0,Indonesia, 081268778670,,,0.4519946,101.4531,https://maps.google.com/?cid=0x0:0xb16d068985a14470,
hardware store,Toko Cat,INTI WARNA BANGUNAN,"FC7F+JQ6, Jl. Sidomulyo, Sidomulyo Tim., Kec. Marpoyan Damai, Kota Pekanbaru, Riau 28289","Jl. Sidomulyo, Sidomulyo Tim., Kec. Marpoyan Damai, Kota Pekanbaru",KALIMANTAN TENGAH,28289.0,Indonesia, 082182357020,,,0.464041,101.4243852,https://maps.google.com/?cid=0x0:0x3a98de41a2527cf1,
hardware store,Toko Bahan Bangunan,Batu Alam One Nusantara,"Batu Alam One Nusantara, sebelah sekolah al-azhar, Jl. Arifin Ahmad No.10, Sidomulyo Tim., Kec. Marpoyan Damai, Kota Pekanbaru, Riau 28125","sebelah sekolah al-azhar, Jl. Arifin Ahmad No.10, Sidomulyo Tim., Kec. Marpoyan Damai, Kota Pekanbaru",KALIMANTAN TENGAH,28125.0,Indonesia, 082285323103,,,0.4784895,101.4504356,https://maps.google.com/?cid=0x0:0xf31de09d4311482,
hardware store,Pasar bahan bangunan,BINTANG BAUT,"Jl. Inpres, Sidomulyo Tim., Kec. Marpoyan Damai, Kota Pekanbaru, Riau","Kota Pekanbaru, Riau",KALIMANTAN TENGAH,,Indonesia, 082336165577,,,0.4525221,101.424466,https://maps.google.com/?cid=0x0:0x8058e5178e5df706,
hardware store,Toko Bahan Bangunan,TK. Bangunan Adisya,"Jl. Karya Mandiri, Perhentian Marpoyan, Kec. Marpoyan Damai, Kota Pekanbaru, Riau 28125","Perhentian Marpoyan, Kec. Marpoyan Damai, Kota Pekanbaru",KALIMANTAN TENGAH,28125.0,Indonesia,,,,0.4400625,101.4378638,https://maps.google.com/?cid=0x0:0xfe61721e3bcd43e2,
hardware store,Toko Alat Tulis,TIGA BERLIAN FHOTOCOPY,"Jl. Air Dingin III, Simpang Tiga, Kec. Bukit Raya, Kota Pekanbaru, Riau 28284","Simpang Tiga, Kec. Bukit Raya, Kota Pekanbaru",KALIMANTAN TENGAH,28284.0,Indonesia,,,,0.4474027,101.4595,https://maps.google.com/?cid=0x0:0x7bb0f944d7bc51ea,
hardware store,hardware store,Bukit Raya,"Kabupaten Katingan, Kalimantan Tengah","Kabupaten Katingan, Kalimantan Tengah",KALIMANTAN TENGAH,,Indonesia,,,,-0.9447632,112.1907122,https://maps.google.com/?cid=0x0:0xc298887006da1c70,
hardware store,Toko Bahan Bangunan,"TOKO NBOBBY, Jual Bahan Bangunan, Alat Listrik, Pecah Belah, Dll","Jl. Bukit Kaminting, Palangka, Kec. Jekan Raya, Kota Palangka Raya, Kalimantan Tengah 74874","Palangka, Kec. Jekan Raya, Kota Palangka Raya",KALIMANTAN TENGAH,74874.0,Indonesia, 087788060738,,,-2.1990108,113.8845165,https://maps.google.com/?cid=0x0:0xcac1a820b28b16b7,
hardware store,Toko Bahan Bangunan,Toko Sumber Baja Teknik (khusus eceran bahan bangunan),"Jl. Yos Sudarso depan universitas palangka raya upr No.97A, Menteng, Kec. Jekan Raya, Kota Palangka Raya, Kalimantan Tengah 74874","Menteng, Kec. Jekan Raya, Kota Palangka Raya",KALIMANTAN TENGAH,74874.0,Indonesia, 081250273545,,,-2.2161447,113.9014595,https://maps.google.com/?cid=0x0:0xf6b0ce86a6aa9b1e,
hardware store,Toko Bahan Bangunan,TOKO BANGUNAN BB BERSAUDARA 2,"Jl. Sepakat No.12, Tengkerang Tim., Kec. Tenayan Raya, Kota Pekanbaru, Riau 28289","Tengkerang Tim., Kec. Tenayan Raya, Kota Pekanbaru",KALIMANTAN TENGAH,28289.0,Indonesia, 0817312372,,,0.4835529,101.5065434,https://maps.google.com/?cid=0x0:0x8c033ddedcfe3047,
hardware store,Toko,UD ZARA,"Jl. Soekarno hatta no. 38 cd, Sidomulyo Tim., Kec. Marpoyan Damai, Kota Pekanbaru, Riau 28289","Sidomulyo Tim., Kec. Marpoyan Damai, Kota Pekanbaru",KALIMANTAN TENGAH,28289.0,Indonesia, 081316222080,,,0.4449186,101.4194432,https://maps.google.com/?cid=0x0:0x6a5593075663e63c,
hardware store,Toko Bahan Bangunan,Sepakat Jaya,"Jl. Sepakat No.Ujung, Tengkerang Tim., Kec. Tenayan Raya, Kota Pekanbaru, Riau 28289","Tengkerang Tim., Kec. Tenayan Raya, Kota Pekanbaru",KALIMANTAN TENGAH,28289.0,Indonesia,,,,0.4803618,101.5093404,https://maps.google.com/?cid=0x0:0xf40c4849f28dc36b,
hardware store,Toko Bahan Bangunan,TB Samudra Mandiri,"Jl. Imam Munandar No.111, Bencah Lesung, Kec. Tenayan Raya, Kota Pekanbaru, Riau 28131","Bencah Lesung, Kec. Tenayan Raya, Kota Pekanbaru",KALIMANTAN TENGAH,28131.0,Indonesia, 087839727880,,,0.4960449,101.4993931,https://maps.google.com/?cid=0x0:0xa883b0c57d87bdf6,
hardware store,Toko Perlengkapan Rumah,MR.DIY,"Jl. Kaharuddin Nst No.17, Simpang Tiga, Kec. Bukit Raya, Kota Pekanbaru, Riau 28284","Simpang Tiga, Kec. Bukit Raya, Kota Pekanbaru",KALIMANTAN TENGAH,28284.0,Indonesia, 02130022789,,,0.4375184,101.4471772,https://maps.google.com/?cid=0x0:0x96b47c8653dbaaf7,
hardware store,Toko Mebel,Perabot Harapan Baru,"FF33+662, Jl. Kaharudin Nasutionpekan 1 Baru, Simpang Tiga, Kec. Bukit Raya, Kota Pekanbaru, Riau 28288","Jl. Kaharudin Nasutionpekan 1 Baru, Simpang Tiga, Kec. Bukit Raya, Kota Pekanbaru",KALIMANTAN TENGAH,28288.0,Indonesia, 08127559400,,,0.4530079,101.4530145,https://maps.google.com/?cid=0x0:0x7083ab5c51756b37,
hardware store,Toko Bahan Bangunan,Lumino Berkat Gypsum,"Jl. Yung Tiar perum Putri Indah No.8 Blok E, Kulim, Kec. Tenayan Raya, Kota Pekanbaru, Riau 28289","Kulim, Kec. Tenayan Raya, Kota Pekanbaru",KALIMANTAN TENGAH,28289.0,Indonesia, 082295491409,,,0.4742417,101.5282784,https://maps.google.com/?cid=0x0:0x3e4b585e8f6b277,
hardware store,Toko Bahan Bangunan,Kensha Bangunan,"Jl. Inpres No.54 C-D, Perhentian Marpoyan, Kec. Marpoyan Damai, Kota Pekanbaru, Riau 28289","Perhentian Marpoyan, Kec. Marpoyan Damai, Kota Pekanbaru",KALIMANTAN TENGAH,28289.0,Indonesia, 081276699369,,,0.4566658,101.4246028,https://maps.google.com/?cid=0x0:0xc1610dcf92a3e269,
hardware store,Toko Alat Listrik,Mulia Makmur D5,"Jl. Delima, Delima, Kec. Tampan, Kota Pekanbaru, Riau 28291","Delima, Kec. Tampan, Kota Pekanbaru",KALIMANTAN TENGAH,28291.0,Indonesia, 081371409063,,,0.4661515,101.404109,https://maps.google.com/?cid=0x0:0x4045252894ae3eb6,
hardware store,Toko Bahan Bangunan,Aden Sumber Baut Toko,"Jl. Karet No.37, Sago, Kec. Senapelan, Kota Pekanbaru, Riau 28151","Sago, Kec. Senapelan, Kota Pekanbaru",KALIMANTAN TENGAH,28151.0,Indonesia, 0761999999,,,0.4682222,101.4274169,https://maps.google.com/?cid=0x0:0x7065681eab476d11,
hardware store,Toko Bahan Bangunan,TOKO SUMBER BANGUNAN TIGA,"Jl. Gulama, Tengkerang Bar., Kec. Marpoyan Damai, Kota Pekanbaru, Riau 28124","Tengkerang Bar., Kec. Marpoyan Damai, Kota Pekanbaru",KALIMANTAN TENGAH,28124.0,Indonesia, 08127655244,,,0.4927791,101.4275126,https://maps.google.com/?cid=0x0:0xca92c40b1fed6814,
hardware store,Toko Bahan Bangunan,Toko Kawanda,"Jl. Bakti IX No.Kelurahan, Tengkerang Bar., Kec. Marpoyan Damai, Kota Pekanbaru, Riau 28282","Tengkerang Bar., Kec. Marpoyan Damai, Kota Pekanbaru",KALIMANTAN TENGAH,28282.0,Indonesia, 081276567238,,,0.480073,101.425215,https://maps.google.com/?cid=0x0:0x394e8cf1055d16c8,
hardware store,Toko Bahan Bangunan,Anggun Bangunan,"Jl. Kapau Sari No.Kelurahan, Tengkerang Tim., Kec. Tenayan Raya, Kota Pekanbaru, Riau 28289","Tengkerang Tim., Kec. Tenayan Raya, Kota Pekanbaru",KALIMANTAN TENGAH,28289.0,Indonesia, 081371716334,,,0.4768868,101.4977405,https://maps.google.com/?cid=0x0:0x5d3d96d61ef45798,
hardware store,Pasar bahan bangunan,BINTANG BAUT,"Jl. Inpres, Sidomulyo Tim., Kec. Marpoyan Damai, Kota Pekanbaru, Riau","Kota Pekanbaru, Riau",KALIMANTAN TENGAH,,Indonesia, 082336165577,,,0.4525221,101.424466,https://maps.google.com/?cid=0x0:0x8058e5178e5df706,
hardware store,Toko Bahan Bangunan,Grand Central Bangunan,"Jl. Soekarno - Hatta No.555, Delima, Kec. Tampan, Kota Pekanbaru, Riau 28292","Delima, Kec. Tampan, Kota Pekanbaru",KALIMANTAN TENGAH,28292.0,Indonesia, 082369776062,,,0.4911722,101.4187138,https://maps.google.com/?cid=0x0:0x1e5e18ab40059da4,
hardware store,Toko Bahan Bangunan,Ergya Sejahtera,"Jl. Kelapa Sawit Jl. Harapan Raya No.33B, Tengkerang Labuai, Kec. Bukit Raya, Kota Pekanbaru, Riau 28284","Tengkerang Labuai, Kec. Bukit Raya, Kota Pekanbaru",KALIMANTAN TENGAH,28284.0,Indonesia, 0811750474,,,0.49666,101.472688,https://maps.google.com/?cid=0x0:0x738fadfef1cc8c09,
hardware store,Toko Bahan Bangunan,Bertuah Jaya Bangunan (BJB),"Jl. Purwodadi, Sidomulyo Bar., Kec. Tampan, Kota Pekanbaru, Riau 28294","Sidomulyo Bar., Kec. Tampan, Kota Pekanbaru",KALIMANTAN TENGAH,28294.0,Indonesia, 08126833087,,,0.4546766,101.4030083,https://maps.google.com/?cid=0x0:0x178ad605321d562,
hardware store,Toko Perlengkapan Rumah,MR.DIY,"Jl. Tengku Bey, Simpang Tiga, Kec. Bukit Raya, Kota Pekanbaru, Riau 28284","Simpang Tiga, Kec. Bukit Raya, Kota Pekanbaru",KALIMANTAN TENGAH,28284.0,Indonesia,,,,0.455739,101.46896,https://maps.google.com/?cid=0x0:0x843bbb1d19d24e39,
hardware store,Toko Bahan Bangunan,Khaisyar Keramik,"Jl. Rambutan No.22 B, Sidomulyo Tim., Kec. Marpoyan Damai, Kota Pekanbaru, Riau 28125","Sidomulyo Tim., Kec. Marpoyan Damai, Kota Pekanbaru",KALIMANTAN TENGAH,28125.0,Indonesia, 082288061266,,,0.4724012,101.4269538,https://maps.google.com/?cid=0x0:0x2bf223a0fcb5e09a,
hardware store,Toko Bahan Bangunan,3 bangunan,"FF57+8PG, Jl. Tengku Bey, Simpang Tiga, Kec. Bukit Raya, Kota Pekanbaru, Riau 28282","Jl. Tengku Bey, Simpang Tiga, Kec. Bukit Raya, Kota Pekanbaru",KALIMANTAN TENGAH,28282.0,Indonesia, 082287011110,,,0.4583249,101.4643369,https://maps.google.com/?cid=0x0:0x6b66559f4d92807,
hardware store,Toko Bahan Bangunan,Ergya Sejahtera,"Jl. Kelapa Sawit Jl. Harapan Raya No.33B, Tengkerang Labuai, Kec. Bukit Raya, Kota Pekanbaru, Riau 28284","Tengkerang Labuai, Kec. Bukit Raya, Kota Pekanbaru",KALIMANTAN TENGAH,28284.0,Indonesia, 0811750474,,,0.49666,101.472688,https://maps.google.com/?cid=0x0:0x738fadfef1cc8c09,
hardware store,hardware store,Bukit Raya,"5VC2+V2H, Jl. Patimura, Loram Wetan Krajan, Loram Wetan, Kec. Jati, Kabupaten Kudus, Jawa Tengah 59344","Jl. Patimura, Loram Wetan Krajan, Loram Wetan, Kec. Jati, Kabupaten Kudus",KALIMANTAN TENGAH,59344.0,Indonesia,,,,-6.8278114,110.8500998,https://maps.google.com/?cid=0x0:0xa6e04a4425881614,
hardware store,hardware store,Bukit Raya,"Kabupaten Katingan, Kalimantan Tengah","Kabupaten Katingan, Kalimantan Tengah",KALIMANTAN TENGAH,,Indonesia,,,,-0.9447632,112.1907122,https://maps.google.com/?cid=0x0:0xc298887006da1c70,
hardware store,hardware store,Kalimantan Tengah 74462,"Kabupaten Katingan, Kalimantan Tengah","Kabupaten Katingan, Kalimantan Tengah",KALIMANTAN TENGAH,,Indonesia,,,,-2.3296062,113.4776098,https://maps.google.com/?cid=0x0:0x3d01dd11e05807f8,
hardware store,Toko Bahan Bangunan,Toko Harapan,"493Q+F7X, Kasongan Lama, Kec. Katingan Hilir, Kabupaten Katingan, Kalimantan Tengah 74413","Kasongan Lama, Kec. Katingan Hilir, Kabupaten Katingan",KALIMANTAN TENGAH,74413.0,Indonesia, 085249325527,,,-1.8962514,113.388248,https://maps.google.com/?cid=0x0:0xdd29ea1dc1d3f8d1,
hardware store,Toko Bahan Bangunan,Toko Guna Bangun,"473R+3R9 Pesan Antar Chat No T0k0 Kami 0  7  • I 5 5 O • 6 6 I O TOKO, Jl. Trans Kalimantan, Hampalit, Kec. Katingan Hilir, Kabupaten Katingan, Kalimantan Tengah 74413","Jl. Trans Kalimantan, Hampalit, Kec. Katingan Hilir, Kabupaten Katingan",KALIMANTAN TENGAH,74413.0,Indonesia, 082186748640,,,-1.8973498,113.2921119,https://maps.google.com/?cid=0x0:0xe441bb500ea13fcb,
hardware store,Toko Bahan Bangunan,Tb. Rizquna,"Kasongan Lama, Kec. Katingan Hilir, Kabupaten Katingan, Kalimantan Tengah","Kabupaten Katingan, Kalimantan Tengah",KALIMANTAN TENGAH,,Indonesia,,,,-1.8875986,113.4130843,https://maps.google.com/?cid=0x0:0x1ab050668c17080e,
hardware store,Toko Bahan Bangunan,Toko Al Banjari,"37XW+XXJ, Jl. Pembangunan, Hampalit, Kec. Katingan Hilir, Kabupaten Katingan, Kalimantan Tengah 74413","Jl. Pembangunan, Hampalit, Kec. Katingan Hilir, Kabupaten Katingan",KALIMANTAN TENGAH,74413.0,Indonesia, 082152733402,,,-1.9000387,113.2974003,https://maps.google.com/?cid=0x0:0xcb60c1c0bc81e79b,
hardware store,Toko Bahan Bangunan,Tb banua jaya kasongan,"Jl. Tjilik Riwut No.202, Kasongan Lama, Kec. Katingan Hilir, Kabupaten Katingan, Kalimantan Tengah 74413","Kasongan Lama, Kec. Katingan Hilir, Kabupaten Katingan",KALIMANTAN TENGAH,74413.0,Indonesia, 081396801512,,,-1.9166381,113.3785659,https://maps.google.com/?cid=0x0:0x3002d99ec746a851,
hardware store,Toko Alat Tulis Kantor,Nining Fotocopy,"Jl. Pembangunan No.58, Hampalit, Kec. Katingan Hilir, Kabupaten Katingan, Kalimantan Tengah 74413","Hampalit, Kec. Katingan Hilir, Kabupaten Katingan",KALIMANTAN TENGAH,74413.0,Indonesia,,,,-1.8966197,113.2974955,https://maps.google.com/?cid=0x0:0x722851488c8564a8,
hardware store,Toko Bahan Bangunan,Tb. Mahkota Kasongan,"Kasongan Lama, Kec. Katingan Hilir, Kabupaten Katingan, Kalimantan Tengah","Kabupaten Katingan, Kalimantan Tengah",KALIMANTAN TENGAH,,Indonesia,,,,-1.8993977,113.3860996,https://maps.google.com/?cid=0x0:0x9161b31569a210b8,
hardware store,Toko Alat Tulis Kantor,TOKO FOTOCOPY  ALAT TULIS,"4CFF+98V, Kasongan Lama, Kec. Katingan Hilir, Kabupaten Katingan, Kalimantan Tengah","Kabupaten Katingan, Kalimantan Tengah",KALIMANTAN TENGAH,,Indonesia, 0811526586,,,-1.8765228,113.4233112,https://maps.google.com/?cid=0x0:0xa1b697ee942f3275,
hardware store,Toko Alat Tulis Kantor,Fotocopy Nusantara Membangun,"Jl. Pembangunan No.38, RT.025, Hampalit, Kec. Katingan Hilir, Kabupaten Katingan, Kalimantan Tengah 74413","RT.025, Hampalit, Kec. Katingan Hilir, Kabupaten Katingan",KALIMANTAN TENGAH,74413.0,Indonesia,,,,-1.8965513,113.2971683,https://maps.google.com/?cid=0x0:0x27aaa6e5ae29b625,
hardware store,Toko Bahan Bangunan,BAJA GUNA ABADI TANGKILING,"Jalan Tjilik Riwut.30, Blk. c No.KM.1, Palangka, Kec. Jekan Raya, Kota Palangka Raya, Kalimantan Tengah 74874","Blk. c No.KM.1, Palangka, Kec. Jekan Raya, Kota Palangka Raya",KALIMANTAN TENGAH,74874.0,Indonesia, 085129527464,,,-2.0123598,113.7616808,https://maps.google.com/?cid=0x0:0x173d7380d9153a2e,
hardware store,Toko Alat Tulis,Toko Jorendra,"4CFF+77R, Jl. Soekarno Hatta, Kasongan Lama, Kec. Katingan Hilir, Kabupaten Katingan, Kalimantan Tengah 74413","Jl. Soekarno Hatta, Kasongan Lama, Kec. Katingan Hilir, Kabupaten Katingan",KALIMANTAN TENGAH,74413.0,Indonesia,,,,-1.876758,113.4231446,https://maps.google.com/?cid=0x0:0xc9824b9b323acab0,
hardware store,Toko,Fotocopy BINTANG BARU,"Jl. Cilik Riwut Km No.1, Kasongan Lama, Kec. Katingan Hilir, Kabupaten Katingan, Kalimantan Tengah 74413","Kasongan Lama, Kec. Katingan Hilir, Kabupaten Katingan",KALIMANTAN TENGAH,74413.0,Indonesia,,,,-1.8962152,113.3872905,https://maps.google.com/?cid=0x0:0x2bf08194c6f5bd52,
hardware store,Toko Bahan Bangunan,TB TIA,"XQM6+CVH, Jl. Trans Kalimantan, Tumbang Tahai, Kec. Bukit Batu, Kota Palangka Raya, Kalimantan Tengah 73112","Jl. Trans Kalimantan, Tumbang Tahai, Kec. Bukit Batu, Kota Palangka Raya",KALIMANTAN TENGAH,73112.0,Indonesia,,,,-2.0164281,113.7622486,https://maps.google.com/?cid=0x0:0xad004f0248a6c30c,
hardware store,Toko Alat Tulis,Toko Galaxy,"Jln. Strowbery No.03, Kasongan Lama, Kec. Katingan Hilir, Kabupaten Katingan, Kalimantan Tengah 73112","Kasongan Lama, Kec. Katingan Hilir, Kabupaten Katingan",KALIMANTAN TENGAH,73112.0,Indonesia, 082155761111,,,-1.8826718,113.4176542,https://maps.google.com/?cid=0x0:0x969ce1dcf8ce9e2e,
hardware store,Toko Bahan Bangunan,Cetakan Batako press,"Jl. Tjilik Riwut, Sei Gohong, Kec. Bukit Batu, Kota Palangka Raya, Kalimantan Tengah 73112","Sei Gohong, Kec. Bukit Batu, Kota Palangka Raya",KALIMANTAN TENGAH,73112.0,Indonesia,,,,-1.9502604,113.6772783,https://maps.google.com/?cid=0x0:0x7d9f8a2476bc0913,
hardware store,Toko Bahan Bangunan,Tb. Sinar Jaya,"474X+GPW, Jl. Trans Kalimantan, Hampalit, Kec. Katingan Hilir, Kabupaten Katingan, Kalimantan Tengah 74413","Jl. Trans Kalimantan, Hampalit, Kec. Katingan Hilir, Kabupaten Katingan",KALIMANTAN TENGAH,74413.0,Indonesia,,,,-1.8936492,113.299341,https://maps.google.com/?cid=0x0:0xc9788e95eec5181a,
hardware store,hardware store,Kalimantan Tengah 74413,"Kec. Katingan Hilir, Kabupaten Katingan, Kalimantan Tengah","Kabupaten Katingan, Kalimantan Tengah",KALIMANTAN TENGAH,,Indonesia,,,,-1.9350378,113.2394452,https://maps.google.com/?cid=0x0:0xff4c20b50314124d,
hardware store,Toko Bahan Bangunan,Toko Harapan,"493Q+F7X, Kasongan Lama, Kec. Katingan Hilir, Kabupaten Katingan, Kalimantan Tengah 74413","Kasongan Lama, Kec. Katingan Hilir, Kabupaten Katingan",KALIMANTAN TENGAH,74413.0,Indonesia, 085249325527,,,-1.8962514,113.388248,https://maps.google.com/?cid=0x0:0xdd29ea1dc1d3f8d1,
hardware store,Toko Bahan Bangunan,Toko Al Banjari,"37XW+XXJ, Jl. Pembangunan, Hampalit, Kec. Katingan Hilir, Kabupaten Katingan, Kalimantan Tengah 74413","Jl. Pembangunan, Hampalit, Kec. Katingan Hilir, Kabupaten Katingan",KALIMANTAN TENGAH,74413.0,Indonesia, 082152733402,,,-1.9000387,113.2974003,https://maps.google.com/?cid=0x0:0xcb60c1c0bc81e79b,
hardware store,Toko Komputer,Kazomi ATK  Komputer,"Jl. Revolusi No.110, Kasongan Lama, Kec. Katingan Hilir, Kabupaten Katingan, Kalimantan Tengah 74413","Kasongan Lama, Kec. Katingan Hilir, Kabupaten Katingan",KALIMANTAN TENGAH,74413.0,Indonesia, 08115234560,,,-1.9129932,113.3852521,https://maps.google.com/?cid=0x0:0x93888ee8e3cb0956,
hardware store,Toko Bahan Bangunan,Toko Guna Bangun,"473R+3R9 Pesan Antar Chat No T0k0 Kami 0  7  • I 5 5 O • 6 6 I O TOKO, Jl. Trans Kalimantan, Hampalit, Kec. Katingan Hilir, Kabupaten Katingan, Kalimantan Tengah 74413","Jl. Trans Kalimantan, Hampalit, Kec. Katingan Hilir, Kabupaten Katingan",KALIMANTAN TENGAH,74413.0,Indonesia, 082186748640,,,-1.8973498,113.2921119,https://maps.google.com/?cid=0x0:0xe441bb500ea13fcb,
hardware store,Toko Alat Tulis Kantor,Nining Fotocopy,"Jl. Pembangunan No.58, Hampalit, Kec. Katingan Hilir, Kabupaten Katingan, Kalimantan Tengah 74413","Hampalit, Kec. Katingan Hilir, Kabupaten Katingan",KALIMANTAN TENGAH,74413.0,Indonesia,,,,-1.8966197,113.2974955,https://maps.google.com/?cid=0x0:0x722851488c8564a8,
hardware store,Minimarket,Toko Budi Sejati,"39PP+RW4, Jl. Revolusi, Kasongan Lama, Kec. Katingan Hilir, Kabupaten Katingan, Kalimantan Tengah 74413","Jl. Revolusi, Kasongan Lama, Kec. Katingan Hilir, Kabupaten Katingan",KALIMANTAN TENGAH,74413.0,Indonesia, 081256177265,,,-1.9129959,113.3873421,https://maps.google.com/?cid=0x0:0xf4190056e28eacec,
hardware store,Toko Bahan Bangunan,Tb. Sinar Jaya,"474X+GPW, Jl. Trans Kalimantan, Hampalit, Kec. Katingan Hilir, Kabupaten Katingan, Kalimantan Tengah 74413","Jl. Trans Kalimantan, Hampalit, Kec. Katingan Hilir, Kabupaten Katingan",KALIMANTAN TENGAH,74413.0,Indonesia,,,,-1.8936492,113.299341,https://maps.google.com/?cid=0x0:0xc9788e95eec5181a,
hardware store,Toko Alat Tulis Kantor,TOKO FOTOCOPY  ALAT TULIS,"4CFF+98V, Kasongan Lama, Kec. Katingan Hilir, Kabupaten Katingan, Kalimantan Tengah","Kabupaten Katingan, Kalimantan Tengah",KALIMANTAN TENGAH,,Indonesia, 0811526586,,,-1.8765228,113.4233112,https://maps.google.com/?cid=0x0:0xa1b697ee942f3275,
hardware store,Toko Bahan Bangunan,Tb. Rizquna,"Kasongan Lama, Kec. Katingan Hilir, Kabupaten Katingan, Kalimantan Tengah","Kabupaten Katingan, Kalimantan Tengah",KALIMANTAN TENGAH,,Indonesia,,,,-1.8875986,113.4130843,https://maps.google.com/?cid=0x0:0x1ab050668c17080e,
hardware store,Toko,Fotocopy BINTANG BARU,"Jl. Cilik Riwut Km No.1, Kasongan Lama, Kec. Katingan Hilir, Kabupaten Katingan, Kalimantan Tengah 74413","Kasongan Lama, Kec. Katingan Hilir, Kabupaten Katingan",KALIMANTAN TENGAH,74413.0,Indonesia,,,,-1.8962152,113.3872905,https://maps.google.com/?cid=0x0:0x2bf08194c6f5bd52,
hardware store,Toko Ponsel,Kios Erma Cell,"39HF+V4R, Kasongan Lama, Kec. Katingan Hilir, Kabupaten Katingan, Kalimantan Tengah 74413","Kasongan Lama, Kec. Katingan Hilir, Kabupaten Katingan",KALIMANTAN TENGAH,74413.0,Indonesia,,,,-1.9202744,113.372767,https://maps.google.com/?cid=0x0:0x160f5dc300c196d4,
hardware store,Toko Alat Tulis Kantor,Fotocopy Nusantara Membangun,"Jl. Pembangunan No.38, RT.025, Hampalit, Kec. Katingan Hilir, Kabupaten Katingan, Kalimantan Tengah 74413","RT.025, Hampalit, Kec. Katingan Hilir, Kabupaten Katingan",KALIMANTAN TENGAH,74413.0,Indonesia,,,,-1.8965513,113.2971683,https://maps.google.com/?cid=0x0:0x27aaa6e5ae29b625,
hardware store,Toko Ponsel,RWDA CELL,"Muara kampung banjar, Kasongan Lama, Kec. Katingan Hilir, Kabupaten Katingan, Kalimantan Tengah 74413","Kasongan Lama, Kec. Katingan Hilir, Kabupaten Katingan",KALIMANTAN TENGAH,74413.0,Indonesia, 081351531858,,,-1.9074654,113.3893481,https://maps.google.com/?cid=0x0:0xd5bd56e2caccfe4b,
hardware store,Toko Bahan Bangunan,Tb. Mahkota Kasongan,"Kasongan Lama, Kec. Katingan Hilir, Kabupaten Katingan, Kalimantan Tengah","Kabupaten Katingan, Kalimantan Tengah",KALIMANTAN TENGAH,,Indonesia,,,,-1.8993977,113.3860996,https://maps.google.com/?cid=0x0:0x9161b31569a210b8,
hardware store,Toko Alat Tulis,Toko Galaxy,"Jln. Strowbery No.03, Kasongan Lama, Kec. Katingan Hilir, Kabupaten Katingan, Kalimantan Tengah 73112","Kasongan Lama, Kec. Katingan Hilir, Kabupaten Katingan",KALIMANTAN TENGAH,73112.0,Indonesia, 082155761111,,,-1.8826718,113.4176542,https://maps.google.com/?cid=0x0:0x969ce1dcf8ce9e2e,
hardware store,Toko Alat Tulis,Toko Jorendra,"4CFF+77R, Jl. Soekarno Hatta, Kasongan Lama, Kec. Katingan Hilir, Kabupaten Katingan, Kalimantan Tengah 74413","Jl. Soekarno Hatta, Kasongan Lama, Kec. Katingan Hilir, Kabupaten Katingan",KALIMANTAN TENGAH,74413.0,Indonesia,,,,-1.876758,113.4231446,https://maps.google.com/?cid=0x0:0xc9824b9b323acab0,
hardware store,Toko Ponsel,Aneka ponsel,"4C73+VQ, Kasongan Lama, Kec. Katingan Hilir, Kabupaten Katingan, Kalimantan Tengah","Kabupaten Katingan, Kalimantan Tengah",KALIMANTAN TENGAH,,Indonesia,,,,-1.8853483,113.4044366,https://maps.google.com/?cid=0x0:0x9206d79f8a33379c,
hardware store,Toko Perlengkapan Rumah,Ayu Ponsel,"4855+Q39, Hampalit, Kec. Katingan Hilir, Kabupaten Katingan, Kalimantan Tengah 74413","Hampalit, Kec. Katingan Hilir, Kabupaten Katingan",KALIMANTAN TENGAH,74413.0,Indonesia,,,,-1.890577,113.3077276,https://maps.google.com/?cid=0x0:0x86ece14fce8b52df,
hardware store,Toko Elektronik,BLIP CELL servis HP,"Kasongan Baru, Kec. Katingan Hilir, Kabupaten Katingan, Kalimantan Tengah 74413","Kec. Katingan Hilir, Kabupaten Katingan",KALIMANTAN TENGAH,74413.0,Indonesia,,,,-1.9138933,113.382655,https://maps.google.com/?cid=0x0:0x931f317f198ed770,
hardware store,Kompleks Kondominium,Tb efendi kereng pangi,"474X+F69, Jl. Trans Kalimantan, Hampalit, Kec. Katingan Hilir, Kabupaten Katingan, Kalimantan Tengah 74413","Jl. Trans Kalimantan, Hampalit, Kec. Katingan Hilir, Kabupaten Katingan",KALIMANTAN TENGAH,74413.0,Indonesia,,,,-1.8938365,113.2980356,https://maps.google.com/?cid=0x0:0x8c4d78ad04a99a99,
hardware store,Toko Bahan Bangunan,AL-fatih,"Hampalit, Kec. Katingan Hilir, Kabupaten Katingan, Kalimantan Tengah 74413","Kec. Katingan Hilir, Kabupaten Katingan",KALIMANTAN TENGAH,74413.0,Indonesia, 085251272440,,,-1.895977,113.2995481,https://maps.google.com/?cid=0x0:0x1e3bd6f2e59dbeca,
hardware store,Toko,UD KARYA BARU BATAKO,"Jl. Tjilik Riwut No.km 30, Pundu, Kec. Cempaga Hulu, Kota Palangka Raya, Kalimantan Tengah 74413","Pundu, Kec. Cempaga Hulu, Kota Palangka Raya",KALIMANTAN TENGAH,74413.0,Indonesia, 08161999912,,,-1.9252371,113.1818314,https://maps.google.com/?cid=0x0:0xf05397d056278511,
hardware store,hardware store,Kec. Katingan Hilir,"Kabupaten Katingan, Kalimantan Tengah","Kabupaten Katingan, Kalimantan Tengah",KALIMANTAN TENGAH,,Indonesia,,,,-1.8937644,113.2987752,https://maps.google.com/?cid=0x0:0x4d947042bdab21a2,
hardware store,hardware store,Kalimantan Tengah 74457,"Kabupaten Katingan, Kalimantan Tengah","Kabupaten Katingan, Kalimantan Tengah",KALIMANTAN TENGAH,,Indonesia,,,,-1.0501582,112.3337769,https://maps.google.com/?cid=0x0:0x96f7cae7d4b2ca52,
hardware store,Toko Alat Pancing,RH Fishing_Phone_ATK,"Jalan G. Obos No.RT 02, Tumbang Hiran, Marikit, Kabupaten Katingan, Kalimantan Tengah 74456","Tumbang Hiran, Marikit, Kabupaten Katingan",KALIMANTAN TENGAH,74456.0,Indonesia, 082136051170,,,-1.1901903,112.6938701,https://maps.google.com/?cid=0x0:0x4e29c5b6763cffc1,
hardware store,Toko Alat Tulis Kantor,Toko SHAKA,"RM6R+8RR, Rangan Burih, Marikit, Kabupaten Katingan, Kalimantan Tengah 74456","Rangan Burih, Marikit, Kabupaten Katingan",KALIMANTAN TENGAH,74456.0,Indonesia, 082252117213,,,-1.1891357,112.6920075,https://maps.google.com/?cid=0x0:0xed196fa72df172e6,
hardware store,hardware store,Kalimantan Tengah 74463,"Kabupaten Katingan, Kalimantan Tengah","Kabupaten Katingan, Kalimantan Tengah",KALIMANTAN TENGAH,,Indonesia,,,,-2.9195423,113.287085,https://maps.google.com/?cid=0x0:0x667e7a72fdeb8e94,
hardware store,Toko Fotokopi,Toko Malik,"Jl. Poros, RT.19/RW.005, Kp. Tengah, Kec. Katingan Kuala, Kabupaten Katingan, Kalimantan Tengah 74463","RT.19/RW.005, Kp. Tengah, Kec. Katingan Kuala, Kabupaten Katingan",KALIMANTAN TENGAH,74463.0,Indonesia, 081395303508,,,-3.0770081,113.2838047,https://maps.google.com/?cid=0x0:0x728622f284d24855,
hardware store,,TOKO BERKAT BERSAMA,"W7FM+M5C, Kp. Tengah, Kec. Katingan Kuala, Kabupaten Katingan, Kalimantan Tengah 74463","Kp. Tengah, Kec. Katingan Kuala, Kabupaten Katingan",KALIMANTAN TENGAH,74463.0,Indonesia,,,,-3.0758079,113.2829016,https://maps.google.com/?cid=0x0:0x513b6de517239391,
hardware store,Toko Bahan Bangunan,Toko Wengga Bangunan,"tepat di depan hotel wella, Jln tjilik riwut, Baamang Tengah, Kec. Baamang, Kabupaten Kotawaringin Timur, Kalimantan Tengah 74312","Jln tjilik riwut, Baamang Tengah, Kec. Baamang, Kabupaten Kotawaringin Timur",KALIMANTAN TENGAH,74312.0,Indonesia, 08161999912,,,-2.5157477,112.9509568,https://maps.google.com/?cid=0x0:0xa693068d39f58919,
hardware store,,Bahtiar Store Samuda,"Jl. Partoe Muksin, Samuda, Kalimantan Tengah 74363",Samuda,KALIMANTAN TENGAH,74363.0,Indonesia, 081260503901,,,-2.8407936,112.9685284,https://maps.google.com/?cid=0x0:0x75a8038ba2c50449,
hardware store,,UD RIFA,"4WFF+9G6, Samuda Kota, Kec. Mentaya Hilir Selata, Kabupaten Kotawaringin Timur, Kalimantan Tengah 74363","Samuda Kota, Kec. Mentaya Hilir Selata, Kabupaten Kotawaringin Timur",KALIMANTAN TENGAH,74363.0,Indonesia, 085249121346,,,-2.8765782,112.9237533,https://maps.google.com/?cid=0x0:0xba68fb8a42c4728e,
hardware store,hardware store,,,,KALIMANTAN TENGAH,,Indonesia,,,,,,https://maps.google.com/?cid=0x0:0x728402d5d3d23c88,
hardware store,hardware store,Kalimantan Tengah 74454,Kalimantan Tengah,Kalimantan Tengah,KALIMANTAN TENGAH,,Indonesia,,,,-1.4341471,113.1441558,https://maps.google.com/?cid=0x0:0x4b759053d82a4f96,
hardware store,Toko Bahan Bangunan,Toko Harapan,"493Q+F7X, Kasongan Lama, Kec. Katingan Hilir, Kabupaten Katingan, Kalimantan Tengah 74413","Kasongan Lama, Kec. Katingan Hilir, Kabupaten Katingan",KALIMANTAN TENGAH,74413.0,Indonesia, 085249325527,,,-1.8962514,113.388248,https://maps.google.com/?cid=0x0:0xdd29ea1dc1d3f8d1,
hardware store,Toko Swalayan,Toko KMJ Tumbang Samba,"Samba Danum, Kec. Katingan Tengah, Kabupaten Katingan, Kalimantan Tengah 74454","Kec. Katingan Tengah, Kabupaten Katingan",KALIMANTAN TENGAH,74454.0,Indonesia,,,,-1.4492215,113.0941117,https://maps.google.com/?cid=0x0:0x9f6eb99b6e334ae4,
hardware store,Toko Bahan Bangunan,Toko Guna Bangun,"473R+3R9 Pesan Antar Chat No T0k0 Kami 0  7  • I 5 5 O • 6 6 I O TOKO, Jl. Trans Kalimantan, Hampalit, Kec. Katingan Hilir, Kabupaten Katingan, Kalimantan Tengah 74413","Jl. Trans Kalimantan, Hampalit, Kec. Katingan Hilir, Kabupaten Katingan",KALIMANTAN TENGAH,74413.0,Indonesia, 082186748640,,,-1.8973498,113.2921119,https://maps.google.com/?cid=0x0:0xe441bb500ea13fcb,
hardware store,Toko Perlengkapan Rumah,TOKO BANGUNAN TIARA JAYA,"Jl. Lintas Palangkaraya-Buntok, Danau Pantau, Kec. Timpah, Kabupaten Kapuas, Kalimantan Tengah 74454","Danau Pantau, Kec. Timpah, Kabupaten Kapuas",KALIMANTAN TENGAH,74454.0,Indonesia, 085697225016,,,-1.6697767,114.4821578,https://maps.google.com/?cid=0x0:0x8bf5ed36f6317b49,
hardware store,Toko Komputer,Kazomi ATK  Komputer,"Jl. Revolusi No.110, Kasongan Lama, Kec. Katingan Hilir, Kabupaten Katingan, Kalimantan Tengah 74413","Kasongan Lama, Kec. Katingan Hilir, Kabupaten Katingan",KALIMANTAN TENGAH,74413.0,Indonesia, 08115234560,,,-1.9129932,113.3852521,https://maps.google.com/?cid=0x0:0x93888ee8e3cb0956,
hardware store,Toko Bahan Bangunan,Tb banua jaya kasongan,"Jl. Tjilik Riwut No.202, Kasongan Lama, Kec. Katingan Hilir, Kabupaten Katingan, Kalimantan Tengah 74413","Kasongan Lama, Kec. Katingan Hilir, Kabupaten Katingan",KALIMANTAN TENGAH,74413.0,Indonesia, 081396801512,,,-1.9166381,113.3785659,https://maps.google.com/?cid=0x0:0x3002d99ec746a851,
hardware store,Minimarket,Toko Budi Sejati,"39PP+RW4, Jl. Revolusi, Kasongan Lama, Kec. Katingan Hilir, Kabupaten Katingan, Kalimantan Tengah 74413","Jl. Revolusi, Kasongan Lama, Kec. Katingan Hilir, Kabupaten Katingan",KALIMANTAN TENGAH,74413.0,Indonesia, 081256177265,,,-1.9129959,113.3873421,https://maps.google.com/?cid=0x0:0xf4190056e28eacec,
hardware store,Toko Alat Tulis,SMS FOTOCOPY,"Jl. Atak saat, RT.8/RW.3, Samba Katung, Kec. Katingan Tengah, Kabupaten Katingan, Kalimantan Tengah 74454","RT.8/RW.3, Samba Katung, Kec. Katingan Tengah, Kabupaten Katingan",KALIMANTAN TENGAH,74454.0,Indonesia, 081396063377,,,-1.4305348,113.09769,https://maps.google.com/?cid=0x0:0x8c8ff865d2104a1f,
hardware store,,Toko tehnik bangunan,"Lintas DESA Tumbang Empas, Tuyun, Kec. Mihing Raya, Kabupaten Gunung MAS, Kalimantan Tengah 74863","Tuyun, Kec. Mihing Raya, Kabupaten Gunung MAS",KALIMANTAN TENGAH,74863.0,Indonesia, 085169982128,,,-1.3909624,113.9080079,https://maps.google.com/?cid=0x0:0xa9e884d75e90cf78,
hardware store,Toko Bahan Bangunan,Tb. Rizquna,"Kasongan Lama, Kec. Katingan Hilir, Kabupaten Katingan, Kalimantan Tengah","Kabupaten Katingan, Kalimantan Tengah",KALIMANTAN TENGAH,,Indonesia,,,,-1.8875986,113.4130843,https://maps.google.com/?cid=0x0:0x1ab050668c17080e,
hardware store,Toko Alat Tulis Kantor,TOKO FOTOCOPY  ALAT TULIS,"4CFF+98V, Kasongan Lama, Kec. Katingan Hilir, Kabupaten Katingan, Kalimantan Tengah","Kabupaten Katingan, Kalimantan Tengah",KALIMANTAN TENGAH,,Indonesia, 0811526586,,,-1.8765228,113.4233112,https://maps.google.com/?cid=0x0:0xa1b697ee942f3275,
hardware store,Toko Alat Tulis Kantor,Nining Fotocopy,"Jl. Pembangunan No.58, Hampalit, Kec. Katingan Hilir, Kabupaten Katingan, Kalimantan Tengah 74413","Hampalit, Kec. Katingan Hilir, Kabupaten Katingan",KALIMANTAN TENGAH,74413.0,Indonesia,,,,-1.8966197,113.2974955,https://maps.google.com/?cid=0x0:0x722851488c8564a8,
hardware store,Toko Alat Pancing,RH Fishing_Phone_ATK,"Jalan G. Obos No.RT 02, Tumbang Hiran, Marikit, Kabupaten Katingan, Kalimantan Tengah 74456","Tumbang Hiran, Marikit, Kabupaten Katingan",KALIMANTAN TENGAH,74456.0,Indonesia, 082136051170,,,-1.1901903,112.6938701,https://maps.google.com/?cid=0x0:0x4e29c5b6763cffc1,
hardware store,Toko Alat Tulis Kantor,PRIMA SAMBA Fotocopy,"Samba Danum, Kec. Katingan Tengah, Kabupaten Katingan, Kalimantan Tengah 74454","Kec. Katingan Tengah, Kabupaten Katingan",KALIMANTAN TENGAH,74454.0,Indonesia, 082220952044,,,-1.452096,113.0973107,https://maps.google.com/?cid=0x0:0x46863d631303888b,
hardware store,Toko Alat Tulis Kantor,Toko SHAKA,"RM6R+8RR, Rangan Burih, Marikit, Kabupaten Katingan, Kalimantan Tengah 74456","Rangan Burih, Marikit, Kabupaten Katingan",KALIMANTAN TENGAH,74456.0,Indonesia, 082252117213,,,-1.1891357,112.6920075,https://maps.google.com/?cid=0x0:0xed196fa72df172e6,
hardware store,Toko Bahan Bangunan,Berkah doa'bersama,"Jln.Anjar Sugianto, Mulya Agung, Waringin timur, Kabupaten Kotawaringin Timur, Kalimantan Tengah 74344","Mulya Agung, Waringin timur, Kabupaten Kotawaringin Timur",KALIMANTAN TENGAH,74344.0,Indonesia, 082211056535,,,-1.5145677,112.7330892,https://maps.google.com/?cid=0x0:0x75e8635ab960e929,
hardware store,Kantor Pemerintah,POLSEK KATINGAN TENGAH,"Jl. Minon Dehen Km 01, Samba Danum, Kec. Katingan Tengah, Kabupaten Katingan, Kalimantan Tengah 74454","Samba Danum, Kec. Katingan Tengah, Kabupaten Katingan",KALIMANTAN TENGAH,74454.0,Indonesia,,,,-1.4618551,113.0847304,https://maps.google.com/?cid=0x0:0xf52996d681d6959b,
hardware store,Toko Bahan Bangunan,TB SINAR MULIA,"54MV+7G2, Tewang Rangkang, Kec. Tewang Sangalang Garing, Kabupaten Katingan, Kalimantan Tengah 74452","Tewang Rangkang, Kec. Tewang Sangalang Garing, Kabupaten Katingan",KALIMANTAN TENGAH,74452.0,Indonesia,,,,-1.8168585,113.1437582,https://maps.google.com/?cid=0x0:0xa550517df47ec2ad,
hardware store,Toko Perlengkapan Rumah,TOKO BANGUNAN TAMARA,"jl.walter tarung samping smpn 1 No.rt 3, Danau Pantau, Kec. Timpah, Kabupaten Kapuas, Kalimantan Tengah 73554","Danau Pantau, Kec. Timpah, Kabupaten Kapuas",KALIMANTAN TENGAH,73554.0,Indonesia, 081396801512,,,-1.7260029,114.4770706,https://maps.google.com/?cid=0x0:0xa949d7d7a8a004e5,
hardware store,Toko Bahan Bangunan,Tb. Sinar Jaya,"474X+GPW, Jl. Trans Kalimantan, Hampalit, Kec. Katingan Hilir, Kabupaten Katingan, Kalimantan Tengah 74413","Jl. Trans Kalimantan, Hampalit, Kec. Katingan Hilir, Kabupaten Katingan",KALIMANTAN TENGAH,74413.0,Indonesia,,,,-1.8936492,113.299341,https://maps.google.com/?cid=0x0:0xc9788e95eec5181a,
hardware store,hardware store,Kec. Katingan Tengah,"Kabupaten Katingan, Kalimantan Tengah","Kabupaten Katingan, Kalimantan Tengah",KALIMANTAN TENGAH,,Indonesia,,,,-1.4361777,112.9535409,https://maps.google.com/?cid=0x0:0x21995c5c795e6cdf,
hardware store,Toko Alat Pancing,RH Fishing_Phone_ATK,"Jalan G. Obos No.RT 02, Tumbang Hiran, Marikit, Kabupaten Katingan, Kalimantan Tengah 74456","Tumbang Hiran, Marikit, Kabupaten Katingan",KALIMANTAN TENGAH,74456.0,Indonesia, 082136051170,,,-1.1901903,112.6938701,https://maps.google.com/?cid=0x0:0x4e29c5b6763cffc1,
hardware store,Toko Alat Tulis Kantor,Toko SHAKA,"RM6R+8RR, Rangan Burih, Marikit, Kabupaten Katingan, Kalimantan Tengah 74456","Rangan Burih, Marikit, Kabupaten Katingan",KALIMANTAN TENGAH,74456.0,Indonesia, 082252117213,,,-1.1891357,112.6920075,https://maps.google.com/?cid=0x0:0xed196fa72df172e6,
hardware store,hardware store,Kalimantan Tengah 74456,"Kabupaten Katingan, Kalimantan Tengah","Kabupaten Katingan, Kalimantan Tengah",KALIMANTAN TENGAH,,Indonesia,,,,-0.941524,112.6675398,https://maps.google.com/?cid=0x0:0xe4ef994f6c6adcfe,
hardware store,Toko Bahan Bangunan,Hardware Clothing,"Rukan Gading Indah, Blok V9-12, RT.18/RW.8, Klp. Gading Bar., Kec. Klp. Gading, Jkt Utara, Daerah Khusus Ibukota Jakarta 12930","Blok V9-12, RT.18/RW.8, Klp. Gading Bar., Kec. Klp. Gading, Jkt Utara",KALIMANTAN TENGAH,12930.0,Indonesia, 02125539858,,,-6.149231,106.896942,https://maps.google.com/?cid=0x0:0x488fdb7f986cd389,
hardware store,Toko Pakaian Wanita,Hardware,"Mal Metropolitan, Jl. KH. Noer Ali No.2, RT.008/RW.002, Pekayon Jaya, Kec. Bekasi Sel., Kota Bks, Jawa Barat 17148","Jl. KH. Noer Ali No.2, RT.008/RW.002, Pekayon Jaya, Kec. Bekasi Sel., Kota Bks",KALIMANTAN TENGAH,17148.0,Indonesia, 02188861991,,,-6.2480342,106.9915778,https://maps.google.com/?cid=0x0:0x4ae65d80217112f0,
hardware store,Toko Bahan Bangunan,Bagan lamandau,"Jalan GTM Yusuf No.RT. 12, Nanga Bulik, Bulik, Lamandau Regency, Central Kalimantan 74611","Nanga Bulik, Bulik, Lamandau Regency",KALIMANTAN TENGAH,74611.0,Indonesia, 081255453557,,,-2.177063,111.442938,https://maps.google.com/?cid=0x0:0x779850d1f45bcfb1,
hardware store,Toko Bahan Bangunan,Toko Aheng,"RFF7+PM7, Nanga Bulik, Kec. Bulik, Kabupaten Lamandau, Kalimantan Tengah 74161","Nanga Bulik, Kec. Bulik, Kabupaten Lamandau",KALIMANTAN TENGAH,74161.0,Indonesia, 081949697844,,,-2.175716,111.4641678,https://maps.google.com/?cid=0x0:0x5d673a51c5d0a1b6,
hardware store,hardware store,Kalimantan Tengah 74463,"Kabupaten Katingan, Kalimantan Tengah","Kabupaten Katingan, Kalimantan Tengah",KALIMANTAN TENGAH,,Indonesia,,,,-2.9195423,113.287085,https://maps.google.com/?cid=0x0:0x667e7a72fdeb8e94,
hardware store,Pusat Perbelanjaan,AZKO MENTENG HUIS,"Menteng Huis, Jl. Cikini Raya no 2-4 Menteng, Kel. Cikini, Kec. Menteng Dalam, Jakarta Pusat, RT.13/RW.5, Cikini, Menteng, Central Jakarta City, Jakarta 10330","Jl. Cikini Raya no 2-4 Menteng, Kel. Cikini, Kec. Menteng Dalam, Jakarta Pusat, RT.13/RW.5, Cikini, Menteng, Central Jakarta City",KALIMANTAN TENGAH,10330.0,Indonesia, 085173124640,,,-6.1878952,106.8364715,https://maps.google.com/?cid=0x0:0xdb8af84dbdd7313a,
hardware store,Toko,Ace Hadwer Menara Bca,"BCA KCU THAMRIN, Jl. M.H. Thamrin No.1, RT.1/RW.5, Menteng, Kec. Menteng, Kota Jakarta Pusat, Daerah Khusus Ibukota Jakarta 10310","Jl. M.H. Thamrin No.1, RT.1/RW.5, Menteng, Kec. Menteng, Kota Jakarta Pusat",KALIMANTAN TENGAH,10310.0,Indonesia, 02123581166,,,-6.1965432,106.8225744,https://maps.google.com/?cid=0x0:0xf4d35c0059467b53,
hardware store,Toko Swalayan,Toko KMJ Tumbang Samba,"Samba Danum, Kec. Katingan Tengah, Kabupaten Katingan, Kalimantan Tengah 74454","Kec. Katingan Tengah, Kabupaten Katingan",KALIMANTAN TENGAH,74454.0,Indonesia,,,,-1.4492215,113.0941117,https://maps.google.com/?cid=0x0:0x9f6eb99b6e334ae4,
hardware store,Toko,Toko Sembako BMT Tumbang Samba,"G3RV+P8C, Jl. Minun Dehen, Samba Danum, Kec. Katingan Tengah, Kabupaten Katingan, Kalimantan Tengah 74454","Jl. Minun Dehen, Samba Danum, Kec. Katingan Tengah, Kabupaten Katingan",KALIMANTAN TENGAH,74454.0,Indonesia,,,,-1.4581931,113.0932587,https://maps.google.com/?cid=0x0:0x104b26ca9c92254,
hardware store,Toko Bahan Bangunan,Aymas Hardware ®,"Kg, Jalan Parit Bengkok, Kampung Parit Jelutong, 86400 Parit Raja, Johor Darul Ta'zim, Malaysia",Parit Raja,KALIMANTAN TENGAH,86400.0,Indonesia, +60107861575,,,1.8484899,103.0781173,https://maps.google.com/?cid=0x0:0x139afa15a52beff6,
hardware store,hardware store,Kalimantan Tengah 74453,"Kec. Pulau Malan, Kabupaten Katingan, Kalimantan Tengah","Kabupaten Katingan, Kalimantan Tengah",KALIMANTAN TENGAH,,Indonesia,,,,-1.5758863,113.2394452,https://maps.google.com/?cid=0x0:0x9458e30e87579e9,
hardware store,Toko Bahan Bangunan,Toko Guna Bangun,"473R+3R9 Pesan Antar Chat No T0k0 Kami 0  7  • I 5 5 O • 6 6 I O TOKO, Jl. Trans Kalimantan, Hampalit, Kec. Katingan Hilir, Kabupaten Katingan, Kalimantan Tengah 74413","Jl. Trans Kalimantan, Hampalit, Kec. Katingan Hilir, Kabupaten Katingan",KALIMANTAN TENGAH,74413.0,Indonesia, 082186748640,,,-1.8973498,113.2921119,https://maps.google.com/?cid=0x0:0xe441bb500ea13fcb,
hardware store,Toko Swalayan,Toko KMJ Tumbang Samba,"Samba Danum, Kec. Katingan Tengah, Kabupaten Katingan, Kalimantan Tengah 74454","Kec. Katingan Tengah, Kabupaten Katingan",KALIMANTAN TENGAH,74454.0,Indonesia,,,,-1.4492215,113.0941117,https://maps.google.com/?cid=0x0:0x9f6eb99b6e334ae4,
hardware store,Toko Bahan Bangunan,Toko Al Banjari,"37XW+XXJ, Jl. Pembangunan, Hampalit, Kec. Katingan Hilir, Kabupaten Katingan, Kalimantan Tengah 74413","Jl. Pembangunan, Hampalit, Kec. Katingan Hilir, Kabupaten Katingan",KALIMANTAN TENGAH,74413.0,Indonesia, 082152733402,,,-1.9000387,113.2974003,https://maps.google.com/?cid=0x0:0xcb60c1c0bc81e79b,
hardware store,Toko Bahan Bangunan,Toko Harapan,"493Q+F7X, Kasongan Lama, Kec. Katingan Hilir, Kabupaten Katingan, Kalimantan Tengah 74413","Kasongan Lama, Kec. Katingan Hilir, Kabupaten Katingan",KALIMANTAN TENGAH,74413.0,Indonesia, 085249325527,,,-1.8962514,113.388248,https://maps.google.com/?cid=0x0:0xdd29ea1dc1d3f8d1,
hardware store,Toko Bahan Bangunan,Tb. Rizquna,"Kasongan Lama, Kec. Katingan Hilir, Kabupaten Katingan, Kalimantan Tengah","Kabupaten Katingan, Kalimantan Tengah",KALIMANTAN TENGAH,,Indonesia,,,,-1.8875986,113.4130843,https://maps.google.com/?cid=0x0:0x1ab050668c17080e,
hardware store,Toko Alat Tulis Kantor,Fotocopy Nusantara Membangun,"Jl. Pembangunan No.38, RT.025, Hampalit, Kec. Katingan Hilir, Kabupaten Katingan, Kalimantan Tengah 74413","RT.025, Hampalit, Kec. Katingan Hilir, Kabupaten Katingan",KALIMANTAN TENGAH,74413.0,Indonesia,,,,-1.8965513,113.2971683,https://maps.google.com/?cid=0x0:0x27aaa6e5ae29b625,
hardware store,Toko Bahan Bangunan,TB SINAR MULIA,"54MV+7G2, Tewang Rangkang, Kec. Tewang Sangalang Garing, Kabupaten Katingan, Kalimantan Tengah 74452","Tewang Rangkang, Kec. Tewang Sangalang Garing, Kabupaten Katingan",KALIMANTAN TENGAH,74452.0,Indonesia,,,,-1.8168585,113.1437582,https://maps.google.com/?cid=0x0:0xa550517df47ec2ad,
hardware store,Toko Bahan Bangunan,Tb banua jaya kasongan,"Jl. Tjilik Riwut No.202, Kasongan Lama, Kec. Katingan Hilir, Kabupaten Katingan, Kalimantan Tengah 74413","Kasongan Lama, Kec. Katingan Hilir, Kabupaten Katingan",KALIMANTAN TENGAH,74413.0,Indonesia, 081396801512,,,-1.9166381,113.3785659,https://maps.google.com/?cid=0x0:0x3002d99ec746a851,
hardware store,Toko Alat Tulis Kantor,Nining Fotocopy,"Jl. Pembangunan No.58, Hampalit, Kec. Katingan Hilir, Kabupaten Katingan, Kalimantan Tengah 74413","Hampalit, Kec. Katingan Hilir, Kabupaten Katingan",KALIMANTAN TENGAH,74413.0,Indonesia,,,,-1.8966197,113.2974955,https://maps.google.com/?cid=0x0:0x722851488c8564a8,
hardware store,Toko,UD KARYA BARU BATAKO,"Jl. Tjilik Riwut No.km 30, Pundu, Kec. Cempaga Hulu, Kota Palangka Raya, Kalimantan Tengah 74413","Pundu, Kec. Cempaga Hulu, Kota Palangka Raya",KALIMANTAN TENGAH,74413.0,Indonesia, 08161999912,,,-1.9252371,113.1818314,https://maps.google.com/?cid=0x0:0xf05397d056278511,
hardware store,Toko Perlengkapan Rumah,Home Hardware,"Jalan Pangeran Hidayatullah No.17, Samarinda Ilir, Samarinda Kota, Karang Mumus, Kec. Samarinda Kota, Kota Samarinda, Kalimantan Timur 75112","Samarinda Ilir, Samarinda Kota, Karang Mumus, Kec. Samarinda Kota, Kota Samarinda",KALIMANTAN TENGAH,75112.0,Indonesia, 0541739162,,,-0.502641,117.1579852,https://maps.google.com/?cid=0x0:0xffaa9d77dd76c997,
hardware store,Toko Alat-Alat,Home Hardware 2,"Jl. Gatot Subroto No.5, Bandara, Kec. Sungai Pinang, Kota Samarinda, Kalimantan Timur 75117","Bandara, Kec. Sungai Pinang, Kota Samarinda",KALIMANTAN TENGAH,75117.0,Indonesia, 05412461053,,,-0.4805065,117.1554752,https://maps.google.com/?cid=0x0:0xac8bc3a49e1b9a17,
hardware store,Toko,Toko Sembako BMT Tumbang Samba,"G3RV+P8C, Jl. Minun Dehen, Samba Danum, Kec. Katingan Tengah, Kabupaten Katingan, Kalimantan Tengah 74454","Jl. Minun Dehen, Samba Danum, Kec. Katingan Tengah, Kabupaten Katingan",KALIMANTAN TENGAH,74454.0,Indonesia,,,,-1.4581931,113.0932587,https://maps.google.com/?cid=0x0:0x104b26ca9c92254,
hardware store,Toko Swalayan,Toko KMJ Tumbang Samba,"Samba Danum, Kec. Katingan Tengah, Kabupaten Katingan, Kalimantan Tengah 74454","Kec. Katingan Tengah, Kabupaten Katingan",KALIMANTAN TENGAH,74454.0,Indonesia,,,,-1.4492215,113.0941117,https://maps.google.com/?cid=0x0:0x9f6eb99b6e334ae4,
hardware store,hardware store,Kec. Sanaman Mantikei,"Kabupaten Katingan, Kalimantan Tengah","Kabupaten Katingan, Kalimantan Tengah",KALIMANTAN TENGAH,,Indonesia,,,,-1.2216918,113.0488541,https://maps.google.com/?cid=0x0:0x6a00f74436dadede,
hardware store,Sekolah Dasar,SD Negeri 1 Tumbang Manggu,"M3RR+XVR, Tumbang Manggo, Kec. Sanaman Mantikei, Kabupaten Katingan, Kalimantan Tengah 74455","Tumbang Manggo, Kec. Sanaman Mantikei, Kabupaten Katingan",KALIMANTAN TENGAH,74455.0,Indonesia,,,,-1.3075231,113.0921265,https://maps.google.com/?cid=0x0:0xa7c93829c7b05621,
hardware store,Perhimpunan Pengembang Perumahan,Tumbang manggu,"M2JP+5QW, Tumbang Manggo, Kec. Sanaman Mantikei, Kabupaten Katingan, Kalimantan Tengah 74455","Tumbang Manggo, Kec. Sanaman Mantikei, Kabupaten Katingan",KALIMANTAN TENGAH,74455.0,Indonesia,,,,-1.3195049,113.0369406,https://maps.google.com/?cid=0x0:0xd15dca50da8f215,
hardware store,hardware store,Kalimantan Tengah 74461,"Kabupaten Katingan, Kalimantan Tengah","Kabupaten Katingan, Kalimantan Tengah",KALIMANTAN TENGAH,,Indonesia,,,,-2.0043768,113.429984,https://maps.google.com/?cid=0x0:0xa5ce32c024942d72,
hardware store,Toko Bahan Bangunan,Toko Guna Bangun,"473R+3R9 Pesan Antar Chat No T0k0 Kami 0  7  • I 5 5 O • 6 6 I O TOKO, Jl. Trans Kalimantan, Hampalit, Kec. Katingan Hilir, Kabupaten Katingan, Kalimantan Tengah 74413","Jl. Trans Kalimantan, Hampalit, Kec. Katingan Hilir, Kabupaten Katingan",KALIMANTAN TENGAH,74413.0,Indonesia, 082186748640,,,-1.8973498,113.2921119,https://maps.google.com/?cid=0x0:0xe441bb500ea13fcb,
hardware store,Toko Bahan Bangunan,Tb banua jaya kasongan,"Jl. Tjilik Riwut No.202, Kasongan Lama, Kec. Katingan Hilir, Kabupaten Katingan, Kalimantan Tengah 74413","Kasongan Lama, Kec. Katingan Hilir, Kabupaten Katingan",KALIMANTAN TENGAH,74413.0,Indonesia, 081396801512,,,-1.9166381,113.3785659,https://maps.google.com/?cid=0x0:0x3002d99ec746a851,
hardware store,Toko Bahan Bangunan,Toko Al Banjari,"37XW+XXJ, Jl. Pembangunan, Hampalit, Kec. Katingan Hilir, Kabupaten Katingan, Kalimantan Tengah 74413","Jl. Pembangunan, Hampalit, Kec. Katingan Hilir, Kabupaten Katingan",KALIMANTAN TENGAH,74413.0,Indonesia, 082152733402,,,-1.9000387,113.2974003,https://maps.google.com/?cid=0x0:0xcb60c1c0bc81e79b,
hardware store,Toko Komputer,Kazomi ATK  Komputer,"Jl. Revolusi No.110, Kasongan Lama, Kec. Katingan Hilir, Kabupaten Katingan, Kalimantan Tengah 74413","Kasongan Lama, Kec. Katingan Hilir, Kabupaten Katingan",KALIMANTAN TENGAH,74413.0,Indonesia, 08115234560,,,-1.9129932,113.3852521,https://maps.google.com/?cid=0x0:0x93888ee8e3cb0956,
hardware store,Toko Bahan Bangunan,Toko Bangunan Fasya,"Jln. Tumbang samba km 27, desa, Karya unggang, Kec. Tewang Sangalang Garing, Kabupaten Katingan, Kalimantan Tengah 74453","desa, Karya unggang, Kec. Tewang Sangalang Garing, Kabupaten Katingan",KALIMANTAN TENGAH,74453.0,Indonesia, 081396801512,,,-1.7299252,113.1453314,https://maps.google.com/?cid=0x0:0x44bf5edc4ed75ac0,
hardware store,hardware store,Kalimantan Tengah 74452,"Kec. Tewang Sangalang Garing, Kabupaten Katingan, Kalimantan Tengah","Kabupaten Katingan, Kalimantan Tengah",KALIMANTAN TENGAH,,Indonesia,,,,-1.7909926,113.2394452,https://maps.google.com/?cid=0x0:0x28726fa62e11e1de,
hardware store,Toko Bahan Bangunan,TB SINAR MULIA,"54MV+7G2, Tewang Rangkang, Kec. Tewang Sangalang Garing, Kabupaten Katingan, Kalimantan Tengah 74452","Tewang Rangkang, Kec. Tewang Sangalang Garing, Kabupaten Katingan",KALIMANTAN TENGAH,74452.0,Indonesia,,,,-1.8168585,113.1437582,https://maps.google.com/?cid=0x0:0xa550517df47ec2ad,
hardware store,Perhimpunan Pengembang Perumahan,Garing,"7975+QCF, Pendahara, Kec. Tewang Sangalang Garing, Kabupaten Katingan, Kalimantan Tengah 74452","Pendahara, Kec. Tewang Sangalang Garing, Kabupaten Katingan",KALIMANTAN TENGAH,74452.0,Indonesia,,,,-1.7355544,113.3585384,https://maps.google.com/?cid=0x0:0xffdf37f41ec8ebe7,
hardware store,Toko Bahan Bangunan,AL-fatih,"Hampalit, Kec. Katingan Hilir, Kabupaten Katingan, Kalimantan Tengah 74413","Kec. Katingan Hilir, Kabupaten Katingan",KALIMANTAN TENGAH,74413.0,Indonesia, 085251272440,,,-1.895977,113.2995481,https://maps.google.com/?cid=0x0:0x1e3bd6f2e59dbeca,
hardware store,Toko Bahan Bangunan,Toko Harapan,"493Q+F7X, Kasongan Lama, Kec. Katingan Hilir, Kabupaten Katingan, Kalimantan Tengah 74413","Kasongan Lama, Kec. Katingan Hilir, Kabupaten Katingan",KALIMANTAN TENGAH,74413.0,Indonesia, 085249325527,,,-1.8962514,113.388248,https://maps.google.com/?cid=0x0:0xdd29ea1dc1d3f8d1,
hardware store,Toko Bahan Bangunan,Tb. Rizquna,"Kasongan Lama, Kec. Katingan Hilir, Kabupaten Katingan, Kalimantan Tengah","Kabupaten Katingan, Kalimantan Tengah",KALIMANTAN TENGAH,,Indonesia,,,,-1.8875986,113.4130843,https://maps.google.com/?cid=0x0:0x1ab050668c17080e,
hardware store,Komplek perumahan,Mega gorden,"899J+CW5, Jl.pemuda RT dua puluh, Tewang Manyangen, Kec. Tewang Sangalang Garing, Kabupaten Katingan, Kalimantan Tengah","Kabupaten Katingan, Kalimantan Tengah",KALIMANTAN TENGAH,,Indonesia,,,,-1.6814878,113.3823545,https://maps.google.com/?cid=0x0:0xbf38d0a66b62b5fd,
hardware store,Toko Bahan Bangunan,Toko Al Banjari,"37XW+XXJ, Jl. Pembangunan, Hampalit, Kec. Katingan Hilir, Kabupaten Katingan, Kalimantan Tengah 74413","Jl. Pembangunan, Hampalit, Kec. Katingan Hilir, Kabupaten Katingan",KALIMANTAN TENGAH,74413.0,Indonesia, 082152733402,,,-1.9000387,113.2974003,https://maps.google.com/?cid=0x0:0xcb60c1c0bc81e79b,
hardware store,Toko Pakan Hewan,Toko pakan ternak,"Jln. Lintas tumbang samba. Km 27, desa, karya unggang, Kec. Tewang Sangalang Garing, Kabupaten Katingan, Kalimantan Tengah 74453","desa, karya unggang, Kec. Tewang Sangalang Garing, Kabupaten Katingan",KALIMANTAN TENGAH,74453.0,Indonesia, 085347209585,,,-1.7263896,113.1430304,https://maps.google.com/?cid=0x0:0x1881c519846cfe8d,
