Category,Real Category,Business Name,Address,City,State,Postal Code,Country,Phone,Email,Website,Latitude,Longitude,Map Link,Details Link
mall,mall,Bukit Raya,"Kabupaten Katingan, Kalimantan Tengah","Kabupaten Katingan, Kalimantan Tengah",KALIMANTAN TENGAH,,Indonesia,,,,-0.9447632,112.1907122,https://maps.google.com/?cid=0x0:0xc298887006da1c70,
mall,Taman Nasional,Taman Nasional Bukit Baka Bukit Raya,"MCCQ+V6M, Rantau Malam, Kec. Serawai, Kabupaten Sintang, Kalimantan Barat 78683","Rantau Malam, Kec. Serawai, Kabupaten Sintang",KALIMANTAN TENGAH,78683.0,Indonesia,,,,-0.3277921,112.4380522,https://maps.google.com/?cid=0x0:0x2a83ccb751b0eabd,
mall,Pusat Perbelanjaan,Palangkaraya Mall (Palma),"Jl. Tjilik Riwut No.1, Palangka, Kec. Jekan Raya, Kota Palangka Raya, Kalimantan Tengah 74874","Palangka, Kec. Jekan Raya, Kota Palangka Raya",KALIMANTAN TENGAH,74874.0,Indonesia,,,,-2.2065433,113.9154004,https://maps.google.com/?cid=0x0:0xe30705d17366c7e0,
mall,mall,Riau 28281,"Rejosari, Kec. Tenayan Raya, Kota Pekanbaru, Riau","Kota Pekanbaru, Riau",KALIMANTAN TENGAH,,Indonesia,,,,0.510562,101.5191225,https://maps.google.com/?cid=0x0:0x31dba74df30a75fe,
mall,Pengembang Realestat,D' Anugerah Regency 1 - Pekanbaru Riau,"GG42+V44, Bencah Lesung, Kec. Tenayan Raya, Kota Pekanbaru, Riau 28131","Bencah Lesung, Kec. Tenayan Raya, Kota Pekanbaru",KALIMANTAN TENGAH,28131.0,Indonesia, 081212127764,,,0.507134,101.5003298,https://maps.google.com/?cid=0x0:0x2b9288e0ab70319e,
mall,Pusat Perbelanjaan,Lippo Plaza Palangka Raya,"Jl. Yos Sudarso No.57, Menteng, Kec. Jekan Raya, Kota Palangka Raya, Kalimantan Tengah 73111","Menteng, Kec. Jekan Raya, Kota Palangka Raya",KALIMANTAN TENGAH,73111.0,Indonesia, 08115208188,,,-2.2144549,113.905329,https://maps.google.com/?cid=0x0:0xf0ea3e1d05607362,
mall,Toko Swalayan,Kedai Harian .Bukit Bonjol,"FGWG+8CM, Jl. Budi Agung, bakti, Kec. Tenayan Raya, Kota Pekanbaru, Riau 28281","Jl. Budi Agung, bakti, Kec. Tenayan Raya, Kota Pekanbaru",KALIMANTAN TENGAH,28281.0,Indonesia, 081310837378,,,0.4958361,101.5260407,https://maps.google.com/?cid=0x0:0x67bd47ba478ca231,
mall,Pusat Perbelanjaan,Kedai Mila,"GG49+XC9, Jl. Badak Ujung, Bencah Lesung, Kec. Tenayan Raya, Kota Pekanbaru, Riau 28281","Jl. Badak Ujung, Bencah Lesung, Kec. Tenayan Raya, Kota Pekanbaru",KALIMANTAN TENGAH,28281.0,Indonesia,,,,0.507406,101.5186114,https://maps.google.com/?cid=0x0:0x65e172d69ae5eb30,
mall,Pusat Perbelanjaan,Mal SKA,"Jl. Soekarno - Hatta No.114, Delima, Kec. Tampan, Kota Pekanbaru, Riau 28292","Delima, Kec. Tampan, Kota Pekanbaru",KALIMANTAN TENGAH,28292.0,Indonesia, 0761864000,,,0.4989779,101.419025,https://maps.google.com/?cid=0x0:0xcb644449e8a62d2,
mall,Toko,Kedai Harian Diana,"GG28+2C9, Bencah Lesung, Kec. Tenayan Raya, Kota Pekanbaru, Riau 28281","Bencah Lesung, Kec. Tenayan Raya, Kota Pekanbaru",KALIMANTAN TENGAH,28281.0,Indonesia, 081371408584,,,0.5000262,101.5160973,https://maps.google.com/?cid=0x0:0xcd05eab5230332ff,
mall,Pusat Perbelanjaan,Mall Of Indonesia,"Jl. Boulevard Bar. Raya No.12, RT.18/RW.19, Klp. Gading Bar., Kec. Klp. Gading, Jkt Utara, Daerah Khusus Ibukota Jakarta 14240","RT.18/RW.19, Klp. Gading Bar., Kec. Klp. Gading, Jkt Utara",KALIMANTAN TENGAH,14240.0,Indonesia, 02145867888,,,-6.1514549,106.8918949,https://maps.google.com/?cid=0x0:0x3431c7aaadd1f1b6,
mall,Toko Swalayan,Hawai,"FGR9+446, Jl. Simpang Jengkol, Bencah Lesung, Kec. Tenayan Raya, Kota Pekanbaru, Riau","Kota Pekanbaru, Riau",KALIMANTAN TENGAH,,Indonesia,,,,0.4902935,101.5177702,https://maps.google.com/?cid=0x0:0x504a4c573fda83f2,
mall,Minimarket,B.U. Mart,"GG53+GR9, Bencah Lesung, Kec. Tenayan Raya, Kota Pekanbaru, Riau 28131","Bencah Lesung, Kec. Tenayan Raya, Kota Pekanbaru",KALIMANTAN TENGAH,28131.0,Indonesia,,,,0.5087988,101.5046208,https://maps.google.com/?cid=0x0:0xc54f3d0ee929634a,
mall,Pusat Perbelanjaan,Kedai Rizal,"GG48+JFH, Jl. Badak Ujung, Bencah Lesung, Kec. Tenayan Raya, Kota Pekanbaru, Riau 28281","Jl. Badak Ujung, Bencah Lesung, Kec. Tenayan Raya, Kota Pekanbaru",KALIMANTAN TENGAH,28281.0,Indonesia,,,,0.5065695,101.5162306,https://maps.google.com/?cid=0x0:0x5b87246c4cf2f801,
mall,Toko,Toko Tuah Alam Indah,"GG63+4PR, Unnamed Road, Bencah Lesung, Kec. Tenayan Raya, Kota Pekanbaru, Riau 28131","Unnamed Road, Bencah Lesung, Kec. Tenayan Raya, Kota Pekanbaru",KALIMANTAN TENGAH,28131.0,Indonesia, 081276555545,,,0.510374,101.504274,https://maps.google.com/?cid=0x0:0x6da699ec7aa803ff,
mall,Toko Rokok Elektrik,Aan_vapers,"Jl. Kp. Baru Perumahan damai indah kulim No.01 Blok C, Kecamatan Sialang Sakti, Kec. Tenayan Raya, Kota Pekanbaru, Riau 28293","Kecamatan Sialang Sakti, Kec. Tenayan Raya, Kota Pekanbaru",KALIMANTAN TENGAH,28293.0,Indonesia, 082390438742,,,0.4889513,101.5157785,https://maps.google.com/?cid=0x0:0x6b72abb1961ceff3,
mall,Pusat Perbelanjaan,Raffarhanfoods_pku,"GG27+94R, Jl. Andalas 1, Bencah Lesung, Kec. Tenayan Raya, Kota Pekanbaru, Riau 28131","Jl. Andalas 1, Bencah Lesung, Kec. Tenayan Raya, Kota Pekanbaru",KALIMANTAN TENGAH,28131.0,Indonesia, 081273725953,,,0.5009884,101.5127743,https://maps.google.com/?cid=0x0:0xa47e28cf6fcd40b,
mall,Pusat Perbelanjaan,RASYIQ PONSEL  ACCESORIES,"Jl. Budi Luhur, Bencah Lesung, Kec. Tenayan Raya, Kota Pekanbaru, Riau 28282","Bencah Lesung, Kec. Tenayan Raya, Kota Pekanbaru",KALIMANTAN TENGAH,28282.0,Indonesia, 081276055813,,,0.4842292,101.5254967,https://maps.google.com/?cid=0x0:0xe6676876f10c5b07,
mall,Pusat Perbelanjaan,Sidik variasi,"Jl. Hangtuah No.127, Bencah Lesung, Kec. Tenayan Raya, Kota Pekanbaru, Riau 28131","Bencah Lesung, Kec. Tenayan Raya, Kota Pekanbaru",KALIMANTAN TENGAH,28131.0,Indonesia, 085338006766,,,0.504699,101.5020959,https://maps.google.com/?cid=0x0:0x140bd41c45a868d9,
mall,Pusat Perbelanjaan,Aqiishop,"FGWQ+M6W, Unnamed Road, Bencah Lesung, Kec. Tenayan Raya, Kota Pekanbaru, Riau 28285","Unnamed Road, Bencah Lesung, Kec. Tenayan Raya, Kota Pekanbaru",KALIMANTAN TENGAH,28285.0,Indonesia, 082387707434,,,0.4967439,101.5380763,https://maps.google.com/?cid=0x0:0x5835b4883779927e,
mall,Pusat Perbelanjaan,Olshop khayati HWI,"Jl. Lintas Sumatra No.km 17, Bencah Lesung, Kec. Tenayan Raya, Kota Pekanbaru, Riau 28289","Bencah Lesung, Kec. Tenayan Raya, Kota Pekanbaru",KALIMANTAN TENGAH,28289.0,Indonesia, 081275598954,,,0.4893144,101.5178951,https://maps.google.com/?cid=0x0:0x53f0a4940fed7588,
mall,Komplek perumahan,Satya Asri,"FGHF+M87, Kulim, Kec. Tenayan Raya, Kota Pekanbaru, Riau 28289","Kulim, Kec. Tenayan Raya, Kota Pekanbaru",KALIMANTAN TENGAH,28289.0,Indonesia,,,,0.479175,101.52331,https://maps.google.com/?cid=0x0:0x87f97a0914a0a264,
mall,Toko Pakaian,C Geulis Store Pekanbaru,"Jl .Alam Raya 1. Gg.Mesjid RT /RW 04/06 Kec.Tenayan Raya, Kel.Tangkerang, Timur, Kota Pekanbaru, Riau 28284","Kel.Tangkerang, Timur, Kota Pekanbaru",KALIMANTAN TENGAH,28284.0,Indonesia, 082382270744,,,0.4968019,101.496904,https://maps.google.com/?cid=0x0:0x233ec10ad758d4f,
mall,Pusat Perbelanjaan,Bm mart,"Jl. Budi Luhur, Kulim, Kec. Tenayan Raya, Kota Pekanbaru, Riau 28282","Kulim, Kec. Tenayan Raya, Kota Pekanbaru",KALIMANTAN TENGAH,28282.0,Indonesia,,,,0.4823036,101.5416913,https://maps.google.com/?cid=0x0:0x4f516f2c3ad935ec,
mall,,Toko R99,"Jl. Imam Munandar No.299, Bencah Lesung, Kec. Tenayan Raya, Kota Pekanbaru, Riau 28131","Bencah Lesung, Kec. Tenayan Raya, Kota Pekanbaru",KALIMANTAN TENGAH,28131.0,Indonesia, 081371979907,,,0.4961944,101.5007433,https://maps.google.com/?cid=0x0:0xc046ef86a7f9a0ca,
mall,mall,Bukit Raya,"Kabupaten Katingan, Kalimantan Tengah","Kabupaten Katingan, Kalimantan Tengah",KALIMANTAN TENGAH,,Indonesia,,,,-0.9447632,112.1907122,https://maps.google.com/?cid=0x0:0xc298887006da1c70,
mall,mall,Kec. Bukit Raya,"Kota Pekanbaru, Riau","Kota Pekanbaru, Riau",KALIMANTAN TENGAH,,Indonesia,,,,0.4636738,101.4579441,https://maps.google.com/?cid=0x0:0xd5ade03770fa607a,
mall,Pusat Perbelanjaan,Mal Pekanbaru,"Jl. Jend. Sudirman No.123, Kota Tinggi, Kec. Pekanbaru Kota, Kota Pekanbaru, Riau 28112","Kota Tinggi, Kec. Pekanbaru Kota, Kota Pekanbaru",KALIMANTAN TENGAH,28112.0,Indonesia, 0761850122,,,0.5319514,101.4479579,https://maps.google.com/?cid=0x0:0xf41bf35bbb0463a,
mall,Toserba,Sinar Magetan,"FF48+WF6, Jl. Tengku Bey, Simpang Tiga, Kec. Bukit Raya, Kota Pekanbaru, Riau 28284","Jl. Tengku Bey, Simpang Tiga, Kec. Bukit Raya, Kota Pekanbaru",KALIMANTAN TENGAH,28284.0,Indonesia, 081275655701,,,0.4572897,101.4661315,https://maps.google.com/?cid=0x0:0xda98d6a6714131ca,
mall,Pasar,Pasa Kaget,"FF87+39Q, Jl. Rantau, Simpang Tiga, Kec. Bukit Raya, Kota Pekanbaru, Riau 28289","Jl. Rantau, Simpang Tiga, Kec. Bukit Raya, Kota Pekanbaru",KALIMANTAN TENGAH,28289.0,Indonesia,,,,0.465214,101.4634799,https://maps.google.com/?cid=0x0:0x5d887946c5965d90,
mall,Pusat Perbelanjaan,Mal Ciputra Seraya,"Jl. Riau No.58, Kp. Baru, Kec. Senapelan, Kota Pekanbaru, Riau 28154","Kp. Baru, Kec. Senapelan, Kota Pekanbaru",KALIMANTAN TENGAH,28154.0,Indonesia, 0761868888,,,0.5359841,101.4306163,https://maps.google.com/?cid=0x0:0xbdfa90dde03f63ed,
mall,Toko Swalayan,Surabaya Swalayan,"FFW5+7H2, Tengkerang Sel., Kec. Bukit Raya, Kota Pekanbaru, Riau 28126","Tengkerang Sel., Kec. Bukit Raya, Kota Pekanbaru",KALIMANTAN TENGAH,28126.0,Indonesia,,,,0.4956328,101.4588934,https://maps.google.com/?cid=0x0:0xa14b738308c76657,
mall,Perpustakaan,Perpustakaan Melayu Serantau RIAU,"FF39+CW8, Unnamed Rd, Simpang Tiga, Kec. Bukit Raya, Kota Pekanbaru, Riau 28282","Unnamed Rd, Simpang Tiga, Kec. Bukit Raya, Kota Pekanbaru",KALIMANTAN TENGAH,28282.0,Indonesia,,,,0.4535362,101.4698345,https://maps.google.com/?cid=0x0:0x40b78d04c1bd2633,
mall,Toko bahan makanan,Fajar Baru,"FF42+4HV, Jalan kaharudin Nasotion Kelurahan Simpang Tiga, Kecamatan, Kec. Bukit Raya, Kota Pekanbaru, Riau 28284","Jalan kaharudin Nasotion Kelurahan Simpang Tiga, Kecamatan, Kec. Bukit Raya, Kota Pekanbaru",KALIMANTAN TENGAH,28284.0,Indonesia, 085375896603,,,0.4553617,101.4514279,https://maps.google.com/?cid=0x0:0x3a093d5c9b7d91a4,
mall,Toko,Kedai harian dua putra,"Jl. Tengku Bey No.16a, Simpang Tiga, Kec. Bukit Raya, Kota Pekanbaru, Riau 28284","Simpang Tiga, Kec. Bukit Raya, Kota Pekanbaru",KALIMANTAN TENGAH,28284.0,Indonesia, 081212847329,,,0.4577057,101.4650009,https://maps.google.com/?cid=0x0:0x5818b89a4baaa6fa,
mall,Toko Swalayan,insan Mart Minimarket Syariah,"CFV5+63R, Jl. Karya I, Simpang Tiga, Kec. Bukit Raya, Kota Pekanbaru, Riau 28284","Jl. Karya I, Simpang Tiga, Kec. Bukit Raya, Kota Pekanbaru",KALIMANTAN TENGAH,28284.0,Indonesia, 085278023728,,,0.4431194,101.457646,https://maps.google.com/?cid=0x0:0xd6adee0f58551060,
mall,Pusat Perbelanjaan,SANTAN KELAPA AL BAROKAH,"Jl. Gading Marpoyan Raya, Kubang Jaya, Kec. Siak Hulu, Kota Pekanbaru, Riau 28284","Kubang Jaya, Kec. Siak Hulu, Kota Pekanbaru",KALIMANTAN TENGAH,28284.0,Indonesia, 082285410839,,,0.4245262,101.4492955,https://maps.google.com/?cid=0x0:0xa03091d28d407294,
mall,Pusat Perbelanjaan,Sunflowers,"Jl. Air Dingin IV, NO:21Simpang Tiga, Kec. Bukit Raya, Kota Pekanbaru, Riau 28284","NO:21Simpang Tiga, Kec. Bukit Raya, Kota Pekanbaru",KALIMANTAN TENGAH,28284.0,Indonesia, 082386255930,,,0.4474541,101.4603798,https://maps.google.com/?cid=0x0:0xf0c2ba9e41a97973,
mall,Pusat Perbelanjaan,Kedai Harian Yaya,"CFR7+M8P, Jl. Karya I, Simpang Tiga, Kec. Bukit Raya, Kota Pekanbaru, Riau 28284","Jl. Karya I, Simpang Tiga, Kec. Bukit Raya, Kota Pekanbaru",KALIMANTAN TENGAH,28284.0,Indonesia, 081903059284,,,0.4417187,101.463323,https://maps.google.com/?cid=0x0:0x2f0583cce3a14597,
mall,Pusat Perbelanjaan,KEY REAL Accessories,"Jalan Karya I, Kelurahan Simpang Tiga, Kec. Bukit Raya, Kota Pekanbaru, Riau 28284","Kelurahan Simpang Tiga, Kec. Bukit Raya, Kota Pekanbaru",KALIMANTAN TENGAH,28284.0,Indonesia, 087735434945,,,0.4269275,101.4679988,https://maps.google.com/?cid=0x0:0x4d759c50ea48778f,
mall,Pusat Perbelanjaan,Eureka Creatio,"Jl. K.H. Nasution No.157D, Simpang Tiga, Bukit Raya, Pekanbaru City, Riau 28284","Simpang Tiga, Bukit Raya, Pekanbaru City",KALIMANTAN TENGAH,28284.0,Indonesia, 07618410585,,,0.4259665,101.4372197,https://maps.google.com/?cid=0x0:0x665c135800c7ae13,
mall,Pusat Perbelanjaan,kimstore_pekanbaru,"Simpang Tiga, Kec. Bukit Raya, Kota Pekanbaru, Riau 28282","Kec. Bukit Raya, Kota Pekanbaru",KALIMANTAN TENGAH,28282.0,Indonesia,,,,0.4587933,101.4639306,https://maps.google.com/?cid=0x0:0xd9b63dd21c06e5c9,
mall,Toko Mebel,Sofa Pekanbaru,"Jl. Karya Bersama No.11, Simpang Tiga, Kec. Bukit Raya, Kota Pekanbaru, Riau 28284","Simpang Tiga, Kec. Bukit Raya, Kota Pekanbaru",KALIMANTAN TENGAH,28284.0,Indonesia, 081378758174,,,0.4429352,101.4667517,https://maps.google.com/?cid=0x0:0xfc6c9c7ffa920d73,
mall,Toko Kesehatan dan Kecantikan,Halal Mart Hanmo - DC HNI HPAI,"Jl. Kelapa Sawit, Kelurahan Jl. Air Dingin No.10 Blok A, RT.01/RW.04, Kec. Bukit Raya, Kota Pekanbaru, Riau 28284","Kelurahan Jl. Air Dingin No.10 Blok A, RT.01/RW.04, Kec. Bukit Raya, Kota Pekanbaru",KALIMANTAN TENGAH,28284.0,Indonesia, 08117530321,,,0.4526308,101.4538582,https://maps.google.com/?cid=0x0:0xc88e60830a1347cc,
mall,Pom bensin/SPBU,M Point,"FF33+Q9V, Jl. Kaharuddin Nst, Simpang Tiga, Kec. Bukit Raya, Kota Pekanbaru, Riau 28288","Jl. Kaharuddin Nst, Simpang Tiga, Kec. Bukit Raya, Kota Pekanbaru",KALIMANTAN TENGAH,28288.0,Indonesia, 082386996099,,,0.4544798,101.4534308,https://maps.google.com/?cid=0x0:0x33dc44626e0e791b,
mall,Pasar,CV.Tharra Cahaya Medika,"Jl. Kaharuddin Nst No.133, Simpang Tiga, Kec. Bukit Raya, Kota Pekanbaru, Riau 28284","Simpang Tiga, Kec. Bukit Raya, Kota Pekanbaru",KALIMANTAN TENGAH,28284.0,Indonesia, 082386021703,,,0.4353196,101.4460979,https://maps.google.com/?cid=0x0:0x8c93cf3bbf0b16e5,
mall,mall,Bukit Raya,"Kabupaten Katingan, Kalimantan Tengah","Kabupaten Katingan, Kalimantan Tengah",KALIMANTAN TENGAH,,Indonesia,,,,-0.9447632,112.1907122,https://maps.google.com/?cid=0x0:0xc298887006da1c70,
mall,Taman Nasional,Taman Nasional Bukit Baka Bukit Raya,"MCCQ+V6M, Rantau Malam, Kec. Serawai, Kabupaten Sintang, Kalimantan Barat 78683","Rantau Malam, Kec. Serawai, Kabupaten Sintang",KALIMANTAN TENGAH,78683.0,Indonesia,,,,-0.3277921,112.4380522,https://maps.google.com/?cid=0x0:0x2a83ccb751b0eabd,
mall,Pusat Perbelanjaan,Palangkaraya Mall (Palma),"Jl. Tjilik Riwut No.1, Palangka, Kec. Jekan Raya, Kota Palangka Raya, Kalimantan Tengah 74874","Palangka, Kec. Jekan Raya, Kota Palangka Raya",KALIMANTAN TENGAH,74874.0,Indonesia,,,,-2.2065433,113.9154004,https://maps.google.com/?cid=0x0:0xe30705d17366c7e0,
mall,mall,Riau 28288,"Kec. Marpoyan Damai, Kota Pekanbaru, Riau","Kota Pekanbaru, Riau",KALIMANTAN TENGAH,,Indonesia,,,,0.4643982,101.4509506,https://maps.google.com/?cid=0x0:0x8218df0cbbc860cd,
mall,Pom bensin/SPBU,M Point,"FF33+Q9V, Jl. Kaharuddin Nst, Simpang Tiga, Kec. Bukit Raya, Kota Pekanbaru, Riau 28288","Jl. Kaharuddin Nst, Simpang Tiga, Kec. Bukit Raya, Kota Pekanbaru",KALIMANTAN TENGAH,28288.0,Indonesia, 082386996099,,,0.4544798,101.4534308,https://maps.google.com/?cid=0x0:0x33dc44626e0e791b,
mall,Pasar,Pasa Kaget,"FF87+39Q, Jl. Rantau, Simpang Tiga, Kec. Bukit Raya, Kota Pekanbaru, Riau 28289","Jl. Rantau, Simpang Tiga, Kec. Bukit Raya, Kota Pekanbaru",KALIMANTAN TENGAH,28289.0,Indonesia,,,,0.465214,101.4634799,https://maps.google.com/?cid=0x0:0x5d887946c5965d90,
mall,Toko bahan makanan,Kaharudin Nasution 21,"FF44+8HC, Unnamed Road, Simpang Tiga, Kec. Bukit Raya, Kota Pekanbaru, Riau 28288","Unnamed Road, Simpang Tiga, Kec. Bukit Raya, Kota Pekanbaru",KALIMANTAN TENGAH,28288.0,Indonesia,,,,0.4558128,101.4563834,https://maps.google.com/?cid=0x0:0x63afdf7c5fc58681,
mall,Pusat Perbelanjaan,kimstore_pekanbaru,"Simpang Tiga, Kec. Bukit Raya, Kota Pekanbaru, Riau 28282","Kec. Bukit Raya, Kota Pekanbaru",KALIMANTAN TENGAH,28282.0,Indonesia,,,,0.4587933,101.4639306,https://maps.google.com/?cid=0x0:0xd9b63dd21c06e5c9,
mall,Toko Swalayan,Budiman Swalayan auliaku,"FF94+76Q, Jl. Ikhlas, Simpang Tiga, Kec. Bukit Raya, Kota Pekanbaru, Riau 28288","Jl. Ikhlas, Simpang Tiga, Kec. Bukit Raya, Kota Pekanbaru",KALIMANTAN TENGAH,28288.0,Indonesia,,,,0.4680667,101.4554886,https://maps.google.com/?cid=0x0:0x2bb5431873831206,
mall,Toko Kue,KHADIJAH OLEH-OLEH,"Jl. Kaharuddin Nst No.51, Simpang Tiga, Kec. Bukit Raya, Kota Pekanbaru, Riau 28288","Simpang Tiga, Kec. Bukit Raya, Kota Pekanbaru",KALIMANTAN TENGAH,28288.0,Indonesia, 085356618342,,,0.4702179,101.454404,https://maps.google.com/?cid=0x0:0x8e6fbeade7cc6013,
mall,Toserba,Sinar Magetan,"FF48+WF6, Jl. Tengku Bey, Simpang Tiga, Kec. Bukit Raya, Kota Pekanbaru, Riau 28284","Jl. Tengku Bey, Simpang Tiga, Kec. Bukit Raya, Kota Pekanbaru",KALIMANTAN TENGAH,28284.0,Indonesia, 081275655701,,,0.4572897,101.4661315,https://maps.google.com/?cid=0x0:0xda98d6a6714131ca,
mall,Toko,DC HPAI Kampar,"Jl. Raya Pekanbaru - Bangkinang, Km. 38, Dusun III Danto Tj. Bungo, Kec. Kampar Timur, Simpang Tiga, Kec. Bukit Raya, Kabupaten Kampar, Riau 28288","Km. 38, Dusun III Danto Tj. Bungo, Kec. Kampar Timur, Simpang Tiga, Kec. Bukit Raya, Kabupaten Kampar",KALIMANTAN TENGAH,28288.0,Indonesia, 081365640665,,,0.453762,101.4556027,https://maps.google.com/?cid=0x0:0xe447fccdae66d035,
mall,Toko,RWR Cell,"Jl. Air Dingin I Jl. Air Dingin No.3, Simpang Tiga, Kec. Bukit Raya, Kota Pekanbaru, Riau 28288","Simpang Tiga, Kec. Bukit Raya, Kota Pekanbaru",KALIMANTAN TENGAH,28288.0,Indonesia, 081267508811,,,0.4503777,101.4582949,https://maps.google.com/?cid=0x0:0xc67d0d9b3466c567,
mall,Toko,Toko Berkah II,"Datuk, Jl. Air Dingin Jl. Arifin Ahmad No.21A, Simpang Tiga, Kec. Bukit Raya, Kota Pekanbaru, Riau 28288","Jl. Air Dingin Jl. Arifin Ahmad No.21A, Simpang Tiga, Kec. Bukit Raya, Kota Pekanbaru",KALIMANTAN TENGAH,28288.0,Indonesia,,,,0.4503179,101.4556677,https://maps.google.com/?cid=0x0:0x1e9e3a2a3ef21a4e,
mall,Toko bahan makanan,Fajar Baru,"FF42+4HV, Jalan kaharudin Nasotion Kelurahan Simpang Tiga, Kecamatan, Kec. Bukit Raya, Kota Pekanbaru, Riau 28284","Jalan kaharudin Nasotion Kelurahan Simpang Tiga, Kecamatan, Kec. Bukit Raya, Kota Pekanbaru",KALIMANTAN TENGAH,28284.0,Indonesia, 085375896603,,,0.4553617,101.4514279,https://maps.google.com/?cid=0x0:0x3a093d5c9b7d91a4,
mall,Pusat Perbelanjaan,Kedai Noval Sepakat,"FCGJ+RRG, Jl. Melati, Sidomulyo Tim., Kec. Marpoyan Damai, Kota Pekanbaru, Riau 28289","Jl. Melati, Sidomulyo Tim., Kec. Marpoyan Damai, Kota Pekanbaru",KALIMANTAN TENGAH,28289.0,Indonesia,,,,0.4770564,101.4320904,https://maps.google.com/?cid=0x0:0x828ef796b52afde7,
mall,Toko Pakaian,Bolang Store  Rent,"Jl. Paus Ujung, Tengkerang Bar., Kec. Marpoyan Damai, Kota Pekanbaru, Riau 28125","Tengkerang Bar., Kec. Marpoyan Damai, Kota Pekanbaru",KALIMANTAN TENGAH,28125.0,Indonesia, 081338376453,,,0.4849408,101.4368071,https://maps.google.com/?cid=0x0:0x7aabdb0a125f2f7a,
mall,Toko,Toko Damai,"Jl. Tengku Bey No.99, Simpang Tiga, Kec. Bukit Raya, Kota Pekanbaru, Riau 28282","Simpang Tiga, Kec. Bukit Raya, Kota Pekanbaru",KALIMANTAN TENGAH,28282.0,Indonesia, 082372341107,,,0.4594477,101.4624076,https://maps.google.com/?cid=0x0:0x1f8ffe9fdc67837f,
mall,Perpustakaan,Perpustakaan Melayu Serantau RIAU,"FF39+CW8, Unnamed Rd, Simpang Tiga, Kec. Bukit Raya, Kota Pekanbaru, Riau 28282","Unnamed Rd, Simpang Tiga, Kec. Bukit Raya, Kota Pekanbaru",KALIMANTAN TENGAH,28282.0,Indonesia,,,,0.4535362,101.4698345,https://maps.google.com/?cid=0x0:0x40b78d04c1bd2633,
mall,Minimarket,Pangeran Muda Ponsel,"FF25+598, Simpang Tiga, Kec. Bukit Raya, Kota Pekanbaru, Riau 28288","Simpang Tiga, Kec. Bukit Raya, Kota Pekanbaru",KALIMANTAN TENGAH,28288.0,Indonesia,,,,0.4504117,101.4584583,https://maps.google.com/?cid=0x0:0x211187a84e1f295a,
mall,Toko Ponsel,PAHLAWAN PONSEL,"FC5X+CV2, Jl. Pahlawan Kerja No.8, Perhentian Marpoyan, Kec. Marpoyan Damai, Kota Pekanbaru, Riau 28288","Jl. Pahlawan Kerja No.8, Perhentian Marpoyan, Kec. Marpoyan Damai, Kota Pekanbaru",KALIMANTAN TENGAH,28288.0,Indonesia, 087825798566,,,0.4574553,101.4499951,https://maps.google.com/?cid=0x0:0x6ad8b39635004161,
mall,Pondok,Kurnia Kost,"FF33+VC2, Jalan Air Kuning, Simpang Tiga, Bukit Raya, Simpang Tiga, Pekanbaru, Kota Pekanbaru, Riau 28288","Jalan Air Kuning, Simpang Tiga, Bukit Raya, Simpang Tiga, Pekanbaru, Kota Pekanbaru",KALIMANTAN TENGAH,28288.0,Indonesia, 081277951161,,,0.4546393,101.4535153,https://maps.google.com/?cid=0x0:0x758e9b10e11bd33e,
mall,Paket Makanan Pokok,Gang gundul,"FF24+54Q, Jl. Air Dingin, Simpang Tiga, Kec. Bukit Raya, Kota Pekanbaru, Riau 28288","Jl. Air Dingin, Simpang Tiga, Kec. Bukit Raya, Kota Pekanbaru",KALIMANTAN TENGAH,28288.0,Indonesia,,,,0.4504587,101.4553536,https://maps.google.com/?cid=0x0:0x5b3fd1a1427d6dd7,
mall,Toko,Toko Simpang Tiga Air Dingin,"Jl. Air Dingin, Simpang Tiga, Kec. Bukit Raya, Kota Pekanbaru, Riau 28288","Simpang Tiga, Kec. Bukit Raya, Kota Pekanbaru",KALIMANTAN TENGAH,28288.0,Indonesia, 082134598789,,,0.4506541,101.4539506,https://maps.google.com/?cid=0x0:0x1d4b7faa25107e39,
mall,mall,Bukit Raya,"Kabupaten Katingan, Kalimantan Tengah","Kabupaten Katingan, Kalimantan Tengah",KALIMANTAN TENGAH,,Indonesia,,,,-0.9447632,112.1907122,https://maps.google.com/?cid=0x0:0xc298887006da1c70,
mall,Taman Nasional,Taman Nasional Bukit Baka Bukit Raya,"MCCQ+V6M, Rantau Malam, Kec. Serawai, Kabupaten Sintang, Kalimantan Barat 78683","Rantau Malam, Kec. Serawai, Kabupaten Sintang",KALIMANTAN TENGAH,78683.0,Indonesia,,,,-0.3277921,112.4380522,https://maps.google.com/?cid=0x0:0x2a83ccb751b0eabd,
mall,Pusat Perbelanjaan,Palangkaraya Mall (Palma),"Jl. Tjilik Riwut No.1, Palangka, Kec. Jekan Raya, Kota Palangka Raya, Kalimantan Tengah 74874","Palangka, Kec. Jekan Raya, Kota Palangka Raya",KALIMANTAN TENGAH,74874.0,Indonesia,,,,-2.2065433,113.9154004,https://maps.google.com/?cid=0x0:0xe30705d17366c7e0,
mall,Komplek perumahan,Mustaqim java,"RCVH+839, Unnamed Road, Tumbang Senamang, Katingan Hulu, Kabupaten Katingan, Kalimantan Tengah 74457","Unnamed Road, Tumbang Senamang, Katingan Hulu, Kabupaten Katingan",KALIMANTAN TENGAH,74457.0,Indonesia, 082136010302,,,-1.156718,112.427741,https://maps.google.com/?cid=0x0:0x7565661c98d761e9,
mall,mall,Riau 28289,"Kota Pekanbaru, Riau","Kota Pekanbaru, Riau",KALIMANTAN TENGAH,,Indonesia,,,,0.4643421,101.4850309,https://maps.google.com/?cid=0x0:0xe269f8a063c035df,
mall,Pasar,Pasa Kaget,"FF87+39Q, Jl. Rantau, Simpang Tiga, Kec. Bukit Raya, Kota Pekanbaru, Riau 28289","Jl. Rantau, Simpang Tiga, Kec. Bukit Raya, Kota Pekanbaru",KALIMANTAN TENGAH,28289.0,Indonesia,,,,0.465214,101.4634799,https://maps.google.com/?cid=0x0:0x5d887946c5965d90,
mall,Pusat Perbelanjaan,Mal SKA,"Jl. Soekarno - Hatta No.114, Delima, Kec. Tampan, Kota Pekanbaru, Riau 28292","Delima, Kec. Tampan, Kota Pekanbaru",KALIMANTAN TENGAH,28292.0,Indonesia, 0761864000,,,0.4989779,101.419025,https://maps.google.com/?cid=0x0:0xcb644449e8a62d2,
mall,Pusat Perbelanjaan,Eggro,"FFCG+VC8, Jl. Parit Indah, Tengkerang Labuai, Kec. Bukit Raya, Kota Pekanbaru, Riau 28289","Jl. Parit Indah, Tengkerang Labuai, Kec. Bukit Raya, Kota Pekanbaru",KALIMANTAN TENGAH,28289.0,Indonesia,,,,0.4721717,101.4760916,https://maps.google.com/?cid=0x0:0xc6bf378d237ebf1c,
mall,Toko,BERJAYA CELLULER,"Samping RM.Ampera Salero Kito, Jl. Sepakat Perum MKP No.7a, Kulim, Kec. Tenayan Raya, Kota Pekanbaru, Riau 28289","Jl. Sepakat Perum MKP No.7a, Kulim, Kec. Tenayan Raya, Kota Pekanbaru",KALIMANTAN TENGAH,28289.0,Indonesia,,,,0.475777,101.5132005,https://maps.google.com/?cid=0x0:0xda3d886b37f13f34,
mall,Taman,Toko Tanah Hitam,"FF77+G3X, Jl. Linggar Jati, Simpang Tiga, Kec. Bukit Raya, Kota Pekanbaru, Riau 28289","Jl. Linggar Jati, Simpang Tiga, Kec. Bukit Raya, Kota Pekanbaru",KALIMANTAN TENGAH,28289.0,Indonesia, 08127658598,,,0.4638739,101.4627498,https://maps.google.com/?cid=0x0:0x6eb7679e96398577,
mall,Toserba,Sinar Magetan,"FF48+WF6, Jl. Tengku Bey, Simpang Tiga, Kec. Bukit Raya, Kota Pekanbaru, Riau 28284","Jl. Tengku Bey, Simpang Tiga, Kec. Bukit Raya, Kota Pekanbaru",KALIMANTAN TENGAH,28284.0,Indonesia, 081275655701,,,0.4572897,101.4661315,https://maps.google.com/?cid=0x0:0xda98d6a6714131ca,
mall,Pusat Perbelanjaan,kimstore_pekanbaru,"Simpang Tiga, Kec. Bukit Raya, Kota Pekanbaru, Riau 28282","Kec. Bukit Raya, Kota Pekanbaru",KALIMANTAN TENGAH,28282.0,Indonesia,,,,0.4587933,101.4639306,https://maps.google.com/?cid=0x0:0xd9b63dd21c06e5c9,
mall,Bengkel Sepeda Motor,RGS Otomotif,"FF67+95W, Simpang Tiga, Kec. Bukit Raya, Kota Pekanbaru, Riau 28289","Simpang Tiga, Kec. Bukit Raya, Kota Pekanbaru",KALIMANTAN TENGAH,28289.0,Indonesia, 081268078606,,,0.460983,101.4629596,https://maps.google.com/?cid=0x0:0xd13c398da68b8419,
mall,Toko bahan makanan,Kedai Sari,"Jl. Parit Indah No.99, Tengkerang Labuai, Kec. Bukit Raya, Kota Pekanbaru, Riau 28128","Tengkerang Labuai, Kec. Bukit Raya, Kota Pekanbaru",KALIMANTAN TENGAH,28128.0,Indonesia,,,,0.4762823,101.4712835,https://maps.google.com/?cid=0x0:0x210e758655fff58e,
mall,Toko bahan makanan,FAJAR JAYA,"Jl. Sepakat Perum MKP No.9, Kulim, Kec. Tenayan Raya, Kota Pekanbaru, Riau 28289","Kulim, Kec. Tenayan Raya, Kota Pekanbaru",KALIMANTAN TENGAH,28289.0,Indonesia, 081268840037,,,0.4767199,101.5125631,https://maps.google.com/?cid=0x0:0xd0d8558b53816634,
mall,mall,Kec. Bukit Raya,"Kota Pekanbaru, Riau","Kota Pekanbaru, Riau",KALIMANTAN TENGAH,,Indonesia,,,,0.4636738,101.4579441,https://maps.google.com/?cid=0x0:0xd5ade03770fa607a,
mall,Perpustakaan,Perpustakaan Melayu Serantau RIAU,"FF39+CW8, Unnamed Rd, Simpang Tiga, Kec. Bukit Raya, Kota Pekanbaru, Riau 28282","Unnamed Rd, Simpang Tiga, Kec. Bukit Raya, Kota Pekanbaru",KALIMANTAN TENGAH,28282.0,Indonesia,,,,0.4535362,101.4698345,https://maps.google.com/?cid=0x0:0x40b78d04c1bd2633,
mall,Taman,Taman bunga ondhi parit indah,"FFFG+547, Jl. Parit Indah, Tengkerang Labuai, Kec. Bukit Raya, Kota Pekanbaru, Riau 28289","Jl. Parit Indah, Tengkerang Labuai, Kec. Bukit Raya, Kota Pekanbaru",KALIMANTAN TENGAH,28289.0,Indonesia, 082385003368,,,0.4729002,101.475301,https://maps.google.com/?cid=0x0:0xa3e6ac6a449a517,
mall,Toko,Toko Damai,"Jl. Tengku Bey No.99, Simpang Tiga, Kec. Bukit Raya, Kota Pekanbaru, Riau 28282","Simpang Tiga, Kec. Bukit Raya, Kota Pekanbaru",KALIMANTAN TENGAH,28282.0,Indonesia, 082372341107,,,0.4594477,101.4624076,https://maps.google.com/?cid=0x0:0x1f8ffe9fdc67837f,
mall,Komplek perumahan,Shoppu_yuyun,"JL. SEPAKAT GG. SEPAKAT 2 PERUMAHAN KULIM PERMAI BLOK D. 13, RT.1/RW.2, Kelurahan Pebatuan, Kec. Tenayan Raya, Kota Pekanbaru, Riau 28289","RT.1/RW.2, Kelurahan Pebatuan, Kec. Tenayan Raya, Kota Pekanbaru",KALIMANTAN TENGAH,28289.0,Indonesia,,,,0.4753172,101.5129376,https://maps.google.com/?cid=0x0:0x85f937577e7cd1ef,
mall,Pom bensin/SPBU,M Point,"FF33+Q9V, Jl. Kaharuddin Nst, Simpang Tiga, Kec. Bukit Raya, Kota Pekanbaru, Riau 28288","Jl. Kaharuddin Nst, Simpang Tiga, Kec. Bukit Raya, Kota Pekanbaru",KALIMANTAN TENGAH,28288.0,Indonesia, 082386996099,,,0.4544798,101.4534308,https://maps.google.com/?cid=0x0:0x33dc44626e0e791b,
mall,Pusat Perbelanjaan,NUSKIN YENI,"FFHH+QXJ, Tengkerang Labuai, Kec. Bukit Raya, Kota Pekanbaru, Riau 28131","Tengkerang Labuai, Kec. Bukit Raya, Kota Pekanbaru",KALIMANTAN TENGAH,28131.0,Indonesia,,,,0.4794558,101.4799045,https://maps.google.com/?cid=0x0:0xf370c2feb4e42158,
mall,Toko Swalayan,Budiman Swalayan auliaku,"FF94+76Q, Jl. Ikhlas, Simpang Tiga, Kec. Bukit Raya, Kota Pekanbaru, Riau 28288","Jl. Ikhlas, Simpang Tiga, Kec. Bukit Raya, Kota Pekanbaru",KALIMANTAN TENGAH,28288.0,Indonesia,,,,0.4680667,101.4554886,https://maps.google.com/?cid=0x0:0x2bb5431873831206,
mall,Toko,Kedai harian dua putra,"Jl. Tengku Bey No.16a, Simpang Tiga, Kec. Bukit Raya, Kota Pekanbaru, Riau 28284","Simpang Tiga, Kec. Bukit Raya, Kota Pekanbaru",KALIMANTAN TENGAH,28284.0,Indonesia, 081212847329,,,0.4577057,101.4650009,https://maps.google.com/?cid=0x0:0x5818b89a4baaa6fa,
mall,Toko bahan makanan,Fajar Baru,"FF42+4HV, Jalan kaharudin Nasotion Kelurahan Simpang Tiga, Kecamatan, Kec. Bukit Raya, Kota Pekanbaru, Riau 28284","Jalan kaharudin Nasotion Kelurahan Simpang Tiga, Kecamatan, Kec. Bukit Raya, Kota Pekanbaru",KALIMANTAN TENGAH,28284.0,Indonesia, 085375896603,,,0.4553617,101.4514279,https://maps.google.com/?cid=0x0:0x3a093d5c9b7d91a4,
mall,mall,Kalimantan Tengah 74457,"Kabupaten Katingan, Kalimantan Tengah","Kabupaten Katingan, Kalimantan Tengah",KALIMANTAN TENGAH,,Indonesia,,,,-1.0501582,112.3337769,https://maps.google.com/?cid=0x0:0x96f7cae7d4b2ca52,
mall,Taman Nasional,Taman Nasional Bukit Baka Bukit Raya,"MCCQ+V6M, Rantau Malam, Kec. Serawai, Kabupaten Sintang, Kalimantan Barat 78683","Rantau Malam, Kec. Serawai, Kabupaten Sintang",KALIMANTAN TENGAH,78683.0,Indonesia,,,,-0.3277921,112.4380522,https://maps.google.com/?cid=0x0:0x2a83ccb751b0eabd,
mall,mall,Bukit Jaya,"3FVM+FV7, Bukit Jaya, Kec. Bulik Tim., Kabupaten Lamandau, Kalimantan Tengah 74162","Bukit Jaya, Kec. Bulik Tim., Kabupaten Lamandau",KALIMANTAN TENGAH,74162.0,Indonesia,,,,-1.9063322,111.4846789,https://maps.google.com/?cid=0x0:0x1f75e6d4d8b3d1fd,
mall,Pusat Perbelanjaan,Palangkaraya Mall (Palma),"Jl. Tjilik Riwut No.1, Palangka, Kec. Jekan Raya, Kota Palangka Raya, Kalimantan Tengah 74874","Palangka, Kec. Jekan Raya, Kota Palangka Raya",KALIMANTAN TENGAH,74874.0,Indonesia,,,,-2.2065433,113.9154004,https://maps.google.com/?cid=0x0:0xe30705d17366c7e0,
mall,Pusat Perbelanjaan,Duta Mall Palangka Raya,"QW2F+G58, Langkai, Kec. Pahandut, Kota Palangka Raya, Kalimantan Tengah 74874","Langkai, Kec. Pahandut, Kota Palangka Raya",KALIMANTAN TENGAH,74874.0,Indonesia,,,,-2.248704,113.922958,https://maps.google.com/?cid=0x0:0xd4fe13501def807f,
mall,Komplek perumahan,Mustaqim java,"RCVH+839, Unnamed Road, Tumbang Senamang, Katingan Hulu, Kabupaten Katingan, Kalimantan Tengah 74457","Unnamed Road, Tumbang Senamang, Katingan Hulu, Kabupaten Katingan",KALIMANTAN TENGAH,74457.0,Indonesia, 082136010302,,,-1.156718,112.427741,https://maps.google.com/?cid=0x0:0x7565661c98d761e9,
mall,Pusat Perbelanjaan,indomaret,"Jl. Datuk Setia Maharaja No.48, Tengkerang Labuai, Kec. Bukit Raya, Kota Pekanbaru, Riau 28282","Tengkerang Labuai, Kec. Bukit Raya, Kota Pekanbaru",KALIMANTAN TENGAH,28282.0,Indonesia,,,,0.4809363,101.4651527,https://maps.google.com/?cid=0x0:0xf01840d0a92b54ea,
mall,Pusat Perbelanjaan,kimstore_pekanbaru,"Simpang Tiga, Kec. Bukit Raya, Kota Pekanbaru, Riau 28282","Kec. Bukit Raya, Kota Pekanbaru",KALIMANTAN TENGAH,28282.0,Indonesia,,,,0.4587933,101.4639306,https://maps.google.com/?cid=0x0:0xd9b63dd21c06e5c9,
mall,Pasar,Pasa Kaget,"FF87+39Q, Jl. Rantau, Simpang Tiga, Kec. Bukit Raya, Kota Pekanbaru, Riau 28289","Jl. Rantau, Simpang Tiga, Kec. Bukit Raya, Kota Pekanbaru",KALIMANTAN TENGAH,28289.0,Indonesia,,,,0.465214,101.4634799,https://maps.google.com/?cid=0x0:0x5d887946c5965d90,
mall,Toko bahan makanan,Fajar Baru,"FF42+4HV, Jalan kaharudin Nasotion Kelurahan Simpang Tiga, Kecamatan, Kec. Bukit Raya, Kota Pekanbaru, Riau 28284","Jalan kaharudin Nasotion Kelurahan Simpang Tiga, Kecamatan, Kec. Bukit Raya, Kota Pekanbaru",KALIMANTAN TENGAH,28284.0,Indonesia, 085375896603,,,0.4553617,101.4514279,https://maps.google.com/?cid=0x0:0x3a093d5c9b7d91a4,
mall,mall,Kec. Bukit Raya,"Kota Pekanbaru, Riau","Kota Pekanbaru, Riau",KALIMANTAN TENGAH,,Indonesia,,,,0.4636738,101.4579441,https://maps.google.com/?cid=0x0:0xd5ade03770fa607a,
mall,Pusat Perbelanjaan,RUMAH ACHA SHOP,"FF36+CW5, Jl. Perwira Kav. P4s, Simpang Tiga, Kec. Bukit Raya, Kota Pekanbaru, Riau 28282","Jl. Perwira Kav. P4s, Simpang Tiga, Kec. Bukit Raya, Kota Pekanbaru",KALIMANTAN TENGAH,28282.0,Indonesia,,,,0.4456375,101.4747656,https://maps.google.com/?cid=0x0:0x413adf62d66c99ce,
mall,Toko,Toko Damai,"Jl. Tengku Bey No.99, Simpang Tiga, Kec. Bukit Raya, Kota Pekanbaru, Riau 28282","Simpang Tiga, Kec. Bukit Raya, Kota Pekanbaru",KALIMANTAN TENGAH,28282.0,Indonesia, 082372341107,,,0.4594477,101.4624076,https://maps.google.com/?cid=0x0:0x1f8ffe9fdc67837f,
mall,Toko Swalayan,Surabaya Swalayan,"FFW5+7H2, Tengkerang Sel., Kec. Bukit Raya, Kota Pekanbaru, Riau 28126","Tengkerang Sel., Kec. Bukit Raya, Kota Pekanbaru",KALIMANTAN TENGAH,28126.0,Indonesia,,,,0.4956328,101.4588934,https://maps.google.com/?cid=0x0:0xa14b738308c76657,
mall,Toko,Toko Berkah II,"Datuk, Jl. Air Dingin Jl. Arifin Ahmad No.21A, Simpang Tiga, Kec. Bukit Raya, Kota Pekanbaru, Riau 28288","Jl. Air Dingin Jl. Arifin Ahmad No.21A, Simpang Tiga, Kec. Bukit Raya, Kota Pekanbaru",KALIMANTAN TENGAH,28288.0,Indonesia,,,,0.4503179,101.4556677,https://maps.google.com/?cid=0x0:0x1e9e3a2a3ef21a4e,
mall,Pom bensin/SPBU,M Point,"FF33+Q9V, Jl. Kaharuddin Nst, Simpang Tiga, Kec. Bukit Raya, Kota Pekanbaru, Riau 28288","Jl. Kaharuddin Nst, Simpang Tiga, Kec. Bukit Raya, Kota Pekanbaru",KALIMANTAN TENGAH,28288.0,Indonesia, 082386996099,,,0.4544798,101.4534308,https://maps.google.com/?cid=0x0:0x33dc44626e0e791b,
mall,mall,Kalimantan Tengah 74462,"Kabupaten Katingan, Kalimantan Tengah","Kabupaten Katingan, Kalimantan Tengah",KALIMANTAN TENGAH,,Indonesia,,,,-2.3296062,113.4776098,https://maps.google.com/?cid=0x0:0x3d01dd11e05807f8,
mall,Pusat Perbelanjaan,Kreative Mandiri,"Baun Bango, Kec. Kamipang, Kabupaten Katingan, Kalimantan Tengah 74462","Kec. Kamipang, Kabupaten Katingan",KALIMANTAN TENGAH,74462.0,Indonesia, 085252852502,,,-2.2669267,113.4766307,https://maps.google.com/?cid=0x0:0x7c8dfc2f9fbb4b16,
mall,Toko,TOKO ISRYADI,"MCHV+PRJ, Unnamed Road, Jahanjang, Kec. Kamipang, Kabupaten Katingan, Kalimantan Tengah 74462","Unnamed Road, Jahanjang, Kec. Kamipang, Kabupaten Katingan",KALIMANTAN TENGAH,74462.0,Indonesia, 085298688190,,,-2.3206703,113.4445054,https://maps.google.com/?cid=0x0:0x2d78d62506077232,
mall,Toko Swalayan,Kios sembako mama tyo,"PC7V+VFG, Tumbang Runen, Kec. Kamipang, Kabupaten Katingan, Kalimantan Tengah 74462","Tumbang Runen, Kec. Kamipang, Kabupaten Katingan",KALIMANTAN TENGAH,74462.0,Indonesia,,,,-2.285306,113.4437015,https://maps.google.com/?cid=0x0:0x4bf9e608f4bfa968,
mall,Pusat Perbelanjaan,Toserba BAROKAH Jaya Mart,"VCVR+4QW, Hiyang Bana, Kec. Tasik Payawan, Kabupaten Katingan, Kalimantan Tengah 74461","Hiyang Bana, Kec. Tasik Payawan, Kabupaten Katingan",KALIMANTAN TENGAH,74461.0,Indonesia, 081229479491,,,-2.1071443,113.4419388,https://maps.google.com/?cid=0x0:0x8e8f0abb70ab08a9,
mall,mall,Kalimantan Tengah 74413,"Kec. Katingan Hilir, Kabupaten Katingan, Kalimantan Tengah","Kabupaten Katingan, Kalimantan Tengah",KALIMANTAN TENGAH,,Indonesia,,,,-1.9350378,113.2394452,https://maps.google.com/?cid=0x0:0xff4c20b50314124d,
mall,Pusat Perbelanjaan,Toko monic,"Jl. Soekarno Hatta No.14, Kasongan Lama, Kec. Katingan Hilir, Kabupaten Katingan, Kalimantan Tengah 74413","Kasongan Lama, Kec. Katingan Hilir, Kabupaten Katingan",KALIMANTAN TENGAH,74413.0,Indonesia,,,,-1.8821182,113.4196058,https://maps.google.com/?cid=0x0:0x9f4409cca46387f7,
mall,Pusat Perbelanjaan,Kristomi,"Kereng Humbang, Jl. Durian No.15, Kasongan Lama, Kec. Katingan Hilir, Kabupaten Katingan, Kalimantan Tengah 74413","Jl. Durian No.15, Kasongan Lama, Kec. Katingan Hilir, Kabupaten Katingan",KALIMANTAN TENGAH,74413.0,Indonesia,,,,-1.8837715,113.4192671,https://maps.google.com/?cid=0x0:0x2a479794670e9dbf,
mall,Taman,Pasar Kasongan,"Kasongan Lama, Kec. Katingan Hilir, Kabupaten Katingan, Kalimantan Tengah 74413","Kec. Katingan Hilir, Kabupaten Katingan",KALIMANTAN TENGAH,74413.0,Indonesia,,,,-1.9127694,113.3858914,https://maps.google.com/?cid=0x0:0x62deccf849b5c2d4,
mall,mall,IKM,"4877+4QW, Telangkah, Kec. Katingan Hilir, Kabupaten Katingan, Kalimantan Tengah 74413","Telangkah, Kec. Katingan Hilir, Kabupaten Katingan",KALIMANTAN TENGAH,74413.0,Indonesia,,,,-1.88714,113.3144471,https://maps.google.com/?cid=0x0:0x848448903f8bc849,
mall,Toko Sepeda Motor,siga motor menjual khusus seperpat,"Jl. Trans Kalimantan, Hampalit, Kec. Katingan Hilir, Kabupaten Katingan, Kalimantan Tengah 74413","Hampalit, Kec. Katingan Hilir, Kabupaten Katingan",KALIMANTAN TENGAH,74413.0,Indonesia, 081235597565,,,-1.9028808,113.2827071,https://maps.google.com/?cid=0x0:0x8c62dcfa0b8551d9,
mall,Pusat Perbelanjaan,Toko gode,"4C9C+MJF, Kasongan Lama, Kec. Katingan Hilir, Kabupaten Katingan, Kalimantan Tengah 74413","Kasongan Lama, Kec. Katingan Hilir, Kabupaten Katingan",KALIMANTAN TENGAH,74413.0,Indonesia,,,,-1.8808006,113.4215369,https://maps.google.com/?cid=0x0:0xed1a86cf099b01cf,
mall,Kompleks Kondominium,Pasar Kereng Pangi,"473X+XFM, Hampalit, Kec. Katingan Hilir, Kabupaten Katingan, Kalimantan Tengah 74413","Hampalit, Kec. Katingan Hilir, Kabupaten Katingan",KALIMANTAN TENGAH,74413.0,Indonesia,,,,-1.895036,113.2986755,https://maps.google.com/?cid=0x0:0x661a1789f1bbf88a,
mall,Toko,Kios zainy,"472W+Q34, Jl. Campaka Buang, Hampalit, Kec. Katingan Hilir, Kabupaten Katingan, Kalimantan Tengah 74413","Jl. Campaka Buang, Hampalit, Kec. Katingan Hilir, Kabupaten Katingan",KALIMANTAN TENGAH,74413.0,Indonesia, 085316152757,,,-1.8981142,113.2952094,https://maps.google.com/?cid=0x0:0x10ad0db3155dd20e,
mall,Pasar,Toko Melodi Kereng Pangi,"4842+G29, Jl. Trans Kalimantan, Hampalit, Kec. Katingan Hilir, Kabupaten Katingan, Kalimantan Tengah 74413","Jl. Trans Kalimantan, Hampalit, Kec. Katingan Hilir, Kabupaten Katingan",KALIMANTAN TENGAH,74413.0,Indonesia,,,,-1.8937054,113.3001201,https://maps.google.com/?cid=0x0:0xaa87f8390fd2a3bc,
mall,,Hampalit,"474X+G8W, Hampalit, Kec. Katingan Hilir, Kabupaten Katingan, Kalimantan Tengah 74413","Hampalit, Kec. Katingan Hilir, Kabupaten Katingan",KALIMANTAN TENGAH,74413.0,Indonesia,,,,-1.8936457,113.2983393,https://maps.google.com/?cid=0x0:0x78d7f7c6c8c7fa1d,
mall,Toko,SPO 1997 Era Septy Ceria,"4CGF+WQC, Jl. Soekarno Hatta, Kasongan Lama, Kec. Katingan Hilir, Kabupaten Katingan, Kalimantan Tengah 74413","Jl. Soekarno Hatta, Kasongan Lama, Kec. Katingan Hilir, Kabupaten Katingan",KALIMANTAN TENGAH,74413.0,Indonesia, 081349227163,,,-1.872687,113.424385,https://maps.google.com/?cid=0x0:0xb3c22356db123272,
mall,Toko Ponsel,AQILA PONSEL,"Jl. Pembangunan, Hampalit, Kec. Katingan Hilir, Kabupaten Katingan, Kalimantan Tengah 74413","Hampalit, Kec. Katingan Hilir, Kabupaten Katingan",KALIMANTAN TENGAH,74413.0,Indonesia, 085346682082,,,-1.8938971,113.2971279,https://maps.google.com/?cid=0x0:0x7bada97892598816,
mall,Taman,TAMAN KOTA KASONGAN,"39VM+7JW, Kasongan Lama, Kec. Katingan Hilir, Kabupaten Katingan, Kalimantan Tengah 74413","Kasongan Lama, Kec. Katingan Hilir, Kabupaten Katingan",KALIMANTAN TENGAH,74413.0,Indonesia,,,,-1.9067693,113.3840926,https://maps.google.com/?cid=0x0:0xaa870f7dafbd6a19,
mall,Toko Alat Tulis Kantor,Rommy ATK (Alat Tulis Kantor),"39PJ+75V, Jl. Tjilik Riwut, Kasongan Lama, Kec. Katingan Hilir, Kabupaten Katingan, Kalimantan Tengah 74413","Jl. Tjilik Riwut, Kasongan Lama, Kec. Katingan Hilir, Kabupaten Katingan",KALIMANTAN TENGAH,74413.0,Indonesia, 082154187665,,,-1.9142555,113.3804271,https://maps.google.com/?cid=0x0:0x924ab9f738b3cdf1,
mall,Pusat Perbelanjaan,UD. WIJAYA MAKMUR,"369C+HH3, Jl. Trans Kalimantan, Hampalit, Kec. Katingan Hilir, Kabupaten Katingan, Kalimantan Tengah 74413","Jl. Trans Kalimantan, Hampalit, Kec. Katingan Hilir, Kabupaten Katingan",KALIMANTAN TENGAH,74413.0,Indonesia,,,,-1.9309087,113.221588,https://maps.google.com/?cid=0x0:0x7befd2431ce79eaf,
mall,Pusat Perbelanjaan,Warung Zahira,"497Q+F9R, Kasongan Lama, Kec. Katingan Hilir, Kabupaten Katingan, Kalimantan Tengah 74413","Kasongan Lama, Kec. Katingan Hilir, Kabupaten Katingan",KALIMANTAN TENGAH,74413.0,Indonesia, 081242107282,,,-1.886275,113.3884,https://maps.google.com/?cid=0x0:0x5af291b39a19ff04,
mall,Toko bahan makanan,Kios Nurul Hikmah,"39RV+697, Kasongan Lama, Kec. Katingan Hilir, Kabupaten Katingan, Kalimantan Tengah 74413","Kasongan Lama, Kec. Katingan Hilir, Kabupaten Katingan",KALIMANTAN TENGAH,74413.0,Indonesia,,,,-1.9094597,113.3934153,https://maps.google.com/?cid=0x0:0x5eab9eee409ac6f8,
mall,Pusat Perbelanjaan,Toko Alissya,"494P+8WG, Kasongan Lama, Kec. Katingan Hilir, Kabupaten Katingan, Kalimantan Tengah 74413","Kasongan Lama, Kec. Katingan Hilir, Kabupaten Katingan",KALIMANTAN TENGAH,74413.0,Indonesia,,,,-1.8941759,113.3873267,https://maps.google.com/?cid=0x0:0x153b870f330dd852,
mall,Pusat Perbelanjaan,Toko Zahra,"Jl. Pendahara, Kasongan Lama, Kec. Katingan Hilir, Kabupaten Katingan, Kalimantan Tengah 74413","Kasongan Lama, Kec. Katingan Hilir, Kabupaten Katingan",KALIMANTAN TENGAH,74413.0,Indonesia, 081251235459,,,-1.8932373,113.3876952,https://maps.google.com/?cid=0x0:0x91d67891c2c601e4,
mall,Kantor Perusahaan,Agen Theraskin katingan,"Jl. G. Galunggung,Blok 4 no, Kasongan Lama, Kec. Katingan Hilir, Kabupaten Katingan, Kalimantan Tengah 74413","Kasongan Lama, Kec. Katingan Hilir, Kabupaten Katingan",KALIMANTAN TENGAH,74413.0,Indonesia, 0816285900,,,-1.9053629,113.3899462,https://maps.google.com/?cid=0x0:0xb5724b865beed8b3,
mall,Pemasok Air Minum Dalam Kemasan,Sembako Dan Pengisian Galon ARR,"39QP+R57, Kasongan Lama, Kec. Katingan Hilir, Kabupaten Katingan, Kalimantan Tengah 74413","Kasongan Lama, Kec. Katingan Hilir, Kabupaten Katingan",KALIMANTAN TENGAH,74413.0,Indonesia, 081254718524,,,-1.91046,113.385418,https://maps.google.com/?cid=0x0:0xec95cbe8aaaaa93f,
mall,Dokter Gigi,Tukang Pasang Gigi,"Jl. Soekarno Hatta, Kasongan Lama, Kec. Katingan Hilir, Kabupaten Katingan, Kalimantan Tengah 74413","Kasongan Lama, Kec. Katingan Hilir, Kabupaten Katingan",KALIMANTAN TENGAH,74413.0,Indonesia, 081232723247,,,-1.8822386,113.4198545,https://maps.google.com/?cid=0x0:0x906a0539d46605ff,
mall,Pusat Perbelanjaan,Toko lisa,"496Q+QMW, Jl. Pendahara, Kasongan Lama, Kec. Katingan Hilir, Kabupaten Katingan, Kalimantan Tengah 74413","Jl. Pendahara, Kasongan Lama, Kec. Katingan Hilir, Kabupaten Katingan",KALIMANTAN TENGAH,74413.0,Indonesia,,,,-1.8880024,113.3891942,https://maps.google.com/?cid=0x0:0xc9b0015f71ed74b8,
mall,mall,Kalimantan Tengah 74457,"Kabupaten Katingan, Kalimantan Tengah","Kabupaten Katingan, Kalimantan Tengah",KALIMANTAN TENGAH,,Indonesia,,,,-1.0501582,112.3337769,https://maps.google.com/?cid=0x0:0x96f7cae7d4b2ca52,
mall,Pusat Perbelanjaan,Enzo arena,"Tumbang Hiran, Marikit, Kabupaten Katingan, Kalimantan Tengah","Kabupaten Katingan, Kalimantan Tengah",KALIMANTAN TENGAH,,Indonesia,,,,-1.1902291,112.6959962,https://maps.google.com/?cid=0x0:0xa4beb0490a517c16,
mall,Komplek perumahan,Mustaqim java,"RCVH+839, Unnamed Road, Tumbang Senamang, Katingan Hulu, Kabupaten Katingan, Kalimantan Tengah 74457","Unnamed Road, Tumbang Senamang, Katingan Hulu, Kabupaten Katingan",KALIMANTAN TENGAH,74457.0,Indonesia, 082136010302,,,-1.156718,112.427741,https://maps.google.com/?cid=0x0:0x7565661c98d761e9,
mall,Pusat Perbelanjaan,Olda Call,"Rangan Tangko, Palangaka Raya, Kabupaten Katingan, Kalimantan Tengah 74456","Palangaka Raya, Kabupaten Katingan",KALIMANTAN TENGAH,74456.0,Indonesia, 082250852287,,,-1.1292694,112.564898,https://maps.google.com/?cid=0x0:0x773df6ae141944,
mall,mall,Kalimantan Tengah 74463,"Kabupaten Katingan, Kalimantan Tengah","Kabupaten Katingan, Kalimantan Tengah",KALIMANTAN TENGAH,,Indonesia,,,,-2.9195423,113.287085,https://maps.google.com/?cid=0x0:0x667e7a72fdeb8e94,
mall,Toko,Adzkia,"Q9M7+69P, Unnamed Road, Pegatan Hilir, Kec. Katingan Kuala, Kabupaten Katingan, Kalimantan Tengah 74463","Unnamed Road, Pegatan Hilir, Kec. Katingan Kuala, Kabupaten Katingan",KALIMANTAN TENGAH,74463.0,Indonesia,,,,-3.216902,113.3634648,https://maps.google.com/?cid=0x0:0xf1551b8010bbc676,
mall,Pasar,Pasar Tradisional,"P8JQ+794, Pegatan Hilir, Kec. Katingan Kuala, Kabupaten Katingan, Kalimantan Tengah 74463","Pegatan Hilir, Kec. Katingan Kuala, Kabupaten Katingan",KALIMANTAN TENGAH,74463.0,Indonesia,,,,-3.2693654,113.3384391,https://maps.google.com/?cid=0x0:0x109afc66a131499,
mall,Pusat Perbelanjaan,JUBAY Olshop,"Pegatan Hilir, Kec. Katingan Kuala, Kabupaten Katingan, Kalimantan Tengah 74463","Kec. Katingan Kuala, Kabupaten Katingan",KALIMANTAN TENGAH,74463.0,Indonesia, 082151023300,,,-3.2142773,113.35794,https://maps.google.com/?cid=0x0:0xb7881f1371370a25,
mall,Jawa,Warung Fina,"R85X+MGC, Pegatan Hulu, Kec. Katingan Kuala, Kabupaten Katingan, Kalimantan Tengah 74463","Pegatan Hulu, Kec. Katingan Kuala, Kabupaten Katingan",KALIMANTAN TENGAH,74463.0,Indonesia, 085753650673,,,-3.1908158,113.3487646,https://maps.google.com/?cid=0x0:0x27d980f292ff3dc,
mall,Toko bahan makanan,KIOS RAHMAT,"Kp. Baru, Kec. Katingan Kuala, Kabupaten Katingan, Kalimantan Tengah","Kabupaten Katingan, Kalimantan Tengah",KALIMANTAN TENGAH,,Indonesia, 08978827906,,,-2.9469533,113.507374,https://maps.google.com/?cid=0x0:0xbb9e4dfc42eb9b74,
mall,mall,Kalimantan Tengah 74454,Kalimantan Tengah,Kalimantan Tengah,KALIMANTAN TENGAH,,Indonesia,,,,-1.4341471,113.1441558,https://maps.google.com/?cid=0x0:0x4b759053d82a4f96,
mall,Pusat Perbelanjaan,Toko Ervan,"Jl. Merdeka No.7, tumbang samba, Kec. Katingan Tengah, Kabupaten Katingan, Kalimantan Tengah 74454","tumbang samba, Kec. Katingan Tengah, Kabupaten Katingan",KALIMANTAN TENGAH,74454.0,Indonesia,,,,-1.4482735,113.0957325,https://maps.google.com/?cid=0x0:0xe0fa818bc2654edc,
mall,Pusat Perbelanjaan,Pusat Belanja Termurah Tumbang Samba,"H38X+W6P, Samba Katung, Kec. Katingan Tengah, Kabupaten Katingan, Kalimantan Tengah 74454","Samba Katung, Kec. Katingan Tengah, Kabupaten Katingan",KALIMANTAN TENGAH,74454.0,Indonesia,,,,-1.4326706,113.0980656,https://maps.google.com/?cid=0x0:0x336788952356d1ae,
mall,Pusat Perbelanjaan,Aice tumbang samba,"G4R3+F8C, Jl. Merdeka, Samba Danum, Kec. Katingan Tengah, Kabupaten Katingan, Kalimantan Tengah 74454","Jl. Merdeka, Samba Danum, Kec. Katingan Tengah, Kabupaten Katingan",KALIMANTAN TENGAH,74454.0,Indonesia, 085348616868,,,-1.4588172,113.1032738,https://maps.google.com/?cid=0x0:0x5f593995d394fc4a,
mall,Pusat Perbelanjaan,CV. KATINGAN JAYA MANDIRI,"G3QR+PH4, Samba Kahayan, Kec. Katingan Tengah, Kabupaten Katingan, Kalimantan Tengah 74454","Samba Kahayan, Kec. Katingan Tengah, Kabupaten Katingan",KALIMANTAN TENGAH,74454.0,Indonesia,,,,-1.4607401,113.0914573,https://maps.google.com/?cid=0x0:0x2b7d32449ed2fcf8,
mall,Pasar,PASAR RAKYAT TUMBANG SAMBA,"H39X+277, Samba Katung, Kec. Katingan Tengah, Kabupaten Katingan, Kalimantan Tengah 74454","Samba Katung, Kec. Katingan Tengah, Kabupaten Katingan",KALIMANTAN TENGAH,74454.0,Indonesia, 085751035268,,,-1.4324736,113.0981822,https://maps.google.com/?cid=0x0:0xa77d326c1257e98d,
mall,,Toko Naura,"G3XW+6RG, Jl. Merdeka, Samba Danum, Kec. Katingan Tengah, Kabupaten Katingan, Kalimantan Tengah 74454","Jl. Merdeka, Samba Danum, Kec. Katingan Tengah, Kabupaten Katingan",KALIMANTAN TENGAH,74454.0,Indonesia, 085251312697,,,-1.4519458,113.0970771,https://maps.google.com/?cid=0x0:0xbc81fb49938a654e,
mall,Toko,Toko Beo jaya,"H32V+HJJ, Jl. Merdeka, Samba Danum, Kec. Katingan Tengah, Kabupaten Katingan, Kalimantan Tengah 74454","Jl. Merdeka, Samba Danum, Kec. Katingan Tengah, Kabupaten Katingan",KALIMANTAN TENGAH,74454.0,Indonesia,,,,-1.4485342,113.0940238,https://maps.google.com/?cid=0x0:0x963143a2579146df,
mall,Pusat Perbelanjaan,Vocher dan Perdana Tri,"H38X+X73, Samba Katung, Kec. Katingan Tengah, Kabupaten Katingan, Kalimantan Tengah","Kabupaten Katingan, Kalimantan Tengah",KALIMANTAN TENGAH,,Indonesia,,,,-1.432621,113.0981822,https://maps.google.com/?cid=0x0:0x2f34b0cfe8659bd3,
mall,Toko umum,UD. Mozza,"H442+J96, Jl. H. Ikap, Samba Bakumpai, Kec. Katingan Tengah, Kabupaten Katingan, Kalimantan Tengah 74454","Jl. H. Ikap, Samba Bakumpai, Kec. Katingan Tengah, Kabupaten Katingan",KALIMANTAN TENGAH,74454.0,Indonesia, 085249141461,,,-1.4434518,113.1008769,https://maps.google.com/?cid=0x0:0xa2139692bc0f55d0,
mall,Pusat Perbelanjaan,KIOS PULSA DAN VOCHER MURAH,"H38X+V56, Samba Katung, Kec. Katingan Tengah, Kabupaten Katingan, Kalimantan Tengah 74454","Samba Katung, Kec. Katingan Tengah, Kabupaten Katingan",KALIMANTAN TENGAH,74454.0,Indonesia,,,,-1.4328332,113.0979026,https://maps.google.com/?cid=0x0:0xb0e3f28682be2c1f,
mall,Kantor Perusahaan,KIOS NASHA ADIBA,"G3QP+CJX, Jl. Minun Dehen, Samba Danum, Tumbang Samba, Kabupaten Katingan, Kalimantan Tengah 74454","Jl. Minun Dehen, Samba Danum, Tumbang Samba, Kabupaten Katingan",KALIMANTAN TENGAH,74454.0,Indonesia,,,,-1.4613931,113.0865943,https://maps.google.com/?cid=0x0:0x92ee9d6d5ba3d79e,
mall,Toko Alat Pancing,Amanah Pancing,"G3XW+GPC, Samba Danum, Kec. Katingan Tengah, Kabupaten Katingan, Kalimantan Tengah 74454","Samba Danum, Kec. Katingan Tengah, Kabupaten Katingan",KALIMANTAN TENGAH,74454.0,Indonesia,,,,-1.4511811,113.096755,https://maps.google.com/?cid=0x0:0x1263a0c489c18a86,
mall,Toko umum,TOKO MAMA ADUL IWAK KARING / IKAN ASIN,"Jl. Merdeka, Samba Danum, Kec. Katingan Tengah, Kabupaten Katingan, Kalimantan Tengah 74454","Samba Danum, Kec. Katingan Tengah, Kabupaten Katingan",KALIMANTAN TENGAH,74454.0,Indonesia, 085249149791,,,-1.4537072,113.0987954,https://maps.google.com/?cid=0x0:0xfcb6aafd456e75ff,
mall,Kantor Pemerintah,POLSEK KATINGAN TENGAH,"Jl. Minon Dehen Km 01, Samba Danum, Kec. Katingan Tengah, Kabupaten Katingan, Kalimantan Tengah 74454","Samba Danum, Kec. Katingan Tengah, Kabupaten Katingan",KALIMANTAN TENGAH,74454.0,Indonesia,,,,-1.4618551,113.0847304,https://maps.google.com/?cid=0x0:0xf52996d681d6959b,
mall,Pusat Perbelanjaan,Enzo arena,"Tumbang Hiran, Marikit, Kabupaten Katingan, Kalimantan Tengah","Kabupaten Katingan, Kalimantan Tengah",KALIMANTAN TENGAH,,Indonesia,,,,-1.1902291,112.6959962,https://maps.google.com/?cid=0x0:0xa4beb0490a517c16,
mall,Toko bahan makanan,Sembako  Depo air minum Nabila,"G3VW+XRX, Jl. Minun Dehen, Samba Danum, Kec. Katingan Tengah, Kabupaten Katingan, Kalimantan Tengah 74454","Jl. Minun Dehen, Samba Danum, Kec. Katingan Tengah, Kabupaten Katingan",KALIMANTAN TENGAH,74454.0,Indonesia, 085246388980,,,-1.4550033,113.09711,https://maps.google.com/?cid=0x0:0xd3853f7e2ff09850,
mall,Kantor Perusahaan,RAFANDA CELL,"G3XW+PC2, Samba Danum, Kec. Katingan Tengah, Kabupaten Katingan, Kalimantan Tengah 74454","Samba Danum, Kec. Katingan Tengah, Kabupaten Katingan",KALIMANTAN TENGAH,74454.0,Indonesia, 085350607223,,,-1.4507376,113.0960197,https://maps.google.com/?cid=0x0:0x2bad6c6c31fbf1,
mall,Toko,Kios Telkomsel,"H38X+R3P, Samba Katung, Kec. Katingan Tengah, Kabupaten Katingan, Kalimantan Tengah","Kabupaten Katingan, Kalimantan Tengah",KALIMANTAN TENGAH,,Indonesia,,,,-1.432911,113.0976951,https://maps.google.com/?cid=0x0:0x92efd875c833ef00,
mall,Pusat Perbelanjaan,Warung Abah lisa,"G4X2+P3H, Unnamed Road, Samba Bakumpai, Kec. Katingan Tengah, Kabupaten Katingan, Kalimantan Tengah 74454","Unnamed Road, Samba Bakumpai, Kec. Katingan Tengah, Kabupaten Katingan",KALIMANTAN TENGAH,74454.0,Indonesia, 081254860894,,,-1.4506964,113.1002472,https://maps.google.com/?cid=0x0:0x7a19ca7a6f6d0f55,
mall,Stasiun Televisi,toko samba jaya pakaian jadi sendal sepatu,"H32W+X74, Jl. samba kahayan raya, Samba Kahayan, Kec. Katingan Tengah, Kabupaten Katingan, Kalimantan Tengah 74454","Jl. samba kahayan raya, Samba Kahayan, Kec. Katingan Tengah, Kabupaten Katingan",KALIMANTAN TENGAH,74454.0,Indonesia,,,,-1.447608,113.0956949,https://maps.google.com/?cid=0x0:0xcbbb15a90722f098,
mall,mall,Kalimantan Tengah 74456,"Kabupaten Katingan, Kalimantan Tengah","Kabupaten Katingan, Kalimantan Tengah",KALIMANTAN TENGAH,,Indonesia,,,,-0.941524,112.6675398,https://maps.google.com/?cid=0x0:0xe4ef994f6c6adcfe,
mall,Pusat Perbelanjaan,Enzo arena,"Tumbang Hiran, Marikit, Kabupaten Katingan, Kalimantan Tengah","Kabupaten Katingan, Kalimantan Tengah",KALIMANTAN TENGAH,,Indonesia,,,,-1.1902291,112.6959962,https://maps.google.com/?cid=0x0:0xa4beb0490a517c16,
mall,Kios,Komlek warung Desa,"WCRM+Q5W, Rantau Bahai, Katingan Hulu, Kabupaten Katingan, Kalimantan Tengah 74457","Rantau Bahai, Katingan Hulu, Kabupaten Katingan",KALIMANTAN TENGAH,74457.0,Indonesia,,,,-1.0580153,112.4329522,https://maps.google.com/?cid=0x0:0x1000fd6464271481,
mall,Pusat Perbelanjaan,Olda Call,"Rangan Tangko, Palangaka Raya, Kabupaten Katingan, Kalimantan Tengah 74456","Palangaka Raya, Kabupaten Katingan",KALIMANTAN TENGAH,74456.0,Indonesia, 082250852287,,,-1.1292694,112.564898,https://maps.google.com/?cid=0x0:0x773df6ae141944,
mall,Pusat Perbelanjaan,Plaza Indonesia,"Jl. M.H. Thamrin No.Kav.28-30, Gondangdia, Kec. Menteng, Kota Jakarta Pusat, Daerah Khusus Ibukota Jakarta 10350","Gondangdia, Kec. Menteng, Kota Jakarta Pusat",KALIMANTAN TENGAH,10350.0,Indonesia, 02129920000,,,-6.1935977,106.8219468,https://maps.google.com/?cid=0x0:0x7d7fe17ad64a053f,
mall,Sekolah menengah,SMAN 1 Marikit,"VP56+R7P, Unnamed Road, Tumbang Hiran, Marikit, Kabupaten Katingan, Kalimantan Tengah 74456","Unnamed Road, Tumbang Hiran, Marikit, Kabupaten Katingan",KALIMANTAN TENGAH,74456.0,Indonesia,,,,-1.1404204,112.7107039,https://maps.google.com/?cid=0x0:0xe03043478cd35a1a,
mall,mall,KITING MART,"Q5PQ+7CJ, Karanganyar, Kec. Karangbahagia, Kabupaten Bekasi, Jawa Barat 17530","Karanganyar, Kec. Karangbahagia, Kabupaten Bekasi",KALIMANTAN TENGAH,17530.0,Indonesia,,,,-6.2142762,107.1885237,https://maps.google.com/?cid=0x0:0x4b0acf3d4010323,
mall,mall,M_galery,"MVXF+PR7, RT.12/RW.2, Rambutan, Kec. Ciracas, Kota Jakarta Timur, Daerah Khusus Ibukota Jakarta 13830","RT.12/RW.2, Rambutan, Kec. Ciracas, Kota Jakarta Timur",KALIMANTAN TENGAH,13830.0,Indonesia, 083120749189,,,-6.300713,106.87454,https://maps.google.com/?cid=0x0:0x9957f43b27e55fcb,
mall,mall,Mendawai,"Tlk. Sebulu, Kec. Mendawai, Kabupaten Katingan, Kalimantan Tengah","Kabupaten Katingan, Kalimantan Tengah",KALIMANTAN TENGAH,,Indonesia,,,,-3.013896,113.2584,https://maps.google.com/?cid=0x0:0x44f7d29229cbfb62,
mall,Pusat Perbelanjaan,Palangkaraya Mall (Palma),"Jl. Tjilik Riwut No.1, Palangka, Kec. Jekan Raya, Kota Palangka Raya, Kalimantan Tengah 74874","Palangka, Kec. Jekan Raya, Kota Palangka Raya",KALIMANTAN TENGAH,74874.0,Indonesia,,,,-2.2065433,113.9154004,https://maps.google.com/?cid=0x0:0xe30705d17366c7e0,
mall,mall,SM PIN,"Jalan Massa simpang 3 H.Masfur, Samba Danum, Kec. Katingan Tengah, Kabupaten Katingan, Kalimantan Tengah 74454","Samba Danum, Kec. Katingan Tengah, Kabupaten Katingan",KALIMANTAN TENGAH,74454.0,Indonesia,,,,-1.4540918,113.0980996,https://maps.google.com/?cid=0x0:0xbdd9c48a16af30f1,
mall,Pasar,Pasar Mendawai,"2759+C6G, Unnamed Road, Mendawai, Kec. Mendawai, Kabupaten Katingan, Kalimantan Tengah 74463","Unnamed Road, Mendawai, Kec. Mendawai, Kabupaten Katingan",KALIMANTAN TENGAH,74463.0,Indonesia,,,,-2.9914347,113.2680675,https://maps.google.com/?cid=0x0:0xa22398a70e9c0f25,
mall,Pusat Perbelanjaan,Blok M Plaza,"Jl. Bulungan No.76, RT.6/RW.6, Kramat Pela, Kec. Kby. Baru, Kota Jakarta Selatan, Daerah Khusus Ibukota Jakarta 12130","RT.6/RW.6, Kramat Pela, Kec. Kby. Baru, Kota Jakarta Selatan",KALIMANTAN TENGAH,12130.0,Indonesia, 0217209288,,,-6.2441189,106.7976404,https://maps.google.com/?cid=0x0:0x3e110f817acb352d,
mall,Pusat Perbelanjaan,Blok M Square,"Jl. Melawai 5, RT.3/RW.1, Melawai, Kec. Kby. Baru, Kota Jakarta Selatan, Daerah Khusus Ibukota Jakarta 12160","RT.3/RW.1, Melawai, Kec. Kby. Baru, Kota Jakarta Selatan",KALIMANTAN TENGAH,12160.0,Indonesia, 02172802000,,,-6.244593,106.800649,https://maps.google.com/?cid=0x0:0x8f10b22d03d7c9db,
mall,Pusat Perbelanjaan,Pasar pagatan,"P8HR+P6Q, Pegatan Hilir, Kec. Katingan Kuala, Kabupaten Katingan, Kalimantan Tengah 74463","Pegatan Hilir, Kec. Katingan Kuala, Kabupaten Katingan",KALIMANTAN TENGAH,74463.0,Indonesia,,,,-3.2705212,113.3404199,https://maps.google.com/?cid=0x0:0xb32a700075aa6473,
mall,Pusat Perbelanjaan,Mal Blok M,"Jl. Panglima Polim No.3 2, RT.3/RW.1, Melawai, Kec. Kby. Baru, Kota Jakarta Selatan, Daerah Khusus Ibukota Jakarta 12130","RT.3/RW.1, Melawai, Kec. Kby. Baru, Kota Jakarta Selatan",KALIMANTAN TENGAH,12130.0,Indonesia,,,,-6.2434907,106.8007316,https://maps.google.com/?cid=0x0:0xe9b7d8300a7d7ef0,
mall,Pusat Perbelanjaan,Plaza Blok M,"Kramat Pela, Kec. Kby. Baru, Kota Jakarta Selatan, Daerah Khusus Ibukota Jakarta","Kota Jakarta Selatan, Daerah Khusus Ibukota Jakarta",KALIMANTAN TENGAH,,Indonesia,,,,-6.24498,106.79752,https://maps.google.com/?cid=0x0:0x50c001da8c97ac3b,
mall,mall,Kalimantan Tengah 74455,"Kabupaten Katingan, Kalimantan Tengah","Kabupaten Katingan, Kalimantan Tengah",KALIMANTAN TENGAH,,Indonesia,,,,-0.9046398,112.9058802,https://maps.google.com/?cid=0x0:0x104255e14ad2f30a,
mall,Komplek perumahan,UD DAFFA MANDIRI,"M3CR+FQQ, Tumbang Manggo, Kec. Sanaman Mantikei, Kabupaten Katingan, Kalimantan Tengah 74455","Tumbang Manggo, Kec. Sanaman Mantikei, Kabupaten Katingan",KALIMANTAN TENGAH,74455.0,Indonesia, 081349070871,,,-1.3287847,113.0919736,https://maps.google.com/?cid=0x0:0x3c8450352df56030,
mall,Toko umum,Kios Sembako Serba Ada Mamah Eva,"J3XP+RG6, Tumbang Kaman, Kec. Sanaman Mantikei, Kabupaten Katingan, Kalimantan Tengah 74455","Tumbang Kaman, Kec. Sanaman Mantikei, Kabupaten Katingan",KALIMANTAN TENGAH,74455.0,Indonesia,,,,-1.3504557,113.0862762,https://maps.google.com/?cid=0x0:0xb2dc8040126b12fe,
mall,Pusat Perbelanjaan,Pusat Belanja Termurah Tumbang Samba,"H38X+W6P, Samba Katung, Kec. Katingan Tengah, Kabupaten Katingan, Kalimantan Tengah 74454","Samba Katung, Kec. Katingan Tengah, Kabupaten Katingan",KALIMANTAN TENGAH,74454.0,Indonesia,,,,-1.4326706,113.0980656,https://maps.google.com/?cid=0x0:0x336788952356d1ae,
mall,Toko,TOKO ADILLA,"Jl. H. Ikap, Samba Bakumpai, Kec. Katingan Tengah, Kabupaten Katingan, Kalimantan Tengah 74454","Samba Bakumpai, Kec. Katingan Tengah, Kabupaten Katingan",KALIMANTAN TENGAH,74454.0,Indonesia, 082251221665,,,-1.4428809,113.1027349,https://maps.google.com/?cid=0x0:0x3883491505bd3701,
mall,Toko,TOKO ALFIAN NOOR Sibitan,"M3FV+2F4, Jl kambeu, Tumbang Manggo, Kec. Sanaman Mantikei, Kabupaten Katingan, Kalimantan Tengah 74455","Jl kambeu, Tumbang Manggo, Kec. Sanaman Mantikei, Kabupaten Katingan",KALIMANTAN TENGAH,74455.0,Indonesia,,,,-1.3274853,113.0937136,https://maps.google.com/?cid=0x0:0x1ec16d0d35fa8672,
mall,Pasar,PASAR RAKYAT TUMBANG SAMBA,"H39X+277, Samba Katung, Kec. Katingan Tengah, Kabupaten Katingan, Kalimantan Tengah 74454","Samba Katung, Kec. Katingan Tengah, Kabupaten Katingan",KALIMANTAN TENGAH,74454.0,Indonesia, 085751035268,,,-1.4324736,113.0981822,https://maps.google.com/?cid=0x0:0xa77d326c1257e98d,
mall,Pusat Perbelanjaan,Toko Nova Sejatera ( NS),"M3GW+P94, Tumbang Kaman, Kec. Sanaman Mantikei, Kabupaten Katingan, Kalimantan Tengah 74455","Tumbang Kaman, Kec. Sanaman Mantikei, Kabupaten Katingan",KALIMANTAN TENGAH,74455.0,Indonesia, 081253815618,,,-1.3232327,113.0959473,https://maps.google.com/?cid=0x0:0x5c8032d6faa3b1f1,
mall,Toko bahan makanan,Warung,"M2JP+5QW, Tumbang Manggo, Kec. Sanaman Mantikei, Kabupaten Katingan, Kalimantan Tengah 74455","Tumbang Manggo, Kec. Sanaman Mantikei, Kabupaten Katingan",KALIMANTAN TENGAH,74455.0,Indonesia,,,,-1.3195049,113.0369406,https://maps.google.com/?cid=0x0:0x114d2f6f52713424,
mall,Pusat Perbelanjaan,Vocher dan Perdana Tri,"H38X+X73, Samba Katung, Kec. Katingan Tengah, Kabupaten Katingan, Kalimantan Tengah","Kabupaten Katingan, Kalimantan Tengah",KALIMANTAN TENGAH,,Indonesia,,,,-1.432621,113.0981822,https://maps.google.com/?cid=0x0:0x2f34b0cfe8659bd3,
mall,Pusat Perbelanjaan,Enzo arena,"Tumbang Hiran, Marikit, Kabupaten Katingan, Kalimantan Tengah","Kabupaten Katingan, Kalimantan Tengah",KALIMANTAN TENGAH,,Indonesia,,,,-1.1902291,112.6959962,https://maps.google.com/?cid=0x0:0xa4beb0490a517c16,
mall,Pusat Perbelanjaan,Toko Ervan,"Jl. Merdeka No.7, tumbang samba, Kec. Katingan Tengah, Kabupaten Katingan, Kalimantan Tengah 74454","tumbang samba, Kec. Katingan Tengah, Kabupaten Katingan",KALIMANTAN TENGAH,74454.0,Indonesia,,,,-1.4482735,113.0957325,https://maps.google.com/?cid=0x0:0xe0fa818bc2654edc,
mall,Pusat Perbelanjaan,Olda Call,"Rangan Tangko, Palangaka Raya, Kabupaten Katingan, Kalimantan Tengah 74456","Palangaka Raya, Kabupaten Katingan",KALIMANTAN TENGAH,74456.0,Indonesia, 082250852287,,,-1.1292694,112.564898,https://maps.google.com/?cid=0x0:0x773df6ae141944,
mall,Komplek perumahan,Mustaqim java,"RCVH+839, Unnamed Road, Tumbang Senamang, Katingan Hulu, Kabupaten Katingan, Kalimantan Tengah 74457","Unnamed Road, Tumbang Senamang, Katingan Hulu, Kabupaten Katingan",KALIMANTAN TENGAH,74457.0,Indonesia, 082136010302,,,-1.156718,112.427741,https://maps.google.com/?cid=0x0:0x7565661c98d761e9,
mall,Pusat Perbelanjaan,Aice tumbang samba,"G4R3+F8C, Jl. Merdeka, Samba Danum, Kec. Katingan Tengah, Kabupaten Katingan, Kalimantan Tengah 74454","Jl. Merdeka, Samba Danum, Kec. Katingan Tengah, Kabupaten Katingan",KALIMANTAN TENGAH,74454.0,Indonesia, 085348616868,,,-1.4588172,113.1032738,https://maps.google.com/?cid=0x0:0x5f593995d394fc4a,
mall,Stasiun Televisi,toko samba jaya pakaian jadi sendal sepatu,"H32W+X74, Jl. samba kahayan raya, Samba Kahayan, Kec. Katingan Tengah, Kabupaten Katingan, Kalimantan Tengah 74454","Jl. samba kahayan raya, Samba Kahayan, Kec. Katingan Tengah, Kabupaten Katingan",KALIMANTAN TENGAH,74454.0,Indonesia,,,,-1.447608,113.0956949,https://maps.google.com/?cid=0x0:0xcbbb15a90722f098,
mall,Pusat Perbelanjaan,CV. KATINGAN JAYA MANDIRI,"G3QR+PH4, Samba Kahayan, Kec. Katingan Tengah, Kabupaten Katingan, Kalimantan Tengah 74454","Samba Kahayan, Kec. Katingan Tengah, Kabupaten Katingan",KALIMANTAN TENGAH,74454.0,Indonesia,,,,-1.4607401,113.0914573,https://maps.google.com/?cid=0x0:0x2b7d32449ed2fcf8,
mall,,Toko Naura,"G3XW+6RG, Jl. Merdeka, Samba Danum, Kec. Katingan Tengah, Kabupaten Katingan, Kalimantan Tengah 74454","Jl. Merdeka, Samba Danum, Kec. Katingan Tengah, Kabupaten Katingan",KALIMANTAN TENGAH,74454.0,Indonesia, 085251312697,,,-1.4519458,113.0970771,https://maps.google.com/?cid=0x0:0xbc81fb49938a654e,
mall,Pusat Perbelanjaan,KIOS PULSA DAN VOCHER MURAH,"H38X+V56, Samba Katung, Kec. Katingan Tengah, Kabupaten Katingan, Kalimantan Tengah 74454","Samba Katung, Kec. Katingan Tengah, Kabupaten Katingan",KALIMANTAN TENGAH,74454.0,Indonesia,,,,-1.4328332,113.0979026,https://maps.google.com/?cid=0x0:0xb0e3f28682be2c1f,
mall,Peternakan,PESSEL FARM,"Tumbang Kaman, Kec. Sanaman Mantikei, Kabupaten Katingan, Kalimantan Tengah 74455","Kec. Sanaman Mantikei, Kabupaten Katingan",KALIMANTAN TENGAH,74455.0,Indonesia,,,,-1.346412,113.0958423,https://maps.google.com/?cid=0x0:0xbbb6f93cf3616ba1,
mall,mall,Tri 4G,"M3JR+7X2, Tumbang Kaman, Kec. Sanaman Mantikei, Kabupaten Katingan, Kalimantan Tengah 74455","Tumbang Kaman, Kec. Sanaman Mantikei, Kabupaten Katingan",KALIMANTAN TENGAH,74455.0,Indonesia,,,,-1.3193565,113.0924001,https://maps.google.com/?cid=0x0:0x524a9f71fe5fe69c,
mall,mall,Kalimantan Tengah 74453,"Kec. Pulau Malan, Kabupaten Katingan, Kalimantan Tengah","Kabupaten Katingan, Kalimantan Tengah",KALIMANTAN TENGAH,,Indonesia,,,,-1.5758863,113.2394452,https://maps.google.com/?cid=0x0:0x9458e30e87579e9,
mall,Perhimpunan Pengembang Perumahan,Cv Seruyan,"74PQ+WGV, Manduing Lama, Kec. Pulau Malan, Kabupaten Katingan, Kalimantan Tengah 74453","Manduing Lama, Kec. Pulau Malan, Kabupaten Katingan",KALIMANTAN TENGAH,74453.0,Indonesia,,,,-1.7126418,113.1387869,https://maps.google.com/?cid=0x0:0xcc3a5f951d0587bc,
mall,Pusat Perbelanjaan,RASYID ARJUNA BORNEO JAYA,"8796+4W4, Buntut Bali, Kec. Pulau Malan, Kabupaten Katingan, Kalimantan Tengah 74453","Buntut Bali, Kec. Pulau Malan, Kabupaten Katingan",KALIMANTAN TENGAH,74453.0,Indonesia, 081351474322,,,-1.682231,113.26233,https://maps.google.com/?cid=0x0:0x1b5c1cbbc7e268df,
mall,Pusat Perbelanjaan,Warung sayur,"96RG+2GV, Dahian Tunggal, Kec. Pulau Malan, Kabupaten Katingan, Kalimantan Tengah 74453","Dahian Tunggal, Kec. Pulau Malan, Kabupaten Katingan",KALIMANTAN TENGAH,74453.0,Indonesia, 0821487017110,,,-1.6098981,113.2263077,https://maps.google.com/?cid=0x0:0x8bbc08790d7941a8,
mall,Pusat Perbelanjaan,Warung sayur agi,"96RG+4F4, Jl. Kasongan - Tumbang Samba, Tewang Karangan, Kec. Pulau Malan, Kabupaten Katingan, Kalimantan Tengah 74453","Jl. Kasongan - Tumbang Samba, Tewang Karangan, Kec. Pulau Malan, Kabupaten Katingan",KALIMANTAN TENGAH,74453.0,Indonesia, 082148701710,,,-1.6097299,113.2261882,https://maps.google.com/?cid=0x0:0x68cccc522f87584f,
mall,Toko Perbaikan Ponsel,Dani Cell,"Jl Tumbang Samba No.KM.30, Manduing Lama, Kec. Pulau Malan, Kabupaten Katingan, Kalimantan Tengah 74413","Manduing Lama, Kec. Pulau Malan, Kabupaten Katingan",KALIMANTAN TENGAH,74413.0,Indonesia, 085288569885,,,-1.712803,113.1389497,https://maps.google.com/?cid=0x0:0x67e66c8d7035ad3f,
mall,Kantor Perusahaan,agen resmi pupuk organik nasa,"C968+GF7, Unnamed Road, Manduing Lama, Kec. Pulau Malan, Kabupaten Katingan, Kalimantan Tengah 74453","Unnamed Road, Manduing Lama, Kec. Pulau Malan, Kabupaten Katingan",KALIMANTAN TENGAH,74453.0,Indonesia, 083838661792,,,-1.5887186,113.3661567,https://maps.google.com/?cid=0x0:0xfcac1e86804c4771,
mall,mall,TokoAida,"Desa Karya unggang No.km29, Manduing Lama, Kec. Pulau Malan, Kabupaten Katingan, Kalimantan Tengah 74413","Manduing Lama, Kec. Pulau Malan, Kabupaten Katingan",KALIMANTAN TENGAH,74413.0,Indonesia,,,,-1.7188795,113.1373437,https://maps.google.com/?cid=0x0:0x2d4ef4c596f4edcd,
mall,mall,Kec. Sanaman Mantikei,"Kabupaten Katingan, Kalimantan Tengah","Kabupaten Katingan, Kalimantan Tengah",KALIMANTAN TENGAH,,Indonesia,,,,-1.2216918,113.0488541,https://maps.google.com/?cid=0x0:0x6a00f74436dadede,
mall,Komplek perumahan,UD DAFFA MANDIRI,"M3CR+FQQ, Tumbang Manggo, Kec. Sanaman Mantikei, Kabupaten Katingan, Kalimantan Tengah 74455","Tumbang Manggo, Kec. Sanaman Mantikei, Kabupaten Katingan",KALIMANTAN TENGAH,74455.0,Indonesia, 081349070871,,,-1.3287847,113.0919736,https://maps.google.com/?cid=0x0:0x3c8450352df56030,
mall,Toko,TOKO ALFIAN NOOR Sibitan,"M3FV+2F4, Jl kambeu, Tumbang Manggo, Kec. Sanaman Mantikei, Kabupaten Katingan, Kalimantan Tengah 74455","Jl kambeu, Tumbang Manggo, Kec. Sanaman Mantikei, Kabupaten Katingan",KALIMANTAN TENGAH,74455.0,Indonesia,,,,-1.3274853,113.0937136,https://maps.google.com/?cid=0x0:0x1ec16d0d35fa8672,
mall,Toko bahan makanan,Warung,"M2JP+5QW, Tumbang Manggo, Kec. Sanaman Mantikei, Kabupaten Katingan, Kalimantan Tengah 74455","Tumbang Manggo, Kec. Sanaman Mantikei, Kabupaten Katingan",KALIMANTAN TENGAH,74455.0,Indonesia,,,,-1.3195049,113.0369406,https://maps.google.com/?cid=0x0:0x114d2f6f52713424,
mall,Taman Kanak-kanak,Yayasan Pedidikan Dwima Sanaman Mantikei,"Komplek YPDSM, Tumbang Manggo, Sanaman Mantikei, Katingan Regency, Central Kalimantan 74455","Tumbang Manggo, Sanaman Mantikei, Katingan Regency",KALIMANTAN TENGAH,74455.0,Indonesia,,,,-1.3196025,113.0930461,https://maps.google.com/?cid=0x0:0x26307bdd9c2a572e,
mall,Pusat Perbelanjaan,Toko Nova Sejatera ( NS),"M3GW+P94, Tumbang Kaman, Kec. Sanaman Mantikei, Kabupaten Katingan, Kalimantan Tengah 74455","Tumbang Kaman, Kec. Sanaman Mantikei, Kabupaten Katingan",KALIMANTAN TENGAH,74455.0,Indonesia, 081253815618,,,-1.3232327,113.0959473,https://maps.google.com/?cid=0x0:0x5c8032d6faa3b1f1,
mall,mall,Site Tri IOH Sanaman Mantikei,"M3GR+4C3, Tumbang Kaman, Kec. Sanaman Mantikei, Kabupaten Katingan, Kalimantan Tengah 74455","Tumbang Kaman, Kec. Sanaman Mantikei, Kabupaten Katingan",KALIMANTAN TENGAH,74455.0,Indonesia,,,,-1.3247366,113.0910459,https://maps.google.com/?cid=0x0:0x31252526aca7d0e1,
mall,Toko bahan makanan,Toko daging barokah,"473X+XJM, Jl. Pahlawan, Hampalit, Kec. Katingan Hilir, Kabupaten Katingan, Kalimantan Tengah 74413","Jl. Pahlawan, Hampalit, Kec. Katingan Hilir, Kabupaten Katingan",KALIMANTAN TENGAH,74413.0,Indonesia, 082152114621,,,-1.8950342,113.2990361,https://maps.google.com/?cid=0x0:0xc16a2e75084281b0,
mall,Pusat Perbelanjaan,Toserba BAROKAH Jaya Mart,"VCVR+4QW, Hiyang Bana, Kec. Tasik Payawan, Kabupaten Katingan, Kalimantan Tengah 74461","Hiyang Bana, Kec. Tasik Payawan, Kabupaten Katingan",KALIMANTAN TENGAH,74461.0,Indonesia, 081229479491,,,-2.1071443,113.4419388,https://maps.google.com/?cid=0x0:0x8e8f0abb70ab08a9,
mall,mall,Kalimantan Tengah 74452,"Kec. Tewang Sangalang Garing, Kabupaten Katingan, Kalimantan Tengah","Kabupaten Katingan, Kalimantan Tengah",KALIMANTAN TENGAH,,Indonesia,,,,-1.7909926,113.2394452,https://maps.google.com/?cid=0x0:0x28726fa62e11e1de,
mall,Toko,Toko Al,"67HP+58X, Jl. Pendahara, Pendahara, Kec. Tewang Sangalang Garing, Kabupaten Katingan, Kalimantan Tengah 74452","Jl. Pendahara, Pendahara, Kec. Tewang Sangalang Garing, Kabupaten Katingan",KALIMANTAN TENGAH,74452.0,Indonesia, 085349311432,,,-1.7720169,113.2858698,https://maps.google.com/?cid=0x0:0xa64a366928922b76,
mall,Pusat Perbelanjaan,Tri Indosat Oredoo Hutchison,"67FP+G3X, Jl. Pendahara, Pendahara, Kec. Tewang Sangalang Garing, Kabupaten Katingan, Kalimantan Tengah 74452","Jl. Pendahara, Pendahara, Kec. Tewang Sangalang Garing, Kabupaten Katingan",KALIMANTAN TENGAH,74452.0,Indonesia,,,,-1.7761479,113.2852234,https://maps.google.com/?cid=0x0:0xdb3ae0a3f096fbdb,
mall,Pusat Perbelanjaan,RASYID ARJUNA BORNEO JAYA,"8796+4W4, Buntut Bali, Kec. Pulau Malan, Kabupaten Katingan, Kalimantan Tengah 74453","Buntut Bali, Kec. Pulau Malan, Kabupaten Katingan",KALIMANTAN TENGAH,74453.0,Indonesia, 081351474322,,,-1.682231,113.26233,https://maps.google.com/?cid=0x0:0x1b5c1cbbc7e268df,
mall,Perhimpunan Pengembang Perumahan,Cv Seruyan,"74PQ+WGV, Manduing Lama, Kec. Pulau Malan, Kabupaten Katingan, Kalimantan Tengah 74453","Manduing Lama, Kec. Pulau Malan, Kabupaten Katingan",KALIMANTAN TENGAH,74453.0,Indonesia,,,,-1.7126418,113.1387869,https://maps.google.com/?cid=0x0:0xcc3a5f951d0587bc,
mall,Pusat Perbelanjaan,Toko sabnah,"74JP+HWC, Unnamed Road, Manduing Lama, Kec. Pulau Malan, Kabupaten Katingan, Kalimantan Tengah 74453","Unnamed Road, Manduing Lama, Kec. Pulau Malan, Kabupaten Katingan",KALIMANTAN TENGAH,74453.0,Indonesia,,,,-1.7185561,113.1372539,https://maps.google.com/?cid=0x0:0x39281961fe843251,
mall,mall,IKM,"4877+4QW, Telangkah, Kec. Katingan Hilir, Kabupaten Katingan, Kalimantan Tengah 74413","Telangkah, Kec. Katingan Hilir, Kabupaten Katingan",KALIMANTAN TENGAH,74413.0,Indonesia,,,,-1.88714,113.3144471,https://maps.google.com/?cid=0x0:0x848448903f8bc849,
mall,Pusat Perbelanjaan,Toko SUMBER HARAPAN,"474V+8QC, Hampalit, Kec. Katingan Hilir, Kabupaten Katingan, Kalimantan Tengah 74413","Hampalit, Kec. Katingan Hilir, Kabupaten Katingan",KALIMANTAN TENGAH,74413.0,Indonesia, 082351360777,,,-1.8941968,113.2943943,https://maps.google.com/?cid=0x0:0x16a526e702edbef6,
mall,Pasar,Toko Melodi Kereng Pangi,"4842+G29, Jl. Trans Kalimantan, Hampalit, Kec. Katingan Hilir, Kabupaten Katingan, Kalimantan Tengah 74413","Jl. Trans Kalimantan, Hampalit, Kec. Katingan Hilir, Kabupaten Katingan",KALIMANTAN TENGAH,74413.0,Indonesia,,,,-1.8937054,113.3001201,https://maps.google.com/?cid=0x0:0xaa87f8390fd2a3bc,
mall,mall,TokoAida,"Desa Karya unggang No.km29, Manduing Lama, Kec. Pulau Malan, Kabupaten Katingan, Kalimantan Tengah 74413","Manduing Lama, Kec. Pulau Malan, Kabupaten Katingan",KALIMANTAN TENGAH,74413.0,Indonesia,,,,-1.7188795,113.1373437,https://maps.google.com/?cid=0x0:0x2d4ef4c596f4edcd,
mall,Gudang,CV. TANI SUBUR,"4537+JQ9, Jl. Tumbang Samba, Pundu, Kec. Cempaga Hulu, Kabupaten Kotawaringin Timur, Kalimantan Tengah 74452","Jl. Tumbang Samba, Pundu, Kec. Cempaga Hulu, Kabupaten Kotawaringin Timur",KALIMANTAN TENGAH,74452.0,Indonesia,,,,-1.8959744,113.1644792,https://maps.google.com/?cid=0x0:0x22c18d8cea89ff77,
mall,Toko Pakaian,I AM FASHION STORE WAHAU,"Jl. Ahmad Yani Jl. Samarinda - Berau No.SP 2, Wahau Baru, Kec. Muara Wahau, Kabupaten Katingan, Kalimantan Tengah","Kabupaten Katingan, Kalimantan Tengah",KALIMANTAN TENGAH,,Indonesia,,,,-1.8873813,113.313739,https://maps.google.com/?cid=0x0:0x79597223ba20eb3e,
mall,Toko Perbaikan Ponsel,Dani Cell,"Jl Tumbang Samba No.KM.30, Manduing Lama, Kec. Pulau Malan, Kabupaten Katingan, Kalimantan Tengah 74413","Manduing Lama, Kec. Pulau Malan, Kabupaten Katingan",KALIMANTAN TENGAH,74413.0,Indonesia, 085288569885,,,-1.712803,113.1389497,https://maps.google.com/?cid=0x0:0x67e66c8d7035ad3f,
mall,Kompleks Kondominium,Pasar Kereng Pangi,"473X+XFM, Hampalit, Kec. Katingan Hilir, Kabupaten Katingan, Kalimantan Tengah 74413","Hampalit, Kec. Katingan Hilir, Kabupaten Katingan",KALIMANTAN TENGAH,74413.0,Indonesia,,,,-1.895036,113.2986755,https://maps.google.com/?cid=0x0:0x661a1789f1bbf88a,
mall,Sekolah Menengah Pertama,SMP NEGERI 2 TEWANG SANGALANG GARING,"66PH+FP5, Tewang Rangkang, Kec. Tewang Sangalang Garing, Kabupaten Katingan, Kalimantan Tengah 74452","Tewang Rangkang, Kec. Tewang Sangalang Garing, Kabupaten Katingan",KALIMANTAN TENGAH,74452.0,Indonesia,,,,-1.7638692,113.2293734,https://maps.google.com/?cid=0x0:0x513b3fec678fb763,
mall,Toko Sepeda Motor,siga motor menjual khusus seperpat,"Jl. Trans Kalimantan, Hampalit, Kec. Katingan Hilir, Kabupaten Katingan, Kalimantan Tengah 74413","Hampalit, Kec. Katingan Hilir, Kabupaten Katingan",KALIMANTAN TENGAH,74413.0,Indonesia, 081235597565,,,-1.9028808,113.2827071,https://maps.google.com/?cid=0x0:0x8c62dcfa0b8551d9,
mall,Pusat Perbelanjaan,Warung sayur agi,"96RG+4F4, Jl. Kasongan - Tumbang Samba, Tewang Karangan, Kec. Pulau Malan, Kabupaten Katingan, Kalimantan Tengah 74453","Jl. Kasongan - Tumbang Samba, Tewang Karangan, Kec. Pulau Malan, Kabupaten Katingan",KALIMANTAN TENGAH,74453.0,Indonesia, 082148701710,,,-1.6097299,113.2261882,https://maps.google.com/?cid=0x0:0x68cccc522f87584f,
mall,Pusat Perbelanjaan,Warung sayur,"96RG+2GV, Dahian Tunggal, Kec. Pulau Malan, Kabupaten Katingan, Kalimantan Tengah 74453","Dahian Tunggal, Kec. Pulau Malan, Kabupaten Katingan",KALIMANTAN TENGAH,74453.0,Indonesia, 0821487017110,,,-1.6098981,113.2263077,https://maps.google.com/?cid=0x0:0x8bbc08790d7941a8,
mall,Toko,Kios zainy,"472W+Q34, Jl. Campaka Buang, Hampalit, Kec. Katingan Hilir, Kabupaten Katingan, Kalimantan Tengah 74413","Jl. Campaka Buang, Hampalit, Kec. Katingan Hilir, Kabupaten Katingan",KALIMANTAN TENGAH,74413.0,Indonesia, 085316152757,,,-1.8981142,113.2952094,https://maps.google.com/?cid=0x0:0x10ad0db3155dd20e,
mall,Pusat Perbelanjaan,Toko Zahra,"Jl. Pendahara, Kasongan Lama, Kec. Katingan Hilir, Kabupaten Katingan, Kalimantan Tengah 74413","Kasongan Lama, Kec. Katingan Hilir, Kabupaten Katingan",KALIMANTAN TENGAH,74413.0,Indonesia, 081251235459,,,-1.8932373,113.3876952,https://maps.google.com/?cid=0x0:0x91d67891c2c601e4,
mall,mall,Kedai,"899J+CW5, Tewang Manyangen, Kec. Tewang Sangalang Garing, Kabupaten Katingan, Kalimantan Tengah","Kabupaten Katingan, Kalimantan Tengah",KALIMANTAN TENGAH,,Indonesia,,,,-1.6814878,113.3823545,https://maps.google.com/?cid=0x0:0xa641cfb85f387562,
mall,mall,Duta mall,"899J+CW5, Tewang Manyangen, Kec. Tewang Sangalang Garing, Kabupaten Katingan, Kalimantan Tengah","Kabupaten Katingan, Kalimantan Tengah",KALIMANTAN TENGAH,,Indonesia,,,,-1.6814878,113.3823545,https://maps.google.com/?cid=0x0:0x1d7423e3caf3ad48,
mall,mall,Kotim,"899J+CW5, Tewang Manyangen, Kec. Tewang Sangalang Garing, Kabupaten Katingan, Kalimantan Tengah 74452","Tewang Manyangen, Kec. Tewang Sangalang Garing, Kabupaten Katingan",KALIMANTAN TENGAH,74452.0,Indonesia,,,,-1.6814878,113.3823545,https://maps.google.com/?cid=0x0:0x1079389d17c198d,
mall,mall,Rumah Sakit Daerah.sampit,"899J+CW5, Tewang Manyangen, Kec. Tewang Sangalang Garing, Kabupaten Katingan, Kalimantan Tengah 74452","Tewang Manyangen, Kec. Tewang Sangalang Garing, Kabupaten Katingan",KALIMANTAN TENGAH,74452.0,Indonesia,,,,-1.6814878,113.3823545,https://maps.google.com/?cid=0x0:0x41ccf0997c89a15f,
supermarket,Pusat Perbelanjaan,Toko Bukit Gaharu,"25HJ+2GV, Jl. Lintas Kalimantan, Panopa, Kec. Lamandau, Kabupaten Lamandau, Kalimantan Tengah 74663","Jl. Lintas Kalimantan, Panopa, Kec. Lamandau, Kabupaten Lamandau",KALIMANTAN TENGAH,74663.0,Indonesia, 082199131412,,,-1.9723936,111.1813116,https://maps.google.com/?cid=0x0:0x3d17ec723a421c0f,
supermarket,Toko,Toko Harapan Tani,"Jln. Panglima Batur RT. 12.kel.bulik, Nanga Bulik, kab, Kabupaten Lamandau, Kalimantan Tengah 74161","Nanga Bulik, kab, Kabupaten Lamandau",KALIMANTAN TENGAH,74161.0,Indonesia, 082254159843,,,-2.1890434,111.4143646,https://maps.google.com/?cid=0x0:0xedc978e78772f16,
supermarket,supermarket,Riau 28281,"Rejosari, Kec. Tenayan Raya, Kota Pekanbaru, Riau","Kota Pekanbaru, Riau",KALIMANTAN TENGAH,,Indonesia,,,,0.510562,101.5191225,https://maps.google.com/?cid=0x0:0x31dba74df30a75fe,
supermarket,Minimarket,Indomaret depan Alam Mayang,"FGW2+GH6, Tengkerang Tim., Kec. Tenayan Raya, Kota Pekanbaru, Riau 28131","Tengkerang Tim., Kec. Tenayan Raya, Kota Pekanbaru",KALIMANTAN TENGAH,28131.0,Indonesia,,,,0.4962989,101.5014012,https://maps.google.com/?cid=0x0:0x9ca56283a969a24d,
supermarket,Toko,Fresh Mart,"GG42+924, Jl. Hangtuah, Suka Mulia, Kec. Sail, Kota Pekanbaru, Riau 28114","Jl. Hangtuah, Suka Mulia, Kec. Sail, Kota Pekanbaru",KALIMANTAN TENGAH,28114.0,Indonesia,,,,0.5058882,101.500065,https://maps.google.com/?cid=0x0:0xf06f99d0a599e584,
supermarket,Toko bahan makanan,Toko Putri  Billy,"Jl Sawo mati no 18, Jl. Harapan Jaya No.ujung, Bencah Lesung, Kec. Tenayan Raya, Kota Pekanbaru, Riau 28141","Jl. Harapan Jaya No.ujung, Bencah Lesung, Kec. Tenayan Raya, Kota Pekanbaru",KALIMANTAN TENGAH,28141.0,Indonesia, 085355220637,,,0.5175158,101.5083668,https://maps.google.com/?cid=0x0:0xfba57a6a9fdd6fae,
supermarket,Kantor Perusahaan,Kedai Izigo,"GG78+CM6, Jl. Tenayan, Bencah Lesung, Kec. Tenayan Raya, Kota Pekanbaru, Riau 28281","Jl. Tenayan, Bencah Lesung, Kec. Tenayan Raya, Kota Pekanbaru",KALIMANTAN TENGAH,28281.0,Indonesia, 085272776954,,,0.5135387,101.5166562,https://maps.google.com/?cid=0x0:0xa93decae18ec6478,
supermarket,Toko Swalayan,KEDAI HARIAN RATNA,"FGJ9+RXH, Kulim, Kec. Tenayan Raya, Kota Pekanbaru, Riau 28289","Kulim, Kec. Tenayan Raya, Kota Pekanbaru",KALIMANTAN TENGAH,28289.0,Indonesia,,,,0.4820539,101.5199845,https://maps.google.com/?cid=0x0:0x666180d45bf4cdaa,
supermarket,Toko Makanan,RGG MART 18,"Jl. Lintas Sumatra No.258, Kulim, Kec. Tenayan Raya, Kota Pekanbaru, Riau 28289","Kulim, Kec. Tenayan Raya, Kota Pekanbaru",KALIMANTAN TENGAH,28289.0,Indonesia,,,,0.4831939,101.5201122,https://maps.google.com/?cid=0x0:0x5025a697e8ee5e85,
supermarket,Toko umum,RUMAH BOSS (Bakulan Omak Sawang Supiak),"FGVC+69F, Jl. Simpang Jengkol, Bencah Lesung, Kec. Tenayan Raya, Kota Pekanbaru, Riau 28281","Jl. Simpang Jengkol, Bencah Lesung, Kec. Tenayan Raya, Kota Pekanbaru",KALIMANTAN TENGAH,28281.0,Indonesia, 0895605320699,,,0.4930584,101.520929,https://maps.google.com/?cid=0x0:0x1d041bcf13eaadfb,
supermarket,Toko bahan makanan,Minimarket MM Mutiara,"Jalan Bukit Rahayu Perum Bukit Mutiara Permai 1 C50, Bencah Lesung, Kec. Tenayan Raya, Kota Pekanbaru, Riau 28285","Bencah Lesung, Kec. Tenayan Raya, Kota Pekanbaru",KALIMANTAN TENGAH,28285.0,Indonesia, 089530986215,,,0.4827396,101.5113239,https://maps.google.com/?cid=0x0:0xd4551d26b2556ee8,
supermarket,Toko bahan makanan,Kedai Harian H Idir,"FGVQ+HFF, Jl. Budi Agung, Bencah Lesung, Kec. Tenayan Raya, Kota Pekanbaru, Riau 28285","Jl. Budi Agung, Bencah Lesung, Kec. Tenayan Raya, Kota Pekanbaru",KALIMANTAN TENGAH,28285.0,Indonesia,,,,0.4939485,101.5386617,https://maps.google.com/?cid=0x0:0x2ce96770c209a2cf,
supermarket,Toko,Kedai Harian ICHA,"GG23+99G, Jl. Sekuntum, Bencah Lesung, Kec. Tenayan Raya, Kota Pekanbaru, Riau 28131","Jl. Sekuntum, Bencah Lesung, Kec. Tenayan Raya, Kota Pekanbaru",KALIMANTAN TENGAH,28131.0,Indonesia, 085355533636,,,0.5009303,101.5034563,https://maps.google.com/?cid=0x0:0xc43895e23ff5132e,
supermarket,Toko Swalayan,Galaxy Swalayan,"Jl. Bukit Barisan No.88 89, Tengkerang Tim., Kec. Tenayan Raya, Kota Pekanbaru, Riau 28131","Tengkerang Tim., Kec. Tenayan Raya, Kota Pekanbaru",KALIMANTAN TENGAH,28131.0,Indonesia, 085265493893,,,0.4872228,101.4918558,https://maps.google.com/?cid=0x0:0x32eb496c146a4590,
supermarket,Toko bahan makanan,Toko Zidan,"Jl. Hangtuah No.127, Bencah Lesung, Kec. Tenayan Raya, Kota Pekanbaru, Riau 28131","Bencah Lesung, Kec. Tenayan Raya, Kota Pekanbaru",KALIMANTAN TENGAH,28131.0,Indonesia, 087772200255,,,0.504699,101.5020959,https://maps.google.com/?cid=0x0:0x39f946b299d1eeda,
supermarket,Pusat Perbelanjaan,Winmart,"Jl. Badak Ujung, Bencah Lesung, Kec. Tenayan Raya, Kota Pekanbaru, Riau 28281","Bencah Lesung, Kec. Tenayan Raya, Kota Pekanbaru",KALIMANTAN TENGAH,28281.0,Indonesia, 082289711234,,,0.507919,101.5144375,https://maps.google.com/?cid=0x0:0x42371f73413476d2,
supermarket,Toko Makanan Alami,Santan denny,"Jl. Hangtuah No.362, Bencah Lesung, Kec. Tenayan Raya, Kota Pekanbaru, Riau 28131","Bencah Lesung, Kec. Tenayan Raya, Kota Pekanbaru",KALIMANTAN TENGAH,28131.0,Indonesia, 081211537331,,,0.5060261,101.5090048,https://maps.google.com/?cid=0x0:0x589675b2ce28b476,
supermarket,Paket Makanan Pokok,Toko Misran,"28285, Gg. Indra Pura, Bencah Lesung, Tenayan Raya, Pekanbaru City, Riau 28131","Gg. Indra Pura, Bencah Lesung, Tenayan Raya, Pekanbaru City",KALIMANTAN TENGAH,28131.0,Indonesia, 081251028238,,,0.5050939,101.5012549,https://maps.google.com/?cid=0x0:0x6226455c613ece23,
supermarket,Toko Swalayan,IIN SWALAYAN,"Jl. Bukit Barisan No.8 ABC, Tengkerang Tim., Kec. Tenayan Raya, Kota Pekanbaru, Riau 28131","Tengkerang Tim., Kec. Tenayan Raya, Kota Pekanbaru",KALIMANTAN TENGAH,28131.0,Indonesia,,,,0.490529,101.4874858,https://maps.google.com/?cid=0x0:0xc1f33495eb1f545c,
supermarket,Rumah wisata,Kembar Home (BMP III BLOK K. 70),"perum bmp 3, Jl. Andalas 3, Bencah Lesung, Kec. Tenayan Raya, Kota Pekanbaru, Riau 28281","Jl. Andalas 3, Bencah Lesung, Kec. Tenayan Raya, Kota Pekanbaru",KALIMANTAN TENGAH,28281.0,Indonesia, 081266111698,,,0.5005283,101.513778,https://maps.google.com/?cid=0x0:0x608c32570a265ba4,
supermarket,Toko bahan makanan,Kedai Harian FK YULIANIS,"FFWX+CQC, Sialang sakti, Kec. Tenayan Raya, Kota Pekanbaru, Riau 28131","Sialang sakti, Kec. Tenayan Raya, Kota Pekanbaru",KALIMANTAN TENGAH,28131.0,Indonesia, 08126716916,,,0.4960588,101.4993789,https://maps.google.com/?cid=0x0:0x1f750dce995e6115,
supermarket,Apotek,Stokis Halal Mart Hpai Irwan,"FGMG+M3X, Jl. Budi Luhur, Kulim, Kec. Tenayan Raya, Kota Pekanbaru, Riau 28282","Jl. Budi Luhur, Kulim, Kec. Tenayan Raya, Kota Pekanbaru",KALIMANTAN TENGAH,28282.0,Indonesia, 085375245868,,,0.4842304,101.5252309,https://maps.google.com/?cid=0x0:0xbbbdee4cce734ff3,
supermarket,supermarket,Bukit Raya,"Kabupaten Katingan, Kalimantan Tengah","Kabupaten Katingan, Kalimantan Tengah",KALIMANTAN TENGAH,,Indonesia,,,,-0.9447632,112.1907122,https://maps.google.com/?cid=0x0:0xc298887006da1c70,
supermarket,Pusat Perbelanjaan,Toko Bukit Gaharu,"25HJ+2GV, Jl. Lintas Kalimantan, Panopa, Kec. Lamandau, Kabupaten Lamandau, Kalimantan Tengah 74663","Jl. Lintas Kalimantan, Panopa, Kec. Lamandau, Kabupaten Lamandau",KALIMANTAN TENGAH,74663.0,Indonesia, 082199131412,,,-1.9723936,111.1813116,https://maps.google.com/?cid=0x0:0x3d17ec723a421c0f,
supermarket,Toko,Toko Harapan Tani,"Jln. Panglima Batur RT. 12.kel.bulik, Nanga Bulik, kab, Kabupaten Lamandau, Kalimantan Tengah 74161","Nanga Bulik, kab, Kabupaten Lamandau",KALIMANTAN TENGAH,74161.0,Indonesia, 082254159843,,,-2.1890434,111.4143646,https://maps.google.com/?cid=0x0:0xedc978e78772f16,
supermarket,Toko Swalayan,Marpoyan swalayan,"Jl. Kaharuddin Nst No.256, Simpang Tiga, Kec. Bukit Raya, Kota Pekanbaru, Riau 28284","Simpang Tiga, Kec. Bukit Raya, Kota Pekanbaru",KALIMANTAN TENGAH,28284.0,Indonesia, 0761674526,,,0.4424074,101.4491804,https://maps.google.com/?cid=0x0:0x5e16ca63dc66492d,
supermarket,Toko Swalayan,EL BArokah Mart,"Jl. Tengku Bey No.58-59, Simpang Tiga, Kec. Bukit Raya, Kota Pekanbaru, Riau 28284","Simpang Tiga, Kec. Bukit Raya, Kota Pekanbaru",KALIMANTAN TENGAH,28284.0,Indonesia, 085274845874,,,0.464269,101.4561691,https://maps.google.com/?cid=0x0:0x34c490398e1e1ef3,
supermarket,Toko bahan makanan,Intan Swalayan,"Perumahan Karya Cemerlang, Jl. Karya I No.Kelurahan Blok A No.1, Simpang Baru, Kec. Bukit Raya, Kota Pekanbaru, Riau 28284","Jl. Karya I No.Kelurahan Blok A No.1, Simpang Baru, Kec. Bukit Raya, Kota Pekanbaru",KALIMANTAN TENGAH,28284.0,Indonesia, 082385796124,,,0.4434535,101.4566151,https://maps.google.com/?cid=0x0:0xba6d565721e5d1ce,
supermarket,Toko Swalayan,Tuah and Aisyah,"Jl. Tengku Bey No.23, Simpang Tiga, Kec. Bukit Raya, Kota Pekanbaru, Riau 28284","Simpang Tiga, Kec. Bukit Raya, Kota Pekanbaru",KALIMANTAN TENGAH,28284.0,Indonesia, 082288193610,,,0.4584406,101.4637225,https://maps.google.com/?cid=0x0:0x2a217e0f9227e056,
supermarket,Minimarket,9K Swalayan,"Tanah Merah, Kec. Siak Hulu, Kabupaten Kampar, Riau 28284","Kec. Siak Hulu, Kabupaten Kampar",KALIMANTAN TENGAH,28284.0,Indonesia, 082261209212,,,0.4364449,101.4565487,https://maps.google.com/?cid=0x0:0x60c831ca6ec4e087,
supermarket,Toko Swalayan,Moelmart Pasar Swalayan,"FF33+QCV, Jl. Kaharuddin Nst, Perhentian Marpoyan, Kec. Bukit Raya, Kota Pekanbaru, Riau 28288","Jl. Kaharuddin Nst, Perhentian Marpoyan, Kec. Bukit Raya, Kota Pekanbaru",KALIMANTAN TENGAH,28288.0,Indonesia, 082386996099,,,0.4544972,101.4535545,https://maps.google.com/?cid=0x0:0x4c60e0ec5caae2b0,
supermarket,Toko Swalayan,Kedai Upu Marpoyan,"Jl. Kaharuddin Nst No.118, Simpang Tiga, Kec. Bukit Raya, Kota Pekanbaru, Riau 28288","Simpang Tiga, Kec. Bukit Raya, Kota Pekanbaru",KALIMANTAN TENGAH,28288.0,Indonesia, 082196519434,,,0.4533763,101.4529573,https://maps.google.com/?cid=0x0:0xbedf587311af4332,
supermarket,Toko Swalayan,Toko Arira Jaya,"Jalan Karya I No.5 Kelurahan, Jl. Air Dingin, Simpang Tiga, Kec. Bukit Raya, Kota Pekanbaru, Riau 28284","Jl. Air Dingin, Simpang Tiga, Kec. Bukit Raya, Kota Pekanbaru",KALIMANTAN TENGAH,28284.0,Indonesia, 085271872881,,,0.4439445,101.4556969,https://maps.google.com/?cid=0x0:0x6fc08d0b5d651d96,
supermarket,Toko Swalayan,Pitu Swalayan,"Jl. Imam Munandar No.239, Tengkerang Labuai, Kec. Bukit Raya, Kota Pekanbaru, Riau 28126","Tengkerang Labuai, Kec. Bukit Raya, Kota Pekanbaru",KALIMANTAN TENGAH,28126.0,Indonesia, 076124021,,,0.5002132,101.4678124,https://maps.google.com/?cid=0x0:0xa42ddff6c01844f3,
supermarket,Toko Swalayan,Az-Zuhra Mart,"FF3C+W5C, Jl. Tengku Bey, Simpang Tiga, Kec. Bukit Raya, Kota Pekanbaru, Riau 28282","Jl. Tengku Bey, Simpang Tiga, Kec. Bukit Raya, Kota Pekanbaru",KALIMANTAN TENGAH,28282.0,Indonesia,,,,0.4548033,101.4703931,https://maps.google.com/?cid=0x0:0x7f97b264b3ed7739,
supermarket,Pusat Perbelanjaan,Budiman Swalayan Simpang Tiga,"Jl. Kaharuddin Nst No.47, Simpang Tiga, Kec. Bukit Raya, Kota Pekanbaru, Riau 28284","Simpang Tiga, Kec. Bukit Raya, Kota Pekanbaru",KALIMANTAN TENGAH,28284.0,Indonesia, 082171815225,,,0.4679343,101.4544867,https://maps.google.com/?cid=0x0:0x490ffddfe7808c99,
supermarket,Toko bahan makanan,Kedai Ida,"FFMC+M6H, Jl. Rawabaluran, Tengkerang Labuai, Kec. Bukit Raya, Kota Pekanbaru, Riau 28125","Jl. Rawabaluran, Tengkerang Labuai, Kec. Bukit Raya, Kota Pekanbaru",KALIMANTAN TENGAH,28125.0,Indonesia,,,,0.4841866,101.4706174,https://maps.google.com/?cid=0x0:0x1da04b3d63843743,
supermarket,Toko bahan makanan,Kedai/kost Hasian,"CFW6+FCM, Jl. Karya Bersama, Simpang Tiga, Kec. Bukit Raya, Kota Pekanbaru, Riau 28284","Jl. Karya Bersama, Simpang Tiga, Kec. Bukit Raya, Kota Pekanbaru",KALIMANTAN TENGAH,28284.0,Indonesia, 081276807219,,,0.4462217,101.461033,https://maps.google.com/?cid=0x0:0x7b6b63f1946b5be,
supermarket,Minimarket,Pangkalan Bintang,"FF95+HX3, Jl. Kesuma Indah, Simpang Tiga, Kec. Bukit Raya, Kota Pekanbaru, Riau 28289","Jl. Kesuma Indah, Simpang Tiga, Kec. Bukit Raya, Kota Pekanbaru",KALIMANTAN TENGAH,28289.0,Indonesia,,,,0.4688899,101.4599148,https://maps.google.com/?cid=0x0:0x8807324b6d742f95,
supermarket,Minimarket,Alfamart Teuku Bey 2 - Pku,"Bey, Jl. Teuku Umar, RT.002/RW.011, Simpang Tiga, Kec. Bukit Raya, Kota Pekanbaru, Riau 28284","Jl. Teuku Umar, RT.002/RW.011, Simpang Tiga, Kec. Bukit Raya, Kota Pekanbaru",KALIMANTAN TENGAH,28284.0,Indonesia, 1500959,,,0.459547,101.4621885,https://maps.google.com/?cid=0x0:0xd62d854803a4e2c0,
supermarket,Minimarket,AlfaMart Kaharudin Nasution,"Jl. Kaharudin Nasution No. 7  8, RT.003/RW.001, Simpang Tiga, Kec. Bukit Raya, Kota Pekanbaru, Riau 28284","RT.003/RW.001, Simpang Tiga, Kec. Bukit Raya, Kota Pekanbaru",KALIMANTAN TENGAH,28284.0,Indonesia, 0211500959,,,0.4678418,101.4541386,https://maps.google.com/?cid=0x0:0xbdc7bc82c0346155,
supermarket,Minimarket,Alfamart Pasir Putih Pekanbaru,"Jl. Pasir Putih Ds, RT.01/RW.06, Simpang Tiga, Kec. Bukit Raya, Kota Pekanbaru, Riau 28284","RT.01/RW.06, Simpang Tiga, Kec. Bukit Raya, Kota Pekanbaru",KALIMANTAN TENGAH,28284.0,Indonesia, 1500959,,,0.4402038,101.4507812,https://maps.google.com/?cid=0x0:0x44f5f420bae90615,
supermarket,Minimarket,Kedai Harian Bukit Bintang,"CFX5+2WH, Jl. Air Dingin III, Simpang Tiga, Kec. Bukit Raya, Kota Pekanbaru, Riau 28284","Jl. Air Dingin III, Simpang Tiga, Kec. Bukit Raya, Kota Pekanbaru",KALIMANTAN TENGAH,28284.0,Indonesia, 085265950500,,,0.4475531,101.4598473,https://maps.google.com/?cid=0x0:0x8b8b9c1f887b797e,
supermarket,Toko bahan makanan,Go Mart,"FF54+M9H, Unnamed Road, Simpang Tiga, Kec. Bukit Raya, Kota Pekanbaru, Riau 28288","Unnamed Road, Simpang Tiga, Kec. Bukit Raya, Kota Pekanbaru",KALIMANTAN TENGAH,28288.0,Indonesia, 082388955589,,,0.4591862,101.4559722,https://maps.google.com/?cid=0x0:0x905d60916c549f95,
supermarket,Toko Swalayan,Toko ON 2,"FFMC+JW9, Jl. Kesadaran, Tengkerang Labuai, Kec. Bukit Raya, Kota Pekanbaru, Riau 28125","Jl. Kesadaran, Tengkerang Labuai, Kec. Bukit Raya, Kota Pekanbaru",KALIMANTAN TENGAH,28125.0,Indonesia, 082170346924,,,0.4840285,101.4723689,https://maps.google.com/?cid=0x0:0x119906fb18da8e59,
supermarket,Pusat Perbelanjaan,Toko Bukit Gaharu,"25HJ+2GV, Jl. Lintas Kalimantan, Panopa, Kec. Lamandau, Kabupaten Lamandau, Kalimantan Tengah 74663","Jl. Lintas Kalimantan, Panopa, Kec. Lamandau, Kabupaten Lamandau",KALIMANTAN TENGAH,74663.0,Indonesia, 082199131412,,,-1.9723936,111.1813116,https://maps.google.com/?cid=0x0:0x3d17ec723a421c0f,
supermarket,Toko,Toko Harapan Tani,"Jln. Panglima Batur RT. 12.kel.bulik, Nanga Bulik, kab, Kabupaten Lamandau, Kalimantan Tengah 74161","Nanga Bulik, kab, Kabupaten Lamandau",KALIMANTAN TENGAH,74161.0,Indonesia, 082254159843,,,-2.1890434,111.4143646,https://maps.google.com/?cid=0x0:0xedc978e78772f16,
supermarket,supermarket,Riau 28288,"Kec. Marpoyan Damai, Kota Pekanbaru, Riau","Kota Pekanbaru, Riau",KALIMANTAN TENGAH,,Indonesia,,,,0.4643982,101.4509506,https://maps.google.com/?cid=0x0:0x8218df0cbbc860cd,
supermarket,Toko Swalayan,Kedai Upu Marpoyan,"Jl. Kaharuddin Nst No.118, Simpang Tiga, Kec. Bukit Raya, Kota Pekanbaru, Riau 28288","Simpang Tiga, Kec. Bukit Raya, Kota Pekanbaru",KALIMANTAN TENGAH,28288.0,Indonesia, 082196519434,,,0.4533763,101.4529573,https://maps.google.com/?cid=0x0:0xbedf587311af4332,
supermarket,Toko Swalayan,Moelmart Pasar Swalayan,"FF33+QCV, Jl. Kaharuddin Nst, Perhentian Marpoyan, Kec. Bukit Raya, Kota Pekanbaru, Riau 28288","Jl. Kaharuddin Nst, Perhentian Marpoyan, Kec. Bukit Raya, Kota Pekanbaru",KALIMANTAN TENGAH,28288.0,Indonesia, 082386996099,,,0.4544972,101.4535545,https://maps.google.com/?cid=0x0:0x4c60e0ec5caae2b0,
supermarket,Toko bahan makanan,Intan Swalayan,"Perumahan Karya Cemerlang, Jl. Karya I No.Kelurahan Blok A No.1, Simpang Baru, Kec. Bukit Raya, Kota Pekanbaru, Riau 28284","Jl. Karya I No.Kelurahan Blok A No.1, Simpang Baru, Kec. Bukit Raya, Kota Pekanbaru",KALIMANTAN TENGAH,28284.0,Indonesia, 082385796124,,,0.4434535,101.4566151,https://maps.google.com/?cid=0x0:0xba6d565721e5d1ce,
supermarket,Toko bahan makanan,Go Mart,"FF54+M9H, Unnamed Road, Simpang Tiga, Kec. Bukit Raya, Kota Pekanbaru, Riau 28288","Unnamed Road, Simpang Tiga, Kec. Bukit Raya, Kota Pekanbaru",KALIMANTAN TENGAH,28288.0,Indonesia, 082388955589,,,0.4591862,101.4559722,https://maps.google.com/?cid=0x0:0x905d60916c549f95,
supermarket,Toko Swalayan,New Planet Swalayan,"CCRX+PHG, Jl. Kaharuddin Nst, Simpang Tiga, Kec. Bukit Raya, Kota Pekanbaru, Riau 28288","Jl. Kaharuddin Nst, Simpang Tiga, Kec. Bukit Raya, Kota Pekanbaru",KALIMANTAN TENGAH,28288.0,Indonesia,,,,0.4418175,101.4489475,https://maps.google.com/?cid=0x0:0x95f442a1bffcd9f5,
supermarket,Minimarket,Pangkalan Bintang,"FF95+HX3, Jl. Kesuma Indah, Simpang Tiga, Kec. Bukit Raya, Kota Pekanbaru, Riau 28289","Jl. Kesuma Indah, Simpang Tiga, Kec. Bukit Raya, Kota Pekanbaru",KALIMANTAN TENGAH,28289.0,Indonesia,,,,0.4688899,101.4599148,https://maps.google.com/?cid=0x0:0x8807324b6d742f95,
supermarket,Toko Swalayan,Marpoyan swalayan,"Jl. Kaharuddin Nst No.256, Simpang Tiga, Kec. Bukit Raya, Kota Pekanbaru, Riau 28284","Simpang Tiga, Kec. Bukit Raya, Kota Pekanbaru",KALIMANTAN TENGAH,28284.0,Indonesia, 0761674526,,,0.4424074,101.4491804,https://maps.google.com/?cid=0x0:0x5e16ca63dc66492d,
supermarket,Pusat Perbelanjaan,Budiman Swalayan Simpang Tiga,"Jl. Kaharuddin Nst No.47, Simpang Tiga, Kec. Bukit Raya, Kota Pekanbaru, Riau 28284","Simpang Tiga, Kec. Bukit Raya, Kota Pekanbaru",KALIMANTAN TENGAH,28284.0,Indonesia, 082171815225,,,0.4679343,101.4544867,https://maps.google.com/?cid=0x0:0x490ffddfe7808c99,
supermarket,Toserba,Toko Hidayah,"FF96+H2C, Jl. Kusuma, Simpang Tiga, Kec. Bukit Raya, Kota Pekanbaru, Riau 28288","Jl. Kusuma, Simpang Tiga, Kec. Bukit Raya, Kota Pekanbaru",KALIMANTAN TENGAH,28288.0,Indonesia, 085271563336,,,0.4689314,101.4600082,https://maps.google.com/?cid=0x0:0x55dd2310624bd6c6,
supermarket,Toko Kelontong Asia,Kedai Pak Pon,"FF84+7CF, Simpang Tiga, Kec. Bukit Raya, Kota Pekanbaru, Riau 28288","Simpang Tiga, Kec. Bukit Raya, Kota Pekanbaru",KALIMANTAN TENGAH,28288.0,Indonesia,,,,0.4656844,101.4560367,https://maps.google.com/?cid=0x0:0x6509da10defdb700,
supermarket,Minimarket,Indomaret,"FFC3+2RM, Simpang Tiga, Kec. Bukit Raya, Kota Pekanbaru, Riau 28288","Simpang Tiga, Kec. Bukit Raya, Kota Pekanbaru",KALIMANTAN TENGAH,28288.0,Indonesia,,,,0.4700868,101.4545416,https://maps.google.com/?cid=0x0:0xac877bcdd7ae0d7c,
supermarket,Minimarket,AlfaMart Kaharudin Nasution,"Jl. Kaharudin Nasution No. 7  8, RT.003/RW.001, Simpang Tiga, Kec. Bukit Raya, Kota Pekanbaru, Riau 28284","RT.003/RW.001, Simpang Tiga, Kec. Bukit Raya, Kota Pekanbaru",KALIMANTAN TENGAH,28284.0,Indonesia, 0211500959,,,0.4678418,101.4541386,https://maps.google.com/?cid=0x0:0xbdc7bc82c0346155,
supermarket,Toko grosir,Tunas Harapan,"Jl. Pahlawan Kerja No.84, Perhentian Marpoyan, Kec. Marpoyan Damai, Kota Pekanbaru, Riau 28288","Perhentian Marpoyan, Kec. Marpoyan Damai, Kota Pekanbaru",KALIMANTAN TENGAH,28288.0,Indonesia, 081372756660,,,0.4560814,101.4498711,https://maps.google.com/?cid=0x0:0x56a028b290c44682,
supermarket,Toko,Berkah Toko,"Jl. Kaharuddin Nst No.139, Simpang Tiga, Kec. Bukit Raya, Kota Pekanbaru, Riau 28283","Simpang Tiga, Kec. Bukit Raya, Kota Pekanbaru",KALIMANTAN TENGAH,28283.0,Indonesia, 082173685162,,,0.4602731,101.452045,https://maps.google.com/?cid=0x0:0xf604e914c4f88d87,
supermarket,Toko bahan makanan,Indomaret Swalayan 154,"FF22+6XH, Jl. Kaharudin Nasution, Simpang Tiga, Kec. Bukit Raya, Kota Pekanbaru, Riau 28288","Jl. Kaharudin Nasution, Simpang Tiga, Kec. Bukit Raya, Kota Pekanbaru",KALIMANTAN TENGAH,28288.0,Indonesia,,,,0.4505556,101.4525,https://maps.google.com/?cid=0x0:0xe5acc9f1b5855dbf,
supermarket,Pasar,Pekan Baru,"FFJ5+GH6, Simpang Tiga, Kec. Bukit Raya, Kota Pekanbaru, Riau 28125","Simpang Tiga, Kec. Bukit Raya, Kota Pekanbaru",KALIMANTAN TENGAH,28125.0,Indonesia,,,,0.4812949,101.4588951,https://maps.google.com/?cid=0x0:0x2415ee5af02d1438,
supermarket,Toko Swalayan,Tuah and Aisyah,"Jl. Tengku Bey No.23, Simpang Tiga, Kec. Bukit Raya, Kota Pekanbaru, Riau 28284","Simpang Tiga, Kec. Bukit Raya, Kota Pekanbaru",KALIMANTAN TENGAH,28284.0,Indonesia, 082288193610,,,0.4584406,101.4637225,https://maps.google.com/?cid=0x0:0x2a217e0f9227e056,
supermarket,Minimarket,Toko Nazwa,"FF76+7X6, Jl. Tengku Bey I, Simpang Tiga, Kec. Bukit Raya, Kota Pekanbaru, Riau 28289","Jl. Tengku Bey I, Simpang Tiga, Kec. Bukit Raya, Kota Pekanbaru",KALIMANTAN TENGAH,28289.0,Indonesia, 081378024440,,,0.4631649,101.4623827,https://maps.google.com/?cid=0x0:0xbcb9e2e9246c5a36,
supermarket,Minimarket,Alfamart Air Dingin,"Jl. Air Dingin Ds, RT.004/RW.004, Simpang Tiga, Kec. Bukit Raya, Kota Pekanbaru, Riau 28284","RT.004/RW.004, Simpang Tiga, Kec. Bukit Raya, Kota Pekanbaru",KALIMANTAN TENGAH,28284.0,Indonesia, 1500959,,,0.4500612,101.4561126,https://maps.google.com/?cid=0x0:0xdc98f65f05463a23,
supermarket,Toko,Hypermart Mega Town Square Palangkaraya,"Jl. Yos Sudarso No.57, Menteng, Kec. Jekan Raya, Kota Palangka Raya, Kalimantan Tengah 73112","Menteng, Kec. Jekan Raya, Kota Palangka Raya",KALIMANTAN TENGAH,73112.0,Indonesia, 05364200005,,,-2.2146127,113.9054936,https://maps.google.com/?cid=0x0:0xd0d2a7d4e965b262,
supermarket,Toko Swalayan,Megatop Swalayan,"QWGJ+QCW, Langkai, Kec. Pahandut, Kota Palangka Raya, Kalimantan Tengah 73111","Langkai, Kec. Pahandut, Kota Palangka Raya",KALIMANTAN TENGAH,73111.0,Indonesia,,,,-2.2230161,113.9310681,https://maps.google.com/?cid=0x0:0x968eed608f212af6,
supermarket,Minimarket,"Alfamart Rajawali KM 6,5","RVGC+25W, Bukit Tunggal, Kec. Jekan Raya, Kota Palangka Raya, Kalimantan Tengah 74874","Bukit Tunggal, Kec. Jekan Raya, Kota Palangka Raya",KALIMANTAN TENGAH,74874.0,Indonesia,,,,-2.1748787,113.8704687,https://maps.google.com/?cid=0x0:0xb15edac1db89dcbd,
supermarket,supermarket,Riau 28289,"Kota Pekanbaru, Riau","Kota Pekanbaru, Riau",KALIMANTAN TENGAH,,Indonesia,,,,0.4643421,101.4850309,https://maps.google.com/?cid=0x0:0xe269f8a063c035df,
supermarket,Pusat Perbelanjaan,Matahari Department Lippo Plaza Palangkaraya,"Jl. Yos Sudarso No.57, Menteng, Kec. Jekan Raya, Kota Palangka Raya, Kalimantan Tengah 74874","Menteng, Kec. Jekan Raya, Kota Palangka Raya",KALIMANTAN TENGAH,74874.0,Indonesia,,,,-2.2141989,113.9055548,https://maps.google.com/?cid=0x0:0xb3a6d520ec175c36,
supermarket,Pusat Perbelanjaan,SWALAYAN 777,"Jalan datuk setia maharaja, nomor 78 ABC, Tengkerang Labuai, Kec. Bukit Raya, Kota Pekanbaru, Riau 28281","nomor 78 ABC, Tengkerang Labuai, Kec. Bukit Raya, Kota Pekanbaru",KALIMANTAN TENGAH,28281.0,Indonesia, 085365764000,,,0.4742423,101.4835839,https://maps.google.com/?cid=0x0:0x1979d1a113dda14b,
supermarket,Toko Swalayan,EL BArokah Mart,"Jl. Tengku Bey No.58-59, Simpang Tiga, Kec. Bukit Raya, Kota Pekanbaru, Riau 28284","Simpang Tiga, Kec. Bukit Raya, Kota Pekanbaru",KALIMANTAN TENGAH,28284.0,Indonesia, 085274845874,,,0.464269,101.4561691,https://maps.google.com/?cid=0x0:0x34c490398e1e1ef3,
supermarket,Toko Swalayan,HAWAII SWALAYAN  BUSANA,"Jl. H. Ismail No.8 Blok D, Bencah Lesung, Kec. Tenayan Raya, Kota Pekanbaru, Riau 28289","Bencah Lesung, Kec. Tenayan Raya, Kota Pekanbaru",KALIMANTAN TENGAH,28289.0,Indonesia, 082288412524,,,0.4896764,101.5169655,https://maps.google.com/?cid=0x0:0x105e01dd06e86fee,
supermarket,Minimarket,Pangkalan Bintang,"FF95+HX3, Jl. Kesuma Indah, Simpang Tiga, Kec. Bukit Raya, Kota Pekanbaru, Riau 28289","Jl. Kesuma Indah, Simpang Tiga, Kec. Bukit Raya, Kota Pekanbaru",KALIMANTAN TENGAH,28289.0,Indonesia,,,,0.4688899,101.4599148,https://maps.google.com/?cid=0x0:0x8807324b6d742f95,
supermarket,Toko Swalayan,Galaxy Swalayan,"Jl. Bukit Barisan No.88 89, Tengkerang Tim., Kec. Tenayan Raya, Kota Pekanbaru, Riau 28131","Tengkerang Tim., Kec. Tenayan Raya, Kota Pekanbaru",KALIMANTAN TENGAH,28131.0,Indonesia, 085265493893,,,0.4872228,101.4918558,https://maps.google.com/?cid=0x0:0x32eb496c146a4590,
supermarket,Pusat Perbelanjaan,Budiman Swalayan Simpang Tiga,"Jl. Kaharuddin Nst No.47, Simpang Tiga, Kec. Bukit Raya, Kota Pekanbaru, Riau 28284","Simpang Tiga, Kec. Bukit Raya, Kota Pekanbaru",KALIMANTAN TENGAH,28284.0,Indonesia, 082171815225,,,0.4679343,101.4544867,https://maps.google.com/?cid=0x0:0x490ffddfe7808c99,
supermarket,Toko Swalayan,New Planet Swalayan Bukit Barisan,"Jl. Bukit Barisan No.8, Tengkerang Tim., Kec. Tenayan Raya, Kota Pekanbaru, Riau 28131","Tengkerang Tim., Kec. Tenayan Raya, Kota Pekanbaru",KALIMANTAN TENGAH,28131.0,Indonesia,,,,0.4897815,101.4884759,https://maps.google.com/?cid=0x0:0xf8db47786ebb0f76,
supermarket,Gudang,Toko JMS,"Simpang Tiga, Kec. Bukit Raya, Kota Pekanbaru, Riau 28289","Kec. Bukit Raya, Kota Pekanbaru",KALIMANTAN TENGAH,28289.0,Indonesia,,,,0.4705256,101.46464,https://maps.google.com/?cid=0x0:0xd345626d64f941db,
supermarket,Toserba,Toko Hidayah,"FF96+H2C, Jl. Kusuma, Simpang Tiga, Kec. Bukit Raya, Kota Pekanbaru, Riau 28288","Jl. Kusuma, Simpang Tiga, Kec. Bukit Raya, Kota Pekanbaru",KALIMANTAN TENGAH,28288.0,Indonesia, 085271563336,,,0.4689314,101.4600082,https://maps.google.com/?cid=0x0:0x55dd2310624bd6c6,
supermarket,Minimarket,Toko Nazwa,"FF76+7X6, Jl. Tengku Bey I, Simpang Tiga, Kec. Bukit Raya, Kota Pekanbaru, Riau 28289","Jl. Tengku Bey I, Simpang Tiga, Kec. Bukit Raya, Kota Pekanbaru",KALIMANTAN TENGAH,28289.0,Indonesia, 081378024440,,,0.4631649,101.4623827,https://maps.google.com/?cid=0x0:0xbcb9e2e9246c5a36,
supermarket,Toko Swalayan,Toko Harian Ammar,"FF75+8R2, Simpang Tiga, Kec. Bukit Raya, Kota Pekanbaru, Riau 28289","Simpang Tiga, Kec. Bukit Raya, Kota Pekanbaru",KALIMANTAN TENGAH,28289.0,Indonesia,,,,0.4632601,101.4595068,https://maps.google.com/?cid=0x0:0x45c14f8f3a33e538,
supermarket,Toko Peralatan Jahit,Toko Zidan,"FF76+7VV, Jl. Tengku Bey I, Simpang Tiga, Kec. Bukit Raya, Kota Pekanbaru, Riau 28289","Jl. Tengku Bey I, Simpang Tiga, Kec. Bukit Raya, Kota Pekanbaru",KALIMANTAN TENGAH,28289.0,Indonesia,,,,0.4632283,101.4621587,https://maps.google.com/?cid=0x0:0xa8b1496c45622a65,
supermarket,Toko Swalayan,Tuah and Aisyah,"Jl. Tengku Bey No.23, Simpang Tiga, Kec. Bukit Raya, Kota Pekanbaru, Riau 28284","Simpang Tiga, Kec. Bukit Raya, Kota Pekanbaru",KALIMANTAN TENGAH,28284.0,Indonesia, 082288193610,,,0.4584406,101.4637225,https://maps.google.com/?cid=0x0:0x2a217e0f9227e056,
supermarket,Toko Kelontong Asia,Azka Mart,"Jl. Parit Indah No.165, Tengkerang Labuai, Kec. Bukit Raya, Kota Pekanbaru, Riau 28289","Tengkerang Labuai, Kec. Bukit Raya, Kota Pekanbaru",KALIMANTAN TENGAH,28289.0,Indonesia, 082285888712,,,0.472351,101.4761719,https://maps.google.com/?cid=0x0:0x267e792b4b0f22d2,
supermarket,Toko,Berkah Toko,"Jl. Kaharuddin Nst No.139, Simpang Tiga, Kec. Bukit Raya, Kota Pekanbaru, Riau 28283","Simpang Tiga, Kec. Bukit Raya, Kota Pekanbaru",KALIMANTAN TENGAH,28283.0,Indonesia, 082173685162,,,0.4602731,101.452045,https://maps.google.com/?cid=0x0:0xf604e914c4f88d87,
supermarket,Toko,Vio Mart,"Jl. Lintas Sumatra No.KM. 13, Kelurahan Mentangor, Kec. Tenayan Raya, Kota Pekanbaru, Riau 28286","Kelurahan Mentangor, Kec. Tenayan Raya, Kota Pekanbaru",KALIMANTAN TENGAH,28286.0,Indonesia, 082288995255,,,0.4715069,101.5141753,https://maps.google.com/?cid=0x0:0xc773fce39a3af46d,
supermarket,Toko bahan makanan,Kedai H F N,"Jl. Kapau Sari No.99, Tengkerang Tim., Kec. Tenayan Raya, Kota Pekanbaru, Riau 28131","Tengkerang Tim., Kec. Tenayan Raya, Kota Pekanbaru",KALIMANTAN TENGAH,28131.0,Indonesia, 081275733392,,,0.4783246,101.4957501,https://maps.google.com/?cid=0x0:0xeabe8e930665e354,
supermarket,Toko Swalayan,Moelmart Pasar Swalayan,"FF33+QCV, Jl. Kaharuddin Nst, Perhentian Marpoyan, Kec. Bukit Raya, Kota Pekanbaru, Riau 28288","Jl. Kaharuddin Nst, Perhentian Marpoyan, Kec. Bukit Raya, Kota Pekanbaru",KALIMANTAN TENGAH,28288.0,Indonesia, 082386996099,,,0.4544972,101.4535545,https://maps.google.com/?cid=0x0:0x4c60e0ec5caae2b0,
supermarket,Toko Kelontong Asia,TOKO SEMBAKO MAJU JAYA,"Jl. Dt. Wan Abdul Rahman No.35, Simpang Tiga, Kec. Bukit Raya, Kota Pekanbaru, Riau 28288","Simpang Tiga, Kec. Bukit Raya, Kota Pekanbaru",KALIMANTAN TENGAH,28288.0,Indonesia, 085874130972,,,0.4607056,101.4582844,https://maps.google.com/?cid=0x0:0x986d3ed175fe61ff,
supermarket,Minimarket,Alfamart Bukit Barisan,"Jl. Bukit Barisan No.Kel, RT.003/RW.002, Tengkerang Tim., Kec. Bukit Raya, Kota Pekanbaru, Riau 28289","RT.003/RW.002, Tengkerang Tim., Kec. Bukit Raya, Kota Pekanbaru",KALIMANTAN TENGAH,28289.0,Indonesia, 0211500959,,,0.4861721,101.495156,https://maps.google.com/?cid=0x0:0x3747efd53924c484,
supermarket,Pusat Perbelanjaan,Toko Bukit Gaharu,"25HJ+2GV, Jl. Lintas Kalimantan, Panopa, Kec. Lamandau, Kabupaten Lamandau, Kalimantan Tengah 74663","Jl. Lintas Kalimantan, Panopa, Kec. Lamandau, Kabupaten Lamandau",KALIMANTAN TENGAH,74663.0,Indonesia, 082199131412,,,-1.9723936,111.1813116,https://maps.google.com/?cid=0x0:0x3d17ec723a421c0f,
supermarket,Toko,Toko Harapan Tani,"Jln. Panglima Batur RT. 12.kel.bulik, Nanga Bulik, kab, Kabupaten Lamandau, Kalimantan Tengah 74161","Nanga Bulik, kab, Kabupaten Lamandau",KALIMANTAN TENGAH,74161.0,Indonesia, 082254159843,,,-2.1890434,111.4143646,https://maps.google.com/?cid=0x0:0xedc978e78772f16,
supermarket,Toko Swalayan,EL BArokah Mart,"Jl. Tengku Bey No.58-59, Simpang Tiga, Kec. Bukit Raya, Kota Pekanbaru, Riau 28284","Simpang Tiga, Kec. Bukit Raya, Kota Pekanbaru",KALIMANTAN TENGAH,28284.0,Indonesia, 085274845874,,,0.464269,101.4561691,https://maps.google.com/?cid=0x0:0x34c490398e1e1ef3,
supermarket,Toko Swalayan,Kedai Upu Marpoyan,"Jl. Kaharuddin Nst No.118, Simpang Tiga, Kec. Bukit Raya, Kota Pekanbaru, Riau 28288","Simpang Tiga, Kec. Bukit Raya, Kota Pekanbaru",KALIMANTAN TENGAH,28288.0,Indonesia, 082196519434,,,0.4533763,101.4529573,https://maps.google.com/?cid=0x0:0xbedf587311af4332,
supermarket,Toko Swalayan,Moelmart Pasar Swalayan,"FF33+QCV, Jl. Kaharuddin Nst, Perhentian Marpoyan, Kec. Bukit Raya, Kota Pekanbaru, Riau 28288","Jl. Kaharuddin Nst, Perhentian Marpoyan, Kec. Bukit Raya, Kota Pekanbaru",KALIMANTAN TENGAH,28288.0,Indonesia, 082386996099,,,0.4544972,101.4535545,https://maps.google.com/?cid=0x0:0x4c60e0ec5caae2b0,
supermarket,Toko Swalayan,GS THE FRESH JATIBENING,"Jl. Caman Raya No.7-24, RT.004/RW.003, Jatibening, Kec. Pd. Gede, Kota Bks, Jawa Barat 17412","RT.004/RW.003, Jatibening, Kec. Pd. Gede, Kota Bks",KALIMANTAN TENGAH,17412.0,Indonesia, 02184982211,,,-6.2676455,106.9436409,https://maps.google.com/?cid=0x0:0x2cdb50c3ee3206c,
supermarket,Toko Swalayan,Marpoyan swalayan,"Jl. Kaharuddin Nst No.256, Simpang Tiga, Kec. Bukit Raya, Kota Pekanbaru, Riau 28284","Simpang Tiga, Kec. Bukit Raya, Kota Pekanbaru",KALIMANTAN TENGAH,28284.0,Indonesia, 0761674526,,,0.4424074,101.4491804,https://maps.google.com/?cid=0x0:0x5e16ca63dc66492d,
supermarket,Toko Swalayan,GS The Fresh Supermarket Kemang Pratama,"Linc Square Kemang Pratama, Jl. Kemang Pratama Raya, RT.004/RW.001, Bojong Rawalumbu, Kec. Rawalumbu, Kota Bks, Jawa Barat 17116","Jl. Kemang Pratama Raya, RT.004/RW.001, Bojong Rawalumbu, Kec. Rawalumbu, Kota Bks",KALIMANTAN TENGAH,17116.0,Indonesia, 02182416910,,,-6.2779418,106.9910558,https://maps.google.com/?cid=0x0:0x4ce692f4b9ef21ee,
supermarket,Toko Swalayan,Az-Zuhra Mart,"FF3C+W5C, Jl. Tengku Bey, Simpang Tiga, Kec. Bukit Raya, Kota Pekanbaru, Riau 28282","Jl. Tengku Bey, Simpang Tiga, Kec. Bukit Raya, Kota Pekanbaru",KALIMANTAN TENGAH,28282.0,Indonesia,,,,0.4548033,101.4703931,https://maps.google.com/?cid=0x0:0x7f97b264b3ed7739,
supermarket,Toko bahan makanan,Intan Swalayan,"Perumahan Karya Cemerlang, Jl. Karya I No.Kelurahan Blok A No.1, Simpang Baru, Kec. Bukit Raya, Kota Pekanbaru, Riau 28284","Jl. Karya I No.Kelurahan Blok A No.1, Simpang Baru, Kec. Bukit Raya, Kota Pekanbaru",KALIMANTAN TENGAH,28284.0,Indonesia, 082385796124,,,0.4434535,101.4566151,https://maps.google.com/?cid=0x0:0xba6d565721e5d1ce,
supermarket,Toko Swalayan,GS Supermarket Jatiasih,"GsSupermarket :, Jl. Wibawa Mukti II No.125, RT.002/ RW017/RW.017, Jatiasih, Kec. Jatiasih, Kota Bks, Jawa Barat 17423","Jl. Wibawa Mukti II No.125, RT.002/ RW017/RW.017, Jatiasih, Kec. Jatiasih, Kota Bks",KALIMANTAN TENGAH,17423.0,Indonesia, 02182736918,,,-6.3070579,106.955731,https://maps.google.com/?cid=0x0:0x74efd6ce433268e6,
supermarket,Toko Swalayan,New Planet Swalayan,"CCRX+PHG, Jl. Kaharuddin Nst, Simpang Tiga, Kec. Bukit Raya, Kota Pekanbaru, Riau 28288","Jl. Kaharuddin Nst, Simpang Tiga, Kec. Bukit Raya, Kota Pekanbaru",KALIMANTAN TENGAH,28288.0,Indonesia,,,,0.4418175,101.4489475,https://maps.google.com/?cid=0x0:0x95f442a1bffcd9f5,
supermarket,Toserba,Toko Hidayah,"FF96+H2C, Jl. Kusuma, Simpang Tiga, Kec. Bukit Raya, Kota Pekanbaru, Riau 28288","Jl. Kusuma, Simpang Tiga, Kec. Bukit Raya, Kota Pekanbaru",KALIMANTAN TENGAH,28288.0,Indonesia, 085271563336,,,0.4689314,101.4600082,https://maps.google.com/?cid=0x0:0x55dd2310624bd6c6,
supermarket,Toko Swalayan,Toko ON 2,"FFMC+JW9, Jl. Kesadaran, Tengkerang Labuai, Kec. Bukit Raya, Kota Pekanbaru, Riau 28125","Jl. Kesadaran, Tengkerang Labuai, Kec. Bukit Raya, Kota Pekanbaru",KALIMANTAN TENGAH,28125.0,Indonesia, 082170346924,,,0.4840285,101.4723689,https://maps.google.com/?cid=0x0:0x119906fb18da8e59,
supermarket,Toko bahan makanan,Kedai/kost Hasian,"CFW6+FCM, Jl. Karya Bersama, Simpang Tiga, Kec. Bukit Raya, Kota Pekanbaru, Riau 28284","Jl. Karya Bersama, Simpang Tiga, Kec. Bukit Raya, Kota Pekanbaru",KALIMANTAN TENGAH,28284.0,Indonesia, 081276807219,,,0.4462217,101.461033,https://maps.google.com/?cid=0x0:0x7b6b63f1946b5be,
supermarket,Pusat Perbelanjaan,Pasarina by Ranch Market,"Mall Sarinah, Jl. M.H. Thamrin No.11 Lantai Dasar, Kota Jakarta Pusat, Daerah Khusus Ibukota Jakarta 10350","Jl. M.H. Thamrin No.11 Lantai Dasar, Kota Jakarta Pusat",KALIMANTAN TENGAH,10350.0,Indonesia,,,,-6.1876584,106.8243519,https://maps.google.com/?cid=0x0:0x506bfb552a5cedbb,
supermarket,,Foto Copy Dan ATK,"Jl. Rawamangun No.16, Tengkerang Labuai, Kec. Bukit Raya, Kota Pekanbaru, Riau 28125","Tengkerang Labuai, Kec. Bukit Raya, Kota Pekanbaru",KALIMANTAN TENGAH,28125.0,Indonesia,,,,0.4844616,101.4691454,https://maps.google.com/?cid=0x0:0x2b7db3c53e70641e,
supermarket,Minimarket,Pangkalan Bintang,"FF95+HX3, Jl. Kesuma Indah, Simpang Tiga, Kec. Bukit Raya, Kota Pekanbaru, Riau 28289","Jl. Kesuma Indah, Simpang Tiga, Kec. Bukit Raya, Kota Pekanbaru",KALIMANTAN TENGAH,28289.0,Indonesia,,,,0.4688899,101.4599148,https://maps.google.com/?cid=0x0:0x8807324b6d742f95,
supermarket,Toko Swalayan,Toko Grosir KSM,"FF48+PPP, Jl. Tengku Bey, Simpang Tiga, Kec. Bukit Raya, Kota Pekanbaru, Riau 28282","Jl. Tengku Bey, Simpang Tiga, Kec. Bukit Raya, Kota Pekanbaru",KALIMANTAN TENGAH,28282.0,Indonesia,,,,0.456849,101.4668354,https://maps.google.com/?cid=0x0:0x43bf744e58e47f9f,
supermarket,Gudang,Toko JMS,"Simpang Tiga, Kec. Bukit Raya, Kota Pekanbaru, Riau 28289","Kec. Bukit Raya, Kota Pekanbaru",KALIMANTAN TENGAH,28289.0,Indonesia,,,,0.4705256,101.46464,https://maps.google.com/?cid=0x0:0xd345626d64f941db,
supermarket,Toko bahan makanan,Kedai Ida,"FFMC+M6H, Jl. Rawabaluran, Tengkerang Labuai, Kec. Bukit Raya, Kota Pekanbaru, Riau 28125","Jl. Rawabaluran, Tengkerang Labuai, Kec. Bukit Raya, Kota Pekanbaru",KALIMANTAN TENGAH,28125.0,Indonesia,,,,0.4841866,101.4706174,https://maps.google.com/?cid=0x0:0x1da04b3d63843743,
supermarket,supermarket,Kalimantan Tengah 74462,"Kabupaten Katingan, Kalimantan Tengah","Kabupaten Katingan, Kalimantan Tengah",KALIMANTAN TENGAH,,Indonesia,,,,-2.3296062,113.4776098,https://maps.google.com/?cid=0x0:0x3d01dd11e05807f8,
supermarket,Toko umum,Warung sembako,"QFVP+74V, Asem Kumbang, Kec. Kamipang, Kabupaten Katingan, Kalimantan Tengah 74462","Asem Kumbang, Kec. Kamipang, Kabupaten Katingan",KALIMANTAN TENGAH,74462.0,Indonesia,,,,-2.2067696,113.48529,https://maps.google.com/?cid=0x0:0xe853fc55a257c203,
supermarket,Toko bahan makanan,Toko Bu Ani,"H8JJ+3P7, Telaga, Kec. Kamipang, Kabupaten Katingan, Kalimantan Tengah 74462","Telaga, Kec. Kamipang, Kabupaten Katingan",KALIMANTAN TENGAH,74462.0,Indonesia,,,,-2.4198433,113.3317964,https://maps.google.com/?cid=0x0:0xbdcbca59aeb13213,
supermarket,Toko Swalayan,Warung Sembako Bu Yuni,"VCPX+Q9F, Hiyang Bana, Kec. Tasik Payawan, Kabupaten Katingan, Kalimantan Tengah 74461","Hiyang Bana, Kec. Tasik Payawan, Kabupaten Katingan",KALIMANTAN TENGAH,74461.0,Indonesia, 082250617634,,,-2.113065,113.448435,https://maps.google.com/?cid=0x0:0xa58c4a4f4a8bdacb,
supermarket,supermarket,Kalimantan Tengah 74413,"Kec. Katingan Hilir, Kabupaten Katingan, Kalimantan Tengah","Kabupaten Katingan, Kalimantan Tengah",KALIMANTAN TENGAH,,Indonesia,,,,-1.9350378,113.2394452,https://maps.google.com/?cid=0x0:0xff4c20b50314124d,
supermarket,Minimarket,TOKO AL,"Jl. Revolusi No.160, Kasongan Lama, Kec. Katingan Hilir, Kabupaten Katingan, Kalimantan Tengah 74413","Kasongan Lama, Kec. Katingan Hilir, Kabupaten Katingan",KALIMANTAN TENGAH,74413.0,Indonesia,,,,-1.9137237,113.3820122,https://maps.google.com/?cid=0x0:0xdd073664137167e6,
supermarket,Toko bahan makanan,Toko Mamah Ragil,"Jl. Pembangunan No.40, Hampalit, Kec. Katingan Hilir, Kabupaten Katingan, Kalimantan Tengah 74413","Hampalit, Kec. Katingan Hilir, Kabupaten Katingan",KALIMANTAN TENGAH,74413.0,Indonesia,,,,-1.8977352,113.2973014,https://maps.google.com/?cid=0x0:0xc6064d8b391d7eb,
supermarket,Toko Swalayan,TOKO REXI,"4C48+8XJ, Jl. Trans Kalimantan, Kasongan Lama, Kec. Katingan Hilir, Kabupaten Katingan, Kalimantan Tengah 74413","Jl. Trans Kalimantan, Kasongan Lama, Kec. Katingan Hilir, Kabupaten Katingan",KALIMANTAN TENGAH,74413.0,Indonesia,,,,-1.8941511,113.417404,https://maps.google.com/?cid=0x0:0x89543982e58ad8d5,
supermarket,Toko Beras,Rizky Mart,"JL BUNGAI RT07 RW 2 KASONGAN LAMA, Kasongan Lama, Kec. Katingan Hilir, Kabupaten Katingan, Kalimantan Tengah 74413","Kasongan Lama, Kec. Katingan Hilir, Kabupaten Katingan",KALIMANTAN TENGAH,74413.0,Indonesia, 081352748239,,,-1.9119511,113.3856255,https://maps.google.com/?cid=0x0:0x5709773761ca79d7,
supermarket,Kios,Kios segala transaksi,"Jl. Pembangunan No.58, Hampalit, Kec. Katingan Hilir, Kabupaten Katingan, Kalimantan Tengah 74413","Hampalit, Kec. Katingan Hilir, Kabupaten Katingan",KALIMANTAN TENGAH,74413.0,Indonesia,,,,-1.9030216,113.295448,https://maps.google.com/?cid=0x0:0x1ef8121a620df33a,
supermarket,Kios,Kios sembako yusbi / bp selsi,"4832+MW, Hampalit, Kec. Katingan Hilir, Kabupaten Katingan, Kalimantan Tengah 74413","Hampalit, Kec. Katingan Hilir, Kabupaten Katingan",KALIMANTAN TENGAH,74413.0,Indonesia,,,,-1.8958662,113.3022817,https://maps.google.com/?cid=0x0:0x70cadcdceb4d0669,
supermarket,Minimarket,ALFA MART,"4C67+VH7, Jl. Trans Kalimantan, Kasongan Lama, Kec. Katingan Hilir, Kabupaten Katingan, Kalimantan Tengah 74413","Jl. Trans Kalimantan, Kasongan Lama, Kec. Katingan Hilir, Kabupaten Katingan",KALIMANTAN TENGAH,74413.0,Indonesia,,,,-1.8878285,113.4139081,https://maps.google.com/?cid=0x0:0x90934d9910d14b91,
supermarket,Toko Swalayan,TOKO EL,"Jl. Revolusi, Kasongan Lama, Kec. Katingan Hilir, Kabupaten Katingan, Kalimantan Tengah 74413","Kasongan Lama, Kec. Katingan Hilir, Kabupaten Katingan",KALIMANTAN TENGAH,74413.0,Indonesia,,,,-1.9130903,113.3852069,https://maps.google.com/?cid=0x0:0x5e9217b300d21e5e,
supermarket,Minimarket,Toko Budi Sejati,"39PP+RW4, Jl. Revolusi, Kasongan Lama, Kec. Katingan Hilir, Kabupaten Katingan, Kalimantan Tengah 74413","Jl. Revolusi, Kasongan Lama, Kec. Katingan Hilir, Kabupaten Katingan",KALIMANTAN TENGAH,74413.0,Indonesia, 081256177265,,,-1.9129959,113.3873421,https://maps.google.com/?cid=0x0:0xf4190056e28eacec,
supermarket,Toko bahan makanan,toko adawiyah,"39QP+57W, Unnamed Road, Kasongan Lama, Katingan Hilir, Katingan Regency, Central Kalimantan 74413","Unnamed Road, Kasongan Lama, Katingan Hilir, Katingan Regency",KALIMANTAN TENGAH,74413.0,Indonesia,,,,-1.912007,113.385716,https://maps.google.com/?cid=0x0:0x488febdfb624b179,
supermarket,Toko Swalayan,Tarawang bintang,"Jl. Tjilik Riwut No.mor 02, Kasongan Baru, kasongan, Kabupaten Katingan, Kalimantan Tengah 74413","Kasongan Baru, kasongan, Kabupaten Katingan",KALIMANTAN TENGAH,74413.0,Indonesia, 081351042413,,,-1.9130982,113.3912395,https://maps.google.com/?cid=0x0:0xd95c64360db0b831,
supermarket,Kios,"Distributor pulsa all-operator, agen pulsa murah, yatiphone","Kasongan Lama, Kec. Katingan Hilir, Kabupaten Katingan, Kalimantan Tengah 74413","Kec. Katingan Hilir, Kabupaten Katingan",KALIMANTAN TENGAH,74413.0,Indonesia, 085249249741,,,-1.9052399,113.3886987,https://maps.google.com/?cid=0x0:0x98afbde6790dd574,
supermarket,Pasar,TOKO MANDA,"4C9C+XR4, Jl. Durian, RT.18/RW.04, Kasongan Lama, Kec. Katingan Hilir, Kabupaten Katingan, Kalimantan Tengah 74413","Jl. Durian, RT.18/RW.04, Kasongan Lama, Kec. Katingan Hilir, Kabupaten Katingan",KALIMANTAN TENGAH,74413.0,Indonesia,,,,-1.8801203,113.4220694,https://maps.google.com/?cid=0x0:0xf595690ecc21c4f0,
supermarket,Toko Mainan,Toko Mainan Halim,"Unnamed Road, Hampalit, Kec. Katingan Hilir, Kabupaten Katingan, Kalimantan Tengah 74413","Hampalit, Kec. Katingan Hilir, Kabupaten Katingan",KALIMANTAN TENGAH,74413.0,Indonesia, 081347576020,,,-1.8949601,113.2981252,https://maps.google.com/?cid=0x0:0x5b08308b80e2d09a,
supermarket,Toko bahan makanan,Rahman Tono,"399M+892, Jl. Kasongan, Tumbang Liting, Kec. Katingan Hilir, Kabupaten Katingan, Kalimantan Tengah 74461","Jl. Kasongan, Tumbang Liting, Kec. Katingan Hilir, Kabupaten Katingan",KALIMANTAN TENGAH,74461.0,Indonesia,,,,-1.931729,113.383391,https://maps.google.com/?cid=0x0:0x685981c7359fe7ed,
supermarket,Minimarket,Indomaret Tjilik Riwut KM 1 KTG,"493P+CR, Kasongan Lama, Kec. Katingan Hilir, Kabupaten Katingan, Kalimantan Tengah 74413","Kasongan Lama, Kec. Katingan Hilir, Kabupaten Katingan",KALIMANTAN TENGAH,74413.0,Indonesia,,,,-1.896445,113.387055,https://maps.google.com/?cid=0x0:0xe449c34e531dd7ee,
supermarket,Toko bahan makanan,Toko H Dani,"473X+R85, Jalan pasar kereng Pangi, Hampalit, Kec. Katingan Hilir, Kabupaten Katingan, Kalimantan Tengah 74413","Jalan pasar kereng Pangi, Hampalit, Kec. Katingan Hilir, Kabupaten Katingan",KALIMANTAN TENGAH,74413.0,Indonesia, 082154842549,,,-1.8954941,113.2983531,https://maps.google.com/?cid=0x0:0xab3cb9977b4cb6ca,
supermarket,Toko,Alfamart Km 1,"37P3+CHQ, Jl. Tjilik Riwut, Hampalit, Kec. Katingan Hilir, Kabupaten Katingan, Kalimantan Tengah 74413","Jl. Tjilik Riwut, Hampalit, Kec. Katingan Hilir, Kabupaten Katingan",KALIMANTAN TENGAH,74413.0,Indonesia,,,,-1.9139174,113.2539928,https://maps.google.com/?cid=0x0:0xdbf83b919030253b,
supermarket,Minimarket,indomaret,"Jl. Tjilik Riwut No.KM 4 5, Kasongan Lama, Kec. Katingan Hilir, Kabupaten Katingan, Kalimantan Tengah 74413","Kasongan Lama, Kec. Katingan Hilir, Kabupaten Katingan",KALIMANTAN TENGAH,74413.0,Indonesia,,,,-1.8885104,113.4138635,https://maps.google.com/?cid=0x0:0x57f954a41d8112cd,
supermarket,Taman,Pasar Kasongan,"Kasongan Lama, Kec. Katingan Hilir, Kabupaten Katingan, Kalimantan Tengah 74413","Kec. Katingan Hilir, Kabupaten Katingan",KALIMANTAN TENGAH,74413.0,Indonesia,,,,-1.9127694,113.3858914,https://maps.google.com/?cid=0x0:0x62deccf849b5c2d4,
supermarket,Toko,toko santi 2,"Jl. Trans Kalimantan No.km.2, Kasongan Lama, Kec. Katingan Hilir, Kabupaten Katingan, Kalimantan Tengah 74413","Kasongan Lama, Kec. Katingan Hilir, Kabupaten Katingan",KALIMANTAN TENGAH,74413.0,Indonesia,,,,-1.8868289,113.3972619,https://maps.google.com/?cid=0x0:0xbd8925ee83d876d0,
supermarket,Toko bahan makanan,UD Mutiara,"Jl. Durian V No 77, Kasongan Lama, Katingan Hilir, Katingan Regency, Central Kalimantan 74413","Kasongan Lama, Katingan Hilir, Katingan Regency",KALIMANTAN TENGAH,74413.0,Indonesia,,,,-1.8855921,113.4228184,https://maps.google.com/?cid=0x0:0x8565e904373bd36c,
supermarket,supermarket,Kalimantan Tengah 74457,"Kabupaten Katingan, Kalimantan Tengah","Kabupaten Katingan, Kalimantan Tengah",KALIMANTAN TENGAH,,Indonesia,,,,-1.0501582,112.3337769,https://maps.google.com/?cid=0x0:0x96f7cae7d4b2ca52,
supermarket,Toko Swalayan,Ysm Mart,"Samba Danum, Kec. Katingan Tengah, Kabupaten Katingan, Kalimantan Tengah 74454","Kec. Katingan Tengah, Kabupaten Katingan",KALIMANTAN TENGAH,74454.0,Indonesia,,,,-1.4507482,113.0956301,https://maps.google.com/?cid=0x0:0x1a10829d810242e8,
supermarket,Toko bahan makanan,Toko IMELDA,"RM5V+QC8, Tumbang Hiran, Marikit, Kabupaten Katingan, Kalimantan Tengah 74456","Tumbang Hiran, Marikit, Kabupaten Katingan",KALIMANTAN TENGAH,74456.0,Indonesia,,,,-1.1905988,112.693578,https://maps.google.com/?cid=0x0:0x675ed4a20d61ac37,
supermarket,Toko Beras,Rizky Mart,"JL BUNGAI RT07 RW 2 KASONGAN LAMA, Kasongan Lama, Kec. Katingan Hilir, Kabupaten Katingan, Kalimantan Tengah 74413","Kasongan Lama, Kec. Katingan Hilir, Kabupaten Katingan",KALIMANTAN TENGAH,74413.0,Indonesia, 081352748239,,,-1.9119511,113.3856255,https://maps.google.com/?cid=0x0:0x5709773761ca79d7,
supermarket,Toko bahan makanan,Warung Bp Suldin,"W2W4+R44, Desa, Tumbang Darap, Seruyan Hulu, Kabupaten Seruyan, Kalimantan Tengah 74291","Desa, Tumbang Darap, Seruyan Hulu, Kabupaten Seruyan",KALIMANTAN TENGAH,74291.0,Indonesia, 081310374494,,,-1.0529828,112.0053347,https://maps.google.com/?cid=0x0:0xfbc5714eb1ec59e5,
supermarket,Toko bahan makanan,Warung Bapak Hary,"RM6Q+VMW, Unnamed Road, Rangan Burih, Marikit, Kabupaten Katingan, Kalimantan Tengah 74456","Unnamed Road, Rangan Burih, Marikit, Kabupaten Katingan",KALIMANTAN TENGAH,74456.0,Indonesia, 081251411349,,,-1.187758,112.6891973,https://maps.google.com/?cid=0x0:0x54ec98dfafad4c82,
supermarket,Pusat Perbelanjaan,Warung Bp. Antonius Enton,"X29P+V3H, Desa, Tumbang Kasai, Seruyan Hulu, Kabupaten Seruyan, Kalimantan Tengah 74291","Desa, Tumbang Kasai, Seruyan Hulu, Kabupaten Seruyan",KALIMANTAN TENGAH,74291.0,Indonesia, 081310374494,,,-1.0303198,112.0352295,https://maps.google.com/?cid=0x0:0xe76746457547e305,
supermarket,Toko bahan makanan,Toko Christian,"RM7Q+82, Rangan Burih, Marikit, Kabupaten Katingan, Kalimantan Tengah","Kabupaten Katingan, Kalimantan Tengah",KALIMANTAN TENGAH,,Indonesia,,,,-1.1867447,112.6875488,https://maps.google.com/?cid=0x0:0xb5c665a9ff712309,
supermarket,Toko bahan makanan,Warung rabihana,"RM6V+R7Q, Rangan Burih, Marikit, Kabupaten Katingan, Kalimantan Tengah 74456","Rangan Burih, Marikit, Kabupaten Katingan",KALIMANTAN TENGAH,74456.0,Indonesia,,,,-1.187343,112.693456,https://maps.google.com/?cid=0x0:0x4336f441d1aa0846,
supermarket,supermarket,Warung Mama Dea,"RM5Q+FQM, Rangan Burih, Marikit, Kabupaten Katingan, Kalimantan Tengah","Kabupaten Katingan, Kalimantan Tengah",KALIMANTAN TENGAH,,Indonesia,,,,-1.1912964,112.6894216,https://maps.google.com/?cid=0x0:0x244c82ae8bae3523,
supermarket,supermarket,Cendol duren maribeth,"354R+37W, Tumbang Kajamei, Bukit Raya, Kabupaten Katingan, Kalimantan Tengah 74457","Tumbang Kajamei, Bukit Raya, Kabupaten Katingan",KALIMANTAN TENGAH,74457.0,Indonesia,,,,-0.9447632,112.1907122,https://maps.google.com/?cid=0x0:0x9de265cc21f3235e,
supermarket,Minimarket,TOKO AL,"Jl. Revolusi No.160, Kasongan Lama, Kec. Katingan Hilir, Kabupaten Katingan, Kalimantan Tengah 74413","Kasongan Lama, Kec. Katingan Hilir, Kabupaten Katingan",KALIMANTAN TENGAH,74413.0,Indonesia,,,,-1.9137237,113.3820122,https://maps.google.com/?cid=0x0:0xdd073664137167e6,
supermarket,Toko bahan makanan,Noorhasanah,"P8JQ+3GM, Unnamed Road, Pegatan Hilir, Kec. Katingan Kuala, Kabupaten Katingan, Kalimantan Tengah 74463","Unnamed Road, Pegatan Hilir, Kec. Katingan Kuala, Kabupaten Katingan",KALIMANTAN TENGAH,74463.0,Indonesia,,,,-3.2697885,113.338797,https://maps.google.com/?cid=0x0:0xed29ca25244e153f,
supermarket,supermarket,Kalimantan Tengah 74463,"Kabupaten Katingan, Kalimantan Tengah","Kabupaten Katingan, Kalimantan Tengah",KALIMANTAN TENGAH,,Indonesia,,,,-2.9195423,113.287085,https://maps.google.com/?cid=0x0:0x667e7a72fdeb8e94,
supermarket,Kios,Kios Kapten Hong Samsudin,"P8HQ+XPF, Pegatan Hilir, Kec. Katingan Kuala, Kabupaten Katingan, Kalimantan Tengah 74463","Pegatan Hilir, Kec. Katingan Kuala, Kabupaten Katingan",KALIMANTAN TENGAH,74463.0,Indonesia, 085849881136,,,-3.2700673,113.3392957,https://maps.google.com/?cid=0x0:0xdd79fda91862e855,
supermarket,Toko bahan makanan,Kios Dua Warna 02,"R856+3R3, Kp. Tengah, Kec. Katingan Kuala, Kabupaten Katingan, Kalimantan Tengah 74463","Kp. Tengah, Kec. Katingan Kuala, Kabupaten Katingan",KALIMANTAN TENGAH,74463.0,Indonesia, 081351887628,,,-3.1923741,113.3120535,https://maps.google.com/?cid=0x0:0x9023a0baa7683eaa,
supermarket,Pusat Perbelanjaan,Pasar Katingan 2,"W7GJ+4QH, Bangun Jaya, Kec. Katingan Kuala, Kabupaten Katingan, Kalimantan Tengah 74463","Bangun Jaya, Kec. Katingan Kuala, Kabupaten Katingan",KALIMANTAN TENGAH,74463.0,Indonesia,,,,-3.074684,113.2819783,https://maps.google.com/?cid=0x0:0x3bb10d5e63a66218,
supermarket,Toko bahan makanan,Kios Kherin,"R865+RV, Pegatan Hulu, Kec. Katingan Kuala, Kabupaten Katingan, Kalimantan Tengah 74463","Pegatan Hulu, Kec. Katingan Kuala, Kabupaten Katingan",KALIMANTAN TENGAH,74463.0,Indonesia, 085828614687,,,-3.1879375,113.3096875,https://maps.google.com/?cid=0x0:0xd110620792c48993,
supermarket,Toko umum,Kios Nida,"Pegatan hulu, Jl. Pelita, Pegatan Hilir, Kec. Katingan Kuala, Kabupaten Katingan, Kalimantan Tengah 74463","Jl. Pelita, Pegatan Hilir, Kec. Katingan Kuala, Kabupaten Katingan",KALIMANTAN TENGAH,74463.0,Indonesia, 082152656779,,,-3.2668788,113.3368612,https://maps.google.com/?cid=0x0:0xa79ffd9ef180c4af,
supermarket,Toko umum,Warung memet,"Jl. Pelita No.45, Pagatan Hulu, Kec. Katingan Kuala, Kabupaten Katingan, Kalimantan Tengah 74463","Pagatan Hulu, Kec. Katingan Kuala, Kabupaten Katingan",KALIMANTAN TENGAH,74463.0,Indonesia,,,,-3.2687836,113.3373256,https://maps.google.com/?cid=0x0:0xdbe0e16a1ecc87be,
supermarket,Pertanian,Toko Obat Pertanian Jaya Makmur,"R942+H5G, Pegatan Hilir, Kec. Katingan Kuala, Kabupaten Katingan, Kalimantan Tengah 74463","Pegatan Hilir, Kec. Katingan Kuala, Kabupaten Katingan",KALIMANTAN TENGAH,74463.0,Indonesia,,,,-3.1935635,113.3504678,https://maps.google.com/?cid=0x0:0x57a35a9f4c0801b5,
supermarket,Pasar,Pasar Mendawai,"2759+C6G, Unnamed Road, Mendawai, Kec. Mendawai, Kabupaten Katingan, Kalimantan Tengah 74463","Unnamed Road, Mendawai, Kec. Mendawai, Kabupaten Katingan",KALIMANTAN TENGAH,74463.0,Indonesia,,,,-2.9914347,113.2680675,https://maps.google.com/?cid=0x0:0xa22398a70e9c0f25,
supermarket,Toko bahan makanan,Kios Dua Warna Iman Rhiskia 01,"R847+XFQ, Kampung Tengah, Katingan Kuala, Katingan Regency, Central Kalimantan 74463","Kampung Tengah, Katingan Kuala, Katingan Regency",KALIMANTAN TENGAH,74463.0,Indonesia, 081351887628,,,-3.1925288,113.313748,https://maps.google.com/?cid=0x0:0xf2538e537e5ae293,
supermarket,Makanan Kecil,Warung Acil imul,"X778+G45, Setia Mulia, Kec. Katingan Kuala, Kabupaten Katingan, Kalimantan Tengah","Kabupaten Katingan, Kalimantan Tengah",KALIMANTAN TENGAH,,Indonesia,,,,-3.0362407,113.2653704,https://maps.google.com/?cid=0x0:0x365c705667fa9240,
supermarket,Toko,Nurfahriani,"V89F+C48, RT.02/RW.01, Kp. Keramat, Kec. Katingan Kuala, Kabupaten Katingan, Kalimantan Tengah 74463","RT.02/RW.01, Kp. Keramat, Kec. Katingan Kuala, Kabupaten Katingan",KALIMANTAN TENGAH,74463.0,Indonesia,,,,-3.1314507,113.3228127,https://maps.google.com/?cid=0x0:0xeb3e1cedf77d5b73,
supermarket,Toko bahan makanan,Warung mbak Tri,"Tlk. Sebulu, Kec. Mendawai, Kabupaten Katingan, Kalimantan Tengah 74463","Kec. Mendawai, Kabupaten Katingan",KALIMANTAN TENGAH,74463.0,Indonesia, 085348177715,,,-3.0330778,113.2671255,https://maps.google.com/?cid=0x0:0x42ee5fd679faa0eb,
supermarket,Toko bahan makanan,Warung Embah Ruslan,"R84V+7J5, RT.011/RW.003, Jaya Makmur, Kec. Katingan Kuala, Kabupaten Katingan, Kalimantan Tengah","Kabupaten Katingan, Kalimantan Tengah",KALIMANTAN TENGAH,,Indonesia,,,,-3.1943676,113.3441207,https://maps.google.com/?cid=0x0:0xbbcca46c40848f1d,
supermarket,supermarket,Home industry,"P8QM+9HH, Pegatan Hulu, Kec. Katingan Kuala, Kabupaten Katingan, Kalimantan Tengah","Kabupaten Katingan, Kalimantan Tengah",KALIMANTAN TENGAH,,Indonesia,,,,-3.2615501,113.3339796,https://maps.google.com/?cid=0x0:0x67c77e31416141ca,
supermarket,Kios,Kios Muhammad Taha,"X778+72, Tlk. Sebulu, Kec. Mendawai, Kabupaten Katingan, Kalimantan Tengah 74463","Tlk. Sebulu, Kec. Mendawai, Kabupaten Katingan",KALIMANTAN TENGAH,74463.0,Indonesia,,,,-3.0369762,113.2652597,https://maps.google.com/?cid=0x0:0x6e2586aec50d2bcf,
supermarket,supermarket,Kalimantan Tengah 74454,Kalimantan Tengah,Kalimantan Tengah,KALIMANTAN TENGAH,,Indonesia,,,,-1.4341471,113.1441558,https://maps.google.com/?cid=0x0:0x4b759053d82a4f96,
supermarket,Toko Swalayan,Ysm Mart,"Samba Danum, Kec. Katingan Tengah, Kabupaten Katingan, Kalimantan Tengah 74454","Kec. Katingan Tengah, Kabupaten Katingan",KALIMANTAN TENGAH,74454.0,Indonesia,,,,-1.4507482,113.0956301,https://maps.google.com/?cid=0x0:0x1a10829d810242e8,
supermarket,Toko Swalayan,Toko Sari,"H472+R2G, Jl. H. Ikap, Samba Katung, Kec. Katingan Tengah, Kabupaten Katingan, Kalimantan Tengah 74454","Jl. H. Ikap, Samba Katung, Kec. Katingan Tengah, Kabupaten Katingan",KALIMANTAN TENGAH,74454.0,Indonesia,,,,-1.4354285,113.1000814,https://maps.google.com/?cid=0x0:0x304ea0c04d25f0a7,
supermarket,Toko Swalayan,Toko Mama Sarin,"Jl.Minun Deheh No.69 RT.3 Samba Danum, Kecmatan Katingan Tengah, Kabupaten Katingan, Samba Danum, Kec. Katingan Tengah, Tumbang Samba, Kalimantan Tengah 74454","Kecmatan Katingan Tengah, Kabupaten Katingan, Samba Danum, Kec. Katingan Tengah, Tumbang Samba",KALIMANTAN TENGAH,74454.0,Indonesia, 085752361944,,,-1.4560268,113.0960512,https://maps.google.com/?cid=0x0:0x3d7e47f23e9e37c,
supermarket,Toko Swalayan,Nyam Nyam Frozen Food,"Tumbang Samba Dekat Mesjid Suhada, Jl. Tjilik Riwut, Samba Danum, Kec. Katingan Tengah, Kabupaten Katingan, Kalimantan Tengah","Kabupaten Katingan, Kalimantan Tengah",KALIMANTAN TENGAH,,Indonesia, 082231123538,,,-1.4526032,113.0963721,https://maps.google.com/?cid=0x0:0x60c00ceea57760e5,
supermarket,Minimarket,Toko Rani sembako,"H32V+6P5, Samba Danum, Kec. Katingan Tengah, Kabupaten Katingan, Kalimantan Tengah 74454","Samba Danum, Kec. Katingan Tengah, Kabupaten Katingan",KALIMANTAN TENGAH,74454.0,Indonesia, 085216855882,,,-1.4494957,113.0943556,https://maps.google.com/?cid=0x0:0x666a807200b29032,
supermarket,Toko bahan makanan,Toko:H. UTUH. BA'AN,"G3XW+WHW, Jl. Merdeka, Samba Danum, Kec. Katingan Tengah, Kabupaten Katingan, Kalimantan Tengah 74454","Jl. Merdeka, Samba Danum, Kec. Katingan Tengah, Kabupaten Katingan",KALIMANTAN TENGAH,74454.0,Indonesia, 082157909111,,,-1.4501392,113.0964538,https://maps.google.com/?cid=0x0:0xfc62addf3985178d,
supermarket,Toko Swalayan,Toko Zaini Sembako,"H4F2+864, Samba Katung, Kec. Katingan Tengah, Kabupaten Katingan, Kalimantan Tengah 74454","Samba Katung, Kec. Katingan Tengah, Kabupaten Katingan",KALIMANTAN TENGAH,74454.0,Indonesia, 081251489376,,,-1.4267475,113.1005788,https://maps.google.com/?cid=0x0:0xc08a2c6a45a8f6d,
supermarket,Toko Beras,Rizky Mart,"JL BUNGAI RT07 RW 2 KASONGAN LAMA, Kasongan Lama, Kec. Katingan Hilir, Kabupaten Katingan, Kalimantan Tengah 74413","Kasongan Lama, Kec. Katingan Hilir, Kabupaten Katingan",KALIMANTAN TENGAH,74413.0,Indonesia, 081352748239,,,-1.9119511,113.3856255,https://maps.google.com/?cid=0x0:0x5709773761ca79d7,
supermarket,Toko umum,TOKO AYU KOSMETIK,"samping rujab camat, Jl. Merdeka, Samba Danum, Kec. Katingan Tengah, Kabupaten Katingan, Kalimantan Tengah 74454","Jl. Merdeka, Samba Danum, Kec. Katingan Tengah, Kabupaten Katingan",KALIMANTAN TENGAH,74454.0,Indonesia, 081256437730,,,-1.4509794,113.0958565,https://maps.google.com/?cid=0x0:0xa8db4804a335ab62,
supermarket,Toko,Toko Sembako BMT Tumbang Samba,"G3RV+P8C, Jl. Minun Dehen, Samba Danum, Kec. Katingan Tengah, Kabupaten Katingan, Kalimantan Tengah 74454","Jl. Minun Dehen, Samba Danum, Kec. Katingan Tengah, Kabupaten Katingan",KALIMANTAN TENGAH,74454.0,Indonesia,,,,-1.4581931,113.0932587,https://maps.google.com/?cid=0x0:0x104b26ca9c92254,
supermarket,Toko Swalayan,Toko Mama Sarin 2,"Simpang 3 Jalan Lintas Kabupaten Desa Samba Katung, Tumbang Samba, Kecamatan Jaringan Tengah, Kabupaten Katingan, Kalimantan Tengah 74454","Tumbang Samba, Kecamatan Jaringan Tengah, Kabupaten Katingan",KALIMANTAN TENGAH,74454.0,Indonesia, 085820824586,,,-1.429339,113.1003852,https://maps.google.com/?cid=0x0:0xe44f4f33524ba17,
supermarket,supermarket,Toko Raghib Samba Katung RT 03 RW 01,"H462+R49, Samba Katung, Kec. Katingan Tengah, Kabupaten Katingan, Kalimantan Tengah 74454","Samba Katung, Kec. Katingan Tengah, Kabupaten Katingan",KALIMANTAN TENGAH,74454.0,Indonesia,,,,-1.4379195,113.1003676,https://maps.google.com/?cid=0x0:0x5354496b31a8c874,
supermarket,Minimarket,TOKO AL,"Jl. Revolusi No.160, Kasongan Lama, Kec. Katingan Hilir, Kabupaten Katingan, Kalimantan Tengah 74413","Kasongan Lama, Kec. Katingan Hilir, Kabupaten Katingan",KALIMANTAN TENGAH,74413.0,Indonesia,,,,-1.9137237,113.3820122,https://maps.google.com/?cid=0x0:0xdd073664137167e6,
supermarket,Toko bahan makanan,Toko Mamah Ragil,"Jl. Pembangunan No.40, Hampalit, Kec. Katingan Hilir, Kabupaten Katingan, Kalimantan Tengah 74413","Hampalit, Kec. Katingan Hilir, Kabupaten Katingan",KALIMANTAN TENGAH,74413.0,Indonesia,,,,-1.8977352,113.2973014,https://maps.google.com/?cid=0x0:0xc6064d8b391d7eb,
supermarket,Toko bahan makanan,Toko IMELDA,"RM5V+QC8, Tumbang Hiran, Marikit, Kabupaten Katingan, Kalimantan Tengah 74456","Tumbang Hiran, Marikit, Kabupaten Katingan",KALIMANTAN TENGAH,74456.0,Indonesia,,,,-1.1905988,112.693578,https://maps.google.com/?cid=0x0:0x675ed4a20d61ac37,
supermarket,Kios,Kios sembako yusbi / bp selsi,"4832+MW, Hampalit, Kec. Katingan Hilir, Kabupaten Katingan, Kalimantan Tengah 74413","Hampalit, Kec. Katingan Hilir, Kabupaten Katingan",KALIMANTAN TENGAH,74413.0,Indonesia,,,,-1.8958662,113.3022817,https://maps.google.com/?cid=0x0:0x70cadcdceb4d0669,
supermarket,Bengkel Sepeda Motor,Bengkel Nella Motor Samba danum,"HX73+GCF, Tumbang Kalamei, Kec. Katingan Tengah, Kabupaten Katingan, Kalimantan Tengah 74454","Tumbang Kalamei, Kec. Katingan Tengah, Kabupaten Katingan",KALIMANTAN TENGAH,74454.0,Indonesia, 082156421444,,,-1.4361777,112.9535409,https://maps.google.com/?cid=0x0:0xb01306f5e40be5a8,
supermarket,Toko bahan makanan,UD Mutiara,"Jl. Durian V No 77, Kasongan Lama, Katingan Hilir, Katingan Regency, Central Kalimantan 74413","Kasongan Lama, Katingan Hilir, Katingan Regency",KALIMANTAN TENGAH,74413.0,Indonesia,,,,-1.8855921,113.4228184,https://maps.google.com/?cid=0x0:0x8565e904373bd36c,
supermarket,Toko Swalayan,Toko Ramafa Jaya,"Tumbang Samba, Samba Danum, Kec. Katingan Tengah, Kabupaten Katingan, Kalimantan Tengah 74454","Samba Danum, Kec. Katingan Tengah, Kabupaten Katingan",KALIMANTAN TENGAH,74454.0,Indonesia,,,,-1.4489365,113.0943701,https://maps.google.com/?cid=0x0:0x5cb4e21ace55a06a,
supermarket,Toko Elektronik,Ahmad Aldi Syahputra,"G4H5+4CW, Telok, Kec. Katingan Tengah, Kabupaten Katingan, Kalimantan Tengah 74454","Telok, Kec. Katingan Tengah, Kabupaten Katingan",KALIMANTAN TENGAH,74454.0,Indonesia, 082220129579,,,-1.472149,113.1085935,https://maps.google.com/?cid=0x0:0x3a87eb9531b8e5e,
supermarket,Pusat Perbelanjaan,Toko NABILA,"G3WW+2R5, Jl. Minun Dehen, Samba Danum, Kec. Katingan Tengah, Kabupaten Katingan, Kalimantan Tengah 74454","Jl. Minun Dehen, Samba Danum, Kec. Katingan Tengah, Kabupaten Katingan",KALIMANTAN TENGAH,74454.0,Indonesia, 085348016034,,,-1.4549977,113.0971144,https://maps.google.com/?cid=0x0:0xba3835fb832b11b,
supermarket,,Toko Alfarizky,"G4Q2+4RV, Tumbang Samba, Samba Danum, Kec. Katingan Tengah, Kabupaten Katingan, Kalimantan Tengah 74454","Tumbang Samba, Samba Danum, Kec. Katingan Tengah, Kabupaten Katingan",KALIMANTAN TENGAH,74454.0,Indonesia,,,,-1.4621303,113.1020463,https://maps.google.com/?cid=0x0:0x7fba10d0f2a0af0d,
supermarket,supermarket,Niki riandie,"HXV8+QV, Tumbang Kalamei, Kec. Katingan Tengah, Kabupaten Katingan, Kalimantan Tengah","Kabupaten Katingan, Kalimantan Tengah",KALIMANTAN TENGAH,,Indonesia,,,,-1.405507,112.967131,https://maps.google.com/?cid=0x0:0x1618c2a6e92c2e5e,
supermarket,Pusat Perbelanjaan,Kios Azzam,"F3G7+7H, Tewang Panjang, Kec. Katingan Tengah, Kabupaten Katingan, Kalimantan Tengah","Kabupaten Katingan, Kalimantan Tengah",KALIMANTAN TENGAH,,Indonesia, 081250292866,,,-1.5243003,113.0638952,https://maps.google.com/?cid=0x0:0x3ed90ac09f1b4158,
supermarket,Toko Makanan,Warung Nene Latifa,"H3JG+M96, Napu Sahur, Kec. Katingan Tengah, Kabupaten Katingan, Kalimantan Tengah 74454","Napu Sahur, Kec. Katingan Tengah, Kabupaten Katingan",KALIMANTAN TENGAH,74454.0,Indonesia,,,,-1.4197193,113.0756255,https://maps.google.com/?cid=0x0:0x4c4def7d3be5b66f,
supermarket,supermarket,Toko sayur,"RT.01, Jl. Merdeka No.23, Samba Danum, Kec. Katingan Tengah, Kabupaten Katingan, Kalimantan Tengah 74454","Jl. Merdeka No.23, Samba Danum, Kec. Katingan Tengah, Kabupaten Katingan",KALIMANTAN TENGAH,74454.0,Indonesia,,,,-1.4516215,113.0964893,https://maps.google.com/?cid=0x0:0x7e0b28af0486b68d,
supermarket,Toko bahan makanan,Toko IMELDA,"RM5V+QC8, Tumbang Hiran, Marikit, Kabupaten Katingan, Kalimantan Tengah 74456","Tumbang Hiran, Marikit, Kabupaten Katingan",KALIMANTAN TENGAH,74456.0,Indonesia,,,,-1.1905988,112.693578,https://maps.google.com/?cid=0x0:0x675ed4a20d61ac37,
supermarket,supermarket,Kalimantan Tengah 74456,"Kabupaten Katingan, Kalimantan Tengah","Kabupaten Katingan, Kalimantan Tengah",KALIMANTAN TENGAH,,Indonesia,,,,-0.941524,112.6675398,https://maps.google.com/?cid=0x0:0xe4ef994f6c6adcfe,
supermarket,supermarket,Toko Maryati,"Jl. Alur Laut No.6, RT.6/RW.3, Rawabadak Sel., Kec. Koja, Jkt Utara, Daerah Khusus Ibukota Jakarta 14230","RT.6/RW.3, Rawabadak Sel., Kec. Koja, Jkt Utara",KALIMANTAN TENGAH,14230.0,Indonesia,,,,-6.1279087,106.8992792,https://maps.google.com/?cid=0x0:0xb772d28dcda0e67a,
supermarket,supermarket,Mendawai,"Tlk. Sebulu, Kec. Mendawai, Kabupaten Katingan, Kalimantan Tengah","Kabupaten Katingan, Kalimantan Tengah",KALIMANTAN TENGAH,,Indonesia,,,,-3.013896,113.2584,https://maps.google.com/?cid=0x0:0x44f7d29229cbfb62,
supermarket,Pasar,Pasar Mendawai,"2759+C6G, Unnamed Road, Mendawai, Kec. Mendawai, Kabupaten Katingan, Kalimantan Tengah 74463","Unnamed Road, Mendawai, Kec. Mendawai, Kabupaten Katingan",KALIMANTAN TENGAH,74463.0,Indonesia,,,,-2.9914347,113.2680675,https://maps.google.com/?cid=0x0:0xa22398a70e9c0f25,
supermarket,supermarket,BUMDES MENDAWAI MANDIRI,"2759+G6W, Mendawai, Kec. Mendawai, Kabupaten Katingan, Kalimantan Tengah 74463","Mendawai, Kec. Mendawai, Kabupaten Katingan",KALIMANTAN TENGAH,74463.0,Indonesia,,,,-2.9911491,113.2680902,https://maps.google.com/?cid=0x0:0x8657e83bfa3d2734,
supermarket,Toko,Toko Ayunita,"XXHH+VJ, Tumbang Jala, Petak Malai, Kabupaten Katingan, Kalimantan Tengah","Kabupaten Katingan, Kalimantan Tengah",KALIMANTAN TENGAH,,Indonesia, 081251525311,,,-1.0203225,112.9791262,https://maps.google.com/?cid=0x0:0x8cf0f221ad28de2d,
supermarket,Toko Swalayan,Toko Mbah Puji  Mbah Sri,"M3GW+5H, Tumbang Kaman, Kec. Sanaman Mantikei, Kabupaten Katingan, Kalimantan Tengah 74455","Tumbang Kaman, Kec. Sanaman Mantikei, Kabupaten Katingan",KALIMANTAN TENGAH,74455.0,Indonesia, 081250749658,,,-1.324546,113.09639,https://maps.google.com/?cid=0x0:0xa9b1d84eba4155b9,
supermarket,supermarket,Kalimantan Tengah 74455,"Kabupaten Katingan, Kalimantan Tengah","Kabupaten Katingan, Kalimantan Tengah",KALIMANTAN TENGAH,,Indonesia,,,,-0.9046398,112.9058802,https://maps.google.com/?cid=0x0:0x104255e14ad2f30a,
supermarket,Toko Swalayan,Toko Mama Sarin,"Jl.Minun Deheh No.69 RT.3 Samba Danum, Kecmatan Katingan Tengah, Kabupaten Katingan, Samba Danum, Kec. Katingan Tengah, Tumbang Samba, Kalimantan Tengah 74454","Kecmatan Katingan Tengah, Kabupaten Katingan, Samba Danum, Kec. Katingan Tengah, Tumbang Samba",KALIMANTAN TENGAH,74454.0,Indonesia, 085752361944,,,-1.4560268,113.0960512,https://maps.google.com/?cid=0x0:0x3d7e47f23e9e37c,
supermarket,Sekolah Dasar,SMAN 1 PETAK MALAI,"W2WP+CP5, Jl. Pelajar, Tumbang Baraoi, Petak Malai, Kabupaten Katingan, Kalimantan Tengah","Kabupaten Katingan, Kalimantan Tengah",KALIMANTAN TENGAH,,Indonesia,,,,-1.0539961,113.036872,https://maps.google.com/?cid=0x0:0xc1508a74b9d797cc,
supermarket,Toko Swalayan,Toko Sari,"H472+R2G, Jl. H. Ikap, Samba Katung, Kec. Katingan Tengah, Kabupaten Katingan, Kalimantan Tengah 74454","Jl. H. Ikap, Samba Katung, Kec. Katingan Tengah, Kabupaten Katingan",KALIMANTAN TENGAH,74454.0,Indonesia,,,,-1.4354285,113.1000814,https://maps.google.com/?cid=0x0:0x304ea0c04d25f0a7,
supermarket,Toko Swalayan,Ysm Mart,"Samba Danum, Kec. Katingan Tengah, Kabupaten Katingan, Kalimantan Tengah 74454","Kec. Katingan Tengah, Kabupaten Katingan",KALIMANTAN TENGAH,74454.0,Indonesia,,,,-1.4507482,113.0956301,https://maps.google.com/?cid=0x0:0x1a10829d810242e8,
supermarket,Toko Swalayan,Nyam Nyam Frozen Food,"Tumbang Samba Dekat Mesjid Suhada, Jl. Tjilik Riwut, Samba Danum, Kec. Katingan Tengah, Kabupaten Katingan, Kalimantan Tengah","Kabupaten Katingan, Kalimantan Tengah",KALIMANTAN TENGAH,,Indonesia, 082231123538,,,-1.4526032,113.0963721,https://maps.google.com/?cid=0x0:0x60c00ceea57760e5,
supermarket,Toko Swalayan,Toko Mama Sarin 2,"Simpang 3 Jalan Lintas Kabupaten Desa Samba Katung, Tumbang Samba, Kecamatan Jaringan Tengah, Kabupaten Katingan, Kalimantan Tengah 74454","Tumbang Samba, Kecamatan Jaringan Tengah, Kabupaten Katingan",KALIMANTAN TENGAH,74454.0,Indonesia, 085820824586,,,-1.429339,113.1003852,https://maps.google.com/?cid=0x0:0xe44f4f33524ba17,
supermarket,Toko,TOKO RAHMI,"G3XW+6G7, Samba Danum, Kec. Katingan Tengah, Kabupaten Katingan, Kalimantan Tengah 74454","Samba Danum, Kec. Katingan Tengah, Kabupaten Katingan",KALIMANTAN TENGAH,74454.0,Indonesia, 081244657074,,,-1.4519717,113.0963088,https://maps.google.com/?cid=0x0:0xdc01796fff210c4f,
supermarket,Toko,Toko Sembako BMT Tumbang Samba,"G3RV+P8C, Jl. Minun Dehen, Samba Danum, Kec. Katingan Tengah, Kabupaten Katingan, Kalimantan Tengah 74454","Jl. Minun Dehen, Samba Danum, Kec. Katingan Tengah, Kabupaten Katingan",KALIMANTAN TENGAH,74454.0,Indonesia,,,,-1.4581931,113.0932587,https://maps.google.com/?cid=0x0:0x104b26ca9c92254,
supermarket,Minimarket,Toko Rani sembako,"H32V+6P5, Samba Danum, Kec. Katingan Tengah, Kabupaten Katingan, Kalimantan Tengah 74454","Samba Danum, Kec. Katingan Tengah, Kabupaten Katingan",KALIMANTAN TENGAH,74454.0,Indonesia, 085216855882,,,-1.4494957,113.0943556,https://maps.google.com/?cid=0x0:0x666a807200b29032,
supermarket,Toko Swalayan,Toko Zaini Sembako,"H4F2+864, Samba Katung, Kec. Katingan Tengah, Kabupaten Katingan, Kalimantan Tengah 74454","Samba Katung, Kec. Katingan Tengah, Kabupaten Katingan",KALIMANTAN TENGAH,74454.0,Indonesia, 081251489376,,,-1.4267475,113.1005788,https://maps.google.com/?cid=0x0:0xc08a2c6a45a8f6d,
supermarket,Toko bahan makanan,Toko IMELDA,"RM5V+QC8, Tumbang Hiran, Marikit, Kabupaten Katingan, Kalimantan Tengah 74456","Tumbang Hiran, Marikit, Kabupaten Katingan",KALIMANTAN TENGAH,74456.0,Indonesia,,,,-1.1905988,112.693578,https://maps.google.com/?cid=0x0:0x675ed4a20d61ac37,
supermarket,Toko bahan makanan,Toko:H. UTUH. BA'AN,"G3XW+WHW, Jl. Merdeka, Samba Danum, Kec. Katingan Tengah, Kabupaten Katingan, Kalimantan Tengah 74454","Jl. Merdeka, Samba Danum, Kec. Katingan Tengah, Kabupaten Katingan",KALIMANTAN TENGAH,74454.0,Indonesia, 082157909111,,,-1.4501392,113.0964538,https://maps.google.com/?cid=0x0:0xfc62addf3985178d,
supermarket,Toko umum,TOKO AYU KOSMETIK,"samping rujab camat, Jl. Merdeka, Samba Danum, Kec. Katingan Tengah, Kabupaten Katingan, Kalimantan Tengah 74454","Jl. Merdeka, Samba Danum, Kec. Katingan Tengah, Kabupaten Katingan",KALIMANTAN TENGAH,74454.0,Indonesia, 081256437730,,,-1.4509794,113.0958565,https://maps.google.com/?cid=0x0:0xa8db4804a335ab62,
supermarket,Pusat Perbelanjaan,Toko Sejahtera,"Jl. HM Saleh No.139, RT.003/RW.001, Menukung Kota, Kec. Menukung, Kabupaten Melawi, Kalimantan Barat","Kabupaten Melawi, Kalimantan Barat",KALIMANTAN TENGAH,,Indonesia,,,,-0.4079819,112.2503239,https://maps.google.com/?cid=0x0:0xcb81bcc01bb2190a,
supermarket,supermarket,Toko Raghib Samba Katung RT 03 RW 01,"H462+R49, Samba Katung, Kec. Katingan Tengah, Kabupaten Katingan, Kalimantan Tengah 74454","Samba Katung, Kec. Katingan Tengah, Kabupaten Katingan",KALIMANTAN TENGAH,74454.0,Indonesia,,,,-1.4379195,113.1003676,https://maps.google.com/?cid=0x0:0x5354496b31a8c874,
supermarket,Kantor Perusahaan,RPK Sumber Rejeki Tumbang Kaman,"J3XQ+W8P, Unnamed Road, Tumbang Kaman, Sanaman Mantikei, Katingan Regency, Central Kalimantan 74455","Unnamed Road, Tumbang Kaman, Sanaman Mantikei, Katingan Regency",KALIMANTAN TENGAH,74455.0,Indonesia,,,,-1.3501544,113.0883405,https://maps.google.com/?cid=0x0:0xdd27aabbc005caf,
supermarket,Sarapan,Warung Lili,"Rantau Bangkiang, Kec. Sanaman Mantikei, Kabupaten Katingan, Kalimantan Tengah 74455","Kec. Sanaman Mantikei, Kabupaten Katingan",KALIMANTAN TENGAH,74455.0,Indonesia,,,,-1.3835689,113.0983975,https://maps.google.com/?cid=0x0:0xb9a35ad3673ffe46,
supermarket,supermarket,Madu Klulut Dandel,"M2JP+5QW, Tumbang Manggo, Kec. Sanaman Mantikei, Kabupaten Katingan, Kalimantan Tengah 74455","Tumbang Manggo, Kec. Sanaman Mantikei, Kabupaten Katingan",KALIMANTAN TENGAH,74455.0,Indonesia,,,,-1.3195049,113.0369406,https://maps.google.com/?cid=0x0:0x32b21e396a39eacd,
supermarket,Toko Swalayan,Toko Ramafa Jaya,"Tumbang Samba, Samba Danum, Kec. Katingan Tengah, Kabupaten Katingan, Kalimantan Tengah 74454","Samba Danum, Kec. Katingan Tengah, Kabupaten Katingan",KALIMANTAN TENGAH,74454.0,Indonesia,,,,-1.4489365,113.0943701,https://maps.google.com/?cid=0x0:0x5cb4e21ace55a06a,
supermarket,Brunch,Warung fazril kusuma,"J386+2QJ, Rantau Asem, Kec. Katingan Tengah, Kabupaten Katingan, Kalimantan Tengah 74454","Rantau Asem, Kec. Katingan Tengah, Kabupaten Katingan",KALIMANTAN TENGAH,74454.0,Indonesia,,,,-1.3849216,113.0618832,https://maps.google.com/?cid=0x0:0x6bbc6c605570a03f,
supermarket,Pusat Perbelanjaan,warung Mama Ceng ceng,"M2JP+5QW, Tumbang Manggo, Kec. Sanaman Mantikei, Kabupaten Katingan, Kalimantan Tengah 74455","Tumbang Manggo, Kec. Sanaman Mantikei, Kabupaten Katingan",KALIMANTAN TENGAH,74455.0,Indonesia,,,,-1.3195049,113.0369406,https://maps.google.com/?cid=0x0:0x4b952ebf52ea3263,
supermarket,Toko Perlengkapan Rumah,WARUNG DANANDA,"M3JQ+9PR, Tumbang Manggo, Kec. Sanaman Mantikei, Kabupaten Katingan, Kalimantan Tengah 74455","Tumbang Manggo, Kec. Sanaman Mantikei, Kabupaten Katingan",KALIMANTAN TENGAH,74455.0,Indonesia,,,,-1.3190019,113.0892542,https://maps.google.com/?cid=0x0:0xe57ae66e3446822d,
supermarket,supermarket,Swastike/ maliku baru,"899J+CW5, Tewang Manyangen, Kec. Tewang Sangalang Garing, Kabupaten Katingan, Kalimantan Tengah 74452","Tewang Manyangen, Kec. Tewang Sangalang Garing, Kabupaten Katingan",KALIMANTAN TENGAH,74452.0,Indonesia,,,,-1.6814878,113.3823545,https://maps.google.com/?cid=0x0:0x5ad9ac7838915ae3,
supermarket,supermarket,Kalimantan Tengah 74453,"Kec. Pulau Malan, Kabupaten Katingan, Kalimantan Tengah","Kabupaten Katingan, Kalimantan Tengah",KALIMANTAN TENGAH,,Indonesia,,,,-1.5758863,113.2394452,https://maps.google.com/?cid=0x0:0x9458e30e87579e9,
supermarket,Pusat Perbelanjaan,Chacha anggi,"8795+354, Jl. Kasongan - Tumbang Samba, Buntut Bali, Kec. Pulau Malan, Kabupaten Katingan, Kalimantan Tengah 74453","Jl. Kasongan - Tumbang Samba, Buntut Bali, Kec. Pulau Malan, Kabupaten Katingan",KALIMANTAN TENGAH,74453.0,Indonesia,,,,-1.6823726,113.257952,https://maps.google.com/?cid=0x0:0x98d6ff33d258e7b2,
supermarket,Toko Kue,BRIAN CAKE/KUE,"8795+354, Jl. Kasongan - Tumbang Samba, Buntut Bali, Kec. Pulau Malan, Kabupaten Katingan, Kalimantan Tengah 74453","Jl. Kasongan - Tumbang Samba, Buntut Bali, Kec. Pulau Malan, Kabupaten Katingan",KALIMANTAN TENGAH,74453.0,Indonesia, 082251525754,,,-1.6812211,113.2579775,https://maps.google.com/?cid=0x0:0x6508d10d2cf39453,
supermarket,Toko Swalayan,Nyam Nyam Frozen Food,"Tumbang Samba Dekat Mesjid Suhada, Jl. Tjilik Riwut, Samba Danum, Kec. Katingan Tengah, Kabupaten Katingan, Kalimantan Tengah","Kabupaten Katingan, Kalimantan Tengah",KALIMANTAN TENGAH,,Indonesia, 082231123538,,,-1.4526032,113.0963721,https://maps.google.com/?cid=0x0:0x60c00ceea57760e5,
supermarket,Toko Swalayan,Ysm Mart,"Samba Danum, Kec. Katingan Tengah, Kabupaten Katingan, Kalimantan Tengah 74454","Kec. Katingan Tengah, Kabupaten Katingan",KALIMANTAN TENGAH,74454.0,Indonesia,,,,-1.4507482,113.0956301,https://maps.google.com/?cid=0x0:0x1a10829d810242e8,
supermarket,Toko Swalayan,Toko Mama Sarin,"Jl.Minun Deheh No.69 RT.3 Samba Danum, Kecmatan Katingan Tengah, Kabupaten Katingan, Samba Danum, Kec. Katingan Tengah, Tumbang Samba, Kalimantan Tengah 74454","Kecmatan Katingan Tengah, Kabupaten Katingan, Samba Danum, Kec. Katingan Tengah, Tumbang Samba",KALIMANTAN TENGAH,74454.0,Indonesia, 085752361944,,,-1.4560268,113.0960512,https://maps.google.com/?cid=0x0:0x3d7e47f23e9e37c,
supermarket,Toko bahan makanan,Toko Mamah Ragil,"Jl. Pembangunan No.40, Hampalit, Kec. Katingan Hilir, Kabupaten Katingan, Kalimantan Tengah 74413","Hampalit, Kec. Katingan Hilir, Kabupaten Katingan",KALIMANTAN TENGAH,74413.0,Indonesia,,,,-1.8977352,113.2973014,https://maps.google.com/?cid=0x0:0xc6064d8b391d7eb,
supermarket,Toko Swalayan,Toko Ramafa Jaya,"Tumbang Samba, Samba Danum, Kec. Katingan Tengah, Kabupaten Katingan, Kalimantan Tengah 74454","Samba Danum, Kec. Katingan Tengah, Kabupaten Katingan",KALIMANTAN TENGAH,74454.0,Indonesia,,,,-1.4489365,113.0943701,https://maps.google.com/?cid=0x0:0x5cb4e21ace55a06a,
supermarket,Toko Swalayan,Nyam - Nyam Frozen Mart,"4C77+F2G Kereng Humbang, Kasongan Lama, Kec. Katingan Hilir, Kabupaten Katingan, Kalimantan Tengah 73112","Kasongan Lama, Kec. Katingan Hilir, Kabupaten Katingan",KALIMANTAN TENGAH,73112.0,Indonesia, 082231123538,,,-1.8863059,113.412569,https://maps.google.com/?cid=0x0:0x38cae987ac1e705a,
supermarket,Minimarket,Toko Rani sembako,"H32V+6P5, Samba Danum, Kec. Katingan Tengah, Kabupaten Katingan, Kalimantan Tengah 74454","Samba Danum, Kec. Katingan Tengah, Kabupaten Katingan",KALIMANTAN TENGAH,74454.0,Indonesia, 085216855882,,,-1.4494957,113.0943556,https://maps.google.com/?cid=0x0:0x666a807200b29032,
supermarket,Kios,Kios segala transaksi,"Jl. Pembangunan No.58, Hampalit, Kec. Katingan Hilir, Kabupaten Katingan, Kalimantan Tengah 74413","Hampalit, Kec. Katingan Hilir, Kabupaten Katingan",KALIMANTAN TENGAH,74413.0,Indonesia,,,,-1.9030216,113.295448,https://maps.google.com/?cid=0x0:0x1ef8121a620df33a,
supermarket,Toko,Toko Sembako BMT Tumbang Samba,"G3RV+P8C, Jl. Minun Dehen, Samba Danum, Kec. Katingan Tengah, Kabupaten Katingan, Kalimantan Tengah 74454","Jl. Minun Dehen, Samba Danum, Kec. Katingan Tengah, Kabupaten Katingan",KALIMANTAN TENGAH,74454.0,Indonesia,,,,-1.4581931,113.0932587,https://maps.google.com/?cid=0x0:0x104b26ca9c92254,
supermarket,Minimarket,TOKO AL,"Jl. Revolusi No.160, Kasongan Lama, Kec. Katingan Hilir, Kabupaten Katingan, Kalimantan Tengah 74413","Kasongan Lama, Kec. Katingan Hilir, Kabupaten Katingan",KALIMANTAN TENGAH,74413.0,Indonesia,,,,-1.9137237,113.3820122,https://maps.google.com/?cid=0x0:0xdd073664137167e6,
supermarket,Toko Swalayan,Toko Mama Sarin 2,"Simpang 3 Jalan Lintas Kabupaten Desa Samba Katung, Tumbang Samba, Kecamatan Jaringan Tengah, Kabupaten Katingan, Kalimantan Tengah 74454","Tumbang Samba, Kecamatan Jaringan Tengah, Kabupaten Katingan",KALIMANTAN TENGAH,74454.0,Indonesia, 085820824586,,,-1.429339,113.1003852,https://maps.google.com/?cid=0x0:0xe44f4f33524ba17,
supermarket,Toko umum,Warung mama dani,"54FX+H55, Bangkuang, Kec. Tewang Sangalang Garing, Kabupaten Katingan, Kalimantan Tengah 74452","Bangkuang, Kec. Tewang Sangalang Garing, Kabupaten Katingan",KALIMANTAN TENGAH,74452.0,Indonesia,,,,-1.8261024,113.1479992,https://maps.google.com/?cid=0x0:0x4d8ebc48dd556503,
supermarket,Toko bahan makanan,Toko:H. UTUH. BA'AN,"G3XW+WHW, Jl. Merdeka, Samba Danum, Kec. Katingan Tengah, Kabupaten Katingan, Kalimantan Tengah 74454","Jl. Merdeka, Samba Danum, Kec. Katingan Tengah, Kabupaten Katingan",KALIMANTAN TENGAH,74454.0,Indonesia, 082157909111,,,-1.4501392,113.0964538,https://maps.google.com/?cid=0x0:0xfc62addf3985178d,
supermarket,Kios,Kios sembako yusbi / bp selsi,"4832+MW, Hampalit, Kec. Katingan Hilir, Kabupaten Katingan, Kalimantan Tengah 74413","Hampalit, Kec. Katingan Hilir, Kabupaten Katingan",KALIMANTAN TENGAH,74413.0,Indonesia,,,,-1.8958662,113.3022817,https://maps.google.com/?cid=0x0:0x70cadcdceb4d0669,
supermarket,Toko Elektronik,Ahmad Aldi Syahputra,"G4H5+4CW, Telok, Kec. Katingan Tengah, Kabupaten Katingan, Kalimantan Tengah 74454","Telok, Kec. Katingan Tengah, Kabupaten Katingan",KALIMANTAN TENGAH,74454.0,Indonesia, 082220129579,,,-1.472149,113.1085935,https://maps.google.com/?cid=0x0:0x3a87eb9531b8e5e,
supermarket,Toko Swalayan,Toko Sari,"H472+R2G, Jl. H. Ikap, Samba Katung, Kec. Katingan Tengah, Kabupaten Katingan, Kalimantan Tengah 74454","Jl. H. Ikap, Samba Katung, Kec. Katingan Tengah, Kabupaten Katingan",KALIMANTAN TENGAH,74454.0,Indonesia,,,,-1.4354285,113.1000814,https://maps.google.com/?cid=0x0:0x304ea0c04d25f0a7,
supermarket,supermarket,Kec. Sanaman Mantikei,"Kabupaten Katingan, Kalimantan Tengah","Kabupaten Katingan, Kalimantan Tengah",KALIMANTAN TENGAH,,Indonesia,,,,-1.2216918,113.0488541,https://maps.google.com/?cid=0x0:0x6a00f74436dadede,
supermarket,Minimarket,Toko Ambar,"Jl. UPM No.100, Tumbang Manggo, Kec. Sanaman Mantikei, Kabupaten Katingan, Kalimantan Tengah 74455","Tumbang Manggo, Kec. Sanaman Mantikei, Kabupaten Katingan",KALIMANTAN TENGAH,74455.0,Indonesia, 082156784968,,,-1.3274809,113.091869,https://maps.google.com/?cid=0x0:0x2b68f50066df057d,
supermarket,Toko Swalayan,Toko Mbah Puji  Mbah Sri,"M3GW+5H, Tumbang Kaman, Kec. Sanaman Mantikei, Kabupaten Katingan, Kalimantan Tengah 74455","Tumbang Kaman, Kec. Sanaman Mantikei, Kabupaten Katingan",KALIMANTAN TENGAH,74455.0,Indonesia, 081250749658,,,-1.324546,113.09639,https://maps.google.com/?cid=0x0:0xa9b1d84eba4155b9,
supermarket,Toko Swalayan,Ysm Mart,"Samba Danum, Kec. Katingan Tengah, Kabupaten Katingan, Kalimantan Tengah 74454","Kec. Katingan Tengah, Kabupaten Katingan",KALIMANTAN TENGAH,74454.0,Indonesia,,,,-1.4507482,113.0956301,https://maps.google.com/?cid=0x0:0x1a10829d810242e8,
supermarket,Taman Kanak-kanak,Yayasan Pedidikan Dwima Sanaman Mantikei,"Komplek YPDSM, Tumbang Manggo, Sanaman Mantikei, Katingan Regency, Central Kalimantan 74455","Tumbang Manggo, Sanaman Mantikei, Katingan Regency",KALIMANTAN TENGAH,74455.0,Indonesia,,,,-1.3196025,113.0930461,https://maps.google.com/?cid=0x0:0x26307bdd9c2a572e,
supermarket,Toko Swalayan,Toko Mama Sarin 2,"Simpang 3 Jalan Lintas Kabupaten Desa Samba Katung, Tumbang Samba, Kecamatan Jaringan Tengah, Kabupaten Katingan, Kalimantan Tengah 74454","Tumbang Samba, Kecamatan Jaringan Tengah, Kabupaten Katingan",KALIMANTAN TENGAH,74454.0,Indonesia, 085820824586,,,-1.429339,113.1003852,https://maps.google.com/?cid=0x0:0xe44f4f33524ba17,
supermarket,supermarket,Kantining,"M3RQ+9J6, Tumbang Manggo, Kec. Sanaman Mantikei, Kabupaten Katingan, Kalimantan Tengah 74455","Tumbang Manggo, Kec. Sanaman Mantikei, Kabupaten Katingan",KALIMANTAN TENGAH,74455.0,Indonesia,,,,-1.309081,113.0890255,https://maps.google.com/?cid=0x0:0xd2b3aae52249487a,
supermarket,supermarket,Kalimantan Tengah 74461,"Kabupaten Katingan, Kalimantan Tengah","Kabupaten Katingan, Kalimantan Tengah",KALIMANTAN TENGAH,,Indonesia,,,,-2.0043768,113.429984,https://maps.google.com/?cid=0x0:0xa5ce32c024942d72,
supermarket,Toko Swalayan,Warung Sembako Bu Yuni,"VCPX+Q9F, Hiyang Bana, Kec. Tasik Payawan, Kabupaten Katingan, Kalimantan Tengah 74461","Hiyang Bana, Kec. Tasik Payawan, Kabupaten Katingan",KALIMANTAN TENGAH,74461.0,Indonesia, 082250617634,,,-2.113065,113.448435,https://maps.google.com/?cid=0x0:0xa58c4a4f4a8bdacb,
supermarket,Toko Beras,Rizky Mart,"JL BUNGAI RT07 RW 2 KASONGAN LAMA, Kasongan Lama, Kec. Katingan Hilir, Kabupaten Katingan, Kalimantan Tengah 74413","Kasongan Lama, Kec. Katingan Hilir, Kabupaten Katingan",KALIMANTAN TENGAH,74413.0,Indonesia, 081352748239,,,-1.9119511,113.3856255,https://maps.google.com/?cid=0x0:0x5709773761ca79d7,
supermarket,Toko bahan makanan,toko adawiyah,"39QP+57W, Unnamed Road, Kasongan Lama, Katingan Hilir, Katingan Regency, Central Kalimantan 74413","Unnamed Road, Kasongan Lama, Katingan Hilir, Katingan Regency",KALIMANTAN TENGAH,74413.0,Indonesia,,,,-1.912007,113.385716,https://maps.google.com/?cid=0x0:0x488febdfb624b179,
supermarket,Toko bahan makanan,TOKO AZILLA PUTRI 02,"WFG2+CC8, Hiyang Bana, Kec. Tasik Payawan, Kabupaten Katingan, Kalimantan Tengah 74461","Hiyang Bana, Kec. Tasik Payawan, Kabupaten Katingan",KALIMANTAN TENGAH,74461.0,Indonesia,,,,-2.0739076,113.4512327,https://maps.google.com/?cid=0x0:0xac4f9c2da82a3860,
supermarket,Toko bahan makanan,Rahman Tono,"399M+892, Jl. Kasongan, Tumbang Liting, Kec. Katingan Hilir, Kabupaten Katingan, Kalimantan Tengah 74461","Jl. Kasongan, Tumbang Liting, Kec. Katingan Hilir, Kabupaten Katingan",KALIMANTAN TENGAH,74461.0,Indonesia,,,,-1.931729,113.383391,https://maps.google.com/?cid=0x0:0x685981c7359fe7ed,
supermarket,Toko umum,Warung sembako,"QFVP+74V, Asem Kumbang, Kec. Kamipang, Kabupaten Katingan, Kalimantan Tengah 74462","Asem Kumbang, Kec. Kamipang, Kabupaten Katingan",KALIMANTAN TENGAH,74462.0,Indonesia,,,,-2.2067696,113.48529,https://maps.google.com/?cid=0x0:0xe853fc55a257c203,
supermarket,supermarket,Kalimantan Tengah 74452,"Kec. Tewang Sangalang Garing, Kabupaten Katingan, Kalimantan Tengah","Kabupaten Katingan, Kalimantan Tengah",KALIMANTAN TENGAH,,Indonesia,,,,-1.7909926,113.2394452,https://maps.google.com/?cid=0x0:0x28726fa62e11e1de,
supermarket,Pertanian,Toko Pertanian,"Jl. Soekarno Hatta Jl. Kasongan No.KM 22, Tarusan Danum, Kec. Tewang Sangalang Garing, Kabupaten Katingan, Kalimantan Tengah 74452","Tarusan Danum, Kec. Tewang Sangalang Garing, Kabupaten Katingan",KALIMANTAN TENGAH,74452.0,Indonesia, 081255617677,,,-1.7641522,113.3404673,https://maps.google.com/?cid=0x0:0xbdd13cf612871a75,
supermarket,Perhimpunan Pengembang Perumahan,Garing,"7975+QCF, Pendahara, Kec. Tewang Sangalang Garing, Kabupaten Katingan, Kalimantan Tengah 74452","Pendahara, Kec. Tewang Sangalang Garing, Kabupaten Katingan",KALIMANTAN TENGAH,74452.0,Indonesia,,,,-1.7355544,113.3585384,https://maps.google.com/?cid=0x0:0xffdf37f41ec8ebe7,
supermarket,Kios,Kios segala transaksi,"Jl. Pembangunan No.58, Hampalit, Kec. Katingan Hilir, Kabupaten Katingan, Kalimantan Tengah 74413","Hampalit, Kec. Katingan Hilir, Kabupaten Katingan",KALIMANTAN TENGAH,74413.0,Indonesia,,,,-1.9030216,113.295448,https://maps.google.com/?cid=0x0:0x1ef8121a620df33a,
supermarket,Toko bahan makanan,Toko Mamah Ragil,"Jl. Pembangunan No.40, Hampalit, Kec. Katingan Hilir, Kabupaten Katingan, Kalimantan Tengah 74413","Hampalit, Kec. Katingan Hilir, Kabupaten Katingan",KALIMANTAN TENGAH,74413.0,Indonesia,,,,-1.8977352,113.2973014,https://maps.google.com/?cid=0x0:0xc6064d8b391d7eb,
supermarket,Toko Swalayan,Tarawang bintang,"Jl. Tjilik Riwut No.mor 02, Kasongan Baru, kasongan, Kabupaten Katingan, Kalimantan Tengah 74413","Kasongan Baru, kasongan, Kabupaten Katingan",KALIMANTAN TENGAH,74413.0,Indonesia, 081351042413,,,-1.9130982,113.3912395,https://maps.google.com/?cid=0x0:0xd95c64360db0b831,
supermarket,Minimarket,TOKO AL,"Jl. Revolusi No.160, Kasongan Lama, Kec. Katingan Hilir, Kabupaten Katingan, Kalimantan Tengah 74413","Kasongan Lama, Kec. Katingan Hilir, Kabupaten Katingan",KALIMANTAN TENGAH,74413.0,Indonesia,,,,-1.9137237,113.3820122,https://maps.google.com/?cid=0x0:0xdd073664137167e6,
supermarket,Toko,Toko Jo,"CG4P+V9R, RT.002, Taringen, Kec. Manuhing, Kabupaten Gunung MAS, Kalimantan Tengah 74562","RT.002, Taringen, Kec. Manuhing, Kabupaten Gunung MAS",KALIMANTAN TENGAH,74562.0,Indonesia, 082346869748,,,-1.5927677,113.5358755,https://maps.google.com/?cid=0x0:0x787c56ac867d1332,
supermarket,Kios,Kios sembako yusbi / bp selsi,"4832+MW, Hampalit, Kec. Katingan Hilir, Kabupaten Katingan, Kalimantan Tengah 74413","Hampalit, Kec. Katingan Hilir, Kabupaten Katingan",KALIMANTAN TENGAH,74413.0,Indonesia,,,,-1.8958662,113.3022817,https://maps.google.com/?cid=0x0:0x70cadcdceb4d0669,
supermarket,Toko Mainan,Toko Mainan Halim,"Unnamed Road, Hampalit, Kec. Katingan Hilir, Kabupaten Katingan, Kalimantan Tengah 74413","Hampalit, Kec. Katingan Hilir, Kabupaten Katingan",KALIMANTAN TENGAH,74413.0,Indonesia, 081347576020,,,-1.8949601,113.2981252,https://maps.google.com/?cid=0x0:0x5b08308b80e2d09a,
supermarket,Toko bahan makanan,Rahman Tono,"399M+892, Jl. Kasongan, Tumbang Liting, Kec. Katingan Hilir, Kabupaten Katingan, Kalimantan Tengah 74461","Jl. Kasongan, Tumbang Liting, Kec. Katingan Hilir, Kabupaten Katingan",KALIMANTAN TENGAH,74461.0,Indonesia,,,,-1.931729,113.383391,https://maps.google.com/?cid=0x0:0x685981c7359fe7ed,
supermarket,Toko Swalayan,TOKO REXI,"4C48+8XJ, Jl. Trans Kalimantan, Kasongan Lama, Kec. Katingan Hilir, Kabupaten Katingan, Kalimantan Tengah 74413","Jl. Trans Kalimantan, Kasongan Lama, Kec. Katingan Hilir, Kabupaten Katingan",KALIMANTAN TENGAH,74413.0,Indonesia,,,,-1.8941511,113.417404,https://maps.google.com/?cid=0x0:0x89543982e58ad8d5,
supermarket,supermarket,Swastike/ maliku baru,"899J+CW5, Tewang Manyangen, Kec. Tewang Sangalang Garing, Kabupaten Katingan, Kalimantan Tengah 74452","Tewang Manyangen, Kec. Tewang Sangalang Garing, Kabupaten Katingan",KALIMANTAN TENGAH,74452.0,Indonesia,,,,-1.6814878,113.3823545,https://maps.google.com/?cid=0x0:0x5ad9ac7838915ae3,
supermarket,Toko bahan makanan,toko adawiyah,"39QP+57W, Unnamed Road, Kasongan Lama, Katingan Hilir, Katingan Regency, Central Kalimantan 74413","Unnamed Road, Kasongan Lama, Katingan Hilir, Katingan Regency",KALIMANTAN TENGAH,74413.0,Indonesia,,,,-1.912007,113.385716,https://maps.google.com/?cid=0x0:0x488febdfb624b179,
supermarket,Toko bahan makanan,UD Mutiara,"Jl. Durian V No 77, Kasongan Lama, Katingan Hilir, Katingan Regency, Central Kalimantan 74413","Kasongan Lama, Katingan Hilir, Katingan Regency",KALIMANTAN TENGAH,74413.0,Indonesia,,,,-1.8855921,113.4228184,https://maps.google.com/?cid=0x0:0x8565e904373bd36c,
supermarket,supermarket,Tewang,Nepal,"Tewang, Nepal",KALIMANTAN TENGAH,,Indonesia,,,,28.2196111,82.7724664,https://maps.google.com/?cid=0x0:0x155b9af9dfdacfa7,
