Category,Real Category,Business Name,Address,City,State,Postal Code,Country,Phone,Email,Website,Latitude,Longitude,Map Link,Details Link
mall,mall,Kalimantan Barat 79365,"Kec. Air Besar, Kabupaten Landak, Kalimantan Barat","Kabupaten Landak, Kalimantan Barat",KALIMANTAN BARAT,,Indonesia,,,,0.9225877,110.0449662,https://maps.google.com/?cid=0x0:0x8668b83c1ca1ca6f,
mall,Perusahaan elektronik,Bintang Phonsel Accesories,"Q423+J36, Jl. Serimbu Ngabang, tengah, Kec. Air Besar, Kabupaten Landak, Kalimantan Barat 79367","Jl. Serimbu Ngabang, tengah, Kec. Air Besar, Kabupaten Landak",KALIMANTAN BARAT,79367.0,Indonesia, 085245234823,,,0.7515379,110.1026393,https://maps.google.com/?cid=0x0:0xc2cd9dbfde45de52,
mall,Toko,Toko Mandiri Utama,"Q423+94P, Unnamed Road, Serimbu, Kec. Air Besar, Kabupaten Landak, Kalimantan Barat 79367","Unnamed Road, Serimbu, Kec. Air Besar, Kabupaten Landak",KALIMANTAN BARAT,79367.0,Indonesia, 082353477773,,,0.7509712,110.1028354,https://maps.google.com/?cid=0x0:0xc36bd769123f731,
mall,Pusat Perbelanjaan,Mall BTM Bogor,"Jl. Ir. H. Juanda No.68, RT.01/RW.13, Paledang, Kecamatan Bogor Tengah, Kota Bogor, Jawa Barat 16122","RT.01/RW.13, Paledang, Kecamatan Bogor Tengah, Kota Bogor",KALIMANTAN BARAT,16122.0,Indonesia, 02518401000,,,-6.6047283,106.7957997,https://maps.google.com/?cid=0x0:0x82ab1619188f430e,
mall,Pusat Perbelanjaan,Botani Square,"Jl. Raya Pajajaran No.40, Tugu Kujang, Kecamatan Bogor Tengah, Kota Bogor, Jawa Barat 16127","Tugu Kujang, Kecamatan Bogor Tengah, Kota Bogor",KALIMANTAN BARAT,16127.0,Indonesia, 02518386658,,,-6.6014221,106.8071254,https://maps.google.com/?cid=0x0:0x9edb391e7c74be19,
mall,Restoran,BTW Mall,"Jl. Veteran, RT.01/RW.03, Panaragan, Kecamatan Bogor Tengah, Kota Bogor, Jawa Barat 16125","RT.01/RW.03, Panaragan, Kecamatan Bogor Tengah, Kota Bogor",KALIMANTAN BARAT,16125.0,Indonesia,,,,-6.5957238,106.7859461,https://maps.google.com/?cid=0x0:0x38b98f9bcac46f29,
mall,Pusat Perbelanjaan,Raden Saleh 1 Mall Btm 21,"Jl. R. Saleh S. Bustaman, RT.01/RW.13, Gudang, Kecamatan Bogor Tengah, Kota Bogor, Jawa Barat 16122","RT.01/RW.13, Gudang, Kecamatan Bogor Tengah, Kota Bogor",KALIMANTAN BARAT,16122.0,Indonesia,,,,-6.6053561,106.7959392,https://maps.google.com/?cid=0x0:0xfb218052e824c9da,
mall,,Lalaban,"Bogor Trade Mall Lantai 3 FC/ 86, JL. IR. H. Juanda, No. 68, 16164, RT.04/RW.02, Paledang, Bogor, Kota Bogor, Jawa Barat 16164","JL. IR. H. Juanda, No. 68, 16164, RT.04/RW.02, Paledang, Bogor, Kota Bogor",KALIMANTAN BARAT,16164.0,Indonesia, 02518401000,,,-6.6044371,106.7961678,https://maps.google.com/?cid=0x0:0x908eb17c5d93e3e1,
mall,Layanan Transportasi,Lintas Shuttle Mall BTM Bogor,"Mall BTM GF, Jl. Ir. H. Juanda No.68 Blok B7.6, RT.01/RW.13, Paledang, Kecamatan Bogor Tengah, Kota Bogor, Jawa Barat 16122","Jl. Ir. H. Juanda No.68 Blok B7.6, RT.01/RW.13, Paledang, Kecamatan Bogor Tengah, Kota Bogor",KALIMANTAN BARAT,16122.0,Indonesia, 082115110074,,,-6.6048469,106.7952536,https://maps.google.com/?cid=0x0:0xdefa099b4be4df7d,
mall,mall,Kalimantan Barat 79364,"Kabupaten Landak, Kalimantan Barat","Kabupaten Landak, Kalimantan Barat",KALIMANTAN BARAT,,Indonesia,,,,0.6737656,109.6163185,https://maps.google.com/?cid=0x0:0x8890c5a7792b01c3,
mall,Pusat Perbelanjaan,Toko Pabanta,"PG95+V96, Jl. Bengkayang - Ngabang, Semade, Kec. Banyuke Hulu, Kabupaten Landak, Kalimantan Barat 79364","Jl. Bengkayang - Ngabang, Semade, Kec. Banyuke Hulu, Kabupaten Landak",KALIMANTAN BARAT,79364.0,Indonesia,,,,0.7196506,109.5084042,https://maps.google.com/?cid=0x0:0xc360ed6481671c5,
mall,Kedai Kopi,Pasar Darit,"HJRG+68F, Darit, Kec. Menyuke, Kabupaten Landak, Kalimantan Barat 79364","Darit, Kec. Menyuke, Kabupaten Landak",KALIMANTAN BARAT,79364.0,Indonesia,,,,0.5905642,109.6257903,https://maps.google.com/?cid=0x0:0xec402cb5c080f7f6,
mall,Pusat Perbelanjaan,Toko Jabata Mase,"PGC6+PJG, Jl. Bengkayang - Ngabang, Semade, Kec. Banyuke Hulu, Kabupaten Landak, Kalimantan Barat 79364","Jl. Bengkayang - Ngabang, Semade, Kec. Banyuke Hulu, Kabupaten Landak",KALIMANTAN BARAT,79364.0,Indonesia, 081392975917,,,0.7218009,109.511591,https://maps.google.com/?cid=0x0:0x9bb27cbd01fe2331,
mall,Toko umum,tk. tanti,"PFCR+PXR, Tiang Tj., Kec. Mempawah Hulu, Kabupaten Landak, Kalimantan Barat 79364","Tiang Tj., Kec. Mempawah Hulu, Kabupaten Landak",KALIMANTAN BARAT,79364.0,Indonesia, 08969405338,,,0.721852,109.4923757,https://maps.google.com/?cid=0x0:0x1280fbd5472a1b64,
mall,Kedai Kopi,Warung alex,"HPRJ+56, Sungai Lubang, Kec. Menyuke, Kabupaten Landak, Kalimantan Barat 79364","Sungai Lubang, Kec. Menyuke, Kabupaten Landak",KALIMANTAN BARAT,79364.0,Indonesia,,,,0.590406,109.7304847,https://maps.google.com/?cid=0x0:0xfddd86d2f1e2737d,
mall,Pusat Perbelanjaan,Banli Mart,"Bumi Amas, Kec. Bengkayang, Kabupaten Bengkayang, Kalimantan Barat 79211","Kec. Bengkayang, Kabupaten Bengkayang",KALIMANTAN BARAT,79211.0,Indonesia,,,,0.8252792,109.483359,https://maps.google.com/?cid=0x0:0x4812752f286b6eef,
mall,Toko Suvenir,Suplayer Bidai bide rotan kalimantan,"HJRG+QCF, Jl. Bengkayang - Ngabang, Darit, Kec. Menyuke, Kabupaten Landak, Kalimantan Barat 79364","Jl. Bengkayang - Ngabang, Darit, Kec. Menyuke, Kabupaten Landak",KALIMANTAN BARAT,79364.0,Indonesia, 085245840042,,,0.5919426,109.6260577,https://maps.google.com/?cid=0x0:0x4a2e7d0f657c1063,
mall,mall,Mayagi cell,"PG95+FF7, Semade, Kec. Banyuke Hulu, Kabupaten Landak, Kalimantan Barat 79364","Semade, Kec. Banyuke Hulu, Kabupaten Landak",KALIMANTAN BARAT,79364.0,Indonesia,,,,0.71867,109.508662,https://maps.google.com/?cid=0x0:0x77a275133ede42de,
mall,Pusat Perbelanjaan,Mal Ciputra Jakarta,"Jl. Letjen S. Parman, RT.11/RW.1, Tj. Duren Utara, Kec. Grogol petamburan, Kota Jakarta Barat, Daerah Khusus Ibukota Jakarta 11470","RT.11/RW.1, Tj. Duren Utara, Kec. Grogol petamburan, Kota Jakarta Barat",KALIMANTAN BARAT,11470.0,Indonesia,,,,-6.1683907,106.7866182,https://maps.google.com/?cid=0x0:0xc1a27eebd0600293,
mall,Pusat Perbelanjaan,Central Park,"Jl. Letjen S. Parman No.Kav. 28, Tj. Duren Sel., Kec. Grogol petamburan, Kota Jakarta Barat, Daerah Khusus Ibukota Jakarta 11470","Tj. Duren Sel., Kec. Grogol petamburan, Kota Jakarta Barat",KALIMANTAN BARAT,11470.0,Indonesia, 02156989999,,,-6.1771373,106.7909788,https://maps.google.com/?cid=0x0:0xe816d65037c3207a,
mall,Pusat Perbelanjaan,Ciputra World 1 Jakarta,"Jl. Prof. DR. Satrio No.Kav. 3-5, RT.17/RW.4, Kuningan, Karet Kuningan, Kecamatan Setiabudi, Kota Jakarta Selatan, Daerah Khusus Ibukota Jakarta 12940","RT.17/RW.4, Kuningan, Karet Kuningan, Kecamatan Setiabudi, Kota Jakarta Selatan",KALIMANTAN BARAT,12940.0,Indonesia,,,,-6.2236898,106.8234201,https://maps.google.com/?cid=0x0:0x4c000bf384ff9055,
mall,Bakso,Bakso Kota Cak Man Mal Citra Land Ciputra JakBar,"Mal Ciputra Citraland Lt LG II Jl Arteri, Jl. Letjen S. Parman, RT.11/RW.1, Tj. Duren Sel., Kec. Grogol petamburan, Kota Jakarta Barat, Daerah Khusus Ibukota Jakarta 11479","Jl. Letjen S. Parman, RT.11/RW.1, Tj. Duren Sel., Kec. Grogol petamburan, Kota Jakarta Barat",KALIMANTAN BARAT,11479.0,Indonesia,,,,-6.1684683,106.7866991,https://maps.google.com/?cid=0x0:0xc4e815389952f6f9,
mall,Toko Kosmetik,ORIFLAME CENTER,"6VP8+5F6, Amboyo Sel., Kec. Ngabang, Kabupaten Landak, Kalimantan Barat 79357","Amboyo Sel., Kec. Ngabang, Kabupaten Landak",KALIMANTAN BARAT,79357.0,Indonesia, 081329222937,,,0.2354101,109.8661365,https://maps.google.com/?cid=0x0:0x5b9817e371d6af2d,
mall,Toko,Kisel Shop,"Jl. Raya Pulau Bendu, Hilir Tengah, Kec. Ngabang, Kabupaten Landak, Kalimantan Barat 79357","Hilir Tengah, Kec. Ngabang, Kabupaten Landak",KALIMANTAN BARAT,79357.0,Indonesia, 081345218222,,,0.3863048,109.9629315,https://maps.google.com/?cid=0x0:0x7545333922baa8b8,
mall,mall,Kec. Jelimpo,"Kabupaten Landak, Kalimantan Barat","Kabupaten Landak, Kalimantan Barat",KALIMANTAN BARAT,,Indonesia,,,,0.3150332,110.0885231,https://maps.google.com/?cid=0x0:0x30fd1a6bdb685b75,
mall,Toko Pakaian Wanita,JNL fashion,"9XP5+HMW, Hilir Tengah, Kec. Ngabang, Kabupaten Landak, Kalimantan Barat 79357","Hilir Tengah, Kec. Ngabang, Kabupaten Landak",KALIMANTAN BARAT,79357.0,Indonesia,,,,0.3864782,109.9592044,https://maps.google.com/?cid=0x0:0x848b1d1e15c194ec,
mall,,Toko tiung,"F29X+HR, Engkadu, Kec. Ngabang, Kabupaten Landak, Kalimantan Barat 79357","Engkadu, Kec. Ngabang, Kabupaten Landak",KALIMANTAN BARAT,79357.0,Indonesia,,,,0.4676813,110.0499727,https://maps.google.com/?cid=0x0:0xa8a96aa81128df35,
mall,Bengkel Sepeda Motor,Cahaya motoshop,"9XM4+2RW, Hilir Ktr., Kec. Ngabang, Kabupaten Landak, Kalimantan Barat 79357","Hilir Ktr., Kec. Ngabang, Kabupaten Landak",KALIMANTAN BARAT,79357.0,Indonesia,,,,0.3826026,109.9570625,https://maps.google.com/?cid=0x0:0x6ce193ea868debc2,
mall,Pusat Perbelanjaan,GALERI UMKM LANDAK,"Jl. Pemuda No.10, Hilir Ktr., Kec. Ngabang, Kabupaten Landak, Kalimantan Barat 79357","Hilir Ktr., Kec. Ngabang, Kabupaten Landak",KALIMANTAN BARAT,79357.0,Indonesia, 085822062880,,,0.38327,109.9577361,https://maps.google.com/?cid=0x0:0xc1e8c953bf06389c,
mall,Pusat Perbelanjaan,Cahaya timur,"9XP6+63G, Unnamed Road, Hilir Tengah, Kec. Ngabang, Kabupaten Landak, Kalimantan Barat 79357","Unnamed Road, Hilir Tengah, Kec. Ngabang, Kabupaten Landak",KALIMANTAN BARAT,79357.0,Indonesia, 082151501361,,,0.3855727,109.9601953,https://maps.google.com/?cid=0x0:0xcb026aca14401726,
mall,Pusat Perbelanjaan,Arie Bj Netty Accesories,"9XM5+9GF terminal bus pasar rakyat dara itam, Hilir Ktr., Kec. Ngabang, Kabupaten Landak, Kalimantan Barat 79357","Hilir Ktr., Kec. Ngabang, Kabupaten Landak",KALIMANTAN BARAT,79357.0,Indonesia, 085345273449,,,0.3834293,109.9587968,https://maps.google.com/?cid=0x0:0x615aa206f2a0841f,
mall,Toko,Toko Sinar Riau,"9XM6+X3Q, Hilir Tengah, Kec. Ngabang, Kabupaten Landak, Kalimantan Barat 79357","Hilir Tengah, Kec. Ngabang, Kabupaten Landak",KALIMANTAN BARAT,79357.0,Indonesia,,,,0.3849559,109.9602375,https://maps.google.com/?cid=0x0:0xa521a073edcf0ad2,
mall,Layanan Transportasi,Terminal Kuala Behe,"H2P2+8MM, Desa, Kuala Behe, Kec. Kuala Behe, Kabupaten Landak, Kalimantan Barat 79357","Desa, Kuala Behe, Kec. Kuala Behe, Kabupaten Landak",KALIMANTAN BARAT,79357.0,Indonesia, 082252690502,,,0.5858291,110.0016768,https://maps.google.com/?cid=0x0:0x84d85e7f2571a2fd,
mall,Toko Pakaian,TK. SURYA JAYA,"9XP5+6XV, Jl. Pemuda, Hilir Ktr., Kec. Ngabang, Kabupaten Landak, Kalimantan Barat 79357","Jl. Pemuda, Hilir Ktr., Kec. Ngabang, Kabupaten Landak",KALIMANTAN BARAT,79357.0,Indonesia, 081352520111,,,0.3856123,109.959925,https://maps.google.com/?cid=0x0:0x745b9eebf27de71e,
mall,Toko Mainan,Clara Acc Boneka Mainan,"9XM6+G28, Hilir Ktr., Kec. Ngabang, Kabupaten Landak, Kalimantan Barat 79357","Hilir Ktr., Kec. Ngabang, Kabupaten Landak",KALIMANTAN BARAT,79357.0,Indonesia,,,,0.3837778,109.9600841,https://maps.google.com/?cid=0x0:0x5c826cde6ee515a7,
mall,Toko,Warung Mak Pentin,"9XJ5+6R4, Hilir Ktr., Kec. Ngabang, Kabupaten Landak, Kalimantan Barat 79357","Hilir Ktr., Kec. Ngabang, Kabupaten Landak",KALIMANTAN BARAT,79357.0,Indonesia,,,,0.3805145,109.9595784,https://maps.google.com/?cid=0x0:0xd96166eb07b171d1,
mall,Toko Ponsel,Sky Cell,"9XP7+GJ9, Jalan Raya, Central Hilir, Ngabang, Landak Regency, West Kalimantan 79357","Jalan Raya, Central Hilir, Ngabang, Landak Regency",KALIMANTAN BARAT,79357.0,Indonesia,,,,0.3862987,109.9641109,https://maps.google.com/?cid=0x0:0x6660b9cd491cb5e2,
mall,Gudang,Toko Ibu Atun,"9XP7+WJM, Hilir Tengah, Kec. Ngabang, Kabupaten Landak, Kalimantan Barat 79357","Hilir Tengah, Kec. Ngabang, Kabupaten Landak",KALIMANTAN BARAT,79357.0,Indonesia, 08980249286,,,0.3873333,109.9640555,https://maps.google.com/?cid=0x0:0x1b4295bcde4cc470,
mall,Toko bahan makanan,Toko sumber harapan jaya bapak acai ajol,"53PF+J9, Temiang Mali, Kec. Balai, Kabupaten Sanggau, Kalimantan Barat","Kabupaten Sanggau, Kalimantan Barat",KALIMANTAN BARAT,,Indonesia,,,,0.186072,110.073218,https://maps.google.com/?cid=0x0:0x8449dd8a8f8b09c2,
mall,Toko Perlengkapan Rumah,Kios Minyak dan Gas Ade,"9XXM+M5J, Jl. Serimbu, Ambarang, Kec. Ngabang, Kabupaten Landak, Kalimantan Barat 79357","Jl. Serimbu, Ambarang, Kec. Ngabang, Kabupaten Landak",KALIMANTAN BARAT,79357.0,Indonesia,,,,0.3992093,109.982906,https://maps.google.com/?cid=0x0:0x6a5285a4254f8a63,
mall,Toko,Toko Sinar Bulan,"9XM6+G59, Hilir Ktr., Kec. Ngabang, Kabupaten Landak, Kalimantan Barat 79357","Hilir Ktr., Kec. Ngabang, Kabupaten Landak",KALIMANTAN BARAT,79357.0,Indonesia, 085346416835,,,0.3837949,109.9604994,https://maps.google.com/?cid=0x0:0x27d644d2ed4c8a8c,
mall,Toko,OGI IDI PADA IDI,"9XJ3+C93, Jl. Pemuda, Hilir Ktr., Kec. Ngabang, Kabupaten Landak, Kalimantan Barat 79357","Jl. Pemuda, Hilir Ktr., Kec. Ngabang, Kabupaten Landak",KALIMANTAN BARAT,79357.0,Indonesia,,,,0.3810163,109.9534188,https://maps.google.com/?cid=0x0:0x512cc7302eebf5a,
mall,Toko,VIRUS STORE,"Jl. Maniamas belakang kantor PLN No.28, Hilir Ktr., Kec. Ngabang, PERSERO, Kalimantan Barat 79357","Hilir Ktr., Kec. Ngabang, PERSERO",KALIMANTAN BARAT,79357.0,Indonesia, 089678090919,,,0.3844838,109.9552174,https://maps.google.com/?cid=0x0:0xf55bc292b0310b48,
mall,Toko Swalayan,Satelit Mart,"9XP8+GM8, Hilir Tengah, Kec. Ngabang, Kabupaten Landak, Kalimantan Barat 79357","Hilir Tengah, Kec. Ngabang, Kabupaten Landak",KALIMANTAN BARAT,79357.0,Indonesia, 081345668736,,,0.3862754,109.9667069,https://maps.google.com/?cid=0x0:0x23c4c49a494cc877,
mall,mall,Kalimantan Barat 79367,"Kabupaten Landak, Kalimantan Barat","Kabupaten Landak, Kalimantan Barat",KALIMANTAN BARAT,,Indonesia,,,,0.7436183,109.9973244,https://maps.google.com/?cid=0x0:0xb49541f7c227bcc0,
mall,Layanan Transportasi,Terminal Kuala Behe,"H2P2+8MM, Desa, Kuala Behe, Kec. Kuala Behe, Kabupaten Landak, Kalimantan Barat 79357","Desa, Kuala Behe, Kec. Kuala Behe, Kabupaten Landak",KALIMANTAN BARAT,79357.0,Indonesia, 082252690502,,,0.5858291,110.0016768,https://maps.google.com/?cid=0x0:0x84d85e7f2571a2fd,
mall,mall,Kec. Kuala Behe,"Kabupaten Landak, Kalimantan Barat","Kabupaten Landak, Kalimantan Barat",KALIMANTAN BARAT,,Indonesia,,,,0.5842946,110.0015113,https://maps.google.com/?cid=0x0:0x7805c6c36a19e22f,
mall,Dealer Toyota,Adi Ndut Toyota Anzon,"Q4J4+5P5, Serimbu, Kec. Air Besar, Kabupaten Landak, Kalimantan Barat 79367","Serimbu, Kec. Air Besar, Kabupaten Landak",KALIMANTAN BARAT,79367.0,Indonesia, 085348594868,,,0.7803863,110.1068483,https://maps.google.com/?cid=0x0:0xb47588eca2495fc6,
mall,Toko,Toko Mandiri Utama,"Q423+94P, Unnamed Road, Serimbu, Kec. Air Besar, Kabupaten Landak, Kalimantan Barat 79367","Unnamed Road, Serimbu, Kec. Air Besar, Kabupaten Landak",KALIMANTAN BARAT,79367.0,Indonesia, 082353477773,,,0.7509712,110.1028354,https://maps.google.com/?cid=0x0:0xc36bd769123f731,
mall,Toko bahan makanan,Toko lancar,"889R+5MQ, Mandor, Kec. Mandor, Kabupaten Landak, Kalimantan Barat 79355","Mandor, Kec. Mandor, Kabupaten Landak",KALIMANTAN BARAT,79355.0,Indonesia,,,,0.3179692,109.3417361,https://maps.google.com/?cid=0x0:0xae93c56c05fa7487,
mall,Minimarket,Mega Mart,"89F5+P2J, Jl. Lintas Kalimantan Poros Tengah, Mandor, Kec. Mandor, Kabupaten Landak, Kalimantan Barat 79355","Jl. Lintas Kalimantan Poros Tengah, Mandor, Kec. Mandor, Kabupaten Landak",KALIMANTAN BARAT,79355.0,Indonesia, 089693817312,,,0.3243266,109.357503,https://maps.google.com/?cid=0x0:0x9956e9bfe710a51,
mall,mall,Kalimantan Barat 79363,"Kec. Mempawah Hulu, Kabupaten Landak, Kalimantan Barat","Kabupaten Landak, Kalimantan Barat",KALIMANTAN BARAT,,Indonesia,,,,0.6745598,109.4259114,https://maps.google.com/?cid=0x0:0xdcefe0766b98359b,
mall,Pasar,Toko Sahabat,"H94H+XQ6, Karangan, Kec. Mempawah Hulu, Kabupaten Landak, Kalimantan Barat 79362","Karangan, Kec. Mempawah Hulu, Kabupaten Landak",KALIMANTAN BARAT,79362.0,Indonesia, 089612774989,,,0.5574015,109.3793854,https://maps.google.com/?cid=0x0:0xc3190efaa1818334,
mall,Pusat Perbelanjaan,TUAH RAYA,"H94H+V8H, Jln. Raya Caokng, Karangan, Kec. Mempawah Hulu, Kabupaten Landak, Kalimantan Barat 79362","Jln. Raya Caokng, Karangan, Kec. Mempawah Hulu, Kabupaten Landak",KALIMANTAN BARAT,79362.0,Indonesia, 082157988859,,,0.5571837,109.3783443,https://maps.google.com/?cid=0x0:0xc418752602330003,
mall,Komplek perumahan,Langganan Kita Karangan,"H94G+CWJ, Karangan, Kec. Mempawah Hulu, Kabupaten Landak, Kalimantan Barat 79362","Karangan, Kec. Mempawah Hulu, Kabupaten Landak",KALIMANTAN BARAT,79362.0,Indonesia,,,,0.5560824,109.3772535,https://maps.google.com/?cid=0x0:0x69bdb565f2a8e77c,
mall,Minimarket,Toko Irfa 2,"H95J+634, Karangan, Kec. Mempawah Hulu, Kabupaten Landak, Kalimantan Barat 78362","Karangan, Kec. Mempawah Hulu, Kabupaten Landak",KALIMANTAN BARAT,78362.0,Indonesia, 085245777899,,,0.5580132,109.380199,https://maps.google.com/?cid=0x0:0x16bb006e982ee12e,
mall,Toko,TOKO EFATA/NUR/CAHAYA,"Karangan, Kec. Mempawah Hulu, Kabupaten Landak, Kalimantan Barat 79362","Kec. Mempawah Hulu, Kabupaten Landak",KALIMANTAN BARAT,79362.0,Indonesia, 081254836810,,,0.5557483,109.3766629,https://maps.google.com/?cid=0x0:0x71f3a77971915419,
mall,Komplek perumahan,Rumah ambong,"M72W+J85, Bilayuk, Kec. Mempawah Hulu, Kabupaten Landak, Kalimantan Barat 79362","Bilayuk, Kec. Mempawah Hulu, Kabupaten Landak",KALIMANTAN BARAT,79362.0,Indonesia,,,,0.6518291,109.2966535,https://maps.google.com/?cid=0x0:0x3f458de8776bfa1e,
mall,Toko Ponsel,Rcellular,"Karangan, Kec. Mempawah Hulu, Kabupaten Landak, Kalimantan Barat 79362","Kec. Mempawah Hulu, Kabupaten Landak",KALIMANTAN BARAT,79362.0,Indonesia, 085754358487,,,0.5588975,109.3802338,https://maps.google.com/?cid=0x0:0x9257d88d9eab236e,
mall,Toko umum,tk. tanti,"PFCR+PXR, Tiang Tj., Kec. Mempawah Hulu, Kabupaten Landak, Kalimantan Barat 79364","Tiang Tj., Kec. Mempawah Hulu, Kabupaten Landak",KALIMANTAN BARAT,79364.0,Indonesia, 08969405338,,,0.721852,109.4923757,https://maps.google.com/?cid=0x0:0x1280fbd5472a1b64,
mall,Pusat Perbelanjaan,Toko Pabanta,"PG95+V96, Jl. Bengkayang - Ngabang, Semade, Kec. Banyuke Hulu, Kabupaten Landak, Kalimantan Barat 79364","Jl. Bengkayang - Ngabang, Semade, Kec. Banyuke Hulu, Kabupaten Landak",KALIMANTAN BARAT,79364.0,Indonesia,,,,0.7196506,109.5084042,https://maps.google.com/?cid=0x0:0xc360ed6481671c5,
mall,Pasar tradisional,Pasar Tempoak,"Jalan Tempoak, Menjalin, Landak, 78362, Pentek, Kec. Sadaniang, Kab. Mempawah, Kalimantan Barat 79362","Menjalin, Landak,",KALIMANTAN BARAT,78362.0,Indonesia, 085391239884,,,0.5414424,109.2385383,https://maps.google.com/?cid=0x0:0x161224f664ee7621,
mall,mall,Pemotongan ayam abang,"G9RG+35, Garu, Kec. Mempawah Hulu, Kabupaten Landak, Kalimantan Barat","Kabupaten Landak, Kalimantan Barat",KALIMANTAN BARAT,,Indonesia,,,,0.5402288,109.3754823,https://maps.google.com/?cid=0x0:0x9038a0e490de0ec8,
mall,Pusat Perbelanjaan,Toko Jabata Mase,"PGC6+PJG, Jl. Bengkayang - Ngabang, Semade, Kec. Banyuke Hulu, Kabupaten Landak, Kalimantan Barat 79364","Jl. Bengkayang - Ngabang, Semade, Kec. Banyuke Hulu, Kabupaten Landak",KALIMANTAN BARAT,79364.0,Indonesia, 081392975917,,,0.7218009,109.511591,https://maps.google.com/?cid=0x0:0x9bb27cbd01fe2331,
mall,Pusat Perbelanjaan,TOKOH JABATA MASE,"MG9C+64Q, Kampet, Kec. Banyuke Hulu, Kabupaten Landak, Kalimantan Barat 79364","Kampet, Kec. Banyuke Hulu, Kabupaten Landak",KALIMANTAN BARAT,79364.0,Indonesia, 085248063044,,,0.667401,109.5204024,https://maps.google.com/?cid=0x0:0xeed613a6485bfdf,
mall,Taman,Taman Wisata Kuliner Mempawah,"9X56+8HQ, Tengah, Kec. Mempawah Hilir, Kab. Mempawah, Kalimantan Barat 78912","Tengah, Kec. Mempawah Hilir, Kab. Mempawah",KALIMANTAN BARAT,78912.0,Indonesia,,,,0.3583254,108.9614864,https://maps.google.com/?cid=0x0:0x14b486e64866721a,
mall,Toko Perhiasan,Toko Mas Timoer Jaya,"Jl. Karangan - Sompak Jalan Simpang, Pauh, Kec. Sompak, Kabupaten Landak, Kalimantan Barat 79363","Pauh, Kec. Sompak, Kabupaten Landak",KALIMANTAN BARAT,79363.0,Indonesia,,,,0.5566524,109.3792879,https://maps.google.com/?cid=0x0:0xe9e5b4ee75c9254b,
mall,Gudang,Voucher Data Leo,"FFRQ+66G, Pakumbang, Kec. Sompak, Kabupaten Landak, Kalimantan Barat 79355","Pakumbang, Kec. Sompak, Kabupaten Landak",KALIMANTAN BARAT,79355.0,Indonesia, 082157155488,,,0.4905744,109.4880734,https://maps.google.com/?cid=0x0:0x7a52b8672e9bedbb,
mall,Layanan Transportasi,Pasar Menjalin,"F89Q+V2H, Jalan Raya, Sepahat, Kec. Menjalin, Kabupaten Landak, Kalimantan Barat 79362","Jalan Raya, Sepahat, Kec. Menjalin, Kabupaten Landak",KALIMANTAN BARAT,79362.0,Indonesia,,,,0.4696994,109.3376006,https://maps.google.com/?cid=0x0:0x7ad6a45fb2c8cbef,
mall,Kantor Pemerintah,Menjalin,"F89P+QP8, Menjalin, Kec. Menjalin, Kabupaten Landak, Kalimantan Barat 79362","Menjalin, Kec. Menjalin, Kabupaten Landak",KALIMANTAN BARAT,79362.0,Indonesia,,,,0.4694105,109.3368143,https://maps.google.com/?cid=0x0:0x2be450dbab1d10fc,
mall,Pengiriman Makanan,Rumah makan khas dayak,"F8CQ+689, Jl. Anjungan - Bengkayang, Menjalin, Kec. Menjalin, Kabupaten Landak, Kalimantan Barat 79362","Jl. Anjungan - Bengkayang, Menjalin, Kec. Menjalin, Kabupaten Landak",KALIMANTAN BARAT,79362.0,Indonesia,,,,0.4705457,109.3383659,https://maps.google.com/?cid=0x0:0xdbe72c8c72855002,
mall,Pasar tradisional,Pasar Tempoak,"Jalan Tempoak, Menjalin, Landak, 78362, Pentek, Kec. Sadaniang, Kab. Mempawah, Kalimantan Barat 79362","Menjalin, Landak,",KALIMANTAN BARAT,78362.0,Indonesia, 085391239884,,,0.5414424,109.2385383,https://maps.google.com/?cid=0x0:0x161224f664ee7621,
mall,Toko sembako pemerintah,Menjalin Cell,"F8CQ+9X7, Jalan Raya No.003, Menjalin, Kec. Menjalin, Kabupaten Landak, Kalimantan Barat 79362","Jalan Raya No.003, Menjalin, Kec. Menjalin, Kabupaten Landak",KALIMANTAN BARAT,79362.0,Indonesia, 085733668882,,,0.4721268,109.3395479,https://maps.google.com/?cid=0x0:0x58f4c6b14d519a7b,
mall,Komplek perumahan,Kediaman NIKO DEMUS,"F83H+HP2, Seibandung, Kec. Menjalin, Kabupaten Landak, Kalimantan Barat 79362","Seibandung, Kec. Menjalin, Kabupaten Landak",KALIMANTAN BARAT,79362.0,Indonesia, 085750571488,,,0.4538978,109.3292511,https://maps.google.com/?cid=0x0:0xffd7d301fc75ba4d,
mall,Toko Bahan Bangunan,Toko 129 Menjalin,"Jl. Anjungan - Bengkayang No.96, Menjalin, Kec. Menjalin, Kabupaten Landak, Kalimantan Barat 79362","Menjalin, Kec. Menjalin, Kabupaten Landak",KALIMANTAN BARAT,79362.0,Indonesia,,,,0.4497314,109.3257307,https://maps.google.com/?cid=0x0:0x82e728f77a0bea28,
mall,Pasar,Toko Sahabat,"H94H+XQ6, Karangan, Kec. Mempawah Hulu, Kabupaten Landak, Kalimantan Barat 79362","Karangan, Kec. Mempawah Hulu, Kabupaten Landak",KALIMANTAN BARAT,79362.0,Indonesia, 089612774989,,,0.5574015,109.3793854,https://maps.google.com/?cid=0x0:0xc3190efaa1818334,
mall,Toko Pakaian,Toko sayur Viora,"F86J+VG8, Sepahat, Kec. Menjalin, Kabupaten Landak, Kalimantan Barat 79362","Sepahat, Kec. Menjalin, Kabupaten Landak",KALIMANTAN BARAT,79362.0,Indonesia, 085219837470,,,0.4621681,109.3313153,https://maps.google.com/?cid=0x0:0xef9dde9d0fdf7bb3,
mall,Toko bahan makanan,Toko Sayur TIMBA'LUI GRUP,"H94G+83V, Karangan, Kec. Mempawah Hulu, Kabupaten Landak, Kalimantan Barat 79362","Karangan, Kec. Mempawah Hulu, Kabupaten Landak",KALIMANTAN BARAT,79362.0,Indonesia, 085750615552,,,0.5558567,109.3751843,https://maps.google.com/?cid=0x0:0x1f24abe7b5a361e3,
mall,Pusat Perbelanjaan,TUAH RAYA,"H94H+V8H, Jln. Raya Caokng, Karangan, Kec. Mempawah Hulu, Kabupaten Landak, Kalimantan Barat 79362","Jln. Raya Caokng, Karangan, Kec. Mempawah Hulu, Kabupaten Landak",KALIMANTAN BARAT,79362.0,Indonesia, 082157988859,,,0.5571837,109.3783443,https://maps.google.com/?cid=0x0:0xc418752602330003,
mall,Kantor Perusahaan,"Arki, JNE GOMEDIA","F82H+QJJ, Jl. Anjungan - Bengkayang, Sepahat, Kec. Menjalin, Kabupaten Landak, Kalimantan Barat 79362","Jl. Anjungan - Bengkayang, Sepahat, Kec. Menjalin, Kabupaten Landak",KALIMANTAN BARAT,79362.0,Indonesia, 082256482492,,,0.4519586,109.3290207,https://maps.google.com/?cid=0x0:0x9198d009ac3e62d8,
mall,Perhimpunan Pengembang Perumahan,Salore,"F89P+QP8, Menjalin, Kec. Menjalin, Kabupaten Landak, Kalimantan Barat","Kabupaten Landak, Kalimantan Barat",KALIMANTAN BARAT,,Indonesia,,,,0.4694105,109.3368143,https://maps.google.com/?cid=0x0:0xf898803897b41453,
mall,Gudang,Voucher Data Leo,"FFRQ+66G, Pakumbang, Kec. Sompak, Kabupaten Landak, Kalimantan Barat 79355","Pakumbang, Kec. Sompak, Kabupaten Landak",KALIMANTAN BARAT,79355.0,Indonesia, 082157155488,,,0.4905744,109.4880734,https://maps.google.com/?cid=0x0:0x7a52b8672e9bedbb,
mall,Komplek perumahan,Langganan Kita Karangan,"H94G+CWJ, Karangan, Kec. Mempawah Hulu, Kabupaten Landak, Kalimantan Barat 79362","Karangan, Kec. Mempawah Hulu, Kabupaten Landak",KALIMANTAN BARAT,79362.0,Indonesia,,,,0.5560824,109.3772535,https://maps.google.com/?cid=0x0:0x69bdb565f2a8e77c,
mall,Komplek perumahan,Jaor,"F89P+QP8, Menjalin, Kec. Menjalin, Kabupaten Landak, Kalimantan Barat 79362","Menjalin, Kec. Menjalin, Kabupaten Landak",KALIMANTAN BARAT,79362.0,Indonesia,,,,0.4694105,109.3368143,https://maps.google.com/?cid=0x0:0x68e436bb6170903e,
mall,Minimarket,Toko Irfa 2,"H95J+634, Karangan, Kec. Mempawah Hulu, Kabupaten Landak, Kalimantan Barat 78362","Karangan, Kec. Mempawah Hulu, Kabupaten Landak",KALIMANTAN BARAT,78362.0,Indonesia, 085245777899,,,0.5580132,109.380199,https://maps.google.com/?cid=0x0:0x16bb006e982ee12e,
mall,Komplek perumahan,Rumah ambong,"M72W+J85, Bilayuk, Kec. Mempawah Hulu, Kabupaten Landak, Kalimantan Barat 79362","Bilayuk, Kec. Mempawah Hulu, Kabupaten Landak",KALIMANTAN BARAT,79362.0,Indonesia,,,,0.6518291,109.2966535,https://maps.google.com/?cid=0x0:0x3f458de8776bfa1e,
mall,Kedai Kopi,Pasar Darit,"HJRG+68F, Darit, Kec. Menyuke, Kabupaten Landak, Kalimantan Barat 79364","Darit, Kec. Menyuke, Kabupaten Landak",KALIMANTAN BARAT,79364.0,Indonesia,,,,0.5905642,109.6257903,https://maps.google.com/?cid=0x0:0xec402cb5c080f7f6,
mall,mall,Kalimantan Barat 79364,"Kabupaten Landak, Kalimantan Barat","Kabupaten Landak, Kalimantan Barat",KALIMANTAN BARAT,,Indonesia,,,,0.6737656,109.6163185,https://maps.google.com/?cid=0x0:0x8890c5a7792b01c3,
mall,Pusat Perbelanjaan,Toko Pabanta,"PG95+V96, Jl. Bengkayang - Ngabang, Semade, Kec. Banyuke Hulu, Kabupaten Landak, Kalimantan Barat 79364","Jl. Bengkayang - Ngabang, Semade, Kec. Banyuke Hulu, Kabupaten Landak",KALIMANTAN BARAT,79364.0,Indonesia,,,,0.7196506,109.5084042,https://maps.google.com/?cid=0x0:0xc360ed6481671c5,
mall,Kedai Kopi,Warung alex,"HPRJ+56, Sungai Lubang, Kec. Menyuke, Kabupaten Landak, Kalimantan Barat 79364","Sungai Lubang, Kec. Menyuke, Kabupaten Landak",KALIMANTAN BARAT,79364.0,Indonesia,,,,0.590406,109.7304847,https://maps.google.com/?cid=0x0:0xfddd86d2f1e2737d,
mall,Toko Suvenir,Suplayer Bidai bide rotan kalimantan,"HJRG+QCF, Jl. Bengkayang - Ngabang, Darit, Kec. Menyuke, Kabupaten Landak, Kalimantan Barat 79364","Jl. Bengkayang - Ngabang, Darit, Kec. Menyuke, Kabupaten Landak",KALIMANTAN BARAT,79364.0,Indonesia, 085245840042,,,0.5919426,109.6260577,https://maps.google.com/?cid=0x0:0x4a2e7d0f657c1063,
mall,Pusat Perbelanjaan,Toko Jabata Mase,"PGC6+PJG, Jl. Bengkayang - Ngabang, Semade, Kec. Banyuke Hulu, Kabupaten Landak, Kalimantan Barat 79364","Jl. Bengkayang - Ngabang, Semade, Kec. Banyuke Hulu, Kabupaten Landak",KALIMANTAN BARAT,79364.0,Indonesia, 081392975917,,,0.7218009,109.511591,https://maps.google.com/?cid=0x0:0x9bb27cbd01fe2331,
mall,Toko umum,tk. tanti,"PFCR+PXR, Tiang Tj., Kec. Mempawah Hulu, Kabupaten Landak, Kalimantan Barat 79364","Tiang Tj., Kec. Mempawah Hulu, Kabupaten Landak",KALIMANTAN BARAT,79364.0,Indonesia, 08969405338,,,0.721852,109.4923757,https://maps.google.com/?cid=0x0:0x1280fbd5472a1b64,
mall,mall,Mayagi cell,"PG95+FF7, Semade, Kec. Banyuke Hulu, Kabupaten Landak, Kalimantan Barat 79364","Semade, Kec. Banyuke Hulu, Kabupaten Landak",KALIMANTAN BARAT,79364.0,Indonesia,,,,0.71867,109.508662,https://maps.google.com/?cid=0x0:0x77a275133ede42de,
mall,mall,Simpang Tiga Melangir,"HPFP+VJ9, Sungai Lubang, Kec. Menyuke, Kabupaten Landak, Kalimantan Barat 79356","Sungai Lubang, Kec. Menyuke, Kabupaten Landak",KALIMANTAN BARAT,79356.0,Indonesia,,,,0.574675,109.736621,https://maps.google.com/?cid=0x0:0x81a2ed2f28dcab81,
mall,Pusat Bisnis,Mal Pontianak,"X87W+5VF, Benua Melayu Laut, Kec. Pontianak Sel., Kota Pontianak, Kalimantan Barat 78243","Benua Melayu Laut, Kec. Pontianak Sel., Kota Pontianak",KALIMANTAN BARAT,78243.0,Indonesia,,,,-0.0370684,109.3471737,https://maps.google.com/?cid=0x0:0x4f3671b1284caba8,
mall,mall,Meranti 1001 Corner,"no 1, Taman Darmaga Permai 5 No.4 i10, Cihideung Udik, Kec. Ciampea, Kabupaten Bogor, Jawa Barat 16620","Taman Darmaga Permai 5 No.4 i10, Cihideung Udik, Kec. Ciampea, Kabupaten Bogor",KALIMANTAN BARAT,16620.0,Indonesia,,,,-6.573239,106.718646,https://maps.google.com/?cid=0x0:0x892372d79c51be41,
mall,Mal outlet,Ayani Megamall,"Jl. Jenderal Ahmad Yani No.4, Parit Tokaya, Kec. Pontianak Sel., Kota Pontianak, Kalimantan Barat 78113","Parit Tokaya, Kec. Pontianak Sel., Kota Pontianak",KALIMANTAN BARAT,78113.0,Indonesia, 0561763888,,,-0.051244,109.345662,https://maps.google.com/?cid=0x0:0x5217d4caea80b3d0,
mall,mall,RAJA EKSPEDISI,"MPVW+W4W, Jl. Darit, Meranti, Kec. Meranti, Kabupaten Landak, Kalimantan Barat 79366","Jl. Darit, Meranti, Kec. Meranti, Kabupaten Landak",KALIMANTAN BARAT,79366.0,Indonesia,,,,0.6948749,109.7453281,https://maps.google.com/?cid=0x0:0x24cfb9b896b0a82f,
mall,Pusat Perbelanjaan,Family Martt,"2P46+VCH, Jl. Diponegoro, Selat Panjang Tim., Kec. Tebing Tinggi, Kabupaten Kepulauan Meranti, Riau","Kabupaten Kepulauan Meranti, Riau",KALIMANTAN BARAT,,Indonesia,,,,1.0071853,102.7111096,https://maps.google.com/?cid=0x0:0x6e2744f858676da5,
mall,Toko Swalayan,Meranti Swalayan,"Jl. Gr. Djamin Datuk Bagindo No.52, Talang Banjar, Kec. Jambi Tim., Kota Jambi, Jambi 36121","Talang Banjar, Kec. Jambi Tim., Kota Jambi",KALIMANTAN BARAT,36121.0,Indonesia, 074131702,,,-1.6032131,103.6281125,https://maps.google.com/?cid=0x0:0xf1c8e1be21db01eb,
mall,mall,Meranti Gallery,"Jl. Banglas, Selat Panjang Tim., Kec. Tebing Tinggi, Kabupaten Kepulauan Meranti, Riau 28753","Selat Panjang Tim., Kec. Tebing Tinggi, Kabupaten Kepulauan Meranti",KALIMANTAN BARAT,28753.0,Indonesia,,,,1.0014913,102.71302,https://maps.google.com/?cid=0x0:0xeeba9f4960e17c50,
mall,mall,Usaha Meranti Jaya,"XM95+M2F, Unnamed Road, Insit, Kec. Tebing Tinggi Bar., Kabupaten Kepulauan Meranti, Riau 28753","Unnamed Road, Insit, Kec. Tebing Tinggi Bar., Kabupaten Kepulauan Meranti",KALIMANTAN BARAT,28753.0,Indonesia, 085376939130,,,0.9691921,102.6575318,https://maps.google.com/?cid=0x0:0x1196154edcc04fbb,
mall,Toko Swalayan,Golden Mart,"9WWV+9XF, Jl. Ilong, Hilir Ktr., Kec. Ngabang, Kabupaten Landak, Kalimantan Barat 79357","Jl. Ilong, Hilir Ktr., Kec. Ngabang, Kabupaten Landak",KALIMANTAN BARAT,79357.0,Indonesia, 082253867575,,,0.3959321,109.9449253,https://maps.google.com/?cid=0x0:0xc79232e20f451f66,
mall,mall,Ngabang,"Hilir Tengah, Kec. Ngabang, Kabupaten Landak, Kalimantan Barat","Kabupaten Landak, Kalimantan Barat",KALIMANTAN BARAT,,Indonesia,,,,0.396117,109.950996,https://maps.google.com/?cid=0x0:0x36ecc951d5c3f67,
mall,Toko,Kisel Shop,"Jl. Raya Pulau Bendu, Hilir Tengah, Kec. Ngabang, Kabupaten Landak, Kalimantan Barat 79357","Hilir Tengah, Kec. Ngabang, Kabupaten Landak",KALIMANTAN BARAT,79357.0,Indonesia, 081345218222,,,0.3863048,109.9629315,https://maps.google.com/?cid=0x0:0x7545333922baa8b8,
mall,Toko,Toko Ajo,"9WJW+6RV, Hilir Ktr., Kec. Ngabang, Kabupaten Landak, Kalimantan Barat 79357","Hilir Ktr., Kec. Ngabang, Kabupaten Landak",KALIMANTAN BARAT,79357.0,Indonesia, 08115631802,,,0.3806057,109.9470317,https://maps.google.com/?cid=0x0:0xc55c0707c04169cd,
mall,mall,Cinanta Copy Center,"9XW2+C83, Jl. Pangeran Cinata, Hilir Tengah, Kec. Ngabang, Kabupaten Landak, Kalimantan Barat 79357","Jl. Pangeran Cinata, Hilir Tengah, Kec. Ngabang, Kabupaten Landak",KALIMANTAN BARAT,79357.0,Indonesia,,,,0.3960027,109.9507953,https://maps.google.com/?cid=0x0:0x9fcc345eb9676f96,
mall,Kantor Perusahaan,Kantor Bupati Landak,"9WFQ+HF7, Jalan Raya, Amboyo Inti, Ngabang, Landak Regency, West Kalimantan 79357","Jalan Raya, Amboyo Inti, Ngabang, Landak Regency",KALIMANTAN BARAT,79357.0,Indonesia,,,,0.3739058,109.9386749,https://maps.google.com/?cid=0x0:0x4a5f931770806da6,
mall,Toko Perlengkapan Bayi,Toko Sentral Rejeki,"Jl. Pangeran Cinata, Hilir Tengah, Kec. Ngabang, Kabupaten Landak, Kalimantan Barat 79357","Hilir Tengah, Kec. Ngabang, Kabupaten Landak",KALIMANTAN BARAT,79357.0,Indonesia, 082254697728,,,0.3963201,109.9486757,https://maps.google.com/?cid=0x0:0x8034153b20019f69,
mall,Toko umum,Toko Aye1,"Jl. Sebangki, Aur Sampuk, Kec. Sengah Temila, Kabupaten Landak, Kalimantan Barat 79358","Aur Sampuk, Kec. Sengah Temila, Kabupaten Landak",KALIMANTAN BARAT,79358.0,Indonesia,,,,0.3334769,109.5803233,https://maps.google.com/?cid=0x0:0x6b646c01c4e717d0,
mall,Toko Swalayan,Yaya_mart 1,"3G9P+R62, Sei Segak, Kec. Sebangki, Kabupaten Landak, Kalimantan Barat 78355","Sei Segak, Kec. Sebangki, Kabupaten Landak",KALIMANTAN BARAT,78355.0,Indonesia,,,,0.0692134,109.5365144,https://maps.google.com/?cid=0x0:0x77637b740764f1b7,
mall,Pusat Perbelanjaan,Toko lancar jaya,"4JG6+8MR, Sebangki, Kec. Sebangki, Kabupaten Landak, Kalimantan Barat 79358","Sebangki, Kec. Sebangki, Kabupaten Landak",KALIMANTAN BARAT,79358.0,Indonesia, 082253201483,,,0.1246448,109.6116206,https://maps.google.com/?cid=0x0:0xd1b6e2674f592a91,
mall,mall,Kalimantan Barat 79356,"Kabupaten Landak, Kalimantan Barat","Kabupaten Landak, Kalimantan Barat",KALIMANTAN BARAT,,Indonesia,,,,0.3883464,109.7115472,https://maps.google.com/?cid=0x0:0x20df62cbb3031bce,
mall,Toko Swalayan,Mitra Melda,"8HMJ+M7P, Jl. Sebangki, Aur Sampuk, Kec. Sengah Temila, Kabupaten Landak, Kalimantan Barat 79358","Jl. Sebangki, Aur Sampuk, Kec. Sengah Temila, Kabupaten Landak",KALIMANTAN BARAT,79358.0,Indonesia, 081314915183,,,0.3342065,109.5807004,https://maps.google.com/?cid=0x0:0x808381f4ae3c0b7f,
mall,Toko,TOKO MITRA YOSSI,"Jl. Raya Pahauman - Ngabang, Dusun Tumahe, Paloan, Kec. Sengah Temila, Kabupaten Landak, Kalimantan Barat 79358","Dusun Tumahe, Paloan, Kec. Sengah Temila, Kabupaten Landak",KALIMANTAN BARAT,79358.0,Indonesia, 082251336804,,,0.3201568,109.6619844,https://maps.google.com/?cid=0x0:0x18a366e0b8ccf790,
mall,Minimarket,Indomaret Sidas,"9QX5+8X, Sidas, Kec. Sengah Temila, Kabupaten Landak, Kalimantan Barat 79356","Sidas, Kec. Sengah Temila, Kabupaten Landak",KALIMANTAN BARAT,79356.0,Indonesia,,,,0.39831,109.7599962,https://maps.google.com/?cid=0x0:0xed1c3d3a3c19d9a0,
mall,Komplek perumahan,Tumahe,"8M96+WV9, Jl. Raya Pahauman - Ngabang, Pahauman, Kec. Sengah Temila, Kabupaten Landak, Kalimantan Barat","Kabupaten Landak, Kalimantan Barat",KALIMANTAN BARAT,,Indonesia,,,,0.3197897,109.6622417,https://maps.google.com/?cid=0x0:0x8d2b34869a2b2f4f,
mall,Toko bahan makanan,Oscar mart,"9RJ6+FHM, Jl. Trans Kalimantan, Amboyo Sel., Kec. Ngabang, Kabupaten Landak, Kalimantan Barat 79356","Jl. Trans Kalimantan, Amboyo Sel., Kec. Ngabang, Kabupaten Landak",KALIMANTAN BARAT,79356.0,Indonesia,,,,0.3812159,109.8114345,https://maps.google.com/?cid=0x0:0xc7fcbdfb5630a14c,
mall,Toko,Warung semabko,"8P4J+277, lenggot, Kec. Sengah Temila, Kabupaten Landak, Kalimantan Barat","Kabupaten Landak, Kalimantan Barat",KALIMANTAN BARAT,,Indonesia,,,,0.3050439,109.730686,https://maps.google.com/?cid=0x0:0xfee9ebf22f273ad3,
mall,Minimarket,Indomaret PALOAN,"8M97+QC9, Saham, Kec. Sengah Temila, Kabupaten Landak, Kalimantan Barat 79358","Saham, Kec. Sengah Temila, Kabupaten Landak",KALIMANTAN BARAT,79358.0,Indonesia,,,,0.3194099,109.6635941,https://maps.google.com/?cid=0x0:0x1b23b2dcbb304156,
mall,Toko,Toko novia,"9QX4+P3G, Sidas, Kec. Sengah Temila, Kabupaten Landak, Kalimantan Barat 79356","Sidas, Kec. Sengah Temila, Kabupaten Landak",KALIMANTAN BARAT,79356.0,Indonesia,,,,0.3993213,109.7552067,https://maps.google.com/?cid=0x0:0x9330875c69071b0e,
mall,Kantor Perusahaan,UPR GUNCANG JAYA SENAKIN,"9HF6+MR9, Senakin, Kec. Sengah Temila, Kabupaten Landak, Kalimantan Barat 79356","Senakin, Kec. Sengah Temila, Kabupaten Landak",KALIMANTAN BARAT,79356.0,Indonesia, 081256754269,,,0.3741523,109.5621126,https://maps.google.com/?cid=0x0:0xa5dda88f8fea656f,
mall,mall,Kec. Sengah Temila,"Kabupaten Landak, Kalimantan Barat","Kabupaten Landak, Kalimantan Barat",KALIMANTAN BARAT,,Indonesia,,,,0.3186515,109.6664889,https://maps.google.com/?cid=0x0:0x90935cc60d776955,
mall,Bank,ATM Bank Kalbar Kantor Capem Pahauman,"Pahauman, Kec. Sengah Temila, Kabupaten Landak, Kalimantan Barat 79356","Kec. Sengah Temila, Kabupaten Landak",KALIMANTAN BARAT,79356.0,Indonesia, 0561732148,,,0.388346,109.711547,https://maps.google.com/?cid=0x0:0xc7023aa4abdd5112,
mall,Jasa Taksi,Taksi pontianak-ngabang,"8MC6+3V9, Jl. Lintas Kalimantan Poros Tengah, Saham, Kec. Sengah Temila, Kabupaten Landak, Kalimantan Barat 79358","Jl. Lintas Kalimantan Poros Tengah, Saham, Kec. Sengah Temila, Kabupaten Landak",KALIMANTAN BARAT,79358.0,Indonesia, 085245150053,,,0.3201517,109.6622496,https://maps.google.com/?cid=0x0:0x8c8de7def16272e4,
mall,Kedai Kopi,Pasar Darit,"HJRG+68F, Darit, Kec. Menyuke, Kabupaten Landak, Kalimantan Barat 79364","Darit, Kec. Menyuke, Kabupaten Landak",KALIMANTAN BARAT,79364.0,Indonesia,,,,0.5905642,109.6257903,https://maps.google.com/?cid=0x0:0xec402cb5c080f7f6,
mall,Taman,Penimbangan sawit mangkuas,"9RHC+X9G, Jl. Lintas Kalimantan Poros Tengah, Amboyo Sel., Kec. Ngabang, Kabupaten Landak, Kalimantan Barat 79356","Jl. Lintas Kalimantan Poros Tengah, Amboyo Sel., Kec. Ngabang, Kabupaten Landak",KALIMANTAN BARAT,79356.0,Indonesia,,,,0.3799294,109.8209441,https://maps.google.com/?cid=0x0:0x5ff8bf9c33d57bf3,
mall,Toko bahan makanan,TOKO SAYUR INDAH,"FQX7+HWV, Antan Rayan, Kec. Ngabang, Kabupaten Landak, Kalimantan Barat 79356","Antan Rayan, Kec. Ngabang, Kabupaten Landak",KALIMANTAN BARAT,79356.0,Indonesia,,,,0.4992255,109.7648468,https://maps.google.com/?cid=0x0:0x61777fe85fcda90f,
mall,Toko Kosmetik,ORIFLAME CENTER,"6VP8+5F6, Amboyo Sel., Kec. Ngabang, Kabupaten Landak, Kalimantan Barat 79357","Amboyo Sel., Kec. Ngabang, Kabupaten Landak",KALIMANTAN BARAT,79357.0,Indonesia, 081329222937,,,0.2354101,109.8661365,https://maps.google.com/?cid=0x0:0x5b9817e371d6af2d,
mall,Kedai Kopi,Kedai Rudi,"9QX6+CFW, Jl. Lintas Kalimantan Poros Tengah, Sidas, Kec. Sengah Temila, Kabupaten Landak, Kalimantan Barat 79356","Jl. Lintas Kalimantan Poros Tengah, Sidas, Kec. Sengah Temila, Kabupaten Landak",KALIMANTAN BARAT,79356.0,Indonesia, 081256425201,,,0.3986217,109.7612138,https://maps.google.com/?cid=0x0:0x80cd75396f076dba,
mall,Toko Swalayan,Golden Mart,"9WWV+9XF, Jl. Ilong, Hilir Ktr., Kec. Ngabang, Kabupaten Landak, Kalimantan Barat 79357","Jl. Ilong, Hilir Ktr., Kec. Ngabang, Kabupaten Landak",KALIMANTAN BARAT,79357.0,Indonesia, 082253867575,,,0.3959321,109.9449253,https://maps.google.com/?cid=0x0:0xc79232e20f451f66,
mall,Toko,TOKO SAMUANGAN,"9HW2+82, Andeng, Kec. Sengah Temila, Kabupaten Landak, Kalimantan Barat 79356","Andeng, Kec. Sengah Temila, Kabupaten Landak",KALIMANTAN BARAT,79356.0,Indonesia, 082155581233,,,0.3956981,109.5500757,https://maps.google.com/?cid=0x0:0xaeea656656795f60,
mall,Toko Swalayan,Toko Sejahtera Bersama,"9HP6+WHP, Andeng, Kec. Sengah Temila, Kabupaten Landak, Kalimantan Barat 79356","Andeng, Kec. Sengah Temila, Kabupaten Landak",KALIMANTAN BARAT,79356.0,Indonesia,,,,0.3873372,109.5614598,https://maps.google.com/?cid=0x0:0xee706901f850c3e5,
mall,Toko,Toko Sembako A.R.J (Akahsia R.jarti),"FQX9+PMG, Jl. Bengkayang - Ngabang, Antan Rayan, Kec. Ngabang, Kabupaten Landak, Kalimantan Barat 79356","Jl. Bengkayang - Ngabang, Antan Rayan, Kec. Ngabang, Kabupaten Landak",KALIMANTAN BARAT,79356.0,Indonesia,,,,0.4993167,109.7692041,https://maps.google.com/?cid=0x0:0x4f636024ca410483,
mall,Gudang,Voucher Data Leo,"FFRQ+66G, Pakumbang, Kec. Sompak, Kabupaten Landak, Kalimantan Barat 79355","Pakumbang, Kec. Sompak, Kabupaten Landak",KALIMANTAN BARAT,79355.0,Indonesia, 082157155488,,,0.4905744,109.4880734,https://maps.google.com/?cid=0x0:0x7a52b8672e9bedbb,
mall,Pusat Perbelanjaan,Melda Mart Swalayan,"9HCC+9C5, Senakin, Kec. Sengah Temila, Kabupaten Landak, Kalimantan Barat 79356","Senakin, Kec. Sengah Temila, Kabupaten Landak",KALIMANTAN BARAT,79356.0,Indonesia,,,,0.3708779,109.5711091,https://maps.google.com/?cid=0x0:0x92440681d7ffbcf8,
mall,Toko umum,Toko Tunas Baru,"Jalan raya, Simpang Pasir, Kec. Sengah Temila, Kabupaten Landak, Kalimantan Barat 79356","Simpang Pasir, Kec. Sengah Temila, Kabupaten Landak",KALIMANTAN BARAT,79356.0,Indonesia, 082154342410,,,0.4014474,109.7463969,https://maps.google.com/?cid=0x0:0xa7189416363fcdd9,
mall,Toko,Toko TEMAN,"9QX4+8RR, SIMPANG PASIR, Sidas, Kec. Sengah Temila, Kabupaten Landak, Kalimantan Barat","Kabupaten Landak, Kalimantan Barat",KALIMANTAN BARAT,,Indonesia,,,,0.3983524,109.7570101,https://maps.google.com/?cid=0x0:0xc4b0c174f380c5fe,
mall,Gudang,Voucher Data Leo,"FFRQ+66G, Pakumbang, Kec. Sompak, Kabupaten Landak, Kalimantan Barat 79355","Pakumbang, Kec. Sompak, Kabupaten Landak",KALIMANTAN BARAT,79355.0,Indonesia, 082157155488,,,0.4905744,109.4880734,https://maps.google.com/?cid=0x0:0x7a52b8672e9bedbb,
mall,Toko Perhiasan,Toko Mas Timoer Jaya,"Jl. Karangan - Sompak Jalan Simpang, Pauh, Kec. Sompak, Kabupaten Landak, Kalimantan Barat 79363","Pauh, Kec. Sompak, Kabupaten Landak",KALIMANTAN BARAT,79363.0,Indonesia,,,,0.5566524,109.3792879,https://maps.google.com/?cid=0x0:0xe9e5b4ee75c9254b,
mall,mall,Kalimantan Barat 79363,"Kec. Mempawah Hulu, Kabupaten Landak, Kalimantan Barat","Kabupaten Landak, Kalimantan Barat",KALIMANTAN BARAT,,Indonesia,,,,0.6745598,109.4259114,https://maps.google.com/?cid=0x0:0xdcefe0766b98359b,
mall,Pusat Perbelanjaan,Toko Pabanta,"PG95+V96, Jl. Bengkayang - Ngabang, Semade, Kec. Banyuke Hulu, Kabupaten Landak, Kalimantan Barat 79364","Jl. Bengkayang - Ngabang, Semade, Kec. Banyuke Hulu, Kabupaten Landak",KALIMANTAN BARAT,79364.0,Indonesia,,,,0.7196506,109.5084042,https://maps.google.com/?cid=0x0:0xc360ed6481671c5,
mall,Pusat Perbelanjaan,TUAH RAYA,"H94H+V8H, Jln. Raya Caokng, Karangan, Kec. Mempawah Hulu, Kabupaten Landak, Kalimantan Barat 79362","Jln. Raya Caokng, Karangan, Kec. Mempawah Hulu, Kabupaten Landak",KALIMANTAN BARAT,79362.0,Indonesia, 082157988859,,,0.5571837,109.3783443,https://maps.google.com/?cid=0x0:0xc418752602330003,
mall,Komplek perumahan,Langganan Kita Karangan,"H94G+CWJ, Karangan, Kec. Mempawah Hulu, Kabupaten Landak, Kalimantan Barat 79362","Karangan, Kec. Mempawah Hulu, Kabupaten Landak",KALIMANTAN BARAT,79362.0,Indonesia,,,,0.5560824,109.3772535,https://maps.google.com/?cid=0x0:0x69bdb565f2a8e77c,
mall,Toko,Nesda Store,"Pakumbang, Kec. Sompak, Kabupaten Landak, Kalimantan Barat 79363","Kec. Sompak, Kabupaten Landak",KALIMANTAN BARAT,79363.0,Indonesia, 085245272922,,,0.4911592,109.487076,https://maps.google.com/?cid=0x0:0x24b0561188699a71,
mall,Pusat Perbelanjaan,TOKOH JABATA MASE,"MG9C+64Q, Kampet, Kec. Banyuke Hulu, Kabupaten Landak, Kalimantan Barat 79364","Kampet, Kec. Banyuke Hulu, Kabupaten Landak",KALIMANTAN BARAT,79364.0,Indonesia, 085248063044,,,0.667401,109.5204024,https://maps.google.com/?cid=0x0:0xeed613a6485bfdf,
mall,Komplek perumahan,Rumah ambong,"M72W+J85, Bilayuk, Kec. Mempawah Hulu, Kabupaten Landak, Kalimantan Barat 79362","Bilayuk, Kec. Mempawah Hulu, Kabupaten Landak",KALIMANTAN BARAT,79362.0,Indonesia,,,,0.6518291,109.2966535,https://maps.google.com/?cid=0x0:0x3f458de8776bfa1e,
mall,Pusat Perbelanjaan,Toko Jabata Mase,"PGC6+PJG, Jl. Bengkayang - Ngabang, Semade, Kec. Banyuke Hulu, Kabupaten Landak, Kalimantan Barat 79364","Jl. Bengkayang - Ngabang, Semade, Kec. Banyuke Hulu, Kabupaten Landak",KALIMANTAN BARAT,79364.0,Indonesia, 081392975917,,,0.7218009,109.511591,https://maps.google.com/?cid=0x0:0x9bb27cbd01fe2331,
mall,Pasar tradisional,Pasar Tempoak,"Jalan Tempoak, Menjalin, Landak, 78362, Pentek, Kec. Sadaniang, Kab. Mempawah, Kalimantan Barat 79362","Menjalin, Landak,",KALIMANTAN BARAT,78362.0,Indonesia, 085391239884,,,0.5414424,109.2385383,https://maps.google.com/?cid=0x0:0x161224f664ee7621,
mall,Minimarket,Toko Irfa 2,"H95J+634, Karangan, Kec. Mempawah Hulu, Kabupaten Landak, Kalimantan Barat 78362","Karangan, Kec. Mempawah Hulu, Kabupaten Landak",KALIMANTAN BARAT,78362.0,Indonesia, 085245777899,,,0.5580132,109.380199,https://maps.google.com/?cid=0x0:0x16bb006e982ee12e,
mall,Toko bahan makanan,Toko Sayur TIMBA'LUI GRUP,"H94G+83V, Karangan, Kec. Mempawah Hulu, Kabupaten Landak, Kalimantan Barat 79362","Karangan, Kec. Mempawah Hulu, Kabupaten Landak",KALIMANTAN BARAT,79362.0,Indonesia, 085750615552,,,0.5558567,109.3751843,https://maps.google.com/?cid=0x0:0x1f24abe7b5a361e3,
mall,Toko umum,tk. tanti,"PFCR+PXR, Tiang Tj., Kec. Mempawah Hulu, Kabupaten Landak, Kalimantan Barat 79364","Tiang Tj., Kec. Mempawah Hulu, Kabupaten Landak",KALIMANTAN BARAT,79364.0,Indonesia, 08969405338,,,0.721852,109.4923757,https://maps.google.com/?cid=0x0:0x1280fbd5472a1b64,
mall,Layanan Transportasi,Pasar Menjalin,"F89Q+V2H, Jalan Raya, Sepahat, Kec. Menjalin, Kabupaten Landak, Kalimantan Barat 79362","Jalan Raya, Sepahat, Kec. Menjalin, Kabupaten Landak",KALIMANTAN BARAT,79362.0,Indonesia,,,,0.4696994,109.3376006,https://maps.google.com/?cid=0x0:0x7ad6a45fb2c8cbef,
mall,Toko,TOKO EFATA/NUR/CAHAYA,"Karangan, Kec. Mempawah Hulu, Kabupaten Landak, Kalimantan Barat 79362","Kec. Mempawah Hulu, Kabupaten Landak",KALIMANTAN BARAT,79362.0,Indonesia, 081254836810,,,0.5557483,109.3766629,https://maps.google.com/?cid=0x0:0x71f3a77971915419,
mall,Toko Ponsel,Rcellular,"Karangan, Kec. Mempawah Hulu, Kabupaten Landak, Kalimantan Barat 79362","Kec. Mempawah Hulu, Kabupaten Landak",KALIMANTAN BARAT,79362.0,Indonesia, 085754358487,,,0.5588975,109.3802338,https://maps.google.com/?cid=0x0:0x9257d88d9eab236e,
mall,mall,Tugu Sompak,"GF8H+496, Sompak, Kec. Sompak, Kabupaten Landak, Kalimantan Barat 79363","Sompak, Kec. Sompak, Kabupaten Landak",KALIMANTAN BARAT,79363.0,Indonesia,,,,0.5152813,109.4783829,https://maps.google.com/?cid=0x0:0x51d0263e548799f1,
supermarket,Toko umum,Toko Rohim,"Q423+9CJ, Serimbu, Kec. Air Besar, Kabupaten Landak, Kalimantan Barat 79367","Serimbu, Kec. Air Besar, Kabupaten Landak",KALIMANTAN BARAT,79367.0,Indonesia, 081257691708,,,0.7509737,110.103531,https://maps.google.com/?cid=0x0:0xdcac9aa9144a3b62,
supermarket,Pemasok Air Minum Dalam Kemasan,Galon aip,"Q422+MVV, Jl. Serimbu - Ngabang, Serimbu, Kec. Air Besar, Kabupaten Landak, Kalimantan Barat 79367","Jl. Serimbu - Ngabang, Serimbu, Kec. Air Besar, Kabupaten Landak",KALIMANTAN BARAT,79367.0,Indonesia, 081254160610,,,0.7517429,110.1021581,https://maps.google.com/?cid=0x0:0x807762a4c977fe29,
supermarket,supermarket,Kalimantan Barat 79365,"Kec. Air Besar, Kabupaten Landak, Kalimantan Barat","Kabupaten Landak, Kalimantan Barat",KALIMANTAN BARAT,,Indonesia,,,,0.9225877,110.0449662,https://maps.google.com/?cid=0x0:0x8668b83c1ca1ca6f,
supermarket,Toko bahan makanan,Warung Sayur Damai  Fi'al,"P4X4+473, Serimbu, Kec. Air Besar, Kabupaten Landak, Kalimantan Barat 79367","Serimbu, Kec. Air Besar, Kabupaten Landak",KALIMANTAN BARAT,79367.0,Indonesia,,,,0.7477522,110.1056839,https://maps.google.com/?cid=0x0:0xde43a0945f7909fb,
supermarket,Toko bahan makanan,Mustika Abadi,"P4W4+RFG, Serimbu, Kec. Air Besar, Kabupaten Landak, Kalimantan Barat 79367","Serimbu, Kec. Air Besar, Kabupaten Landak",KALIMANTAN BARAT,79367.0,Indonesia,,,,0.7470729,110.1061891,https://maps.google.com/?cid=0x0:0xbe5585790911e96e,
supermarket,Toko bahan makanan,Warung sayur dan tongkrongan Doans,"P4X3+JW9, Serimbu, Kec. Air Besar, Kabupaten Landak, Kalimantan Barat 79367","Serimbu, Kec. Air Besar, Kabupaten Landak",KALIMANTAN BARAT,79367.0,Indonesia, 081257691708,,,0.7490775,110.1048015,https://maps.google.com/?cid=0x0:0x1638b5e5d0645d13,
supermarket,supermarket,Toko Rafa,"P4MH+J8H, Sepangah, Kec. Air Besar, Kabupaten Landak, Kalimantan Barat","Kabupaten Landak, Kalimantan Barat",KALIMANTAN BARAT,,Indonesia, 081349100606,,,0.7340646,110.128347,https://maps.google.com/?cid=0x0:0xdcda90841a243461,
supermarket,Toko Swalayan,Tip Top Rawamangun,"Jl. Balai Pustaka Timur No.31-35, Rawamangun, Kec. Pulo Gadung, Kota Jakarta Timur, Daerah Khusus Ibukota Jakarta 13220","Rawamangun, Kec. Pulo Gadung, Kota Jakarta Timur",KALIMANTAN BARAT,13220.0,Indonesia, 0214892154,,,-6.2007585,106.8860903,https://maps.google.com/?cid=0x0:0xea41bd5add56f035,
supermarket,Toko bahan makanan,ANA FOODS,"Jl. Raya Narogong Jl. Kp. Rawahingkik No.RT.002/001, Limus Nunggal, Kec. Cileungsi, Kabupaten Bogor, Jawa Barat 16820","Limus Nunggal, Kec. Cileungsi, Kabupaten Bogor",KALIMANTAN BARAT,16820.0,Indonesia, 085312411551,,,-6.3952561,106.9703338,https://maps.google.com/?cid=0x0:0x5ca00e553bfcd4f2,
supermarket,supermarket,Kalimantan Barat 79364,"Kabupaten Landak, Kalimantan Barat","Kabupaten Landak, Kalimantan Barat",KALIMANTAN BARAT,,Indonesia,,,,0.6737656,109.6163185,https://maps.google.com/?cid=0x0:0x8890c5a7792b01c3,
supermarket,Toko bahan makanan,Dusun loeng,"MGXJ+6R3, Dusun loeng, Untang, Kec. Banyuke Hulu, Kabupaten Landak, Kalimantan Barat 79364","Dusun loeng, Untang, Kec. Banyuke Hulu, Kabupaten Landak",KALIMANTAN BARAT,79364.0,Indonesia,,,,0.6980058,109.5320475,https://maps.google.com/?cid=0x0:0xe73f3458ee8bde40,
supermarket,Toko,SEGAR MART,"HJRG+HQP, Jl. Raya Bengkayang, Darit, Kec. Menyuke, Kabupaten Landak, Kalimantan Barat 79364","Jl. Raya Bengkayang, Darit, Kec. Menyuke, Kabupaten Landak",KALIMANTAN BARAT,79364.0,Indonesia, 085348123673,,,0.5914541,109.6269454,https://maps.google.com/?cid=0x0:0xa9b468600dc918dc,
supermarket,Pasar,Sumber Buah Family,"HJRG+4GV, Darit, Kec. Menyuke, Kabupaten Landak, Kalimantan Barat","Kabupaten Landak, Kalimantan Barat",KALIMANTAN BARAT,,Indonesia, 085787816996,,,0.5903682,109.6263084,https://maps.google.com/?cid=0x0:0x3c74ea2750a3bcc6,
supermarket,Toko,Toko Usaha Sabar,"PP2W+57P, Selange, Kec. Meranti, Kabupaten Landak, Kalimantan Barat","Kabupaten Landak, Kalimantan Barat",KALIMANTAN BARAT,,Indonesia,,,,0.7004579,109.7456999,https://maps.google.com/?cid=0x0:0x35a831aee7cbd00d,
supermarket,Toko Perlengkapan Rumah,Warung elvan,"MGQ8+23R, Untang, Kec. Banyuke Hulu, Kabupaten Landak, Kalimantan Barat 79364","Untang, Kec. Banyuke Hulu, Kabupaten Landak",KALIMANTAN BARAT,79364.0,Indonesia,,,,0.6876183,109.5151561,https://maps.google.com/?cid=0x0:0x2ac721901a1e12c,
supermarket,Toko umum,Toko Pamanean,"MM3X+MW3, Kelampai Setolo, Kec. Meranti, Kabupaten Landak, Kalimantan Barat","Kabupaten Landak, Kalimantan Barat",KALIMANTAN BARAT,,Indonesia,,,,0.6541437,109.6997976,https://maps.google.com/?cid=0x0:0x2ebf664163cdd93a,
supermarket,Dapur Umum,Cheasa Catering,"HJRG+CHX, Jl. Bengkayang - Ngabang, Darit, Kec. Menyuke, Kabupaten Landak, Kalimantan Barat 79364","Jl. Bengkayang - Ngabang, Darit, Kec. Menyuke, Kabupaten Landak",KALIMANTAN BARAT,79364.0,Indonesia,,,,0.59091,109.62647,https://maps.google.com/?cid=0x0:0x962cc7bb267c435e,
supermarket,Toko Swalayan,Tristar,"Rachma, Jl. Basuki Rachmat No.155, Malo Jelayan, Kec. Teriak, Kabupaten Bengkayang, Kalimantan Barat 79214","Jl. Basuki Rachmat No.155, Malo Jelayan, Kec. Teriak, Kabupaten Bengkayang",KALIMANTAN BARAT,79214.0,Indonesia,,,,0.816423,109.4895399,https://maps.google.com/?cid=0x0:0xc272b2fe5d4a2f0a,
supermarket,Toko,Toko Sembako Balqis,"JHJP+R52, Jl. Bengkayang - Ngabang, Tembawang Bale, Kec. Banyuke Hulu, Kabupaten Bengkayang, Kalimantan Barat 79364","Jl. Bengkayang - Ngabang, Tembawang Bale, Kec. Banyuke Hulu, Kabupaten Bengkayang",KALIMANTAN BARAT,79364.0,Indonesia,,,,0.6314342,109.5857195,https://maps.google.com/?cid=0x0:0xa1ba2bcee5567958,
supermarket,Minimarket,Multi Market,"RF9M+V89, Malo Jelayan, Kec. Teriak, Kabupaten Bengkayang, Kalimantan Barat 79214","Malo Jelayan, Kec. Teriak, Kabupaten Bengkayang",KALIMANTAN BARAT,79214.0,Indonesia,,,,0.8196526,109.4833503,https://maps.google.com/?cid=0x0:0x6b9fea64d5765190,
supermarket,Toko bahan makanan,Toko Chelsea,"pasar, Anik Dingir, Kec. Menyuke, Kabupaten Landak, Kalimantan Barat 79356","Anik Dingir, Kec. Menyuke, Kabupaten Landak",KALIMANTAN BARAT,79356.0,Indonesia,,,,0.5338237,109.7350563,https://maps.google.com/?cid=0x0:0xd46acad3d2b3e623,
supermarket,Toko bahan makanan,Toko Marindy Family,"MM7X+QVR, Kelampai Setolo, Kec. Meranti, Kabupaten Landak, Kalimantan Barat","Kabupaten Landak, Kalimantan Barat",KALIMANTAN BARAT,,Indonesia,,,,0.6644754,109.6996428,https://maps.google.com/?cid=0x0:0xb5b29b4b06932dac,
supermarket,Toko,Toko mama andri,"GPPG+3J5, Anik Dingir, Kec. Menyuke, Kabupaten Landak, Kalimantan Barat 79356","Anik Dingir, Kec. Menyuke, Kabupaten Landak",KALIMANTAN BARAT,79356.0,Indonesia, 082255419845,,,0.5351267,109.7266015,https://maps.google.com/?cid=0x0:0xa1141688eef30d05,
supermarket,Toko Swalayan,wijaya asri mandiri,"PGX3+GMW, Benteng, Kec. Teriak, Kabupaten Bengkayang, Kalimantan Barat 79214","Benteng, Kec. Teriak, Kabupaten Bengkayang",KALIMANTAN BARAT,79214.0,Indonesia,,,,0.7488736,109.504191,https://maps.google.com/?cid=0x0:0x9058aa8bb6b336eb,
supermarket,Pasar,Warung Pak Heru,"MCVF+V2R, Tiang Tj., Kec. Mempawah Hulu, Kabupaten Landak, Kalimantan Barat 79363","Tiang Tj., Kec. Mempawah Hulu, Kabupaten Landak",KALIMANTAN BARAT,79363.0,Indonesia,,,,0.6947318,109.4225152,https://maps.google.com/?cid=0x0:0xa2cd56140c23c169,
supermarket,Toko umum,Warung Sembako MTOB,"PGMM+2J4, Jl. Bengkayang - Ngabang, Tanjung, Kec. Teriak, Kabupaten Bengkayang, Kalimantan Barat 79214","Jl. Bengkayang - Ngabang, Tanjung, Kec. Teriak, Kabupaten Bengkayang",KALIMANTAN BARAT,79214.0,Indonesia,,,,0.7403895,109.5411678,https://maps.google.com/?cid=0x0:0x9f882f38e5347da,
supermarket,Toko Swalayan,Mitra Kita,"9XP5+5P6, Jl. Pemuda, Hilir Ktr., Kec. Ngabang, Kabupaten Landak, Kalimantan Barat 79357","Jl. Pemuda, Hilir Ktr., Kec. Ngabang, Kabupaten Landak",KALIMANTAN BARAT,79357.0,Indonesia,,,,0.3854194,109.9592649,https://maps.google.com/?cid=0x0:0x6a98fee091278565,
supermarket,Toko Swalayan,Citra Swalayan,"Jl. Raya Ngabang, Hilir Ktr., Kec. Ngabang, Kabupaten Landak, Kalimantan Barat 79357","Hilir Ktr., Kec. Ngabang, Kabupaten Landak",KALIMANTAN BARAT,79357.0,Indonesia,,,,0.3802721,109.9522883,https://maps.google.com/?cid=0x0:0xde55c69ed204a9c9,
supermarket,Toko Suku Cadang Mobil,Bengkel Matahari Motor,"9XJ2+6MM, Jl. Raya Ngabang, Hilir Ktr., Kec. Ngabang, Kabupaten Landak, Kalimantan Barat","Kabupaten Landak, Kalimantan Barat",KALIMANTAN BARAT,,Indonesia, 083143390535,,,0.3805871,109.9516663,https://maps.google.com/?cid=0x0:0x4e83fb6d4658e8c6,
supermarket,Toko Swalayan,Satelit Mart,"9XP8+GM8, Hilir Tengah, Kec. Ngabang, Kabupaten Landak, Kalimantan Barat 79357","Hilir Tengah, Kec. Ngabang, Kabupaten Landak",KALIMANTAN BARAT,79357.0,Indonesia, 081345668736,,,0.3862754,109.9667069,https://maps.google.com/?cid=0x0:0x23c4c49a494cc877,
supermarket,Toko,NAGAL 137 (Toko Borneo lestari),"9424+QX7, Mandor Kiru, Kec. Jelimpo, Kabupaten Landak, Kalimantan Barat","Kabupaten Landak, Kalimantan Barat",KALIMANTAN BARAT,,Indonesia, 085349052407,,,0.3519217,110.1074364,https://maps.google.com/?cid=0x0:0xdee4786d7710251d,
supermarket,Toko Swalayan,Mitra Niaga Mart,"Jl. Raya Pulau Bendu, Hilir Tengah, Kec. Ngabang, Kabupaten Landak, Kalimantan Barat 79357","Hilir Tengah, Kec. Ngabang, Kabupaten Landak",KALIMANTAN BARAT,79357.0,Indonesia,,,,0.3866098,109.966872,https://maps.google.com/?cid=0x0:0x493d6abb03054f6b,
supermarket,Toko,Kerupuk MAK GADOH,"Pinyit Dusun Tabik, Kec. Jelimpo, Kabupaten Landak, Kalimantan Barat 79357","Kec. Jelimpo, Kabupaten Landak",KALIMANTAN BARAT,79357.0,Indonesia, 085821149398,,,0.3219249,110.0604733,https://maps.google.com/?cid=0x0:0x352f8ebd63976832,
supermarket,Toko bahan makanan,Toko Marvin,"Jl. Serimbu, Ambarang, Kec. Ngabang, Kabupaten Landak, Kalimantan Barat 79357","Ambarang, Kec. Ngabang, Kabupaten Landak",KALIMANTAN BARAT,79357.0,Indonesia,,,,0.4302122,110.0087606,https://maps.google.com/?cid=0x0:0xc1f310759a4b2034,
supermarket,Toko Swalayan,Toko Setelit,"9XM5+6JJ, Hilir Ktr., Kec. Ngabang, Kabupaten Landak, Kalimantan Barat 79357","Hilir Ktr., Kec. Ngabang, Kabupaten Landak",KALIMANTAN BARAT,79357.0,Indonesia,,,,0.3830878,109.9590109,https://maps.google.com/?cid=0x0:0xb16131aae47aba81,
supermarket,Toserba,DnZ Mart,"9XMF+255, Jalan Raya, Tebedak, Ngabang, Landak Regency, West Kalimantan 79357","Jalan Raya, Tebedak, Ngabang, Landak Regency",KALIMANTAN BARAT,79357.0,Indonesia, 085247027269,,,0.3825191,109.9729709,https://maps.google.com/?cid=0x0:0xaa72a588d6e08de0,
supermarket,Toko,Kawan Kita,"9XM5+RM6, Hilir Ktr., Kec. Ngabang, Kabupaten Landak, Kalimantan Barat 79357","Hilir Ktr., Kec. Ngabang, Kabupaten Landak",KALIMANTAN BARAT,79357.0,Indonesia, 056321849,,,0.3845431,109.9591254,https://maps.google.com/?cid=0x0:0x8beb9f600fdba689,
supermarket,Toko,RINGGIT KITA,"Hilir Ktr., Kec. Ngabang, Kabupaten Landak, Kalimantan Barat 79357","Kec. Ngabang, Kabupaten Landak",KALIMANTAN BARAT,79357.0,Indonesia,,,,0.383465,109.9590976,https://maps.google.com/?cid=0x0:0xb6989d04d6605334,
supermarket,supermarket,Warung mama kety,"F3P5+QQ2, Engkadu, Kec. Ngabang, Kabupaten Landak, Kalimantan Barat 79357","Engkadu, Kec. Ngabang, Kabupaten Landak",KALIMANTAN BARAT,79357.0,Indonesia,,,,0.4868936,110.0593832,https://maps.google.com/?cid=0x0:0xd59b4b5b820d21db,
supermarket,Toko Swalayan,Cakrawala II Swalayan,"Ktr, Hilir Ktr., Kec. Ngabang, Kabupaten Landak, Kalimantan Barat 79357","Hilir Ktr., Kec. Ngabang, Kabupaten Landak",KALIMANTAN BARAT,79357.0,Indonesia,,,,0.3813771,109.9535949,https://maps.google.com/?cid=0x0:0x28436cfd5f557206,
supermarket,Toko,Warung mamak Raja,"62R6+2J, Pawis Hilir, Kec. Jelimpo, Kabupaten Landak, Kalimantan Barat","Kabupaten Landak, Kalimantan Barat",KALIMANTAN BARAT,,Indonesia,,,,0.2396614,110.0117415,https://maps.google.com/?cid=0x0:0xab9bffe8f77f543c,
supermarket,Toko Swalayan,Toko Azuna Jaya,"9XW2+9MP, Hilir Tengah, Kec. Ngabang, Kabupaten Landak, Kalimantan Barat 79357","Hilir Tengah, Kec. Ngabang, Kabupaten Landak",KALIMANTAN BARAT,79357.0,Indonesia,,,,0.3959697,109.9517164,https://maps.google.com/?cid=0x0:0x10b6e0a1e932393a,
supermarket,Toko Kelontong Asia,Toko Sembako Mama Daffa,"C2G4+4M3, Jl. Serimbu, Ambarang, Kec. Ngabang, Kabupaten Landak, Kalimantan Barat 79357","Jl. Serimbu, Ambarang, Kec. Ngabang, Kabupaten Landak",KALIMANTAN BARAT,79357.0,Indonesia,,,,0.4252709,110.0066821,https://maps.google.com/?cid=0x0:0x59dd292f07d0a0f7,
supermarket,Toko Swalayan,Toko Anugrah Jaya,"9XW2+G4H, Hilir Tengah, Kec. Ngabang, Kabupaten Landak, Kalimantan Barat 79357","Hilir Tengah, Kec. Ngabang, Kabupaten Landak",KALIMANTAN BARAT,79357.0,Indonesia, 081258657274,,,0.3963177,109.9503521,https://maps.google.com/?cid=0x0:0xcbba30ede352ca0e,
supermarket,Minimarket,Intan Market Sosok,"Jl. Oevang Oeray No.77, Sosok, Kec. Tayan Hulu, Kabupaten Sanggau, Kalimantan Barat 78562","Sosok, Kec. Tayan Hulu, Kabupaten Sanggau",KALIMANTAN BARAT,78562.0,Indonesia, 081381205599,,,0.291316,110.2448357,https://maps.google.com/?cid=0x0:0x9b5a2821c5cad6c5,
supermarket,Toko Swalayan,Toko Bina Karya,"Jl. Ps. Baru No.7, Hilir Ktr., Kec. Ngabang, Kabupaten Landak, Kalimantan Barat 79357","Hilir Ktr., Kec. Ngabang, Kabupaten Landak",KALIMANTAN BARAT,79357.0,Indonesia, 056321140,,,0.3840045,109.9599655,https://maps.google.com/?cid=0x0:0xd0c9e5822af7ae47,
supermarket,Toko bahan makanan,Toko Sederhana,"9XP6+FWC, Hilir Tengah, Kec. Ngabang, Kabupaten Landak, Kalimantan Barat 79357","Hilir Tengah, Kec. Ngabang, Kabupaten Landak",KALIMANTAN BARAT,79357.0,Indonesia, 081345902057,,,0.386186,109.9622523,https://maps.google.com/?cid=0x0:0xb5f3afe2ef5e008b,
supermarket,supermarket,Kalimantan Barat 79367,"Kabupaten Landak, Kalimantan Barat","Kabupaten Landak, Kalimantan Barat",KALIMANTAN BARAT,,Indonesia,,,,0.7436183,109.9973244,https://maps.google.com/?cid=0x0:0xb49541f7c227bcc0,
supermarket,Toko umum,Toko Rohim,"Q423+9CJ, Serimbu, Kec. Air Besar, Kabupaten Landak, Kalimantan Barat 79367","Serimbu, Kec. Air Besar, Kabupaten Landak",KALIMANTAN BARAT,79367.0,Indonesia, 081257691708,,,0.7509737,110.103531,https://maps.google.com/?cid=0x0:0xdcac9aa9144a3b62,
supermarket,Toko bahan makanan,Warung Sayur Damai  Fi'al,"P4X4+473, Serimbu, Kec. Air Besar, Kabupaten Landak, Kalimantan Barat 79367","Serimbu, Kec. Air Besar, Kabupaten Landak",KALIMANTAN BARAT,79367.0,Indonesia,,,,0.7477522,110.1056839,https://maps.google.com/?cid=0x0:0xde43a0945f7909fb,
supermarket,Toko Swalayan,Toko Haris 2,"Q423+G44, Serimbu, Kec. Air Besar, Kabupaten Landak, Kalimantan Barat 79367","Serimbu, Kec. Air Besar, Kabupaten Landak",KALIMANTAN BARAT,79367.0,Indonesia,,,,0.7512558,110.1028303,https://maps.google.com/?cid=0x0:0x27753d218ddc1ff,
supermarket,supermarket,Toko Rafa,"P4MH+J8H, Sepangah, Kec. Air Besar, Kabupaten Landak, Kalimantan Barat","Kabupaten Landak, Kalimantan Barat",KALIMANTAN BARAT,,Indonesia, 081349100606,,,0.7340646,110.128347,https://maps.google.com/?cid=0x0:0xdcda90841a243461,
supermarket,Grosir,Kios Mahmud,"JL Sumedang Wado No.Km 7, Semedang, Kec. Kuala Behe, Kabupaten Landak, Kalimantan Barat 79357","Semedang, Kec. Kuala Behe, Kabupaten Landak",KALIMANTAN BARAT,79357.0,Indonesia, 085221923285,,,0.6095949,110.0330554,https://maps.google.com/?cid=0x0:0x53f3b9e8d35ea5d7,
supermarket,Toko bahan makanan,Warung sayur dan tongkrongan Doans,"P4X3+JW9, Serimbu, Kec. Air Besar, Kabupaten Landak, Kalimantan Barat 79367","Serimbu, Kec. Air Besar, Kabupaten Landak",KALIMANTAN BARAT,79367.0,Indonesia, 081257691708,,,0.7490775,110.1048015,https://maps.google.com/?cid=0x0:0x1638b5e5d0645d13,
supermarket,Toko bahan makanan,Mustika Abadi,"P4W4+RFG, Serimbu, Kec. Air Besar, Kabupaten Landak, Kalimantan Barat 79367","Serimbu, Kec. Air Besar, Kabupaten Landak",KALIMANTAN BARAT,79367.0,Indonesia,,,,0.7470729,110.1061891,https://maps.google.com/?cid=0x0:0xbe5585790911e96e,
supermarket,Toko,SEGAR MART,"HJRG+HQP, Jl. Raya Bengkayang, Darit, Kec. Menyuke, Kabupaten Landak, Kalimantan Barat 79364","Jl. Raya Bengkayang, Darit, Kec. Menyuke, Kabupaten Landak",KALIMANTAN BARAT,79364.0,Indonesia, 085348123673,,,0.5914541,109.6269454,https://maps.google.com/?cid=0x0:0xa9b468600dc918dc,
supermarket,Toko Swalayan,Toko Bintang,"Jl kantor pos dan giro No 24 cimalaka, Semedang, Kuala Behe, Kabupaten Landak, Kalimantan Barat","Kabupaten Landak, Kalimantan Barat",KALIMANTAN BARAT,,Indonesia, 087827828202,,,-6.8158011,107.9479648,https://maps.google.com/?cid=0x0:0x206d066eba221a4e,
supermarket,Toko,Toko Usaha Sabar,"PP2W+57P, Selange, Kec. Meranti, Kabupaten Landak, Kalimantan Barat","Kabupaten Landak, Kalimantan Barat",KALIMANTAN BARAT,,Indonesia,,,,0.7004579,109.7456999,https://maps.google.com/?cid=0x0:0x35a831aee7cbd00d,
supermarket,supermarket,Toko Bagus,"P4X3+RR5, Serimbu, Kec. Air Besar, Kabupaten Landak, Kalimantan Barat 79367","Serimbu, Kec. Air Besar, Kabupaten Landak",KALIMANTAN BARAT,79367.0,Indonesia,,,,0.7495152,110.1046009,https://maps.google.com/?cid=0x0:0xd88445a6f5017aec,
supermarket,supermarket,Mandor,"Mandor, Kec. Mandor, Kabupaten Landak, Kalimantan Barat","Kabupaten Landak, Kalimantan Barat",KALIMANTAN BARAT,,Indonesia,,,,0.323099,109.336304,https://maps.google.com/?cid=0x0:0xb5032e87bf627948,
supermarket,Minimarket,Mega Mart,"89F5+P2J, Jl. Lintas Kalimantan Poros Tengah, Mandor, Kec. Mandor, Kabupaten Landak, Kalimantan Barat 79355","Jl. Lintas Kalimantan Poros Tengah, Mandor, Kec. Mandor, Kabupaten Landak",KALIMANTAN BARAT,79355.0,Indonesia, 089693817312,,,0.3243266,109.357503,https://maps.google.com/?cid=0x0:0x9956e9bfe710a51,
supermarket,Minimarket,Indomaret Mandor,"889R+52M, Mandor, Kec. Mandor, Kabupaten Landak, Kalimantan Barat 79355","Mandor, Kec. Mandor, Kabupaten Landak",KALIMANTAN BARAT,79355.0,Indonesia,,,,0.3179619,109.3400516,https://maps.google.com/?cid=0x0:0x6284d12c036cc010,
supermarket,Toko Swalayan,Semudin,"2H2R+4HV, Kuala Mandor A, Kec. Kuala Mandor-B, Kabupaten Kubu Raya, Kalimantan Barat 78355","Kuala Mandor A, Kec. Kuala Mandor-B, Kabupaten Kubu Raya",KALIMANTAN BARAT,78355.0,Indonesia, 085845406962,,,0.0003651,109.5914073,https://maps.google.com/?cid=0x0:0x1ff8a46ba1288b23,
supermarket,Toko Swalayan,TOKO DEWI MURNI,"XFGR+WM8, Parit Mariana, Kuala Mandor A, Kec. Kuala Mandor-B, Kabupaten Kubu Raya, Kalimantan Barat 78393","Parit Mariana, Kuala Mandor A, Kec. Kuala Mandor-B, Kabupaten Kubu Raya",KALIMANTAN BARAT,78393.0,Indonesia,,,,-0.0227133,109.4917011,https://maps.google.com/?cid=0x0:0xa696b5f0b91bab76,
supermarket,supermarket,Kalimantan Barat 79363,"Kec. Mempawah Hulu, Kabupaten Landak, Kalimantan Barat","Kabupaten Landak, Kalimantan Barat",KALIMANTAN BARAT,,Indonesia,,,,0.6745598,109.4259114,https://maps.google.com/?cid=0x0:0xdcefe0766b98359b,
supermarket,Toko Perlengkapan Rumah,Toko asung,"M7J4+J35, Parigi, Kec. Mempawah Hulu, Kabupaten Landak, Kalimantan Barat 79362","Parigi, Kec. Mempawah Hulu, Kabupaten Landak",KALIMANTAN BARAT,79362.0,Indonesia, 082250480879,,,0.6815158,109.2552446,https://maps.google.com/?cid=0x0:0x8aa4fedb53773ae3,
supermarket,Pasar,Warung Pak Heru,"MCVF+V2R, Tiang Tj., Kec. Mempawah Hulu, Kabupaten Landak, Kalimantan Barat 79363","Tiang Tj., Kec. Mempawah Hulu, Kabupaten Landak",KALIMANTAN BARAT,79363.0,Indonesia,,,,0.6947318,109.4225152,https://maps.google.com/?cid=0x0:0xa2cd56140c23c169,
supermarket,Toko umum,Toko sultan,"PC8H+2MC, Tiang Tj., Kec. Mempawah Hulu, Kabupaten Landak, Kalimantan Barat 79363","Tiang Tj., Kec. Mempawah Hulu, Kabupaten Landak",KALIMANTAN BARAT,79363.0,Indonesia,,,,0.7150688,109.4291322,https://maps.google.com/?cid=0x0:0x9d2377abc7f976c5,
supermarket,Toko Swalayan,Acan,"J9HR+X3G, Sala'as, Kec. Mempawah Hulu, Kabupaten Landak, Kalimantan Barat 79363","Sala'as, Kec. Mempawah Hulu, Kabupaten Landak",KALIMANTAN BARAT,79363.0,Indonesia,,,,0.6299418,109.3902179,https://maps.google.com/?cid=0x0:0xedd5689bcd0a53d8,
supermarket,Toko Kelontong Asia,MINIMARKET SIMPLY MART,"Jl. Gusti M. Taufik, Terusan, Kec. Mempawah Hilir, Kab. Mempawah, Kalimantan Barat 78912","Terusan, Kec. Mempawah Hilir, Kab. Mempawah",KALIMANTAN BARAT,78912.0,Indonesia, 082256852250,,,0.3666134,108.9607014,https://maps.google.com/?cid=0x0:0xcd67e1efd43e3142,
supermarket,supermarket,TOKO BARAKAT USAHA,"RC62+VFF, Suka Maju, Kec. Sungai Betung, Kabupaten Bengkayang, Kalimantan Barat 79211","Suka Maju, Kec. Sungai Betung, Kabupaten Bengkayang",KALIMANTAN BARAT,79211.0,Indonesia,,,,0.8123254,109.4010203,https://maps.google.com/?cid=0x0:0x23b14a2c24fc9a6b,
supermarket,Pusat Perbelanjaan,Toko sayur,"H94H+RMV, Jl. Anjungan - Bengkayang, Karangan, Kec. Mempawah Hulu, Kabupaten Landak, Kalimantan Barat 79362","Jl. Anjungan - Bengkayang, Karangan, Kec. Mempawah Hulu, Kabupaten Landak",KALIMANTAN BARAT,79362.0,Indonesia,,,,0.5560249,109.3774669,https://maps.google.com/?cid=0x0:0xd8bbf8041f4164f5,
supermarket,Kafe,KTamb Minimart,"Jl. Gusti M. Taufik, Terusan, Kec. Mempawah Hilir, Kab. Mempawah, Kalimantan Barat 78912","Terusan, Kec. Mempawah Hilir, Kab. Mempawah",KALIMANTAN BARAT,78912.0,Indonesia,,,,0.3672927,108.9605206,https://maps.google.com/?cid=0x0:0xa7702e93751b077d,
supermarket,Toko bahan makanan,Dusun loeng,"MGXJ+6R3, Dusun loeng, Untang, Kec. Banyuke Hulu, Kabupaten Landak, Kalimantan Barat 79364","Dusun loeng, Untang, Kec. Banyuke Hulu, Kabupaten Landak",KALIMANTAN BARAT,79364.0,Indonesia,,,,0.6980058,109.5320475,https://maps.google.com/?cid=0x0:0xe73f3458ee8bde40,
supermarket,Sekolah,Kantin sekolah seadanya,"J9FX+R54, Sala'as, Kec. Mempawah Hulu, Kabupaten Landak, Kalimantan Barat 79363","Sala'as, Kec. Mempawah Hulu, Kabupaten Landak",KALIMANTAN BARAT,79363.0,Indonesia,,,,0.6245078,109.397957,https://maps.google.com/?cid=0x0:0x5e70e80db42906dd,
supermarket,Restoran,Nasi Goreng Balap Karangan,"Karangan, Kec. Mempawah Hulu, Kabupaten Landak, Kalimantan Barat","Kabupaten Landak, Kalimantan Barat",KALIMANTAN BARAT,,Indonesia, 085346326685,,,0.5569385,109.3790147,https://maps.google.com/?cid=0x0:0x4927b53aa08fd03,
supermarket,Toko Bahan Bangunan,Toko Makmur Jaya,"Raya Jurusan Anjungan No.69, Menjalin, Kec. Sungai Pinyuh, Kabupaten Landak, Kalimantan Barat 78353","Menjalin, Kec. Sungai Pinyuh, Kabupaten Landak",KALIMANTAN BARAT,78353.0,Indonesia, 085245328223,,,0.4691033,109.3362803,https://maps.google.com/?cid=0x0:0xffe09c3937fa4edf,
supermarket,Toko bahan makanan,Warung JENZ,"QCVV+6WM, Tirta Kencana, Kec. Bengkayang, Kabupaten Bengkayang, Kalimantan Barat 79211","Tirta Kencana, Kec. Bengkayang, Kabupaten Bengkayang",KALIMANTAN BARAT,79211.0,Indonesia, 085705513555,,,0.7930774,109.444783,https://maps.google.com/?cid=0x0:0x9c9d42c73da336df,
supermarket,Toko Swalayan,wijaya asri mandiri,"PGX3+GMW, Benteng, Kec. Teriak, Kabupaten Bengkayang, Kalimantan Barat 79214","Benteng, Kec. Teriak, Kabupaten Bengkayang",KALIMANTAN BARAT,79214.0,Indonesia,,,,0.7488736,109.504191,https://maps.google.com/?cid=0x0:0x9058aa8bb6b336eb,
supermarket,Toko bahan makanan,TuanPutri,"GFV5+J7, Pauh, Kec. Sompak, Kabupaten Landak, Kalimantan Barat","Kabupaten Landak, Kalimantan Barat",KALIMANTAN BARAT,,Indonesia,,,,0.544091,109.458217,https://maps.google.com/?cid=0x0:0xd01a6d9fa660c605,
supermarket,Minimarket,B MART,"FWV6+XPC, Jl. Raya Sungai Kunyit, Sungai Limau, Sungai Kunyit, Kab. Mempawah, Kalimantan Barat 78371","Jl. Raya Sungai Kunyit, Sungai Limau, Sungai Kunyit, Kab. Mempawah",KALIMANTAN BARAT,78371.0,Indonesia,,,,0.4949433,108.9117647,https://maps.google.com/?cid=0x0:0x2fc644a878302b2a,
supermarket,Layanan Transportasi,Pasar Menjalin,"F89Q+V2H, Jalan Raya, Sepahat, Kec. Menjalin, Kabupaten Landak, Kalimantan Barat 79362","Jalan Raya, Sepahat, Kec. Menjalin, Kabupaten Landak",KALIMANTAN BARAT,79362.0,Indonesia,,,,0.4696994,109.3376006,https://maps.google.com/?cid=0x0:0x7ad6a45fb2c8cbef,
supermarket,Toko Ponsel,MITRA ABADI,"F8GR+RV9, Raba, Kec. Menjalin, Kabupaten Landak, Kalimantan Barat 79362","Raba, Kec. Menjalin, Kabupaten Landak",KALIMANTAN BARAT,79362.0,Indonesia,,,,0.4770452,109.3422486,https://maps.google.com/?cid=0x0:0xbb249132649f5a5f,
supermarket,Toko Bahan Bangunan,Toko 129 Menjalin,"Jl. Anjungan - Bengkayang No.96, Menjalin, Kec. Menjalin, Kabupaten Landak, Kalimantan Barat 79362","Menjalin, Kec. Menjalin, Kabupaten Landak",KALIMANTAN BARAT,79362.0,Indonesia,,,,0.4497314,109.3257307,https://maps.google.com/?cid=0x0:0x82e728f77a0bea28,
supermarket,Pembangunan Perumahan,Warung Payok,"C9F6+335, Jl. Desa, Lamoanak, Kec. Menjalin, Kabupaten Landak, Kalimantan Barat 79355","Jl. Desa, Lamoanak, Kec. Menjalin, Kabupaten Landak",KALIMANTAN BARAT,79355.0,Indonesia,,,,0.4226355,109.3602437,https://maps.google.com/?cid=0x0:0xc2f9bd45ae73532a,
supermarket,Pusat Perbelanjaan,Melda Mart Swalayan,"9HCC+9C5, Senakin, Kec. Sengah Temila, Kabupaten Landak, Kalimantan Barat 79356","Senakin, Kec. Sengah Temila, Kabupaten Landak",KALIMANTAN BARAT,79356.0,Indonesia,,,,0.3708779,109.5711091,https://maps.google.com/?cid=0x0:0x92440681d7ffbcf8,
supermarket,supermarket,Toko Bahagia,"F8GR+CH5, Raba, Kec. Menjalin, Kabupaten Landak, Kalimantan Barat 79362","Raba, Kec. Menjalin, Kabupaten Landak",KALIMANTAN BARAT,79362.0,Indonesia,,,,0.4760243,109.3414732,https://maps.google.com/?cid=0x0:0x149343cf377919f0,
supermarket,supermarket,Kalimantan Barat 79362,"Kabupaten Landak, Kalimantan Barat","Kabupaten Landak, Kalimantan Barat",KALIMANTAN BARAT,,Indonesia,,,,0.5318366,109.3307345,https://maps.google.com/?cid=0x0:0x1c5c3307eefb6954,
supermarket,Toko Perlengkapan Rumah,Toko asung,"M7J4+J35, Parigi, Kec. Mempawah Hulu, Kabupaten Landak, Kalimantan Barat 79362","Parigi, Kec. Mempawah Hulu, Kabupaten Landak",KALIMANTAN BARAT,79362.0,Indonesia, 082250480879,,,0.6815158,109.2552446,https://maps.google.com/?cid=0x0:0x8aa4fedb53773ae3,
supermarket,Komplek perumahan,Jaor,"F89P+QP8, Menjalin, Kec. Menjalin, Kabupaten Landak, Kalimantan Barat 79362","Menjalin, Kec. Menjalin, Kabupaten Landak",KALIMANTAN BARAT,79362.0,Indonesia,,,,0.4694105,109.3368143,https://maps.google.com/?cid=0x0:0x68e436bb6170903e,
supermarket,Sekolah,SD Negeri 1 Menjalin,"F8FR+963, Raba, Kec. Menjalin, Kabupaten Landak, Kalimantan Barat 79362","Raba, Kec. Menjalin, Kabupaten Landak",KALIMANTAN BARAT,79362.0,Indonesia,,,,0.473377,109.3405595,https://maps.google.com/?cid=0x0:0x5702ec547b4f6f48,
supermarket,Toko Swalayan,Toko Sejahtera Bersama,"9HP6+WHP, Andeng, Kec. Sengah Temila, Kabupaten Landak, Kalimantan Barat 79356","Andeng, Kec. Sengah Temila, Kabupaten Landak",KALIMANTAN BARAT,79356.0,Indonesia,,,,0.3873372,109.5614598,https://maps.google.com/?cid=0x0:0xee706901f850c3e5,
supermarket,Toko,Toko yuni pmk,"P586+87X, Nek Ginap, Kec. Monterado, Kabupaten Bengkayang, Kalimantan Barat","Kabupaten Bengkayang, Kalimantan Barat",KALIMANTAN BARAT,,Indonesia,,,,0.7158016,109.160738,https://maps.google.com/?cid=0x0:0xf391867f8f45d7e0,
supermarket,Perhimpunan Pengembang Perumahan,Salore,"F89P+QP8, Menjalin, Kec. Menjalin, Kabupaten Landak, Kalimantan Barat","Kabupaten Landak, Kalimantan Barat",KALIMANTAN BARAT,,Indonesia,,,,0.4694105,109.3368143,https://maps.google.com/?cid=0x0:0xf898803897b41453,
supermarket,Toko Bahan Bangunan,Toko Makmur Jaya,"Raya Jurusan Anjungan No.69, Menjalin, Kec. Sungai Pinyuh, Kabupaten Landak, Kalimantan Barat 78353","Menjalin, Kec. Sungai Pinyuh, Kabupaten Landak",KALIMANTAN BARAT,78353.0,Indonesia, 085245328223,,,0.4691033,109.3362803,https://maps.google.com/?cid=0x0:0xffe09c3937fa4edf,
supermarket,Komplek perumahan,Rumah We Mara,"C8R2+P82, Sepahat, Kec. Menjalin, Kabupaten Landak, Kalimantan Barat","Kabupaten Landak, Kalimantan Barat",KALIMANTAN BARAT,,Indonesia,,,,0.4417622,109.3007526,https://maps.google.com/?cid=0x0:0x4ad979afaa73b02a,
supermarket,Toko umum,Warung Baroh,"Tareng, Tempoak, Kec. Menjalin, Kabupaten Landak, Kalimantan Barat 79362","Tempoak, Kec. Menjalin, Kabupaten Landak",KALIMANTAN BARAT,79362.0,Indonesia, 082352768590,,,0.5499071,109.2439695,https://maps.google.com/?cid=0x0:0xdc4b3b74e550c414,
supermarket,supermarket,Kalimantan Barat 79364,"Kabupaten Landak, Kalimantan Barat","Kabupaten Landak, Kalimantan Barat",KALIMANTAN BARAT,,Indonesia,,,,0.6737656,109.6163185,https://maps.google.com/?cid=0x0:0x8890c5a7792b01c3,
supermarket,Toko,SEGAR MART,"HJRG+HQP, Jl. Raya Bengkayang, Darit, Kec. Menyuke, Kabupaten Landak, Kalimantan Barat 79364","Jl. Raya Bengkayang, Darit, Kec. Menyuke, Kabupaten Landak",KALIMANTAN BARAT,79364.0,Indonesia, 085348123673,,,0.5914541,109.6269454,https://maps.google.com/?cid=0x0:0xa9b468600dc918dc,
supermarket,Toko Perlengkapan Rumah,Toko Tuah Talino,"Jl. Bengkayang - Ngabang, Ansang, Kec. Menyuke, Kabupaten Landak, Kalimantan Barat 79364","Ansang, Kec. Menyuke, Kabupaten Landak",KALIMANTAN BARAT,79364.0,Indonesia,,,,0.6036147,109.6213909,https://maps.google.com/?cid=0x0:0x2057b4af131fcc49,
supermarket,Toko,Toko Usaha Sabar,"PP2W+57P, Selange, Kec. Meranti, Kabupaten Landak, Kalimantan Barat","Kabupaten Landak, Kalimantan Barat",KALIMANTAN BARAT,,Indonesia,,,,0.7004579,109.7456999,https://maps.google.com/?cid=0x0:0x35a831aee7cbd00d,
supermarket,Toko umum,Toko Pamanean,"MM3X+MW3, Kelampai Setolo, Kec. Meranti, Kabupaten Landak, Kalimantan Barat","Kabupaten Landak, Kalimantan Barat",KALIMANTAN BARAT,,Indonesia,,,,0.6541437,109.6997976,https://maps.google.com/?cid=0x0:0x2ebf664163cdd93a,
supermarket,Dapur Umum,Cheasa Catering,"HJRG+CHX, Jl. Bengkayang - Ngabang, Darit, Kec. Menyuke, Kabupaten Landak, Kalimantan Barat 79364","Jl. Bengkayang - Ngabang, Darit, Kec. Menyuke, Kabupaten Landak",KALIMANTAN BARAT,79364.0,Indonesia,,,,0.59091,109.62647,https://maps.google.com/?cid=0x0:0x962cc7bb267c435e,
supermarket,Toko bahan makanan,Dusun loeng,"MGXJ+6R3, Dusun loeng, Untang, Kec. Banyuke Hulu, Kabupaten Landak, Kalimantan Barat 79364","Dusun loeng, Untang, Kec. Banyuke Hulu, Kabupaten Landak",KALIMANTAN BARAT,79364.0,Indonesia,,,,0.6980058,109.5320475,https://maps.google.com/?cid=0x0:0xe73f3458ee8bde40,
supermarket,Toko,Toko mama andri,"GPPG+3J5, Anik Dingir, Kec. Menyuke, Kabupaten Landak, Kalimantan Barat 79356","Anik Dingir, Kec. Menyuke, Kabupaten Landak",KALIMANTAN BARAT,79356.0,Indonesia, 082255419845,,,0.5351267,109.7266015,https://maps.google.com/?cid=0x0:0xa1141688eef30d05,
supermarket,Toko bahan makanan,Toko Chelsea,"pasar, Anik Dingir, Kec. Menyuke, Kabupaten Landak, Kalimantan Barat 79356","Anik Dingir, Kec. Menyuke, Kabupaten Landak",KALIMANTAN BARAT,79356.0,Indonesia,,,,0.5338237,109.7350563,https://maps.google.com/?cid=0x0:0xd46acad3d2b3e623,
supermarket,Toko bahan makanan,TOKO BERKAT,"GPQQ+3J, Anik Dingir, Kec. Menyuke, Kabupaten Landak, Kalimantan Barat 79356","Anik Dingir, Kec. Menyuke, Kabupaten Landak",KALIMANTAN BARAT,79356.0,Indonesia,,,,0.5377139,109.7391375,https://maps.google.com/?cid=0x0:0x4cf4f2e0b66a6d9d,
supermarket,Minimarket,Multi Market,"RF9M+V89, Malo Jelayan, Kec. Teriak, Kabupaten Bengkayang, Kalimantan Barat 79214","Malo Jelayan, Kec. Teriak, Kabupaten Bengkayang",KALIMANTAN BARAT,79214.0,Indonesia,,,,0.8196526,109.4833503,https://maps.google.com/?cid=0x0:0x6b9fea64d5765190,
supermarket,Toko bahan makanan,Toko Marindy Family,"MM7X+QVR, Kelampai Setolo, Kec. Meranti, Kabupaten Landak, Kalimantan Barat","Kabupaten Landak, Kalimantan Barat",KALIMANTAN BARAT,,Indonesia,,,,0.6644754,109.6996428,https://maps.google.com/?cid=0x0:0xb5b29b4b06932dac,
supermarket,Toko Perlengkapan Rumah,Warung elvan,"MGQ8+23R, Untang, Kec. Banyuke Hulu, Kabupaten Landak, Kalimantan Barat 79364","Untang, Kec. Banyuke Hulu, Kabupaten Landak",KALIMANTAN BARAT,79364.0,Indonesia,,,,0.6876183,109.5151561,https://maps.google.com/?cid=0x0:0x2ac721901a1e12c,
supermarket,Toko Swalayan,Tristar,"Rachma, Jl. Basuki Rachmat No.155, Malo Jelayan, Kec. Teriak, Kabupaten Bengkayang, Kalimantan Barat 79214","Jl. Basuki Rachmat No.155, Malo Jelayan, Kec. Teriak, Kabupaten Bengkayang",KALIMANTAN BARAT,79214.0,Indonesia,,,,0.816423,109.4895399,https://maps.google.com/?cid=0x0:0xc272b2fe5d4a2f0a,
supermarket,Pasar,Warung Pak Heru,"MCVF+V2R, Tiang Tj., Kec. Mempawah Hulu, Kabupaten Landak, Kalimantan Barat 79363","Tiang Tj., Kec. Mempawah Hulu, Kabupaten Landak",KALIMANTAN BARAT,79363.0,Indonesia,,,,0.6947318,109.4225152,https://maps.google.com/?cid=0x0:0xa2cd56140c23c169,
supermarket,Toko Swalayan,Toko Mawar,"GPMP+969, Anik Dingir, Kec. Menyuke, Kabupaten Landak, Kalimantan Barat 79356","Anik Dingir, Kec. Menyuke, Kabupaten Landak",KALIMANTAN BARAT,79356.0,Indonesia,,,,0.533408,109.7356197,https://maps.google.com/?cid=0x0:0x17bea07e644a3d24,
supermarket,Toko umum,toko sembako,"MCVF+4F8, Dusun subarakng, Tiang Tj., Kec. Mempawah Hulu, Kabupaten Landak, Kalimantan Barat 79363","Dusun subarakng, Tiang Tj., Kec. Mempawah Hulu, Kabupaten Landak",KALIMANTAN BARAT,79363.0,Indonesia, 082157458733,,,0.6927795,109.4236986,https://maps.google.com/?cid=0x0:0xf057debfdb0be4ac,
supermarket,Toko umum,Warung Sembako MTOB,"PGMM+2J4, Jl. Bengkayang - Ngabang, Tanjung, Kec. Teriak, Kabupaten Bengkayang, Kalimantan Barat 79214","Jl. Bengkayang - Ngabang, Tanjung, Kec. Teriak, Kabupaten Bengkayang",KALIMANTAN BARAT,79214.0,Indonesia,,,,0.7403895,109.5411678,https://maps.google.com/?cid=0x0:0x9f882f38e5347da,
supermarket,Toko bahan makanan,Toko Mayora,"Jl. Jerendeng Abdul Rahman No.76, Bumi Amas, Kec. Bengkayang, Kabupaten Bengkayang, Kalimantan Barat 79211","Bumi Amas, Kec. Bengkayang, Kabupaten Bengkayang",KALIMANTAN BARAT,79211.0,Indonesia,,,,0.8193249,109.4817464,https://maps.google.com/?cid=0x0:0xbfda3ccf86f5e8b5,
supermarket,Toko,Toko Sembako Balqis,"JHJP+R52, Jl. Bengkayang - Ngabang, Tembawang Bale, Kec. Banyuke Hulu, Kabupaten Bengkayang, Kalimantan Barat 79364","Jl. Bengkayang - Ngabang, Tembawang Bale, Kec. Banyuke Hulu, Kabupaten Bengkayang",KALIMANTAN BARAT,79364.0,Indonesia,,,,0.6314342,109.5857195,https://maps.google.com/?cid=0x0:0xa1ba2bcee5567958,
supermarket,Toko Swalayan,wijaya asri mandiri,"PGX3+GMW, Benteng, Kec. Teriak, Kabupaten Bengkayang, Kalimantan Barat 79214","Benteng, Kec. Teriak, Kabupaten Bengkayang",KALIMANTAN BARAT,79214.0,Indonesia,,,,0.7488736,109.504191,https://maps.google.com/?cid=0x0:0x9058aa8bb6b336eb,
supermarket,Toko Swalayan,Meranti Swalayan,"Jl. Gr. Djamin Datuk Bagindo No.52, Talang Banjar, Kec. Jambi Tim., Kota Jambi, Jambi 36121","Talang Banjar, Kec. Jambi Tim., Kota Jambi",KALIMANTAN BARAT,36121.0,Indonesia, 074131702,,,-1.6032131,103.6281125,https://maps.google.com/?cid=0x0:0xf1c8e1be21db01eb,
supermarket,Hipermarket,Mandala Swalayan,"CJ38+W8G, Jl. Camar I No.94-93, Sungai Asam, Kec. Ps. Jambi, Kota Jambi, Jambi 36123","Jl. Camar I No.94-93, Sungai Asam, Kec. Ps. Jambi, Kota Jambi",KALIMANTAN BARAT,36123.0,Indonesia, 0714146253,,,-1.5954677,103.6152319,https://maps.google.com/?cid=0x0:0x3a1da6a9b8fb52df,
supermarket,Toko,Toko Usaha Sabar,"PP2W+57P, Selange, Kec. Meranti, Kabupaten Landak, Kalimantan Barat","Kabupaten Landak, Kalimantan Barat",KALIMANTAN BARAT,,Indonesia,,,,0.7004579,109.7456999,https://maps.google.com/?cid=0x0:0x35a831aee7cbd00d,
supermarket,ATM,Warung BRI,"WHWQ+4X9 No 24, Jl. Sukajadi, Tenan, 081378561925, Kabupaten Kepulauan Meranti, Riau 28753","Jl. Sukajadi, Tenan, 081378561925, Kabupaten Kepulauan Meranti",KALIMANTAN BARAT,28753.0,Indonesia, 081378561925,,,0.9452842,102.5899818,https://maps.google.com/?cid=0x0:0x98136db4bb42e5b0,
supermarket,Minimarket,Hero Market | Meranti Jaya,"1-11, (Ground Floor) Block A, Tanming Boulevard, Jalan Meranti Jaya 3/1, Taman Meranti Jaya, 47100 Puchong, Selangor, Malaysia",Puchong,KALIMANTAN BARAT,47100.0,Indonesia, +60380600829,,,2.9794666,101.6117536,https://maps.google.com/?cid=0x0:0x3d71851686a68b67,
supermarket,Toko Swalayan,GS THE FRESH JATIBENING,"Jl. Caman Raya No.7-24, RT.004/RW.003, Jatibening, Kec. Pd. Gede, Kota Bks, Jawa Barat 17412","RT.004/RW.003, Jatibening, Kec. Pd. Gede, Kota Bks",KALIMANTAN BARAT,17412.0,Indonesia, 02184982211,,,-6.2676455,106.9436409,https://maps.google.com/?cid=0x0:0x2cdb50c3ee3206c,
supermarket,,OK Mart,"2P74+3M5, Jl. Merdeka, Selat Panjang Bar., Kec. Tebing Tinggi, Kabupaten Kepulauan Meranti, Riau","Kabupaten Kepulauan Meranti, Riau",KALIMANTAN BARAT,,Indonesia,,,,1.0126307,102.7067198,https://maps.google.com/?cid=0x0:0xa0453eb4b202202e,
supermarket,,Grand Royal Mini Market,"Jl. Imam Bonjol No.121, Selat Panjang Bar., Kec. Tebing Tinggi, Kabupaten Kepulauan Meranti, Riau","Kabupaten Kepulauan Meranti, Riau",KALIMANTAN BARAT,,Indonesia, +65 85264005445,,,1.0088147,102.705728,https://maps.google.com/?cid=0x0:0x484fba31115f0b8a,
supermarket,Toko bahan makanan,Waroeng Masila,"2M4X+M9P, Selat Panjang Sel., Kec. Tebing Tinggi, Kabupaten Kepulauan Meranti, Riau","Kabupaten Kepulauan Meranti, Riau",KALIMANTAN BARAT,,Indonesia, 081268276844,,,1.0067032,102.6984494,https://maps.google.com/?cid=0x0:0x4e6f214692c8060d,
supermarket,Toko Swalayan,GS Supermarket Jatiasih,"GsSupermarket :, Jl. Wibawa Mukti II No.125, RT.002/ RW017/RW.017, Jatiasih, Kec. Jatiasih, Kota Bks, Jawa Barat 17423","Jl. Wibawa Mukti II No.125, RT.002/ RW017/RW.017, Jatiasih, Kec. Jatiasih, Kota Bks",KALIMANTAN BARAT,17423.0,Indonesia, 02182736918,,,-6.3070579,106.955731,https://maps.google.com/?cid=0x0:0x74efd6ce433268e6,
supermarket,,Hemart Market,"Jl. Banglas, Selat Panjang Tim., Kec. Tebing Tinggi Tim., Kabupaten Kepulauan Meranti, Riau 28753","Selat Panjang Tim., Kec. Tebing Tinggi Tim., Kabupaten Kepulauan Meranti",KALIMANTAN BARAT,28753.0,Indonesia, 081399499512,,,1.0014667,102.7129505,https://maps.google.com/?cid=0x0:0xc2206e425b555d8b,
supermarket,Toko,Toko SHIDIQ,"XJGW+JJ2, Unnamed Road, Insit, Kec. Tebing Tinggi Bar., Kabupaten Kepulauan Meranti, Riau 28753","Unnamed Road, Insit, Kec. Tebing Tinggi Bar., Kabupaten Kepulauan Meranti",KALIMANTAN BARAT,28753.0,Indonesia, 085376652075,,,0.9765212,102.6465263,https://maps.google.com/?cid=0x0:0xcdd3a49b694216f2,
supermarket,Toko bahan makanan,Kedai runcit pulou meranti,"Jalan Meranti 6, Kampung Pulau Meranti, 47100 Puchong, Selangor, Malaysia",Puchong,KALIMANTAN BARAT,47100.0,Indonesia, +601162356612,,,2.9662966,101.6431662,https://maps.google.com/?cid=0x0:0xb01820de040052c,
supermarket,Toko bahan makanan,Toko budiman (Minimarket),"WX6G+FP, Gemala Sari, Rangsang, Kabupaten Kepulauan Meranti, Riau","Kabupaten Kepulauan Meranti, Riau",KALIMANTAN BARAT,,Indonesia, 081275042496,,,0.911733,102.976947,https://maps.google.com/?cid=0x0:0x2d46b5a93a236ce2,
supermarket,Toko Swalayan,GS The Fresh Mampang,"Jl. Buncit Raya No.301, Duren Tiga, Kec. Pancoran, Kota Jakarta Selatan, Daerah Khusus Ibukota Jakarta 12760","Duren Tiga, Kec. Pancoran, Kota Jakarta Selatan",KALIMANTAN BARAT,12760.0,Indonesia, 02126961986,,,-6.256991,106.828987,https://maps.google.com/?cid=0x0:0x47a84d3b86619147,
supermarket,supermarket,SUPERMARKET,"2M2V+CJQ, Jalan, Alah Air, Kec. Tebing Tinggi, Kabupaten Kepulauan Meranti, Riau","Kabupaten Kepulauan Meranti, Riau",KALIMANTAN BARAT,,Indonesia,,,,1.00105,102.6941748,https://maps.google.com/?cid=0x0:0xf5d3223a7d1b3518,
supermarket,supermarket,Kalimantan Barat 79366,"Kec. Meranti, Kabupaten Landak, Kalimantan Barat","Kabupaten Landak, Kalimantan Barat",KALIMANTAN BARAT,,Indonesia,,,,0.7627643,109.7353569,https://maps.google.com/?cid=0x0:0xa8d09b215b6af2c7,
supermarket,Toko,Toko Usaha Sabar,"PP2W+57P, Selange, Kec. Meranti, Kabupaten Landak, Kalimantan Barat","Kabupaten Landak, Kalimantan Barat",KALIMANTAN BARAT,,Indonesia,,,,0.7004579,109.7456999,https://maps.google.com/?cid=0x0:0x35a831aee7cbd00d,
supermarket,Toko umum,Toko Pamanean,"MM3X+MW3, Kelampai Setolo, Kec. Meranti, Kabupaten Landak, Kalimantan Barat","Kabupaten Landak, Kalimantan Barat",KALIMANTAN BARAT,,Indonesia,,,,0.6541437,109.6997976,https://maps.google.com/?cid=0x0:0x2ebf664163cdd93a,
supermarket,Minimarket,Hero Market | Meranti Jaya,"1-11, (Ground Floor) Block A, Tanming Boulevard, Jalan Meranti Jaya 3/1, Taman Meranti Jaya, 47100 Puchong, Selangor, Malaysia",Puchong,KALIMANTAN BARAT,47100.0,Indonesia, +60380600829,,,2.9794666,101.6117536,https://maps.google.com/?cid=0x0:0x3d71851686a68b67,
supermarket,Toko Swalayan,Meranti Swalayan,"Jl. Gr. Djamin Datuk Bagindo No.52, Talang Banjar, Kec. Jambi Tim., Kota Jambi, Jambi 36121","Talang Banjar, Kec. Jambi Tim., Kota Jambi",KALIMANTAN BARAT,36121.0,Indonesia, 074131702,,,-1.6032131,103.6281125,https://maps.google.com/?cid=0x0:0xf1c8e1be21db01eb,
supermarket,,OK Mart,"2P74+3M5, Jl. Merdeka, Selat Panjang Bar., Kec. Tebing Tinggi, Kabupaten Kepulauan Meranti, Riau","Kabupaten Kepulauan Meranti, Riau",KALIMANTAN BARAT,,Indonesia,,,,1.0126307,102.7067198,https://maps.google.com/?cid=0x0:0xa0453eb4b202202e,
supermarket,,Grand Royal Mini Market,"Jl. Imam Bonjol No.121, Selat Panjang Bar., Kec. Tebing Tinggi, Kabupaten Kepulauan Meranti, Riau","Kabupaten Kepulauan Meranti, Riau",KALIMANTAN BARAT,,Indonesia, +65 85264005445,,,1.0088147,102.705728,https://maps.google.com/?cid=0x0:0x484fba31115f0b8a,
supermarket,Kafe,Toko SB,"Tj. Samak, Rangsang, Kabupaten Kepulauan Meranti, Riau 28755","Rangsang, Kabupaten Kepulauan Meranti",KALIMANTAN BARAT,28755.0,Indonesia,,,,0.8312974,103.0756892,https://maps.google.com/?cid=0x0:0x5c697d4cc1938b3e,
supermarket,Toko bahan makanan,Waroeng Masila,"2M4X+M9P, Selat Panjang Sel., Kec. Tebing Tinggi, Kabupaten Kepulauan Meranti, Riau","Kabupaten Kepulauan Meranti, Riau",KALIMANTAN BARAT,,Indonesia, 081268276844,,,1.0067032,102.6984494,https://maps.google.com/?cid=0x0:0x4e6f214692c8060d,
supermarket,supermarket,SUPERMARKET,"2M2V+CJQ, Jalan, Alah Air, Kec. Tebing Tinggi, Kabupaten Kepulauan Meranti, Riau","Kabupaten Kepulauan Meranti, Riau",KALIMANTAN BARAT,,Indonesia,,,,1.00105,102.6941748,https://maps.google.com/?cid=0x0:0xf5d3223a7d1b3518,
supermarket,supermarket,Toko Valentina,"R3MG+66J, Tj. Samak, Rangsang, Kabupaten Kepulauan Meranti, Riau 28755","Tj. Samak, Rangsang, Kabupaten Kepulauan Meranti",KALIMANTAN BARAT,28755.0,Indonesia,,,,0.8330825,103.0755178,https://maps.google.com/?cid=0x0:0x89ac402d4b06bde4,
supermarket,Toko Swalayan,Citra Swalayan,"Jl. Raya Ngabang, Hilir Ktr., Kec. Ngabang, Kabupaten Landak, Kalimantan Barat 79357","Hilir Ktr., Kec. Ngabang, Kabupaten Landak",KALIMANTAN BARAT,79357.0,Indonesia,,,,0.3802721,109.9522883,https://maps.google.com/?cid=0x0:0xde55c69ed204a9c9,
supermarket,supermarket,Ngabang,"Hilir Tengah, Kec. Ngabang, Kabupaten Landak, Kalimantan Barat","Kabupaten Landak, Kalimantan Barat",KALIMANTAN BARAT,,Indonesia,,,,0.396117,109.950996,https://maps.google.com/?cid=0x0:0x36ecc951d5c3f67,
supermarket,Toko Swalayan,Satelit Mart,"9XP8+GM8, Hilir Tengah, Kec. Ngabang, Kabupaten Landak, Kalimantan Barat 79357","Hilir Tengah, Kec. Ngabang, Kabupaten Landak",KALIMANTAN BARAT,79357.0,Indonesia, 081345668736,,,0.3862754,109.9667069,https://maps.google.com/?cid=0x0:0x23c4c49a494cc877,
supermarket,Toko Swalayan,Mitra Niaga Mart,"Jl. Raya Pulau Bendu, Hilir Tengah, Kec. Ngabang, Kabupaten Landak, Kalimantan Barat 79357","Hilir Tengah, Kec. Ngabang, Kabupaten Landak",KALIMANTAN BARAT,79357.0,Indonesia,,,,0.3866098,109.966872,https://maps.google.com/?cid=0x0:0x493d6abb03054f6b,
supermarket,Toko,Kawan Kita,"9XM5+RM6, Hilir Ktr., Kec. Ngabang, Kabupaten Landak, Kalimantan Barat 79357","Hilir Ktr., Kec. Ngabang, Kabupaten Landak",KALIMANTAN BARAT,79357.0,Indonesia, 056321849,,,0.3845431,109.9591254,https://maps.google.com/?cid=0x0:0x8beb9f600fdba689,
supermarket,Toko,RINGGIT KITA,"Hilir Ktr., Kec. Ngabang, Kabupaten Landak, Kalimantan Barat 79357","Kec. Ngabang, Kabupaten Landak",KALIMANTAN BARAT,79357.0,Indonesia,,,,0.383465,109.9590976,https://maps.google.com/?cid=0x0:0xb6989d04d6605334,
supermarket,Toko Swalayan,Golden Mart,"9WWV+9XF, Jl. Ilong, Hilir Ktr., Kec. Ngabang, Kabupaten Landak, Kalimantan Barat 79357","Jl. Ilong, Hilir Ktr., Kec. Ngabang, Kabupaten Landak",KALIMANTAN BARAT,79357.0,Indonesia, 082253867575,,,0.3959321,109.9449253,https://maps.google.com/?cid=0x0:0xc79232e20f451f66,
supermarket,Toko Swalayan,Toko Azuna Jaya,"9XW2+9MP, Hilir Tengah, Kec. Ngabang, Kabupaten Landak, Kalimantan Barat 79357","Hilir Tengah, Kec. Ngabang, Kabupaten Landak",KALIMANTAN BARAT,79357.0,Indonesia,,,,0.3959697,109.9517164,https://maps.google.com/?cid=0x0:0x10b6e0a1e932393a,
supermarket,Toko Swalayan,Toko Anugrah Jaya,"9XW2+G4H, Hilir Tengah, Kec. Ngabang, Kabupaten Landak, Kalimantan Barat 79357","Hilir Tengah, Kec. Ngabang, Kabupaten Landak",KALIMANTAN BARAT,79357.0,Indonesia, 081258657274,,,0.3963177,109.9503521,https://maps.google.com/?cid=0x0:0xcbba30ede352ca0e,
supermarket,Toko Swalayan,Toko Setelit,"9XM5+6JJ, Hilir Ktr., Kec. Ngabang, Kabupaten Landak, Kalimantan Barat 79357","Hilir Ktr., Kec. Ngabang, Kabupaten Landak",KALIMANTAN BARAT,79357.0,Indonesia,,,,0.3830878,109.9590109,https://maps.google.com/?cid=0x0:0xb16131aae47aba81,
supermarket,Minimarket,Indomaret Tungkul,"Jl. Raya Ngabang No.18, Hilir Ktr., Kec. Ngabang, Kabupaten Landak, Kalimantan Barat 79357","Hilir Ktr., Kec. Ngabang, Kabupaten Landak",KALIMANTAN BARAT,79357.0,Indonesia,,,,0.3814377,109.9546022,https://maps.google.com/?cid=0x0:0x7ad7759dc15773dd,
supermarket,Minimarket,RA freshmart (RamaArjuna),"depan hotel hanura, Jl. Raya Ngabang No.KM 02, Hilir Ktr., Kec. Ngabang, Kabupaten Landak, Kalimantan Barat 78311","Jl. Raya Ngabang No.KM 02, Hilir Ktr., Kec. Ngabang, Kabupaten Landak",KALIMANTAN BARAT,78311.0,Indonesia,,,,0.3790119,109.9457605,https://maps.google.com/?cid=0x0:0x166c54ddb299e3ca,
supermarket,Toko Perlengkapan Bayi,Toko Sentral Rejeki,"Jl. Pangeran Cinata, Hilir Tengah, Kec. Ngabang, Kabupaten Landak, Kalimantan Barat 79357","Hilir Tengah, Kec. Ngabang, Kabupaten Landak",KALIMANTAN BARAT,79357.0,Indonesia, 082254697728,,,0.3963201,109.9486757,https://maps.google.com/?cid=0x0:0x8034153b20019f69,
supermarket,Minimarket,Indomaret Pemuda No 12 Ngabang,"Jl. Raya Ngabang No.18, Hilir Ktr., Kec. Ngabang, Kabupaten Landak, Kalimantan Barat 79357","Hilir Ktr., Kec. Ngabang, Kabupaten Landak",KALIMANTAN BARAT,79357.0,Indonesia,,,,0.3816501,109.9544213,https://maps.google.com/?cid=0x0:0xe49a11bdf834710a,
supermarket,Kafetaria,Ujak,"CXPG+73V, Mungguk, Kec. Ngabang, Kabupaten Landak, Kalimantan Barat 79357","Mungguk, Kec. Ngabang, Kabupaten Landak",KALIMANTAN BARAT,79357.0,Indonesia, 081345635733,,,0.4357488,109.975184,https://maps.google.com/?cid=0x0:0xa0b3cdd170ac7cea,
supermarket,Pusat Perbelanjaan,Pasar Sayur Ngabang,"9XH2+FH9, Hilir Ktr., Kec. Ngabang, Kabupaten Landak, Kalimantan Barat 79357","Hilir Ktr., Kec. Ngabang, Kabupaten Landak",KALIMANTAN BARAT,79357.0,Indonesia,,,,0.3786669,109.9514827,https://maps.google.com/?cid=0x0:0x1ed72822696e10a9,
supermarket,Toko bahan makanan,Toko Rapahuta Sebangki,"4JG6+WHC, Kumpang Tengah, Kec. Sebangki, Kabupaten Landak, Kalimantan Barat 79358","Kumpang Tengah, Kec. Sebangki, Kabupaten Landak",KALIMANTAN BARAT,79358.0,Indonesia,,,,0.1273158,109.611391,https://maps.google.com/?cid=0x0:0x2148ee491a3dc99b,
supermarket,Toko Perlengkapan Rumah,Toko bella ratini,"4HJW+X6F, Sebangki, Kec. Sebangki, Kabupaten Landak, Kalimantan Barat 78355","Sebangki, Kec. Sebangki, Kabupaten Landak",KALIMANTAN BARAT,78355.0,Indonesia,,,,0.1323394,109.5953487,https://maps.google.com/?cid=0x0:0x356f39982db022b9,
supermarket,supermarket,Kalimantan Barat 79358,"Kabupaten Landak, Kalimantan Barat","Kabupaten Landak, Kalimantan Barat",KALIMANTAN BARAT,,Indonesia,,,,0.2290802,109.6401242,https://maps.google.com/?cid=0x0:0x49f2151083760b7e,
supermarket,Pusat Perbelanjaan,Melda Mart Swalayan,"9HCC+9C5, Senakin, Kec. Sengah Temila, Kabupaten Landak, Kalimantan Barat 79356","Senakin, Kec. Sengah Temila, Kabupaten Landak",KALIMANTAN BARAT,79356.0,Indonesia,,,,0.3708779,109.5711091,https://maps.google.com/?cid=0x0:0x92440681d7ffbcf8,
supermarket,supermarket,Kalimantan Barat 79356,"Kabupaten Landak, Kalimantan Barat","Kabupaten Landak, Kalimantan Barat",KALIMANTAN BARAT,,Indonesia,,,,0.3883464,109.7115472,https://maps.google.com/?cid=0x0:0x20df62cbb3031bce,
supermarket,Toko Swalayan,Toko Sejahtera Bersama,"9HP6+WHP, Andeng, Kec. Sengah Temila, Kabupaten Landak, Kalimantan Barat 79356","Andeng, Kec. Sengah Temila, Kabupaten Landak",KALIMANTAN BARAT,79356.0,Indonesia,,,,0.3873372,109.5614598,https://maps.google.com/?cid=0x0:0xee706901f850c3e5,
supermarket,Toko umum,Toko Tunas Baru,"Jalan raya, Simpang Pasir, Kec. Sengah Temila, Kabupaten Landak, Kalimantan Barat 79356","Simpang Pasir, Kec. Sengah Temila, Kabupaten Landak",KALIMANTAN BARAT,79356.0,Indonesia, 082154342410,,,0.4014474,109.7463969,https://maps.google.com/?cid=0x0:0xa7189416363fcdd9,
supermarket,Pusat Perbelanjaan,Mister Ponsel,"Jl. Lintas Kalimantan Poros Tengah, Aur Sampuk, Kec. Sengah Temila, Kabupaten Landak, Kalimantan Barat 79358","Aur Sampuk, Kec. Sengah Temila, Kabupaten Landak",KALIMANTAN BARAT,79358.0,Indonesia, 089693401282,,,0.3398866,109.5776775,https://maps.google.com/?cid=0x0:0xda9a5cc89cbeefa9,
supermarket,Toko Swalayan,Ichtiar market,"8MHF+RXR, Jl. Pahauman - Saham, Pahauman, Kec. Sengah Temila, Kabupaten Landak, Kalimantan Barat 79358","Jl. Pahauman - Saham, Pahauman, Kec. Sengah Temila, Kabupaten Landak",KALIMANTAN BARAT,79358.0,Indonesia, 085349929440,,,0.3296174,109.6748869,https://maps.google.com/?cid=0x0:0x3e0191afaf08382c,
supermarket,Toko bahan makanan,MINI MARKET Rama  Arjuna,"8MC6+3Q8, Saham, Kec. Sengah Temila, Kabupaten Landak, Kalimantan Barat 79358","Saham, Kec. Sengah Temila, Kabupaten Landak",KALIMANTAN BARAT,79358.0,Indonesia,,,,0.3201612,109.6619659,https://maps.google.com/?cid=0x0:0x60b5f88223f557be,
supermarket,Toko bahan makanan,BINTANG HERA MART,"8MWV+RH, Keranji Paidang, Kec. Sengah Temila, Kabupaten Landak, Kalimantan Barat 79356","Keranji Paidang, Kec. Sengah Temila, Kabupaten Landak",KALIMANTAN BARAT,79356.0,Indonesia,,,,0.3470144,109.693936,https://maps.google.com/?cid=0x0:0x885c10728c062289,
supermarket,Toko umum,Toko Aye1,"Jl. Sebangki, Aur Sampuk, Kec. Sengah Temila, Kabupaten Landak, Kalimantan Barat 79358","Aur Sampuk, Kec. Sengah Temila, Kabupaten Landak",KALIMANTAN BARAT,79358.0,Indonesia,,,,0.3334769,109.5803233,https://maps.google.com/?cid=0x0:0x6b646c01c4e717d0,
supermarket,Toko bahan makanan,Toko Ma Anto,"Senakin, Kec. Sengah Temila, Kabupaten Landak, Kalimantan Barat 79356","Kec. Sengah Temila, Kabupaten Landak",KALIMANTAN BARAT,79356.0,Indonesia,,,,0.3744092,109.5586906,https://maps.google.com/?cid=0x0:0xc31ba2141986ee74,
supermarket,Toko,Toko Cahaya Baru,"8M97+JG9, Jl. Raya Pahauman - Ngabang, Saham, Kec. Sengah Temila, Kabupaten Landak, Kalimantan Barat 79358","Jl. Raya Pahauman - Ngabang, Saham, Kec. Sengah Temila, Kabupaten Landak",KALIMANTAN BARAT,79358.0,Indonesia,,,,0.3190394,109.6638707,https://maps.google.com/?cid=0x0:0xe6e33ca8cfa2c77d,
supermarket,Toko bahan makanan,Minimarket RAMA ARJUNA,"8HPQ+W8V, Aur Sampuk, Kec. Sengah Temila, Kabupaten Landak, Kalimantan Barat 79358","Aur Sampuk, Kec. Sengah Temila, Kabupaten Landak",KALIMANTAN BARAT,79358.0,Indonesia, 082255899774,,,0.3373653,109.5882888,https://maps.google.com/?cid=0x0:0x35b5e2c45502b3c2,
supermarket,Toko bahan makanan,Toko usaha mandiri,"9HC9+VMM, Jl. Lintas Kalimantan Poros Tengah, Senakin, Kec. Sengah Temila, Kabupaten Landak, Kalimantan Barat 79356","Jl. Lintas Kalimantan Poros Tengah, Senakin, Kec. Sengah Temila, Kabupaten Landak",KALIMANTAN BARAT,79356.0,Indonesia, 089649386191,,,0.3722211,109.5691651,https://maps.google.com/?cid=0x0:0xd421e487fba5b15,
supermarket,Toko,Toko rifky,"9HQ7+P2F, Bar., Andeng, Kec. Sengah Temila, Kabupaten Landak, Kalimantan Barat 79356","Bar., Andeng, Kec. Sengah Temila, Kabupaten Landak",KALIMANTAN BARAT,79356.0,Indonesia, 085820439262,,,0.3893206,109.5625342,https://maps.google.com/?cid=0x0:0xeaa871cc5e8713ab,
supermarket,Minimarket,Indomaret Senakin,"9HC8+R7G, Jln Poros tengah, Senakin, Kec. Sengah Temila, Kabupaten Landak, Kalimantan Barat 79356","Jln Poros tengah, Senakin, Kec. Sengah Temila, Kabupaten Landak",KALIMANTAN BARAT,79356.0,Indonesia,,,,0.3720731,109.5657153,https://maps.google.com/?cid=0x0:0x316193ebfb8d6288,
supermarket,Toko bahan makanan,Warung mak natal,"9G4C+H78, Tonang, Kec. Sengah Temila, Kabupaten Landak, Kalimantan Barat","Kabupaten Landak, Kalimantan Barat",KALIMANTAN BARAT,,Indonesia,,,,0.3558665,109.5198354,https://maps.google.com/?cid=0x0:0x35619aa9dda3ec8,
supermarket,Toko bahan makanan,Toko Garah,"8M97+3GJ, Jl. Lintas Kalimantan Poros Tengah Jl. Saham, Saham, Kec. Sengah Temila, Kabupaten Landak, Kalimantan Barat 79358","Jl. Lintas Kalimantan Poros Tengah Jl. Saham, Saham, Kec. Sengah Temila, Kabupaten Landak",KALIMANTAN BARAT,79358.0,Indonesia,,,,0.3177248,109.6637635,https://maps.google.com/?cid=0x0:0x644a99f94265b07,
supermarket,Minimarket,Waroenk,"Jl. Raya Pahauman - Ngabang No.21, Saham, Kec. Sengah Temila, Kabupaten Landak, Kalimantan Barat 79356","Saham, Kec. Sengah Temila, Kabupaten Landak",KALIMANTAN BARAT,79356.0,Indonesia,,,,0.3211736,109.6686087,https://maps.google.com/?cid=0x0:0x65b26a64e515ebfd,
supermarket,Toko,Toko Anugerah,"9HG6+385, Andeng, Kec. Sengah Temila, Kabupaten Landak, Kalimantan Barat 79356","Andeng, Kec. Sengah Temila, Kabupaten Landak",KALIMANTAN BARAT,79356.0,Indonesia, 081256720077,,,0.3751395,109.5608579,https://maps.google.com/?cid=0x0:0xae7f46a04028606d,
supermarket,Toko Pakan Hewan,Toko Juanda Putra Sidas,"CQ23+3R3, Sidas, Kec. Sengah Temila, Kabupaten Landak, Kalimantan Barat 79356","Sidas, Kec. Sengah Temila, Kabupaten Landak",KALIMANTAN BARAT,79356.0,Indonesia,,,,0.4001424,109.7545485,https://maps.google.com/?cid=0x0:0x96c6337d9d5f8fa0,
supermarket,Toko bahan makanan,toko kelontong asong,"9G48+2VH, toko jln raya sehak, Tonang, Kec. Sengah Temila, Kabupaten Landak, Kalimantan Barat 79355","toko jln raya sehak, Tonang, Kec. Sengah Temila, Kabupaten Landak",KALIMANTAN BARAT,79355.0,Indonesia,,,,0.3550702,109.5172233,https://maps.google.com/?cid=0x0:0xa353bba0cc2fbda5,
supermarket,Toko,Toko Cahaya Pagi,"9HF6+QX7, Jl. Lintas Kalimantan Poros Tengah, Andeng, Kec. Sengah Temila, Kabupaten Landak, Kalimantan Barat 79356","Jl. Lintas Kalimantan Poros Tengah, Andeng, Kec. Sengah Temila, Kabupaten Landak",KALIMANTAN BARAT,79356.0,Indonesia,,,,0.3744175,109.5624108,https://maps.google.com/?cid=0x0:0xaa63d691929723e2,
supermarket,supermarket,Kalimantan Barat 79363,"Kec. Mempawah Hulu, Kabupaten Landak, Kalimantan Barat","Kabupaten Landak, Kalimantan Barat",KALIMANTAN BARAT,,Indonesia,,,,0.6745598,109.4259114,https://maps.google.com/?cid=0x0:0xdcefe0766b98359b,
supermarket,Toko bahan makanan,TuanPutri,"GFV5+J7, Pauh, Kec. Sompak, Kabupaten Landak, Kalimantan Barat","Kabupaten Landak, Kalimantan Barat",KALIMANTAN BARAT,,Indonesia,,,,0.544091,109.458217,https://maps.google.com/?cid=0x0:0xd01a6d9fa660c605,
supermarket,Toko umum,toko sembako,"MCVF+4F8, Dusun subarakng, Tiang Tj., Kec. Mempawah Hulu, Kabupaten Landak, Kalimantan Barat 79363","Dusun subarakng, Tiang Tj., Kec. Mempawah Hulu, Kabupaten Landak",KALIMANTAN BARAT,79363.0,Indonesia, 082157458733,,,0.6927795,109.4236986,https://maps.google.com/?cid=0x0:0xf057debfdb0be4ac,
supermarket,Toko Swalayan,Acan,"J9HR+X3G, Sala'as, Kec. Mempawah Hulu, Kabupaten Landak, Kalimantan Barat 79363","Sala'as, Kec. Mempawah Hulu, Kabupaten Landak",KALIMANTAN BARAT,79363.0,Indonesia,,,,0.6299418,109.3902179,https://maps.google.com/?cid=0x0:0xedd5689bcd0a53d8,
supermarket,Toko umum,Toko sultan,"PC8H+2MC, Tiang Tj., Kec. Mempawah Hulu, Kabupaten Landak, Kalimantan Barat 79363","Tiang Tj., Kec. Mempawah Hulu, Kabupaten Landak",KALIMANTAN BARAT,79363.0,Indonesia,,,,0.7150688,109.4291322,https://maps.google.com/?cid=0x0:0x9d2377abc7f976c5,
supermarket,Toko Perlengkapan Rumah,Toko asung,"M7J4+J35, Parigi, Kec. Mempawah Hulu, Kabupaten Landak, Kalimantan Barat 79362","Parigi, Kec. Mempawah Hulu, Kabupaten Landak",KALIMANTAN BARAT,79362.0,Indonesia, 082250480879,,,0.6815158,109.2552446,https://maps.google.com/?cid=0x0:0x8aa4fedb53773ae3,
supermarket,Toko Swalayan,Tristar,"Rachma, Jl. Basuki Rachmat No.155, Malo Jelayan, Kec. Teriak, Kabupaten Bengkayang, Kalimantan Barat 79214","Jl. Basuki Rachmat No.155, Malo Jelayan, Kec. Teriak, Kabupaten Bengkayang",KALIMANTAN BARAT,79214.0,Indonesia,,,,0.816423,109.4895399,https://maps.google.com/?cid=0x0:0xc272b2fe5d4a2f0a,
supermarket,Minimarket,Multi Market,"RF9M+V89, Malo Jelayan, Kec. Teriak, Kabupaten Bengkayang, Kalimantan Barat 79214","Malo Jelayan, Kec. Teriak, Kabupaten Bengkayang",KALIMANTAN BARAT,79214.0,Indonesia,,,,0.8196526,109.4833503,https://maps.google.com/?cid=0x0:0x6b9fea64d5765190,
supermarket,Toko Ponsel,MITRA ABADI,"F8GR+RV9, Raba, Kec. Menjalin, Kabupaten Landak, Kalimantan Barat 79362","Raba, Kec. Menjalin, Kabupaten Landak",KALIMANTAN BARAT,79362.0,Indonesia,,,,0.4770452,109.3422486,https://maps.google.com/?cid=0x0:0xbb249132649f5a5f,
supermarket,supermarket,TOKO BARAKAT USAHA,"RC62+VFF, Suka Maju, Kec. Sungai Betung, Kabupaten Bengkayang, Kalimantan Barat 79211","Suka Maju, Kec. Sungai Betung, Kabupaten Bengkayang",KALIMANTAN BARAT,79211.0,Indonesia,,,,0.8123254,109.4010203,https://maps.google.com/?cid=0x0:0x23b14a2c24fc9a6b,
supermarket,Sekolah,Kantin sekolah seadanya,"J9FX+R54, Sala'as, Kec. Mempawah Hulu, Kabupaten Landak, Kalimantan Barat 79363","Sala'as, Kec. Mempawah Hulu, Kabupaten Landak",KALIMANTAN BARAT,79363.0,Indonesia,,,,0.6245078,109.397957,https://maps.google.com/?cid=0x0:0x5e70e80db42906dd,
supermarket,Toko bahan makanan,Dusun loeng,"MGXJ+6R3, Dusun loeng, Untang, Kec. Banyuke Hulu, Kabupaten Landak, Kalimantan Barat 79364","Dusun loeng, Untang, Kec. Banyuke Hulu, Kabupaten Landak",KALIMANTAN BARAT,79364.0,Indonesia,,,,0.6980058,109.5320475,https://maps.google.com/?cid=0x0:0xe73f3458ee8bde40,
supermarket,Toko bahan makanan,Toko Mayora,"Jl. Jerendeng Abdul Rahman No.76, Bumi Amas, Kec. Bengkayang, Kabupaten Bengkayang, Kalimantan Barat 79211","Bumi Amas, Kec. Bengkayang, Kabupaten Bengkayang",KALIMANTAN BARAT,79211.0,Indonesia,,,,0.8193249,109.4817464,https://maps.google.com/?cid=0x0:0xbfda3ccf86f5e8b5,
supermarket,Pusat Perbelanjaan,Toko sayur,"H94H+RMV, Jl. Anjungan - Bengkayang, Karangan, Kec. Mempawah Hulu, Kabupaten Landak, Kalimantan Barat 79362","Jl. Anjungan - Bengkayang, Karangan, Kec. Mempawah Hulu, Kabupaten Landak",KALIMANTAN BARAT,79362.0,Indonesia,,,,0.5560249,109.3774669,https://maps.google.com/?cid=0x0:0xd8bbf8041f4164f5,
supermarket,Toko Perlengkapan Rumah,Warung elvan,"MGQ8+23R, Untang, Kec. Banyuke Hulu, Kabupaten Landak, Kalimantan Barat 79364","Untang, Kec. Banyuke Hulu, Kabupaten Landak",KALIMANTAN BARAT,79364.0,Indonesia,,,,0.6876183,109.5151561,https://maps.google.com/?cid=0x0:0x2ac721901a1e12c,
supermarket,Toko Swalayan,wijaya asri mandiri,"PGX3+GMW, Benteng, Kec. Teriak, Kabupaten Bengkayang, Kalimantan Barat 79214","Benteng, Kec. Teriak, Kabupaten Bengkayang",KALIMANTAN BARAT,79214.0,Indonesia,,,,0.7488736,109.504191,https://maps.google.com/?cid=0x0:0x9058aa8bb6b336eb,
supermarket,supermarket,Sompak,"GF8H+778, Jl. Raya, Sompak, Kec. Sompak, Kabupaten Landak, Kalimantan Barat 79363","Jl. Raya, Sompak, Kec. Sompak, Kabupaten Landak",KALIMANTAN BARAT,79363.0,Indonesia,,,,0.5156611,109.4782092,https://maps.google.com/?cid=0x0:0x97ec130643674193,
