Category,Real Category,Business Name,Address,City,State,Postal Code,Country,Phone,Email,Website,Latitude,Longitude,Map Link,Details Link
komplek housing,komplek housing,Kalimantan Barat 79365,"Kec. Air Besar, Kabupaten Landak, Kalimantan Barat","Kabupaten Landak, Kalimantan Barat",KALIMANTAN BARAT,,Indonesia,,,,0.9225877,110.0449662,https://maps.google.com/?cid=0x0:0x8668b83c1ca1ca6f,
komplek housing,Komplek perumahan,Rumah Kaisar,"RW38+QX3, Tenguwe, Kec. Air Besar, Kabupaten Landak, Kalimantan Barat 79365","Tenguwe, Kec. Air Besar, Kabupaten Landak",KALIMANTAN BARAT,79365.0,Indonesia, 082253370325,,,0.8041294,109.9184764,https://maps.google.com/?cid=0x0:0xdaeaf2fe0092b112,
komplek housing,Kompleks Apartemen,Saham City,"Q474+G8, Serimbu, Kec. Air Besar, Kabupaten Landak, Kalimantan Barat 79367","Serimbu, Kec. Air Besar, Kabupaten Landak",KALIMANTAN BARAT,79367.0,Indonesia,,,,0.7638114,110.1058492,https://maps.google.com/?cid=0x0:0x9375c0eae64527ee,
komplek housing,Komplek perumahan,Rumah iyooo,"P4W8+2QW, Sepangah, Kec. Air Besar, Kabupaten Landak, Kalimantan Barat","Kabupaten Landak, Kalimantan Barat",KALIMANTAN BARAT,,Indonesia,,,,0.7451178,110.1169461,https://maps.google.com/?cid=0x0:0xe5641a67feb1333c,
komplek housing,Pembangunan Perumahan,Rumah Ketua DAD Kec. Air Besar,"Q427+CRG, Sepangah, Kec. Air Besar, Kabupaten Landak, Kalimantan Barat","Kabupaten Landak, Kalimantan Barat",KALIMANTAN BARAT,,Indonesia,,,,0.7510611,110.1145657,https://maps.google.com/?cid=0x0:0xa4cdf0ca5ab09ddd,
komplek housing,Pembangunan Perumahan,Rumah kakek yiyin dan dikta,"X2GJ+H39, Tengok Pelaik, Kec. Air Besar, Kabupaten Landak, Kalimantan Barat 79365","Tengok Pelaik, Kec. Air Besar, Kabupaten Landak",KALIMANTAN BARAT,79365.0,Indonesia,,,,0.9756195,110.0302105,https://maps.google.com/?cid=0x0:0xf358648baa7b88,
komplek housing,Komplek perumahan,Rumah Pak Candra,"RRQR+JG, Pare/Sutipadang, Kec. Air Besar, Kabupaten Landak, Kalimantan Barat","Kabupaten Landak, Kalimantan Barat",KALIMANTAN BARAT,,Indonesia,,,,0.8388934,109.8413186,https://maps.google.com/?cid=0x0:0x337e7d09f8ec54fc,
komplek housing,Komplek perumahan,Sepangah,"P4V9+F92, Sepangah, Kec. Air Besar, Kabupaten Landak, Kalimantan Barat","Kabupaten Landak, Kalimantan Barat",KALIMANTAN BARAT,,Indonesia,,,,0.7436336,110.1183848,https://maps.google.com/?cid=0x0:0x5e4d82a43f47447d,
komplek housing,Komplek perumahan,Simpang Entikong,"Q4M6+GQ7, Jl. Entikong, Engkangin, Kec. Air Besar, Kabupaten Landak, Kalimantan Barat 79365","Jl. Entikong, Engkangin, Kec. Air Besar, Kabupaten Landak",KALIMANTAN BARAT,79365.0,Indonesia,,,,0.7837811,110.1119287,https://maps.google.com/?cid=0x0:0xa9fdb28dc463a93f,
komplek housing,Pembangunan Perumahan,Rudi home stay,"P4W8+6P7, Sepangah, Kec. Air Besar, Kabupaten Landak, Kalimantan Barat 79367","Sepangah, Kec. Air Besar, Kabupaten Landak",KALIMANTAN BARAT,79367.0,Indonesia,,,,0.7455337,110.116803,https://maps.google.com/?cid=0x0:0x67164f8bbadc1211,
komplek housing,Komplek perumahan,Parek,"RVR8+GVV, Parek, Pare/Sutipadang, Kec. Air Besar, Kabupaten Landak, Kalimantan Barat 79365","Parek, Pare/Sutipadang, Kec. Air Besar, Kabupaten Landak",KALIMANTAN BARAT,79365.0,Indonesia,,,,0.8413595,109.8671633,https://maps.google.com/?cid=0x0:0x14d605d8aa60fb57,
komplek housing,Komplek perumahan,Rumah Andi,"P4WG+PVX, Sepangah, Kec. Air Besar, Kabupaten Landak, Kalimantan Barat","Kabupaten Landak, Kalimantan Barat",KALIMANTAN BARAT,,Indonesia,,,,0.7468597,110.127221,https://maps.google.com/?cid=0x0:0x5c0e6ab4e9eb0776,
komplek housing,Komplek perumahan,Merayuh,"W55H+5PV, Merayuh, Kec. Air Besar, Kabupaten Landak, Kalimantan Barat 79365","Merayuh, Kec. Air Besar, Kabupaten Landak",KALIMANTAN BARAT,79365.0,Indonesia,,,,0.9080365,110.1793283,https://maps.google.com/?cid=0x0:0x5ed2f95ea72a0e82,
komplek housing,Komplek perumahan,Kampung Merayuh,"W55J+G4M, Merayuh, Kec. Air Besar, Kabupaten Landak, Kalimantan Barat 79365","Merayuh, Kec. Air Besar, Kabupaten Landak",KALIMANTAN BARAT,79365.0,Indonesia,,,,0.9088492,110.1802975,https://maps.google.com/?cid=0x0:0x53205c78f951614f,
komplek housing,Komplek perumahan,simpang terap,"QXH2+WMH, Tenguwe, Kec. Air Besar, Kabupaten Landak, Kalimantan Barat 79367","Tenguwe, Kec. Air Besar, Kabupaten Landak",KALIMANTAN BARAT,79367.0,Indonesia,,,,0.7798005,109.9517188,https://maps.google.com/?cid=0x0:0x3498775e509d4ee9,
komplek housing,Komplek perumahan,Rumah Della,"RVR9+J5M, Parek, Pare/Sutipadang, Kec. Air Besar, Kabupaten Landak, Kalimantan Barat 79365","Parek, Pare/Sutipadang, Kec. Air Besar, Kabupaten Landak",KALIMANTAN BARAT,79365.0,Indonesia,,,,0.8415799,109.8679302,https://maps.google.com/?cid=0x0:0xbf65404c6c4bc927,
komplek housing,Rumah Kayu,MELBERS,"W2FV+2XP, Sempatung Lawek, Kec. Air Besar, Kabupaten Landak, Kalimantan Barat","Kabupaten Landak, Kalimantan Barat",KALIMANTAN BARAT,,Indonesia,,,,0.9225877,110.0449662,https://maps.google.com/?cid=0x0:0x63ae84a2fca9b89a,
komplek housing,Komplek perumahan,Rumah pet,"RVR8+GVV, Parek, Pare/Sutipadang, Kec. Air Besar, Kabupaten Landak, Kalimantan Barat 79365","Parek, Pare/Sutipadang, Kec. Air Besar, Kabupaten Landak",KALIMANTAN BARAT,79365.0,Indonesia,,,,0.840195,109.868935,https://maps.google.com/?cid=0x0:0xd185c7acaba33ef2,
komplek housing,Kompleks Apartemen,Rumah chibi,"P4X4+473, Serimbu, Kec. Air Besar, Kabupaten Landak, Kalimantan Barat 79367","Serimbu, Kec. Air Besar, Kabupaten Landak",KALIMANTAN BARAT,79367.0,Indonesia,,,,0.7474176,110.1055008,https://maps.google.com/?cid=0x0:0xe7c4678eb65acf94,
komplek housing,Komplek perumahan,Rumah Rizal Boh,"P4W7+X49, Sepangah, Kec. Air Besar, Kabupaten Landak, Kalimantan Barat","Kabupaten Landak, Kalimantan Barat",KALIMANTAN BARAT,,Indonesia,,,,0.7474075,110.1128589,https://maps.google.com/?cid=0x0:0x6f1aeb1bb5930e09,
komplek housing,komplek housing,Kec. Air Besar,"Kabupaten Landak, Kalimantan Barat","Kabupaten Landak, Kalimantan Barat",KALIMANTAN BARAT,,Indonesia,,,,0.9225877,110.0449662,https://maps.google.com/?cid=0x0:0x8e851a640fc92cdc,
komplek housing,Komplek perumahan,Antuai,"X52J+VH6, Entikong - Air Besar, Nyari, Kec. Air Besar, Kabupaten Landak, Kalimantan Barat 79365","Entikong - Air Besar, Nyari, Kec. Air Besar, Kabupaten Landak",KALIMANTAN BARAT,79365.0,Indonesia,,,,0.9521722,110.1813789,https://maps.google.com/?cid=0x0:0x508486488001bb0a,
komplek housing,Pembangunan Perumahan,Desa engkangin,"R4C9+9F9, Engkangin, Kec. Air Besar, Kabupaten Landak, Kalimantan Barat","Kabupaten Landak, Kalimantan Barat",KALIMANTAN BARAT,,Indonesia,,,,0.8209203,110.1187238,https://maps.google.com/?cid=0x0:0xd48dbb9baa7b88c3,
komplek housing,Pembangunan Perumahan,Rumah mama Rita,"WW86+7FV, Bentiang Madomang, Kec. Air Besar, Kabupaten Landak, Kalimantan Barat 79365","Bentiang Madomang, Kec. Air Besar, Kabupaten Landak",KALIMANTAN BARAT,79365.0,Indonesia,,,,0.9156927,109.9105032,https://maps.google.com/?cid=0x0:0xc9aff46eeeef22b6,
komplek housing,Komplek perumahan,"Rumah,Lek/pk Habel","dsn, Rumah Lek/pk Habel, Parek No.ds, Kec. Air Besar, Kabupaten Landak, Kalimantan Barat 79365","Rumah Lek/pk Habel, Parek No.ds, Kec. Air Besar, Kabupaten Landak",KALIMANTAN BARAT,79365.0,Indonesia,,,,0.8423938,109.8681897,https://maps.google.com/?cid=0x0:0x39db2d3650840945,
komplek housing,Perhimpunan Pengembang Perumahan,Nyake Entamu,"W5P2+HHJ, Jangkak - Entikong, Tengok Pelaik, Kec. Air Besar, Kabupaten Landak, Kalimantan Barat 79365","Jangkak - Entikong, Tengok Pelaik, Kec. Air Besar, Kabupaten Landak",KALIMANTAN BARAT,79365.0,Indonesia,,,,0.9364734,110.1514011,https://maps.google.com/?cid=0x0:0x92b0040595646fa,
komplek housing,Komplek perumahan,Pondok Gede Housing II,"Housing II, Jl. Raya Hankam, RT.001/RW.004, Jatirahayu, Pondok Gede, Bekasi, West Java","Kota Bks, Jawa Barat",KALIMANTAN BARAT,,Indonesia,,,,-6.2876701,106.9147674,https://maps.google.com/?cid=0x0:0x2a52e601c20d18f2,
komplek housing,Komplek perumahan,Pondok Gede Housing 1,"Jl. Cipta Raya No.45-3, RT.001/RW.003, Jatirahayu, Kec. Pd. Melati, Kota Bks, Jawa Barat 17414","RT.001/RW.003, Jatirahayu, Kec. Pd. Melati, Kota Bks",KALIMANTAN BARAT,17414.0,Indonesia,,,,-6.2852504,106.9163397,https://maps.google.com/?cid=0x0:0x3132afedbf38cd61,
komplek housing,Komplek perumahan,White House,"Jl. Komp. Pd. Gede Housing.II Blok FF. 1A, Jatirahayu, Pondok Melati, Bekasi, West Java 17414","Jatirahayu, Pondok Melati, Bekasi",KALIMANTAN BARAT,17414.0,Indonesia,,,,-6.2883969,106.9160196,https://maps.google.com/?cid=0x0:0x2bf8b8029130581f,
komplek housing,komplek housing,Kalimantan Barat 79364,"Kabupaten Landak, Kalimantan Barat","Kabupaten Landak, Kalimantan Barat",KALIMANTAN BARAT,,Indonesia,,,,0.6737656,109.6163185,https://maps.google.com/?cid=0x0:0x8890c5a7792b01c3,
komplek housing,Komplek perumahan,Dusun Bandol,"MGV7+7RR, Untang, Kec. Banyuke Hulu, Kabupaten Landak, Kalimantan Barat 79364","Untang, Kec. Banyuke Hulu, Kabupaten Landak",KALIMANTAN BARAT,79364.0,Indonesia,,,,0.6932349,109.5145192,https://maps.google.com/?cid=0x0:0x850b0974ec8f45cc,
komplek housing,Komplek perumahan,Rumah Jampen,"JGWQ+JVG, Dusun Medang, Kampet, Kec. Banyuke Hulu, Kabupaten Landak, Kalimantan Barat","Kabupaten Landak, Kalimantan Barat",KALIMANTAN BARAT,,Indonesia,,,,0.6465525,109.5396875,https://maps.google.com/?cid=0x0:0xdd820c5ba374c4b2,
komplek housing,Pembangunan Perumahan,Dusun baban,"MG95+5GM, Kampet, Kec. Banyuke Hulu, Kabupaten Landak, Kalimantan Barat","Kabupaten Landak, Kalimantan Barat",KALIMANTAN BARAT,,Indonesia,,,,0.667971,109.5088097,https://maps.google.com/?cid=0x0:0x44814009740906e5,
komplek housing,Perumahan,Rumah Bang Eso,"MGC9+69, Kampet, Kec. Banyuke Hulu, Kabupaten Landak, Kalimantan Barat","Kabupaten Landak, Kalimantan Barat",KALIMANTAN BARAT,,Indonesia,,,,0.6712051,109.518325,https://maps.google.com/?cid=0x0:0x442853c795d7617f,
komplek housing,Komplek perumahan,"Rumah Enek,Evi (Pak,Lili)","HGVF+HF, Gamang, Kec. Banyuke Hulu, Kabupaten Landak, Kalimantan Barat 79364","Gamang, Kec. Banyuke Hulu, Kabupaten Landak",KALIMANTAN BARAT,79364.0,Indonesia,,,,0.5948845,109.5231972,https://maps.google.com/?cid=0x0:0x13f23fc9b00f031b,
komplek housing,Komplek perumahan,Semade Alam. (Rumah Pak Oktavianus Alot,"PFGM+5WH, Semade, Kec. Banyuke Hulu, Kabupaten Landak, Kalimantan Barat 79364","Semade, Kec. Banyuke Hulu, Kabupaten Landak",KALIMANTAN BARAT,79364.0,Indonesia,,,,0.7255808,109.4854574,https://maps.google.com/?cid=0x0:0x4755cab7678390de,
komplek housing,Perhimpunan Pengembang Perumahan,Kampung Pancik,"JJW3+QQV, Dusun Pancik, Tembawang Bale, Kec. Banyuke Hulu, HuluKabupaten Landak, Kalimantan Barat 79364","Dusun Pancik, Tembawang Bale, Kec. Banyuke Hulu, HuluKabupaten Landak",KALIMANTAN BARAT,79364.0,Indonesia,,,,0.646985,109.6044161,https://maps.google.com/?cid=0x0:0x74a202e008a6d3dc,
komplek housing,Komplek perumahan,"Semade Alam, Jalan raya semade","PFGM+5WH, Semade, Kec. Banyuke Hulu, Kabupaten Landak, Kalimantan Barat 79364","Semade, Kec. Banyuke Hulu, Kabupaten Landak",KALIMANTAN BARAT,79364.0,Indonesia,,,,0.7255915,109.4855594,https://maps.google.com/?cid=0x0:0xe44508b3ec230f33,
komplek housing,Taman,Dusun Perigi,"PFCV+G8P, Semade, Kec. Banyuke Hulu, Kabupaten Landak, Kalimantan Barat 79364","Semade, Kec. Banyuke Hulu, Kabupaten Landak",KALIMANTAN BARAT,79364.0,Indonesia,,,,0.7213324,109.4933239,https://maps.google.com/?cid=0x0:0x15a1e8d3f0064f70,
komplek housing,Komplek perumahan,Pondok Babuah74,"JHPM+M2W, Tembawang Bale, Kec. Banyuke Hulu, Kabupaten Landak, Kalimantan Barat 79364","Tembawang Bale, Kec. Banyuke Hulu, Kabupaten Landak",KALIMANTAN BARAT,79364.0,Indonesia,,,,0.6367292,109.5825814,https://maps.google.com/?cid=0x0:0xe01bd7c3d5e8ba0f,
komplek housing,Komplek perumahan,Rumah Batas,"PGC7+P99, Semade, Kec. Banyuke Hulu, Kabupaten Landak, Kalimantan Barat 79364","Semade, Kec. Banyuke Hulu, Kabupaten Landak",KALIMANTAN BARAT,79364.0,Indonesia,,,,0.7217902,109.5134786,https://maps.google.com/?cid=0x0:0xd7cb335d3166fef0,
komplek housing,Komplek perumahan,Darrel,"HHQH+8MF, Ringo Lojok, Kec. Banyuke Hulu, Kabupaten Landak, Kalimantan Barat","Kabupaten Landak, Kalimantan Barat",KALIMANTAN BARAT,,Indonesia,,,,0.5883084,109.579183,https://maps.google.com/?cid=0x0:0x5142a8efcac34487,
komplek housing,Komplek perumahan,DUSUN RINGO LOJOK,"JG9X+47, Ringo Lojok, Kec. Banyuke Hulu, Kabupaten Landak, Kalimantan Barat","Kabupaten Landak, Kalimantan Barat",KALIMANTAN BARAT,,Indonesia,,,,0.6178039,109.5482151,https://maps.google.com/?cid=0x0:0x299cfa497c762f52,
komplek housing,Perhimpunan Pengembang Perumahan,Dusun TELAET,"JM73+Q52, Kayu Ara, Kec. Menyuke, Kabupaten Landak, Kalimantan Barat 79364","Kayu Ara, Kec. Menyuke, Kabupaten Landak",KALIMANTAN BARAT,79364.0,Indonesia,,,,0.6143934,109.652897,https://maps.google.com/?cid=0x0:0x7eeba64bd640d7d7,
komplek housing,komplek housing,Rumah Pak.Niko,"MGJ8+FQ6, Jl. Bengkayang - Ngabang, Untang, Kec. Banyuke Hulu, Kabupaten Landak, Kalimantan Barat 79364","Jl. Bengkayang - Ngabang, Untang, Kec. Banyuke Hulu, Kabupaten Landak",KALIMANTAN BARAT,79364.0,Indonesia,,,,0.6811281,109.5169448,https://maps.google.com/?cid=0x0:0x264cdeb8c3282352,
komplek housing,Komplek perumahan,RAMIN BOBIT,"PFCR+PXR, Tiang Tj., Kec. Mempawah Hulu, Kabupaten Landak, Kalimantan Barat 79364","Tiang Tj., Kec. Mempawah Hulu, Kabupaten Landak",KALIMANTAN BARAT,79364.0,Indonesia,,,,0.7218321,109.4923647,https://maps.google.com/?cid=0x0:0x1faac10d371bf0c0,
komplek housing,Pembangunan Perumahan,Pentek,"PFC3+4MR, Jl. Raya Pontianak - Bengkayang Pentek, Desa, Semade, Kec. Banyuke Hulu, Kabupaten Landak, Kalimantan Barat","Kabupaten Landak, Kalimantan Barat",KALIMANTAN BARAT,,Indonesia,,,,0.7203672,109.4541322,https://maps.google.com/?cid=0x0:0xe95647b38739cc8a,
komplek housing,Komplek perumahan,"Kampung temiris,dusun insang.","MFXF+FH5, Dusun insang, desa semade, Kec. Banyuke Hulu, Kabupaten Landak, Kalimantan Barat 79363","Dusun insang, desa semade, Kec. Banyuke Hulu, Kabupaten Landak",KALIMANTAN BARAT,79363.0,Indonesia,,,,0.6986257,109.4739804,https://maps.google.com/?cid=0x0:0x3494222347544404,
komplek housing,Komplek perumahan,rumah rusni,"MG9C+2J3, Kampet, Kec. Banyuke Hulu, Kabupaten Landak, Kalimantan Barat","Kabupaten Landak, Kalimantan Barat",KALIMANTAN BARAT,,Indonesia,,,,0.6675059,109.5215524,https://maps.google.com/?cid=0x0:0xeb649fd4960af175,
komplek housing,Komplek perumahan,Rumah bobit,"PF9V+X24, Tiang Tj., Kec. Mempawah Hulu, Kabupaten Landak, Kalimantan Barat 79364","Tiang Tj., Kec. Mempawah Hulu, Kabupaten Landak",KALIMANTAN BARAT,79364.0,Indonesia,,,,0.7198998,109.4925684,https://maps.google.com/?cid=0x0:0x1ee8fd0ace66aa9a,
komplek housing,komplek housing,Kec. Banyuke Hulu,"Kabupaten Landak, Kalimantan Barat","Kabupaten Landak, Kalimantan Barat",KALIMANTAN BARAT,,Indonesia,,,,0.6383251,109.5634363,https://maps.google.com/?cid=0x0:0xa17ddf327a7acf53,
komplek housing,Komplek perumahan,Rumah Pak Remianto,"MGV7+7RR, Untang, Kec. Banyuke Hulu, Kabupaten Landak, Kalimantan Barat 79364","Untang, Kec. Banyuke Hulu, Kabupaten Landak",KALIMANTAN BARAT,79364.0,Indonesia,,,,0.6932489,109.5145016,https://maps.google.com/?cid=0x0:0x1bb7217698929822,
komplek housing,Komplek perumahan,guna Bukit,"HJC6+C49, Dusun guna, Angkaras, Kec. Menyuke, Kabupaten Landak, Kalimantan Barat 79364","Dusun guna, Angkaras, Kec. Menyuke, Kabupaten Landak",KALIMANTAN BARAT,79364.0,Indonesia,,,,0.5710475,109.6103673,https://maps.google.com/?cid=0x0:0x793c476c77b224a0,
komplek housing,Gedung Apartemen,Kampokng Laba,"HHG7+RFP, Ladangan, Kec. Menyuke, Kabupaten Landak, Kalimantan Barat 79364","Ladangan, Kec. Menyuke, Kabupaten Landak",KALIMANTAN BARAT,79364.0,Indonesia,,,,0.5771045,109.5637068,https://maps.google.com/?cid=0x0:0x3096dfcd75dd3dd,
komplek housing,Komplek perumahan,Rmh jon,"JJ73+44, Songga, Kec. Menyuke, Kabupaten Landak, Kalimantan Barat 79364","Songga, Kec. Menyuke, Kabupaten Landak",KALIMANTAN BARAT,79364.0,Indonesia,,,,0.6128073,109.6027756,https://maps.google.com/?cid=0x0:0xc5e5e930018ac4b2,
komplek housing,komplek housing,Kec. Jelimpo,"Kabupaten Landak, Kalimantan Barat","Kabupaten Landak, Kalimantan Barat",KALIMANTAN BARAT,,Indonesia,,,,0.3150332,110.0885231,https://maps.google.com/?cid=0x0:0x30fd1a6bdb685b75,
komplek housing,Komplek perumahan,JELIMPO,"837Q+XCP, Jl. Lintas Kalimantan Poros Tengah, Jelimpo, Kec. Jelimpo, Kabupaten Landak, Kalimantan Barat 79357","Jl. Lintas Kalimantan Poros Tengah, Jelimpo, Kec. Jelimpo, Kabupaten Landak",KALIMANTAN BARAT,79357.0,Indonesia,,,,0.3149667,110.0885683,https://maps.google.com/?cid=0x0:0xf6fc61140c78d70c,
komplek housing,Komplek perumahan,Emma,"Dusun Sei Raya No.36, RT./RW/RW.001/002, Jelimpo, Kec. Jelimpo, Kabupaten Landak, Kalimantan Barat 79357","RT./RW/RW.001/002, Jelimpo, Kec. Jelimpo, Kabupaten Landak",KALIMANTAN BARAT,79357.0,Indonesia,,,,0.325528,110.0806996,https://maps.google.com/?cid=0x0:0x92496c465f1c6155,
komplek housing,Komplek perumahan,Tamang,"8483+FW2, Jl. Lintas Kalimantan Poros Tengah, Jelimpo, Kec. Jelimpo, Kabupaten Landak, Kalimantan Barat 79357","Jl. Lintas Kalimantan Poros Tengah, Jelimpo, Kec. Jelimpo, Kabupaten Landak",KALIMANTAN BARAT,79357.0,Indonesia,,,,0.3161361,110.1047599,https://maps.google.com/?cid=0x0:0x71116262e9f24da2,
komplek housing,Komplek perumahan,Rumah BOSCO wahyudi,"725G+CPM, Pawis Hilir, Kec. Jelimpo, Kabupaten Landak, Kalimantan Barat 79357","Pawis Hilir, Kec. Jelimpo, Kabupaten Landak",KALIMANTAN BARAT,79357.0,Indonesia, 082158818939,,,0.2585936,110.0268015,https://maps.google.com/?cid=0x0:0x4620f28e0326ac7,
komplek housing,Komplek perumahan,Rumah LANTOR,"62Q7+Q4, Pawis Hilir, Kec. Jelimpo, Kabupaten Landak, Kalimantan Barat","Kabupaten Landak, Kalimantan Barat",KALIMANTAN BARAT,,Indonesia,,,,0.2394297,110.0128087,https://maps.google.com/?cid=0x0:0x7517fbc8ea010c0b,
komplek housing,Komplek perumahan,"Simpang Tabik, Dusun Tabik Desa Jelimpo Kecamatan Jelimpo","83CC+QHX, Jl. Lintas Kalimantan Poros Tengah, Jelimpo, Kec. Jelimpo, Kabupaten Landak, Kalimantan Barat 79357","Jl. Lintas Kalimantan Poros Tengah, Jelimpo, Kec. Jelimpo, Kabupaten Landak",KALIMANTAN BARAT,79357.0,Indonesia,,,,0.3219947,110.0714812,https://maps.google.com/?cid=0x0:0x7e132c65912c65be,
komplek housing,Kantor Perusahaan,Kampung Tubang Raeng,"82QR+X88, Unnamed Road, Tubang Raeng, Kec. Jelimpo, Kabupaten Landak, Kalimantan Barat 79357","Unnamed Road, Tubang Raeng, Kec. Jelimpo, Kabupaten Landak",KALIMANTAN BARAT,79357.0,Indonesia,,,,0.3399109,110.0408363,https://maps.google.com/?cid=0x0:0x9dd4a543e93c5bdd,
komplek housing,Komplek perumahan,Rumah AYU,"9424+QX7, Mandor Kiru, Kec. Jelimpo, Kabupaten Landak, Kalimantan Barat 78562","Mandor Kiru, Kec. Jelimpo, Kabupaten Landak",KALIMANTAN BARAT,78562.0,Indonesia,,,,0.3526717,110.1077193,https://maps.google.com/?cid=0x0:0x3319adfb67c02a7e,
komplek housing,Komplek perumahan,Dusun Tabik,"83H9+MRH, Jelimpo, Kec. Jelimpo, Kabupaten Landak, Kalimantan Barat 79357","Jelimpo, Kec. Jelimpo, Kabupaten Landak",KALIMANTAN BARAT,79357.0,Indonesia,,,,0.3291831,110.0695968,https://maps.google.com/?cid=0x0:0xe00aaee9d7eecc5d,
komplek housing,Perhimpunan Pengembang Perumahan,Kantor Desa Papung,"C32X+7CG, Papung, Kec. Jelimpo, Kabupaten Landak, Kalimantan Barat 79357","Papung, Kec. Jelimpo, Kabupaten Landak",KALIMANTAN BARAT,79357.0,Indonesia,,,,0.400677,110.098567,https://maps.google.com/?cid=0x0:0xf64dbf1e410748c8,
komplek housing,Komplek perumahan,Rumah yoris,"8483+FWC, Jl. Lintas Kalimantan Poros Tengah, Jelimpo, Kec. Jelimpo, Kabupaten Landak, Kalimantan Barat 79357","Jl. Lintas Kalimantan Poros Tengah, Jelimpo, Kec. Jelimpo, Kabupaten Landak",KALIMANTAN BARAT,79357.0,Indonesia,,,,0.317753,110.1050048,https://maps.google.com/?cid=0x0:0x327503523ad31948,
komplek housing,Komplek perumahan,Rumah Liya,"838R+4PC, Jelimpo, Kec. Jelimpo, Kabupaten Landak, Kalimantan Barat 79357","Jelimpo, Kec. Jelimpo, Kabupaten Landak",KALIMANTAN BARAT,79357.0,Indonesia,,,,0.3157311,110.0913125,https://maps.google.com/?cid=0x0:0xad89dd2e510c64aa,
komplek housing,Komplek perumahan,Taba,"95R5+FJ7, Dusun Taba, Papung, Kec. Jelimpo, Kabupaten Landak, Kalimantan Barat 79357","Dusun Taba, Papung, Kec. Jelimpo, Kabupaten Landak",KALIMANTAN BARAT,79357.0,Indonesia,,,,0.3911502,110.1590488,https://maps.google.com/?cid=0x0:0x60c18dd41b42cebd,
komplek housing,Komplek perumahan,Rumah pak Silvester,"837Q+XCP, Jelimpo, Kec. Jelimpo, Kabupaten Landak, Kalimantan Barat 79357","Jelimpo, Kec. Jelimpo, Kabupaten Landak",KALIMANTAN BARAT,79357.0,Indonesia,,,,0.314965,110.0885664,https://maps.google.com/?cid=0x0:0x4ecade8de38560a2,
komplek housing,Komplek perumahan,House Bilsa family,"84X3+C3, Mandor Kiru, Kec. Jelimpo, Kabupaten Landak, Kalimantan Barat","Kabupaten Landak, Kalimantan Barat",KALIMANTAN BARAT,,Indonesia,,,,0.348587,110.102672,https://maps.google.com/?cid=0x0:0x2346d1207359d416,
komplek housing,Komplek perumahan,Rumah Lintar,"52X3+487, Dara Itam I, Kec. Jelimpo, Kabupaten Landak, Kalimantan Barat 79357","Dara Itam I, Kec. Jelimpo, Kabupaten Landak",KALIMANTAN BARAT,79357.0,Indonesia,,,,0.1977783,110.0033063,https://maps.google.com/?cid=0x0:0x2f9ed3799c23936b,
komplek housing,komplek housing,Dusun Palo Belantian,"C4J2+GQW, Dusun Palo Belantian, Sekais, Kec. Jelimpo, Kabupaten Landak, Kalimantan Barat 79357","Dusun Palo Belantian, Sekais, Kec. Jelimpo, Kabupaten Landak",KALIMANTAN BARAT,79357.0,Indonesia,,,,0.431358,110.1019649,https://maps.google.com/?cid=0x0:0x3b1f7461756d72e7,
komplek housing,Pembangunan Perumahan,Pondok anton,"82GF+4C, Tubang Raeng, Kec. Jelimpo, Kabupaten Landak, Kalimantan Barat","Kabupaten Landak, Kalimantan Barat",KALIMANTAN BARAT,,Indonesia,,,,0.3252661,110.0235915,https://maps.google.com/?cid=0x0:0x231708e4875bb663,
komplek housing,Komplek perumahan,Sawi Hilir,"6X3V+Q87, Dara Itam I, Kec. Jelimpo, Kabupaten Landak, Kalimantan Barat 79357","Dara Itam I, Kec. Jelimpo, Kabupaten Landak",KALIMANTAN BARAT,79357.0,Indonesia,,,,0.2044191,109.993307,https://maps.google.com/?cid=0x0:0x619e4274847232ea,
komplek housing,komplek housing,Rumah F.Surianto,"9XW7+26G, Gg. Keramat, Hilir Tengah, Kec. Ngabang, Kabupaten Landak, Kalimantan Barat 79357","Gg. Keramat, Hilir Tengah, Kec. Ngabang, Kabupaten Landak",KALIMANTAN BARAT,79357.0,Indonesia,,,,0.394558,109.962922,https://maps.google.com/?cid=0x0:0x10eb2a8ee7c9053f,
komplek housing,Komplek perumahan,Rumah moses,"82GM+GHC, Jl. Lintas Kalimantan Poros Tengah, Tubang Raeng, Kec. Jelimpo, Kabupaten Landak, Kalimantan Barat 79357","Jl. Lintas Kalimantan Poros Tengah, Tubang Raeng, Kec. Jelimpo, Kabupaten Landak",KALIMANTAN BARAT,79357.0,Indonesia,,,,0.3262933,110.0339376,https://maps.google.com/?cid=0x0:0xd195ce3f032d05a0,
komplek housing,Komplek perumahan,Rumah Tera,"62R6+2H5, Dusun pesak, RT.009/RW.002, Pawis Hilir, Kec. Jelimpo, Kabupaten Landak, Kalimantan Barat 79357","Dusun pesak, RT.009/RW.002, Pawis Hilir, Kec. Jelimpo, Kabupaten Landak",KALIMANTAN BARAT,79357.0,Indonesia,,,,0.240008,110.011485,https://maps.google.com/?cid=0x0:0x859bdfb375c5beaa,
komplek housing,Pembangunan Perumahan,Dara itam II/LamanTongon,"6XFR+MG9, Balai Peluntan, Kec. Jelimpo, Kabupaten Landak, Kalimantan Barat 79357","Balai Peluntan, Kec. Jelimpo, Kabupaten Landak",KALIMANTAN BARAT,79357.0,Indonesia,,,,0.2241655,109.9913694,https://maps.google.com/?cid=0x0:0x514af140873c5a94,
komplek housing,Komplek perumahan,Pemakaman desa kayu ara ( TAPOR PETUNU),"73QV+V3Q, Kayu Ara, Kec. Jelimpo, Kabupaten Landak, Kalimantan Barat 79357","Kayu Ara, Kec. Jelimpo, Kabupaten Landak",KALIMANTAN BARAT,79357.0,Indonesia,,,,0.2877576,110.0922225,https://maps.google.com/?cid=0x0:0x181a1af75a8c4da3,
komplek housing,Pembangunan Perumahan,Kuala behe,"H2M2+MJV, Kuala Behe, Kec. Kuala Behe, Kabupaten Landak, Kalimantan Barat 79357","Kuala Behe, Kec. Kuala Behe, Kabupaten Landak",KALIMANTAN BARAT,79357.0,Indonesia,,,,0.5842335,110.0015422,https://maps.google.com/?cid=0x0:0x1bdb9fa97c911b87,
komplek housing,komplek housing,Kalimantan Barat 79367,"Kabupaten Landak, Kalimantan Barat","Kabupaten Landak, Kalimantan Barat",KALIMANTAN BARAT,,Indonesia,,,,0.7436183,109.9973244,https://maps.google.com/?cid=0x0:0xb49541f7c227bcc0,
komplek housing,Komplek perumahan,Kampung Sepangok,"J27P+CW, Semedang, Kec. Kuala Behe, Kabupaten Landak, Kalimantan Barat","Kabupaten Landak, Kalimantan Barat",KALIMANTAN BARAT,,Indonesia,,,,0.6136457,110.0373325,https://maps.google.com/?cid=0x0:0x2bad7616363765a9,
komplek housing,Komplek perumahan,Dusun Opo,"MX36+3Q, Permiit, Kec. Kuala Behe, Kabupaten Landak, Kalimantan Barat","Kabupaten Landak, Kalimantan Barat",KALIMANTAN BARAT,,Indonesia,,,,0.6526713,109.9619598,https://maps.google.com/?cid=0x0:0x452762f656bfb811,
komplek housing,Komplek perumahan,Rumah Kaisar,"RW38+QX3, Tenguwe, Kec. Air Besar, Kabupaten Landak, Kalimantan Barat 79365","Tenguwe, Kec. Air Besar, Kabupaten Landak",KALIMANTAN BARAT,79365.0,Indonesia, 082253370325,,,0.8041294,109.9184764,https://maps.google.com/?cid=0x0:0xdaeaf2fe0092b112,
komplek housing,Perhimpunan Pengembang Perumahan,Dusun Bangsal Behe,"HRGC+H9H, Muun, Kec. Ngabang, Kabupaten Landak, Kalimantan Barat 79357","Muun, Kec. Ngabang, Kabupaten Landak",KALIMANTAN BARAT,79357.0,Indonesia,,,,0.5764473,109.8209771,https://maps.google.com/?cid=0x0:0x8db05e77c38e8b4b,
komplek housing,Komplek perumahan,Rumah iyooo,"P4W8+2QW, Sepangah, Kec. Air Besar, Kabupaten Landak, Kalimantan Barat","Kabupaten Landak, Kalimantan Barat",KALIMANTAN BARAT,,Indonesia,,,,0.7451178,110.1169461,https://maps.google.com/?cid=0x0:0xe5641a67feb1333c,
komplek housing,Tujuan Wisata,Dusun Sempate,"M246+C29, Semedang, Kec. Kuala Behe, Kabupaten Landak, Kalimantan Barat 79367","Semedang, Kec. Kuala Behe, Kabupaten Landak",KALIMANTAN BARAT,79367.0,Indonesia,,,,0.6560285,110.0101124,https://maps.google.com/?cid=0x0:0x3815e0663a643ce,
komplek housing,Komplek perumahan,"Perija, Kabupaten Landak, Kalimatan Barat","M4X9+CXQ, Sepangah, Perija, Kabupaten Landak, Kalimantan Barat 79367","Sepangah, Perija, Kabupaten Landak",KALIMANTAN BARAT,79367.0,Indonesia,,,,0.6985998,110.1199745,https://maps.google.com/?cid=0x0:0xeb391f7d3b52ca35,
komplek housing,Pembangunan Perumahan,Rudi home stay,"P4W8+6P7, Sepangah, Kec. Air Besar, Kabupaten Landak, Kalimantan Barat 79367","Sepangah, Kec. Air Besar, Kabupaten Landak",KALIMANTAN BARAT,79367.0,Indonesia,,,,0.7455337,110.116803,https://maps.google.com/?cid=0x0:0x67164f8bbadc1211,
komplek housing,Komplek perumahan,Bengawan ampar,"MR9P+8JV, Bengawan Ampar, Kec. Kuala Behe, Kabupaten Landak, Kalimantan Barat 79367","Bengawan Ampar, Kec. Kuala Behe, Kabupaten Landak",KALIMANTAN BARAT,79367.0,Indonesia,,,,0.6683711,109.8365586,https://maps.google.com/?cid=0x0:0x6979b8df65e291c2,
komplek housing,Kompleks Apartemen,Rumah chibi,"P4X4+473, Serimbu, Kec. Air Besar, Kabupaten Landak, Kalimantan Barat 79367","Serimbu, Kec. Air Besar, Kabupaten Landak",KALIMANTAN BARAT,79367.0,Indonesia,,,,0.7474176,110.1055008,https://maps.google.com/?cid=0x0:0xe7c4678eb65acf94,
komplek housing,Komplek perumahan,PANGKALATN MUUN,"JVRH+59, Kedama, Kec. Kuala Behe, Kabupaten Landak, Kalimantan Barat","Kabupaten Landak, Kalimantan Barat",KALIMANTAN BARAT,,Indonesia,,,,0.6404459,109.8784459,https://maps.google.com/?cid=0x0:0x210ff5997c23905d,
komplek housing,Kompleks Apartemen,Saham City,"Q474+G8, Serimbu, Kec. Air Besar, Kabupaten Landak, Kalimantan Barat 79367","Serimbu, Kec. Air Besar, Kabupaten Landak",KALIMANTAN BARAT,79367.0,Indonesia,,,,0.7638114,110.1058492,https://maps.google.com/?cid=0x0:0x9375c0eae64527ee,
komplek housing,Komplek perumahan,Bareh,"J5CR+PPC, Sekendal, Kec. Air Besar, Kabupaten Landak, Kalimantan Barat 79357","Sekendal, Kec. Air Besar, Kabupaten Landak",KALIMANTAN BARAT,79357.0,Indonesia,,,,0.6223774,110.1912065,https://maps.google.com/?cid=0x0:0xe726b25c56eb305e,
komplek housing,Komplek perumahan,Rumah Yayan,"P4X4+473, Serimbu, Kec. Air Besar, Kabupaten Landak, Kalimantan Barat 79367","Serimbu, Kec. Air Besar, Kabupaten Landak",KALIMANTAN BARAT,79367.0,Indonesia,,,,0.7477625,110.1056719,https://maps.google.com/?cid=0x0:0x3d0e4b7907480f54,
komplek housing,Komplek perumahan,Rumah Aldi,"HXJ6+2C7, Nyawan, Kec. Kuala Behe, Kabupaten Landak, Kalimantan Barat","Kabupaten Landak, Kalimantan Barat",KALIMANTAN BARAT,,Indonesia,,,,0.5803691,109.9609861,https://maps.google.com/?cid=0x0:0x6ac62ebcc8156c3f,
komplek housing,Komplek perumahan,Rumah Satel,"MX36+3Q8, Dusun OPO, Permiit, Kec. Kuala Behe, Kabupaten Landak, Kalimantan Barat","Kabupaten Landak, Kalimantan Barat",KALIMANTAN BARAT,,Indonesia,,,,0.6526713,109.9619598,https://maps.google.com/?cid=0x0:0x808bd6ae6749ed1c,
komplek housing,Komplek perumahan,Rumah Andi,"P4WG+PVX, Sepangah, Kec. Air Besar, Kabupaten Landak, Kalimantan Barat","Kabupaten Landak, Kalimantan Barat",KALIMANTAN BARAT,,Indonesia,,,,0.7468597,110.127221,https://maps.google.com/?cid=0x0:0x5c0e6ab4e9eb0776,
komplek housing,Komplek perumahan,Rumah maya,"P4QG+R8, Sepangah, Kec. Air Besar, Kabupaten Landak, Kalimantan Barat","Kabupaten Landak, Kalimantan Barat",KALIMANTAN BARAT,,Indonesia,,,,0.739517,110.125821,https://maps.google.com/?cid=0x0:0x9d4351df7ee3495e,
komplek housing,komplek housing,Kec. Kuala Behe,"Kabupaten Landak, Kalimantan Barat","Kabupaten Landak, Kalimantan Barat",KALIMANTAN BARAT,,Indonesia,,,,0.5842946,110.0015113,https://maps.google.com/?cid=0x0:0x7805c6c36a19e22f,
komplek housing,komplek housing,Mandor,"Mandor, Kec. Mandor, Kabupaten Landak, Kalimantan Barat","Kabupaten Landak, Kalimantan Barat",KALIMANTAN BARAT,,Indonesia,,,,0.323099,109.336304,https://maps.google.com/?cid=0x0:0xb5032e87bf627948,
komplek housing,komplek housing,rumah suwin,"88FP+6GM, Mandor, Kec. Mandor, Kabupaten Landak, Kalimantan Barat","Kabupaten Landak, Kalimantan Barat",KALIMANTAN BARAT,,Indonesia,,,,0.323099,109.336304,https://maps.google.com/?cid=0x0:0xe25909b610e2388b,
komplek housing,komplek housing,Tempat resepsi,"88FP+6GM, Jalan raya, RT.015/RW.001, Mandor, Kec. Mandor, Kabupaten Landak, Kalimantan Barat","Kabupaten Landak, Kalimantan Barat",KALIMANTAN BARAT,,Indonesia,,,,0.323099,109.336304,https://maps.google.com/?cid=0x0:0x72ca9a577ca5e1a6,
komplek housing,Pembangunan Perumahan,PT GPI 1 penconina indonesia,"88FP+6GM PT GPI 1 perumahan, Mandor, Kec. Mandor, penconina, Kalimantan Barat","penconina, Kalimantan Barat",KALIMANTAN BARAT,,Indonesia,,,,0.323099,109.336304,https://maps.google.com/?cid=0x0:0xc5ca70bf17a6a60f,
komplek housing,Pembangunan Perumahan,Kayu ara,"88FP+6GM, Mandor, Kec. Mandor, Kabupaten Landak, Kalimantan Barat","Kabupaten Landak, Kalimantan Barat",KALIMANTAN BARAT,,Indonesia,,,,0.323099,109.336304,https://maps.google.com/?cid=0x0:0xa4d49d2927dec838,
komplek housing,komplek housing,Kalimantan Barat 79363,"Kec. Mempawah Hulu, Kabupaten Landak, Kalimantan Barat","Kabupaten Landak, Kalimantan Barat",KALIMANTAN BARAT,,Indonesia,,,,0.6745598,109.4259114,https://maps.google.com/?cid=0x0:0xdcefe0766b98359b,
komplek housing,Komplek perumahan,Alos house,"M993+2HW, Tunang, Kec. Mempawah Hulu, Kabupaten Landak, Kalimantan Barat 79363","Tunang, Kec. Mempawah Hulu, Kabupaten Landak",KALIMANTAN BARAT,79363.0,Indonesia, 082155801311,,,0.6676249,109.3539571,https://maps.google.com/?cid=0x0:0xee833e96327322a5,
komplek housing,Komplek perumahan,Rumah idon proyek,"M9CR+9JC, Jl. Anjungan - Bengkayang, Tunang, Kec. Mempawah Hulu, Kabupaten Landak, Kalimantan Barat 79363","Jl. Anjungan - Bengkayang, Tunang, Kec. Mempawah Hulu, Kabupaten Landak",KALIMANTAN BARAT,79363.0,Indonesia,,,,0.6705611,109.3909402,https://maps.google.com/?cid=0x0:0x5ce92d1db5ea3ad6,
komplek housing,Perumahan,Komplek tikalong,"M98R+834, Tunang, Kec. Mempawah Hulu, Kabupaten Landak, Kalimantan Barat 79363","Tunang, Kec. Mempawah Hulu, Kabupaten Landak",KALIMANTAN BARAT,79363.0,Indonesia,,,,0.6657504,109.3902179,https://maps.google.com/?cid=0x0:0x19e060e55d7f84dc,
komplek housing,Komplek perumahan,SANTOS HOUSE,"H93J+P87, Jl. Karangan - Sompak, Karangan, Kec. Mempawah Hulu, Kabupaten Landak, Kalimantan Barat 79362","Jl. Karangan - Sompak, Karangan, Kec. Mempawah Hulu, Kabupaten Landak",KALIMANTAN BARAT,79362.0,Indonesia,,,,0.5542938,109.3807943,https://maps.google.com/?cid=0x0:0x232d779fecf2e93c,
komplek housing,Komplek perumahan,Sempang nahi,"M98H+W3, Tunang, Kec. Mempawah Hulu, Kabupaten Landak, Kalimantan Barat","Kabupaten Landak, Kalimantan Barat",KALIMANTAN BARAT,,Indonesia,,,,0.6673331,109.3776825,https://maps.google.com/?cid=0x0:0xc49a3699a85ff561,
komplek housing,Pembangunan Perumahan,"Temajit, tiang tanjung, kabupaten landak","PCGQ+PJQ, Temajit, Tiang Tj., Kabupaten Landak","Kabupaten Landak, Kalimantan Barat",KALIMANTAN BARAT,,Indonesia,,,,0.726838,109.4391131,https://maps.google.com/?cid=0x0:0xb3b0e4c8418ac47c,
komplek housing,Komplek perumahan,Rumah Tino paci,"H93J+8HR, Karangan, Kec. Mempawah Hulu, Kabupaten Landak, Kalimantan Barat 79362","Karangan, Kec. Mempawah Hulu, Kabupaten Landak",KALIMANTAN BARAT,79362.0,Indonesia,,,,0.553315,109.3814194,https://maps.google.com/?cid=0x0:0x282b7d990fefab10,
komplek housing,Komplek perumahan,Rumah Pubes,"JC67+X82, Pakato dalam, Karangan, Kec. Mempawah Hulu, Kabupaten Landak, Kalimantan Barat","Kabupaten Landak, Kalimantan Barat",KALIMANTAN BARAT,,Indonesia,,,,0.6123967,109.4132559,https://maps.google.com/?cid=0x0:0x764f42a2ed498ca9,
komplek housing,Komplek perumahan,Rumah Pak Lenti,"Jl. Dusun Pelanjau, Caokng, Kec. Mempawah Hulu, Kabupaten Landak, Kalimantan Barat 79362","Caokng, Kec. Mempawah Hulu, Kabupaten Landak",KALIMANTAN BARAT,79362.0,Indonesia, 085748047975,,,0.6807109,109.2838376,https://maps.google.com/?cid=0x0:0x2b6904e3bd9c5c5,
komplek housing,Pembangunan Perumahan,Rumah BADER,"J84R+JVC, Dusun Basopa, Pahokng, Kec. Mempawah Hulu, Kabupaten Landak, Kalimantan Barat","Kabupaten Landak, Kalimantan Barat",KALIMANTAN BARAT,,Indonesia,,,,0.6065501,109.342126,https://maps.google.com/?cid=0x0:0xbb8ee6fd521621a5,
komplek housing,Komplek perumahan,Kalumpe desa sabaka,"M9XC+MQF, Sabaka, Kec. Mempawah Hulu, Kabupaten Landak, Kalimantan Barat 79363","Sabaka, Kec. Mempawah Hulu, Kabupaten Landak",KALIMANTAN BARAT,79363.0,Indonesia,,,,0.6991968,109.3719138,https://maps.google.com/?cid=0x0:0x3e5742237734bc94,
komplek housing,Jasa Medis Lokal,Dusun pakan,"M75R+R3C, Caokng, Kec. Mempawah Hulu, Kabupaten Landak, Kalimantan Barat 79362","Caokng, Kec. Mempawah Hulu, Kabupaten Landak",KALIMANTAN BARAT,79362.0,Indonesia,,,,0.6595625,109.2901406,https://maps.google.com/?cid=0x0:0xb1e407d18457dd85,
komplek housing,Komplek perumahan,RUMAH DIKA,"H95J+CCJ, Karangan, Kec. Mempawah Hulu, Kabupaten Landak, Kalimantan Barat","Kabupaten Landak, Kalimantan Barat",KALIMANTAN BARAT,,Indonesia,,,,0.558824,109.381253,https://maps.google.com/?cid=0x0:0x9eb5045b3539d0c1,
komplek housing,Pembangunan Perumahan,Husein house,"M76R+42V, Dusun pakan desa, Caokng, Kec. Mempawah Hulu, Kabupaten Landak, Kalimantan Barat","Kabupaten Landak, Kalimantan Barat",KALIMANTAN BARAT,,Indonesia,,,,0.6603627,109.2900328,https://maps.google.com/?cid=0x0:0x37361544137191ca,
komplek housing,Komplek perumahan,Rumah Pak Jack,"HC4V+CGC, Dusun Pasangin, Sei Laki, Kec. Mempawah Hulu, Kabupaten Landak, Kalimantan Barat","Kabupaten Landak, Kalimantan Barat",KALIMANTAN BARAT,,Indonesia,,,,0.5560992,109.4437371,https://maps.google.com/?cid=0x0:0x62c1f232bbb753eb,
komplek housing,Bengkel Sepeda Motor,RENCANA MOTORIZE,"Tiang Tj., Kec. Mempawah Hulu, Kabupaten Landak, Kalimantan Barat 79363","Kec. Mempawah Hulu, Kabupaten Landak",KALIMANTAN BARAT,79363.0,Indonesia,,,,0.7285053,109.4706098,https://maps.google.com/?cid=0x0:0xc9f3fdc428f2d267,
komplek housing,Komplek perumahan,Rumah SF,"P8G7+PM, Ansolok, Kec. Mempawah Hulu, Kabupaten Landak, Kalimantan Barat 79363","Ansolok, Kec. Mempawah Hulu, Kabupaten Landak",KALIMANTAN BARAT,79363.0,Indonesia,,,,0.7268495,109.314187,https://maps.google.com/?cid=0x0:0x6d67835fd1b684f9,
komplek housing,Pembangunan Perumahan,Rumah Bapak Hendri,"M7JM+9H9, Jln, Dusun Pelanjau, Caokng, Mempawah Hulu, Landak Regency, West Kalimantan 79362","Jln, Dusun Pelanjau, Caokng, Mempawah Hulu, Landak Regency",KALIMANTAN BARAT,79362.0,Indonesia, 085828723183,,,0.680902,109.2839808,https://maps.google.com/?cid=0x0:0xe11016e49f2807a2,
komplek housing,Komplek perumahan,Kampung Ujin,"HC3V+HH4, Sei Laki, Kec. Mempawah Hulu, Kabupaten Landak, Kalimantan Barat 79363","Sei Laki, Kec. Mempawah Hulu, Kabupaten Landak",KALIMANTAN BARAT,79363.0,Indonesia,,,,0.5538927,109.4439423,https://maps.google.com/?cid=0x0:0x557502f89bd1423e,
komplek housing,Komplek perumahan,Kampung nanas,"M99H+4Q, Tunang, Kec. Mempawah Hulu, Kabupaten Landak, Kalimantan Barat","Kabupaten Landak, Kalimantan Barat",KALIMANTAN BARAT,,Indonesia,,,,0.6677411,109.379365,https://maps.google.com/?cid=0x0:0xd930d6552e4a2ea,
komplek housing,Pembangunan Perumahan,Kampung Pasangin,"HC4V+CGC, Dusun Pasangin, Sei Laki, Kec. Mempawah Hulu, Kabupaten Landak, Kalimantan Barat","Kabupaten Landak, Kalimantan Barat",KALIMANTAN BARAT,,Indonesia,,,,0.5560586,109.4437686,https://maps.google.com/?cid=0x0:0x50dbd89f477f6d93,
komplek housing,Komplek perumahan,Tisa Alona rumah stores,"M9CQ+HV7, Jl. Anjungan - Bengkayang, Tunang, Kec. Mempawah Hulu, Kabupaten Landak, Kalimantan Barat 79363","Jl. Anjungan - Bengkayang, Tunang, Kec. Mempawah Hulu, Kabupaten Landak",KALIMANTAN BARAT,79363.0,Indonesia,,,,0.6709721,109.3901755,https://maps.google.com/?cid=0x0:0x60ff255db6bc11be,
komplek housing,Komplek perumahan,RAMIN BOBIT,"PFCR+PXR, Tiang Tj., Kec. Mempawah Hulu, Kabupaten Landak, Kalimantan Barat 79364","Tiang Tj., Kec. Mempawah Hulu, Kabupaten Landak",KALIMANTAN BARAT,79364.0,Indonesia,,,,0.7218321,109.4923647,https://maps.google.com/?cid=0x0:0x1faac10d371bf0c0,
komplek housing,komplek housing,Kec. Mempawah Hulu,"Kabupaten Landak, Kalimantan Barat","Kabupaten Landak, Kalimantan Barat",KALIMANTAN BARAT,,Indonesia,,,,0.5569544,109.3792702,https://maps.google.com/?cid=0x0:0xdbcc6b92cf2ac7c,
komplek housing,Komplek perumahan,Rumah mk,"P8G8+M7J, Ansolok, Kec. Mempawah Hulu, Kabupaten Landak, Kalimantan Barat 79363","Ansolok, Kec. Mempawah Hulu, Kabupaten Landak",KALIMANTAN BARAT,79363.0,Indonesia,,,,0.7261045,109.3154582,https://maps.google.com/?cid=0x0:0x18e6e8169b16eec0,
komplek housing,Komplek perumahan,Rmh roman,"G9VG+F5P, RT.001/RW.001, Garu, Kec. Mempawah Hulu, Kabupaten Landak, Kalimantan Barat 79363","RT.001/RW.001, Garu, Kec. Mempawah Hulu, Kabupaten Landak",KALIMANTAN BARAT,79363.0,Indonesia,,,,0.54383,109.376021,https://maps.google.com/?cid=0x0:0x8f7a4b9e2a5dc680,
komplek housing,komplek housing,Rumah We Yuni,"MCVF+93V, Tiang Tj., Kec. Mempawah Hulu, Kabupaten Landak, Kalimantan Barat 79363","Tiang Tj., Kec. Mempawah Hulu, Kabupaten Landak",KALIMANTAN BARAT,79363.0,Indonesia,,,,0.6934869,109.422648,https://maps.google.com/?cid=0x0:0xd0b8862abe7de881,
komplek housing,Pembangunan Perumahan,Pakumpulantn dirik samua,"M9CR+9JC, Jl. Anjungan - Bengkayang, Tunang, Kec. Mempawah Hulu, Kabupaten Landak, Kalimantan Barat 79363","Jl. Anjungan - Bengkayang, Tunang, Kec. Mempawah Hulu, Kabupaten Landak",KALIMANTAN BARAT,79363.0,Indonesia,,,,0.6713821,109.3911964,https://maps.google.com/?cid=0x0:0xdeafce6a27224436,
komplek housing,komplek housing,Kalimantan Barat 79362,"Kabupaten Landak, Kalimantan Barat","Kabupaten Landak, Kalimantan Barat",KALIMANTAN BARAT,,Indonesia,,,,0.5318366,109.3307345,https://maps.google.com/?cid=0x0:0x1c5c3307eefb6954,
komplek housing,Komplek perumahan,Menjalin2,"F83V+3GR, Menjalin, Kec. Menjalin, Kabupaten Landak, Kalimantan Barat 79362","Menjalin, Kec. Menjalin, Kabupaten Landak",KALIMANTAN BARAT,79362.0,Indonesia,,,,0.4527307,109.3437682,https://maps.google.com/?cid=0x0:0xf26bc54acb01a571,
komplek housing,Komplek perumahan,Dusun Mensio,"F8CX+FJR, Menjalin, Kec. Menjalin, Kabupaten Landak, Kalimantan Barat 79362","Menjalin, Kec. Menjalin, Kabupaten Landak",KALIMANTAN BARAT,79362.0,Indonesia,,,,0.4712404,109.349013,https://maps.google.com/?cid=0x0:0x73ee882df9b1c029,
komplek housing,Komplek perumahan,Rumah Fronika Ranti,"C8R5+M83, Sepahat, Kec. Menjalin, Kabupaten Landak, Kalimantan Barat","Kabupaten Landak, Kalimantan Barat",KALIMANTAN BARAT,,Indonesia,,,,0.4416301,109.3082999,https://maps.google.com/?cid=0x0:0x5894212881829762,
komplek housing,Komplek perumahan,Kampung menjalin,"F82V+WF5, Jalan kampung, Menjalin, Kec. Menjalin, Kabupaten Landak, Kalimantan Barat 79362","Jalan kampung, Menjalin, Kec. Menjalin, Kabupaten Landak",KALIMANTAN BARAT,79362.0,Indonesia,,,,0.4522704,109.343719,https://maps.google.com/?cid=0x0:0x234607ba6c17791c,
komplek housing,Komplek perumahan,Home Hans,"F84H+5V9, Sepahat, Kec. Menjalin, Kabupaten Landak, Kalimantan Barat 79362","Sepahat, Kec. Menjalin, Kabupaten Landak",KALIMANTAN BARAT,79362.0,Indonesia,,,,0.4554199,109.3297309,https://maps.google.com/?cid=0x0:0xaaf1dcd73024edb6,
komplek housing,Komplek perumahan,Rumah Ropinus Malem,"G84C+WRX, Raba, Kec. Menjalin, Kabupaten Landak, Kalimantan Barat 79362","Raba, Kec. Menjalin, Kabupaten Landak",KALIMANTAN BARAT,79362.0,Indonesia,,,,0.5073603,109.3221176,https://maps.google.com/?cid=0x0:0x3af48c6b2fb7ee64,
komplek housing,Gedung Apartemen,Rumah Suprianto,"G7X7+8P, Tempoak, Kec. Menjalin, Kabupaten Landak, Kalimantan Barat","Kabupaten Landak, Kalimantan Barat",KALIMANTAN BARAT,,Indonesia,,,,0.548269,109.2642806,https://maps.google.com/?cid=0x0:0x7801be2c7d8253f4,
komplek housing,Komplek perumahan,"BAWENG,kecamatan menjalin,kabupaten landak","99X4+VR2, BAWENG, Kec. Menjalin, Kabupaten Landak, Kalimantan Barat","Kabupaten Landak, Kalimantan Barat",KALIMANTAN BARAT,,Indonesia,,,,0.3996498,109.3570094,https://maps.google.com/?cid=0x0:0xe609f44fd728673b,
komplek housing,Komplek perumahan,Rumah nano,"F9C2+2M4, Menjalin, Kec. Menjalin, Kabupaten Landak, Kalimantan Barat 79362","Menjalin, Kec. Menjalin, Kabupaten Landak",KALIMANTAN BARAT,79362.0,Indonesia,,,,0.4698968,109.35114,https://maps.google.com/?cid=0x0:0xd29df6b150d819f5,
komplek housing,komplek housing,Kec. Menjalin,"Kabupaten Landak, Kalimantan Barat","Kabupaten Landak, Kalimantan Barat",KALIMANTAN BARAT,,Indonesia,,,,0.4694105,109.3368143,https://maps.google.com/?cid=0x0:0x1277650014c1c5de,
komplek housing,Komplek perumahan,Lumut,"F89P+QP8, Menjalin, Kec. Menjalin, Kabupaten Landak, Kalimantan Barat 79362","Menjalin, Kec. Menjalin, Kabupaten Landak",KALIMANTAN BARAT,79362.0,Indonesia,,,,0.4694105,109.3368143,https://maps.google.com/?cid=0x0:0x335811f733a5daa1,
komplek housing,Komplek perumahan,Rumah vies,"F8CQ+38M, Menjalin, Kec. Menjalin, Kabupaten Landak, Kalimantan Barat 79362","Menjalin, Kec. Menjalin, Kabupaten Landak",KALIMANTAN BARAT,79362.0,Indonesia,,,,0.4702101,109.3383049,https://maps.google.com/?cid=0x0:0x122ac0d48be2cf2,
komplek housing,Komplek perumahan,Rumah Rasty,"F8CX+G9M, Menjalin, Kec. Menjalin, Kabupaten Landak, Kalimantan Barat 79362","Menjalin, Kec. Menjalin, Kabupaten Landak",KALIMANTAN BARAT,79362.0,Indonesia,,,,0.4713383,109.3484366,https://maps.google.com/?cid=0x0:0x621bc6213a134b96,
komplek housing,Komplek perumahan,Cinta,"H725+V9W, Tempoak, Kec. Menjalin, Kabupaten Landak, Kalimantan Barat 79362","Tempoak, Kec. Menjalin, Kabupaten Landak",KALIMANTAN BARAT,79362.0,Indonesia,,,,0.5522466,109.2584384,https://maps.google.com/?cid=0x0:0x7f3f376f74e4f354,
komplek housing,Komplek perumahan,Egi's Home,"C8XH+WXC, Sepahat, Kec. Menjalin, Kabupaten Landak, Kalimantan Barat 79362","Sepahat, Kec. Menjalin, Kabupaten Landak",KALIMANTAN BARAT,79362.0,Indonesia,,,,0.4498099,109.3298851,https://maps.google.com/?cid=0x0:0xe4d8a86e50640d09,
komplek housing,Perhimpunan Pengembang Perumahan,Uly Home,"G6CV+RQH, Rees, Kec. Menjalin, Kabupaten Landak, Kalimantan Barat 79362","Rees, Kec. Menjalin, Kabupaten Landak",KALIMANTAN BARAT,79362.0,Indonesia,,,,0.5220617,109.2444849,https://maps.google.com/?cid=0x0:0xba20c2203b0382c1,
komplek housing,Komplek perumahan,rumah andre,"C8R5+V7J, Sepahat, Kec. Menjalin, Kabupaten Landak, Kalimantan Barat 79362","Sepahat, Kec. Menjalin, Kabupaten Landak",KALIMANTAN BARAT,79362.0,Indonesia, 085654579106,,,0.441135,109.308799,https://maps.google.com/?cid=0x0:0x5538a6552e36e37b,
komplek housing,Komplek perumahan,Rumah Melina,"F8RP+MM7, Raba, Kec. Menjalin, Kabupaten Landak, Kalimantan Barat 79362","Raba, Kec. Menjalin, Kabupaten Landak",KALIMANTAN BARAT,79362.0,Indonesia,,,,0.4916647,109.3366825,https://maps.google.com/?cid=0x0:0x9727b66109c8adf,
komplek housing,Komplek perumahan,Gisel  Kya,"F89P+QP8, Menjalin, Kec. Menjalin, Kabupaten Landak, Kalimantan Barat 79362","Menjalin, Kec. Menjalin, Kabupaten Landak",KALIMANTAN BARAT,79362.0,Indonesia,,,,0.4694105,109.3368143,https://maps.google.com/?cid=0x0:0x84b298d0b0021f40,
komplek housing,Komplek perumahan,Rumah akin,"C8V6+M5F, Sepahat, Kec. Menjalin, Kabupaten Landak, Kalimantan Barat 79362","Sepahat, Kec. Menjalin, Kabupaten Landak",KALIMANTAN BARAT,79362.0,Indonesia,,,,0.4442224,109.3104115,https://maps.google.com/?cid=0x0:0xba3d68c1f34e74f6,
komplek housing,Komplek perumahan,Suparda Home,"F8RP+MM7, Raba, Kec. Menjalin, Kabupaten Landak, Kalimantan Barat 79362","Raba, Kec. Menjalin, Kabupaten Landak",KALIMANTAN BARAT,79362.0,Indonesia,,,,0.4916647,109.3366825,https://maps.google.com/?cid=0x0:0xbdd59a3fb74ef6ad,
komplek housing,Komplek perumahan,Rumah Satria,"Menjalin, Kec. Menjalin, Kabupaten Landak, Kalimantan Barat 79362","Kec. Menjalin, Kabupaten Landak",KALIMANTAN BARAT,79362.0,Indonesia, 085251520300,,,0.4605977,109.3388494,https://maps.google.com/?cid=0x0:0x636bd94e45b5675d,
komplek housing,Komplek perumahan,Paji home,"G7QQ+MWC, Nangka, Kec. Menjalin, Kabupaten Landak, Kalimantan Barat 79362","Nangka, Kec. Menjalin, Kabupaten Landak",KALIMANTAN BARAT,79362.0,Indonesia,,,,0.5382528,109.2908543,https://maps.google.com/?cid=0x0:0x33d9b9b63194affd,
komplek housing,Komplek perumahan,Villa Julian,"Jalan Tempoak Menjalin, Dusun Pantak Desa Tempoak, Indonesia, 78362, Tempoak, Kec. Menjalin, Kabupaten Landak, Kalimantan Barat 79362","Dusun Pantak Desa Tempoak, Indonesia,",KALIMANTAN BARAT,78362.0,Indonesia,,,,0.549837,109.2618683,https://maps.google.com/?cid=0x0:0x34547375185f0d3f,
komplek housing,Komplek perumahan,VILA SINTOK,"HH5J+465, Jalan Jahangi-Nungku, Ladangan, Menyuke, Landak Regency, West Kalimantan","Kabupaten Landak, Kalimantan Barat",KALIMANTAN BARAT,,Indonesia,,,,0.5577699,109.580612,https://maps.google.com/?cid=0x0:0x89b02aa57e231ebf,
komplek housing,komplek housing,Kalimantan Barat 79364,"Kabupaten Landak, Kalimantan Barat","Kabupaten Landak, Kalimantan Barat",KALIMANTAN BARAT,,Indonesia,,,,0.6737656,109.6163185,https://maps.google.com/?cid=0x0:0x8890c5a7792b01c3,
komplek housing,Komplek perumahan,Rumah Pak Kimas,"HJ8X+PGX, Mamek, Kec. Menyuke, Kabupaten Landak, Kalimantan Barat 79364","Mamek, Kec. Menyuke, Kabupaten Landak",KALIMANTAN BARAT,79364.0,Indonesia,,,,0.566471,109.6488591,https://maps.google.com/?cid=0x0:0xd927d58fc28fcc65,
komplek housing,Komplek perumahan,Rumah boker,"HH5J+46, Ladangan, Kec. Menyuke, Kabupaten Landak, Kalimantan Barat","Kabupaten Landak, Kalimantan Barat",KALIMANTAN BARAT,,Indonesia,,,,0.5429488,109.543526,https://maps.google.com/?cid=0x0:0x5b3bd3ecad047c2a,
komplek housing,Komplek perumahan,Rumah Jampen,"JGWQ+JVG, Dusun Medang, Kampet, Kec. Banyuke Hulu, Kabupaten Landak, Kalimantan Barat","Kabupaten Landak, Kalimantan Barat",KALIMANTAN BARAT,,Indonesia,,,,0.6465525,109.5396875,https://maps.google.com/?cid=0x0:0xdd820c5ba374c4b2,
komplek housing,Komplek perumahan,DUSUN MENINING TAAS,"GJW7+FGM, Ladangan, Kec. Menyuke, Kabupaten Landak, Kalimantan Barat 79356","Ladangan, Kec. Menyuke, Kabupaten Landak",KALIMANTAN BARAT,79356.0,Indonesia,,,,0.5462081,109.6138034,https://maps.google.com/?cid=0x0:0x26f1772c5065cf10,
komplek housing,Komplek perumahan,Rumah Yonatan,"HJQH+WMH, Darit, Kec. Menyuke, Kabupaten Landak, Kalimantan Barat 79364","Darit, Kec. Menyuke, Kabupaten Landak",KALIMANTAN BARAT,79364.0,Indonesia,,,,0.5898125,109.6292344,https://maps.google.com/?cid=0x0:0xdc505333bf7140e6,
komplek housing,Komplek perumahan,Rumah Musanto,"HJRC+JCH, Darit, Kec. Menyuke, Kabupaten Landak, Kalimantan Barat","Kabupaten Landak, Kalimantan Barat",KALIMANTAN BARAT,,Indonesia,,,,0.5915648,109.6211066,https://maps.google.com/?cid=0x0:0xbfd3e456f97a9eb9,
komplek housing,Komplek perumahan,Rumah Marsi,"GGRV+X7, Ladangan, Kec. Menyuke, Kabupaten Landak, Kalimantan Barat","Kabupaten Landak, Kalimantan Barat",KALIMANTAN BARAT,,Indonesia,,,,0.5412232,109.5426138,https://maps.google.com/?cid=0x0:0x6bee40115854afd,
komplek housing,Komplek perumahan,Rumah Adrianus Andi,"HJPG+XW3, Darit, Kec. Menyuke, Kabupaten Landak, Kalimantan Barat","Kabupaten Landak, Kalimantan Barat",KALIMANTAN BARAT,,Indonesia, 082251350534,,,0.5873951,109.6272857,https://maps.google.com/?cid=0x0:0x7d1c94e446e677bf,
komplek housing,Pembangunan Perumahan,Simpang _Telaet,"JJ8X+87G, Songga, Kec. Menyuke, Kabupaten Landak, Kalimantan Barat 79364","Songga, Kec. Menyuke, Kabupaten Landak",KALIMANTAN BARAT,79364.0,Indonesia,,,,0.6158153,109.6481889,https://maps.google.com/?cid=0x0:0xdd2ebde706f2ad48,
komplek housing,Komplek perumahan,dusun jahangi .rumah pak paten,"HJ9X+RJW dusun jahangi,desa ta'as, Mamek, Kec. Menyuke, Kabupaten Landak, Kalimantan Barat","Kabupaten Landak, Kalimantan Barat",KALIMANTAN BARAT,,Indonesia,,,,0.569611,109.6490814,https://maps.google.com/?cid=0x0:0x5f535e2a69d26d52,
komplek housing,Perumahan,Rumah Bang Eso,"MGC9+69, Kampet, Kec. Banyuke Hulu, Kabupaten Landak, Kalimantan Barat","Kabupaten Landak, Kalimantan Barat",KALIMANTAN BARAT,,Indonesia,,,,0.6712051,109.518325,https://maps.google.com/?cid=0x0:0x442853c795d7617f,
komplek housing,Perhimpunan Pengembang Perumahan,Kampung Pancik,"JJW3+QQV, Dusun Pancik, Tembawang Bale, Kec. Banyuke Hulu, HuluKabupaten Landak, Kalimantan Barat 79364","Dusun Pancik, Tembawang Bale, Kec. Banyuke Hulu, HuluKabupaten Landak",KALIMANTAN BARAT,79364.0,Indonesia,,,,0.646985,109.6044161,https://maps.google.com/?cid=0x0:0x74a202e008a6d3dc,
komplek housing,Pembangunan Perumahan,Rumah ido,"HM3V+WQ5, Bagak, Kec. Menyuke, Kabupaten Landak, Kalimantan Barat","Kabupaten Landak, Kalimantan Barat",KALIMANTAN BARAT,,Indonesia,,,,0.5547671,109.6944898,https://maps.google.com/?cid=0x0:0x147f25ab63707644,
komplek housing,Komplek perumahan,"Rumah Enek,Evi (Pak,Lili)","HGVF+HF, Gamang, Kec. Banyuke Hulu, Kabupaten Landak, Kalimantan Barat 79364","Gamang, Kec. Banyuke Hulu, Kabupaten Landak",KALIMANTAN BARAT,79364.0,Indonesia,,,,0.5948845,109.5231972,https://maps.google.com/?cid=0x0:0x13f23fc9b00f031b,
komplek housing,Komplek perumahan,Rmh jon,"JJ73+44, Songga, Kec. Menyuke, Kabupaten Landak, Kalimantan Barat 79364","Songga, Kec. Menyuke, Kabupaten Landak",KALIMANTAN BARAT,79364.0,Indonesia,,,,0.6128073,109.6027756,https://maps.google.com/?cid=0x0:0xc5e5e930018ac4b2,
komplek housing,Komplek perumahan,Guntara home,"HH5J+465, Ladangan, Kec. Menyuke, Kabupaten Landak, Kalimantan Barat","Kabupaten Landak, Kalimantan Barat",KALIMANTAN BARAT,,Indonesia,,,,0.5577699,109.580612,https://maps.google.com/?cid=0x0:0xbab43fc3a0efd995,
komplek housing,Komplek perumahan,Dusun Bandol,"MGV7+7RR, Untang, Kec. Banyuke Hulu, Kabupaten Landak, Kalimantan Barat 79364","Untang, Kec. Banyuke Hulu, Kabupaten Landak",KALIMANTAN BARAT,79364.0,Indonesia,,,,0.6932349,109.5145192,https://maps.google.com/?cid=0x0:0x850b0974ec8f45cc,
komplek housing,Kantor Pemerintahan Daerah,Desa Ladangan,"HH78+35, Ladangan, Kec. Menyuke, Kabupaten Landak, Kalimantan Barat","Kabupaten Landak, Kalimantan Barat",KALIMANTAN BARAT,,Indonesia,,,,0.562742,109.565497,https://maps.google.com/?cid=0x0:0x95c81350a9caa50c,
komplek housing,Komplek perumahan,"Semade Alam, Jalan raya semade","PFGM+5WH, Semade, Kec. Banyuke Hulu, Kabupaten Landak, Kalimantan Barat 79364","Semade, Kec. Banyuke Hulu, Kabupaten Landak",KALIMANTAN BARAT,79364.0,Indonesia,,,,0.7255915,109.4855594,https://maps.google.com/?cid=0x0:0xe44508b3ec230f33,
komplek housing,Komplek perumahan,RAMIN BOBIT,"PFCR+PXR, Tiang Tj., Kec. Mempawah Hulu, Kabupaten Landak, Kalimantan Barat 79364","Tiang Tj., Kec. Mempawah Hulu, Kabupaten Landak",KALIMANTAN BARAT,79364.0,Indonesia,,,,0.7218321,109.4923647,https://maps.google.com/?cid=0x0:0x1faac10d371bf0c0,
komplek housing,Perhimpunan Pengembang Perumahan,Rumah Pak Rajali,"HP8C+9V5, Sungai Lubang, Kec. Menyuke, Kabupaten Landak, Kalimantan Barat 79356","Sungai Lubang, Kec. Menyuke, Kabupaten Landak",KALIMANTAN BARAT,79356.0,Indonesia,,,,0.5656877,109.7217859,https://maps.google.com/?cid=0x0:0x182cdd2ff93c632e,
komplek housing,Komplek perumahan,Semade Alam. (Rumah Pak Oktavianus Alot,"PFGM+5WH, Semade, Kec. Banyuke Hulu, Kabupaten Landak, Kalimantan Barat 79364","Semade, Kec. Banyuke Hulu, Kabupaten Landak",KALIMANTAN BARAT,79364.0,Indonesia,,,,0.7255808,109.4854574,https://maps.google.com/?cid=0x0:0x4755cab7678390de,
komplek housing,Komplek perumahan,Dusun angkamu,GKSI jemaat >>,"Kabupaten Landak, Kalimantan Barat",KALIMANTAN BARAT,,Indonesia,,,,0.6138657,109.6449358,https://maps.google.com/?cid=0x0:0x13124b437cc24ca,
komplek housing,komplek housing,Kec. Menyuke,"Kabupaten Landak, Kalimantan Barat","Kabupaten Landak, Kalimantan Barat",KALIMANTAN BARAT,,Indonesia,,,,0.5911378,109.626712,https://maps.google.com/?cid=0x0:0x6ec3a410f1ee9435,
komplek housing,Pembangunan Perumahan,Rumah Sean,"HJQJ+QF3, Dusun Setolo, Darit, Kec. Menyuke, Kabupaten Landak, Kalimantan Barat 79364","Dusun Setolo, Darit, Kec. Menyuke, Kabupaten Landak",KALIMANTAN BARAT,79364.0,Indonesia,,,,0.5893759,109.631177,https://maps.google.com/?cid=0x0:0x7f6eb29a37050977,
komplek housing,Gedung Apartemen,Kampokng Laba,"HHG7+RFP, Ladangan, Kec. Menyuke, Kabupaten Landak, Kalimantan Barat 79364","Ladangan, Kec. Menyuke, Kabupaten Landak",KALIMANTAN BARAT,79364.0,Indonesia,,,,0.5771045,109.5637068,https://maps.google.com/?cid=0x0:0x3096dfcd75dd3dd,
komplek housing,Komplek perumahan,guna Bukit,"HJC6+C49, Dusun guna, Angkaras, Kec. Menyuke, Kabupaten Landak, Kalimantan Barat 79364","Dusun guna, Angkaras, Kec. Menyuke, Kabupaten Landak",KALIMANTAN BARAT,79364.0,Indonesia,,,,0.5710475,109.6103673,https://maps.google.com/?cid=0x0:0x793c476c77b224a0,
komplek housing,komplek housing,Kec. Meranti,"Kabupaten Landak, Kalimantan Barat","Kabupaten Landak, Kalimantan Barat",KALIMANTAN BARAT,,Indonesia,,,,0.7416296,109.7807093,https://maps.google.com/?cid=0x0:0xedda33925e659cc4,
komplek housing,komplek housing,Kalimantan Barat,,Kalimantan Barat,KALIMANTAN BARAT,,Indonesia,,,,-0.2787808,111.4752851,https://maps.google.com/?cid=0x0:0xcd5ceced4c2148a0,
komplek housing,Komplek perumahan,Komplek Meranti,"9QXH+RV7, Jl. Re. Abdullah, RT.02/RW.02, Pasirmulya, Kec. Bogor Bar., Kota Bogor, Jawa Barat 16118","Jl. Re. Abdullah, RT.02/RW.02, Pasirmulya, Kec. Bogor Bar., Kota Bogor",KALIMANTAN BARAT,16118.0,Indonesia,,,,-6.6004538,106.7796794,https://maps.google.com/?cid=0x0:0xebe5b8519d39f356,
komplek housing,Komplek perumahan,Cluster Meranti,"PW98+HQ8, Jl. Meranti, RT.002/RW.008, Jatiwaringin, Kec. Pd. Gede, Kota Bks, Jawa Barat 17411","Jl. Meranti, RT.002/RW.008, Jatiwaringin, Kec. Pd. Gede, Kota Bks",KALIMANTAN BARAT,17411.0,Indonesia,,,,-6.2810888,106.9169607,https://maps.google.com/?cid=0x0:0x9cc6f36166061686,
komplek housing,Komplek perumahan,Kampung Sekeok,"QPJC+W2, Tahu, Kec. Meranti, Kabupaten Landak, Kalimantan Barat","Kabupaten Landak, Kalimantan Barat",KALIMANTAN BARAT,,Indonesia,,,,0.7823737,109.7200375,https://maps.google.com/?cid=0x0:0x4d7d7f13756a272f,
komplek housing,komplek housing,Kalimantan Barat 79366,"Kec. Meranti, Kabupaten Landak, Kalimantan Barat","Kabupaten Landak, Kalimantan Barat",KALIMANTAN BARAT,,Indonesia,,,,0.7627643,109.7353569,https://maps.google.com/?cid=0x0:0xa8d09b215b6af2c7,
komplek housing,komplek housing,Dusun Ilan,"Kode pos 79366Kecamatan, Jalan Raya, Kelampai Setolo, Kec. Meranti, Kabupaten Landak, Kalimantan Barat 79366","Jalan Raya, Kelampai Setolo, Kec. Meranti, Kabupaten Landak",KALIMANTAN BARAT,79366.0,Indonesia,,,,0.660726,109.7208906,https://maps.google.com/?cid=0x0:0x768b294c7b847b86,
komplek housing,Komplek perumahan,Rumah erik,"QQF5+9RF, Selange, Kec. Meranti, Kabupaten Landak, Kalimantan Barat","Kabupaten Landak, Kalimantan Barat",KALIMANTAN BARAT,,Indonesia,,,,0.7737261,109.7604521,https://maps.google.com/?cid=0x0:0x9ab663a3b7c67c20,
komplek housing,Komplek perumahan,Kampung Senguang,"RP9J+Q7, Tahu, Kec. Meranti, Kabupaten Landak, Kalimantan Barat","Kabupaten Landak, Kalimantan Barat",KALIMANTAN BARAT,,Indonesia,,,,0.8194042,109.7306892,https://maps.google.com/?cid=0x0:0x78e6df28ab7d4c13,
komplek housing,Pembangunan Perumahan,Sutono House Famili,"Jalan Raya Kecamatan Meranti Desa Kelampai Setolo Dusun Ilan, RT./RW:, Kec. Meranti, Kabupaten Landak, Kalimantan Barat 79366","RT./RW:, Kec. Meranti, Kabupaten Landak",KALIMANTAN BARAT,79366.0,Indonesia,,,,0.660941,109.7211098,https://maps.google.com/?cid=0x0:0x5dcf2c14fc4a2054,
komplek housing,Perhimpunan Pengembang Perumahan,Haripad soubhagya,"PQPV+6XR, THULASi, Ampadi, Meranti, Landak Regency, West Kalimantan","Kabupaten Landak, Kalimantan Barat",KALIMANTAN BARAT,,Indonesia,,,,0.7356179,109.7948852,https://maps.google.com/?cid=0x0:0x231811e57644e2f4,
komplek housing,Pembangunan Perumahan,Kampung Peluntan,"MQ95+FMF, Darit - Pangsi, Meranti, Kec. Meranti, Kabupaten Landak, Kalimantan Barat 79364","Darit - Pangsi, Meranti, Kec. Meranti, Kabupaten Landak",KALIMANTAN BARAT,79364.0,Indonesia,,,,0.6659412,109.7641416,https://maps.google.com/?cid=0x0:0x8994a597e557ddea,
komplek housing,Komplek perumahan,Komplek Meranti,"9QXH+RV7, Jl. Re. Abdullah, RT.02/RW.02, Pasirmulya, Kec. Bogor Bar., Kota Bogor, Jawa Barat 16118","Jl. Re. Abdullah, RT.02/RW.02, Pasirmulya, Kec. Bogor Bar., Kota Bogor",KALIMANTAN BARAT,16118.0,Indonesia,,,,-6.6004538,106.7796794,https://maps.google.com/?cid=0x0:0xebe5b8519d39f356,
komplek housing,Perhentian bus,Jl. Meranti 2,"Pasirkuda, Kec. Bogor Bar., Kota Bogor, Jawa Barat","Kota Bogor, Jawa Barat",KALIMANTAN BARAT,,Indonesia,,,,-6.60115,106.7806,https://maps.google.com/?cid=0x0:0x55f88dd000b865c9,
komplek housing,komplek housing,Ngabang,"Hilir Tengah, Kec. Ngabang, Kabupaten Landak, Kalimantan Barat","Kabupaten Landak, Kalimantan Barat",KALIMANTAN BARAT,,Indonesia,,,,0.396117,109.950996,https://maps.google.com/?cid=0x0:0x36ecc951d5c3f67,
komplek housing,komplek housing,Rumah tinggal,"9XW2+F95, Hilir Tengah, Kec. Ngabang, Kabupaten Landak, Kalimantan Barat","Kabupaten Landak, Kalimantan Barat",KALIMANTAN BARAT,,Indonesia,,,,0.3961325,109.9509757,https://maps.google.com/?cid=0x0:0x7e0bb473513cd1d6,
komplek housing,Pembangunan Perumahan,MAMURAJA RESIDENCE,"9WXP+MC, Hilir Ktr., Kec. Ngabang, Kabupaten Landak, Kalimantan Barat 79357","Hilir Ktr., Kec. Ngabang, Kabupaten Landak",KALIMANTAN BARAT,79357.0,Indonesia,,,,0.3994615,109.9367356,https://maps.google.com/?cid=0x0:0xb44b0729cc7903d2,
komplek housing,Komplek perumahan,Bisma Residence,"CW4V+4MR, Jl. Raya Mungguk, Hilir Tengah, Kec. Ngabang, Kabupaten Landak, Kalimantan Barat 79357","Jl. Raya Mungguk, Hilir Tengah, Kec. Ngabang, Kabupaten Landak",KALIMANTAN BARAT,79357.0,Indonesia, 082148554439,,,0.4053589,109.9441324,https://maps.google.com/?cid=0x0:0xaf8c107dcf86fae0,
komplek housing,Komplek perumahan,Perumahan,"9XJ4+67J, Jl. Pesona, Hilir Ktr., Kec. Ngabang, Kabupaten Landak, Kalimantan Barat 79357","Jl. Pesona, Hilir Ktr., Kec. Ngabang, Kabupaten Landak",KALIMANTAN BARAT,79357.0,Indonesia,,,,0.3805941,109.955647,https://maps.google.com/?cid=0x0:0x69a58b643c54710e,
komplek housing,Komplek perumahan,Rumah Dimas dan fitri,"9XW2+F95, Hilir Tengah, Kec. Ngabang, Kabupaten Landak, Kalimantan Barat","Kabupaten Landak, Kalimantan Barat",KALIMANTAN BARAT,,Indonesia,,,,0.3961325,109.9509757,https://maps.google.com/?cid=0x0:0x98ec4edc58aaf215,
komplek housing,Pembangunan Perumahan,Kami lihat ini gugel sebenarnya alamat siapa,"9XW2+CCP, Hilir Tengah, Kec. Ngabang, Kabupaten Landak, Kalimantan Barat","Kabupaten Landak, Kalimantan Barat",KALIMANTAN BARAT,,Indonesia,,,,0.396094,109.9510646,https://maps.google.com/?cid=0x0:0x49fc4de5fbcb49b5,
komplek housing,Otoritas Perumahan,Perumahan btn,"Gg. Ekayanti No.12, Hilir Tengah, Kec. Ngabang, Kabupaten Landak, Kalimantan Barat 79357","Hilir Tengah, Kec. Ngabang, Kabupaten Landak",KALIMANTAN BARAT,79357.0,Indonesia,,,,0.3937819,109.9501749,https://maps.google.com/?cid=0x0:0xaed3df13f9692e61,
komplek housing,Komplek perumahan,Jalan tanjung,"Jl. Tj. No.31, Hilir Ktr., Kec. Ngabang, Kabupaten Landak, Kalimantan Barat 79357","Hilir Ktr., Kec. Ngabang, Kabupaten Landak",KALIMANTAN BARAT,79357.0,Indonesia,,,,0.3819681,109.9637497,https://maps.google.com/?cid=0x0:0x74496f78d0a448ab,
komplek housing,Pembangunan Perumahan,Miari ardagusema residence,"9XQC+V3C, Hilir Tengah, Kec. Ngabang, Kabupaten Landak, Kalimantan Barat 79357","Hilir Tengah, Kec. Ngabang, Kabupaten Landak",KALIMANTAN BARAT,79357.0,Indonesia,,,,0.3898649,109.969891,https://maps.google.com/?cid=0x0:0xc6ffff4efc1f4387,
komplek housing,Pembangunan Perumahan,Kompleks Ayo Jaya Ngabang,"9WWR+JFV, Jl. Ilong, Raja, Kec. Ngabang, Kabupaten Landak, Kalimantan Barat 79357","Jl. Ilong, Raja, Kec. Ngabang, Kabupaten Landak",KALIMANTAN BARAT,79357.0,Indonesia, 081249338315,,,0.39662,109.9411763,https://maps.google.com/?cid=0x0:0x20cb8f30b2848d0d,
komplek housing,komplek housing,Kalimantan Barat 79358,"Kabupaten Landak, Kalimantan Barat","Kabupaten Landak, Kalimantan Barat",KALIMANTAN BARAT,,Indonesia,,,,0.2290802,109.6401242,https://maps.google.com/?cid=0x0:0x49f2151083760b7e,
komplek housing,Pembangunan Perumahan,Pak Japa/Dado,"8QRQ+67, Sidas, Kec. Sengah Temila, Kabupaten Landak, Kalimantan Barat","Kabupaten Landak, Kalimantan Barat",KALIMANTAN BARAT,,Indonesia,,,,0.34058,109.788188,https://maps.google.com/?cid=0x0:0x3c089ccf23f4bae8,
komplek housing,Komplek perumahan,Rumah tinggal,"9HC8+Q7R, Jl. Lintas Kalimantan Poros Tengah, Senakin, Kec. Sengah Temila, Kabupaten Landak, Kalimantan Barat 79356","Jl. Lintas Kalimantan Poros Tengah, Senakin, Kec. Sengah Temila, Kabupaten Landak",KALIMANTAN BARAT,79356.0,Indonesia,,,,0.371996,109.5656496,https://maps.google.com/?cid=0x0:0xc0855675b2808b25,
komplek housing,komplek housing,Kalimantan Barat 79356,"Kabupaten Landak, Kalimantan Barat","Kabupaten Landak, Kalimantan Barat",KALIMANTAN BARAT,,Indonesia,,,,0.3883464,109.7115472,https://maps.google.com/?cid=0x0:0x20df62cbb3031bce,
komplek housing,Komplek perumahan,DUSUN TOLONG,"7MRX+CF2, Jl. Saham, Saham, Kec. Sengah Temila, Kabupaten Landak, Kalimantan Barat 79358","Jl. Saham, Saham, Kec. Sengah Temila, Kabupaten Landak",KALIMANTAN BARAT,79358.0,Indonesia,,,,0.2910232,109.6986305,https://maps.google.com/?cid=0x0:0x50d699cd6e022de,
komplek housing,Komplek perumahan,Kediaman pdt.KATI,"7MQX+3WR, Saham, Kec. Sengah Temila, Kabupaten Landak, Kalimantan Barat","Kabupaten Landak, Kalimantan Barat",KALIMANTAN BARAT,,Indonesia,,,,0.2877274,109.6997731,https://maps.google.com/?cid=0x0:0x2bc83fc336d718a8,
komplek housing,Komplek perumahan,PAK FADRE,"9HVM+37C, Gombang, Kec. Sengah Temila, Kabupaten Landak, Kalimantan Barat 79356","Gombang, Kec. Sengah Temila, Kabupaten Landak",KALIMANTAN BARAT,79356.0,Indonesia,,,,0.3926933,109.5831316,https://maps.google.com/?cid=0x0:0x7ce06ae3f36651e1,
komplek housing,Komplek perumahan,Rumah via,"8HPJ+6G, RT./RW/RW.004/000, Aur Sampuk, Kec. Sengah Temila, Kabupaten Landak, Kalimantan Barat 79356","RT./RW/RW.004/000, Aur Sampuk, Kec. Sengah Temila, Kabupaten Landak",KALIMANTAN BARAT,79356.0,Indonesia,,,,0.3355813,109.5813522,https://maps.google.com/?cid=0x0:0x6dca047d61abe75,
komplek housing,Pembangunan Perumahan,IDK,"9HG4+5GV, Jl. Lintas Kalimantan Poros Tengah, Andeng, Kec. Sengah Temila, Kabupaten Landak, Kalimantan Barat 79355","Jl. Lintas Kalimantan Poros Tengah, Andeng, Kec. Sengah Temila, Kabupaten Landak",KALIMANTAN BARAT,79355.0,Indonesia,,,,0.375489,109.5562953,https://maps.google.com/?cid=0x0:0xd320b7daebd8ecf7,
komplek housing,komplek housing,dsn sanyang,"CPPV+5W9, Banying, Kec. Sengah Temila, Kabupaten Landak, Kalimantan Barat 79356","Banying, Kec. Sengah Temila, Kabupaten Landak",KALIMANTAN BARAT,79356.0,Indonesia,,,,0.4354102,109.7448543,https://maps.google.com/?cid=0x0:0x3a6a1698f367cf0,
komplek housing,Komplek perumahan,Rumah Pak Tami,"8M4F+64V, Saham, Kec. Sengah Temila, Kabupaten Landak, Kalimantan Barat 79358","Saham, Kec. Sengah Temila, Kabupaten Landak",KALIMANTAN BARAT,79358.0,Indonesia,,,,0.3069435,109.6732742,https://maps.google.com/?cid=0x0:0xb578590caad0cbd6,
komplek housing,Perhimpunan Pengembang Perumahan,Kampung Tamang,"CMJR+JP9, Banying, Kec. Sengah Temila, Kabupaten Landak, Kalimantan Barat 79356","Banying, Kec. Sengah Temila, Kabupaten Landak",KALIMANTAN BARAT,79356.0,Indonesia,,,,0.4315281,109.6918599,https://maps.google.com/?cid=0x0:0xd8aecf65b3a594aa,
komplek housing,Komplek perumahan,DEPRI'S HOME,"8M79+WW3 Kase, RT.009/RW.000, Saham, Kec. Sengah Temila, Kabupaten Landak, Kalimantan Barat 79358","RT.009/RW.000, Saham, Kec. Sengah Temila, Kabupaten Landak",KALIMANTAN BARAT,79358.0,Indonesia,,,,0.3147511,109.6697946,https://maps.google.com/?cid=0x0:0xb3dfbd43bbdd0b61,
komplek housing,Gedung Apartemen,Bram Tatto,"FM47+MX, Rabak, Kec. Sengah Temila, Kabupaten Landak, Kalimantan Barat","Kabupaten Landak, Kalimantan Barat",KALIMANTAN BARAT,,Indonesia,,,,0.4567144,109.6649196,https://maps.google.com/?cid=0x0:0x382afee5b2f5ef5a,
komplek housing,Komplek perumahan,Rumah Ismail  Dewi Sahara,"CQF5+FMV, Sungai segak, Kec. Sengah Temila, Kabupaten Landak, Kalimantan Barat","Kabupaten Landak, Kalimantan Barat",KALIMANTAN BARAT,,Indonesia,,,,0.4237287,109.7591675,https://maps.google.com/?cid=0x0:0x1830515c062c10fc,
komplek housing,komplek housing,Aki /pak sesel,"FM47+MX, Rabak, Kec. Sengah Temila, Kabupaten Landak, Kalimantan Barat","Kabupaten Landak, Kalimantan Barat",KALIMANTAN BARAT,,Indonesia,,,,0.4567227,109.6649368,https://maps.google.com/?cid=0x0:0x1c5a6cd2b307ee77,
komplek housing,Komplek perumahan,Baet Kawan,"8MQV+RFW, Pahauman, Kec. Sengah Temila, Kabupaten Landak, Kalimantan Barat 79356","Pahauman, Kec. Sengah Temila, Kabupaten Landak",KALIMANTAN BARAT,79356.0,Indonesia,,,,0.3396153,109.6936906,https://maps.google.com/?cid=0x0:0x15e2533cce2efd3c,
komplek housing,Komplek perumahan,Kampung Baet,"8M9V+J6H, Pahauman, Kec. Sengah Temila, Kabupaten Landak, Kalimantan Barat 79358","Pahauman, Kec. Sengah Temila, Kabupaten Landak",KALIMANTAN BARAT,79358.0,Indonesia,,,,0.3190602,109.6931142,https://maps.google.com/?cid=0x0:0xfb6d3c627bfbc1ad,
komplek housing,Perhimpunan Pengembang Perumahan,Tunas Padagi,"Dusun Tunas padagi, Sebatih, Kec. Sengah Temila, Kabupaten Landak, Kalimantan Barat","Kabupaten Landak, Kalimantan Barat",KALIMANTAN BARAT,,Indonesia,,,,0.3050539,109.7307446,https://maps.google.com/?cid=0x0:0x89208a64b26f2040,
komplek housing,Komplek perumahan,RM Ridwan landak,"CPMV+FW, Banying, Kec. Sengah Temila, Kabupaten Landak, Kalimantan Barat","Kabupaten Landak, Kalimantan Barat",KALIMANTAN BARAT,,Indonesia,,,,0.4336248,109.7446556,https://maps.google.com/?cid=0x0:0x9bd52432547e4776,
komplek housing,Komplek perumahan,Rm Deno,"CPRJ+FC8, Sanyang, Kec. Sengah Temila, Kabupaten Landak, Kalimantan Barat","Kabupaten Landak, Kalimantan Barat",KALIMANTAN BARAT,,Indonesia,,,,0.4411696,109.7310731,https://maps.google.com/?cid=0x0:0x62b09d8a519449ad,
komplek housing,Pembangunan Perumahan,Teluk tapah,"7QP5+GV, Sebatih, Kec. Sengah Temila, Kabupaten Landak, Kalimantan Barat","Kabupaten Landak, Kalimantan Barat",KALIMANTAN BARAT,,Indonesia,,,,0.2862539,109.7596692,https://maps.google.com/?cid=0x0:0x3ed1cb755787ee16,
komplek housing,Komplek perumahan,Dusun Sanyang,"CQH5+GP2, Keranji Mancal, Kec. Sengah Temila, Kabupaten Landak, Kalimantan Barat 79356","Keranji Mancal, Kec. Sengah Temila, Kabupaten Landak",KALIMANTAN BARAT,79356.0,Indonesia,,,,0.4287691,109.7592749,https://maps.google.com/?cid=0x0:0xef1f4991b423906d,
komplek housing,Komplek perumahan,rumah we mamar,"9H87+J42, jalan senakin gombang, dusun serimbang, Kec. Sengah Temila, Kabupaten Landak, Kalimantan Barat","Kabupaten Landak, Kalimantan Barat",KALIMANTAN BARAT,,Indonesia,,,,0.3665101,109.5627596,https://maps.google.com/?cid=0x0:0x463acd333473bebc,
komplek housing,komplek housing,Kec. Sengah Temila,"Kabupaten Landak, Kalimantan Barat","Kabupaten Landak, Kalimantan Barat",KALIMANTAN BARAT,,Indonesia,,,,0.3186515,109.6664889,https://maps.google.com/?cid=0x0:0x90935cc60d776955,
komplek housing,Komplek perumahan,Rumah Pak Gayo,"9HHC+JQ5, Senakin, Kec. Sengah Temila, Kabupaten Landak, Kalimantan Barat 79356","Senakin, Kec. Sengah Temila, Kabupaten Landak",KALIMANTAN BARAT,79356.0,Indonesia, 082150100356,,,0.3790034,109.5719883,https://maps.google.com/?cid=0x0:0xd49f5aa8f1391a50,
komplek housing,Komplek perumahan,DELFRIE,"CQR6+44R, Keranji Mancal, Kec. Sengah Temila, Kabupaten Landak, Kalimantan Barat 79356","Keranji Mancal, Kec. Sengah Temila, Kabupaten Landak",KALIMANTAN BARAT,79356.0,Indonesia,,,,0.4403668,109.7602549,https://maps.google.com/?cid=0x0:0xe5fcbf6cf4befa7,
komplek housing,Pembangunan Perumahan,Rumah deimanto,"FH9X+X76, Gombang, Kec. Sengah Temila, Kabupaten Landak, Kalimantan Barat 79356","Gombang, Kec. Sengah Temila, Kabupaten Landak",KALIMANTAN BARAT,79356.0,Indonesia,,,,0.4699067,109.5981352,https://maps.google.com/?cid=0x0:0x532432942ddd430e,
komplek housing,Komplek perumahan,Rumah Pak Agil,"9HHF+2GV, Senakin, Kec. Sengah Temila, Kabupaten Landak, Kalimantan Barat 79356","Senakin, Kec. Sengah Temila, Kabupaten Landak",KALIMANTAN BARAT,79356.0,Indonesia,,,,0.3776534,109.5738165,https://maps.google.com/?cid=0x0:0xfd4e0ef10655d29b,
komplek housing,Komplek perumahan,Agus homestay,"9HWQ+CJ, Gombang, Kec. Sengah Temila, Kabupaten Landak, Kalimantan Barat 79356","Gombang, Kec. Sengah Temila, Kabupaten Landak",KALIMANTAN BARAT,79356.0,Indonesia, 081521714168,,,0.3960837,109.5890743,https://maps.google.com/?cid=0x0:0x94046d62e6bde638,
komplek housing,Komplek perumahan,Japot,"FFPV+4Q, Sompak, Kec. Sompak, Kabupaten Landak, Kalimantan Barat","Kabupaten Landak, Kalimantan Barat",KALIMANTAN BARAT,,Indonesia,,,,0.4853125,109.4944375,https://maps.google.com/?cid=0x0:0xb9b8b20e2cba71a,
komplek housing,komplek housing,Kalimantan Barat 79363,"Kec. Mempawah Hulu, Kabupaten Landak, Kalimantan Barat","Kabupaten Landak, Kalimantan Barat",KALIMANTAN BARAT,,Indonesia,,,,0.6745598,109.4259114,https://maps.google.com/?cid=0x0:0xdcefe0766b98359b,
komplek housing,Pembangunan Perumahan,Simpang Ero,"GF3F+5WV, Sompak, Kec. Sompak, Kabupaten Landak, Kalimantan Barat","Kabupaten Landak, Kalimantan Barat",KALIMANTAN BARAT,,Indonesia,,,,0.5022042,109.4750581,https://maps.google.com/?cid=0x0:0x6b2f9aa773113d0,
komplek housing,Komplek perumahan,NARA HOUSE,"H93J+R7H, Jl. Karangan - Sompak, Paci, Kec. Mempawah Hulu, Kabupaten Landak, Kalimantan Barat","Kabupaten Landak, Kalimantan Barat",KALIMANTAN BARAT,,Indonesia,,,,0.5545679,109.3807384,https://maps.google.com/?cid=0x0:0x899822f6528e07d5,
komplek housing,Komplek perumahan,Alos house,"M993+2HW, Tunang, Kec. Mempawah Hulu, Kabupaten Landak, Kalimantan Barat 79363","Tunang, Kec. Mempawah Hulu, Kabupaten Landak",KALIMANTAN BARAT,79363.0,Indonesia, 082155801311,,,0.6676249,109.3539571,https://maps.google.com/?cid=0x0:0xee833e96327322a5,
komplek housing,Komplek perumahan,SANTOS HOUSE,"H93J+P87, Jl. Karangan - Sompak, Karangan, Kec. Mempawah Hulu, Kabupaten Landak, Kalimantan Barat 79362","Jl. Karangan - Sompak, Karangan, Kec. Mempawah Hulu, Kabupaten Landak",KALIMANTAN BARAT,79362.0,Indonesia,,,,0.5542938,109.3807943,https://maps.google.com/?cid=0x0:0x232d779fecf2e93c,
komplek housing,Komplek perumahan,Rumah Subianto,"FFRP+9RW, Mangaro, Kec. Sompak, Kabupaten Landak, Kalimantan Barat","Kabupaten Landak, Kalimantan Barat",KALIMANTAN BARAT,,Indonesia,,,,0.4909848,109.487083,https://maps.google.com/?cid=0x0:0x845d9ea1a41b0b9b,
komplek housing,Pembangunan Perumahan,As C INDONESIA,"GGC2+5R4, Galar, Kec. Sompak, Kabupaten Landak, Kalimantan Barat 79363","Galar, Kec. Sompak, Kabupaten Landak",KALIMANTAN BARAT,79363.0,Indonesia,,,,0.5194576,109.5020591,https://maps.google.com/?cid=0x0:0xd790d80918aaf50c,
komplek housing,Komplek perumahan,Tk Perianto,"GF9H+HC7, Sompak, Kec. Sompak, Kabupaten Landak, Kalimantan Barat 79363","Sompak, Kec. Sompak, Kabupaten Landak",KALIMANTAN BARAT,79363.0,Indonesia,,,,0.5189098,109.4785368,https://maps.google.com/?cid=0x0:0x9573abe51d6c1641,
komplek housing,Kantor Perusahaan,Sadok,"Jalan Sompak No.5, Karangan, Kec. Mempawah Hulu, Kabupaten Landak, Kalimantan Barat","Kabupaten Landak, Kalimantan Barat",KALIMANTAN BARAT,,Indonesia,,,,0.5513966,109.3752004,https://maps.google.com/?cid=0x0:0x29dc55fec3483b8c,
komplek housing,Komplek perumahan,Rumah idon proyek,"M9CR+9JC, Jl. Anjungan - Bengkayang, Tunang, Kec. Mempawah Hulu, Kabupaten Landak, Kalimantan Barat 79363","Jl. Anjungan - Bengkayang, Tunang, Kec. Mempawah Hulu, Kabupaten Landak",KALIMANTAN BARAT,79363.0,Indonesia,,,,0.6705611,109.3909402,https://maps.google.com/?cid=0x0:0x5ce92d1db5ea3ad6,
komplek housing,Komplek perumahan,Semade Alam. (Rumah Pak Oktavianus Alot,"PFGM+5WH, Semade, Kec. Banyuke Hulu, Kabupaten Landak, Kalimantan Barat 79364","Semade, Kec. Banyuke Hulu, Kabupaten Landak",KALIMANTAN BARAT,79364.0,Indonesia,,,,0.7255808,109.4854574,https://maps.google.com/?cid=0x0:0x4755cab7678390de,
komplek housing,Komplek perumahan,Rumah Nining,"GGC2+5R4, Galar, Kec. Sompak, Kabupaten Landak, Kalimantan Barat 79363","Galar, Kec. Sompak, Kabupaten Landak",KALIMANTAN BARAT,79363.0,Indonesia,,,,0.519701,109.501756,https://maps.google.com/?cid=0x0:0x1fc31c097cc84180,
komplek housing,Perumahan,Rumah Bang Eso,"MGC9+69, Kampet, Kec. Banyuke Hulu, Kabupaten Landak, Kalimantan Barat","Kabupaten Landak, Kalimantan Barat",KALIMANTAN BARAT,,Indonesia,,,,0.6712051,109.518325,https://maps.google.com/?cid=0x0:0x442853c795d7617f,
komplek housing,Komplek perumahan,Sempang nahi,"M98H+W3, Tunang, Kec. Mempawah Hulu, Kabupaten Landak, Kalimantan Barat","Kabupaten Landak, Kalimantan Barat",KALIMANTAN BARAT,,Indonesia,,,,0.6673331,109.3776825,https://maps.google.com/?cid=0x0:0xc49a3699a85ff561,
komplek housing,Pembangunan Perumahan,"Temajit, tiang tanjung, kabupaten landak","PCGQ+PJQ, Temajit, Tiang Tj., Kabupaten Landak","Kabupaten Landak, Kalimantan Barat",KALIMANTAN BARAT,,Indonesia,,,,0.726838,109.4391131,https://maps.google.com/?cid=0x0:0xb3b0e4c8418ac47c,
komplek housing,Toko umum,Jantaatn Desa Tapakng,"GF7W+9WM, Sompak, Kec. Sompak, Kabupaten Landak, Kalimantan Barat 79355","Sompak, Kec. Sompak, Kabupaten Landak",KALIMANTAN BARAT,79355.0,Indonesia,,,,0.5134588,109.4973059,https://maps.google.com/?cid=0x0:0xe640dfb0504003d7,
komplek housing,Pembangunan Perumahan,rumah yordanus,"GF8H+778, jalan raya, Sompak, Kec. Sompak, Kabupaten Landak, Kalimantan Barat","Kabupaten Landak, Kalimantan Barat",KALIMANTAN BARAT,,Indonesia,,,,0.5156611,109.4782092,https://maps.google.com/?cid=0x0:0x4abf108e07e8e03d,
komplek housing,Perhimpunan Pengembang Perumahan,Rumah jopan,"GG96+VHF, Galar, Kec. Sompak, Kabupaten Landak, Kalimantan Barat","Kabupaten Landak, Kalimantan Barat",KALIMANTAN BARAT,,Indonesia,,,,0.5196843,109.5114311,https://maps.google.com/?cid=0x0:0x9490710c36adb105,
komplek housing,Komplek perumahan,Kalumpe desa sabaka,"M9XC+MQF, Sabaka, Kec. Mempawah Hulu, Kabupaten Landak, Kalimantan Barat 79363","Sabaka, Kec. Mempawah Hulu, Kabupaten Landak",KALIMANTAN BARAT,79363.0,Indonesia,,,,0.6991968,109.3719138,https://maps.google.com/?cid=0x0:0x3e5742237734bc94,
komplek housing,Komplek perumahan,Rumah SF,"P8G7+PM, Ansolok, Kec. Mempawah Hulu, Kabupaten Landak, Kalimantan Barat 79363","Ansolok, Kec. Mempawah Hulu, Kabupaten Landak",KALIMANTAN BARAT,79363.0,Indonesia,,,,0.7268495,109.314187,https://maps.google.com/?cid=0x0:0x6d67835fd1b684f9,
komplek housing,Pembangunan Perumahan,RUMAH W.MONIK,"GG5M+8MC, Dusun Sadok, Desa Amawakng, Kec. Sompak, Kabupaten Landak, Kalimantan Barat","Kabupaten Landak, Kalimantan Barat",KALIMANTAN BARAT,,Indonesia,,,,0.508315,109.533684,https://maps.google.com/?cid=0x0:0x94e43efe0965957f,
perumahan,perumahan,Kalimantan Barat 79365,"Kec. Air Besar, Kabupaten Landak, Kalimantan Barat","Kabupaten Landak, Kalimantan Barat",KALIMANTAN BARAT,,Indonesia,,,,0.9225877,110.0449662,https://maps.google.com/?cid=0x0:0x8668b83c1ca1ca6f,
perumahan,Kompleks Apartemen,Kampung Meroba,"Jalan Raya Serimbu_ngabang Ds. Sepangan dusun Meroba, Kabupaten Landak, Kalimantan Barat 79365",Kabupaten Landak,KALIMANTAN BARAT,79365.0,Indonesia, 083151111176,,,0.7408134,110.126695,https://maps.google.com/?cid=0x0:0xa13745f24f6cac6c,
perumahan,Komplek perumahan,Rumah Kaisar,"RW38+QX3, Tenguwe, Kec. Air Besar, Kabupaten Landak, Kalimantan Barat 79365","Tenguwe, Kec. Air Besar, Kabupaten Landak",KALIMANTAN BARAT,79365.0,Indonesia, 082253370325,,,0.8041294,109.9184764,https://maps.google.com/?cid=0x0:0xdaeaf2fe0092b112,
perumahan,Kompleks Apartemen,Saham City,"Q474+G8, Serimbu, Kec. Air Besar, Kabupaten Landak, Kalimantan Barat 79367","Serimbu, Kec. Air Besar, Kabupaten Landak",KALIMANTAN BARAT,79367.0,Indonesia,,,,0.7638114,110.1058492,https://maps.google.com/?cid=0x0:0x9375c0eae64527ee,
perumahan,Perhimpunan Pengembang Perumahan,Rumah Kakek Randi,"P4X7+HH5, Sepangah, Kec. Air Besar, Kabupaten Landak, Kalimantan Barat 79367","Sepangah, Kec. Air Besar, Kabupaten Landak",KALIMANTAN BARAT,79367.0,Indonesia,,,,0.7488774,110.113993,https://maps.google.com/?cid=0x0:0x4c53e4f22ff4d3ca,
perumahan,Komplek perumahan,Rumah Rano,"W5CM+X4W, Dusun Anyang, Merayuh, Kec. Air Besar, Kabupaten Landak, Kalimantan Barat 79365","Dusun Anyang, Merayuh, Kec. Air Besar, Kabupaten Landak",KALIMANTAN BARAT,79365.0,Indonesia,,,,0.9224882,110.1833933,https://maps.google.com/?cid=0x0:0xf70ba985d921fe66,
perumahan,Komplek perumahan,Lahan kosong Dedi,"Q32X+JPV, Jl. Serimbu Ngabang, Serimbu, Kec. Air Besar, Kabupaten Landak, Kalimantan Barat 79367","Jl. Serimbu Ngabang, Serimbu, Kec. Air Besar, Kabupaten Landak",KALIMANTAN BARAT,79367.0,Indonesia,,,,0.7516005,110.0993116,https://maps.google.com/?cid=0x0:0xdcea0e68b9c9c8fb,
perumahan,Komplek perumahan,Rumah iyooo,"P4W8+2QW, Sepangah, Kec. Air Besar, Kabupaten Landak, Kalimantan Barat","Kabupaten Landak, Kalimantan Barat",KALIMANTAN BARAT,,Indonesia,,,,0.7451178,110.1169461,https://maps.google.com/?cid=0x0:0xe5641a67feb1333c,
perumahan,Komplek perumahan,Simpang Entikong,"Q4M6+GQ7, Jl. Entikong, Engkangin, Kec. Air Besar, Kabupaten Landak, Kalimantan Barat 79365","Jl. Entikong, Engkangin, Kec. Air Besar, Kabupaten Landak",KALIMANTAN BARAT,79365.0,Indonesia,,,,0.7837811,110.1119287,https://maps.google.com/?cid=0x0:0xa9fdb28dc463a93f,
perumahan,Tujuan Wisata,Padang Peluntan,"RRPP+4P4, Bentiang Madomang, Kec. Air Besar, Kabupaten Landak, Kalimantan Barat 79365","Bentiang Madomang, Kec. Air Besar, Kabupaten Landak",KALIMANTAN BARAT,79365.0,Indonesia,,,,0.8352657,109.8368247,https://maps.google.com/?cid=0x0:0xe603080b364a422,
perumahan,Pembangkit Listrik,TENGON UPAS,"X256+35, upas, Tengok Pelaik, Kabupaten Landak, Kalimantan Barat 79365","upas, Tengok Pelaik, Kabupaten Landak",KALIMANTAN BARAT,79365.0,Indonesia,,,,0.9585141,110.0110294,https://maps.google.com/?cid=0x0:0xabbaeff645b122b,
perumahan,Perhimpunan Pengembang Perumahan,DUSUN TANDI,"RW39+3QJ, Tenguwe - Parek, Tenguwe, Kec. Air Besar, Kabupaten Landak, Kalimantan Barat 79365","Tenguwe - Parek, Tenguwe, Kec. Air Besar, Kabupaten Landak",KALIMANTAN BARAT,79365.0,Indonesia,,,,0.8027057,109.9193789,https://maps.google.com/?cid=0x0:0x8ca409104242b191,
perumahan,Pembangunan Perumahan,Nyari,"W5WF+753, Nyari, Kec. Air Besar, Kabupaten Landak, Kalimantan Barat 79365","Nyari, Kec. Air Besar, Kabupaten Landak",KALIMANTAN BARAT,79365.0,Indonesia,,,,0.9456288,110.172933,https://maps.google.com/?cid=0x0:0x4d47394febe0d881,
perumahan,Komplek perumahan,Parek,"RVR8+GVV, Parek, Pare/Sutipadang, Kec. Air Besar, Kabupaten Landak, Kalimantan Barat 79365","Parek, Pare/Sutipadang, Kec. Air Besar, Kabupaten Landak",KALIMANTAN BARAT,79365.0,Indonesia,,,,0.8413595,109.8671633,https://maps.google.com/?cid=0x0:0x14d605d8aa60fb57,
perumahan,Komplek perumahan,Merayuh,"W55H+5PV, Merayuh, Kec. Air Besar, Kabupaten Landak, Kalimantan Barat 79365","Merayuh, Kec. Air Besar, Kabupaten Landak",KALIMANTAN BARAT,79365.0,Indonesia,,,,0.9080365,110.1793283,https://maps.google.com/?cid=0x0:0x5ed2f95ea72a0e82,
perumahan,Komplek perumahan,Kampung Merayuh,"W55J+G4M, Merayuh, Kec. Air Besar, Kabupaten Landak, Kalimantan Barat 79365","Merayuh, Kec. Air Besar, Kabupaten Landak",KALIMANTAN BARAT,79365.0,Indonesia,,,,0.9088492,110.1802975,https://maps.google.com/?cid=0x0:0x53205c78f951614f,
perumahan,Kompleks Apartemen,Perumahan mamaharis,"Q423+J6M, Jl. Serimbu Ngabang, Serimbu, Kec. Air Besar, Kabupaten Landak, Kalimantan Barat 79367","Jl. Serimbu Ngabang, Serimbu, Kec. Air Besar, Kabupaten Landak",KALIMANTAN BARAT,79367.0,Indonesia,,,,0.7515954,110.1030493,https://maps.google.com/?cid=0x0:0xa187377434753f10,
perumahan,Komplek perumahan,Rumah Pak Candra,"RRQR+JG, Pare/Sutipadang, Kec. Air Besar, Kabupaten Landak, Kalimantan Barat","Kabupaten Landak, Kalimantan Barat",KALIMANTAN BARAT,,Indonesia,,,,0.8388934,109.8413186,https://maps.google.com/?cid=0x0:0x337e7d09f8ec54fc,
perumahan,Komplek perumahan,Kediam M.R,"WW86+7FV, Bentiang Madomang, Kec. Air Besar, Kabupaten Landak, Kalimantan Barat 79365","Bentiang Madomang, Kec. Air Besar, Kabupaten Landak",KALIMANTAN BARAT,79365.0,Indonesia,,,,0.9156364,109.9105286,https://maps.google.com/?cid=0x0:0xebb172746b0e29db,
perumahan,Komplek perumahan,Rumah Andi,"P4WG+PVX, Sepangah, Kec. Air Besar, Kabupaten Landak, Kalimantan Barat","Kabupaten Landak, Kalimantan Barat",KALIMANTAN BARAT,,Indonesia,,,,0.7468597,110.127221,https://maps.google.com/?cid=0x0:0x5c0e6ab4e9eb0776,
perumahan,Pembangunan Perumahan,Tepo,"Q47G+F84, Dusun Tepo, Sepangah, Kec. Air Besar, Kabupaten Landak, Kalimantan Barat 79367","Dusun Tepo, Sepangah, Kec. Air Besar, Kabupaten Landak",KALIMANTAN BARAT,79367.0,Indonesia,,,,0.7636499,110.1258209,https://maps.google.com/?cid=0x0:0xb95f939279b7f095,
perumahan,Kompleks Apartemen,Rumah sardi,"Q474+G8, Serimbu, Kec. Air Besar, Kabupaten Landak, Kalimantan Barat","Kabupaten Landak, Kalimantan Barat",KALIMANTAN BARAT,,Indonesia,,,,0.7638125,110.1058125,https://maps.google.com/?cid=0x0:0x57e7ec3362a3a8b,
perumahan,Komplek perumahan,Rumah ueng/Ayah jatim,"RVR8+GVV, Parek, Pare/Sutipadang, Kec. Air Besar, Kabupaten Landak, Kalimantan Barat 79365","Parek, Pare/Sutipadang, Kec. Air Besar, Kabupaten Landak",KALIMANTAN BARAT,79365.0,Indonesia,,,,0.8405336,109.8679493,https://maps.google.com/?cid=0x0:0xe2532d7d7d4e5cb4,
perumahan,Komplek perumahan,DUSUN JANGKAK,"VVFF+3MC, Jangkak, Bentiang Madomang, Kec. Air Besar, Kabupaten Landak, Kalimantan Barat 79365","Jangkak, Bentiang Madomang, Kec. Air Besar, Kabupaten Landak",KALIMANTAN BARAT,79365.0,Indonesia,,,,0.8726829,109.8741506,https://maps.google.com/?cid=0x0:0x724254714748f214,
perumahan,Pembangunan Perumahan,Rumah kakek yiyin dan dikta,"X2GJ+H39, Tengok Pelaik, Kec. Air Besar, Kabupaten Landak, Kalimantan Barat 79365","Tengok Pelaik, Kec. Air Besar, Kabupaten Landak",KALIMANTAN BARAT,79365.0,Indonesia,,,,0.9756195,110.0302105,https://maps.google.com/?cid=0x0:0xf358648baa7b88,
perumahan,Komplek perumahan,Antuai,"X52J+VH6, Entikong - Air Besar, Nyari, Kec. Air Besar, Kabupaten Landak, Kalimantan Barat 79365","Entikong - Air Besar, Nyari, Kec. Air Besar, Kabupaten Landak",KALIMANTAN BARAT,79365.0,Indonesia,,,,0.9521722,110.1813789,https://maps.google.com/?cid=0x0:0x508486488001bb0a,
perumahan,Komplek perumahan,Rumah Della,"RVR9+J5M, Parek, Pare/Sutipadang, Kec. Air Besar, Kabupaten Landak, Kalimantan Barat 79365","Parek, Pare/Sutipadang, Kec. Air Besar, Kabupaten Landak",KALIMANTAN BARAT,79365.0,Indonesia,,,,0.8415799,109.8679302,https://maps.google.com/?cid=0x0:0xbf65404c6c4bc927,
perumahan,Komplek perumahan,Rumah pet,"RVR8+GVV, Parek, Pare/Sutipadang, Kec. Air Besar, Kabupaten Landak, Kalimantan Barat 79365","Parek, Pare/Sutipadang, Kec. Air Besar, Kabupaten Landak",KALIMANTAN BARAT,79365.0,Indonesia,,,,0.840195,109.868935,https://maps.google.com/?cid=0x0:0xd185c7acaba33ef2,
perumahan,Komplek perumahan,"Rumah,Lek/pk Habel","dsn, Rumah Lek/pk Habel, Parek No.ds, Kec. Air Besar, Kabupaten Landak, Kalimantan Barat 79365","Rumah Lek/pk Habel, Parek No.ds, Kec. Air Besar, Kabupaten Landak",KALIMANTAN BARAT,79365.0,Indonesia,,,,0.8423938,109.8681897,https://maps.google.com/?cid=0x0:0x39db2d3650840945,
perumahan,perumahan,Kalimantan Barat 79364,"Kabupaten Landak, Kalimantan Barat","Kabupaten Landak, Kalimantan Barat",KALIMANTAN BARAT,,Indonesia,,,,0.6737656,109.6163185,https://maps.google.com/?cid=0x0:0x8890c5a7792b01c3,
perumahan,Komplek perumahan,Dusun Bentinga,"MGJ8+FQ6, Jl. Bengkayang - Ngabang, Untang, Kec. Banyuke Hulu, Kabupaten Landak, Kalimantan Barat 79364","Jl. Bengkayang - Ngabang, Untang, Kec. Banyuke Hulu, Kabupaten Landak",KALIMANTAN BARAT,79364.0,Indonesia,,,,0.6811674,109.5169043,https://maps.google.com/?cid=0x0:0x9b72776b1e70c82,
perumahan,Pembangunan Perumahan,Kampung Global,"JH2H+R5, Ringo Lojok, Kec. Banyuke Hulu, Kabupaten Landak, Kalimantan Barat 79364","Ringo Lojok, Kec. Banyuke Hulu, Kabupaten Landak",KALIMANTAN BARAT,79364.0,Indonesia,,,,0.6020436,109.5779123,https://maps.google.com/?cid=0x0:0x86153ae4ad387fae,
perumahan,Pembangunan Perumahan,Jesica home,"PG25+5P, Untang, Kec. Banyuke Hulu, Kabupaten Landak, Kalimantan Barat 79364","Untang, Kec. Banyuke Hulu, Kabupaten Landak",KALIMANTAN BARAT,79364.0,Indonesia,,,,0.7003757,109.5093232,https://maps.google.com/?cid=0x0:0x91ea26d53aecff4,
perumahan,Komplek perumahan,Rumah Jampen,"JGWQ+JVG, Dusun Medang, Kampet, Kec. Banyuke Hulu, Kabupaten Landak, Kalimantan Barat","Kabupaten Landak, Kalimantan Barat",KALIMANTAN BARAT,,Indonesia,,,,0.6465525,109.5396875,https://maps.google.com/?cid=0x0:0xdd820c5ba374c4b2,
perumahan,Area Mendaki,Dusun Sinto,"PH33+R5G, Padang Pio, Kec. Banyuke Hulu, Kabupaten Landak, Kalimantan Barat 79364","Padang Pio, Kec. Banyuke Hulu, Kabupaten Landak",KALIMANTAN BARAT,79364.0,Indonesia,,,,0.7045539,109.5529531,https://maps.google.com/?cid=0x0:0x9cac79ea9fb34846,
perumahan,Kantor Pemerintah,Desa tembawang bale,"JJW3+QQV, Tembawang Bale, Kec. Banyuke Hulu, Kabupaten Landak, Kalimantan Barat 79364","Tembawang Bale, Kec. Banyuke Hulu, Kabupaten Landak",KALIMANTAN BARAT,79364.0,Indonesia,,,,0.646985,109.6044161,https://maps.google.com/?cid=0x0:0x6817bb0a94bb7196,
perumahan,Pembangunan Perumahan,Dusun baban,"MG95+5GM, Kampet, Kec. Banyuke Hulu, Kabupaten Landak, Kalimantan Barat","Kabupaten Landak, Kalimantan Barat",KALIMANTAN BARAT,,Indonesia,,,,0.667971,109.5088097,https://maps.google.com/?cid=0x0:0x44814009740906e5,
perumahan,Pembangunan Perumahan,Berinang lesung,"JH57+W5G, Ringo Lojok, Kec. Banyuke Hulu, Kabupaten Landak, Kalimantan Barat 79364","Ringo Lojok, Kec. Banyuke Hulu, Kabupaten Landak",KALIMANTAN BARAT,79364.0,Indonesia,,,,0.6098096,109.5629678,https://maps.google.com/?cid=0x0:0x40574b87a2e9c046,
perumahan,Perumahan,Rumah Bang Eso,"MGC9+69, Kampet, Kec. Banyuke Hulu, Kabupaten Landak, Kalimantan Barat","Kabupaten Landak, Kalimantan Barat",KALIMANTAN BARAT,,Indonesia,,,,0.6712051,109.518325,https://maps.google.com/?cid=0x0:0x442853c795d7617f,
perumahan,Komplek perumahan,Semade Alam. (Rumah Pak Oktavianus Alot,"PFGM+5WH, Semade, Kec. Banyuke Hulu, Kabupaten Landak, Kalimantan Barat 79364","Semade, Kec. Banyuke Hulu, Kabupaten Landak",KALIMANTAN BARAT,79364.0,Indonesia,,,,0.7255808,109.4854574,https://maps.google.com/?cid=0x0:0x4755cab7678390de,
perumahan,Komplek perumahan,"Rumah Enek,Evi (Pak,Lili)","HGVF+HF, Gamang, Kec. Banyuke Hulu, Kabupaten Landak, Kalimantan Barat 79364","Gamang, Kec. Banyuke Hulu, Kabupaten Landak",KALIMANTAN BARAT,79364.0,Indonesia,,,,0.5948845,109.5231972,https://maps.google.com/?cid=0x0:0x13f23fc9b00f031b,
perumahan,Komplek perumahan,Rumah Batas,"PGC7+P99, Semade, Kec. Banyuke Hulu, Kabupaten Landak, Kalimantan Barat 79364","Semade, Kec. Banyuke Hulu, Kabupaten Landak",KALIMANTAN BARAT,79364.0,Indonesia,,,,0.7217902,109.5134786,https://maps.google.com/?cid=0x0:0xd7cb335d3166fef0,
perumahan,Taman,Dusun Perigi,"PFCV+G8P, Semade, Kec. Banyuke Hulu, Kabupaten Landak, Kalimantan Barat 79364","Semade, Kec. Banyuke Hulu, Kabupaten Landak",KALIMANTAN BARAT,79364.0,Indonesia,,,,0.7213324,109.4933239,https://maps.google.com/?cid=0x0:0x15a1e8d3f0064f70,
perumahan,Komplek perumahan,Darrel,"HHQH+8MF, Ringo Lojok, Kec. Banyuke Hulu, Kabupaten Landak, Kalimantan Barat","Kabupaten Landak, Kalimantan Barat",KALIMANTAN BARAT,,Indonesia,,,,0.5883084,109.579183,https://maps.google.com/?cid=0x0:0x5142a8efcac34487,
perumahan,Perhimpunan Pengembang Perumahan,Kampung Pancik,"JJW3+QQV, Dusun Pancik, Tembawang Bale, Kec. Banyuke Hulu, HuluKabupaten Landak, Kalimantan Barat 79364","Dusun Pancik, Tembawang Bale, Kec. Banyuke Hulu, HuluKabupaten Landak",KALIMANTAN BARAT,79364.0,Indonesia,,,,0.646985,109.6044161,https://maps.google.com/?cid=0x0:0x74a202e008a6d3dc,
perumahan,Komplek perumahan,Rumah Eswita,"PG56+G9J, Untang, Kec. Banyuke Hulu, Kabupaten Landak, Kalimantan Barat 79364","Untang, Kec. Banyuke Hulu, Kabupaten Landak",KALIMANTAN BARAT,79364.0,Indonesia,,,,0.7088281,109.5108792,https://maps.google.com/?cid=0x0:0x5294451d488bfbaf,
perumahan,Komplek perumahan,Arsya Home,"JHQ7+4M4, Jl. Bengkayang - Ngabang, Tembawang Bale, Kec. Banyuke Hulu, Kabupaten Landak, Kalimantan Barat 79364","Jl. Bengkayang - Ngabang, Tembawang Bale, Kec. Banyuke Hulu, Kabupaten Landak",KALIMANTAN BARAT,79364.0,Indonesia,,,,0.6378359,109.564105,https://maps.google.com/?cid=0x0:0x6afea54350f3a553,
perumahan,Komplek perumahan,Pengao',"JHMF+4RJ, Jl. Bengkayang - Ngabang, Tembawang Bale, Kec. Banyuke Hulu, Kabupaten Landak, Kalimantan Barat 79364","Jl. Bengkayang - Ngabang, Tembawang Bale, Kec. Banyuke Hulu, Kabupaten Landak",KALIMANTAN BARAT,79364.0,Indonesia,,,,0.6328336,109.5745274,https://maps.google.com/?cid=0x0:0x59ecd1623c97a25e,
perumahan,Komplek perumahan,Pondok Babuah74,"JHPM+M2W, Tembawang Bale, Kec. Banyuke Hulu, Kabupaten Landak, Kalimantan Barat 79364","Tembawang Bale, Kec. Banyuke Hulu, Kabupaten Landak",KALIMANTAN BARAT,79364.0,Indonesia,,,,0.6367292,109.5825814,https://maps.google.com/?cid=0x0:0xe01bd7c3d5e8ba0f,
perumahan,Komplek perumahan,"Semade Alam, Jalan raya semade","PFGM+5WH, Semade, Kec. Banyuke Hulu, Kabupaten Landak, Kalimantan Barat 79364","Semade, Kec. Banyuke Hulu, Kabupaten Landak",KALIMANTAN BARAT,79364.0,Indonesia,,,,0.7255915,109.4855594,https://maps.google.com/?cid=0x0:0xe44508b3ec230f33,
perumahan,Perumahan,Rental traktor Artijo kuyok,"JJMG+33F, Tembawang Bale, Kec. Banyuke Hulu, Kabupaten Landak, Kalimantan Barat 79364","Tembawang Bale, Kec. Banyuke Hulu, Kabupaten Landak",KALIMANTAN BARAT,79364.0,Indonesia, 082148536421,,,0.6318886,109.6248835,https://maps.google.com/?cid=0x0:0xcd67f86f88816aad,
perumahan,Pembangunan Perumahan,Bujal,"MJJR+PJ, Sidan, Kec. Menyuke, Kabupaten Landak, Kalimantan Barat","Kabupaten Landak, Kalimantan Barat",KALIMANTAN BARAT,,Indonesia,,,,0.6818186,109.6415074,https://maps.google.com/?cid=0x0:0x9fa3f8dab6beaeee,
perumahan,Perhimpunan Pengembang Perumahan,Dusun TELAET,"JM73+Q52, Kayu Ara, Kec. Menyuke, Kabupaten Landak, Kalimantan Barat 79364","Kayu Ara, Kec. Menyuke, Kabupaten Landak",KALIMANTAN BARAT,79364.0,Indonesia,,,,0.6143934,109.652897,https://maps.google.com/?cid=0x0:0x7eeba64bd640d7d7,
perumahan,perumahan,Kec. Jelimpo,"Kabupaten Landak, Kalimantan Barat","Kabupaten Landak, Kalimantan Barat",KALIMANTAN BARAT,,Indonesia,,,,0.3150332,110.0885231,https://maps.google.com/?cid=0x0:0x30fd1a6bdb685b75,
perumahan,Komplek perumahan,JELIMPO,"837Q+XCP, Jl. Lintas Kalimantan Poros Tengah, Jelimpo, Kec. Jelimpo, Kabupaten Landak, Kalimantan Barat 79357","Jl. Lintas Kalimantan Poros Tengah, Jelimpo, Kec. Jelimpo, Kabupaten Landak",KALIMANTAN BARAT,79357.0,Indonesia,,,,0.3149667,110.0885683,https://maps.google.com/?cid=0x0:0xf6fc61140c78d70c,
perumahan,Komplek perumahan,Tamang,"8483+FW2, Jl. Lintas Kalimantan Poros Tengah, Jelimpo, Kec. Jelimpo, Kabupaten Landak, Kalimantan Barat 79357","Jl. Lintas Kalimantan Poros Tengah, Jelimpo, Kec. Jelimpo, Kabupaten Landak",KALIMANTAN BARAT,79357.0,Indonesia,,,,0.3161361,110.1047599,https://maps.google.com/?cid=0x0:0x71116262e9f24da2,
perumahan,Komplek perumahan,Emma,"838R+4PC, Jelimpo, Kec. Jelimpo, Kabupaten Landak, Kalimantan Barat 79357","Jelimpo, Kec. Jelimpo, Kabupaten Landak",KALIMANTAN BARAT,79357.0,Indonesia,,,,0.315781,110.090943,https://maps.google.com/?cid=0x0:0x45eef640916dda33,
perumahan,Komplek perumahan,Eci,"8483+FWC, Jl. Lintas Kalimantan Poros Tengah, Jelimpo, Kec. Jelimpo, Kabupaten Landak, Kalimantan Barat 79357","Jl. Lintas Kalimantan Poros Tengah, Jelimpo, Kec. Jelimpo, Kabupaten Landak",KALIMANTAN BARAT,79357.0,Indonesia,,,,0.3166312,110.1043833,https://maps.google.com/?cid=0x0:0xbeecedc334e2e4bf,
perumahan,Komplek perumahan,"Simpang Tabik, Dusun Tabik Desa Jelimpo Kecamatan Jelimpo","83CC+QHX, Jl. Lintas Kalimantan Poros Tengah, Jelimpo, Kec. Jelimpo, Kabupaten Landak, Kalimantan Barat 79357","Jl. Lintas Kalimantan Poros Tengah, Jelimpo, Kec. Jelimpo, Kabupaten Landak",KALIMANTAN BARAT,79357.0,Indonesia,,,,0.3219947,110.0714812,https://maps.google.com/?cid=0x0:0x7e132c65912c65be,
perumahan,Komplek perumahan,Rumah BOSCO wahyudi,"725G+CPM, Pawis Hilir, Kec. Jelimpo, Kabupaten Landak, Kalimantan Barat 79357","Pawis Hilir, Kec. Jelimpo, Kabupaten Landak",KALIMANTAN BARAT,79357.0,Indonesia, 082158818939,,,0.2585936,110.0268015,https://maps.google.com/?cid=0x0:0x4620f28e0326ac7,
perumahan,Komplek perumahan,Dusun Tabik,"83H9+MRH, Jelimpo, Kec. Jelimpo, Kabupaten Landak, Kalimantan Barat 79357","Jelimpo, Kec. Jelimpo, Kabupaten Landak",KALIMANTAN BARAT,79357.0,Indonesia,,,,0.3291831,110.0695968,https://maps.google.com/?cid=0x0:0xe00aaee9d7eecc5d,
perumahan,Komplek perumahan,Rumah yoris,"8483+FWC, Jl. Lintas Kalimantan Poros Tengah, Jelimpo, Kec. Jelimpo, Kabupaten Landak, Kalimantan Barat 79357","Jl. Lintas Kalimantan Poros Tengah, Jelimpo, Kec. Jelimpo, Kabupaten Landak",KALIMANTAN BARAT,79357.0,Indonesia,,,,0.317753,110.1050048,https://maps.google.com/?cid=0x0:0x327503523ad31948,
perumahan,Komplek perumahan,Kantor kepala desa papung,"93XW+R74, Papung, Kec. Jelimpo, Kabupaten Landak, Kalimantan Barat 79357","Papung, Kec. Jelimpo, Kabupaten Landak",KALIMANTAN BARAT,79357.0,Indonesia,,,,0.3995131,110.0957057,https://maps.google.com/?cid=0x0:0x4180f933f7050582,
perumahan,Komplek perumahan,Rumah LANTOR,"62Q7+Q4, Pawis Hilir, Kec. Jelimpo, Kabupaten Landak, Kalimantan Barat","Kabupaten Landak, Kalimantan Barat",KALIMANTAN BARAT,,Indonesia,,,,0.2394297,110.0128087,https://maps.google.com/?cid=0x0:0x7517fbc8ea010c0b,
perumahan,Komplek perumahan,Rumah Liya,"838R+4PC, Jelimpo, Kec. Jelimpo, Kabupaten Landak, Kalimantan Barat 79357","Jelimpo, Kec. Jelimpo, Kabupaten Landak",KALIMANTAN BARAT,79357.0,Indonesia,,,,0.3157311,110.0913125,https://maps.google.com/?cid=0x0:0xad89dd2e510c64aa,
perumahan,Komplek perumahan,Rumah pak Silvester,"837Q+XCP, Jelimpo, Kec. Jelimpo, Kabupaten Landak, Kalimantan Barat 79357","Jelimpo, Kec. Jelimpo, Kabupaten Landak",KALIMANTAN BARAT,79357.0,Indonesia,,,,0.314965,110.0885664,https://maps.google.com/?cid=0x0:0x4ecade8de38560a2,
perumahan,Komplek perumahan,Rumah Welly/Deden,"73VV+34, Kayu Ara, Kec. Jelimpo, Kabupaten Landak, Kalimantan Barat","Kabupaten Landak, Kalimantan Barat",KALIMANTAN BARAT,,Indonesia,,,,0.2926535,110.0928311,https://maps.google.com/?cid=0x0:0x22d43ee7ac8b05d7,
perumahan,Kantor Perusahaan,Kampung Tubang Raeng,"82QR+X88, Unnamed Road, Tubang Raeng, Kec. Jelimpo, Kabupaten Landak, Kalimantan Barat 79357","Unnamed Road, Tubang Raeng, Kec. Jelimpo, Kabupaten Landak",KALIMANTAN BARAT,79357.0,Indonesia,,,,0.3399109,110.0408363,https://maps.google.com/?cid=0x0:0x9dd4a543e93c5bdd,
perumahan,Komplek perumahan,Rumah AYU,"9424+QX7, Mandor Kiru, Kec. Jelimpo, Kabupaten Landak, Kalimantan Barat 78562","Mandor Kiru, Kec. Jelimpo, Kabupaten Landak",KALIMANTAN BARAT,78562.0,Indonesia,,,,0.3526717,110.1077193,https://maps.google.com/?cid=0x0:0x3319adfb67c02a7e,
perumahan,Komplek perumahan,Rumah Lintar,"52X3+487, Dara Itam I, Kec. Jelimpo, Kabupaten Landak, Kalimantan Barat 79357","Dara Itam I, Kec. Jelimpo, Kabupaten Landak",KALIMANTAN BARAT,79357.0,Indonesia,,,,0.1977783,110.0033063,https://maps.google.com/?cid=0x0:0x2f9ed3799c23936b,
perumahan,Komplek perumahan,Taba,"95R5+FJ7, Dusun Taba, Papung, Kec. Jelimpo, Kabupaten Landak, Kalimantan Barat 79357","Dusun Taba, Papung, Kec. Jelimpo, Kabupaten Landak",KALIMANTAN BARAT,79357.0,Indonesia,,,,0.3911502,110.1590488,https://maps.google.com/?cid=0x0:0x60c18dd41b42cebd,
perumahan,Komplek perumahan,Nario_Ben,"724G+HM, Pawis Hilir, Kec. Jelimpo, Kabupaten Landak, Kalimantan Barat","Kabupaten Landak, Kalimantan Barat",KALIMANTAN BARAT,,Indonesia,,,,0.2568692,110.0262231,https://maps.google.com/?cid=0x0:0x65db89ebded73e17,
perumahan,Perhimpunan Pengembang Perumahan,Kantor Desa Papung,"C32X+7CG, Papung, Kec. Jelimpo, Kabupaten Landak, Kalimantan Barat 79357","Papung, Kec. Jelimpo, Kabupaten Landak",KALIMANTAN BARAT,79357.0,Indonesia,,,,0.400677,110.098567,https://maps.google.com/?cid=0x0:0xf64dbf1e410748c8,
perumahan,Pembangunan Perumahan,Dusun sengkorom,"C4JH+J8Q, Sekais, Kec. Jelimpo, Kabupaten Landak, Kalimantan Barat 79357","Sekais, Kec. Jelimpo, Kabupaten Landak",KALIMANTAN BARAT,79357.0,Indonesia,,,,0.4315983,110.128347,https://maps.google.com/?cid=0x0:0xa8150126fc3c46cd,
perumahan,Pembangunan Perumahan,Kuala behe,"H2M2+MJV, Kuala Behe, Kec. Kuala Behe, Kabupaten Landak, Kalimantan Barat 79357","Kuala Behe, Kec. Kuala Behe, Kabupaten Landak",KALIMANTAN BARAT,79357.0,Indonesia,,,,0.5842335,110.0015422,https://maps.google.com/?cid=0x0:0x1bdb9fa97c911b87,
perumahan,perumahan,Kalimantan Barat 79367,"Kabupaten Landak, Kalimantan Barat","Kabupaten Landak, Kalimantan Barat",KALIMANTAN BARAT,,Indonesia,,,,0.7436183,109.9973244,https://maps.google.com/?cid=0x0:0xb49541f7c227bcc0,
perumahan,Komplek perumahan,Dusun Opo,"MX36+3Q, Permiit, Kec. Kuala Behe, Kabupaten Landak, Kalimantan Barat","Kabupaten Landak, Kalimantan Barat",KALIMANTAN BARAT,,Indonesia,,,,0.6526713,109.9619598,https://maps.google.com/?cid=0x0:0x452762f656bfb811,
perumahan,Komplek perumahan,Kampung Sepangok,"J27P+CW, Semedang, Kec. Kuala Behe, Kabupaten Landak, Kalimantan Barat","Kabupaten Landak, Kalimantan Barat",KALIMANTAN BARAT,,Indonesia,,,,0.6136457,110.0373325,https://maps.google.com/?cid=0x0:0x2bad7616363765a9,
perumahan,Perhimpunan Pengembang Perumahan,DUSUN NYAWAN,"H2M2+MJV, Kuala Behe, Kec. Kuala Behe, Kabupaten Landak, Kalimantan Barat 79357","Kuala Behe, Kec. Kuala Behe, Kabupaten Landak",KALIMANTAN BARAT,79357.0,Indonesia,,,,0.5842335,110.0015421,https://maps.google.com/?cid=0x0:0x61c7d64a6178ff8d,
perumahan,Komplek perumahan,"Perija, Kabupaten Landak, Kalimatan Barat","M4X9+CXQ, Sepangah, Perija, Kabupaten Landak, Kalimantan Barat 79367","Sepangah, Perija, Kabupaten Landak",KALIMANTAN BARAT,79367.0,Indonesia,,,,0.6985998,110.1199745,https://maps.google.com/?cid=0x0:0xeb391f7d3b52ca35,
perumahan,Pembangunan Perumahan,Jawat,"H29M+6P, Kuala Behe, Kec. Kuala Behe, Kabupaten Landak, Kalimantan Barat","Kabupaten Landak, Kalimantan Barat",KALIMANTAN BARAT,,Indonesia,,,,0.5680581,110.0343997,https://maps.google.com/?cid=0x0:0x3d7567e0cb667ec5,
perumahan,Komplek perumahan,Rumah Kaisar,"RW38+QX3, Tenguwe, Kec. Air Besar, Kabupaten Landak, Kalimantan Barat 79365","Tenguwe, Kec. Air Besar, Kabupaten Landak",KALIMANTAN BARAT,79365.0,Indonesia, 082253370325,,,0.8041294,109.9184764,https://maps.google.com/?cid=0x0:0xdaeaf2fe0092b112,
perumahan,Komplek perumahan,Rumah iyooo,"P4W8+2QW, Sepangah, Kec. Air Besar, Kabupaten Landak, Kalimantan Barat","Kabupaten Landak, Kalimantan Barat",KALIMANTAN BARAT,,Indonesia,,,,0.7451178,110.1169461,https://maps.google.com/?cid=0x0:0xe5641a67feb1333c,
perumahan,Perhimpunan Pengembang Perumahan,Puser,"PQPV+6XR, Ampadi, Kec. Meranti, Kabupaten Landak, Kalimantan Barat","Kabupaten Landak, Kalimantan Barat",KALIMANTAN BARAT,,Indonesia,,,,0.7356179,109.7948852,https://maps.google.com/?cid=0x0:0x2dd6104fb20c8c60,
perumahan,Komplek perumahan,Bengawan ampar,"MR9P+8JV, Bengawan Ampar, Kec. Kuala Behe, Kabupaten Landak, Kalimantan Barat 79367","Bengawan Ampar, Kec. Kuala Behe, Kabupaten Landak",KALIMANTAN BARAT,79367.0,Indonesia,,,,0.6683711,109.8365586,https://maps.google.com/?cid=0x0:0x6979b8df65e291c2,
perumahan,Pembangunan Perumahan,Mubi,"H2P4+4Q, Kuala Behe, Kec. Kuala Behe, Kabupaten Landak, Kalimantan Barat","Kabupaten Landak, Kalimantan Barat",KALIMANTAN BARAT,,Indonesia,,,,0.5853065,110.0069058,https://maps.google.com/?cid=0x0:0xc3ada2f7d45a69d5,
perumahan,Komplek perumahan,Rumah Satel,"MX36+3Q8, Dusun OPO, Permiit, Kec. Kuala Behe, Kabupaten Landak, Kalimantan Barat","Kabupaten Landak, Kalimantan Barat",KALIMANTAN BARAT,,Indonesia,,,,0.6526713,109.9619598,https://maps.google.com/?cid=0x0:0x808bd6ae6749ed1c,
perumahan,Tujuan Wisata,Dusun Sempate,"M246+C29, Semedang, Kec. Kuala Behe, Kabupaten Landak, Kalimantan Barat 79367","Semedang, Kec. Kuala Behe, Kabupaten Landak",KALIMANTAN BARAT,79367.0,Indonesia,,,,0.6560285,110.0101124,https://maps.google.com/?cid=0x0:0x3815e0663a643ce,
perumahan,Perhimpunan Pengembang Perumahan,Dusun Kurnia,"J25M+R6M, Dusun Kurnia, Semedang, Kec. Kuala Behe, Kabupaten Landak, Kalimantan Barat 79357","Dusun Kurnia, Semedang, Kec. Kuala Behe, Kabupaten Landak",KALIMANTAN BARAT,79357.0,Indonesia,,,,0.6095949,110.0330554,https://maps.google.com/?cid=0x0:0x874deb070cca85c6,
perumahan,Pembangunan Perumahan,Batako,"H2P3+2X, Kuala Behe, Kec. Kuala Behe, Kabupaten Landak, Kalimantan Barat","Kabupaten Landak, Kalimantan Barat",KALIMANTAN BARAT,,Indonesia,,,,0.5850718,110.0049542,https://maps.google.com/?cid=0x0:0xadefb01ea9a39107,
perumahan,Kompleks Apartemen,Kampung Meroba,"Jalan Raya Serimbu_ngabang Ds. Sepangan dusun Meroba, Kabupaten Landak, Kalimantan Barat 79365",Kabupaten Landak,KALIMANTAN BARAT,79365.0,Indonesia, 083151111176,,,0.7408134,110.126695,https://maps.google.com/?cid=0x0:0xa13745f24f6cac6c,
perumahan,Perhimpunan Pengembang Perumahan,Rumah Kakek Randi,"P4X7+HH5, Sepangah, Kec. Air Besar, Kabupaten Landak, Kalimantan Barat 79367","Sepangah, Kec. Air Besar, Kabupaten Landak",KALIMANTAN BARAT,79367.0,Indonesia,,,,0.7488774,110.113993,https://maps.google.com/?cid=0x0:0x4c53e4f22ff4d3ca,
perumahan,Kompleks Apartemen,Perumahan mamaharis,"Q423+J6M, Jl. Serimbu Ngabang, Serimbu, Kec. Air Besar, Kabupaten Landak, Kalimantan Barat 79367","Jl. Serimbu Ngabang, Serimbu, Kec. Air Besar, Kabupaten Landak",KALIMANTAN BARAT,79367.0,Indonesia,,,,0.7515954,110.1030493,https://maps.google.com/?cid=0x0:0xa187377434753f10,
perumahan,Komplek perumahan,Rumah Yayan,"P4X4+473, Serimbu, Kec. Air Besar, Kabupaten Landak, Kalimantan Barat 79367","Serimbu, Kec. Air Besar, Kabupaten Landak",KALIMANTAN BARAT,79367.0,Indonesia,,,,0.7477625,110.1056719,https://maps.google.com/?cid=0x0:0x3d0e4b7907480f54,
perumahan,Komplek perumahan,Rumah enne behe barangan landak,"PRJH+QQ, Sejowet, Kec. Kuala Behe, Kabupaten Landak, Kalimantan Barat 79367","Sejowet, Kec. Kuala Behe, Kabupaten Landak",KALIMANTAN BARAT,79367.0,Indonesia,,,,0.7318768,109.829238,https://maps.google.com/?cid=0x0:0xcc2a48eaa2fc8b8e,
perumahan,Komplek perumahan,Lahan kosong Dedi,"Q32X+JPV, Jl. Serimbu Ngabang, Serimbu, Kec. Air Besar, Kabupaten Landak, Kalimantan Barat 79367","Jl. Serimbu Ngabang, Serimbu, Kec. Air Besar, Kabupaten Landak",KALIMANTAN BARAT,79367.0,Indonesia,,,,0.7516005,110.0993116,https://maps.google.com/?cid=0x0:0xdcea0e68b9c9c8fb,
perumahan,Kompleks Apartemen,Saham City,"Q474+G8, Serimbu, Kec. Air Besar, Kabupaten Landak, Kalimantan Barat 79367","Serimbu, Kec. Air Besar, Kabupaten Landak",KALIMANTAN BARAT,79367.0,Indonesia,,,,0.7638114,110.1058492,https://maps.google.com/?cid=0x0:0x9375c0eae64527ee,
perumahan,Pembangunan Perumahan,Tepo,"Q47G+F84, Dusun Tepo, Sepangah, Kec. Air Besar, Kabupaten Landak, Kalimantan Barat 79367","Dusun Tepo, Sepangah, Kec. Air Besar, Kabupaten Landak",KALIMANTAN BARAT,79367.0,Indonesia,,,,0.7636499,110.1258209,https://maps.google.com/?cid=0x0:0xb95f939279b7f095,
perumahan,perumahan,Mandor,"Mandor, Kec. Mandor, Kabupaten Landak, Kalimantan Barat","Kabupaten Landak, Kalimantan Barat",KALIMANTAN BARAT,,Indonesia,,,,0.323099,109.336304,https://maps.google.com/?cid=0x0:0xb5032e87bf627948,
perumahan,perumahan,rumah suwin,"88FP+6GM, Mandor, Kec. Mandor, Kabupaten Landak, Kalimantan Barat","Kabupaten Landak, Kalimantan Barat",KALIMANTAN BARAT,,Indonesia,,,,0.323099,109.336304,https://maps.google.com/?cid=0x0:0xe25909b610e2388b,
perumahan,Pembangunan Perumahan,Solanki Palace,"88FP+6GM, Mandor, Kec. Mandor, Kabupaten Landak, Kalimantan Barat","Kabupaten Landak, Kalimantan Barat",KALIMANTAN BARAT,,Indonesia,,,,0.323099,109.336304,https://maps.google.com/?cid=0x0:0x3e41358f89ab4587,
perumahan,Komplek perumahan,Rumah Yoyo Krisna,"88FP+6GM, Mandor, Kec. Mandor, Kabupaten Landak, Kalimantan Barat","Kabupaten Landak, Kalimantan Barat",KALIMANTAN BARAT,,Indonesia,,,,0.323099,109.336304,https://maps.google.com/?cid=0x0:0x25075640487363ca,
perumahan,perumahan,Tempat resepsi,"88FP+6GM, Jalan raya, RT.015/RW.001, Mandor, Kec. Mandor, Kabupaten Landak, Kalimantan Barat","Kabupaten Landak, Kalimantan Barat",KALIMANTAN BARAT,,Indonesia,,,,0.323099,109.336304,https://maps.google.com/?cid=0x0:0x72ca9a577ca5e1a6,
perumahan,Pembangunan Perumahan,Kayu ara,"88FP+6GM, Mandor, Kec. Mandor, Kabupaten Landak, Kalimantan Barat","Kabupaten Landak, Kalimantan Barat",KALIMANTAN BARAT,,Indonesia,,,,0.323099,109.336304,https://maps.google.com/?cid=0x0:0xa4d49d2927dec838,
perumahan,Pembangunan Perumahan,PT GPI 1 penconina indonesia,"88FP+6GM PT GPI 1 perumahan, Mandor, Kec. Mandor, penconina, Kalimantan Barat","penconina, Kalimantan Barat",KALIMANTAN BARAT,,Indonesia,,,,0.323099,109.336304,https://maps.google.com/?cid=0x0:0xc5ca70bf17a6a60f,
perumahan,Komplek perumahan,Selutung,"88FP+6GM, Mandor, Kec. Mandor, Kabupaten Landak, Kalimantan Barat","Kabupaten Landak, Kalimantan Barat",KALIMANTAN BARAT,,Indonesia,,,,0.323099,109.336304,https://maps.google.com/?cid=0x0:0x52194ffbd06221fe,
perumahan,Komplek perumahan,Rumah rangga,"888R+42G, Mandor, Kec. Mandor, Kabupaten Landak, Kalimantan Barat 79355","Mandor, Kec. Mandor, Kabupaten Landak",KALIMANTAN BARAT,79355.0,Indonesia,,,,0.3143734,109.3403638,https://maps.google.com/?cid=0x0:0xa7f33f297719833c,
perumahan,Perhimpunan Pengembang Perumahan,Rumah_Riki,"887R+5C8, Jl. Kopiang, Mandor, Landak Regency, West Kalimantan 79355","Jl. Kopiang, Mandor, Landak Regency",KALIMANTAN BARAT,79355.0,Indonesia,,,,0.3129008,109.341089,https://maps.google.com/?cid=0x0:0x80f81b2835856803,
perumahan,Kantor Pemerintah,desa selutung,"999Q+FV, Selutung, Kec. Mandor, Kabupaten Landak, Kalimantan Barat 79355","Selutung, Kec. Mandor, Kabupaten Landak",KALIMANTAN BARAT,79355.0,Indonesia,,,,0.3686893,109.3897299,https://maps.google.com/?cid=0x0:0x409e602ee7fb1dd8,
perumahan,Pembangunan Perumahan,Asmin,"9C2C+52, Kerohok, Kec. Mandor, Kabupaten Landak, Kalimantan Barat 79355","Kerohok, Kec. Mandor, Kabupaten Landak",KALIMANTAN BARAT,79355.0,Indonesia,,,,0.3497667,109.42019,https://maps.google.com/?cid=0x0:0x8b2af80a448353e,
perumahan,Komplek perumahan,Rumah Puntun,"8758+8M2, Kayu Tanam, Kec. Mandor, Kabupaten Landak, Kalimantan Barat 79355","Kayu Tanam, Kec. Mandor, Kabupaten Landak",KALIMANTAN BARAT,79355.0,Indonesia,,,,0.3088213,109.2660673,https://maps.google.com/?cid=0x0:0xfa893b16be4c644,
perumahan,Dapur Umum,Gang Tunas Baru,"889Q+R42, Mandor, Kec. Mandor, Kabupaten Landak, Kalimantan Barat 79355","Mandor, Kec. Mandor, Kabupaten Landak",KALIMANTAN BARAT,79355.0,Indonesia,,,,0.3195205,109.3377674,https://maps.google.com/?cid=0x0:0xfc446a6a0bcc961d,
perumahan,Komplek perumahan,RUMAH ANGGER MANDOR,"899G+XH, Kayu Ara, Kec. Mandor, Kabupaten Landak, Kalimantan Barat 79355","Kayu Ara, Kec. Mandor, Kabupaten Landak",KALIMANTAN BARAT,79355.0,Indonesia,,,,0.3199765,109.3764077,https://maps.google.com/?cid=0x0:0x6bbc4221f9b1cc7a,
perumahan,Pembangunan Perumahan,RUMAH YOGA JAYA,"888R+9G, Mandor, Kec. Mandor, Kabupaten Landak, Kalimantan Barat 79355","Mandor, Kec. Mandor, Kabupaten Landak",KALIMANTAN BARAT,79355.0,Indonesia,,,,0.3161822,109.34103,https://maps.google.com/?cid=0x0:0xa89c2edd77bb21e4,
perumahan,Komplek perumahan,Darma,"9C6Q+W4V, Bebatung, Kec. Mandor, Kabupaten Landak, Kalimantan Barat 79355","Bebatung, Kec. Mandor, Kabupaten Landak",KALIMANTAN BARAT,79355.0,Indonesia,,,,0.3623522,109.4378098,https://maps.google.com/?cid=0x0:0x2731f8968a8bfb97,
perumahan,Pembangunan Perumahan,Simpang Kerohok-Menjalin,"9C2C+52, Kerohok, Kec. Mandor, Kabupaten Landak, Kalimantan Barat 79355","Kerohok, Kec. Mandor, Kabupaten Landak",KALIMANTAN BARAT,79355.0,Indonesia,,,,0.3504656,109.4200647,https://maps.google.com/?cid=0x0:0xe0d9ec60869ac47c,
perumahan,Perhimpunan Pengembang Perumahan,FlowBrielle Home,"9F58+MQP, Sebadu, Kec. Mandor, Kabupaten Landak, Kalimantan Barat 79355","Sebadu, Kec. Mandor, Kabupaten Landak",KALIMANTAN BARAT,79355.0,Indonesia,,,,0.3592031,109.4669537,https://maps.google.com/?cid=0x0:0x1dccbbb22058a32b,
perumahan,Komplek perumahan,BOBOR,"985G+J9J, Simpang Kasturi, Kec. Mandor, Kabupaten Landak, Kalimantan Barat 79355","Simpang Kasturi, Kec. Mandor, Kabupaten Landak",KALIMANTAN BARAT,79355.0,Indonesia,,,,0.3590918,109.325899,https://maps.google.com/?cid=0x0:0xf477d92e35a5483f,
perumahan,Pembangunan Perumahan,Piong SBD,"9F8C+8GF, Sebadu, Kec. Mandor, Kabupaten Landak, Kalimantan Barat 79355","Sebadu, Kec. Mandor, Kabupaten Landak",KALIMANTAN BARAT,79355.0,Indonesia, 085752559251,,,0.36557,109.472182,https://maps.google.com/?cid=0x0:0xd46818bb94e2ad7d,
perumahan,Pembangunan Perumahan,Adi sutrisno,"9G43+79W, Sebadu, Kec. Mandor, Kabupaten Landak, Kalimantan Barat 79355","Sebadu, Kec. Mandor, Kabupaten Landak",KALIMANTAN BARAT,79355.0,Indonesia,,,,0.3552615,109.5028242,https://maps.google.com/?cid=0x0:0xb50f3085a33a0657,
perumahan,Komplek perumahan,Dusun Baet,"8G29+3C8, Dusun Baet, Sekilap, Kec. Mandor, Kabupaten Landak, Kalimantan Barat 79355","Dusun Baet, Sekilap, Kec. Mandor, Kabupaten Landak",KALIMANTAN BARAT,79355.0,Indonesia,,,,0.3001726,109.5185662,https://maps.google.com/?cid=0x0:0x267b847f32194a62,
perumahan,perumahan,Tempat di rumah,"995M+6P6, Selutung, Kec. Mandor, Kabupaten Landak, Kalimantan Barat 79355","Selutung, Kec. Mandor, Kabupaten Landak",KALIMANTAN BARAT,79355.0,Indonesia,,,,0.3580295,109.3842692,https://maps.google.com/?cid=0x0:0xa3307bfce3a75cb0,
perumahan,Komplek perumahan,rumah nisa,"87HW+G27, Salatiga, Kec. Mandor, Kabupaten Landak, Kalimantan Barat 79355","Salatiga, Kec. Mandor, Kabupaten Landak",KALIMANTAN BARAT,79355.0,Indonesia,,,,0.3288119,109.2953134,https://maps.google.com/?cid=0x0:0xc34060587a135cb5,
perumahan,Komplek perumahan,Sinkong dalam,"87GW+W8P, Salatiga, Kec. Mandor, Kabupaten Landak, Kalimantan Barat 79355","Salatiga, Kec. Mandor, Kabupaten Landak",KALIMANTAN BARAT,79355.0,Indonesia,,,,0.3273455,109.2958098,https://maps.google.com/?cid=0x0:0x8dc985b1c178b728,
perumahan,Kompleks Kondominium,"Rumah mamak ba,im setabar","9C4R+8CW, Bebatung, Kec. Mandor, Kabupaten Landak, Kalimantan Barat 79355","Bebatung, Kec. Mandor, Kabupaten Landak",KALIMANTAN BARAT,79355.0,Indonesia,,,,0.3560079,109.4422435,https://maps.google.com/?cid=0x0:0x7304d7fce3b8541c,
perumahan,Pembangunan Perumahan,kampung halaman abuatn,"7CJM+9G, Sumsum, Kec. Mandor, Kabupaten Landak, Kalimantan Barat 79355","Sumsum, Kec. Mandor, Kabupaten Landak",KALIMANTAN BARAT,79355.0,Indonesia,,,,0.2809776,109.4337512,https://maps.google.com/?cid=0x0:0x3273e28d335d8ca0,
perumahan,Perumahan,Komplek tikalong,"M98R+834, Tunang, Kec. Mempawah Hulu, Kabupaten Landak, Kalimantan Barat 79363","Tunang, Kec. Mempawah Hulu, Kabupaten Landak",KALIMANTAN BARAT,79363.0,Indonesia,,,,0.6657504,109.3902179,https://maps.google.com/?cid=0x0:0x19e060e55d7f84dc,
perumahan,Komplek perumahan,Rumah idon proyek,"M9CR+9JC, Jl. Anjungan - Bengkayang, Tunang, Kec. Mempawah Hulu, Kabupaten Landak, Kalimantan Barat 79363","Jl. Anjungan - Bengkayang, Tunang, Kec. Mempawah Hulu, Kabupaten Landak",KALIMANTAN BARAT,79363.0,Indonesia,,,,0.6705611,109.3909402,https://maps.google.com/?cid=0x0:0x5ce92d1db5ea3ad6,
perumahan,perumahan,Kalimantan Barat 79363,"Kec. Mempawah Hulu, Kabupaten Landak, Kalimantan Barat","Kabupaten Landak, Kalimantan Barat",KALIMANTAN BARAT,,Indonesia,,,,0.6745598,109.4259114,https://maps.google.com/?cid=0x0:0xdcefe0766b98359b,
perumahan,Komplek perumahan,Alos house,"M993+2HW, Tunang, Kec. Mempawah Hulu, Kabupaten Landak, Kalimantan Barat 79363","Tunang, Kec. Mempawah Hulu, Kabupaten Landak",KALIMANTAN BARAT,79363.0,Indonesia, 082155801311,,,0.6676249,109.3539571,https://maps.google.com/?cid=0x0:0xee833e96327322a5,
perumahan,Komplek perumahan,Rumah Tino paci,"H93J+8HR, Karangan, Kec. Mempawah Hulu, Kabupaten Landak, Kalimantan Barat 79362","Karangan, Kec. Mempawah Hulu, Kabupaten Landak",KALIMANTAN BARAT,79362.0,Indonesia,,,,0.553315,109.3814194,https://maps.google.com/?cid=0x0:0x282b7d990fefab10,
perumahan,Komplek perumahan,Sempang nahi,"M98H+W3, Tunang, Kec. Mempawah Hulu, Kabupaten Landak, Kalimantan Barat","Kabupaten Landak, Kalimantan Barat",KALIMANTAN BARAT,,Indonesia,,,,0.6673331,109.3776825,https://maps.google.com/?cid=0x0:0xc49a3699a85ff561,
perumahan,Komplek perumahan,Rumah Pak Lenti,"Jl. Dusun Pelanjau, Caokng, Kec. Mempawah Hulu, Kabupaten Landak, Kalimantan Barat 79362","Caokng, Kec. Mempawah Hulu, Kabupaten Landak",KALIMANTAN BARAT,79362.0,Indonesia, 085748047975,,,0.6807109,109.2838376,https://maps.google.com/?cid=0x0:0x2b6904e3bd9c5c5,
perumahan,Komplek perumahan,Kampung nanas,"M99H+4Q, Tunang, Kec. Mempawah Hulu, Kabupaten Landak, Kalimantan Barat","Kabupaten Landak, Kalimantan Barat",KALIMANTAN BARAT,,Indonesia,,,,0.6677411,109.379365,https://maps.google.com/?cid=0x0:0xd930d6552e4a2ea,
perumahan,Pembangunan Perumahan,"Temajit, tiang tanjung, kabupaten landak","PCGQ+PJQ, Temajit, Tiang Tj., Kabupaten Landak","Kabupaten Landak, Kalimantan Barat",KALIMANTAN BARAT,,Indonesia,,,,0.726838,109.4391131,https://maps.google.com/?cid=0x0:0xb3b0e4c8418ac47c,
perumahan,Pembangunan Perumahan,Rumah BADER,"J84R+JVC, Dusun Basopa, Pahokng, Kec. Mempawah Hulu, Kabupaten Landak, Kalimantan Barat","Kabupaten Landak, Kalimantan Barat",KALIMANTAN BARAT,,Indonesia,,,,0.6065501,109.342126,https://maps.google.com/?cid=0x0:0xbb8ee6fd521621a5,
perumahan,Pembangunan Perumahan,Krisno,"J9HX+62V, Sala'as, Kec. Mempawah Hulu, Kabupaten Landak, Kalimantan Barat 79363","Sala'as, Kec. Mempawah Hulu, Kabupaten Landak",KALIMANTAN BARAT,79363.0,Indonesia,,,,0.6281118,109.3975512,https://maps.google.com/?cid=0x0:0xf4862e62cdb0c328,
perumahan,Bengkel Sepeda Motor,RENCANA MOTORIZE,"Tiang Tj., Kec. Mempawah Hulu, Kabupaten Landak, Kalimantan Barat 79363","Kec. Mempawah Hulu, Kabupaten Landak",KALIMANTAN BARAT,79363.0,Indonesia,,,,0.7285053,109.4706098,https://maps.google.com/?cid=0x0:0xc9f3fdc428f2d267,
perumahan,Komplek perumahan,Rumah SF,"P8G7+PM, Ansolok, Kec. Mempawah Hulu, Kabupaten Landak, Kalimantan Barat 79363","Ansolok, Kec. Mempawah Hulu, Kabupaten Landak",KALIMANTAN BARAT,79363.0,Indonesia,,,,0.7268495,109.314187,https://maps.google.com/?cid=0x0:0x6d67835fd1b684f9,
perumahan,Komplek perumahan,Kecamatan mempawah hulu,"J9GW+8XG, Sala'as, Kec. Mempawah Hulu, Kabupaten Landak, Kalimantan Barat 79363","Sala'as, Kec. Mempawah Hulu, Kabupaten Landak",KALIMANTAN BARAT,79363.0,Indonesia,,,,0.6258798,109.3974353,https://maps.google.com/?cid=0x0:0xd75c6237f2b1e801,
perumahan,Komplek perumahan,Kampung Ujin,"HC3V+HH4, Sei Laki, Kec. Mempawah Hulu, Kabupaten Landak, Kalimantan Barat 79363","Sei Laki, Kec. Mempawah Hulu, Kabupaten Landak",KALIMANTAN BARAT,79363.0,Indonesia,,,,0.5538927,109.4439423,https://maps.google.com/?cid=0x0:0x557502f89bd1423e,
perumahan,Komplek perumahan,Kalumpe desa sabaka,"M9XC+MQF, Sabaka, Kec. Mempawah Hulu, Kabupaten Landak, Kalimantan Barat 79363","Sabaka, Kec. Mempawah Hulu, Kabupaten Landak",KALIMANTAN BARAT,79363.0,Indonesia,,,,0.6991968,109.3719138,https://maps.google.com/?cid=0x0:0x3e5742237734bc94,
perumahan,Komplek perumahan,Rumah Pubes,"JC67+X82, Pakato dalam, Karangan, Kec. Mempawah Hulu, Kabupaten Landak, Kalimantan Barat","Kabupaten Landak, Kalimantan Barat",KALIMANTAN BARAT,,Indonesia,,,,0.6123967,109.4132559,https://maps.google.com/?cid=0x0:0x764f42a2ed498ca9,
perumahan,Komplek perumahan,Sei Laki,"GCWP+CR9, Sei Laki, Kec. Mempawah Hulu, Kabupaten Landak, Kalimantan Barat 79363","Sei Laki, Kec. Mempawah Hulu, Kabupaten Landak",KALIMANTAN BARAT,79363.0,Indonesia,,,,0.5460398,109.4371239,https://maps.google.com/?cid=0x0:0x6760129b59abc36c,
perumahan,Komplek perumahan,Untung ma,"H9HQ+2M, Mentonyek, Kec. Mempawah Hulu, Kabupaten Landak, Kalimantan Barat","Kabupaten Landak, Kalimantan Barat",KALIMANTAN BARAT,,Indonesia,,,,0.5775489,109.3891435,https://maps.google.com/?cid=0x0:0x24297519e78c686,
perumahan,Komplek perumahan,Samangkak,"P783+C3M, Unnamed Road, Salumang, Kec. Mempawah Hulu, Kabupaten Landak, Kalimantan Barat 79363","Unnamed Road, Salumang, Kec. Mempawah Hulu, Kabupaten Landak",KALIMANTAN BARAT,79363.0,Indonesia,,,,0.7160984,109.2526633,https://maps.google.com/?cid=0x0:0x937660cc52d46784,
perumahan,Komplek perumahan,Tisa Alona rumah stores,"M9CQ+HV7, Jl. Anjungan - Bengkayang, Tunang, Kec. Mempawah Hulu, Kabupaten Landak, Kalimantan Barat 79363","Jl. Anjungan - Bengkayang, Tunang, Kec. Mempawah Hulu, Kabupaten Landak",KALIMANTAN BARAT,79363.0,Indonesia,,,,0.6709721,109.3901755,https://maps.google.com/?cid=0x0:0x60ff255db6bc11be,
perumahan,Komplek perumahan,SANTOS HOUSE,"H93J+P87, Jl. Karangan - Sompak, Karangan, Kec. Mempawah Hulu, Kabupaten Landak, Kalimantan Barat 79362","Jl. Karangan - Sompak, Karangan, Kec. Mempawah Hulu, Kabupaten Landak",KALIMANTAN BARAT,79362.0,Indonesia,,,,0.5542938,109.3807943,https://maps.google.com/?cid=0x0:0x232d779fecf2e93c,
perumahan,Pembangunan Perumahan,Kampung Pasangin,"HC4V+CGC, Dusun Pasangin, Sei Laki, Kec. Mempawah Hulu, Kabupaten Landak, Kalimantan Barat","Kabupaten Landak, Kalimantan Barat",KALIMANTAN BARAT,,Indonesia,,,,0.5560586,109.4437686,https://maps.google.com/?cid=0x0:0x50dbd89f477f6d93,
perumahan,Komplek perumahan,Rumah mk,"P8G8+M7J, Ansolok, Kec. Mempawah Hulu, Kabupaten Landak, Kalimantan Barat 79363","Ansolok, Kec. Mempawah Hulu, Kabupaten Landak",KALIMANTAN BARAT,79363.0,Indonesia,,,,0.7261045,109.3154582,https://maps.google.com/?cid=0x0:0x18e6e8169b16eec0,
perumahan,Pembangunan Perumahan,Rumah Bapak Hendri,"M7JM+9H9, Jln, Dusun Pelanjau, Caokng, Mempawah Hulu, Landak Regency, West Kalimantan 79362","Jln, Dusun Pelanjau, Caokng, Mempawah Hulu, Landak Regency",KALIMANTAN BARAT,79362.0,Indonesia, 085828723183,,,0.680902,109.2839808,https://maps.google.com/?cid=0x0:0xe11016e49f2807a2,
perumahan,Komplek perumahan,Menjalin2,"F83V+3GR, Menjalin, Kec. Menjalin, Kabupaten Landak, Kalimantan Barat 79362","Menjalin, Kec. Menjalin, Kabupaten Landak",KALIMANTAN BARAT,79362.0,Indonesia,,,,0.4527307,109.3437682,https://maps.google.com/?cid=0x0:0xf26bc54acb01a571,
perumahan,Komplek perumahan,Kampung menjalin,"F82V+WF5, Jalan kampung, Menjalin, Kec. Menjalin, Kabupaten Landak, Kalimantan Barat 79362","Jalan kampung, Menjalin, Kec. Menjalin, Kabupaten Landak",KALIMANTAN BARAT,79362.0,Indonesia,,,,0.4522704,109.343719,https://maps.google.com/?cid=0x0:0x234607ba6c17791c,
perumahan,Komplek perumahan,Dusun Mensio,"F8CX+FJR, Menjalin, Kec. Menjalin, Kabupaten Landak, Kalimantan Barat 79362","Menjalin, Kec. Menjalin, Kabupaten Landak",KALIMANTAN BARAT,79362.0,Indonesia,,,,0.4712404,109.349013,https://maps.google.com/?cid=0x0:0x73ee882df9b1c029,
perumahan,Polisi Sipil,Rumah Kapolsek menjalin,"F8FR+X69, Raba, Kec. Menjalin, Kabupaten Landak, Kalimantan Barat 79362","Raba, Kec. Menjalin, Kabupaten Landak",KALIMANTAN BARAT,79362.0,Indonesia,,,,0.474583,109.3405006,https://maps.google.com/?cid=0x0:0x313afc766d986b6b,
perumahan,Komplek perumahan,Lumut,"F89P+QP8, Menjalin, Kec. Menjalin, Kabupaten Landak, Kalimantan Barat 79362","Menjalin, Kec. Menjalin, Kabupaten Landak",KALIMANTAN BARAT,79362.0,Indonesia,,,,0.4694105,109.3368143,https://maps.google.com/?cid=0x0:0x335811f733a5daa1,
perumahan,Komplek perumahan,Menjalin (Dusun Ganye),"F9Q5+6PM, Dusun Ganye, Menjalin, Kec. Menjalin, Kabupaten Landak, Kalimantan Barat","Kabupaten Landak, Kalimantan Barat",KALIMANTAN BARAT,,Indonesia,,,,0.4880958,109.3592942,https://maps.google.com/?cid=0x0:0x8cbdc690f0cf860c,
perumahan,Komplek perumahan,Rumah nano,"F9C2+2M4, Menjalin, Kec. Menjalin, Kabupaten Landak, Kalimantan Barat 79362","Menjalin, Kec. Menjalin, Kabupaten Landak",KALIMANTAN BARAT,79362.0,Indonesia,,,,0.4698968,109.35114,https://maps.google.com/?cid=0x0:0xd29df6b150d819f5,
perumahan,Perhimpunan Pengembang Perumahan,Apo,"F8RP+MM7, Raba, Kec. Menjalin, Kabupaten Landak, Kalimantan Barat 79362","Raba, Kec. Menjalin, Kabupaten Landak",KALIMANTAN BARAT,79362.0,Indonesia,,,,0.4908533,109.3358631,https://maps.google.com/?cid=0x0:0x17407746d2277672,
perumahan,Komplek perumahan,Rumah vies,"F8CQ+38M, Menjalin, Kec. Menjalin, Kabupaten Landak, Kalimantan Barat 79362","Menjalin, Kec. Menjalin, Kabupaten Landak",KALIMANTAN BARAT,79362.0,Indonesia,,,,0.4702101,109.3383049,https://maps.google.com/?cid=0x0:0x122ac0d48be2cf2,
perumahan,Komplek perumahan,Hari P.,"Jalan raya, Menjalin, Kec. Menjalin, Kabupaten Landak, Kalimantan Barat 79362","Menjalin, Kec. Menjalin, Kabupaten Landak",KALIMANTAN BARAT,79362.0,Indonesia,,,,0.4627891,109.3328813,https://maps.google.com/?cid=0x0:0xfb82617ff3f1bc08,
perumahan,Komplek perumahan,Rumah Rasty,"F8CX+G9M, Menjalin, Kec. Menjalin, Kabupaten Landak, Kalimantan Barat 79362","Menjalin, Kec. Menjalin, Kabupaten Landak",KALIMANTAN BARAT,79362.0,Indonesia,,,,0.4713383,109.3484366,https://maps.google.com/?cid=0x0:0x621bc6213a134b96,
perumahan,Komplek perumahan,Rumah we' budi,"F86J+VG8, Sepahat, Kec. Menjalin, Kabupaten Landak, Kalimantan Barat 79362","Sepahat, Kec. Menjalin, Kabupaten Landak",KALIMANTAN BARAT,79362.0,Indonesia,,,,0.4594929,109.3293099,https://maps.google.com/?cid=0x0:0xefed637c036d0f7b,
perumahan,Komplek perumahan,Rumah Satria,"Menjalin, Kec. Menjalin, Kabupaten Landak, Kalimantan Barat 79362","Kec. Menjalin, Kabupaten Landak",KALIMANTAN BARAT,79362.0,Indonesia, 085251520300,,,0.4605977,109.3388494,https://maps.google.com/?cid=0x0:0x636bd94e45b5675d,
perumahan,perumahan,Kalimantan Barat 79362,"Kabupaten Landak, Kalimantan Barat","Kabupaten Landak, Kalimantan Barat",KALIMANTAN BARAT,,Indonesia,,,,0.5318366,109.3307345,https://maps.google.com/?cid=0x0:0x1c5c3307eefb6954,
perumahan,Komplek perumahan,Rumah Ropinus Malem,"G84C+WRX, Raba, Kec. Menjalin, Kabupaten Landak, Kalimantan Barat 79362","Raba, Kec. Menjalin, Kabupaten Landak",KALIMANTAN BARAT,79362.0,Indonesia,,,,0.5073603,109.3221176,https://maps.google.com/?cid=0x0:0x3af48c6b2fb7ee64,
perumahan,Komplek perumahan,Rumah Fronika Ranti,"C8R5+M83, Sepahat, Kec. Menjalin, Kabupaten Landak, Kalimantan Barat","Kabupaten Landak, Kalimantan Barat",KALIMANTAN BARAT,,Indonesia,,,,0.4416301,109.3082999,https://maps.google.com/?cid=0x0:0x5894212881829762,
perumahan,Perhimpunan Pengembang Perumahan,Salore,"F89P+QP8, Menjalin, Kec. Menjalin, Kabupaten Landak, Kalimantan Barat","Kabupaten Landak, Kalimantan Barat",KALIMANTAN BARAT,,Indonesia,,,,0.4694105,109.3368143,https://maps.google.com/?cid=0x0:0xf898803897b41453,
perumahan,Pembangunan Perumahan,rumah pak dayat,"C7WJ+CH6, Sepahat, Kec. Menjalin, Kabupaten Landak, Kalimantan Barat","Kabupaten Landak, Kalimantan Barat",KALIMANTAN BARAT,,Indonesia,,,,0.4460368,109.2813841,https://maps.google.com/?cid=0x0:0xe1ba6a637afa018,
perumahan,Pembangunan Perumahan,Simpang Lonjengan,"C7MM+JWV, Dusun Lonjengan, Sepahat, Kec. Menjalin, Kabupaten Landak, Kalimantan Barat 78361","Dusun Lonjengan, Sepahat, Kec. Menjalin, Kabupaten Landak",KALIMANTAN BARAT,78361.0,Indonesia,,,,0.434111,109.2847919,https://maps.google.com/?cid=0x0:0xea440c47b04407fb,
perumahan,Komplek perumahan,Nyawan,"G7MV+P6G, Nangka, Kec. Menjalin, Kabupaten Landak, Kalimantan Barat 79362","Nangka, Kec. Menjalin, Kabupaten Landak",KALIMANTAN BARAT,79362.0,Indonesia,,,,0.5343198,109.2931822,https://maps.google.com/?cid=0x0:0xb5f7480c88bd1782,
perumahan,Kantor Pemerintah,Desa raba,"F89P+QP8, Menjalin, Kec. Menjalin, Kabupaten Landak, Kalimantan Barat","Kabupaten Landak, Kalimantan Barat",KALIMANTAN BARAT,,Indonesia,,,,0.4694105,109.3368143,https://maps.google.com/?cid=0x0:0x384671c713767410,
perumahan,Pembangunan Perumahan,Rumah Kadus munukng,"G725+C5, Rees, Kec. Menjalin, Kabupaten Landak, Kalimantan Barat","Kabupaten Landak, Kalimantan Barat",KALIMANTAN BARAT,,Indonesia,,,,0.5010952,109.2579075,https://maps.google.com/?cid=0x0:0xfab73ec4322852d5,
perumahan,Komplek perumahan,Rumah pak tomi,"F8V2+H5, Nangka, Kec. Menjalin, Kabupaten Landak, Kalimantan Barat","Kabupaten Landak, Kalimantan Barat",KALIMANTAN BARAT,,Indonesia,,,,0.4938834,109.3004556,https://maps.google.com/?cid=0x0:0x115b3e968a3abbd9,
perumahan,Komplek perumahan,Rumah Pak Kimas,"HJ8X+PGX, Mamek, Kec. Menyuke, Kabupaten Landak, Kalimantan Barat 79364","Mamek, Kec. Menyuke, Kabupaten Landak",KALIMANTAN BARAT,79364.0,Indonesia,,,,0.566471,109.6488591,https://maps.google.com/?cid=0x0:0xd927d58fc28fcc65,
perumahan,perumahan,Kalimantan Barat 79364,"Kabupaten Landak, Kalimantan Barat","Kabupaten Landak, Kalimantan Barat",KALIMANTAN BARAT,,Indonesia,,,,0.6737656,109.6163185,https://maps.google.com/?cid=0x0:0x8890c5a7792b01c3,
perumahan,Perhimpunan Pengembang Perumahan,Dusun TELAET,"JM73+Q52, Kayu Ara, Kec. Menyuke, Kabupaten Landak, Kalimantan Barat 79364","Kayu Ara, Kec. Menyuke, Kabupaten Landak",KALIMANTAN BARAT,79364.0,Indonesia,,,,0.6143934,109.652897,https://maps.google.com/?cid=0x0:0x7eeba64bd640d7d7,
perumahan,Komplek perumahan,Rumah Marsi,"GGRV+X7, Ladangan, Kec. Menyuke, Kabupaten Landak, Kalimantan Barat","Kabupaten Landak, Kalimantan Barat",KALIMANTAN BARAT,,Indonesia,,,,0.5412232,109.5426138,https://maps.google.com/?cid=0x0:0x6bee40115854afd,
perumahan,Balai masyarakat,Desa Berinang Mayun Menyuke,"PJ99+2XH, Berinang Mayun, Kec. Menyuke, Kabupaten Landak, Kalimantan Barat","Kabupaten Landak, Kalimantan Barat",KALIMANTAN BARAT,,Indonesia,,,,0.717559,109.6199794,https://maps.google.com/?cid=0x0:0xee9dcd60ecae93b5,
perumahan,Komplek perumahan,"Dusun Tititareng, Semoko","PH9P+8MC, Berinang Mayun, Kec. Menyuke, Kabupaten Landak, Kalimantan Barat 79364","Berinang Mayun, Kec. Menyuke, Kabupaten Landak",KALIMANTAN BARAT,79364.0,Indonesia,,,,0.7183029,109.5866325,https://maps.google.com/?cid=0x0:0xaf4800aebf34abd6,
perumahan,Komplek perumahan,Dusun Sanyang,"Jl Raya Sidas, Darit, Kec. Menyuke, Kabupaten Landak, Kalimantan Barat 79364","Darit, Kec. Menyuke, Kabupaten Landak",KALIMANTAN BARAT,79364.0,Indonesia,,,,0.591529,109.623703,https://maps.google.com/?cid=0x0:0x4071c94d882625be,
perumahan,Pembangunan Perumahan,Indra pemantas,"HJVF+JRV, Darit, Kec. Menyuke, Kabupaten Landak, Kalimantan Barat 79364","Darit, Kec. Menyuke, Kabupaten Landak",KALIMANTAN BARAT,79364.0,Indonesia,,,,0.5941094,109.6245375,https://maps.google.com/?cid=0x0:0xa81c5b5673501719,
perumahan,Komplek perumahan,Dusun Bentinga,"MGJ8+FQ6, Jl. Bengkayang - Ngabang, Untang, Kec. Banyuke Hulu, Kabupaten Landak, Kalimantan Barat 79364","Jl. Bengkayang - Ngabang, Untang, Kec. Banyuke Hulu, Kabupaten Landak",KALIMANTAN BARAT,79364.0,Indonesia,,,,0.6811674,109.5169043,https://maps.google.com/?cid=0x0:0x9b72776b1e70c82,
perumahan,Komplek perumahan,Rumah Jampen,"JGWQ+JVG, Dusun Medang, Kampet, Kec. Banyuke Hulu, Kabupaten Landak, Kalimantan Barat","Kabupaten Landak, Kalimantan Barat",KALIMANTAN BARAT,,Indonesia,,,,0.6465525,109.5396875,https://maps.google.com/?cid=0x0:0xdd820c5ba374c4b2,
perumahan,Komplek perumahan,SONGGA,"JH7X+JQ2, Songga, Kec. Menyuke, Kabupaten Landak, Kalimantan Barat 79364","Songga, Kec. Menyuke, Kabupaten Landak",KALIMANTAN BARAT,79364.0,Indonesia,,,,0.614229,109.599901,https://maps.google.com/?cid=0x0:0x7210129daa81db57,
perumahan,Pembangunan Perumahan,Jesica home,"PG25+5P, Untang, Kec. Banyuke Hulu, Kabupaten Landak, Kalimantan Barat 79364","Untang, Kec. Banyuke Hulu, Kabupaten Landak",KALIMANTAN BARAT,79364.0,Indonesia,,,,0.7003757,109.5093232,https://maps.google.com/?cid=0x0:0x91ea26d53aecff4,
perumahan,Komplek perumahan,VILA SINTOK,"HH5J+465, Jalan Jahangi-Nungku, Ladangan, Menyuke, Landak Regency, West Kalimantan","Kabupaten Landak, Kalimantan Barat",KALIMANTAN BARAT,,Indonesia,,,,0.5577699,109.580612,https://maps.google.com/?cid=0x0:0x89b02aa57e231ebf,
perumahan,Komplek perumahan,Simpang guna,"HHHP+82, angkaras, Kec. Menyuke, Kabupaten Landak, Kalimantan Barat","Kabupaten Landak, Kalimantan Barat",KALIMANTAN BARAT,,Indonesia,,,,0.5782983,109.5850513,https://maps.google.com/?cid=0x0:0x496bfe4f6cc3f2c2,
perumahan,Komplek perumahan,Rumah Adrianus Andi,"HJPG+XW3, Darit, Kec. Menyuke, Kabupaten Landak, Kalimantan Barat","Kabupaten Landak, Kalimantan Barat",KALIMANTAN BARAT,,Indonesia, 082251350534,,,0.5873951,109.6272857,https://maps.google.com/?cid=0x0:0x7d1c94e446e677bf,
perumahan,Pembangunan Perumahan,Rumah Sean,"HJQJ+QF3, Dusun Setolo, Darit, Kec. Menyuke, Kabupaten Landak, Kalimantan Barat 79364","Dusun Setolo, Darit, Kec. Menyuke, Kabupaten Landak",KALIMANTAN BARAT,79364.0,Indonesia,,,,0.5893759,109.631177,https://maps.google.com/?cid=0x0:0x7f6eb29a37050977,
perumahan,Pembangunan Perumahan,Kampung Global,"JH2H+R5, Ringo Lojok, Kec. Banyuke Hulu, Kabupaten Landak, Kalimantan Barat 79364","Ringo Lojok, Kec. Banyuke Hulu, Kabupaten Landak",KALIMANTAN BARAT,79364.0,Indonesia,,,,0.6020436,109.5779123,https://maps.google.com/?cid=0x0:0x86153ae4ad387fae,
perumahan,Pembangunan Perumahan,Bujal,"MJJR+PJ, Sidan, Kec. Menyuke, Kabupaten Landak, Kalimantan Barat","Kabupaten Landak, Kalimantan Barat",KALIMANTAN BARAT,,Indonesia,,,,0.6818186,109.6415074,https://maps.google.com/?cid=0x0:0x9fa3f8dab6beaeee,
perumahan,Pembangunan Perumahan,Simpang _Telaet,"JJ8X+87G, Songga, Kec. Menyuke, Kabupaten Landak, Kalimantan Barat 79364","Songga, Kec. Menyuke, Kabupaten Landak",KALIMANTAN BARAT,79364.0,Indonesia,,,,0.6158153,109.6481889,https://maps.google.com/?cid=0x0:0xdd2ebde706f2ad48,
perumahan,Komplek perumahan,Rumah Musanto,"HJRC+JCH, Darit, Kec. Menyuke, Kabupaten Landak, Kalimantan Barat","Kabupaten Landak, Kalimantan Barat",KALIMANTAN BARAT,,Indonesia,,,,0.5915648,109.6211066,https://maps.google.com/?cid=0x0:0xbfd3e456f97a9eb9,
perumahan,Komplek perumahan,Setolo,"HJQJ+V48, Darit, Kec. Menyuke, Kabupaten Landak, Kalimantan Barat 79364","Darit, Kec. Menyuke, Kabupaten Landak",KALIMANTAN BARAT,79364.0,Indonesia,,,,0.5896659,109.6303287,https://maps.google.com/?cid=0x0:0x45c769a2e7ec1091,
perumahan,Komplek perumahan,Rumah boker,"HH5J+46, Ladangan, Kec. Menyuke, Kabupaten Landak, Kalimantan Barat","Kabupaten Landak, Kalimantan Barat",KALIMANTAN BARAT,,Indonesia,,,,0.5429488,109.543526,https://maps.google.com/?cid=0x0:0x5b3bd3ecad047c2a,
perumahan,Komplek perumahan,DUSUN MENINING TAAS,"GJW7+FGM, Ladangan, Kec. Menyuke, Kabupaten Landak, Kalimantan Barat 79356","Ladangan, Kec. Menyuke, Kabupaten Landak",KALIMANTAN BARAT,79356.0,Indonesia,,,,0.5462081,109.6138034,https://maps.google.com/?cid=0x0:0x26f1772c5065cf10,
perumahan,Pembangunan Perumahan,Gaga,"MPF8+VM, Kelampai Setolo, Kec. Meranti, Kabupaten Landak, Kalimantan Barat 79366","Kelampai Setolo, Kec. Meranti, Kabupaten Landak",KALIMANTAN BARAT,79366.0,Indonesia,,,,0.674739,109.7166687,https://maps.google.com/?cid=0x0:0xd2726f9167a6b349,
perumahan,Perhimpunan Pengembang Perumahan,Nabo,"QQ3W+4VM dusun nabo, Ampadi, Kec. Meranti, Kabupaten Landak, Kalimantan Barat","Kabupaten Landak, Kalimantan Barat",KALIMANTAN BARAT,,Indonesia,,,,0.7528251,109.7971739,https://maps.google.com/?cid=0x0:0xcf595cec6bebe5ca,
perumahan,Pembangunan Perumahan,Kelampai Raya.II,"MPCH+4Q, Kelampai Setolo, Kec. Meranti, Kabupaten Landak, Kalimantan Barat","Kabupaten Landak, Kalimantan Barat",KALIMANTAN BARAT,,Indonesia,,,,0.670363,109.72941,https://maps.google.com/?cid=0x0:0xadd3afca4d5e6339,
perumahan,Komplek perumahan,Kampung Sekeok,"QPJC+W2, Tahu, Kec. Meranti, Kabupaten Landak, Kalimantan Barat","Kabupaten Landak, Kalimantan Barat",KALIMANTAN BARAT,,Indonesia,,,,0.7823737,109.7200375,https://maps.google.com/?cid=0x0:0x4d7d7f13756a272f,
perumahan,Kantor Pemerintah,Kecamatan meranti,"PQRJ+M7M, Ampadi, Kec. Meranti, Kabupaten Landak, Kalimantan Barat","Kabupaten Landak, Kalimantan Barat",KALIMANTAN BARAT,,Indonesia,,,,0.7417186,109.7806676,https://maps.google.com/?cid=0x0:0x6e9a0d40a86d064c,
perumahan,Perhimpunan Pengembang Perumahan,Puser,"PQPV+6XR, Ampadi, Kec. Meranti, Kabupaten Landak, Kalimantan Barat","Kabupaten Landak, Kalimantan Barat",KALIMANTAN BARAT,,Indonesia,,,,0.7356179,109.7948852,https://maps.google.com/?cid=0x0:0x2dd6104fb20c8c60,
perumahan,perumahan,Dusun Pancur,"Kelampai Setolo, Kec. Meranti, Kabupaten Landak, Kalimantan Barat 79366","Kec. Meranti, Kabupaten Landak",KALIMANTAN BARAT,79366.0,Indonesia,,,,0.6601219,109.7203413,https://maps.google.com/?cid=0x0:0xb6222ba4dcdf9a6d,
perumahan,perumahan,Dusun Ilan,"Kode pos 79366Kecamatan, Jalan Raya, Kelampai Setolo, Kec. Meranti, Kabupaten Landak, Kalimantan Barat 79366","Jalan Raya, Kelampai Setolo, Kec. Meranti, Kabupaten Landak",KALIMANTAN BARAT,79366.0,Indonesia,,,,0.660726,109.7208906,https://maps.google.com/?cid=0x0:0x768b294c7b847b86,
perumahan,Perhimpunan Pengembang Perumahan,Dusun Senanggen,"Tahu, Kec. Meranti, Kabupaten Landak, Kalimantan Barat","Kabupaten Landak, Kalimantan Barat",KALIMANTAN BARAT,,Indonesia,,,,0.8029358,109.6853852,https://maps.google.com/?cid=0x0:0xf953a12adb7da9c5,
perumahan,Komplek perumahan,Mr.Matius,"MPCP+PF, Meranti, Kec. Meranti, Kabupaten Landak, Kalimantan Barat","Kabupaten Landak, Kalimantan Barat",KALIMANTAN BARAT,,Indonesia,,,,0.6717848,109.7361271,https://maps.google.com/?cid=0x0:0x200b5705e5e409ab,
perumahan,Pembangunan Perumahan,Kampung Peluntan,"MQ95+FMF, Darit - Pangsi, Meranti, Kec. Meranti, Kabupaten Landak, Kalimantan Barat 79364","Darit - Pangsi, Meranti, Kec. Meranti, Kabupaten Landak",KALIMANTAN BARAT,79364.0,Indonesia,,,,0.6659412,109.7641416,https://maps.google.com/?cid=0x0:0x8994a597e557ddea,
perumahan,Komplek perumahan,Rumah erik,"QQF5+9RF, Selange, Kec. Meranti, Kabupaten Landak, Kalimantan Barat","Kabupaten Landak, Kalimantan Barat",KALIMANTAN BARAT,,Indonesia,,,,0.7737261,109.7604521,https://maps.google.com/?cid=0x0:0x9ab663a3b7c67c20,
perumahan,Perhimpunan Pengembang Perumahan,Dusun TELAET,"JM73+Q52, Kayu Ara, Kec. Menyuke, Kabupaten Landak, Kalimantan Barat 79364","Kayu Ara, Kec. Menyuke, Kabupaten Landak",KALIMANTAN BARAT,79364.0,Indonesia,,,,0.6143934,109.652897,https://maps.google.com/?cid=0x0:0x7eeba64bd640d7d7,
perumahan,Komplek perumahan,Kampung Senguang,"RP9J+Q7, Tahu, Kec. Meranti, Kabupaten Landak, Kalimantan Barat","Kabupaten Landak, Kalimantan Barat",KALIMANTAN BARAT,,Indonesia,,,,0.8194042,109.7306892,https://maps.google.com/?cid=0x0:0x78e6df28ab7d4c13,
perumahan,Komplek perumahan,Rumah Musanto,"HJRC+JCH, Darit, Kec. Menyuke, Kabupaten Landak, Kalimantan Barat","Kabupaten Landak, Kalimantan Barat",KALIMANTAN BARAT,,Indonesia,,,,0.5915648,109.6211066,https://maps.google.com/?cid=0x0:0xbfd3e456f97a9eb9,
perumahan,Komplek perumahan,Rumah Yonatan,"HJQH+WMH, Darit, Kec. Menyuke, Kabupaten Landak, Kalimantan Barat 79364","Darit, Kec. Menyuke, Kabupaten Landak",KALIMANTAN BARAT,79364.0,Indonesia,,,,0.5898125,109.6292344,https://maps.google.com/?cid=0x0:0xdc505333bf7140e6,
perumahan,Komplek perumahan,Rumah Pak Alek,"PQF6+X6J, Selange, Kec. Meranti, Kabupaten Landak, Kalimantan Barat 79366","Selange, Kec. Meranti, Kabupaten Landak",KALIMANTAN BARAT,79366.0,Indonesia,,,,0.7249742,109.7605192,https://maps.google.com/?cid=0x0:0x582db7d3e23f9c6b,
perumahan,perumahan,Sumatera Utara 21264,"Kabupaten Asahan, Sumatera Utara","Kabupaten Asahan, Sumatera Utara",KALIMANTAN BARAT,,Indonesia,,,,3.0341327,99.6564092,https://maps.google.com/?cid=0x0:0x18aaf0acd065ae8c,
perumahan,perumahan,Antariksa Hotel  Restaurant,"Jl. Sei Gambus No.3, Sendang Sari, Kec. Kota Kisaran Barat, Kabupaten Asahan, Sumatera Utara 21214","Sendang Sari, Kec. Kota Kisaran Barat, Kabupaten Asahan",KALIMANTAN BARAT,21214.0,Indonesia, 083181701349,,,2.9776789,99.6139092,https://maps.google.com/?cid=0x0:0xe5bf239568a5da32,
perumahan,perumahan,Dusun Pancur,"Kelampai Setolo, Kec. Meranti, Kabupaten Landak, Kalimantan Barat 79366","Kec. Meranti, Kabupaten Landak",KALIMANTAN BARAT,79366.0,Indonesia,,,,0.6601219,109.7203413,https://maps.google.com/?cid=0x0:0xb6222ba4dcdf9a6d,
perumahan,Pembangunan Perumahan, ,"MP5C+R55, Kelampai Setolo, Kec. Meranti, Kabupaten Landak, Kalimantan Barat","Kabupaten Landak, Kalimantan Barat",KALIMANTAN BARAT,,Indonesia, 082152100250,,,0.6595108,109.7204801,https://maps.google.com/?cid=0x0:0x813ad5f06ef8ce00,
perumahan,perumahan,Kalimantan Barat 79366,"Kec. Meranti, Kabupaten Landak, Kalimantan Barat","Kabupaten Landak, Kalimantan Barat",KALIMANTAN BARAT,,Indonesia,,,,0.7627643,109.7353569,https://maps.google.com/?cid=0x0:0xa8d09b215b6af2c7,
perumahan,Komplek perumahan,Kampung Sekeok,"QPJC+W2, Tahu, Kec. Meranti, Kabupaten Landak, Kalimantan Barat","Kabupaten Landak, Kalimantan Barat",KALIMANTAN BARAT,,Indonesia,,,,0.7823737,109.7200375,https://maps.google.com/?cid=0x0:0x4d7d7f13756a272f,
perumahan,Perhimpunan Pengembang Perumahan,Puser,"PQPV+6XR, Ampadi, Kec. Meranti, Kabupaten Landak, Kalimantan Barat","Kabupaten Landak, Kalimantan Barat",KALIMANTAN BARAT,,Indonesia,,,,0.7356179,109.7948852,https://maps.google.com/?cid=0x0:0x2dd6104fb20c8c60,
perumahan,Perhimpunan Pengembang Perumahan,Dusun Senanggen,"Tahu, Kec. Meranti, Kabupaten Landak, Kalimantan Barat","Kabupaten Landak, Kalimantan Barat",KALIMANTAN BARAT,,Indonesia,,,,0.8029358,109.6853852,https://maps.google.com/?cid=0x0:0xf953a12adb7da9c5,
perumahan,perumahan,Dusun Ilan,"Kode pos 79366Kecamatan, Jalan Raya, Kelampai Setolo, Kec. Meranti, Kabupaten Landak, Kalimantan Barat 79366","Jalan Raya, Kelampai Setolo, Kec. Meranti, Kabupaten Landak",KALIMANTAN BARAT,79366.0,Indonesia,,,,0.660726,109.7208906,https://maps.google.com/?cid=0x0:0x768b294c7b847b86,
perumahan,Perhimpunan Pengembang Perumahan,Nabo,"QQ3W+4VM dusun nabo, Ampadi, Kec. Meranti, Kabupaten Landak, Kalimantan Barat","Kabupaten Landak, Kalimantan Barat",KALIMANTAN BARAT,,Indonesia,,,,0.7528251,109.7971739,https://maps.google.com/?cid=0x0:0xcf595cec6bebe5ca,
perumahan,Komplek perumahan,Rumah Pak Alek,"PQF6+X6J, Selange, Kec. Meranti, Kabupaten Landak, Kalimantan Barat 79366","Selange, Kec. Meranti, Kabupaten Landak",KALIMANTAN BARAT,79366.0,Indonesia,,,,0.7249742,109.7605192,https://maps.google.com/?cid=0x0:0x582db7d3e23f9c6b,
perumahan,Kantor Pemerintah,Kecamatan meranti,"PQRJ+M7M, Ampadi, Kec. Meranti, Kabupaten Landak, Kalimantan Barat","Kabupaten Landak, Kalimantan Barat",KALIMANTAN BARAT,,Indonesia,,,,0.7417186,109.7806676,https://maps.google.com/?cid=0x0:0x6e9a0d40a86d064c,
perumahan,Komplek perumahan,Kampung Senguang,"RP9J+Q7, Tahu, Kec. Meranti, Kabupaten Landak, Kalimantan Barat","Kabupaten Landak, Kalimantan Barat",KALIMANTAN BARAT,,Indonesia,,,,0.8194042,109.7306892,https://maps.google.com/?cid=0x0:0x78e6df28ab7d4c13,
perumahan,Komplek perumahan,Rumah erik,"QQF5+9RF, Selange, Kec. Meranti, Kabupaten Landak, Kalimantan Barat","Kabupaten Landak, Kalimantan Barat",KALIMANTAN BARAT,,Indonesia,,,,0.7737261,109.7604521,https://maps.google.com/?cid=0x0:0x9ab663a3b7c67c20,
perumahan,Pembangunan Perumahan,Sutono House Famili,"Jalan Raya Kecamatan Meranti Desa Kelampai Setolo Dusun Ilan, RT./RW:, Kec. Meranti, Kabupaten Landak, Kalimantan Barat 79366","RT./RW:, Kec. Meranti, Kabupaten Landak",KALIMANTAN BARAT,79366.0,Indonesia,,,,0.660941,109.7211098,https://maps.google.com/?cid=0x0:0x5dcf2c14fc4a2054,
perumahan,Pembangunan Perumahan,Kelampai Raya.II,"MPCH+4Q, Kelampai Setolo, Kec. Meranti, Kabupaten Landak, Kalimantan Barat","Kabupaten Landak, Kalimantan Barat",KALIMANTAN BARAT,,Indonesia,,,,0.670363,109.72941,https://maps.google.com/?cid=0x0:0xadd3afca4d5e6339,
perumahan,Komplek perumahan,Mr.Matius,"MPCP+PF, Meranti, Kec. Meranti, Kabupaten Landak, Kalimantan Barat","Kabupaten Landak, Kalimantan Barat",KALIMANTAN BARAT,,Indonesia,,,,0.6717848,109.7361271,https://maps.google.com/?cid=0x0:0x200b5705e5e409ab,
perumahan,Pembangunan Perumahan,Dusun Sage,"QQF5+9RF, Selange, Kec. Meranti, Kabupaten Landak, Kalimantan Barat","Kabupaten Landak, Kalimantan Barat",KALIMANTAN BARAT,,Indonesia,,,,0.774283,109.76059,https://maps.google.com/?cid=0x0:0xd40e70fa9d9bd28b,
perumahan,Pembangunan Perumahan,Kampung Peluntan,"MQ95+FMF, Darit - Pangsi, Meranti, Kec. Meranti, Kabupaten Landak, Kalimantan Barat 79364","Darit - Pangsi, Meranti, Kec. Meranti, Kabupaten Landak",KALIMANTAN BARAT,79364.0,Indonesia,,,,0.6659412,109.7641416,https://maps.google.com/?cid=0x0:0x8994a597e557ddea,
perumahan,Praktisi perawat,POLINDES MORO,"PP6F+Q5P, Meranti, Kec. Meranti, Kabupaten Landak, Kalimantan Barat 79366","Meranti, Kec. Meranti, Kabupaten Landak",KALIMANTAN BARAT,79366.0,Indonesia,,,,0.7119543,109.7229484,https://maps.google.com/?cid=0x0:0x87241f8779504f80,
perumahan,Restoran,Rumah Makan Mak Jaka,"Jl. Raya Meranti, Kelampai Setolo, Kec. Meranti, Kabupaten Landak, Kalimantan Barat 79366","Kelampai Setolo, Kec. Meranti, Kabupaten Landak",KALIMANTAN BARAT,79366.0,Indonesia,,,,0.7024488,109.745683,https://maps.google.com/?cid=0x0:0x206328bbde81d20c,
perumahan,Perhimpunan Pengembang Perumahan,Haripad soubhagya,"PQPV+6XR, THULASi, Ampadi, Meranti, Landak Regency, West Kalimantan","Kabupaten Landak, Kalimantan Barat",KALIMANTAN BARAT,,Indonesia,,,,0.7356179,109.7948852,https://maps.google.com/?cid=0x0:0x231811e57644e2f4,
perumahan,Komplek perumahan,Komplek Meranti,"9QXH+RV7, Jl. Re. Abdullah, RT.02/RW.02, Pasirmulya, Kec. Bogor Bar., Kota Bogor, Jawa Barat 16118","Jl. Re. Abdullah, RT.02/RW.02, Pasirmulya, Kec. Bogor Bar., Kota Bogor",KALIMANTAN BARAT,16118.0,Indonesia,,,,-6.6004538,106.7796794,https://maps.google.com/?cid=0x0:0xebe5b8519d39f356,
perumahan,Komplek perumahan,Rumah Mursyid,"9QXJ+CMF, RT.04/RW.04, Pasirkuda, Kec. Bogor Bar., Kota Bogor, Jawa Barat 16119","RT.04/RW.04, Pasirkuda, Kec. Bogor Bar., Kota Bogor",KALIMANTAN BARAT,16119.0,Indonesia,,,,-6.6014476,106.7816784,https://maps.google.com/?cid=0x0:0xcef378c795874253,
perumahan,perumahan,Ngabang,"Hilir Tengah, Kec. Ngabang, Kabupaten Landak, Kalimantan Barat","Kabupaten Landak, Kalimantan Barat",KALIMANTAN BARAT,,Indonesia,,,,0.396117,109.950996,https://maps.google.com/?cid=0x0:0x36ecc951d5c3f67,
perumahan,Komplek perumahan,Bisma Residence,"CW4V+4MR, Jl. Raya Mungguk, Hilir Tengah, Kec. Ngabang, Kabupaten Landak, Kalimantan Barat 79357","Jl. Raya Mungguk, Hilir Tengah, Kec. Ngabang, Kabupaten Landak",KALIMANTAN BARAT,79357.0,Indonesia, 082148554439,,,0.4053589,109.9441324,https://maps.google.com/?cid=0x0:0xaf8c107dcf86fae0,
perumahan,Komplek perumahan,Perumahan,"9XJ4+67J, Jl. Pesona, Hilir Ktr., Kec. Ngabang, Kabupaten Landak, Kalimantan Barat 79357","Jl. Pesona, Hilir Ktr., Kec. Ngabang, Kabupaten Landak",KALIMANTAN BARAT,79357.0,Indonesia,,,,0.3805941,109.955647,https://maps.google.com/?cid=0x0:0x69a58b643c54710e,
perumahan,Pembangunan Perumahan,MAMURAJA RESIDENCE,"9WXP+MC, Hilir Ktr., Kec. Ngabang, Kabupaten Landak, Kalimantan Barat 79357","Hilir Ktr., Kec. Ngabang, Kabupaten Landak",KALIMANTAN BARAT,79357.0,Indonesia,,,,0.3994615,109.9367356,https://maps.google.com/?cid=0x0:0xb44b0729cc7903d2,
perumahan,Komplek perumahan,Ngabang,"9XW2+F95, Hilir Tengah, Kec. Ngabang, Kabupaten Landak, Kalimantan Barat","Kabupaten Landak, Kalimantan Barat",KALIMANTAN BARAT,,Indonesia,,,,0.3961325,109.9509757,https://maps.google.com/?cid=0x0:0x5ecc4222db8e4f04,
perumahan,Perhimpunan Pengembang Perumahan,Gg.Abdul Karim,"9XW2+CG4, Hilir Tengah, Kec. Ngabang, Kabupaten Landak, Kalimantan Barat 79357","Hilir Tengah, Kec. Ngabang, Kabupaten Landak",KALIMANTAN BARAT,79357.0,Indonesia,,,,0.3960041,109.9513257,https://maps.google.com/?cid=0x0:0x39254f82ad455842,
perumahan,Komplek perumahan,Gg.Walet,"9XW2+G85, Hilir Tengah, Kec. Ngabang, Kabupaten Landak, Kalimantan Barat 79357","Hilir Tengah, Kec. Ngabang, Kabupaten Landak",KALIMANTAN BARAT,79357.0,Indonesia,,,,0.3962097,109.9508207,https://maps.google.com/?cid=0x0:0x108a521d574bf5f,
perumahan,Pembangunan Perumahan,marik Muhaimin Afgan,"9XW2+F95, Hilir Tengah, Kec. Ngabang, Kabupaten Landak, Kalimantan Barat","Kabupaten Landak, Kalimantan Barat",KALIMANTAN BARAT,,Indonesia,,,,0.3961325,109.9509757,https://maps.google.com/?cid=0x0:0xc0fd35d18e96ddd4,
perumahan,Komplek perumahan,Rumah Dimas dan fitri,"9XW2+F95, Hilir Tengah, Kec. Ngabang, Kabupaten Landak, Kalimantan Barat","Kabupaten Landak, Kalimantan Barat",KALIMANTAN BARAT,,Indonesia,,,,0.3961325,109.9509757,https://maps.google.com/?cid=0x0:0x98ec4edc58aaf215,
perumahan,Komplek perumahan,Herman Jaya Mustiadi,"9XV2+WMQ, Gg. Ekayanti, Hilir Tengah, Kec. Ngabang, Kabupaten Landak, Kalimantan Barat 79357","Gg. Ekayanti, Hilir Tengah, Kec. Ngabang, Kabupaten Landak",KALIMANTAN BARAT,79357.0,Indonesia,,,,0.3948459,109.9517415,https://maps.google.com/?cid=0x0:0x566a0315a6e37c51,
perumahan,Pembangunan Perumahan,Kami lihat ini gugel sebenarnya alamat siapa,"9XW2+CCP, Hilir Tengah, Kec. Ngabang, Kabupaten Landak, Kalimantan Barat","Kabupaten Landak, Kalimantan Barat",KALIMANTAN BARAT,,Indonesia,,,,0.396094,109.9510646,https://maps.google.com/?cid=0x0:0x49fc4de5fbcb49b5,
perumahan,Komplek perumahan,Rumah pangeran Raja Pagung ( DZUS),"9XW2+8MV, Jl. Pangeran Cinata, Hilir Tengah, Kec. Ngabang, Kabupaten Landak, Kalimantan Barat 79357","Jl. Pangeran Cinata, Hilir Tengah, Kec. Ngabang, Kabupaten Landak",KALIMANTAN BARAT,79357.0,Indonesia,,,,0.3958674,109.9516597,https://maps.google.com/?cid=0x0:0xf8286a2d3f498579,
perumahan,Otoritas Perumahan,Perumahan btn,"Gg. Ekayanti No.12, Hilir Tengah, Kec. Ngabang, Kabupaten Landak, Kalimantan Barat 79357","Hilir Tengah, Kec. Ngabang, Kabupaten Landak",KALIMANTAN BARAT,79357.0,Indonesia,,,,0.3937819,109.9501749,https://maps.google.com/?cid=0x0:0xaed3df13f9692e61,
perumahan,Museum,"Rumah Radank Aya Ngabang, Landak, Kalimantan Barat","9WPM+2G9, Ktr., Hilir Ktr., Kec. Ngabang, Kabupaten Landak, Kalimantan Barat 79357","Ktr., Hilir Ktr., Kec. Ngabang, Kabupaten Landak",KALIMANTAN BARAT,79357.0,Indonesia,,,,0.385048,109.9338545,https://maps.google.com/?cid=0x0:0x89e12db350fe7680,
perumahan,Pembangunan Perumahan,Miari ardagusema residence,"9XQC+V3C, Hilir Tengah, Kec. Ngabang, Kabupaten Landak, Kalimantan Barat 79357","Hilir Tengah, Kec. Ngabang, Kabupaten Landak",KALIMANTAN BARAT,79357.0,Indonesia,,,,0.3898649,109.969891,https://maps.google.com/?cid=0x0:0xc6ffff4efc1f4387,
perumahan,,Radakng Aya' Landak Kampung Budaya Ngabang,"9WMM+WJW, Hilir Ktr., Kec. Ngabang, Kabupaten Landak, Kalimantan Barat 79357","Hilir Ktr., Kec. Ngabang, Kabupaten Landak",KALIMANTAN BARAT,79357.0,Indonesia,,,,0.3848622,109.9340658,https://maps.google.com/?cid=0x0:0xe12a47aca1b25879,
perumahan,Perumahan,Perumahan Pesona Laguna 2,"Blk. L1 - L2 No.14, Cilangkap, Kec. Tapos, Kota Depok, Jawa Barat 16458","Cilangkap, Kec. Tapos, Kota Depok",KALIMANTAN BARAT,16458.0,Indonesia,,,,-6.4342556,106.8661912,https://maps.google.com/?cid=0x0:0x84feb8acbe403d6,
perumahan,Otoritas Perumahan,Perumahan Laguna,"Jl. Kp. Cilangkap No.23, Cilangkap, Kec. Tapos, Kota Depok, Jawa Barat 16458","Cilangkap, Kec. Tapos, Kota Depok",KALIMANTAN BARAT,16458.0,Indonesia,,,,-6.443995,106.8596065,https://maps.google.com/?cid=0x0:0x86cfe55ca5c6cadd,
perumahan,Lapangan Voli,Lapangan Pesona Laguna 2 RW 22,"HV87+WVX, Jl. Pesona Laguna 2, Cilangkap, Kec. Tapos, Kota Depok, Jawa Barat 16458","Jl. Pesona Laguna 2, Cilangkap, Kec. Tapos, Kota Depok",KALIMANTAN BARAT,16458.0,Indonesia,,,,-6.4326375,106.8647344,https://maps.google.com/?cid=0x0:0x3dc9c4eb1a7982e0,
perumahan,Perhimpunan Pengembang Perumahan,Ansel,"5JX5+93G, Agak, Kec. Sebangki, Kabupaten Landak, Kalimantan Barat 79358","Agak, Kec. Sebangki, Kabupaten Landak",KALIMANTAN BARAT,79358.0,Indonesia,,,,0.1974833,109.6075279,https://maps.google.com/?cid=0x0:0xf633e0ca0ef6b0b0,
perumahan,perumahan,Kalimantan Barat 79356,"Kabupaten Landak, Kalimantan Barat","Kabupaten Landak, Kalimantan Barat",KALIMANTAN BARAT,,Indonesia,,,,0.3883464,109.7115472,https://maps.google.com/?cid=0x0:0x20df62cbb3031bce,
perumahan,perumahan,dsn sanyang,"CPPV+5W9, Banying, Kec. Sengah Temila, Kabupaten Landak, Kalimantan Barat 79356","Banying, Kec. Sengah Temila, Kabupaten Landak",KALIMANTAN BARAT,79356.0,Indonesia,,,,0.4354102,109.7448543,https://maps.google.com/?cid=0x0:0x3a6a1698f367cf0,
perumahan,Komplek perumahan,Rumah tinggal,"9HC8+Q7R, Jl. Lintas Kalimantan Poros Tengah, Senakin, Kec. Sengah Temila, Kabupaten Landak, Kalimantan Barat 79356","Jl. Lintas Kalimantan Poros Tengah, Senakin, Kec. Sengah Temila, Kabupaten Landak",KALIMANTAN BARAT,79356.0,Indonesia,,,,0.371996,109.5656496,https://maps.google.com/?cid=0x0:0xc0855675b2808b25,
perumahan,Komplek perumahan,Dusun Paser,"CQ23+CMJ, Dusun Paser, Kec. Sengah Temila, Kabupaten Landak, Kalimantan Barat 79356","Dusun Paser, Kec. Sengah Temila, Kabupaten Landak",KALIMANTAN BARAT,79356.0,Indonesia,,,,0.4010919,109.7541499,https://maps.google.com/?cid=0x0:0x68c4a8224985a077,
perumahan,Komplek perumahan,Dusun Sanyang,"CQH5+GP2, Keranji Mancal, Kec. Sengah Temila, Kabupaten Landak, Kalimantan Barat 79356","Keranji Mancal, Kec. Sengah Temila, Kabupaten Landak",KALIMANTAN BARAT,79356.0,Indonesia,,,,0.4287691,109.7592749,https://maps.google.com/?cid=0x0:0xef1f4991b423906d,
perumahan,Komplek perumahan,Rumah Ismail  Dewi Sahara,"CQF5+FMV, Sungai segak, Kec. Sengah Temila, Kabupaten Landak, Kalimantan Barat","Kabupaten Landak, Kalimantan Barat",KALIMANTAN BARAT,,Indonesia,,,,0.4237287,109.7591675,https://maps.google.com/?cid=0x0:0x1830515c062c10fc,
perumahan,Perhimpunan Pengembang Perumahan,Tunas Padagi,"Dusun Tunas padagi, Sebatih, Kec. Sengah Temila, Kabupaten Landak, Kalimantan Barat","Kabupaten Landak, Kalimantan Barat",KALIMANTAN BARAT,,Indonesia,,,,0.3050539,109.7307446,https://maps.google.com/?cid=0x0:0x89208a64b26f2040,
perumahan,Komplek perumahan,Rumah Fransiska Timur,"9P43+M58, Jl. Raya Pahauman - Ngabang, Keranji Paidang, Kec. Sengah Temila, Kabupaten Landak, Kalimantan Barat 79356","Jl. Raya Pahauman - Ngabang, Keranji Paidang, Kec. Sengah Temila, Kabupaten Landak",KALIMANTAN BARAT,79356.0,Indonesia, 085828607577,,,0.357334,109.703167,https://maps.google.com/?cid=0x0:0x162225060113fed7,
perumahan,Komplek perumahan,Rumah Pak Tami,"8M4F+64V, Saham, Kec. Sengah Temila, Kabupaten Landak, Kalimantan Barat 79358","Saham, Kec. Sengah Temila, Kabupaten Landak",KALIMANTAN BARAT,79358.0,Indonesia,,,,0.3069435,109.6732742,https://maps.google.com/?cid=0x0:0xb578590caad0cbd6,
perumahan,Pembangunan Perumahan,Pak Japa/Dado,"8QRQ+67, Sidas, Kec. Sengah Temila, Kabupaten Landak, Kalimantan Barat","Kabupaten Landak, Kalimantan Barat",KALIMANTAN BARAT,,Indonesia,,,,0.34058,109.788188,https://maps.google.com/?cid=0x0:0x3c089ccf23f4bae8,
perumahan,Komplek perumahan,DELFRIE,"CQR6+44R, Keranji Mancal, Kec. Sengah Temila, Kabupaten Landak, Kalimantan Barat 79356","Keranji Mancal, Kec. Sengah Temila, Kabupaten Landak",KALIMANTAN BARAT,79356.0,Indonesia,,,,0.4403668,109.7602549,https://maps.google.com/?cid=0x0:0xe5fcbf6cf4befa7,
perumahan,Perhimpunan Pengembang Perumahan,Sajem Family,"CJJJ+P7V, Rabak, Kec. Sengah Temila, Kabupaten Landak, Kalimantan Barat 79356","Rabak, Kec. Sengah Temila, Kabupaten Landak",KALIMANTAN BARAT,79356.0,Indonesia,,,,0.4318555,109.630662,https://maps.google.com/?cid=0x0:0x11914bb8f4d4c43c,
perumahan,Komplek perumahan,Rumah Pak Gayo,"9HHC+JQ5, Senakin, Kec. Sengah Temila, Kabupaten Landak, Kalimantan Barat 79356","Senakin, Kec. Sengah Temila, Kabupaten Landak",KALIMANTAN BARAT,79356.0,Indonesia, 082150100356,,,0.3790034,109.5719883,https://maps.google.com/?cid=0x0:0xd49f5aa8f1391a50,
perumahan,Komplek perumahan,Baet Kawan,"8MQV+RFW, Pahauman, Kec. Sengah Temila, Kabupaten Landak, Kalimantan Barat 79356","Pahauman, Kec. Sengah Temila, Kabupaten Landak",KALIMANTAN BARAT,79356.0,Indonesia,,,,0.3396153,109.6936906,https://maps.google.com/?cid=0x0:0x15e2533cce2efd3c,
perumahan,Komplek perumahan,Kampung Baet,"8M9V+J6H, Pahauman, Kec. Sengah Temila, Kabupaten Landak, Kalimantan Barat 79358","Pahauman, Kec. Sengah Temila, Kabupaten Landak",KALIMANTAN BARAT,79358.0,Indonesia,,,,0.3190602,109.6931142,https://maps.google.com/?cid=0x0:0xfb6d3c627bfbc1ad,
perumahan,Pembangunan Perumahan,Rumah deimanto,"FH9X+X76, Gombang, Kec. Sengah Temila, Kabupaten Landak, Kalimantan Barat 79356","Gombang, Kec. Sengah Temila, Kabupaten Landak",KALIMANTAN BARAT,79356.0,Indonesia,,,,0.4699067,109.5981352,https://maps.google.com/?cid=0x0:0x532432942ddd430e,
perumahan,Komplek perumahan,Bambali Village,"CJ83+9QW, Keratop, Dusun Bayang, Gombang, Kec. Sengah Temila, Kabupaten Landak, Kalimantan Barat 79356","Keratop, Dusun Bayang, Gombang, Kec. Sengah Temila, Kabupaten Landak",KALIMANTAN BARAT,79356.0,Indonesia,,,,0.4159996,109.6044565,https://maps.google.com/?cid=0x0:0xa71ead763cc5880b,
perumahan,Komplek perumahan,Rumah via,"8HPJ+6G, RT./RW/RW.004/000, Aur Sampuk, Kec. Sengah Temila, Kabupaten Landak, Kalimantan Barat 79356","RT./RW/RW.004/000, Aur Sampuk, Kec. Sengah Temila, Kabupaten Landak",KALIMANTAN BARAT,79356.0,Indonesia,,,,0.3355813,109.5813522,https://maps.google.com/?cid=0x0:0x6dca047d61abe75,
perumahan,Perhimpunan Pengembang Perumahan,Kampung Tamang,"CMJR+JP9, Banying, Kec. Sengah Temila, Kabupaten Landak, Kalimantan Barat 79356","Banying, Kec. Sengah Temila, Kabupaten Landak",KALIMANTAN BARAT,79356.0,Indonesia,,,,0.4315281,109.6918599,https://maps.google.com/?cid=0x0:0xd8aecf65b3a594aa,
perumahan,Komplek perumahan,Lanso - Sengah Temila,"9J9V+QF, Gombang, Kec. Sengah Temila, Kabupaten Landak, Kalimantan Barat","Kabupaten Landak, Kalimantan Barat",KALIMANTAN BARAT,,Indonesia,,,,0.3694375,109.6436875,https://maps.google.com/?cid=0x0:0x92a129fb000ecf1,
perumahan,Pembangunan Perumahan,Teluk tapah,"7QP5+GV, Sebatih, Kec. Sengah Temila, Kabupaten Landak, Kalimantan Barat","Kabupaten Landak, Kalimantan Barat",KALIMANTAN BARAT,,Indonesia,,,,0.2862539,109.7596692,https://maps.google.com/?cid=0x0:0x3ed1cb755787ee16,
perumahan,Komplek perumahan,KEPALA DESA PALOAN,"9J5X+9W, Keranji Paidang, Kec. Sengah Temila, Kabupaten Landak, Kalimantan Barat","Kabupaten Landak, Kalimantan Barat",KALIMANTAN BARAT,,Indonesia,,,,0.3584505,109.6497315,https://maps.google.com/?cid=0x0:0x6285c96d18847836,
perumahan,Gedung Apartemen,Bram Tatto,"FM47+MX, Rabak, Kec. Sengah Temila, Kabupaten Landak, Kalimantan Barat","Kabupaten Landak, Kalimantan Barat",KALIMANTAN BARAT,,Indonesia,,,,0.4567144,109.6649196,https://maps.google.com/?cid=0x0:0x382afee5b2f5ef5a,
perumahan,Komplek perumahan,RM Ridwan landak,"CPMV+FW, Banying, Kec. Sengah Temila, Kabupaten Landak, Kalimantan Barat","Kabupaten Landak, Kalimantan Barat",KALIMANTAN BARAT,,Indonesia,,,,0.4336248,109.7446556,https://maps.google.com/?cid=0x0:0x9bd52432547e4776,
perumahan,Komplek perumahan,TAMANG,"CMJV+PQ9, Jl. Manunggal V, Tamang, Kec. Sengah Temila, Kabupaten Landak, Kalimantan Barat 79356","Jl. Manunggal V, Tamang, Kec. Sengah Temila, Kabupaten Landak",KALIMANTAN BARAT,79356.0,Indonesia,,,,0.431799,109.694475,https://maps.google.com/?cid=0x0:0xe195e4f744384c07,
perumahan,Pembangunan Perumahan,SADE,"GF9J+2C8, Sade, Sompak, Kec. Sompak, Kabupaten Landak, Kalimantan Barat 79363","Sade, Sompak, Kec. Sompak, Kabupaten Landak",KALIMANTAN BARAT,79363.0,Indonesia,,,,0.5175363,109.4810692,https://maps.google.com/?cid=0x0:0x5323514e38f93320,
perumahan,perumahan,Kalimantan Barat 79363,"Kec. Mempawah Hulu, Kabupaten Landak, Kalimantan Barat","Kabupaten Landak, Kalimantan Barat",KALIMANTAN BARAT,,Indonesia,,,,0.6745598,109.4259114,https://maps.google.com/?cid=0x0:0xdcefe0766b98359b,
perumahan,Pembangunan Perumahan,Simpang Ero,"GF3F+5WV, Sompak, Kec. Sompak, Kabupaten Landak, Kalimantan Barat","Kabupaten Landak, Kalimantan Barat",KALIMANTAN BARAT,,Indonesia,,,,0.5022042,109.4750581,https://maps.google.com/?cid=0x0:0x6b2f9aa773113d0,
perumahan,Komplek perumahan,Tk Perianto,"GF9H+HC7, Sompak, Kec. Sompak, Kabupaten Landak, Kalimantan Barat 79363","Sompak, Kec. Sompak, Kabupaten Landak",KALIMANTAN BARAT,79363.0,Indonesia,,,,0.5189098,109.4785368,https://maps.google.com/?cid=0x0:0x9573abe51d6c1641,
perumahan,Komplek perumahan,Randum,"GFCM+7WV, Dusun Randum, Desa Galar, Sompak, Kec. Sompak, Kabupaten Landak, Kalimantan Barat 79363","Dusun Randum, Desa Galar, Sompak, Kec. Sompak, Kabupaten Landak",KALIMANTAN BARAT,79363.0,Indonesia,,,,0.520728,109.4847874,https://maps.google.com/?cid=0x0:0x1d515f4593a85edb,
perumahan,Komplek perumahan,Rumah Akiat cewa,"GFV9+W23, Pauh, Kec. Sompak, Kabupaten Landak, Kalimantan Barat 79363","Pauh, Kec. Sompak, Kabupaten Landak",KALIMANTAN BARAT,79363.0,Indonesia,,,,0.5447514,109.4674905,https://maps.google.com/?cid=0x0:0x5e805ee818a0bede,
perumahan,Komplek perumahan,Rumah Subianto,"FFRP+9RW, Mangaro, Kec. Sompak, Kabupaten Landak, Kalimantan Barat","Kabupaten Landak, Kalimantan Barat",KALIMANTAN BARAT,,Indonesia,,,,0.4909848,109.487083,https://maps.google.com/?cid=0x0:0x845d9ea1a41b0b9b,
perumahan,Komplek perumahan,Japot,"FFPV+4Q, Sompak, Kec. Sompak, Kabupaten Landak, Kalimantan Barat","Kabupaten Landak, Kalimantan Barat",KALIMANTAN BARAT,,Indonesia,,,,0.4853125,109.4944375,https://maps.google.com/?cid=0x0:0xb9b8b20e2cba71a,
perumahan,Komplek perumahan,Rumah Nining,"GGC2+5R4, Galar, Kec. Sompak, Kabupaten Landak, Kalimantan Barat 79363","Galar, Kec. Sompak, Kabupaten Landak",KALIMANTAN BARAT,79363.0,Indonesia,,,,0.519701,109.501756,https://maps.google.com/?cid=0x0:0x1fc31c097cc84180,
perumahan,Komplek perumahan,Rumah (s),"GG64+PJ, Galar, Kec. Sompak, Kabupaten Landak, Kalimantan Barat","Kabupaten Landak, Kalimantan Barat",KALIMANTAN BARAT,,Indonesia,,,,0.5118835,109.5066178,https://maps.google.com/?cid=0x0:0x3de715433dd1c028,
perumahan,Komplek perumahan,Rumah P Peri (A.Malus),"GG5M+C7, Ambawang, Kec. Sompak, Kabupaten Landak, Kalimantan Barat","Kabupaten Landak, Kalimantan Barat",KALIMANTAN BARAT,,Indonesia,,,,0.5095426,109.5335228,https://maps.google.com/?cid=0x0:0x64c9f769f8f40d58,
perumahan,Komplek perumahan,Rumah idon proyek,"M9CR+9JC, Jl. Anjungan - Bengkayang, Tunang, Kec. Mempawah Hulu, Kabupaten Landak, Kalimantan Barat 79363","Jl. Anjungan - Bengkayang, Tunang, Kec. Mempawah Hulu, Kabupaten Landak",KALIMANTAN BARAT,79363.0,Indonesia,,,,0.6705611,109.3909402,https://maps.google.com/?cid=0x0:0x5ce92d1db5ea3ad6,
perumahan,Klub Olahraga,Sadok,"GG5M+8MC, Dusun Sadok, Desa Amawakng, Kec. Sompak, Kabupaten Landak, Kalimantan Barat","Kabupaten Landak, Kalimantan Barat",KALIMANTAN BARAT,,Indonesia, 081255144251,,,0.5083162,109.5341434,https://maps.google.com/?cid=0x0:0x770733ffe65037b8,
perumahan,Komplek perumahan,Rumah Pak Nopi,"FCHP+6F, Lingkonong, Kec. Sompak, Kabupaten Landak, Kalimantan Barat","Kabupaten Landak, Kalimantan Barat",KALIMANTAN BARAT,,Indonesia,,,,0.4781426,109.4362266,https://maps.google.com/?cid=0x0:0x4d2f0aa6b3cdf09e,
perumahan,Pembangunan Perumahan,rumah yordanus,"GF8H+778, jalan raya, Sompak, Kec. Sompak, Kabupaten Landak, Kalimantan Barat","Kabupaten Landak, Kalimantan Barat",KALIMANTAN BARAT,,Indonesia,,,,0.5156611,109.4782092,https://maps.google.com/?cid=0x0:0x4abf108e07e8e03d,
perumahan,Komplek perumahan,NARANG FAMILY HOUSE,"GF6G+P9J, Sompak, Kec. Sompak, Kabupaten Landak, Kalimantan Barat 79363","Sompak, Kec. Sompak, Kabupaten Landak",KALIMANTAN BARAT,79363.0,Indonesia,,,,0.5118177,109.4759465,https://maps.google.com/?cid=0x0:0x8491f4112fb7c915,
perumahan,Pembangunan Perumahan,As C INDONESIA,"GGC2+5R4, Galar, Kec. Sompak, Kabupaten Landak, Kalimantan Barat 79363","Galar, Kec. Sompak, Kabupaten Landak",KALIMANTAN BARAT,79363.0,Indonesia,,,,0.5194576,109.5020591,https://maps.google.com/?cid=0x0:0xd790d80918aaf50c,
perumahan,Komplek perumahan,Kalumpe desa sabaka,"M9XC+MQF, Sabaka, Kec. Mempawah Hulu, Kabupaten Landak, Kalimantan Barat 79363","Sabaka, Kec. Mempawah Hulu, Kabupaten Landak",KALIMANTAN BARAT,79363.0,Indonesia,,,,0.6991968,109.3719138,https://maps.google.com/?cid=0x0:0x3e5742237734bc94,
perumahan,Komplek perumahan,Alos house,"M993+2HW, Tunang, Kec. Mempawah Hulu, Kabupaten Landak, Kalimantan Barat 79363","Tunang, Kec. Mempawah Hulu, Kabupaten Landak",KALIMANTAN BARAT,79363.0,Indonesia, 082155801311,,,0.6676249,109.3539571,https://maps.google.com/?cid=0x0:0xee833e96327322a5,
perumahan,Komplek perumahan,SANTOS HOUSE,"H93J+P87, Jl. Karangan - Sompak, Karangan, Kec. Mempawah Hulu, Kabupaten Landak, Kalimantan Barat 79362","Jl. Karangan - Sompak, Karangan, Kec. Mempawah Hulu, Kabupaten Landak",KALIMANTAN BARAT,79362.0,Indonesia,,,,0.5542938,109.3807943,https://maps.google.com/?cid=0x0:0x232d779fecf2e93c,
perumahan,Komplek perumahan,Kampung Tengge,"GF3V+M4W, Dusun Sabadak, Sompak, Kec. Sompak, Kabupaten Landak, Kalimantan Barat","Kabupaten Landak, Kalimantan Barat",KALIMANTAN BARAT,,Indonesia,,,,0.5042262,109.4928207,https://maps.google.com/?cid=0x0:0xcdb031474689fda0,
perumahan,Komplek perumahan,Dano Banokng,"GGP6+H8F Dano Banokng, Galar, Kec. Sompak, Kabupaten Landak, Kalimantan Barat 79363","Galar, Kec. Sompak, Kabupaten Landak",KALIMANTAN BARAT,79363.0,Indonesia,,,,0.5364377,109.5108016,https://maps.google.com/?cid=0x0:0xb79caedd6ea7d9b2,
perumahan,Komplek perumahan,Simpang o'akng,"JC7P+47, Sailo, Kec. Mempawah Hulu, Kabupaten Landak, Kalimantan Barat","Kabupaten Landak, Kalimantan Barat",KALIMANTAN BARAT,,Indonesia,,,,0.6128125,109.4356875,https://maps.google.com/?cid=0x0:0x19e78b71d403e6f2,
perumahan,Perumahan,Komplek tikalong,"M98R+834, Tunang, Kec. Mempawah Hulu, Kabupaten Landak, Kalimantan Barat 79363","Tunang, Kec. Mempawah Hulu, Kabupaten Landak",KALIMANTAN BARAT,79363.0,Indonesia,,,,0.6657504,109.3902179,https://maps.google.com/?cid=0x0:0x19e060e55d7f84dc,
perumahan,Komplek perumahan,Sempang nahi,"M98H+W3, Tunang, Kec. Mempawah Hulu, Kabupaten Landak, Kalimantan Barat","Kabupaten Landak, Kalimantan Barat",KALIMANTAN BARAT,,Indonesia,,,,0.6673331,109.3776825,https://maps.google.com/?cid=0x0:0xc49a3699a85ff561,
perumahan,Komplek perumahan,Rumah SF,"P8G7+PM, Ansolok, Kec. Mempawah Hulu, Kabupaten Landak, Kalimantan Barat 79363","Ansolok, Kec. Mempawah Hulu, Kabupaten Landak",KALIMANTAN BARAT,79363.0,Indonesia,,,,0.7268495,109.314187,https://maps.google.com/?cid=0x0:0x6d67835fd1b684f9,
perumahan,Komplek perumahan,Sijarum,"M837+352, Bilayuk, Kec. Mempawah Hulu, Kabupaten Landak, Kalimantan Barat","Kabupaten Landak, Kalimantan Barat",KALIMANTAN BARAT,,Indonesia,,,,0.6526275,109.3128909,https://maps.google.com/?cid=0x0:0x8d1ec429bddbafa3,
perumahan,Komplek perumahan,Rumah Pak ramping/pak sasa,"H93J+P87, Jl. Karangan - Sompak, Karangan, Kec. Mempawah Hulu, Kabupaten Landak, Kalimantan Barat 79362","Jl. Karangan - Sompak, Karangan, Kec. Mempawah Hulu, Kabupaten Landak",KALIMANTAN BARAT,79362.0,Indonesia,,,,0.5546262,109.3811713,https://maps.google.com/?cid=0x0:0x1a9c89b17fc261cb,
perumahan,Komplek perumahan,Tisa Alona rumah stores,"M9CQ+HV7, Jl. Anjungan - Bengkayang, Tunang, Kec. Mempawah Hulu, Kabupaten Landak, Kalimantan Barat 79363","Jl. Anjungan - Bengkayang, Tunang, Kec. Mempawah Hulu, Kabupaten Landak",KALIMANTAN BARAT,79363.0,Indonesia,,,,0.6709721,109.3901755,https://maps.google.com/?cid=0x0:0x60ff255db6bc11be,
