Category,Real Category,Business Name,Address,City,State,Postal Code,Country,Phone,Email,Website,Latitude,Longitude,Map Link,Details Link
building materials,Toko,Toko Mini Central Bangunan- Pit Abat-Herang Pacar,"G53W+W8, Pacar, Kec. Macang Pacar, Kabupaten Manggarai Barat, Nusa Tenggara Tim.","Kabupaten Manggarai Barat, Nusa Tenggara Tim.",NUSA TENGGARA TIMUR,,Indonesia, 081338660719,,,-8.4952374,120.1958268,https://maps.google.com/?cid=0x0:0xaed52134929ff94c,
building materials,Toko Perlengkapan Rumah,Bagus Bangunan  minimart,"747V+WJJ Bagus mart, jln ruteng, labuan bajo, Kecamatan Lembor, Kabupaten Manggarai Barat, Nusa Tenggara Tim.","Kabupaten Manggarai Barat, Nusa Tenggara Tim.",NUSA TENGGARA TIMUR,,Indonesia,,,,-8.7351516,120.1440286,https://maps.google.com/?cid=0x0:0x92a365e35efbb901,
building materials,building materials,Kec. Kuwus,"Kabupaten Manggarai Barat, Nusa Tenggara Tim.","Kabupaten Manggarai Barat, Nusa Tenggara Tim.",NUSA TENGGARA TIMUR,,Indonesia,,,,-8.58661,120.2649221,https://maps.google.com/?cid=0x0:0x20bc20e16a7cc39a,
building materials,Toko Bahan Bangunan,TOKO SAHABAT INTI BANGUNAN,"JL. Ruteng - Labuan Bajo, Cancar, Wae Belang, Kec. Ruteng, Kabupaten Manggarai, Nusa Tenggara Tim.","Kabupaten Manggarai, Nusa Tenggara Tim.",NUSA TENGGARA TIMUR,,Indonesia, 081359982021,,,-8.5896405,120.3779527,https://maps.google.com/?cid=0x0:0x99120b0035e2b615,
building materials,Pemasok Bahan Bangunan,Kusen upvc,"Jl. Dewi Sartika Jl. Salak No.49, RT.005/RW.007, Margahayu, Kec. Bekasi Tim., Kota Bks, Jawa Barat 17113","RT.005/RW.007, Margahayu, Kec. Bekasi Tim., Kota Bks",NUSA TENGGARA TIMUR,17113.0,Indonesia, 082240709379,,,-6.2509132,107.0078903,https://maps.google.com/?cid=0x0:0x2532cefc75d48321,
building materials,Toko Bahan Bangunan,Toko bangunan 99 cancar,"Unnamed Road, Wae Belang, Kec. Ruteng, Kabupaten Manggarai, Nusa Tenggara Tim.","Kabupaten Manggarai, Nusa Tenggara Tim.",NUSA TENGGARA TIMUR,,Indonesia, 085205455522,,,-8.5961231,120.3724544,https://maps.google.com/?cid=0x0:0xd584734019b4566d,
building materials,Toko,Ud Felice,"Lalo Daleng Lembor, Jl. Ruteng-Labuan Bajo, Kecamatan Lembor, Kabupaten Manggarai Barat, Nusa Tenggara Tim. 86753","Jl. Ruteng-Labuan Bajo, Kecamatan Lembor, Kabupaten Manggarai Barat",NUSA TENGGARA TIMUR,86753.0,Indonesia,,,,-8.6923786,120.2146413,https://maps.google.com/?cid=0x0:0x585b55173a12171a,
building materials,Kios,Ud Dirgahayu lembor,"75VC+43P, Jl. Ruteng, Tangge, Kecamatan Lembor, Kabupaten Manggarai Barat, Nusa Tenggara Tim.","Kabupaten Manggarai Barat, Nusa Tenggara Tim.",NUSA TENGGARA TIMUR,,Indonesia,,,,-8.7071812,120.1701848,https://maps.google.com/?cid=0x0:0x6702d897e0b74b38,
building materials,building materials,Kecamatan Lembor,"Kabupaten Manggarai Barat, Nusa Tenggara Tim.","Kabupaten Manggarai Barat, Nusa Tenggara Tim.",NUSA TENGGARA TIMUR,,Indonesia,,,,-8.7081253,120.1677018,https://maps.google.com/?cid=0x0:0xd449d3835f0762cf,
building materials,building materials,Kec. Sano Nggoang,"Kabupaten Manggarai Barat, Nusa Tenggara Tim.","Kabupaten Manggarai Barat, Nusa Tenggara Tim.",NUSA TENGGARA TIMUR,,Indonesia,,,,-8.6504359,120.0088957,https://maps.google.com/?cid=0x0:0xbdd044f0cd4c82fb,
building materials,building materials,TIMUR TERANG ABADI TK.,"Merombok, Golo Bilas, Labuan Bajo, Kabupaten Manggarai Barat, Nusa Tenggara Tim. 86763","Golo Bilas, Labuan Bajo, Kabupaten Manggarai Barat",NUSA TENGGARA TIMUR,86763.0,Indonesia, 082234230955,,,-8.5379401,119.8935438,https://maps.google.com/?cid=0x0:0x3dad0528092a247c,
building materials,Toko Bahan Bangunan,Toko Eka Mandiri,"Kaper , Rt 010/Rw 005 , Golo Bilas, Labuan Bajo, Kec. Komodo, Kabupaten Manggarai Barat, Nusa Tenggara Tim. 86711","Rt 010/Rw 005 , Golo Bilas, Labuan Bajo, Kec. Komodo, Kabupaten Manggarai Barat",NUSA TENGGARA TIMUR,86711.0,Indonesia, 085228334545,,,-8.5292227,119.8923195,https://maps.google.com/?cid=0x0:0xdd0705212f92debf,
building materials,Pemasok Bahan Bangunan,Bajo Gypsum  Bangunan,"Wae Kelambu, Kec. Komodo, Kabupaten Manggarai Barat, Nusa Tenggara Tim.","Kabupaten Manggarai Barat, Nusa Tenggara Tim.",NUSA TENGGARA TIMUR,,Indonesia, 082232232663,,,-8.5050869,119.9051435,https://maps.google.com/?cid=0x0:0x24130a0a8c60014b,
building materials,Toko Bahan Bangunan,Toko Bangunan Indo Jaya,"FVWQ+2FW, Unnamed Road, Goron Talo, Kec. Komodo, Kabupaten Manggarai Barat, Nusa Tenggara Tim.","Kabupaten Manggarai Barat, Nusa Tenggara Tim.",NUSA TENGGARA TIMUR,,Indonesia,,,,-8.5048875,119.8887031,https://maps.google.com/?cid=0x0:0x6bdc23425b068ec8,
building materials,Kantor Perusahaan,PT. Komodo Armament Indonesia,"Jl. Benda No.40, RT.001/RW.002, Cikiwul, Kec. Bantar Gebang, Kota Bks, Jawa Barat 17152","RT.001/RW.002, Cikiwul, Kec. Bantar Gebang, Kota Bks",NUSA TENGGARA TIMUR,17152.0,Indonesia, 081298107562,,,-6.331545,106.9914446,https://maps.google.com/?cid=0x0:0xa6f75260e4436ed,
building materials,Toko Bahan Bangunan,Flores Depo Bangunan,"Jl. Trans Flores, Goron Talo, Kec. Komodo, Kabupaten Manggarai Barat, Nusa Tenggara Tim.","Kabupaten Manggarai Barat, Nusa Tenggara Tim.",NUSA TENGGARA TIMUR,,Indonesia, 081239434040,,,-8.502223,119.8825278,https://maps.google.com/?cid=0x0:0x7ddeae9ccf378db2,
building materials,Toko Bahan Bangunan,toko pelangi bangunan,"FVQP+VXF, Goron Talo, Kec. Komodo, Kabupaten Manggarai Barat, Nusa Tenggara Tim.","Kabupaten Manggarai Barat, Nusa Tenggara Tim.",NUSA TENGGARA TIMUR,,Indonesia, 082145627171,,,-8.5103078,119.8874183,https://maps.google.com/?cid=0x0:0x6f62dc0810d90ac8,
building materials,Kantor Perusahaan,PT. Alderon Pratama Indonesia,"Altira Office Tower Lantai 37 Altira Business Park, Jl. Yos Sudarso Kav 85, RT.9/RW.11, Sunter Jaya, Kec. Tj. Priok, Jkt Utara, Jl. Yos Sudarso Kav 85, Jakarta, Daerah Khusus Ibukota Jakarta 14360","Jl. Yos Sudarso Kav 85, RT.9/RW.11, Sunter Jaya, Kec. Tj. Priok, Jkt Utara, Jl. Yos Sudarso Kav 85, Jakarta",NUSA TENGGARA TIMUR,14360.0,Indonesia, 081802951030,,,-6.1522978,106.8866732,https://maps.google.com/?cid=0x0:0x1401aba91f2a0653,
building materials,building materials,Boleng,"Waijarang, Kec. Nubatukan, Kabupaten Lembata, Nusa Tenggara Tim.","Kabupaten Lembata, Nusa Tenggara Tim.",NUSA TENGGARA TIMUR,,Indonesia,,,,-8.409525,123.345529,https://maps.google.com/?cid=0x0:0xffc7a39d57efdaaf,
building materials,building materials,Kec. Tebet,"Kota Jakarta Selatan, Daerah Khusus Ibukota Jakarta","Kota Jakarta Selatan, Daerah Khusus Ibukota Jakarta",NUSA TENGGARA TIMUR,,Indonesia,,,,-6.2251223,106.8549881,https://maps.google.com/?cid=0x0:0xd575e31c807295f9,
building materials,Toko Bahan Bangunan,JUJU ENTERPRISES,"DC Road DC Road, Boleng, Arunachal Pradesh 791103",Boleng,NUSA TENGGARA TIMUR,791103.0,Indonesia,,,,28.3359502,94.961651,https://maps.google.com/?cid=0x0:0x2fdda505b7ef54bf,
building materials,Toko,Ud Felice,"Lalo Daleng Lembor, Jl. Ruteng-Labuan Bajo, Kecamatan Lembor, Kabupaten Manggarai Barat, Nusa Tenggara Tim. 86753","Jl. Ruteng-Labuan Bajo, Kecamatan Lembor, Kabupaten Manggarai Barat",NUSA TENGGARA TIMUR,86753.0,Indonesia,,,,-8.6923786,120.2146413,https://maps.google.com/?cid=0x0:0x585b55173a12171a,
building materials,Kios,Ud Dirgahayu lembor,"75VC+43P, Jl. Ruteng, Tangge, Kecamatan Lembor, Kabupaten Manggarai Barat, Nusa Tenggara Tim.","Kabupaten Manggarai Barat, Nusa Tenggara Tim.",NUSA TENGGARA TIMUR,,Indonesia,,,,-8.7071812,120.1701848,https://maps.google.com/?cid=0x0:0x6702d897e0b74b38,
building materials,Toko Bahan Bangunan,Toko Bangunan ELliem Group,"F732+4WW Hawe-Wae Pitak, Jln, Kolang, Kec. Kuwus, Kabupaten Manggarai Barat, Nusa Tenggara Tim.","Kabupaten Manggarai Barat, Nusa Tenggara Tim.",NUSA TENGGARA TIMUR,,Indonesia, 085237913505,,,-8.5471482,120.2523278,https://maps.google.com/?cid=0x0:0xe58d5f31c4ffc6fc,
building materials,building materials,Kec. Tebet,"Kota Jakarta Selatan, Daerah Khusus Ibukota Jakarta","Kota Jakarta Selatan, Daerah Khusus Ibukota Jakarta",NUSA TENGGARA TIMUR,,Indonesia,,,,-6.2251223,106.8549881,https://maps.google.com/?cid=0x0:0xd575e31c807295f9,
building materials,building materials,Ndoso,"Ndoso, Kec. Ndoso, Kabupaten Manggarai Barat, Nusa Tenggara Tim.","Kabupaten Manggarai Barat, Nusa Tenggara Tim.",NUSA TENGGARA TIMUR,,Indonesia,,,,-8.5040549,120.320396,https://maps.google.com/?cid=0x0:0xa13f0de10f2802b2,
building materials,Toko Bahan Bangunan,Toko INDOMAL 2 (Jual Bahan Bangunan),"FM6C+F5W, Satar Nawang, Kec. Sambi Rampas, Kabupaten Manggarai Timur, Nusa Tenggara Tim.","Kabupaten Manggarai Timur, Nusa Tenggara Tim.",NUSA TENGGARA TIMUR,,Indonesia,,,,-8.5387527,120.6704604,https://maps.google.com/?cid=0x0:0xcc280ceb90d1ef6,
building materials,Toko Bahan Bangunan,"UD.Pyllita,Sambi","J8FX+XH, Sambi, Kec. Rana Mese, Kabupaten Manggarai Timur, Nusa Tenggara Tim.","Kabupaten Manggarai Timur, Nusa Tenggara Tim.",NUSA TENGGARA TIMUR,,Indonesia,,,,-8.375086,120.348885,https://maps.google.com/?cid=0x0:0x8a9211f74ca28878,
building materials,Toko Bahan Bangunan,Toko Bangunan ELliem Group,"F732+4WW Hawe-Wae Pitak, Jln, Kolang, Kec. Kuwus, Kabupaten Manggarai Barat, Nusa Tenggara Tim.","Kabupaten Manggarai Barat, Nusa Tenggara Tim.",NUSA TENGGARA TIMUR,,Indonesia, 085237913505,,,-8.5471482,120.2523278,https://maps.google.com/?cid=0x0:0xe58d5f31c4ffc6fc,
building materials,Toko,Ud Felice,"Lalo Daleng Lembor, Jl. Ruteng-Labuan Bajo, Kecamatan Lembor, Kabupaten Manggarai Barat, Nusa Tenggara Tim. 86753","Jl. Ruteng-Labuan Bajo, Kecamatan Lembor, Kabupaten Manggarai Barat",NUSA TENGGARA TIMUR,86753.0,Indonesia,,,,-8.6923786,120.2146413,https://maps.google.com/?cid=0x0:0x585b55173a12171a,
building materials,Kios,Ud Dirgahayu lembor,"75VC+43P, Jl. Ruteng, Tangge, Kecamatan Lembor, Kabupaten Manggarai Barat, Nusa Tenggara Tim.","Kabupaten Manggarai Barat, Nusa Tenggara Tim.",NUSA TENGGARA TIMUR,,Indonesia,,,,-8.7071812,120.1701848,https://maps.google.com/?cid=0x0:0x6702d897e0b74b38,
building materials,Toko Bahan Bangunan,Toko Bangunan ELliem Group,"F732+4WW Hawe-Wae Pitak, Jln, Kolang, Kec. Kuwus, Kabupaten Manggarai Barat, Nusa Tenggara Tim.","Kabupaten Manggarai Barat, Nusa Tenggara Tim.",NUSA TENGGARA TIMUR,,Indonesia, 085237913505,,,-8.5471482,120.2523278,https://maps.google.com/?cid=0x0:0xe58d5f31c4ffc6fc,
building materials,Toko Bahan Bangunan,Kelimutu Toko,"9FR7+7M8, Jl. Kathedral, Mbaumuku, Kec. Langke Rembong, Kabupaten Manggarai, Nusa Tenggara Tim. 86312","Jl. Kathedral, Mbaumuku, Kec. Langke Rembong, Kabupaten Manggarai",NUSA TENGGARA TIMUR,86312.0,Indonesia, 038521051,,,-8.6093282,120.4641971,https://maps.google.com/?cid=0x0:0xeb806c482e8ce083,
building materials,building materials,Kec. Mbeliling,"Kabupaten Manggarai Barat, Nusa Tenggara Tim.","Kabupaten Manggarai Barat, Nusa Tenggara Tim.",NUSA TENGGARA TIMUR,,Indonesia,,,,-8.6128114,120.0597179,https://maps.google.com/?cid=0x0:0x46c9c4828bf6f8cf,
building materials,Toko Bahan Bangunan,toko pelangi bangunan,"FVQP+VXF, Goron Talo, Kec. Komodo, Kabupaten Manggarai Barat, Nusa Tenggara Tim.","Kabupaten Manggarai Barat, Nusa Tenggara Tim.",NUSA TENGGARA TIMUR,,Indonesia, 082145627171,,,-8.5103078,119.8874183,https://maps.google.com/?cid=0x0:0x6f62dc0810d90ac8,
building materials,Pemasok Bahan Bangunan,Bajo Gypsum  Bangunan,"Wae Kelambu, Kec. Komodo, Kabupaten Manggarai Barat, Nusa Tenggara Tim.","Kabupaten Manggarai Barat, Nusa Tenggara Tim.",NUSA TENGGARA TIMUR,,Indonesia, 082232232663,,,-8.5050869,119.9051435,https://maps.google.com/?cid=0x0:0x24130a0a8c60014b,
building materials,building materials,TIMUR TERANG ABADI TK.,"Merombok, Golo Bilas, Labuan Bajo, Kabupaten Manggarai Barat, Nusa Tenggara Tim. 86763","Golo Bilas, Labuan Bajo, Kabupaten Manggarai Barat",NUSA TENGGARA TIMUR,86763.0,Indonesia, 082234230955,,,-8.5379401,119.8935438,https://maps.google.com/?cid=0x0:0x3dad0528092a247c,
building materials,Toko Bahan Bangunan,Flores Depo Bangunan,"Jl. Trans Flores, Goron Talo, Kec. Komodo, Kabupaten Manggarai Barat, Nusa Tenggara Tim.","Kabupaten Manggarai Barat, Nusa Tenggara Tim.",NUSA TENGGARA TIMUR,,Indonesia, 081239434040,,,-8.502223,119.8825278,https://maps.google.com/?cid=0x0:0x7ddeae9ccf378db2,
building materials,Toko Bahan Bangunan,Toko Eka Mandiri,"Kaper , Rt 010/Rw 005 , Golo Bilas, Labuan Bajo, Kec. Komodo, Kabupaten Manggarai Barat, Nusa Tenggara Tim. 86711","Rt 010/Rw 005 , Golo Bilas, Labuan Bajo, Kec. Komodo, Kabupaten Manggarai Barat",NUSA TENGGARA TIMUR,86711.0,Indonesia, 085228334545,,,-8.5292227,119.8923195,https://maps.google.com/?cid=0x0:0xdd0705212f92debf,
building materials,Toko Bahan Bangunan,Bajo bangunan,"Jl. Trans Flores, pasar baru, Labuan bajo, Kabupaten Manggarai Barat, Nusa Tenggara Tim.","Kabupaten Manggarai Barat, Nusa Tenggara Tim.",NUSA TENGGARA TIMUR,,Indonesia, 085739801738,,,-8.5075413,119.886178,https://maps.google.com/?cid=0x0:0x1815a9647f3c91c0,
building materials,Tujuan Wisata,Air Terjun Cunca Wulang,"FX3V+XH4, Pota Wangka, Kec. Boleng, Kabupaten Manggarai Barat, Nusa Tenggara Tim.","Kabupaten Manggarai Barat, Nusa Tenggara Tim.",NUSA TENGGARA TIMUR,,Indonesia,,,,-8.545106,119.9939394,https://maps.google.com/?cid=0x0:0x1fa5d1fccff8ed94,
building materials,building materials,Mbeliling Mountain Ecolodge,"CX6P+XC3, Tondong Belang, Kec. Sano Nggoang, Kabupaten Manggarai Barat, Nusa Tenggara Tim.","Kabupaten Manggarai Barat, Nusa Tenggara Tim.",NUSA TENGGARA TIMUR,,Indonesia, 085338275893,,,-8.5897309,119.986732,https://maps.google.com/?cid=0x0:0xad6dc685d175d1a9,
building materials,Penyiar Radio,"Bandara Internasional Komodo, Labuan Bajo","Labuan Bajo, Kec. Komodo, Kabupaten Manggarai Barat, Nusa Tenggara Tim.","Kabupaten Manggarai Barat, Nusa Tenggara Tim.",NUSA TENGGARA TIMUR,,Indonesia,,,,-8.488846,119.8871342,https://maps.google.com/?cid=0x0:0x65f416d9240eb787,
building materials,Toko Bahan Bangunan,Toko Bangunan Indo Jaya,"FVWQ+2FW, Unnamed Road, Goron Talo, Kec. Komodo, Kabupaten Manggarai Barat, Nusa Tenggara Tim.","Kabupaten Manggarai Barat, Nusa Tenggara Tim.",NUSA TENGGARA TIMUR,,Indonesia,,,,-8.5048875,119.8887031,https://maps.google.com/?cid=0x0:0x6bdc23425b068ec8,
building materials,Pemasok Bahan Bangunan,Bajo Sinar Bangunan,"Jalan Sernaru, Wae Kelambu, Labuan bajo, Kabupaten Manggarai Barat, Nusa Tenggara Tim.","Kabupaten Manggarai Barat, Nusa Tenggara Tim.",NUSA TENGGARA TIMUR,,Indonesia, 082322186283,,,-8.5024093,119.8993792,https://maps.google.com/?cid=0x0:0xa6cd908358e6c793,
building materials,Pemasok Bahan Bangunan,LOGAM BANGUNAN,"FVVM+CW5 NO WA OI54O54249, Goron Talo, Kec. Komodo, Kabupaten Manggarai Barat, Nusa Tenggara Tim.","Kabupaten Manggarai Barat, Nusa Tenggara Tim.",NUSA TENGGARA TIMUR,,Indonesia, 081287755615,,,-8.5064875,119.8848594,https://maps.google.com/?cid=0x0:0xe96ed0fb3c9d19c4,
building materials,Layanan Rental Alat,SEWA ALAT BERAT DAN MATERIAL LOKAL,"Kaper, Labuanbajo - Bima, Malawatar, Labuan bajo, Kabupaten Manggarai Barat, Nusa Tenggara Tim.","Kabupaten Manggarai Barat, Nusa Tenggara Tim.",NUSA TENGGARA TIMUR,,Indonesia, 081236092077,,,-8.5099067,119.8872059,https://maps.google.com/?cid=0x0:0xa21fec4ee3110005,
building materials,Toko Bahan Bangunan,Centralays Labuan Bajo,"Jl. Serenaru, Wae Kelambu, Kec. Komodo, Kabupaten Manggarai Barat, Nusa Tenggara Tim.","Kabupaten Manggarai Barat, Nusa Tenggara Tim.",NUSA TENGGARA TIMUR,,Indonesia,,,,-8.505503,119.9011674,https://maps.google.com/?cid=0x0:0x5cb8a184e1d6666c,
building materials,Toko Bahan Bangunan,TIGALIMA,"Jl. Waemata, Labuan Bajo, Kec. Komodo, Kabupaten Manggarai Barat, Nusa Tenggara Tim. 86754","Labuan Bajo, Kec. Komodo, Kabupaten Manggarai Barat",NUSA TENGGARA TIMUR,86754.0,Indonesia, 081380218869,,,-8.5047641,119.888216,https://maps.google.com/?cid=0x0:0xcfa986ebd44e732a,
building materials,Toko,Toko Anugrah Kaca,"FVVP+9CV, Goron Talo, Kec. Komodo, Kabupaten Manggarai Barat, Nusa Tenggara Tim.","Kabupaten Manggarai Barat, Nusa Tenggara Tim.",NUSA TENGGARA TIMUR,,Indonesia, 038541449,,,-8.5065175,119.886048,https://maps.google.com/?cid=0x0:0xb8d60e7d5bc1e348,
building materials,Toko Bahan Bangunan,CV Artha Niaga Gemilang (Toko Hasil),"Komplek PLN, Jl. Soekarno Hatta NO WA, RT.OI54O54-249, Labuan Bajo, Kec. Komodo, Kabupaten Manggarai Barat, Nusa Tenggara Tim. 86754","Jl. Soekarno Hatta NO WA, RT.OI54O54-249, Labuan Bajo, Kec. Komodo, Kabupaten Manggarai Barat",NUSA TENGGARA TIMUR,86754.0,Indonesia, 081332203063,,,-8.5046695,119.8838498,https://maps.google.com/?cid=0x0:0xd682e13b13f89319,
building materials,building materials,PT Btari Cakra Floresindo (BCF),"CWCP+XGW, Watu Nggelek, Kec. Komodo, Kabupaten Manggarai Barat, Nusa Tenggara Tim.","Kabupaten Manggarai Barat, Nusa Tenggara Tim.",NUSA TENGGARA TIMUR,,Indonesia,,,,-8.5775014,119.936334,https://maps.google.com/?cid=0x0:0x37d50367bae0866e,
building improvement,Pembangunan Perumahan,Kampung pandang,"J5XJ+82J, Bari, Kec. Macang Pacar, Kabupaten Manggarai Barat, Nusa Tenggara Tim.","Kabupaten Manggarai Barat, Nusa Tenggara Tim.",NUSA TENGGARA TIMUR,,Indonesia,,,,-8.3516619,120.180014,https://maps.google.com/?cid=0x0:0xa9f84eb3ea42c6fd,
building improvement,Perumahan,Kampung Nggoang,"F54M+RV, Compang, Kec. Macang Pacar, Kabupaten Manggarai Barat, Nusa Tenggara Tim.","Kabupaten Manggarai Barat, Nusa Tenggara Tim.",NUSA TENGGARA TIMUR,,Indonesia,,,,-8.5428862,120.1846267,https://maps.google.com/?cid=0x0:0xbdf3a90635912dc6,
building improvement,building improvement,Kec. Macang Pacar,"Kabupaten Manggarai Barat, Nusa Tenggara Tim.","Kabupaten Manggarai Barat, Nusa Tenggara Tim.",NUSA TENGGARA TIMUR,,Indonesia,,,,-8.4349594,120.2725372,https://maps.google.com/?cid=0x0:0xb9473d35b1b4ecc9,
building improvement,building improvement,Cowang,"G55V+2C8, Pacar, Kec. Macang Pacar, Kabupaten Manggarai Barat, Nusa Tenggara Tim.","Kabupaten Manggarai Barat, Nusa Tenggara Tim.",NUSA TENGGARA TIMUR,,Indonesia,,,,-8.4924718,120.1935663,https://maps.google.com/?cid=0x0:0xff897ae4f9f51d64,
building improvement,Apotek,Cian Home,"J7H2+5RQ, Mbakung, Kec. Macang Pacar, Kabupaten Manggarai Barat, Nusa Tenggara Tim.","Kabupaten Manggarai Barat, Nusa Tenggara Tim.",NUSA TENGGARA TIMUR,,Indonesia,,,,-8.3720308,120.2521027,https://maps.google.com/?cid=0x0:0xfbc412454f5e8deb,
building improvement,building improvement,Nusantara Holdings,"Jl. Waenahi Atas, RT.019/RW.003, Wae Kelambu, Kec. Komodo, Kabupaten Manggarai Barat, Nusa Tenggara Tim. 86763","RT.019/RW.003, Wae Kelambu, Kec. Komodo, Kabupaten Manggarai Barat",NUSA TENGGARA TIMUR,86763.0,Indonesia, 085338392407,,,-8.5094761,119.8960033,https://maps.google.com/?cid=0x0:0x2ae3f9d544e13125,
building improvement,building improvement,Wisma,"J5VC+9FQ, Bari, Kec. Macang Pacar, Kabupaten Manggarai Barat, Nusa Tenggara Tim.","Kabupaten Manggarai Barat, Nusa Tenggara Tim.",NUSA TENGGARA TIMUR,,Indonesia,,,,-8.355619,120.17078,https://maps.google.com/?cid=0x0:0xcc29655bfa151ec3,
building improvement,Pertanian,Uma bang dyn,"H4MG+X8V, Nanga Ktr., Kec. Macang Pacar, Kabupaten Manggarai Barat, Nusa Tenggara Tim.","Kabupaten Manggarai Barat, Nusa Tenggara Tim.",NUSA TENGGARA TIMUR,,Indonesia,,,,-8.4147458,120.1265301,https://maps.google.com/?cid=0x0:0xbfa25d3f6d00e12f,
building improvement,Komplek perumahan,Pateng,"J74F+RJQ, Wontong, Kec. Macang Pacar, Kabupaten Manggarai Barat, Nusa Tenggara Tim.","Kabupaten Manggarai Barat, Nusa Tenggara Tim.",NUSA TENGGARA TIMUR,,Indonesia,,,,-8.3949332,120.2733311,https://maps.google.com/?cid=0x0:0x2fafc248552bdd0a,
building improvement,Perhimpunan Pengembang Perumahan,"Helung,kec.macang pacar,kabupaten Manggarai barat","H78F+227, Helung, Kec. Macang Pacar, Kabupaten Manggarai Barat, Nusa Tenggara Tim.","Kabupaten Manggarai Barat, Nusa Tenggara Tim.",NUSA TENGGARA TIMUR,,Indonesia,,,,-8.4349594,120.2725372,https://maps.google.com/?cid=0x0:0x18fb389b4a6df67a,
building improvement,Pemakaman,Kompleks korap muda~(KKM),"C5XV+MCP, Compang, Kec. Macang Pacar, Kabupaten Manggarai Barat, Nusa Tenggara Tim.","Kabupaten Manggarai Barat, Nusa Tenggara Tim.",NUSA TENGGARA TIMUR,,Indonesia,,,,-8.5507883,120.1935663,https://maps.google.com/?cid=0x0:0xddb984b9d86d13a6,
building improvement,Tempat Parkir,Pertigaan Deker,"F58P+CG2, Unnamed Road, Compang, Kec. Macang Pacar, Kabupaten Manggarai Barat, Nusa Tenggara Tim.","Kabupaten Manggarai Barat, Nusa Tenggara Tim.",NUSA TENGGARA TIMUR,,Indonesia,,,,-8.533993,120.18626,https://maps.google.com/?cid=0x0:0xf30cc75e290006b3,
building improvement,building improvement,Kec. Kuwus,"Kabupaten Manggarai Barat, Nusa Tenggara Tim.","Kabupaten Manggarai Barat, Nusa Tenggara Tim.",NUSA TENGGARA TIMUR,,Indonesia,,,,-8.58661,120.2649221,https://maps.google.com/?cid=0x0:0x20bc20e16a7cc39a,
building improvement,building improvement,Kecamatan Lembor,"Kabupaten Manggarai Barat, Nusa Tenggara Tim.","Kabupaten Manggarai Barat, Nusa Tenggara Tim.",NUSA TENGGARA TIMUR,,Indonesia,,,,-8.7081253,120.1677018,https://maps.google.com/?cid=0x0:0xd449d3835f0762cf,
building improvement,Agen Properti,"Constructa Builders Lembong House, Complex Asem Dua 60","Jl. Asem II No.60 11, RT.15/RW.3, Cipete Sel., Kec. Cilandak, Kota Jakarta Selatan, Daerah Khusus Ibukota Jakarta 12410","RT.15/RW.3, Cipete Sel., Kec. Cilandak, Kota Jakarta Selatan",NUSA TENGGARA TIMUR,12410.0,Indonesia, 0217980239,,,-6.274023,106.8044204,https://maps.google.com/?cid=0x0:0xadd75e6b2e1b5f01,
building improvement,Perusahaan Manajemen Properti,"Constructa Builders Lembong House, Complex Kemang timur V no.25","no Jl. Duren Bangka No.25 2, RT.2/RW.2, Duren Tiga, Kec. Pancoran, Kota Jakarta Selatan, Daerah Khusus Ibukota Jakarta 12760","RT.2/RW.2, Duren Tiga, Kec. Pancoran, Kota Jakarta Selatan",NUSA TENGGARA TIMUR,12760.0,Indonesia, 0217980240,,,-6.2603985,106.826635,https://maps.google.com/?cid=0x0:0xc35fb16107906203,
building improvement,Perusahaan Manajemen Properti,Constructa Builders Office,"Jl. Duren Bangka No.30A 9, RT.9/RW.1, Duren Tiga, Kec. Pancoran, Kota Jakarta Selatan, Daerah Khusus Ibukota Jakarta 12760","RT.9/RW.1, Duren Tiga, Kec. Pancoran, Kota Jakarta Selatan",NUSA TENGGARA TIMUR,12760.0,Indonesia, 0217980240,,,-6.2582767,106.8258003,https://maps.google.com/?cid=0x0:0x2d89e575f8794788,
building improvement,Komplek perumahan,"Constructa Builders Lembong House, Complex Pejaten Barat 11","Jl. Pejaten Barat Raya No.11, RT.8/RW.10, Ragunan, Ps. Minggu, Kota Jakarta Selatan, Daerah Khusus Ibukota Jakarta 12540","RT.8/RW.10, Ragunan, Ps. Minggu, Kota Jakarta Selatan",NUSA TENGGARA TIMUR,12540.0,Indonesia, 0217980239,,,-6.2796547,106.822653,https://maps.google.com/?cid=0x0:0x5a046920735aeec6,
building improvement,Perusahaan Manajemen Properti,Constructa,"Jl. Kemang Timur V No.30-A 7, RT.7/RW.4, Bangka, Kec. Mampang Prpt., Kota Jakarta Selatan, Daerah Khusus Ibukota Jakarta 12730","RT.7/RW.4, Bangka, Kec. Mampang Prpt., Kota Jakarta Selatan",NUSA TENGGARA TIMUR,12730.0,Indonesia, 0217981463,,,-6.2603005,106.824045,https://maps.google.com/?cid=0x0:0x51aee23376177624,
building improvement,building improvement,Kec. Sano Nggoang,"Kabupaten Manggarai Barat, Nusa Tenggara Tim.","Kabupaten Manggarai Barat, Nusa Tenggara Tim.",NUSA TENGGARA TIMUR,,Indonesia,,,,-8.6504359,120.0088957,https://maps.google.com/?cid=0x0:0xbdd044f0cd4c82fb,
building improvement,Tujuan Wisata,Danau Sano Nggoang,"7XQR+P78 Nunang, Desa, Wae Sano, Kec. Sano Nggoang, Kabupaten Manggarai Barat, Nusa Tenggara Tim.","Kabupaten Manggarai Barat, Nusa Tenggara Tim.",NUSA TENGGARA TIMUR,,Indonesia,,,,-8.710706,119.9907134,https://maps.google.com/?cid=0x0:0xb086dd945f2177a0,
building improvement,building improvement,Rumah inci,"8WXW+76, Golo Manting, Kec. Sano Nggoang, Kabupaten Manggarai Barat, Nusa Tenggara Tim.","Kabupaten Manggarai Barat, Nusa Tenggara Tim.",NUSA TENGGARA TIMUR,,Indonesia,,,,-8.651758,119.9455088,https://maps.google.com/?cid=0x0:0xd8c44b1ed6e5ed47,
building improvement,Perhimpunan Pengembang Perumahan,Nggodo,"8WJP+74R, Golo Manting, Kec. Sano Nggoang, Kabupaten Manggarai Barat, Nusa Tenggara Tim.","Kabupaten Manggarai Barat, Nusa Tenggara Tim.",NUSA TENGGARA TIMUR,,Indonesia,,,,-8.6692604,119.9352587,https://maps.google.com/?cid=0x0:0x517fcaef995ad602,
building improvement,building improvement,Kec. Komodo,"Kabupaten Manggarai Barat, Nusa Tenggara Tim.","Kabupaten Manggarai Barat, Nusa Tenggara Tim.",NUSA TENGGARA TIMUR,,Indonesia,,,,-8.4925531,119.8773157,https://maps.google.com/?cid=0x0:0x38d588e19e673c08,
building improvement,building improvement,Pulau Komodo,"Komodo, Kec. Komodo, Kabupaten Manggarai Barat, Nusa Tenggara Tim.","Kabupaten Manggarai Barat, Nusa Tenggara Tim.",NUSA TENGGARA TIMUR,,Indonesia,,,,-8.5850461,119.4411476,https://maps.google.com/?cid=0x0:0x62b9b2c3feba412,
building improvement,Perencana pameran,IndoBuildTech Expo,"OFFICE BUILDING) G9 Building, Jl. KH Abdullah Syafei No.9 13, RT.13/RW.5, Bukit Duri, Kec. Tebet, Kota Jakarta Selatan, Daerah Khusus Ibukota Jakarta 12840","Jl. KH Abdullah Syafei No.9 13, RT.13/RW.5, Bukit Duri, Kec. Tebet, Kota Jakarta Selatan",NUSA TENGGARA TIMUR,12840.0,Indonesia, 02183797401,,,-6.2245235,106.8538253,https://maps.google.com/?cid=0x0:0x4d385a1c97d92509,
building improvement,building improvement,Jl. Komodo,"Jatibening, Kec. Pd. Gede, Kota Bks, Jawa Barat","Kota Bks, Jawa Barat",NUSA TENGGARA TIMUR,,Indonesia,,,,-6.26884,106.94712,https://maps.google.com/?cid=0x0:0x55c3ee20bdf348cb,
building improvement,building improvement,Boleng,"Waijarang, Kec. Nubatukan, Kabupaten Lembata, Nusa Tenggara Tim.","Kabupaten Lembata, Nusa Tenggara Tim.",NUSA TENGGARA TIMUR,,Indonesia,,,,-8.409525,123.345529,https://maps.google.com/?cid=0x0:0xffc7a39d57efdaaf,
building improvement,building improvement,Kec. Tebet,"Kota Jakarta Selatan, Daerah Khusus Ibukota Jakarta","Kota Jakarta Selatan, Daerah Khusus Ibukota Jakarta",NUSA TENGGARA TIMUR,,Indonesia,,,,-6.2251223,106.8549881,https://maps.google.com/?cid=0x0:0xd575e31c807295f9,
building improvement,building improvement,Kec. Welak,"Kabupaten Manggarai Barat, Nusa Tenggara Tim.","Kabupaten Manggarai Barat, Nusa Tenggara Tim.",NUSA TENGGARA TIMUR,,Indonesia,,,,-8.6284325,120.1747836,https://maps.google.com/?cid=0x0:0x9d0199762a8049e0,
building improvement,Kantor Pemerintah,Lembaga Kebijakan Pengadaan Barang/Jasa Pemerintah,"Kompleks Rasuna Epicentrum, Jalan Epicentrum Tengah Lot 11 B, RT.2/RW.5, Karet Kuningan, Kecamatan Setiabudi, Kota Jakarta Selatan, Daerah Khusus Ibukota Jakarta 12940","Jalan Epicentrum Tengah Lot 11 B, RT.2/RW.5, Karet Kuningan, Kecamatan Setiabudi, Kota Jakarta Selatan",NUSA TENGGARA TIMUR,12940.0,Indonesia, 02129935577,,,-6.2167542,106.8333046,https://maps.google.com/?cid=0x0:0x7567dbac7e5450ee,
building improvement,Kantor Perusahaan,PT. Wilo Pumps Indonesia,"Jl. Yos Sudarso Kav 85, RT.9/RW.11, Sunter Jaya, Kec. Tj. Priok, Jkt Utara, Daerah Khusus Ibukota Jakarta 14350","RT.9/RW.11, Sunter Jaya, Kec. Tj. Priok, Jkt Utara",NUSA TENGGARA TIMUR,14350.0,Indonesia, 02121882328,,,-6.152067,106.8861419,https://maps.google.com/?cid=0x0:0x5402aaa18a57ca92,
building improvement,Komplek perumahan,PT. AKAS,"85G5+FR, Golo Ronggot, Kec. Welak, Kabupaten Manggarai Barat, Nusa Tenggara Tim.","Kabupaten Manggarai Barat, Nusa Tenggara Tim.",NUSA TENGGARA TIMUR,,Indonesia,,,,-8.6737872,120.1596017,https://maps.google.com/?cid=0x0:0xc4467443d727e0e7,
building improvement,Perumahan,Jual beli rumah,"Perumahan cileungsi hijau blok m3 no 16, Cileungsi, Kec. Cileungsi, Kabupaten Bogor, Jawa Barat 16820","Cileungsi, Kec. Cileungsi, Kabupaten Bogor",NUSA TENGGARA TIMUR,16820.0,Indonesia, 08128348275,,,-6.4022718,106.9704941,https://maps.google.com/?cid=0x0:0xb8abf9f2df3b9038,
building improvement,Komplek perumahan,Tuwa,"84PP+87, Golo Ronggot, Kec. Welak, Kabupaten Manggarai Barat, Nusa Tenggara Tim.","Kabupaten Manggarai Barat, Nusa Tenggara Tim.",NUSA TENGGARA TIMUR,,Indonesia, 081323401541,,,-8.6636572,120.1385994,https://maps.google.com/?cid=0x0:0xda564caf3ec8ac08,
building improvement,Perusahaan Konstruksi,PT Anugrah Nuansa Kasih,"CWR7+9C, Nggorang, Kec. Komodo, Kabupaten Manggarai Barat, Nusa Tenggara Tim.","Kabupaten Manggarai Barat, Nusa Tenggara Tim.",NUSA TENGGARA TIMUR,,Indonesia,,,,-8.559083,119.9135265,https://maps.google.com/?cid=0x0:0x45ef2e395d451316,
building improvement,Komplek perumahan,HARMONI PRIMAVERA,"Bojong, Kec. Klapanunggal, Kabupaten Bogor, Jawa Barat 16830","Kec. Klapanunggal, Kabupaten Bogor",NUSA TENGGARA TIMUR,16830.0,Indonesia, 081218979189,,,-6.457006,107.0025991,https://maps.google.com/?cid=0x0:0x38bd3160064e910c,
building improvement,building improvement,Ndoso,"Ndoso, Kec. Ndoso, Kabupaten Manggarai Barat, Nusa Tenggara Tim.","Kabupaten Manggarai Barat, Nusa Tenggara Tim.",NUSA TENGGARA TIMUR,,Indonesia,,,,-8.5040549,120.320396,https://maps.google.com/?cid=0x0:0xa13f0de10f2802b2,
building improvement,building improvement,Kec. Tebet,"Kota Jakarta Selatan, Daerah Khusus Ibukota Jakarta","Kota Jakarta Selatan, Daerah Khusus Ibukota Jakarta",NUSA TENGGARA TIMUR,,Indonesia,,,,-6.2251223,106.8549881,https://maps.google.com/?cid=0x0:0xd575e31c807295f9,
building improvement,building improvement,Kec. Ndoso,"Kabupaten Manggarai Barat, Nusa Tenggara Tim.","Kabupaten Manggarai Barat, Nusa Tenggara Tim.",NUSA TENGGARA TIMUR,,Indonesia,,,,-8.5069293,120.3480058,https://maps.google.com/?cid=0x0:0xca518446797ad865,
building improvement,building improvement,Kec. Lembor Selatan,"Kabupaten Manggarai Barat, Nusa Tenggara Tim.","Kabupaten Manggarai Barat, Nusa Tenggara Tim.",NUSA TENGGARA TIMUR,,Indonesia,,,,-8.7739706,120.1323197,https://maps.google.com/?cid=0x0:0x5bb218ae172463d2,
building improvement,building improvement,Kec. Mbeliling,"Kabupaten Manggarai Barat, Nusa Tenggara Tim.","Kabupaten Manggarai Barat, Nusa Tenggara Tim.",NUSA TENGGARA TIMUR,,Indonesia,,,,-8.6128114,120.0597179,https://maps.google.com/?cid=0x0:0x46c9c4828bf6f8cf,
hardware store,Toko,Toko Mini Central Bangunan- Pit Abat-Herang Pacar,"G53W+W8, Pacar, Kec. Macang Pacar, Kabupaten Manggarai Barat, Nusa Tenggara Tim.","Kabupaten Manggarai Barat, Nusa Tenggara Tim.",NUSA TENGGARA TIMUR,,Indonesia, 081338660719,,,-8.4952374,120.1958268,https://maps.google.com/?cid=0x0:0xaed52134929ff94c,
hardware store,Toko Perlengkapan Rumah,Bagus Bangunan  minimart,"747V+WJJ Bagus mart, jln ruteng, labuan bajo, Kecamatan Lembor, Kabupaten Manggarai Barat, Nusa Tenggara Tim.","Kabupaten Manggarai Barat, Nusa Tenggara Tim.",NUSA TENGGARA TIMUR,,Indonesia,,,,-8.7351516,120.1440286,https://maps.google.com/?cid=0x0:0x92a365e35efbb901,
hardware store,hardware store,Kec. Macang Pacar,"Kabupaten Manggarai Barat, Nusa Tenggara Tim.","Kabupaten Manggarai Barat, Nusa Tenggara Tim.",NUSA TENGGARA TIMUR,,Indonesia,,,,-8.4349594,120.2725372,https://maps.google.com/?cid=0x0:0xb9473d35b1b4ecc9,
hardware store,hardware store,SMAN 2 Macang Pacar,"F682+WJM, Unnamed Road, Compang, Kec. Macang Pacar, Kabupaten Manggarai Barat, Nusa Tenggara Tim.","Kabupaten Manggarai Barat, Nusa Tenggara Tim.",NUSA TENGGARA TIMUR,,Indonesia,,,,-8.5326646,120.2015496,https://maps.google.com/?cid=0x0:0xc8054cc297a8d2f0,
hardware store,hardware store,Kec. Kuwus,"Kabupaten Manggarai Barat, Nusa Tenggara Tim.","Kabupaten Manggarai Barat, Nusa Tenggara Tim.",NUSA TENGGARA TIMUR,,Indonesia,,,,-8.58661,120.2649221,https://maps.google.com/?cid=0x0:0x20bc20e16a7cc39a,
hardware store,Toko,Ud Felice,"Lalo Daleng Lembor, Jl. Ruteng-Labuan Bajo, Kecamatan Lembor, Kabupaten Manggarai Barat, Nusa Tenggara Tim. 86753","Jl. Ruteng-Labuan Bajo, Kecamatan Lembor, Kabupaten Manggarai Barat",NUSA TENGGARA TIMUR,86753.0,Indonesia,,,,-8.6923786,120.2146413,https://maps.google.com/?cid=0x0:0x585b55173a12171a,
hardware store,hardware store,Kecamatan Lembor,"Kabupaten Manggarai Barat, Nusa Tenggara Tim.","Kabupaten Manggarai Barat, Nusa Tenggara Tim.",NUSA TENGGARA TIMUR,,Indonesia,,,,-8.7081253,120.1677018,https://maps.google.com/?cid=0x0:0xd449d3835f0762cf,
hardware store,hardware store,Toko Kalma Mart,"Hutan Ampupu Kalamada dekat Warung, Wae Bangka, Kecamatan Lembor, Kabupaten Manggarai Barat, Nusa Tenggara Tim. 86753","Wae Bangka, Kecamatan Lembor, Kabupaten Manggarai Barat",NUSA TENGGARA TIMUR,86753.0,Indonesia, 082245659047,,,-8.6818552,120.3199684,https://maps.google.com/?cid=0x0:0x84cae70cf153f2d7,
hardware store,Toko Alat Dapur,Toko Al Amin (Alat Tukang),"75R9+R3Q, Tangge, Kecamatan Lembor, Kabupaten Manggarai Barat, Nusa Tenggara Tim.","Kabupaten Manggarai Barat, Nusa Tenggara Tim.",NUSA TENGGARA TIMUR,,Indonesia, 085236298294,,,-8.7079092,120.1677416,https://maps.google.com/?cid=0x0:0xa4a954f25c369e40,
hardware store,hardware store,Toko Alat Tulis,"Tangge, Kecamatan Lembor, Kabupaten Manggarai Barat, Nusa Tenggara Tim. 86753","Kecamatan Lembor, Kabupaten Manggarai Barat",NUSA TENGGARA TIMUR,86753.0,Indonesia, 082242777881,,,-8.7512996,120.1317249,https://maps.google.com/?cid=0x0:0x73eb5f574c057283,
hardware store,Kios,Ud Dirgahayu lembor,"75VC+43P, Jl. Ruteng, Tangge, Kecamatan Lembor, Kabupaten Manggarai Barat, Nusa Tenggara Tim.","Kabupaten Manggarai Barat, Nusa Tenggara Tim.",NUSA TENGGARA TIMUR,,Indonesia,,,,-8.7071812,120.1701848,https://maps.google.com/?cid=0x0:0x6702d897e0b74b38,
hardware store,hardware store,U.D. Vigo Pigfeed And General Hardware Store,"75R9+F36, Tangge, Kecamatan Lembor, Kabupaten Manggarai Barat, Nusa Tenggara Tim.","Kabupaten Manggarai Barat, Nusa Tenggara Tim.",NUSA TENGGARA TIMUR,,Indonesia,,,,-8.708828,120.1676459,https://maps.google.com/?cid=0x0:0xaa897d189a9ad00b,
hardware store,hardware store,Kec. Sano Nggoang,"Kabupaten Manggarai Barat, Nusa Tenggara Tim.","Kabupaten Manggarai Barat, Nusa Tenggara Tim.",NUSA TENGGARA TIMUR,,Indonesia,,,,-8.6504359,120.0088957,https://maps.google.com/?cid=0x0:0xbdd044f0cd4c82fb,
hardware store,hardware store,TIMUR TERANG ABADI TK.,"Merombok, Golo Bilas, Labuan Bajo, Kabupaten Manggarai Barat, Nusa Tenggara Tim. 86763","Golo Bilas, Labuan Bajo, Kabupaten Manggarai Barat",NUSA TENGGARA TIMUR,86763.0,Indonesia, 082234230955,,,-8.5379401,119.8935438,https://maps.google.com/?cid=0x0:0x3dad0528092a247c,
hardware store,hardware store,Nusa Tenggara Tim.,,Nusa Tenggara Tim.,NUSA TENGGARA TIMUR,,Indonesia,,,,-8.6573819,121.0793705,https://maps.google.com/?cid=0x0:0x1030bfbcaf71ae0,
hardware store,Toko Perlengkapan Rumah,MR. DIY LABUAN BAJO KOMODO,"Jl. Frans Nala, Batu Cermin, Kec. Komodo, Kabupaten Manggarai Barat, Nusa Tenggara Tim.","Kabupaten Manggarai Barat, Nusa Tenggara Tim.",NUSA TENGGARA TIMUR,,Indonesia, 087874477365,,,-8.4895944,119.8955064,https://maps.google.com/?cid=0x0:0x853c1884d0dca36d,
hardware store,Toko Bahan Bangunan,Bintang Bangunan,"Jl. Wae Mata RT/RW 003/002, Labuan Bajo, Komodo, West Manggarai Regency, East Nusa Tenggara","Kabupaten Manggarai Barat, Nusa Tenggara Tim.",NUSA TENGGARA TIMUR,,Indonesia, 081238189013,,,-8.500458,119.8913878,https://maps.google.com/?cid=0x0:0x31574b9f37f65560,
hardware store,Toko Elektronik,Bajo Elektronik,"GV3R+67, Wae Kelambu, Kec. Komodo, Kabupaten Manggarai Barat, Nusa Tenggara Tim.","Kabupaten Manggarai Barat, Nusa Tenggara Tim.",NUSA TENGGARA TIMUR,,Indonesia, 081236840218,,,-8.4970128,119.8907068,https://maps.google.com/?cid=0x0:0xac7e42b1a77d17ed,
hardware store,Toko Swalayan,Toko MAJU 2,"Goron Talo, Kec. Komodo, Kabupaten Manggarai Barat, Nusa Tenggara Tim.","Kabupaten Manggarai Barat, Nusa Tenggara Tim.",NUSA TENGGARA TIMUR,,Indonesia,,,,-8.4970162,119.8848603,https://maps.google.com/?cid=0x0:0x2b81b8d1549d274d,
hardware store,Toko Elektronik,UD Jaya Teknik Labuan Bajo,"GV2V+RF2, Jl. Pius Papu, Wae Kelambu, Kec. Komodo, Kabupaten Manggarai Barat, Nusa Tenggara Tim.","Kabupaten Manggarai Barat, Nusa Tenggara Tim.",NUSA TENGGARA TIMUR,,Indonesia,,,,-8.4979855,119.8936273,https://maps.google.com/?cid=0x0:0xb91c9f7bafb0f99d,
hardware store,Toko Elektronik,Pagi elektronik labuan bajo,"FVWP+J3H, Goron Talo, Kec. Komodo, Kabupaten Manggarai Barat, Nusa Tenggara Tim.","Kabupaten Manggarai Barat, Nusa Tenggara Tim.",NUSA TENGGARA TIMUR,,Indonesia,,,,-8.5034273,119.8852255,https://maps.google.com/?cid=0x0:0x8b08e2ea5efd4e18,
hardware store,Toko Komputer,Maxcomp,"jl. Rokus Rewos , komples ruko pemda no.8 (depan polres Mabar, Labuan Bajo, Kec. Komodo, Kabupaten Manggarai Barat, Nusa Tenggara Tim. 86754","komples ruko pemda no.8 (depan polres Mabar, Labuan Bajo, Kec. Komodo, Kabupaten Manggarai Barat",NUSA TENGGARA TIMUR,86754.0,Indonesia, 081236661926,,,-8.4921381,119.8950601,https://maps.google.com/?cid=0x0:0xf0358865f7f98290,
hardware store,Toko Elektronik,UD. Felindo Jaya,"FVXX+3J7, Unnamed Road, Wae Kelambu, Kec. Komodo, Kabupaten Manggarai Barat, Nusa Tenggara Tim.","Kabupaten Manggarai Barat, Nusa Tenggara Tim.",NUSA TENGGARA TIMUR,,Indonesia,,,,-8.5023479,119.8990335,https://maps.google.com/?cid=0x0:0x661a8dc1d89e70f2,
hardware store,Toko Perlengkapan Rumah,Tokojayarayalabuanbajo,"Jl. Waemata, Labuan Bajo, Kec. Komodo, Kabupaten Manggarai Barat, Nusa Tenggara Tim.","Kabupaten Manggarai Barat, Nusa Tenggara Tim.",NUSA TENGGARA TIMUR,,Indonesia, 081236326645,,,-8.5011167,119.8895874,https://maps.google.com/?cid=0x0:0x7d61ff245841d945,
hardware store,Toko Ponsel,Ascha Cell,"GV2J+3Q6, Goron Talo, Kec. Komodo, Kabupaten Manggarai Barat, Nusa Tenggara Tim.","Kabupaten Manggarai Barat, Nusa Tenggara Tim.",NUSA TENGGARA TIMUR,,Indonesia, 081353853634,,,-8.4998263,119.8818853,https://maps.google.com/?cid=0x0:0x22676d4072d09f05,
hardware store,Toko Elektronik,Toko Galaxy,"GV4H+796, Labuan Bajo, Kec. Komodo, Kabupaten Manggarai Barat, Nusa Tenggara Tim.","Kabupaten Manggarai Barat, Nusa Tenggara Tim.",NUSA TENGGARA TIMUR,,Indonesia,,,,-8.4943426,119.8783751,https://maps.google.com/?cid=0x0:0x16be2ba727b7dcb6,
hardware store,Agen Properti,Jual beli barang,"Tondong Raja, Labuan Bajo, Kec. Komodo, Kabupaten Manggarai Barat, Nusa Tenggara Tim.","Kabupaten Manggarai Barat, Nusa Tenggara Tim.",NUSA TENGGARA TIMUR,,Indonesia, 081237025139,,,-8.4538484,119.8728421,https://maps.google.com/?cid=0x0:0x23d7e50c3fc3aa80,
hardware store,Toko Alat Dapur,Toko Al Amin (Alat Tukang),"75R9+R3Q, Tangge, Kecamatan Lembor, Kabupaten Manggarai Barat, Nusa Tenggara Tim.","Kabupaten Manggarai Barat, Nusa Tenggara Tim.",NUSA TENGGARA TIMUR,,Indonesia, 085236298294,,,-8.7079092,120.1677416,https://maps.google.com/?cid=0x0:0xa4a954f25c369e40,
hardware store,Pusat Perbelanjaan,Toko listrik/saudara cancar,"Wae Belang, Kec. Ruteng, Kabupaten Manggarai, Nusa Tenggara Tim.","Kabupaten Manggarai, Nusa Tenggara Tim.",NUSA TENGGARA TIMUR,,Indonesia, 081212939193,,,-8.5896066,120.3798049,https://maps.google.com/?cid=0x0:0xf47bbfec84279c32,
hardware store,Toko Bahan Bangunan,Toko Mujur Abadi Labuan Bajo,"Belakang ATM BNI, NO WA OI54O54249 Jalan Pius Papu, Labuan Bajo, Kec. Komodo, Kabupaten Manggarai Barat, Nusa Tenggara Tim. 86754",Jalan Pius Papu,NUSA TENGGARA TIMUR,54249.0,Indonesia, 081398873146,,,-8.4904361,119.8946555,https://maps.google.com/?cid=0x0:0xcc09b024b790e310,
hardware store,Toko Bahan Bangunan,toko pelangi bangunan,"FVQP+VXF, Goron Talo, Kec. Komodo, Kabupaten Manggarai Barat, Nusa Tenggara Tim.","Kabupaten Manggarai Barat, Nusa Tenggara Tim.",NUSA TENGGARA TIMUR,,Indonesia, 082145627171,,,-8.5103078,119.8874183,https://maps.google.com/?cid=0x0:0x6f62dc0810d90ac8,
hardware store,hardware store,TIMUR TERANG ABADI TK.,"Merombok, Golo Bilas, Labuan Bajo, Kabupaten Manggarai Barat, Nusa Tenggara Tim. 86763","Golo Bilas, Labuan Bajo, Kabupaten Manggarai Barat",NUSA TENGGARA TIMUR,86763.0,Indonesia, 082234230955,,,-8.5379401,119.8935438,https://maps.google.com/?cid=0x0:0x3dad0528092a247c,
hardware store,Toko Perlengkapan Rumah,Mitrajaya Bangunan,"Jl. Batu Cermin No.88, Labuan Bajo, Kec. Komodo, Kabupaten Manggarai Barat, Nusa Tenggara Tim. 86754","Labuan Bajo, Kec. Komodo, Kabupaten Manggarai Barat",NUSA TENGGARA TIMUR,86754.0,Indonesia, 03852440474,,,-8.4804587,119.90029,https://maps.google.com/?cid=0x0:0x86f93ffd447674b,
hardware store,Pemasok Bahan Bangunan,Bajo Gypsum  Bangunan,"Wae Kelambu, Kec. Komodo, Kabupaten Manggarai Barat, Nusa Tenggara Tim.","Kabupaten Manggarai Barat, Nusa Tenggara Tim.",NUSA TENGGARA TIMUR,,Indonesia, 082232232663,,,-8.5050869,119.9051435,https://maps.google.com/?cid=0x0:0x24130a0a8c60014b,
hardware store,Toko Bahan Bangunan,Flores Depo Bangunan,"Jl. Trans Flores, Goron Talo, Kec. Komodo, Kabupaten Manggarai Barat, Nusa Tenggara Tim.","Kabupaten Manggarai Barat, Nusa Tenggara Tim.",NUSA TENGGARA TIMUR,,Indonesia, 081239434040,,,-8.502223,119.8825278,https://maps.google.com/?cid=0x0:0x7ddeae9ccf378db2,
hardware store,Toko Perlengkapan Rumah,Toko Tanjung,"GV3H+GMH, Labuan Bajo, Kec. Komodo, Kabupaten Manggarai Barat, Nusa Tenggara Tim.","Kabupaten Manggarai Barat, Nusa Tenggara Tim.",NUSA TENGGARA TIMUR,,Indonesia,,,,-8.4961969,119.8792241,https://maps.google.com/?cid=0x0:0x1fd0646f974044e2,
hardware store,Toko Bahan Bangunan,PT NIAGA SEJAHTERA BANGUNAN (Distributor Semen Tonasa),"Wae Kelambu, Kec. Komodo, Kabupaten Manggarai Barat, Nusa Tenggara Tim. 86711","Kec. Komodo, Kabupaten Manggarai Barat",NUSA TENGGARA TIMUR,86711.0,Indonesia, 082340069760,,,-8.4765133,119.9191795,https://maps.google.com/?cid=0x0:0xfa4518493da78c0c,
hardware store,Toko Elektronik,Toko Berkat,"GV7V+RQX, Batu Cermin, Kec. Komodo, Kabupaten Manggarai Barat, Nusa Tenggara Tim.","Kabupaten Manggarai Barat, Nusa Tenggara Tim.",NUSA TENGGARA TIMUR,,Indonesia, 081353075841,,,-8.4853953,119.8944918,https://maps.google.com/?cid=0x0:0xfbb116fc83021225,
hardware store,hardware store,Nusa Tenggara Tim.,,Nusa Tenggara Tim.,NUSA TENGGARA TIMUR,,Indonesia,,,,-8.6573819,121.0793705,https://maps.google.com/?cid=0x0:0x1030bfbcaf71ae0,
hardware store,Toko Perlengkapan Rumah,MR. DIY LABUAN BAJO KOMODO,"Jl. Frans Nala, Batu Cermin, Kec. Komodo, Kabupaten Manggarai Barat, Nusa Tenggara Tim.","Kabupaten Manggarai Barat, Nusa Tenggara Tim.",NUSA TENGGARA TIMUR,,Indonesia, 087874477365,,,-8.4895944,119.8955064,https://maps.google.com/?cid=0x0:0x853c1884d0dca36d,
hardware store,hardware store,Boleng,"Waijarang, Kec. Nubatukan, Kabupaten Lembata, Nusa Tenggara Tim.","Kabupaten Lembata, Nusa Tenggara Tim.",NUSA TENGGARA TIMUR,,Indonesia,,,,-8.409525,123.345529,https://maps.google.com/?cid=0x0:0xffc7a39d57efdaaf,
hardware store,hardware store,Kec. Tebet,"Kota Jakarta Selatan, Daerah Khusus Ibukota Jakarta","Kota Jakarta Selatan, Daerah Khusus Ibukota Jakarta",NUSA TENGGARA TIMUR,,Indonesia,,,,-6.2251223,106.8549881,https://maps.google.com/?cid=0x0:0xd575e31c807295f9,
hardware store,Agen Properti,Jual beli barang,"Tondong Raja, Labuan Bajo, Kec. Komodo, Kabupaten Manggarai Barat, Nusa Tenggara Tim.","Kabupaten Manggarai Barat, Nusa Tenggara Tim.",NUSA TENGGARA TIMUR,,Indonesia, 081237025139,,,-8.4538484,119.8728421,https://maps.google.com/?cid=0x0:0x23d7e50c3fc3aa80,
hardware store,hardware store,U.D. Vigo Pigfeed And General Hardware Store,"75R9+F36, Tangge, Kecamatan Lembor, Kabupaten Manggarai Barat, Nusa Tenggara Tim.","Kabupaten Manggarai Barat, Nusa Tenggara Tim.",NUSA TENGGARA TIMUR,,Indonesia,,,,-8.708828,120.1676459,https://maps.google.com/?cid=0x0:0xaa897d189a9ad00b,
hardware store,Toko,Ud Felice,"Lalo Daleng Lembor, Jl. Ruteng-Labuan Bajo, Kecamatan Lembor, Kabupaten Manggarai Barat, Nusa Tenggara Tim. 86753","Jl. Ruteng-Labuan Bajo, Kecamatan Lembor, Kabupaten Manggarai Barat",NUSA TENGGARA TIMUR,86753.0,Indonesia,,,,-8.6923786,120.2146413,https://maps.google.com/?cid=0x0:0x585b55173a12171a,
hardware store,Kios,Ud Dirgahayu lembor,"75VC+43P, Jl. Ruteng, Tangge, Kecamatan Lembor, Kabupaten Manggarai Barat, Nusa Tenggara Tim.","Kabupaten Manggarai Barat, Nusa Tenggara Tim.",NUSA TENGGARA TIMUR,,Indonesia,,,,-8.7071812,120.1701848,https://maps.google.com/?cid=0x0:0x6702d897e0b74b38,
hardware store,hardware store,Nusa Tenggara Tim.,,Nusa Tenggara Tim.,NUSA TENGGARA TIMUR,,Indonesia,,,,-8.6573819,121.0793705,https://maps.google.com/?cid=0x0:0x1030bfbcaf71ae0,
hardware store,Toko Bahan Bangunan,Bintang Bangunan,"Jl. Wae Mata RT/RW 003/002, Labuan Bajo, Komodo, West Manggarai Regency, East Nusa Tenggara","Kabupaten Manggarai Barat, Nusa Tenggara Tim.",NUSA TENGGARA TIMUR,,Indonesia, 081238189013,,,-8.500458,119.8913878,https://maps.google.com/?cid=0x0:0x31574b9f37f65560,
hardware store,Toko Swalayan,Toko MAJU 2,"Goron Talo, Kec. Komodo, Kabupaten Manggarai Barat, Nusa Tenggara Tim.","Kabupaten Manggarai Barat, Nusa Tenggara Tim.",NUSA TENGGARA TIMUR,,Indonesia,,,,-8.4970162,119.8848603,https://maps.google.com/?cid=0x0:0x2b81b8d1549d274d,
hardware store,Toko Elektronik,UD Jaya Teknik Labuan Bajo,"GV2V+RF2, Jl. Pius Papu, Wae Kelambu, Kec. Komodo, Kabupaten Manggarai Barat, Nusa Tenggara Tim.","Kabupaten Manggarai Barat, Nusa Tenggara Tim.",NUSA TENGGARA TIMUR,,Indonesia,,,,-8.4979855,119.8936273,https://maps.google.com/?cid=0x0:0xb91c9f7bafb0f99d,
hardware store,Toko Elektronik,Bajo Elektronik,"GV3R+67, Wae Kelambu, Kec. Komodo, Kabupaten Manggarai Barat, Nusa Tenggara Tim.","Kabupaten Manggarai Barat, Nusa Tenggara Tim.",NUSA TENGGARA TIMUR,,Indonesia, 081236840218,,,-8.4970128,119.8907068,https://maps.google.com/?cid=0x0:0xac7e42b1a77d17ed,
hardware store,Toko Elektronik,UD. Felindo Jaya,"FVXX+3J7, Unnamed Road, Wae Kelambu, Kec. Komodo, Kabupaten Manggarai Barat, Nusa Tenggara Tim.","Kabupaten Manggarai Barat, Nusa Tenggara Tim.",NUSA TENGGARA TIMUR,,Indonesia,,,,-8.5023479,119.8990335,https://maps.google.com/?cid=0x0:0x661a8dc1d89e70f2,
hardware store,Pusat Perbelanjaan,Toko listrik/saudara cancar,"Wae Belang, Kec. Ruteng, Kabupaten Manggarai, Nusa Tenggara Tim.","Kabupaten Manggarai, Nusa Tenggara Tim.",NUSA TENGGARA TIMUR,,Indonesia, 081212939193,,,-8.5896066,120.3798049,https://maps.google.com/?cid=0x0:0xf47bbfec84279c32,
hardware store,Toko Alat Dapur,Toko Al Amin (Alat Tukang),"75R9+R3Q, Tangge, Kecamatan Lembor, Kabupaten Manggarai Barat, Nusa Tenggara Tim.","Kabupaten Manggarai Barat, Nusa Tenggara Tim.",NUSA TENGGARA TIMUR,,Indonesia, 085236298294,,,-8.7079092,120.1677416,https://maps.google.com/?cid=0x0:0xa4a954f25c369e40,
hardware store,Toko Elektronik,Pagi elektronik labuan bajo,"FVWP+J3H, Goron Talo, Kec. Komodo, Kabupaten Manggarai Barat, Nusa Tenggara Tim.","Kabupaten Manggarai Barat, Nusa Tenggara Tim.",NUSA TENGGARA TIMUR,,Indonesia,,,,-8.5034273,119.8852255,https://maps.google.com/?cid=0x0:0x8b08e2ea5efd4e18,
hardware store,Kantor Perusahaan,Tehong Ndoso,"G79J+WMM, Tehong, Ndoso, Kec. Ndoso, Kabupaten Manggarai Barat, Nusa Tenggara Tim.","Kabupaten Manggarai Barat, Nusa Tenggara Tim.",NUSA TENGGARA TIMUR,,Indonesia,,,,-8.4801725,120.2816758,https://maps.google.com/?cid=0x0:0x6b00ba78f8471fa0,
hardware store,Toko Perlengkapan Rumah,Tokojayarayalabuanbajo,"Jl. Waemata, Labuan Bajo, Kec. Komodo, Kabupaten Manggarai Barat, Nusa Tenggara Tim.","Kabupaten Manggarai Barat, Nusa Tenggara Tim.",NUSA TENGGARA TIMUR,,Indonesia, 081236326645,,,-8.5011167,119.8895874,https://maps.google.com/?cid=0x0:0x7d61ff245841d945,
hardware store,Tujuan Wisata,Kantor Desa Tehong,"G8J2+J64, Tehong, Kec. Ndoso, Kabupaten Manggarai Barat, Nusa Tenggara Tim.","Kabupaten Manggarai Barat, Nusa Tenggara Tim.",NUSA TENGGARA TIMUR,,Indonesia,,,,-8.4684879,120.3005901,https://maps.google.com/?cid=0x0:0x4d7ab0f28463d05b,
hardware store,Komplek perumahan,Rumah Rain,"G7CJ+J59, TEHONG, Kec. Ndoso, Kabupaten Manggarai Barat, Nusa Tenggara Tim.","Kabupaten Manggarai Barat, Nusa Tenggara Tim.",NUSA TENGGARA TIMUR,,Indonesia,,,,-8.478411,120.2813043,https://maps.google.com/?cid=0x0:0x1856ff985aa58599,
hardware store,hardware store,Kec. Ndoso,"Kabupaten Manggarai Barat, Nusa Tenggara Tim.","Kabupaten Manggarai Barat, Nusa Tenggara Tim.",NUSA TENGGARA TIMUR,,Indonesia,,,,-8.5069293,120.3480058,https://maps.google.com/?cid=0x0:0xca518446797ad865,
hardware store,hardware store,Kec. Lembor Selatan,"Kabupaten Manggarai Barat, Nusa Tenggara Tim.","Kabupaten Manggarai Barat, Nusa Tenggara Tim.",NUSA TENGGARA TIMUR,,Indonesia,,,,-8.7739706,120.1323197,https://maps.google.com/?cid=0x0:0x5bb218ae172463d2,
hardware store,Toko,Ud Felice,"Lalo Daleng Lembor, Jl. Ruteng-Labuan Bajo, Kecamatan Lembor, Kabupaten Manggarai Barat, Nusa Tenggara Tim. 86753","Jl. Ruteng-Labuan Bajo, Kecamatan Lembor, Kabupaten Manggarai Barat",NUSA TENGGARA TIMUR,86753.0,Indonesia,,,,-8.6923786,120.2146413,https://maps.google.com/?cid=0x0:0x585b55173a12171a,
hardware store,Toko Alat Dapur,Toko Al Amin (Alat Tukang),"75R9+R3Q, Tangge, Kecamatan Lembor, Kabupaten Manggarai Barat, Nusa Tenggara Tim.","Kabupaten Manggarai Barat, Nusa Tenggara Tim.",NUSA TENGGARA TIMUR,,Indonesia, 085236298294,,,-8.7079092,120.1677416,https://maps.google.com/?cid=0x0:0xa4a954f25c369e40,
hardware store,Kios,Ud Dirgahayu lembor,"75VC+43P, Jl. Ruteng, Tangge, Kecamatan Lembor, Kabupaten Manggarai Barat, Nusa Tenggara Tim.","Kabupaten Manggarai Barat, Nusa Tenggara Tim.",NUSA TENGGARA TIMUR,,Indonesia,,,,-8.7071812,120.1701848,https://maps.google.com/?cid=0x0:0x6702d897e0b74b38,
hardware store,hardware store,Toko Alat Tulis,"Tangge, Kecamatan Lembor, Kabupaten Manggarai Barat, Nusa Tenggara Tim. 86753","Kecamatan Lembor, Kabupaten Manggarai Barat",NUSA TENGGARA TIMUR,86753.0,Indonesia, 082242777881,,,-8.7512996,120.1317249,https://maps.google.com/?cid=0x0:0x73eb5f574c057283,
hardware store,hardware store,Kec. Mbeliling,"Kabupaten Manggarai Barat, Nusa Tenggara Tim.","Kabupaten Manggarai Barat, Nusa Tenggara Tim.",NUSA TENGGARA TIMUR,,Indonesia,,,,-8.6128114,120.0597179,https://maps.google.com/?cid=0x0:0x46c9c4828bf6f8cf,
hardware store,hardware store,TIMUR TERANG ABADI TK.,"Merombok, Golo Bilas, Labuan Bajo, Kabupaten Manggarai Barat, Nusa Tenggara Tim. 86763","Golo Bilas, Labuan Bajo, Kabupaten Manggarai Barat",NUSA TENGGARA TIMUR,86763.0,Indonesia, 082234230955,,,-8.5379401,119.8935438,https://maps.google.com/?cid=0x0:0x3dad0528092a247c,
hardware store,Toko Bahan Bangunan,Bintang Bangunan,"Jl. Wae Mata RT/RW 003/002, Labuan Bajo, Komodo, West Manggarai Regency, East Nusa Tenggara","Kabupaten Manggarai Barat, Nusa Tenggara Tim.",NUSA TENGGARA TIMUR,,Indonesia, 081238189013,,,-8.500458,119.8913878,https://maps.google.com/?cid=0x0:0x31574b9f37f65560,
hardware store,Pemasok Bahan Bangunan,Bajo Gypsum  Bangunan,"Wae Kelambu, Kec. Komodo, Kabupaten Manggarai Barat, Nusa Tenggara Tim.","Kabupaten Manggarai Barat, Nusa Tenggara Tim.",NUSA TENGGARA TIMUR,,Indonesia, 082232232663,,,-8.5050869,119.9051435,https://maps.google.com/?cid=0x0:0x24130a0a8c60014b,
hardware store,Toko Perlengkapan Rumah,MR. DIY LABUAN BAJO KOMODO,"Jl. Frans Nala, Batu Cermin, Kec. Komodo, Kabupaten Manggarai Barat, Nusa Tenggara Tim.","Kabupaten Manggarai Barat, Nusa Tenggara Tim.",NUSA TENGGARA TIMUR,,Indonesia, 087874477365,,,-8.4895944,119.8955064,https://maps.google.com/?cid=0x0:0x853c1884d0dca36d,
hardware store,Toko Bahan Bangunan,Flores Depo Bangunan,"Jl. Trans Flores, Goron Talo, Kec. Komodo, Kabupaten Manggarai Barat, Nusa Tenggara Tim.","Kabupaten Manggarai Barat, Nusa Tenggara Tim.",NUSA TENGGARA TIMUR,,Indonesia, 081239434040,,,-8.502223,119.8825278,https://maps.google.com/?cid=0x0:0x7ddeae9ccf378db2,
hardware store,Toko Bahan Bangunan,Toko Mujur Abadi Labuan Bajo,"Belakang ATM BNI, NO WA OI54O54249 Jalan Pius Papu, Labuan Bajo, Kec. Komodo, Kabupaten Manggarai Barat, Nusa Tenggara Tim. 86754",Jalan Pius Papu,NUSA TENGGARA TIMUR,54249.0,Indonesia, 081398873146,,,-8.4904361,119.8946555,https://maps.google.com/?cid=0x0:0xcc09b024b790e310,
toko bangunan,Toko Perlengkapan Rumah,Bagus Bangunan  minimart,"747V+WJJ Bagus mart, jln ruteng, labuan bajo, Kecamatan Lembor, Kabupaten Manggarai Barat, Nusa Tenggara Tim.","Kabupaten Manggarai Barat, Nusa Tenggara Tim.",NUSA TENGGARA TIMUR,,Indonesia,,,,-8.7351516,120.1440286,https://maps.google.com/?cid=0x0:0x92a365e35efbb901,
toko bangunan,Toko,Toko Mini Central Bangunan- Pit Abat-Herang Pacar,"G53W+W8, Pacar, Kec. Macang Pacar, Kabupaten Manggarai Barat, Nusa Tenggara Tim.","Kabupaten Manggarai Barat, Nusa Tenggara Tim.",NUSA TENGGARA TIMUR,,Indonesia, 081338660719,,,-8.4952374,120.1958268,https://maps.google.com/?cid=0x0:0xaed52134929ff94c,
toko bangunan,toko bangunan,Kec. Macang Pacar,"Kabupaten Manggarai Barat, Nusa Tenggara Tim.","Kabupaten Manggarai Barat, Nusa Tenggara Tim.",NUSA TENGGARA TIMUR,,Indonesia,,,,-8.4349594,120.2725372,https://maps.google.com/?cid=0x0:0xb9473d35b1b4ecc9,
toko bangunan,toko bangunan,Kec. Kuwus,"Kabupaten Manggarai Barat, Nusa Tenggara Tim.","Kabupaten Manggarai Barat, Nusa Tenggara Tim.",NUSA TENGGARA TIMUR,,Indonesia,,,,-8.58661,120.2649221,https://maps.google.com/?cid=0x0:0x20bc20e16a7cc39a,
toko bangunan,Toko Bahan Bangunan,Toko Bangunan ELliem Group,"F732+4WW Hawe-Wae Pitak, Jln, Kolang, Kec. Kuwus, Kabupaten Manggarai Barat, Nusa Tenggara Tim.","Kabupaten Manggarai Barat, Nusa Tenggara Tim.",NUSA TENGGARA TIMUR,,Indonesia, 085237913505,,,-8.5471482,120.2523278,https://maps.google.com/?cid=0x0:0xe58d5f31c4ffc6fc,
toko bangunan,Toko Bahan Bangunan,TOKO SAHABAT INTI BANGUNAN,"JL. Ruteng - Labuan Bajo, Cancar, Wae Belang, Kec. Ruteng, Kabupaten Manggarai, Nusa Tenggara Tim.","Kabupaten Manggarai, Nusa Tenggara Tim.",NUSA TENGGARA TIMUR,,Indonesia, 081359982021,,,-8.5896405,120.3779527,https://maps.google.com/?cid=0x0:0x99120b0035e2b615,
toko bangunan,Toko Bahan Bangunan,Toko bangunan 99 cancar,"Unnamed Road, Wae Belang, Kec. Ruteng, Kabupaten Manggarai, Nusa Tenggara Tim.","Kabupaten Manggarai, Nusa Tenggara Tim.",NUSA TENGGARA TIMUR,,Indonesia, 085205455522,,,-8.5961231,120.3724544,https://maps.google.com/?cid=0x0:0xd584734019b4566d,
toko bangunan,Toko Bahan Bangunan,toko pelangi bangunan,"FVQP+VXF, Goron Talo, Kec. Komodo, Kabupaten Manggarai Barat, Nusa Tenggara Tim.","Kabupaten Manggarai Barat, Nusa Tenggara Tim.",NUSA TENGGARA TIMUR,,Indonesia, 082145627171,,,-8.5103078,119.8874183,https://maps.google.com/?cid=0x0:0x6f62dc0810d90ac8,
toko bangunan,Toko,Toko Mini Central Bangunan- Pit Abat-Herang Pacar,"G53W+W8, Pacar, Kec. Macang Pacar, Kabupaten Manggarai Barat, Nusa Tenggara Tim.","Kabupaten Manggarai Barat, Nusa Tenggara Tim.",NUSA TENGGARA TIMUR,,Indonesia, 081338660719,,,-8.4952374,120.1958268,https://maps.google.com/?cid=0x0:0xaed52134929ff94c,
toko bangunan,Toko Bahan Bangunan,TOKO BANGUNAN SINAR KASIH,"Jl. Wae Ces, Mbaumuku, Kec. Langke Rembong, Kabupaten Manggarai, Nusa Tenggara Tim.","Kabupaten Manggarai, Nusa Tenggara Tim.",NUSA TENGGARA TIMUR,,Indonesia, 089508785992,,,-8.6047776,120.4661215,https://maps.google.com/?cid=0x0:0xdfaa29c8d1f1420f,
toko bangunan,Pemasok Bahan Bangunan,Kujaya Material no 89,"Jalan buaran timur No.89, Jl. Buaran Timur No.89, Jelupang, Kec. Serpong Utara, Kota Tangerang Selatan, Banten 15226","Jl. Buaran Timur No.89, Jelupang, Kec. Serpong Utara, Kota Tangerang Selatan",NUSA TENGGARA TIMUR,15226.0,Indonesia, 081288925599,,,-6.2668735,106.6733943,https://maps.google.com/?cid=0x0:0x26adcbb007fb340e,
toko bangunan,Toko Bahan Bangunan,TB BERUANG,"Jl. Gembira No.5, RT.1/RW.6, Guntur, Kecamatan Setiabudi, Kota Jakarta Selatan, Daerah Khusus Ibukota Jakarta 12980","RT.1/RW.6, Guntur, Kecamatan Setiabudi, Kota Jakarta Selatan",NUSA TENGGARA TIMUR,12980.0,Indonesia, 0218303154,,,-6.2082151,106.8322198,https://maps.google.com/?cid=0x0:0xa3308d33696c1ed6,
toko bangunan,Toko Tegel,Bangunan Baru - Toko Keramik  Sanitary,"Jl. Panglima Polim No.48, Pulo, Kec. Kby. Lama, Kota Jakarta Selatan, Daerah Khusus Ibukota Jakarta 12310","Pulo, Kec. Kby. Lama, Kota Jakarta Selatan",NUSA TENGGARA TIMUR,12310.0,Indonesia, 0217251233,,,-6.2514165,106.79727,https://maps.google.com/?cid=0x0:0x43f93161f39d996f,
toko bangunan,Toko Bahan Bangunan,Toko Material  Bangunan Toko 88,"Jl. Perdana Kusuma No.8, RT.8/RW.4, Wijaya Kusuma, Kec. Grogol petamburan, Kota Jakarta Barat, Daerah Khusus Ibukota Jakarta 11460","RT.8/RW.4, Wijaya Kusuma, Kec. Grogol petamburan, Kota Jakarta Barat",NUSA TENGGARA TIMUR,11460.0,Indonesia,,,,-6.15536,106.7713246,https://maps.google.com/?cid=0x0:0x82fe803db987c619,
toko bangunan,Toko Bahan Bangunan,Toko Bangunan Sinar Rejeki 44,"Jalan Letjend Suprapto No 44 RT 019. RW 007 Kelurahan :, Sumur Batu, Kecamatan : Kemayoran, Kota Jakarta Pusat, Daerah Khusus Ibukota Jakarta 10640","Sumur Batu, Kecamatan : Kemayoran, Kota Jakarta Pusat",NUSA TENGGARA TIMUR,10640.0,Indonesia, 081387025656,,,-6.1674514,106.8723802,https://maps.google.com/?cid=0x0:0x6df8057dcbb65cc0,
toko bangunan,toko bangunan,Toko Kuwu,"Jl. Raya Linggajati No.16, Cidempet, Kec. Arahan, Kabupaten Indramayu, Jawa Barat 45365","Cidempet, Kec. Arahan, Kabupaten Indramayu",NUSA TENGGARA TIMUR,45365.0,Indonesia,,,,-6.352423,108.2688847,https://maps.google.com/?cid=0x0:0xbd610fd7e5a72c5,
toko bangunan,toko bangunan,Kecamatan Lembor,"Kabupaten Manggarai Barat, Nusa Tenggara Tim.","Kabupaten Manggarai Barat, Nusa Tenggara Tim.",NUSA TENGGARA TIMUR,,Indonesia,,,,-8.7081253,120.1677018,https://maps.google.com/?cid=0x0:0xd449d3835f0762cf,
toko bangunan,Toko Perlengkapan Rumah,BERKAH JAYA,"75R9+J2G, Tangge, Kecamatan Lembor, Kabupaten Manggarai Barat, Nusa Tenggara Tim.","Kabupaten Manggarai Barat, Nusa Tenggara Tim.",NUSA TENGGARA TIMUR,,Indonesia,,,,-8.7085641,120.1676329,https://maps.google.com/?cid=0x0:0x160dbc9aa79bf0bc,
toko bangunan,Toko Perlengkapan Rumah,Bagus Bangunan  minimart,"747V+WJJ Bagus mart, jln ruteng, labuan bajo, Kecamatan Lembor, Kabupaten Manggarai Barat, Nusa Tenggara Tim.","Kabupaten Manggarai Barat, Nusa Tenggara Tim.",NUSA TENGGARA TIMUR,,Indonesia,,,,-8.7351516,120.1440286,https://maps.google.com/?cid=0x0:0x92a365e35efbb901,
toko bangunan,Toko,Ud Felice,"Lalo Daleng Lembor, Jl. Ruteng-Labuan Bajo, Kecamatan Lembor, Kabupaten Manggarai Barat, Nusa Tenggara Tim. 86753","Jl. Ruteng-Labuan Bajo, Kecamatan Lembor, Kabupaten Manggarai Barat",NUSA TENGGARA TIMUR,86753.0,Indonesia,,,,-8.6923786,120.2146413,https://maps.google.com/?cid=0x0:0x585b55173a12171a,
toko bangunan,Toko Bahan Bangunan,toko pelangi bangunan,"FVQP+VXF, Goron Talo, Kec. Komodo, Kabupaten Manggarai Barat, Nusa Tenggara Tim.","Kabupaten Manggarai Barat, Nusa Tenggara Tim.",NUSA TENGGARA TIMUR,,Indonesia, 082145627171,,,-8.5103078,119.8874183,https://maps.google.com/?cid=0x0:0x6f62dc0810d90ac8,
toko bangunan,Toko,Toko Bagus Lembor,"75R9+VV8, wae nakeng, kec, Tangge, Kecamatan Lembor, Kabupaten Manggarai Barat, Nusa Tenggara Tim.","Kabupaten Manggarai Barat, Nusa Tenggara Tim.",NUSA TENGGARA TIMUR,,Indonesia, 081220392016,,,-8.7078495,120.1697157,https://maps.google.com/?cid=0x0:0x6197e2ecd313aaaf,
toko bangunan,toko bangunan,Toko sinar lembor,"Komplek pasar, Jl. Ruteng, Tangge, Kecamatan Lembor, Kabupaten Manggarai Barat, Nusa Tenggara Tim.","Kabupaten Manggarai Barat, Nusa Tenggara Tim.",NUSA TENGGARA TIMUR,,Indonesia,,,,-8.7078016,120.1650538,https://maps.google.com/?cid=0x0:0xe2f228cabcae545d,
toko bangunan,Toko Tegel,Bangunan Baru - Toko Keramik  Sanitary,"Jl. Panglima Polim No.48, Pulo, Kec. Kby. Lama, Kota Jakarta Selatan, Daerah Khusus Ibukota Jakarta 12310","Pulo, Kec. Kby. Lama, Kota Jakarta Selatan",NUSA TENGGARA TIMUR,12310.0,Indonesia, 0217251233,,,-6.2514165,106.79727,https://maps.google.com/?cid=0x0:0x43f93161f39d996f,
toko bangunan,Toko Bahan Bangunan,TB BERUANG,"Jl. Gembira No.5, RT.1/RW.6, Guntur, Kecamatan Setiabudi, Kota Jakarta Selatan, Daerah Khusus Ibukota Jakarta 12980","RT.1/RW.6, Guntur, Kecamatan Setiabudi, Kota Jakarta Selatan",NUSA TENGGARA TIMUR,12980.0,Indonesia, 0218303154,,,-6.2082151,106.8322198,https://maps.google.com/?cid=0x0:0xa3308d33696c1ed6,
toko bangunan,toko bangunan,Nusa Tenggara Tim.,,Nusa Tenggara Tim.,NUSA TENGGARA TIMUR,,Indonesia,,,,-8.6573819,121.0793705,https://maps.google.com/?cid=0x0:0x1030bfbcaf71ae0,
toko bangunan,Toko Bahan Bangunan,TOKO BANGUNAN SINAR KASIH,"Jl. Wae Ces, Mbaumuku, Kec. Langke Rembong, Kabupaten Manggarai, Nusa Tenggara Tim.","Kabupaten Manggarai, Nusa Tenggara Tim.",NUSA TENGGARA TIMUR,,Indonesia, 089508785992,,,-8.6047776,120.4661215,https://maps.google.com/?cid=0x0:0xdfaa29c8d1f1420f,
toko bangunan,Toko Bahan Bangunan,toko pelangi bangunan,"FVQP+VXF, Goron Talo, Kec. Komodo, Kabupaten Manggarai Barat, Nusa Tenggara Tim.","Kabupaten Manggarai Barat, Nusa Tenggara Tim.",NUSA TENGGARA TIMUR,,Indonesia, 082145627171,,,-8.5103078,119.8874183,https://maps.google.com/?cid=0x0:0x6f62dc0810d90ac8,
toko bangunan,Grosir keramik,Toko Bangunan Sumber Berlian,"9FR7+R98, Pitak, Kec. Langke Rembong, Kabupaten Manggarai, Nusa Tenggara Tim.","Kabupaten Manggarai, Nusa Tenggara Tim.",NUSA TENGGARA TIMUR,,Indonesia, 038521109,,,-8.6079539,120.4634541,https://maps.google.com/?cid=0x0:0x6998fb86419a6f08,
toko bangunan,Toko Bahan Bangunan,Surya Agung Toko,"JL. Bagung, No. 10, Mbaumuku, Langke Rembong, 86511, Pitak, Kec. Ruteng, Kabupaten Manggarai, Nusa Tenggara Tim.","Mbaumuku, Langke Rembong,",NUSA TENGGARA TIMUR,86511.0,Indonesia, 038521141,,,-8.6133685,120.4631191,https://maps.google.com/?cid=0x0:0xfb054b1dbb8098a9,
toko bangunan,Toko Bahan Bangunan,Toko Bahan Bangunan 555 Ruteng Manggarai,"9FV8+G6G NO WA OI54O54249, Jl. Montang Rua, Mbaumuku, Kec. Langke Rembong, Kabupaten Manggarai, Nusa Tenggara Tim.","Kabupaten Manggarai, Nusa Tenggara Tim.",NUSA TENGGARA TIMUR,,Indonesia, 081246320180,,,-8.6061849,120.4655793,https://maps.google.com/?cid=0x0:0x5c54fb7afbefc99c,
toko bangunan,toko bangunan,Kec. Sano Nggoang,"Kabupaten Manggarai Barat, Nusa Tenggara Tim.","Kabupaten Manggarai Barat, Nusa Tenggara Tim.",NUSA TENGGARA TIMUR,,Indonesia,,,,-8.6504359,120.0088957,https://maps.google.com/?cid=0x0:0xbdd044f0cd4c82fb,
toko bangunan,Toko Perlengkapan Rumah,Bagus Bangunan  minimart,"747V+WJJ Bagus mart, jln ruteng, labuan bajo, Kecamatan Lembor, Kabupaten Manggarai Barat, Nusa Tenggara Tim.","Kabupaten Manggarai Barat, Nusa Tenggara Tim.",NUSA TENGGARA TIMUR,,Indonesia,,,,-8.7351516,120.1440286,https://maps.google.com/?cid=0x0:0x92a365e35efbb901,
toko bangunan,Toko Bahan Bangunan,Toko Eka Mandiri,"Kaper , Rt 010/Rw 005 , Golo Bilas, Labuan Bajo, Kec. Komodo, Kabupaten Manggarai Barat, Nusa Tenggara Tim. 86711","Rt 010/Rw 005 , Golo Bilas, Labuan Bajo, Kec. Komodo, Kabupaten Manggarai Barat",NUSA TENGGARA TIMUR,86711.0,Indonesia, 085228334545,,,-8.5292227,119.8923195,https://maps.google.com/?cid=0x0:0xdd0705212f92debf,
toko bangunan,toko bangunan,Toko Bangunan Tiga Lima,"9VC5+Q92, jln Wae Mata Desa Gorontalo, Tiwu Nampar, Kec. Komodo, Kabupaten Manggarai Barat, Nusa Tenggara Tim.","Kabupaten Manggarai Barat, Nusa Tenggara Tim.",NUSA TENGGARA TIMUR,,Indonesia,,,,-8.6281122,119.8583772,https://maps.google.com/?cid=0x0:0xa757fb819b84621a,
toko bangunan,toko bangunan,TIMUR TERANG ABADI TK.,"Merombok, Golo Bilas, Labuan Bajo, Kabupaten Manggarai Barat, Nusa Tenggara Tim. 86763","Golo Bilas, Labuan Bajo, Kabupaten Manggarai Barat",NUSA TENGGARA TIMUR,86763.0,Indonesia, 082234230955,,,-8.5379401,119.8935438,https://maps.google.com/?cid=0x0:0x3dad0528092a247c,
toko bangunan,Tujuan Wisata,Danau Sano Nggoang,"7XQR+P78 Nunang, Desa, Wae Sano, Kec. Sano Nggoang, Kabupaten Manggarai Barat, Nusa Tenggara Tim.","Kabupaten Manggarai Barat, Nusa Tenggara Tim.",NUSA TENGGARA TIMUR,,Indonesia,,,,-8.710706,119.9907134,https://maps.google.com/?cid=0x0:0xb086dd945f2177a0,
toko bangunan,Toko Bahan Bangunan,toko pelangi bangunan,"FVQP+VXF, Goron Talo, Kec. Komodo, Kabupaten Manggarai Barat, Nusa Tenggara Tim.","Kabupaten Manggarai Barat, Nusa Tenggara Tim.",NUSA TENGGARA TIMUR,,Indonesia, 082145627171,,,-8.5103078,119.8874183,https://maps.google.com/?cid=0x0:0x6f62dc0810d90ac8,
toko bangunan,toko bangunan,Nusa Tenggara Tim.,,Nusa Tenggara Tim.,NUSA TENGGARA TIMUR,,Indonesia,,,,-8.6573819,121.0793705,https://maps.google.com/?cid=0x0:0x1030bfbcaf71ae0,
toko bangunan,Toko Bahan Bangunan,Bintang Bangunan,"Jl. Wae Mata RT/RW 003/002, Labuan Bajo, Komodo, West Manggarai Regency, East Nusa Tenggara","Kabupaten Manggarai Barat, Nusa Tenggara Tim.",NUSA TENGGARA TIMUR,,Indonesia, 081238189013,,,-8.500458,119.8913878,https://maps.google.com/?cid=0x0:0x31574b9f37f65560,
toko bangunan,Toko Bahan Bangunan,Toko Mitra Bangunan,"GV3R+4P9, Wae Kelambu, Kec. Komodo, Kabupaten Manggarai Barat, Nusa Tenggara Tim.","Kabupaten Manggarai Barat, Nusa Tenggara Tim.",NUSA TENGGARA TIMUR,,Indonesia, 081236377777,,,-8.4972125,119.8918594,https://maps.google.com/?cid=0x0:0x9da6709ec646fce5,
toko bangunan,Toko Perlengkapan Rumah,Mitrajaya Bangunan,"Jl. Batu Cermin No.88, Labuan Bajo, Kec. Komodo, Kabupaten Manggarai Barat, Nusa Tenggara Tim. 86754","Labuan Bajo, Kec. Komodo, Kabupaten Manggarai Barat",NUSA TENGGARA TIMUR,86754.0,Indonesia, 03852440474,,,-8.4804587,119.90029,https://maps.google.com/?cid=0x0:0x86f93ffd447674b,
toko bangunan,Toko Bahan Bangunan,Flores Depo Bangunan,"Jl. Trans Flores, Goron Talo, Kec. Komodo, Kabupaten Manggarai Barat, Nusa Tenggara Tim.","Kabupaten Manggarai Barat, Nusa Tenggara Tim.",NUSA TENGGARA TIMUR,,Indonesia, 081239434040,,,-8.502223,119.8825278,https://maps.google.com/?cid=0x0:0x7ddeae9ccf378db2,
toko bangunan,Toko Perlengkapan Rumah,Toko Pusat Bangunan,"JL Wisata Batu Cermin Way Kosambi, Labuan Bajo, Kec. Komodo, Kabupaten Manggarai Barat, Nusa Tenggara Tim.","Kabupaten Manggarai Barat, Nusa Tenggara Tim.",NUSA TENGGARA TIMUR,,Indonesia, 082132442772,,,-8.4864406,119.8995394,https://maps.google.com/?cid=0x0:0x9d1eaaba4270aa1c,
toko bangunan,Toko Bahan Bangunan,Toko Eka Mandiri,"Kaper , Rt 010/Rw 005 , Golo Bilas, Labuan Bajo, Kec. Komodo, Kabupaten Manggarai Barat, Nusa Tenggara Tim. 86711","Rt 010/Rw 005 , Golo Bilas, Labuan Bajo, Kec. Komodo, Kabupaten Manggarai Barat",NUSA TENGGARA TIMUR,86711.0,Indonesia, 085228334545,,,-8.5292227,119.8923195,https://maps.google.com/?cid=0x0:0xdd0705212f92debf,
toko bangunan,Toko Bahan Bangunan,Toko Raja Bangunan,"Jl. Soekarno Hatta No.88, Labuan Bajo, Kec. Komodo, Kabupaten Manggarai Barat, Nusa Tenggara Tim. 86754","Labuan Bajo, Kec. Komodo, Kabupaten Manggarai Barat",NUSA TENGGARA TIMUR,86754.0,Indonesia,,,,-8.498078,119.8804582,https://maps.google.com/?cid=0x0:0x3bc97fa1d5c89c75,
toko bangunan,Toko,Toko Anugrah Kaca,"FVVP+9CV, Goron Talo, Kec. Komodo, Kabupaten Manggarai Barat, Nusa Tenggara Tim.","Kabupaten Manggarai Barat, Nusa Tenggara Tim.",NUSA TENGGARA TIMUR,,Indonesia, 038541449,,,-8.5065175,119.886048,https://maps.google.com/?cid=0x0:0xb8d60e7d5bc1e348,
toko bangunan,Grosir,Toko Mahaputra Abadi,"Jl. Soekarno Hatta No.249, Labuan Bajo, Kec. Komodo, Kabupaten Manggarai Barat, Nusa Tenggara Tim.","Kabupaten Manggarai Barat, Nusa Tenggara Tim.",NUSA TENGGARA TIMUR,,Indonesia, 038541022,,,-8.496253,119.8791656,https://maps.google.com/?cid=0x0:0xc370eeb762facea2,
toko bangunan,Pemasok Pipa,Toko Buana Bangunan,"Lasiana, Kec. Klp. Lima, Kota Kupang, Nusa Tenggara Tim.","Kota Kupang, Nusa Tenggara Tim.",NUSA TENGGARA TIMUR,,Indonesia, 082244376888,,,-10.1373266,123.6764484,https://maps.google.com/?cid=0x0:0x9fc6cad7dda4e71a,
toko bangunan,Toko Perlengkapan Rumah,Saudara Bangunan,"9C43+5CV, Wee Karou, Kec. Loli, Kabupaten Sumba Barat, Nusa Tenggara Tim.","Kabupaten Sumba Barat, Nusa Tenggara Tim.",NUSA TENGGARA TIMUR,,Indonesia,,,,-9.6445021,119.403561,https://maps.google.com/?cid=0x0:0xbd0bec82e2e0b21f,
toko bangunan,Toko Bahan Bangunan,Toko Cipta Bangunan,"Wolomarang, Kec. Alok Bar., Kabupaten Sikka, Nusa Tenggara Tim.","Kabupaten Sikka, Nusa Tenggara Tim.",NUSA TENGGARA TIMUR,,Indonesia, 081231842348,,,-8.6105049,122.1996912,https://maps.google.com/?cid=0x0:0x1d786c0067a3953f,
toko bangunan,Toko Bahan Bangunan,Toko Nuansa Bangunan Dan Tehnik,"9C75+HG9, Wailiang, Kec. Kota Waikabubak, Kabupaten Sumba Barat, Nusa Tenggara Tim.","Kabupaten Sumba Barat, Nusa Tenggara Tim.",NUSA TENGGARA TIMUR,,Indonesia, 081339419509,,,-9.6360822,119.4088515,https://maps.google.com/?cid=0x0:0xa546d9dc5012925e,
toko bangunan,Toko Bahan Bangunan,Toko Duta Bangunan,"CH3M+GQ8, Wai Rasa, Kec. Umbu Ratu Nggay Bar., Kabupaten Sumba Tengah, Nusa Tenggara Tim.","Kabupaten Sumba Tengah, Nusa Tenggara Tim.",NUSA TENGGARA TIMUR,,Indonesia,,,,-9.5962137,119.5844623,https://maps.google.com/?cid=0x0:0x7e609489f14c4fbb,
toko bangunan,Toko Perlengkapan Rumah,MR. DIY LABUAN BAJO KOMODO,"Jl. Frans Nala, Batu Cermin, Kec. Komodo, Kabupaten Manggarai Barat, Nusa Tenggara Tim.","Kabupaten Manggarai Barat, Nusa Tenggara Tim.",NUSA TENGGARA TIMUR,,Indonesia, 087874477365,,,-8.4895944,119.8955064,https://maps.google.com/?cid=0x0:0x853c1884d0dca36d,
toko bangunan,Pemasok Bahan Bangunan,LOGAM BANGUNAN,"FVVM+CW5 NO WA OI54O54249, Goron Talo, Kec. Komodo, Kabupaten Manggarai Barat, Nusa Tenggara Tim.","Kabupaten Manggarai Barat, Nusa Tenggara Tim.",NUSA TENGGARA TIMUR,,Indonesia, 081287755615,,,-8.5064875,119.8848594,https://maps.google.com/?cid=0x0:0xe96ed0fb3c9d19c4,
toko bangunan,Minimarket,toko hebron,"725V+CW9, Unnamed Rd, Mokdale, Kec. Lobalain, Kabupaten Rote Ndao, Nusa Tenggara Tim.","Kabupaten Rote Ndao, Nusa Tenggara Tim.",NUSA TENGGARA TIMUR,,Indonesia,,,,-10.7414723,123.0448675,https://maps.google.com/?cid=0x0:0x699558aa9d2e663a,
toko bangunan,Toko Tegel,Bangunan Baru - Toko Keramik  Sanitary,"Jl. Panglima Polim No.48, Pulo, Kec. Kby. Lama, Kota Jakarta Selatan, Daerah Khusus Ibukota Jakarta 12310","Pulo, Kec. Kby. Lama, Kota Jakarta Selatan",NUSA TENGGARA TIMUR,12310.0,Indonesia, 0217251233,,,-6.2514165,106.79727,https://maps.google.com/?cid=0x0:0x43f93161f39d996f,
toko bangunan,Pemasok Bahan Bangunan,Bajo Gypsum  Bangunan,"Wae Kelambu, Kec. Komodo, Kabupaten Manggarai Barat, Nusa Tenggara Tim.","Kabupaten Manggarai Barat, Nusa Tenggara Tim.",NUSA TENGGARA TIMUR,,Indonesia, 082232232663,,,-8.5050869,119.9051435,https://maps.google.com/?cid=0x0:0x24130a0a8c60014b,
toko bangunan,Pemasok Bahan Bangunan,Bajo Sinar Bangunan,"Jalan Sernaru, Wae Kelambu, Labuan bajo, Kabupaten Manggarai Barat, Nusa Tenggara Tim.","Kabupaten Manggarai Barat, Nusa Tenggara Tim.",NUSA TENGGARA TIMUR,,Indonesia, 082322186283,,,-8.5024093,119.8993792,https://maps.google.com/?cid=0x0:0xa6cd908358e6c793,
toko bangunan,Toko Bahan Bangunan,Toko Mujur Abadi Labuan Bajo,"Belakang ATM BNI, NO WA OI54O54249 Jalan Pius Papu, Labuan Bajo, Kec. Komodo, Kabupaten Manggarai Barat, Nusa Tenggara Tim. 86754",Jalan Pius Papu,NUSA TENGGARA TIMUR,54249.0,Indonesia, 081398873146,,,-8.4904361,119.8946555,https://maps.google.com/?cid=0x0:0xcc09b024b790e310,
toko bangunan,Toko Bahan Bangunan,TB BERUANG,"Jl. Gembira No.5, RT.1/RW.6, Guntur, Kecamatan Setiabudi, Kota Jakarta Selatan, Daerah Khusus Ibukota Jakarta 12980","RT.1/RW.6, Guntur, Kecamatan Setiabudi, Kota Jakarta Selatan",NUSA TENGGARA TIMUR,12980.0,Indonesia, 0218303154,,,-6.2082151,106.8322198,https://maps.google.com/?cid=0x0:0xa3308d33696c1ed6,
toko bangunan,Pemasok Bahan Bangunan,Toko Pelita Jaya,"GV4G+XVW, Jl. Soekarno Hatta, Labuan Bajo, Kec. Komodo, Kabupaten Manggarai Barat, Nusa Tenggara Tim. 86554","Jl. Soekarno Hatta, Labuan Bajo, Kec. Komodo, Kabupaten Manggarai Barat",NUSA TENGGARA TIMUR,86554.0,Indonesia, 038541868,,,-8.492504,119.8771972,https://maps.google.com/?cid=0x0:0x4f2185cbc89e5c91,
toko bangunan,Toko Bahan Bangunan,Bajo bangunan,"Jl. Trans Flores, pasar baru, Labuan bajo, Kabupaten Manggarai Barat, Nusa Tenggara Tim.","Kabupaten Manggarai Barat, Nusa Tenggara Tim.",NUSA TENGGARA TIMUR,,Indonesia, 085739801738,,,-8.5075413,119.886178,https://maps.google.com/?cid=0x0:0x1815a9647f3c91c0,
toko bangunan,Toko Bahan Bangunan,CV Artha Niaga Gemilang (Toko Hasil),"Komplek PLN, Jl. Soekarno Hatta NO WA, RT.OI54O54-249, Labuan Bajo, Kec. Komodo, Kabupaten Manggarai Barat, Nusa Tenggara Tim. 86754","Jl. Soekarno Hatta NO WA, RT.OI54O54-249, Labuan Bajo, Kec. Komodo, Kabupaten Manggarai Barat",NUSA TENGGARA TIMUR,86754.0,Indonesia, 081332203063,,,-8.5046695,119.8838498,https://maps.google.com/?cid=0x0:0xd682e13b13f89319,
toko bangunan,toko bangunan,Nusa Tenggara Tim.,,Nusa Tenggara Tim.,NUSA TENGGARA TIMUR,,Indonesia,,,,-8.6573819,121.0793705,https://maps.google.com/?cid=0x0:0x1030bfbcaf71ae0,
toko bangunan,Toko Bahan Bangunan,Bintang Bangunan,"Jl. Wae Mata RT/RW 003/002, Labuan Bajo, Komodo, West Manggarai Regency, East Nusa Tenggara","Kabupaten Manggarai Barat, Nusa Tenggara Tim.",NUSA TENGGARA TIMUR,,Indonesia, 081238189013,,,-8.500458,119.8913878,https://maps.google.com/?cid=0x0:0x31574b9f37f65560,
toko bangunan,Toko Bahan Bangunan,toko pelangi bangunan,"FVQP+VXF, Goron Talo, Kec. Komodo, Kabupaten Manggarai Barat, Nusa Tenggara Tim.","Kabupaten Manggarai Barat, Nusa Tenggara Tim.",NUSA TENGGARA TIMUR,,Indonesia, 082145627171,,,-8.5103078,119.8874183,https://maps.google.com/?cid=0x0:0x6f62dc0810d90ac8,
toko bangunan,Toko Bahan Bangunan,Toko Bangunan Indo Jaya,"FVWQ+2FW, Unnamed Road, Goron Talo, Kec. Komodo, Kabupaten Manggarai Barat, Nusa Tenggara Tim.","Kabupaten Manggarai Barat, Nusa Tenggara Tim.",NUSA TENGGARA TIMUR,,Indonesia,,,,-8.5048875,119.8887031,https://maps.google.com/?cid=0x0:0x6bdc23425b068ec8,
toko bangunan,Toko Bahan Bangunan,Toko Mitra Bangunan,"GV3R+4P9, Wae Kelambu, Kec. Komodo, Kabupaten Manggarai Barat, Nusa Tenggara Tim.","Kabupaten Manggarai Barat, Nusa Tenggara Tim.",NUSA TENGGARA TIMUR,,Indonesia, 081236377777,,,-8.4972125,119.8918594,https://maps.google.com/?cid=0x0:0x9da6709ec646fce5,
toko bangunan,Toko Bahan Bangunan,Sinar Bangunan Building Center,"Jl. Bund. PU No.12, Tuak Daun Merah, Kec. Oebobo, Kota Kupang, Nusa Tenggara Tim. 85228","Tuak Daun Merah, Kec. Oebobo, Kota Kupang",NUSA TENGGARA TIMUR,85228.0,Indonesia, 081236648694,,,-10.1675355,123.6289538,https://maps.google.com/?cid=0x0:0x8b34913a09e207d2,
toko bangunan,Pemasok Pipa,Toko Buana Bangunan,"Lasiana, Kec. Klp. Lima, Kota Kupang, Nusa Tenggara Tim.","Kota Kupang, Nusa Tenggara Tim.",NUSA TENGGARA TIMUR,,Indonesia, 082244376888,,,-10.1373266,123.6764484,https://maps.google.com/?cid=0x0:0x9fc6cad7dda4e71a,
toko bangunan,Toko Bahan Bangunan,toko sinar bangunan (ende),"5J3V+MWW, Kel. Mbongawani, Kec. Ende Sel., Kabupaten Ende, Nusa Tenggara Tim.","Kabupaten Ende, Nusa Tenggara Tim.",NUSA TENGGARA TIMUR,,Indonesia, 038121454,,,-8.8457706,121.6448129,https://maps.google.com/?cid=0x0:0x286f8de860e51520,
toko bangunan,Toko Bahan Bangunan,TOKO MUTIARA BANGUNAN,"JALAN R. W. MONGINSIDI Jl. Boanawa, Kel. Mbongawani, Kec. Ende Sel., Kabupaten Ende, Nusa Tenggara Tim. 86318","Kel. Mbongawani, Kec. Ende Sel., Kabupaten Ende",NUSA TENGGARA TIMUR,86318.0,Indonesia, 082342055794,,,-8.8505091,121.649829,https://maps.google.com/?cid=0x0:0xd3b67f3d4b660364,
toko bangunan,Toko Bahan Bangunan,Sinar Bangunan Building Mart,"Jl. Yos Sudarso No.177, Namosain, Kec. Alak, Kota Kupang, Nusa Tenggara Tim.","Kota Kupang, Nusa Tenggara Tim.",NUSA TENGGARA TIMUR,,Indonesia, 081238941314,,,-10.1916248,123.5407476,https://maps.google.com/?cid=0x0:0x411fca6242be55fc,
toko bangunan,Minimarket,toko hebron,"725V+CW9, Unnamed Rd, Mokdale, Kec. Lobalain, Kabupaten Rote Ndao, Nusa Tenggara Tim.","Kabupaten Rote Ndao, Nusa Tenggara Tim.",NUSA TENGGARA TIMUR,,Indonesia,,,,-10.7414723,123.0448675,https://maps.google.com/?cid=0x0:0x699558aa9d2e663a,
toko bangunan,Toko Bahan Bangunan,toko gloria bangunan,"Jl. Kemakmuran No.14, Kel. Mbongawani, Kec. Ende Sel., Kabupaten Ende, Nusa Tenggara Tim.","Kabupaten Ende, Nusa Tenggara Tim.",NUSA TENGGARA TIMUR,,Indonesia, 081331006673,,,-8.8465826,121.644941,https://maps.google.com/?cid=0x0:0xe6e6044a0d0864ee,
toko bangunan,Toko Perlengkapan Rumah,Toko Pusat Bangunan,"JL Wisata Batu Cermin Way Kosambi, Labuan Bajo, Kec. Komodo, Kabupaten Manggarai Barat, Nusa Tenggara Tim.","Kabupaten Manggarai Barat, Nusa Tenggara Tim.",NUSA TENGGARA TIMUR,,Indonesia, 082132442772,,,-8.4864406,119.8995394,https://maps.google.com/?cid=0x0:0x9d1eaaba4270aa1c,
toko bangunan,Toko Bahan Bangunan,Toko Duta Bangunan,"GFMJ+896, Benpasi, Kec. Kota Kefamenanu, Kabupaten Timor Tengah Utara, Nusa Tenggara Tim.","Kabupaten Timor Tengah Utara, Nusa Tenggara Tim.",NUSA TENGGARA TIMUR,,Indonesia, 08113827627,,,-9.4667226,124.4808961,https://maps.google.com/?cid=0x0:0x7bd4b59644a2a0bd,
toko bangunan,Toko Bahan Bangunan,Toko Graha Bangunan,"Gedung Graha Ariadi, Oesapa Bar., Kec. Klp. Lima, Kota Kupang, Nusa Tenggara Tim. 85228","Oesapa Bar., Kec. Klp. Lima, Kota Kupang",NUSA TENGGARA TIMUR,85228.0,Indonesia, 081312893723,,,-10.1468703,123.631267,https://maps.google.com/?cid=0x0:0x4167d73ee95fc845,
toko bangunan,Toko Bahan Bangunan,Toko Bravo Bangunan,"Jl. Terusan Timor Raya, Pasir Panjang, Kec. Kota Lama, Kota Kupang, Nusa Tenggara Tim. 85000","Pasir Panjang, Kec. Kota Lama, Kota Kupang",NUSA TENGGARA TIMUR,85000.0,Indonesia, 081246295800,,,-10.1509378,123.6033391,https://maps.google.com/?cid=0x0:0xdf4da131f9948aff,
toko bangunan,Toko Bahan Bangunan,CV. Tujuh Jaya,"723W+C6P, Unnamed Rd, Mokdale, Kec. Lobalain, Kabupaten Rote Ndao, Nusa Tenggara Tim.","Kabupaten Rote Ndao, Nusa Tenggara Tim.",NUSA TENGGARA TIMUR,,Indonesia,,,,-10.7464098,123.04558,https://maps.google.com/?cid=0x0:0x575a85c650ddf9e4,
toko bangunan,Toko Bahan Bangunan,UD. Fajar Bangunan ENDE,"Jl. Ahmad Yani, Kel. Kelimutu, Kec. Ende Tengah, Kabupaten Ende, Nusa Tenggara Tim.","Kabupaten Ende, Nusa Tenggara Tim.",NUSA TENGGARA TIMUR,,Indonesia, 082155194068,,,-8.8481109,121.6573345,https://maps.google.com/?cid=0x0:0x8a620756dd470b99,
toko bangunan,Pemasok Pipa,Toko Bangunan,"Manulai II, Kec. Alak, Kota Kupang, Nusa Tenggara Tim.","Kota Kupang, Nusa Tenggara Tim.",NUSA TENGGARA TIMUR,,Indonesia, 085123255522,,,-10.213815,123.5749527,https://maps.google.com/?cid=0x0:0x5559349e9e4fc36f,
toko bangunan,Toko Bahan Bangunan,Toko Sinar Rembulan,"Kel. Mautapaga, Kec. Ende Tim., Kabupaten Ende, Nusa Tenggara Tim.","Kabupaten Ende, Nusa Tenggara Tim.",NUSA TENGGARA TIMUR,,Indonesia,,,,-8.8457899,121.6663021,https://maps.google.com/?cid=0x0:0xbda3c29037862e1f,
toko bangunan,Toko Bahan Bangunan,Toko Bangunan Saudara,"Mbaumuku, Kec. Langke Rembong, Kabupaten Manggarai, Nusa Tenggara Tim.","Kabupaten Manggarai, Nusa Tenggara Tim.",NUSA TENGGARA TIMUR,,Indonesia, 085239009102,,,-8.6086449,120.4648361,https://maps.google.com/?cid=0x0:0x5faafa24f0a0065f,
toko bangunan,Toko Bahan Bangunan,TB BERUANG,"Jl. Gembira No.5, RT.1/RW.6, Guntur, Kecamatan Setiabudi, Kota Jakarta Selatan, Daerah Khusus Ibukota Jakarta 12980","RT.1/RW.6, Guntur, Kecamatan Setiabudi, Kota Jakarta Selatan",NUSA TENGGARA TIMUR,12980.0,Indonesia, 0218303154,,,-6.2082151,106.8322198,https://maps.google.com/?cid=0x0:0xa3308d33696c1ed6,
toko bangunan,Toko Tegel,Bangunan Baru - Toko Keramik  Sanitary,"Jl. Panglima Polim No.48, Pulo, Kec. Kby. Lama, Kota Jakarta Selatan, Daerah Khusus Ibukota Jakarta 12310","Pulo, Kec. Kby. Lama, Kota Jakarta Selatan",NUSA TENGGARA TIMUR,12310.0,Indonesia, 0217251233,,,-6.2514165,106.79727,https://maps.google.com/?cid=0x0:0x43f93161f39d996f,
toko bangunan,toko bangunan,Kec. Welak,"Kabupaten Manggarai Barat, Nusa Tenggara Tim.","Kabupaten Manggarai Barat, Nusa Tenggara Tim.",NUSA TENGGARA TIMUR,,Indonesia,,,,-8.6284325,120.1747836,https://maps.google.com/?cid=0x0:0x9d0199762a8049e0,
toko bangunan,Toko Bahan Bangunan,TOKO BANGUNAN SINAR KASIH,"Jl. Wae Ces, Mbaumuku, Kec. Langke Rembong, Kabupaten Manggarai, Nusa Tenggara Tim.","Kabupaten Manggarai, Nusa Tenggara Tim.",NUSA TENGGARA TIMUR,,Indonesia, 089508785992,,,-8.6047776,120.4661215,https://maps.google.com/?cid=0x0:0xdfaa29c8d1f1420f,
toko bangunan,Toko Bahan Bangunan,Toko Bangunan ELliem Group,"F732+4WW Hawe-Wae Pitak, Jln, Kolang, Kec. Kuwus, Kabupaten Manggarai Barat, Nusa Tenggara Tim.","Kabupaten Manggarai Barat, Nusa Tenggara Tim.",NUSA TENGGARA TIMUR,,Indonesia, 085237913505,,,-8.5471482,120.2523278,https://maps.google.com/?cid=0x0:0xe58d5f31c4ffc6fc,
toko bangunan,Toko Perlengkapan Rumah,Bagus Bangunan  minimart,"747V+WJJ Bagus mart, jln ruteng, labuan bajo, Kecamatan Lembor, Kabupaten Manggarai Barat, Nusa Tenggara Tim.","Kabupaten Manggarai Barat, Nusa Tenggara Tim.",NUSA TENGGARA TIMUR,,Indonesia,,,,-8.7351516,120.1440286,https://maps.google.com/?cid=0x0:0x92a365e35efbb901,
toko bangunan,Toko Perlengkapan Rumah,BERKAH JAYA,"75R9+J2G, Tangge, Kecamatan Lembor, Kabupaten Manggarai Barat, Nusa Tenggara Tim.","Kabupaten Manggarai Barat, Nusa Tenggara Tim.",NUSA TENGGARA TIMUR,,Indonesia,,,,-8.7085641,120.1676329,https://maps.google.com/?cid=0x0:0x160dbc9aa79bf0bc,
toko bangunan,Toko Bahan Bangunan,Toko Mitra Bangunan,"GV3R+4P9, Wae Kelambu, Kec. Komodo, Kabupaten Manggarai Barat, Nusa Tenggara Tim.","Kabupaten Manggarai Barat, Nusa Tenggara Tim.",NUSA TENGGARA TIMUR,,Indonesia, 081236377777,,,-8.4972125,119.8918594,https://maps.google.com/?cid=0x0:0x9da6709ec646fce5,
toko bangunan,Toko Bahan Bangunan,Sahabat Bangunan,"75R8+PQX, Tangge, Kecamatan Lembor, Kabupaten Manggarai Barat, Nusa Tenggara Tim.","Kabupaten Manggarai Barat, Nusa Tenggara Tim.",NUSA TENGGARA TIMUR,,Indonesia,,,,-8.7081372,120.1669889,https://maps.google.com/?cid=0x0:0x524c0c02ab2c36e,
toko bangunan,Toko,Ud Felice,"Lalo Daleng Lembor, Jl. Ruteng-Labuan Bajo, Kecamatan Lembor, Kabupaten Manggarai Barat, Nusa Tenggara Tim. 86753","Jl. Ruteng-Labuan Bajo, Kecamatan Lembor, Kabupaten Manggarai Barat",NUSA TENGGARA TIMUR,86753.0,Indonesia,,,,-8.6923786,120.2146413,https://maps.google.com/?cid=0x0:0x585b55173a12171a,
toko bangunan,Toko Bahan Bangunan,Toko Bangunan Saudara,"Mbaumuku, Kec. Langke Rembong, Kabupaten Manggarai, Nusa Tenggara Tim.","Kabupaten Manggarai, Nusa Tenggara Tim.",NUSA TENGGARA TIMUR,,Indonesia, 085239009102,,,-8.6086449,120.4648361,https://maps.google.com/?cid=0x0:0x5faafa24f0a0065f,
toko bangunan,Toko Bahan Bangunan,Kelimutu Toko,"9FR7+7M8, Jl. Kathedral, Mbaumuku, Kec. Langke Rembong, Kabupaten Manggarai, Nusa Tenggara Tim. 86312","Jl. Kathedral, Mbaumuku, Kec. Langke Rembong, Kabupaten Manggarai",NUSA TENGGARA TIMUR,86312.0,Indonesia, 038521051,,,-8.6093282,120.4641971,https://maps.google.com/?cid=0x0:0xeb806c482e8ce083,
toko bangunan,Grosir,Toko Mahaputra Abadi,"Jl. Soekarno Hatta No.249, Labuan Bajo, Kec. Komodo, Kabupaten Manggarai Barat, Nusa Tenggara Tim.","Kabupaten Manggarai Barat, Nusa Tenggara Tim.",NUSA TENGGARA TIMUR,,Indonesia, 038541022,,,-8.496253,119.8791656,https://maps.google.com/?cid=0x0:0xc370eeb762facea2,
toko bangunan,Toko Bahan Bangunan,Toko Mitra Bangunan,"GV3R+4P9, Wae Kelambu, Kec. Komodo, Kabupaten Manggarai Barat, Nusa Tenggara Tim.","Kabupaten Manggarai Barat, Nusa Tenggara Tim.",NUSA TENGGARA TIMUR,,Indonesia, 081236377777,,,-8.4972125,119.8918594,https://maps.google.com/?cid=0x0:0x9da6709ec646fce5,
toko bangunan,toko bangunan,Nusa Tenggara Tim.,,Nusa Tenggara Tim.,NUSA TENGGARA TIMUR,,Indonesia,,,,-8.6573819,121.0793705,https://maps.google.com/?cid=0x0:0x1030bfbcaf71ae0,
toko bangunan,Toko Bahan Bangunan,Flores Depo Bangunan,"Jl. Trans Flores, Goron Talo, Kec. Komodo, Kabupaten Manggarai Barat, Nusa Tenggara Tim.","Kabupaten Manggarai Barat, Nusa Tenggara Tim.",NUSA TENGGARA TIMUR,,Indonesia, 081239434040,,,-8.502223,119.8825278,https://maps.google.com/?cid=0x0:0x7ddeae9ccf378db2,
toko bangunan,Toko Perlengkapan Rumah,Toko Pusat Bangunan,"JL Wisata Batu Cermin Way Kosambi, Labuan Bajo, Kec. Komodo, Kabupaten Manggarai Barat, Nusa Tenggara Tim.","Kabupaten Manggarai Barat, Nusa Tenggara Tim.",NUSA TENGGARA TIMUR,,Indonesia, 082132442772,,,-8.4864406,119.8995394,https://maps.google.com/?cid=0x0:0x9d1eaaba4270aa1c,
toko bangunan,Toko Bahan Bangunan,toko sinar bangunan (ende),"5J3V+MWW, Kel. Mbongawani, Kec. Ende Sel., Kabupaten Ende, Nusa Tenggara Tim.","Kabupaten Ende, Nusa Tenggara Tim.",NUSA TENGGARA TIMUR,,Indonesia, 038121454,,,-8.8457706,121.6448129,https://maps.google.com/?cid=0x0:0x286f8de860e51520,
toko bangunan,Toko Bahan Bangunan,Toko Graha Bangunan,"Gedung Graha Ariadi, Oesapa Bar., Kec. Klp. Lima, Kota Kupang, Nusa Tenggara Tim. 85228","Oesapa Bar., Kec. Klp. Lima, Kota Kupang",NUSA TENGGARA TIMUR,85228.0,Indonesia, 081312893723,,,-10.1468703,123.631267,https://maps.google.com/?cid=0x0:0x4167d73ee95fc845,
toko bangunan,Pemasok Pipa,Toko Buana Bangunan,"Lasiana, Kec. Klp. Lima, Kota Kupang, Nusa Tenggara Tim.","Kota Kupang, Nusa Tenggara Tim.",NUSA TENGGARA TIMUR,,Indonesia, 082244376888,,,-10.1373266,123.6764484,https://maps.google.com/?cid=0x0:0x9fc6cad7dda4e71a,
toko bangunan,Toko Bahan Bangunan,CV. Tujuh Jaya,"723W+C6P, Unnamed Rd, Mokdale, Kec. Lobalain, Kabupaten Rote Ndao, Nusa Tenggara Tim.","Kabupaten Rote Ndao, Nusa Tenggara Tim.",NUSA TENGGARA TIMUR,,Indonesia,,,,-10.7464098,123.04558,https://maps.google.com/?cid=0x0:0x575a85c650ddf9e4,
toko bangunan,Toko,Toko Anugrah Kaca,"FVVP+9CV, Goron Talo, Kec. Komodo, Kabupaten Manggarai Barat, Nusa Tenggara Tim.","Kabupaten Manggarai Barat, Nusa Tenggara Tim.",NUSA TENGGARA TIMUR,,Indonesia, 038541449,,,-8.5065175,119.886048,https://maps.google.com/?cid=0x0:0xb8d60e7d5bc1e348,
toko bangunan,Toko Bahan Bangunan,Toko Cipta Bangunan,"Wolomarang, Kec. Alok Bar., Kabupaten Sikka, Nusa Tenggara Tim.","Kabupaten Sikka, Nusa Tenggara Tim.",NUSA TENGGARA TIMUR,,Indonesia, 081231842348,,,-8.6105049,122.1996912,https://maps.google.com/?cid=0x0:0x1d786c0067a3953f,
toko bangunan,Toko Bahan Bangunan,TOKO MUTIARA BANGUNAN,"JALAN R. W. MONGINSIDI Jl. Boanawa, Kel. Mbongawani, Kec. Ende Sel., Kabupaten Ende, Nusa Tenggara Tim. 86318","Kel. Mbongawani, Kec. Ende Sel., Kabupaten Ende",NUSA TENGGARA TIMUR,86318.0,Indonesia, 082342055794,,,-8.8505091,121.649829,https://maps.google.com/?cid=0x0:0xd3b67f3d4b660364,
toko bangunan,Toko Bahan Bangunan,toko gloria bangunan,"Jl. Kemakmuran No.14, Kel. Mbongawani, Kec. Ende Sel., Kabupaten Ende, Nusa Tenggara Tim.","Kabupaten Ende, Nusa Tenggara Tim.",NUSA TENGGARA TIMUR,,Indonesia, 081331006673,,,-8.8465826,121.644941,https://maps.google.com/?cid=0x0:0xe6e6044a0d0864ee,
toko bangunan,Gudang,Toko SENTRAL,"Jl. Budi Oetomo, Utomo, Bajawa, Kabupaten Ngada, Nusa Tenggara Tim. 86413","Utomo, Bajawa, Kabupaten Ngada",NUSA TENGGARA TIMUR,86413.0,Indonesia,,,,-8.7875796,120.9734623,https://maps.google.com/?cid=0x0:0x13fd05e2af09b89a,
toko bangunan,Pemasok Pipa,Toko Bangunan,"Manulai II, Kec. Alak, Kota Kupang, Nusa Tenggara Tim.","Kota Kupang, Nusa Tenggara Tim.",NUSA TENGGARA TIMUR,,Indonesia, 085123255522,,,-10.213815,123.5749527,https://maps.google.com/?cid=0x0:0x5559349e9e4fc36f,
toko bangunan,Toko Bahan Bangunan,UD. Fajar Bangunan ENDE,"Jl. Ahmad Yani, Kel. Kelimutu, Kec. Ende Tengah, Kabupaten Ende, Nusa Tenggara Tim.","Kabupaten Ende, Nusa Tenggara Tim.",NUSA TENGGARA TIMUR,,Indonesia, 082155194068,,,-8.8481109,121.6573345,https://maps.google.com/?cid=0x0:0x8a620756dd470b99,
toko bangunan,Toko Bahan Bangunan,Toko Bravo Bangunan,"Jl. Terusan Timor Raya, Pasir Panjang, Kec. Kota Lama, Kota Kupang, Nusa Tenggara Tim. 85000","Pasir Panjang, Kec. Kota Lama, Kota Kupang",NUSA TENGGARA TIMUR,85000.0,Indonesia, 081246295800,,,-10.1509378,123.6033391,https://maps.google.com/?cid=0x0:0xdf4da131f9948aff,
toko bangunan,Minimarket,toko hebron,"725V+CW9, Unnamed Rd, Mokdale, Kec. Lobalain, Kabupaten Rote Ndao, Nusa Tenggara Tim.","Kabupaten Rote Ndao, Nusa Tenggara Tim.",NUSA TENGGARA TIMUR,,Indonesia,,,,-10.7414723,123.0448675,https://maps.google.com/?cid=0x0:0x699558aa9d2e663a,
toko bangunan,Toko Bahan Bangunan,Toko Sinar Rembulan,"Kel. Mautapaga, Kec. Ende Tim., Kabupaten Ende, Nusa Tenggara Tim.","Kabupaten Ende, Nusa Tenggara Tim.",NUSA TENGGARA TIMUR,,Indonesia,,,,-8.8457899,121.6663021,https://maps.google.com/?cid=0x0:0xbda3c29037862e1f,
toko bangunan,Toko Bahan Bangunan,Toko Bangunan Jaya,"Jl. Terusan Timor Raya No.9u KM. 6, Oesapa Bar., Kec. Klp. Lima, Kota Kupang, Nusa Tenggara Tim.","Kota Kupang, Nusa Tenggara Tim.",NUSA TENGGARA TIMUR,,Indonesia, 081338567839,,,-10.14441,123.6254719,https://maps.google.com/?cid=0x0:0x4a94c89160bbe62c,
toko bangunan,Toko Perlengkapan Rumah,Mitrajaya Bangunan,"Jl. Batu Cermin No.88, Labuan Bajo, Kec. Komodo, Kabupaten Manggarai Barat, Nusa Tenggara Tim. 86754","Labuan Bajo, Kec. Komodo, Kabupaten Manggarai Barat",NUSA TENGGARA TIMUR,86754.0,Indonesia, 03852440474,,,-8.4804587,119.90029,https://maps.google.com/?cid=0x0:0x86f93ffd447674b,
toko bangunan,Toko Perlengkapan Rumah,Toko Karya Bangunan,"RJQV+H9Q, Jl. Bumi I, Oesapa Sel., Kec. Klp. Lima, Kota Kupang, Nusa Tenggara Tim.","Kota Kupang, Nusa Tenggara Tim.",NUSA TENGGARA TIMUR,,Indonesia,,,,-10.1610333,123.6434727,https://maps.google.com/?cid=0x0:0x480107de15c2a6cf,
toko bangunan,toko bangunan,Ndoso,"Ndoso, Kec. Ndoso, Kabupaten Manggarai Barat, Nusa Tenggara Tim.","Kabupaten Manggarai Barat, Nusa Tenggara Tim.",NUSA TENGGARA TIMUR,,Indonesia,,,,-8.5040549,120.320396,https://maps.google.com/?cid=0x0:0xa13f0de10f2802b2,
toko bangunan,toko bangunan,Kec. Lembor Selatan,"Kabupaten Manggarai Barat, Nusa Tenggara Tim.","Kabupaten Manggarai Barat, Nusa Tenggara Tim.",NUSA TENGGARA TIMUR,,Indonesia,,,,-8.7739706,120.1323197,https://maps.google.com/?cid=0x0:0x5bb218ae172463d2,
toko bangunan,Toko Perlengkapan Rumah,Bagus Bangunan  minimart,"747V+WJJ Bagus mart, jln ruteng, labuan bajo, Kecamatan Lembor, Kabupaten Manggarai Barat, Nusa Tenggara Tim.","Kabupaten Manggarai Barat, Nusa Tenggara Tim.",NUSA TENGGARA TIMUR,,Indonesia,,,,-8.7351516,120.1440286,https://maps.google.com/?cid=0x0:0x92a365e35efbb901,
toko bangunan,Toko Perlengkapan Rumah,BERKAH JAYA,"75R9+J2G, Tangge, Kecamatan Lembor, Kabupaten Manggarai Barat, Nusa Tenggara Tim.","Kabupaten Manggarai Barat, Nusa Tenggara Tim.",NUSA TENGGARA TIMUR,,Indonesia,,,,-8.7085641,120.1676329,https://maps.google.com/?cid=0x0:0x160dbc9aa79bf0bc,
toko bangunan,Toko,Ud Felice,"Lalo Daleng Lembor, Jl. Ruteng-Labuan Bajo, Kecamatan Lembor, Kabupaten Manggarai Barat, Nusa Tenggara Tim. 86753","Jl. Ruteng-Labuan Bajo, Kecamatan Lembor, Kabupaten Manggarai Barat",NUSA TENGGARA TIMUR,86753.0,Indonesia,,,,-8.6923786,120.2146413,https://maps.google.com/?cid=0x0:0x585b55173a12171a,
toko bangunan,Toko Bahan Bangunan,TOKO BANGUNAN SINAR KASIH,"Jl. Wae Ces, Mbaumuku, Kec. Langke Rembong, Kabupaten Manggarai, Nusa Tenggara Tim.","Kabupaten Manggarai, Nusa Tenggara Tim.",NUSA TENGGARA TIMUR,,Indonesia, 089508785992,,,-8.6047776,120.4661215,https://maps.google.com/?cid=0x0:0xdfaa29c8d1f1420f,
toko bangunan,Toko Bahan Bangunan,Toko Bangunan Indo Jaya,"FVWQ+2FW, Unnamed Road, Goron Talo, Kec. Komodo, Kabupaten Manggarai Barat, Nusa Tenggara Tim.","Kabupaten Manggarai Barat, Nusa Tenggara Tim.",NUSA TENGGARA TIMUR,,Indonesia,,,,-8.5048875,119.8887031,https://maps.google.com/?cid=0x0:0x6bdc23425b068ec8,
toko bangunan,Toko,Toko Bagus Lembor,"75R9+VV8, wae nakeng, kec, Tangge, Kecamatan Lembor, Kabupaten Manggarai Barat, Nusa Tenggara Tim.","Kabupaten Manggarai Barat, Nusa Tenggara Tim.",NUSA TENGGARA TIMUR,,Indonesia, 081220392016,,,-8.7078495,120.1697157,https://maps.google.com/?cid=0x0:0x6197e2ecd313aaaf,
toko bangunan,Toko Bahan Bangunan,toko pelangi bangunan,"FVQP+VXF, Goron Talo, Kec. Komodo, Kabupaten Manggarai Barat, Nusa Tenggara Tim.","Kabupaten Manggarai Barat, Nusa Tenggara Tim.",NUSA TENGGARA TIMUR,,Indonesia, 082145627171,,,-8.5103078,119.8874183,https://maps.google.com/?cid=0x0:0x6f62dc0810d90ac8,
toko bangunan,Toko Bahan Bangunan,toko pelangi bangunan,"FVQP+VXF, Goron Talo, Kec. Komodo, Kabupaten Manggarai Barat, Nusa Tenggara Tim.","Kabupaten Manggarai Barat, Nusa Tenggara Tim.",NUSA TENGGARA TIMUR,,Indonesia, 082145627171,,,-8.5103078,119.8874183,https://maps.google.com/?cid=0x0:0x6f62dc0810d90ac8,
toko bangunan,toko bangunan,Kec. Mbeliling,"Kabupaten Manggarai Barat, Nusa Tenggara Tim.","Kabupaten Manggarai Barat, Nusa Tenggara Tim.",NUSA TENGGARA TIMUR,,Indonesia,,,,-8.6128114,120.0597179,https://maps.google.com/?cid=0x0:0x46c9c4828bf6f8cf,
toko bangunan,Toko Bahan Bangunan,Bintang Bangunan,"Jl. Wae Mata RT/RW 003/002, Labuan Bajo, Komodo, West Manggarai Regency, East Nusa Tenggara","Kabupaten Manggarai Barat, Nusa Tenggara Tim.",NUSA TENGGARA TIMUR,,Indonesia, 081238189013,,,-8.500458,119.8913878,https://maps.google.com/?cid=0x0:0x31574b9f37f65560,
toko bangunan,Toko Bahan Bangunan,Toko Mitra Bangunan,"GV3R+4P9, Wae Kelambu, Kec. Komodo, Kabupaten Manggarai Barat, Nusa Tenggara Tim.","Kabupaten Manggarai Barat, Nusa Tenggara Tim.",NUSA TENGGARA TIMUR,,Indonesia, 081236377777,,,-8.4972125,119.8918594,https://maps.google.com/?cid=0x0:0x9da6709ec646fce5,
toko bangunan,Toko Bahan Bangunan,Toko Bangunan ELliem Group,"F732+4WW Hawe-Wae Pitak, Jln, Kolang, Kec. Kuwus, Kabupaten Manggarai Barat, Nusa Tenggara Tim.","Kabupaten Manggarai Barat, Nusa Tenggara Tim.",NUSA TENGGARA TIMUR,,Indonesia, 085237913505,,,-8.5471482,120.2523278,https://maps.google.com/?cid=0x0:0xe58d5f31c4ffc6fc,
toko bangunan,toko bangunan,TIMUR TERANG ABADI TK.,"Merombok, Golo Bilas, Labuan Bajo, Kabupaten Manggarai Barat, Nusa Tenggara Tim. 86763","Golo Bilas, Labuan Bajo, Kabupaten Manggarai Barat",NUSA TENGGARA TIMUR,86763.0,Indonesia, 082234230955,,,-8.5379401,119.8935438,https://maps.google.com/?cid=0x0:0x3dad0528092a247c,
toko bangunan,Toko Perlengkapan Rumah,Toko Bangunan Varli,"9FX3+5WJ, Jl. Hatta, Lawir, Kec. Langke Rembong, Kabupaten Manggarai, Nusa Tenggara Tim.","Kabupaten Manggarai, Nusa Tenggara Tim.",NUSA TENGGARA TIMUR,,Indonesia, 085379011870,,,-8.6020285,120.4547513,https://maps.google.com/?cid=0x0:0x93eab3c967e6bea0,
toko bangunan,Toko Bahan Bangunan,Toko Eka Mandiri,"Kaper , Rt 010/Rw 005 , Golo Bilas, Labuan Bajo, Kec. Komodo, Kabupaten Manggarai Barat, Nusa Tenggara Tim. 86711","Rt 010/Rw 005 , Golo Bilas, Labuan Bajo, Kec. Komodo, Kabupaten Manggarai Barat",NUSA TENGGARA TIMUR,86711.0,Indonesia, 085228334545,,,-8.5292227,119.8923195,https://maps.google.com/?cid=0x0:0xdd0705212f92debf,
toko bangunan,Pemasok Bahan Bangunan,Bajo Gypsum  Bangunan,"Wae Kelambu, Kec. Komodo, Kabupaten Manggarai Barat, Nusa Tenggara Tim.","Kabupaten Manggarai Barat, Nusa Tenggara Tim.",NUSA TENGGARA TIMUR,,Indonesia, 082232232663,,,-8.5050869,119.9051435,https://maps.google.com/?cid=0x0:0x24130a0a8c60014b,
toko bangunan,Pemasok Bahan Bangunan,Bajo Sinar Bangunan,"Jalan Sernaru, Wae Kelambu, Labuan bajo, Kabupaten Manggarai Barat, Nusa Tenggara Tim.","Kabupaten Manggarai Barat, Nusa Tenggara Tim.",NUSA TENGGARA TIMUR,,Indonesia, 082322186283,,,-8.5024093,119.8993792,https://maps.google.com/?cid=0x0:0xa6cd908358e6c793,
toko bangunan,Grosir,Toko Mahaputra Abadi,"Jl. Soekarno Hatta No.249, Labuan Bajo, Kec. Komodo, Kabupaten Manggarai Barat, Nusa Tenggara Tim.","Kabupaten Manggarai Barat, Nusa Tenggara Tim.",NUSA TENGGARA TIMUR,,Indonesia, 038541022,,,-8.496253,119.8791656,https://maps.google.com/?cid=0x0:0xc370eeb762facea2,
toko bangunan,Toko Perlengkapan Rumah,Bagus Bangunan  minimart,"747V+WJJ Bagus mart, jln ruteng, labuan bajo, Kecamatan Lembor, Kabupaten Manggarai Barat, Nusa Tenggara Tim.","Kabupaten Manggarai Barat, Nusa Tenggara Tim.",NUSA TENGGARA TIMUR,,Indonesia,,,,-8.7351516,120.1440286,https://maps.google.com/?cid=0x0:0x92a365e35efbb901,
toko bangunan,Toko Bahan Bangunan,Bajo bangunan,"Jl. Trans Flores, pasar baru, Labuan bajo, Kabupaten Manggarai Barat, Nusa Tenggara Tim.","Kabupaten Manggarai Barat, Nusa Tenggara Tim.",NUSA TENGGARA TIMUR,,Indonesia, 085739801738,,,-8.5075413,119.886178,https://maps.google.com/?cid=0x0:0x1815a9647f3c91c0,
toko bangunan,Toko Perlengkapan Rumah,Toko Pusat Bangunan,"JL Wisata Batu Cermin Way Kosambi, Labuan Bajo, Kec. Komodo, Kabupaten Manggarai Barat, Nusa Tenggara Tim.","Kabupaten Manggarai Barat, Nusa Tenggara Tim.",NUSA TENGGARA TIMUR,,Indonesia, 082132442772,,,-8.4864406,119.8995394,https://maps.google.com/?cid=0x0:0x9d1eaaba4270aa1c,
toko bangunan,Toko Bahan Bangunan,Flores Depo Bangunan,"Jl. Trans Flores, Goron Talo, Kec. Komodo, Kabupaten Manggarai Barat, Nusa Tenggara Tim.","Kabupaten Manggarai Barat, Nusa Tenggara Tim.",NUSA TENGGARA TIMUR,,Indonesia, 081239434040,,,-8.502223,119.8825278,https://maps.google.com/?cid=0x0:0x7ddeae9ccf378db2,
toko bangunan,Pemasok Bahan Bangunan,LOGAM BANGUNAN,"FVVM+CW5 NO WA OI54O54249, Goron Talo, Kec. Komodo, Kabupaten Manggarai Barat, Nusa Tenggara Tim.","Kabupaten Manggarai Barat, Nusa Tenggara Tim.",NUSA TENGGARA TIMUR,,Indonesia, 081287755615,,,-8.5064875,119.8848594,https://maps.google.com/?cid=0x0:0xe96ed0fb3c9d19c4,
toko bangunan,Toko Bahan Bangunan,CV Artha Niaga Gemilang (Toko Hasil),"Komplek PLN, Jl. Soekarno Hatta NO WA, RT.OI54O54-249, Labuan Bajo, Kec. Komodo, Kabupaten Manggarai Barat, Nusa Tenggara Tim. 86754","Jl. Soekarno Hatta NO WA, RT.OI54O54-249, Labuan Bajo, Kec. Komodo, Kabupaten Manggarai Barat",NUSA TENGGARA TIMUR,86754.0,Indonesia, 081332203063,,,-8.5046695,119.8838498,https://maps.google.com/?cid=0x0:0xd682e13b13f89319,
toko bangunan,Toko,Toko Anugrah Kaca,"FVVP+9CV, Goron Talo, Kec. Komodo, Kabupaten Manggarai Barat, Nusa Tenggara Tim.","Kabupaten Manggarai Barat, Nusa Tenggara Tim.",NUSA TENGGARA TIMUR,,Indonesia, 038541449,,,-8.5065175,119.886048,https://maps.google.com/?cid=0x0:0xb8d60e7d5bc1e348,
toko bangunan,Toko Perlengkapan Rumah,Saudara Bangunan,"9C43+5CV, Wee Karou, Kec. Loli, Kabupaten Sumba Barat, Nusa Tenggara Tim.","Kabupaten Sumba Barat, Nusa Tenggara Tim.",NUSA TENGGARA TIMUR,,Indonesia,,,,-9.6445021,119.403561,https://maps.google.com/?cid=0x0:0xbd0bec82e2e0b21f,
toko bangunan,Toko Bahan Bangunan,Toko Mujur Abadi Labuan Bajo,"Belakang ATM BNI, NO WA OI54O54249 Jalan Pius Papu, Labuan Bajo, Kec. Komodo, Kabupaten Manggarai Barat, Nusa Tenggara Tim. 86754",Jalan Pius Papu,NUSA TENGGARA TIMUR,54249.0,Indonesia, 081398873146,,,-8.4904361,119.8946555,https://maps.google.com/?cid=0x0:0xcc09b024b790e310,
toko bangunan,Grosir keramik,Toko Bangunan Sumber Berlian,"9FR7+R98, Pitak, Kec. Langke Rembong, Kabupaten Manggarai, Nusa Tenggara Tim.","Kabupaten Manggarai, Nusa Tenggara Tim.",NUSA TENGGARA TIMUR,,Indonesia, 038521109,,,-8.6079539,120.4634541,https://maps.google.com/?cid=0x0:0x6998fb86419a6f08,
toko bangunan,Pusat Perbelanjaan,Mitra Jaya Toko,"FW5W+78F, Nggorang, Kec. Komodo, Kabupaten Manggarai Barat, Nusa Tenggara Tim.","Kabupaten Manggarai Barat, Nusa Tenggara Tim.",NUSA TENGGARA TIMUR,,Indonesia, 038541491,,,-8.541809,119.945798,https://maps.google.com/?cid=0x0:0x17eb48a6241471e5,
toko bangunan,Toko Bahan Bangunan,Centralays Labuan Bajo,"Jl. Serenaru, Wae Kelambu, Kec. Komodo, Kabupaten Manggarai Barat, Nusa Tenggara Tim.","Kabupaten Manggarai Barat, Nusa Tenggara Tim.",NUSA TENGGARA TIMUR,,Indonesia,,,,-8.505503,119.9011674,https://maps.google.com/?cid=0x0:0x5cb8a184e1d6666c,
