Category,Real Category,Business Name,Address,City,State,Postal Code,Country,Phone,Email,Website,Latitude,Longitude,Map Link,Details Link
mall,mall,Kec. Macang Pacar,"Kabupaten Manggarai Barat, Nusa Tenggara Tim.","Kabupaten Manggarai Barat, Nusa Tenggara Tim.",NUSA TENGGARA TIMUR,,Indonesia,,,,-8.4349594,120.2725372,https://maps.google.com/?cid=0x0:0xb9473d35b1b4ecc9,
mall,Pasar,Pasar Impres Desa Bari,"J5XJ+QGC, Unnamed Road, Bari, Kec. Macang Pacar, Kabupaten Manggarai Barat, Nusa Tenggara Tim.","Kabupaten Manggarai Barat, Nusa Tenggara Tim.",NUSA TENGGARA TIMUR,,Indonesia,,,,-8.3505502,120.1812508,https://maps.google.com/?cid=0x0:0x863f67401e9e96f0,
mall,Pusat Perbelanjaan,Toko Suasana Baru,"C5XV+MCP, Compang, Kec. Macang Pacar, Kabupaten Manggarai Barat, Nusa Tenggara Tim.","Kabupaten Manggarai Barat, Nusa Tenggara Tim.",NUSA TENGGARA TIMUR,,Indonesia,,,,-8.5507883,120.1935663,https://maps.google.com/?cid=0x0:0x20ce4d1356508690,
mall,Sekolah Dasar,Kampung Balo,"F7CQ+MCR, BALO, Pangga, Kec. Kuwus, Kabupaten Manggarai Barat, Nusa Tenggara Tim.","Kabupaten Manggarai Barat, Nusa Tenggara Tim.",NUSA TENGGARA TIMUR,,Indonesia,,,,-8.5282729,120.2885026,https://maps.google.com/?cid=0x0:0xf5bbb8c5510e854f,
mall,Komplek perumahan,leda kolang,"F72G+3G7, Pangga, Kec. Kuwus, Kabupaten Manggarai Barat, Nusa Tenggara Tim.","Kabupaten Manggarai Barat, Nusa Tenggara Tim.",NUSA TENGGARA TIMUR,,Indonesia, 082187538858,,,-8.5498475,120.2763093,https://maps.google.com/?cid=0x0:0x45d33b1b5bec1b7e,
mall,Pusat Perbelanjaan,Aik,"Pong Welak, Kec. Welak, Kabupaten Manggarai Barat, Nusa Tenggara Tim.","Kabupaten Manggarai Barat, Nusa Tenggara Tim.",NUSA TENGGARA TIMUR,,Indonesia, 082211540327,,,-8.6484657,120.2411976,https://maps.google.com/?cid=0x0:0xa3e3a940b05d2289,
mall,Komplek perumahan,Rumah dean,"C68H+M48, Dunta, Kec. Welak, Kabupaten Manggarai Barat, Nusa Tenggara Tim.","Kabupaten Manggarai Barat, Nusa Tenggara Tim.",NUSA TENGGARA TIMUR,,Indonesia,,,,-8.5833399,120.2278267,https://maps.google.com/?cid=0x0:0x7b7cf4a3ff01b175,
mall,Toko umum,Kios poce,"G3VF+WMF, Sepang, Kec. Boleng, Kabupaten Manggarai Barat, Nusa Tenggara Tim.","Kabupaten Manggarai Barat, Nusa Tenggara Tim.",NUSA TENGGARA TIMUR,,Indonesia,,,,-8.455827,120.0753699,https://maps.google.com/?cid=0x0:0x107b78743a48b73d,
mall,Pembangunan Perumahan,Pertigaan jeong,"C68H+J68, Dunta, Kec. Welak, Kabupaten Manggarai Barat, Nusa Tenggara Tim.","Kabupaten Manggarai Barat, Nusa Tenggara Tim.",NUSA TENGGARA TIMUR,,Indonesia,,,,-8.5834649,120.2280631,https://maps.google.com/?cid=0x0:0x73ab7696557d0d97,
mall,Sekolah Dasar,Kampung Balo,"F7CQ+MCR, BALO, Pangga, Kec. Kuwus, Kabupaten Manggarai Barat, Nusa Tenggara Tim.","Kabupaten Manggarai Barat, Nusa Tenggara Tim.",NUSA TENGGARA TIMUR,,Indonesia,,,,-8.5282729,120.2885026,https://maps.google.com/?cid=0x0:0xf5bbb8c5510e854f,
mall,mall,Kec. Kuwus,"Kabupaten Manggarai Barat, Nusa Tenggara Tim.","Kabupaten Manggarai Barat, Nusa Tenggara Tim.",NUSA TENGGARA TIMUR,,Indonesia,,,,-8.58661,120.2649221,https://maps.google.com/?cid=0x0:0x20bc20e16a7cc39a,
mall,Komplek perumahan,leda kolang,"F72G+3G7, Pangga, Kec. Kuwus, Kabupaten Manggarai Barat, Nusa Tenggara Tim.","Kabupaten Manggarai Barat, Nusa Tenggara Tim.",NUSA TENGGARA TIMUR,,Indonesia, 082187538858,,,-8.5498475,120.2763093,https://maps.google.com/?cid=0x0:0x45d33b1b5bec1b7e,
mall,Pusat Perbelanjaan,Aik,"Pong Welak, Kec. Welak, Kabupaten Manggarai Barat, Nusa Tenggara Tim.","Kabupaten Manggarai Barat, Nusa Tenggara Tim.",NUSA TENGGARA TIMUR,,Indonesia, 082211540327,,,-8.6484657,120.2411976,https://maps.google.com/?cid=0x0:0xa3e3a940b05d2289,
mall,Komplek perumahan,Rumah dean,"C68H+M48, Dunta, Kec. Welak, Kabupaten Manggarai Barat, Nusa Tenggara Tim.","Kabupaten Manggarai Barat, Nusa Tenggara Tim.",NUSA TENGGARA TIMUR,,Indonesia,,,,-8.5833399,120.2278267,https://maps.google.com/?cid=0x0:0x7b7cf4a3ff01b175,
mall,Asosiasi Penduduk,Pasar Cancar,"C95G+FMW, Wae Belang, Kec. Ruteng, Kabupaten Manggarai, Nusa Tenggara Tim.","Kabupaten Manggarai, Nusa Tenggara Tim.",NUSA TENGGARA TIMUR,,Indonesia,,,,-8.5912553,120.3767049,https://maps.google.com/?cid=0x0:0x3e0bf2c9c959f05b,
mall,Pusat Perbelanjaan,TOKO ANEKA CANCAR,"C95G+6C4, Wae Belang, Kec. Ruteng, Kabupaten Manggarai, Nusa Tenggara Tim.","Kabupaten Manggarai, Nusa Tenggara Tim.",NUSA TENGGARA TIMUR,,Indonesia,,,,-8.5919897,120.3760829,https://maps.google.com/?cid=0x0:0x6b94101154c3e4f8,
mall,Pusat Perbelanjaan,Toko LIBERTY Cancar,"C95G+FGH, Jalan Raya Cancar (Depan Gereja St.Maria Fatima) Ruteng-Labuan Bajo, Wae Belang, Ruteng, Manggarai Regency, East Nusa Tenggara","Kabupaten Manggarai, Nusa Tenggara Tim.",NUSA TENGGARA TIMUR,,Indonesia,,,,-8.5913163,120.3763606,https://maps.google.com/?cid=0x0:0x6b552419366f5508,
mall,Pusat Perbelanjaan,Felus,"998M+792, Unnamed Road, Jaong, Kec. Satar Mese, Kabupaten Manggarai, Nusa Tenggara Tim.","Kabupaten Manggarai, Nusa Tenggara Tim.",NUSA TENGGARA TIMUR,,Indonesia, 082192197523,,,-8.6343674,120.3833769,https://maps.google.com/?cid=0x0:0xa37198cd1c37c329,
mall,Pusat Perbelanjaan,Toko Suasana Baru,"C5XV+MCP, Compang, Kec. Macang Pacar, Kabupaten Manggarai Barat, Nusa Tenggara Tim.","Kabupaten Manggarai Barat, Nusa Tenggara Tim.",NUSA TENGGARA TIMUR,,Indonesia,,,,-8.5507883,120.1935663,https://maps.google.com/?cid=0x0:0x20ce4d1356508690,
mall,mall,Om Niko,"C747+584, Unnamed Road, Benteng Curu, Kec. Kuwus, Kabupaten Manggarai Barat, Nusa Tenggara Tim.","Kabupaten Manggarai Barat, Nusa Tenggara Tim.",NUSA TENGGARA TIMUR,,Indonesia,,,,-8.5946223,120.2633262,https://maps.google.com/?cid=0x0:0x24f58aca04045fa6,
mall,Pusat Perbelanjaan,Mall Paradise Walk Serpong,"Paradise Walk Serpong, Jl. Raya Puspitek, Raya, Kec. Serpong, Kota Tangerang Selatan, Banten 15315","Jl. Raya Puspitek, Raya, Kec. Serpong, Kota Tangerang Selatan",NUSA TENGGARA TIMUR,15315.0,Indonesia,,,,-6.3485883,106.6944207,https://maps.google.com/?cid=0x0:0x58c05aee341f4609,
mall,Pusat Perbelanjaan,FX Sudirman,"Jl. Jenderal Sudirman, Gelora, Kecamatan Tanah Abang, Kota Jakarta Pusat, Daerah Khusus Ibukota Jakarta 10270","Gelora, Kecamatan Tanah Abang, Kota Jakarta Pusat",NUSA TENGGARA TIMUR,10270.0,Indonesia, 02125554600,,,-6.2246691,106.8039106,https://maps.google.com/?cid=0x0:0xd635e33c7c001b3d,
mall,Kompleks Kondominium,Green Pramuka Square,"Jl. Rw. Jaya No.49, Rawasari, Kec. Cemp. Putih, Kota Jakarta Pusat, Daerah Khusus Ibukota Jakarta 10570","Rawasari, Kec. Cemp. Putih, Kota Jakarta Pusat",NUSA TENGGARA TIMUR,10570.0,Indonesia, 02129624747,,,-6.18892,106.8739915,https://maps.google.com/?cid=0x0:0xc1176b766df1697e,
mall,Pusat Perbelanjaan,ASHTA District 8,"Jl. Senopati No.83, Senayan, Kec. Kby. Baru, Kota Jakarta Selatan, Daerah Khusus Ibukota Jakarta 12190","Senayan, Kec. Kby. Baru, Kota Jakarta Selatan",NUSA TENGGARA TIMUR,12190.0,Indonesia, 02150262888,,,-6.229976,106.8070846,https://maps.google.com/?cid=0x0:0x1042cab307c13c5f,
mall,Pusat Perbelanjaan,SUBAR MUNTHUNK,"75R8+RMQ, Jl. Ruteng, Tangge, Kecamatan Lembor, Kabupaten Manggarai Barat, Nusa Tenggara Tim.","Kabupaten Manggarai Barat, Nusa Tenggara Tim.",NUSA TENGGARA TIMUR,,Indonesia, 082339748832,,,-8.7079079,120.1667201,https://maps.google.com/?cid=0x0:0xc8575be037081be5,
mall,mall,Kecamatan Lembor,"Kabupaten Manggarai Barat, Nusa Tenggara Tim.","Kabupaten Manggarai Barat, Nusa Tenggara Tim.",NUSA TENGGARA TIMUR,,Indonesia,,,,-8.7081253,120.1677018,https://maps.google.com/?cid=0x0:0xd449d3835f0762cf,
mall,Toko,Pancaran Mart Lembor,"75R7+XPX, Tangge, Kecamatan Lembor, Kabupaten Manggarai Barat, Nusa Tenggara Tim.","Kabupaten Manggarai Barat, Nusa Tenggara Tim.",NUSA TENGGARA TIMUR,,Indonesia,,,,-8.7075194,120.1643624,https://maps.google.com/?cid=0x0:0x7d8d7aa4db5639d7,
mall,mall,LimedMori,"75Q9+V72, Unnamed Road, Tangge, Kecamatan Lembor, Kabupaten Manggarai Barat, Nusa Tenggara Tim.","Kabupaten Manggarai Barat, Nusa Tenggara Tim.",NUSA TENGGARA TIMUR,,Indonesia,,,,-8.7103566,120.1681288,https://maps.google.com/?cid=0x0:0xc9daef5bf79c4e13,
mall,Toko,Kios Alvino Anjelo,"8593+X4F, Siru, Kecamatan Lembor, Kabupaten Manggarai Barat, Nusa Tenggara Tim.","Kabupaten Manggarai Barat, Nusa Tenggara Tim.",NUSA TENGGARA TIMUR,,Indonesia, 081338710810,,,-8.6800594,120.1527978,https://maps.google.com/?cid=0x0:0x9a2fcebd06769c47,
mall,mall,Berto,"75W9+5F4, Poco Rutang, Kecamatan Lembor, Kabupaten Manggarai Barat, Nusa Tenggara Tim.","Kabupaten Manggarai Barat, Nusa Tenggara Tim.",NUSA TENGGARA TIMUR,,Indonesia,,,,-8.7046103,120.1686897,https://maps.google.com/?cid=0x0:0x52431e9ccc1991e7,
mall,Kios,Kios Cahaya,"75R8+V2F, Jl. Ruteng, Tangge, Kecamatan Lembor, Kabupaten Manggarai Barat, Nusa Tenggara Tim.","Kabupaten Manggarai Barat, Nusa Tenggara Tim.",NUSA TENGGARA TIMUR,,Indonesia, 082266388550,,,-8.7078016,120.1650538,https://maps.google.com/?cid=0x0:0xa060a6dbd3e64e9a,
mall,Pusat Perbelanjaan,TOKO HANAFI JAYA,"Pasar Malwatar, jln. gang susteran, Tangge, Kecamatan Lembor, Kabupaten Manggarai Barat, Nusa Tenggara Tim.","Kabupaten Manggarai Barat, Nusa Tenggara Tim.",NUSA TENGGARA TIMUR,,Indonesia, 081338077997,,,-8.7091669,120.167645,https://maps.google.com/?cid=0x0:0x826d3661ad1ca1e6,
mall,Perhimpunan Pengembang Perumahan,NNT flores,"856C+95H, Siru, Kecamatan Lembor, Kabupaten Manggarai Barat, Nusa Tenggara Tim.","Kabupaten Manggarai Barat, Nusa Tenggara Tim.",NUSA TENGGARA TIMUR,,Indonesia,,,,-8.6890651,120.1704766,https://maps.google.com/?cid=0x0:0x9df323c27b7c9873,
mall,Kios,KIOS RYAN,"Unnamed Road, Siru, Kecamatan Lembor, Kabupaten Manggarai Barat, Nusa Tenggara Tim.","Kabupaten Manggarai Barat, Nusa Tenggara Tim.",NUSA TENGGARA TIMUR,,Indonesia, 081337846941,,,-8.6809431,120.1531382,https://maps.google.com/?cid=0x0:0x523d5dcf16dfebd3,
mall,Pusat Perbelanjaan,APRIL CELL,"76R9+7F7, Kakor, Kecamatan Lembor, Kabupaten Manggarai Barat, Nusa Tenggara Tim.","Kabupaten Manggarai Barat, Nusa Tenggara Tim.",NUSA TENGGARA TIMUR,,Indonesia, 081340471001,,,-8.7093294,120.2186587,https://maps.google.com/?cid=0x0:0xc2cc0471907e4f0e,
mall,Pusat Perbelanjaan,Kios jeims sembako/BRILINK,"87PR+56, Wae Bangka, Kecamatan Lembor, Kabupaten Manggarai Barat, Nusa Tenggara Tim.","Kabupaten Manggarai Barat, Nusa Tenggara Tim.",NUSA TENGGARA TIMUR,,Indonesia,,,,-8.66458,120.290513,https://maps.google.com/?cid=0x0:0xd713bbda1c5735e,
mall,Kios,Warung Marsel Hero koe,"88CF+6XJ, Kole, Kec. Satar Mese Bar., Kabupaten Manggarai, Nusa Tenggara Tim.","Kabupaten Manggarai, Nusa Tenggara Tim.",NUSA TENGGARA TIMUR,,Indonesia, 081353552313,,,-8.6794144,120.3248865,https://maps.google.com/?cid=0x0:0xafb0bec148e5f4a0,
mall,Kios,Kios sinar pagi,"Kakor, Kecamatan Lembor, Kabupaten Manggarai Barat, Nusa Tenggara Tim.","Kabupaten Manggarai Barat, Nusa Tenggara Tim.",NUSA TENGGARA TIMUR,,Indonesia, 082235608517,,,-8.7071886,120.2113951,https://maps.google.com/?cid=0x0:0x6a22b8a34cde2931,
mall,Komplek perumahan,Shafa Fasion,"75R7+XVJ, Jl. Ruteng, Tangge, Kecamatan Lembor, Kabupaten Manggarai Barat, Nusa Tenggara Tim.","Kabupaten Manggarai Barat, Nusa Tenggara Tim.",NUSA TENGGARA TIMUR,,Indonesia, 081252457786,,,-8.7075497,120.1646507,https://maps.google.com/?cid=0x0:0x99ecc1cd2b97fb5c,
mall,Pusat Perbelanjaan,Kios om simon,"86XJ+4GH, Orong, Kec. Welak, Kabupaten Manggarai Barat, Nusa Tenggara Tim.","Kabupaten Manggarai Barat, Nusa Tenggara Tim.",NUSA TENGGARA TIMUR,,Indonesia, 081350656145,,,-8.6521823,120.2313553,https://maps.google.com/?cid=0x0:0x295e6e972b8018c0,
mall,Restoran,C2C,"75R7+WJJ, Jl. Ruteng, Tangge, Kecamatan Lembor, Kabupaten Manggarai Barat, Nusa Tenggara Tim.","Kabupaten Manggarai Barat, Nusa Tenggara Tim.",NUSA TENGGARA TIMUR,,Indonesia, 082146067000,,,-8.7076586,120.1640174,https://maps.google.com/?cid=0x0:0x3f9c8f1831bed416,
mall,Pusat Perbelanjaan,Jupitet j1,"75WJ+78P, Unnamed Road, Poco Rutang, Kecamatan Lembor, Kabupaten Manggarai Barat, Nusa Tenggara Tim.","Kabupaten Manggarai Barat, Nusa Tenggara Tim.",NUSA TENGGARA TIMUR,,Indonesia, 08123647123,,,-8.7042774,120.1808217,https://maps.google.com/?cid=0x0:0x77f8622e4e881fd1,
mall,Toko,Pangkalan minyak tanah hyasintus,"8633+MPF, Daleng, Kecamatan Lembor, Kabupaten Manggarai Barat, Nusa Tenggara Tim.","Kabupaten Manggarai Barat, Nusa Tenggara Tim.",NUSA TENGGARA TIMUR,,Indonesia, 085239183977,,,-8.6958201,120.2042866,https://maps.google.com/?cid=0x0:0xa4c1bf3b1c113fbf,
mall,mall,RUMAH (MARKUS MAGAL) JALUR UMUM TRANS FLORES,"84PP+87, Golo Ronggot, Kec. Welak, Kabupaten Manggarai Barat, Nusa Tenggara Tim.","Kabupaten Manggarai Barat, Nusa Tenggara Tim.",NUSA TENGGARA TIMUR,,Indonesia,,,,-8.6636032,120.1367976,https://maps.google.com/?cid=0x0:0xba806a3315d32ee,
mall,Kios,Aiden Cell (Kios Sembako),"76RC+RF, Kakor, Kec. Lembor Selatan, Kabupaten Manggarai Barat, Nusa Tenggara Tim.","Kabupaten Manggarai Barat, Nusa Tenggara Tim.",NUSA TENGGARA TIMUR,,Indonesia, 082147494056,,,-8.7078946,120.2211857,https://maps.google.com/?cid=0x0:0x2bc654fe798bf199,
mall,Kantor Perusahaan,Terminal Lembor,"856C+95H, Siru, Kecamatan Lembor, Kabupaten Manggarai Barat, Nusa Tenggara Tim.","Kabupaten Manggarai Barat, Nusa Tenggara Tim.",NUSA TENGGARA TIMUR,,Indonesia, 085337712776,,,-8.6890651,120.1704766,https://maps.google.com/?cid=0x0:0xf861262072acad7f,
mall,Pusat Perbelanjaan,Kios Siti Daiman,"92FV+2JX, Jl. Kakor Kec, Kempo, Lembor Sel., West Manggarai Regency, East Nusa Tenggara","Kabupaten Manggarai Barat, Nusa Tenggara Tim.",NUSA TENGGARA TIMUR,,Indonesia, 081236297021,,,-8.6273772,120.0441061,https://maps.google.com/?cid=0x0:0x6f1191e05b6b8aad,
mall,Kios,Kios valtra,"93F2+R4P, Kempo, Kec. Sano Nggoang, Kabupaten Manggarai Barat, Nusa Tenggara Tim.","Kabupaten Manggarai Barat, Nusa Tenggara Tim.",NUSA TENGGARA TIMUR,,Indonesia,,,,-8.6254245,120.0503359,https://maps.google.com/?cid=0x0:0xb897ee60f2bbe56b,
mall,mall,Nusa Tenggara Tim.,,Nusa Tenggara Tim.,NUSA TENGGARA TIMUR,,Indonesia,,,,-8.6573819,121.0793705,https://maps.google.com/?cid=0x0:0x1030bfbcaf71ae0,
mall,Komplek perumahan,"Noa Il,Golo Ndoal,Kabupaten,Manggarai Barat,Nusa Tenggara Timur","C28R+G6X, Golo Ndoal, Kec. Sano Nggoang, Kabupaten Manggarai Barat, Nusa Tenggara Tim.","Kabupaten Manggarai Barat, Nusa Tenggara Tim.",NUSA TENGGARA TIMUR,,Indonesia, 082145018784,,,-8.5840702,120.0416608,https://maps.google.com/?cid=0x0:0xa6cbc6afb74be467,
mall,Tujuan Wisata,Danau Sano Nggoang,"7XQR+P78 Nunang, Desa, Wae Sano, Kec. Sano Nggoang, Kabupaten Manggarai Barat, Nusa Tenggara Tim.","Kabupaten Manggarai Barat, Nusa Tenggara Tim.",NUSA TENGGARA TIMUR,,Indonesia,,,,-8.710706,119.9907134,https://maps.google.com/?cid=0x0:0xb086dd945f2177a0,
mall,Kios,Moke sangi,"7XC4+8M8, Bu Utara, Kec. Tana Wawo, Kabupaten Sikka, Nusa Tenggara Tim.","Kabupaten Sikka, Nusa Tenggara Tim.",NUSA TENGGARA TIMUR,,Indonesia,,,,-8.728826,121.956459,https://maps.google.com/?cid=0x0:0x422e8916121e44ba,
mall,mall,Risal Kios,"CX26+VQ5, Unnamed Road, Liang Ndara, Kec. Sano Nggoang, Kabupaten Manggarai Barat, Nusa Tenggara Tim.","Kabupaten Manggarai Barat, Nusa Tenggara Tim.",NUSA TENGGARA TIMUR,,Indonesia,,,,-8.5978526,119.9619849,https://maps.google.com/?cid=0x0:0xb0ae934a56a691c6,
mall,mall,Kec. Sano Nggoang,"Kabupaten Manggarai Barat, Nusa Tenggara Tim.","Kabupaten Manggarai Barat, Nusa Tenggara Tim.",NUSA TENGGARA TIMUR,,Indonesia,,,,-8.6504359,120.0088957,https://maps.google.com/?cid=0x0:0xbdd044f0cd4c82fb,
mall,Kios,Kios valtra,"93F2+R4P, Kempo, Kec. Sano Nggoang, Kabupaten Manggarai Barat, Nusa Tenggara Tim.","Kabupaten Manggarai Barat, Nusa Tenggara Tim.",NUSA TENGGARA TIMUR,,Indonesia,,,,-8.6254245,120.0503359,https://maps.google.com/?cid=0x0:0xb897ee60f2bbe56b,
mall,Biro Perjalanan dan Wisata,Tourist Information Center (Waterfall),"Jln. Langgo Werang, Wae Lolos, Kec. Sano Nggoang, Kabupaten Manggarai Barat, Nusa Tenggara Tim. 86758","Wae Lolos, Kec. Sano Nggoang, Kabupaten Manggarai Barat",NUSA TENGGARA TIMUR,86758.0,Indonesia, 082144823347,,,-8.6223187,119.9918389,https://maps.google.com/?cid=0x0:0xf0eac01418d1c378,
mall,Pusat Perbelanjaan,Rose V Nasa Labuan Bajo,"83J8+FJC, Labuan Bajo, Kec. Sano Nggoang, Kabupaten Manggarai Barat, Nusa Tenggara Tim.","Kabupaten Manggarai Barat, Nusa Tenggara Tim.",NUSA TENGGARA TIMUR,,Indonesia, 082236696077,,,-8.6688148,120.0665236,https://maps.google.com/?cid=0x0:0xdc4a4422bc2878b2,
mall,Kios,Irhone Cell,"CX27+X5H, Unnamed Road, Liang Ndara, Kec. Sano Nggoang, Kabupaten Manggarai Barat, Nusa Tenggara Tim.","Kabupaten Manggarai Barat, Nusa Tenggara Tim.",NUSA TENGGARA TIMUR,,Indonesia,,,,-8.5975546,119.9629716,https://maps.google.com/?cid=0x0:0x21232cb33433f9d1,
mall,mall,RUMAH (MARKUS MAGAL) JALUR UMUM TRANS FLORES,"84PP+87, Golo Ronggot, Kec. Welak, Kabupaten Manggarai Barat, Nusa Tenggara Tim.","Kabupaten Manggarai Barat, Nusa Tenggara Tim.",NUSA TENGGARA TIMUR,,Indonesia,,,,-8.6636032,120.1367976,https://maps.google.com/?cid=0x0:0xba806a3315d32ee,
mall,Biro Perjalanan dan Wisata,Jual tiket pesawat/kapal,"92HR+V98, Golo Desat, Kec. Sano Nggoang, Kabupaten Manggarai Barat, Nusa Tenggara Tim.","Kabupaten Manggarai Barat, Nusa Tenggara Tim.",NUSA TENGGARA TIMUR,,Indonesia,,,,-8.6126076,120.059815,https://maps.google.com/?cid=0x0:0x6b9380133f6336bc,
mall,Pusat Perbelanjaan,Kios Siti Daiman,"92FV+2JX, Jl. Kakor Kec, Kempo, Lembor Sel., West Manggarai Regency, East Nusa Tenggara","Kabupaten Manggarai Barat, Nusa Tenggara Tim.",NUSA TENGGARA TIMUR,,Indonesia, 081236297021,,,-8.6273772,120.0441061,https://maps.google.com/?cid=0x0:0x6f1191e05b6b8aad,
mall,Pusat Perbelanjaan,NarJi Kios,"Golo Pongkor, Kec. Komodo, Kabupaten Manggarai Barat, Nusa Tenggara Tim.","Kabupaten Manggarai Barat, Nusa Tenggara Tim.",NUSA TENGGARA TIMUR,,Indonesia,,,,-8.5902097,119.895341,https://maps.google.com/?cid=0x0:0x4b21d2c7dbe919f3,
mall,Komplek perumahan,Werang,"82R7+GRJ, Golo Mbu, Kec. Sano Nggoang, Kabupaten Manggarai Barat, Nusa Tenggara Tim.","Kabupaten Manggarai Barat, Nusa Tenggara Tim.",NUSA TENGGARA TIMUR,,Indonesia,,,,-8.6586645,120.0145169,https://maps.google.com/?cid=0x0:0x7964a3691b39be2a,
mall,Toko bahan makanan,Kios Farhan Benteng,"CV6Q+664, Unnamed Road, Golo Pongkor, Kec. Komodo, Kabupaten Manggarai Barat, Nusa Tenggara Tim.","Kabupaten Manggarai Barat, Nusa Tenggara Tim.",NUSA TENGGARA TIMUR,,Indonesia, 082146613204,,,-8.5894766,119.8880829,https://maps.google.com/?cid=0x0:0x566bf17ffd216b3,
mall,Sekolah Menengah Umum,SMAN 1 SANO NGGOANG,"84Q5+4CG, Unnamed Road, Golo Leleng, Kec. Sano Nggoang, Kabupaten Manggarai Barat, Nusa Tenggara Tim.","Kabupaten Manggarai Barat, Nusa Tenggara Tim.",NUSA TENGGARA TIMUR,,Indonesia,,,,-8.6621958,120.1085756,https://maps.google.com/?cid=0x0:0xe465da0e067824dc,
mall,Kios,KIOS RYAN,"Unnamed Road, Siru, Kecamatan Lembor, Kabupaten Manggarai Barat, Nusa Tenggara Tim.","Kabupaten Manggarai Barat, Nusa Tenggara Tim.",NUSA TENGGARA TIMUR,,Indonesia, 081337846941,,,-8.6809431,120.1531382,https://maps.google.com/?cid=0x0:0x523d5dcf16dfebd3,
mall,mall,Pedro kios,"72G5+XF9 Taal, Wae Sano, Kec. Sano Nggoang, Kabupaten Manggarai Barat, Nusa Tenggara Tim.","Kabupaten Manggarai Barat, Nusa Tenggara Tim.",NUSA TENGGARA TIMUR,,Indonesia,,,,-8.7225966,120.0087372,https://maps.google.com/?cid=0x0:0x77326f5e21db0280,
mall,mall,Nusa Tenggara Tim.,,Nusa Tenggara Tim.,NUSA TENGGARA TIMUR,,Indonesia,,,,-8.6573819,121.0793705,https://maps.google.com/?cid=0x0:0x1030bfbcaf71ae0,
mall,Hotel,Plaza Marina Labuan Bajo,"Jl. Soekarno Hatta No.20, Labuan Bajo, Kec. Komodo, Kabupaten Manggarai Barat, Nusa Tenggara Tim.","Kabupaten Manggarai Barat, Nusa Tenggara Tim.",NUSA TENGGARA TIMUR,,Indonesia,,,,-8.4908903,119.876118,https://maps.google.com/?cid=0x0:0xdcad9001c956147a,
mall,Kantor Perusahaan,GLOBAL KOMODO INDONESIA,"GW22+H9W, Wae Kelambu, Kec. Komodo, Kabupaten Manggarai Barat, Nusa Tenggara Tim.","Kabupaten Manggarai Barat, Nusa Tenggara Tim.",NUSA TENGGARA TIMUR,,Indonesia, 081310648999,,,-8.498517,119.9009493,https://maps.google.com/?cid=0x0:0xf8d0a80b475345f4,
mall,Toko Suvenir,Komodo Giftshop,"Jl. Raymundus Rambu Jl. Batu Cermin No.17, Labuan Bajo, Komodo, West Manggarai Regency, East Nusa Tenggara 86754","Labuan Bajo, Komodo, West Manggarai Regency",NUSA TENGGARA TIMUR,86754.0,Indonesia, 081236849269,,,-8.473853,119.8960502,https://maps.google.com/?cid=0x0:0xd09a588a338829ad,
mall,Pasar,Oleh-oleh khas Labuan Bajo,"Kampung Lancang Kelurahan Wa Kelambu Labuan Bajo Labuan Bajo, Wae Kelambu, Kec. Komodo, Kabupaten Manggarai Barat, Nusa Tenggara Tim. 86754","Wae Kelambu, Kec. Komodo, Kabupaten Manggarai Barat",NUSA TENGGARA TIMUR,86754.0,Indonesia, 081237507438,,,-8.4962449,119.9061801,https://maps.google.com/?cid=0x0:0x3c4657a0268d071,
mall,Pusat Perbelanjaan,Central labuan bajo - Toserba - swalayan - toko terlengkap di labuan bajo,"COWANG DERENG, Labuan Bajo, Kec. Komodo, Kabupaten Manggarai Barat, Nusa Tenggara Tim.","Kabupaten Manggarai Barat, Nusa Tenggara Tim.",NUSA TENGGARA TIMUR,,Indonesia, 082147511597,,,-8.4900046,119.8950034,https://maps.google.com/?cid=0x0:0xd97b0a8c9bd2c024,
mall,Pusat Perbelanjaan,Labuan Square,"Jl. Soekarno Hatta, Goron Talo, Kec. Komodo, Kabupaten Manggarai Barat, Nusa Tenggara Tim.","Kabupaten Manggarai Barat, Nusa Tenggara Tim.",NUSA TENGGARA TIMUR,,Indonesia, 081138795888,,,-8.4985625,119.8827575,https://maps.google.com/?cid=0x0:0xbbaef32f1cc06bd,
mall,Kios,Kios Alam Komodo Labuan Bajo,"GV5G+6G3, Jl. Soekarno Hatta, Labuan Bajo, Kec. Komodo, Kabupaten Manggarai Barat, Nusa Tenggara Tim.","Kabupaten Manggarai Barat, Nusa Tenggara Tim.",NUSA TENGGARA TIMUR,,Indonesia,,,,-8.4919807,119.8763035,https://maps.google.com/?cid=0x0:0xe24703c84b6d466a,
mall,Toko Swalayan,ZASGO MART,"Jl. Soekarno Hatta, Labuan Bajo, Kec. Komodo, Kabupaten Manggarai Barat, Nusa Tenggara Tim.","Kabupaten Manggarai Barat, Nusa Tenggara Tim.",NUSA TENGGARA TIMUR,,Indonesia, 082145408947,,,-8.4988048,119.882725,https://maps.google.com/?cid=0x0:0x907afe04258f6944,
mall,Pusat Perbelanjaan,Ruko JP,"FVJQ+QR8, Jl. Trans Flores, Labuan Bajo, Kec. Komodo, Kabupaten Manggarai Barat, Nusa Tenggara Tim.","Kabupaten Manggarai Barat, Nusa Tenggara Tim.",NUSA TENGGARA TIMUR,,Indonesia, 081288737134,,,-8.5180808,119.8895828,https://maps.google.com/?cid=0x0:0xb6c0a8c490cfe3d3,
mall,Hotel,Miniso Labuan Square,"GV2M+H39, Jl. Soekarno Hatta, Goron Talo, Kec. Komodo, Kabupaten Manggarai Barat, Nusa Tenggara Tim.","Kabupaten Manggarai Barat, Nusa Tenggara Tim.",NUSA TENGGARA TIMUR,,Indonesia, 081236018945,,,-8.4985819,119.8827349,https://maps.google.com/?cid=0x0:0x415d78992ccf8cee,
mall,Toko Perlengkapan Rumah,Toko Mitra Jaya,"GV3R+656, Wae Kelambu, Kec. Komodo, Kabupaten Manggarai Barat, Nusa Tenggara Tim.","Kabupaten Manggarai Barat, Nusa Tenggara Tim.",NUSA TENGGARA TIMUR,,Indonesia,,,,-8.4969543,119.890394,https://maps.google.com/?cid=0x0:0xdd261f56e2f5b197,
mall,Gudang,Ruko Pemda Mabar,"GV5W+646, Wae Kelambu, Kec. Komodo, Kabupaten Manggarai Barat, Nusa Tenggara Tim.","Kabupaten Manggarai Barat, Nusa Tenggara Tim.",NUSA TENGGARA TIMUR,,Indonesia,,,,-8.4919652,119.8952618,https://maps.google.com/?cid=0x0:0x27ff091284f1faa1,
mall,Pusat Perbelanjaan,Brun Brun Paris Labuan Bajo,"Jl. Soekarno Hatta No.20, Labuan Bajo, Kec. Komodo, Kabupaten Manggarai Barat, Nusa Tenggara Tim.","Kabupaten Manggarai Barat, Nusa Tenggara Tim.",NUSA TENGGARA TIMUR,,Indonesia,,,,-8.4912624,119.8766337,https://maps.google.com/?cid=0x0:0x6e7d00b61cbb1414,
mall,Pusat Perbelanjaan,Golan Artshop And Bajo Rental,"GV5G+8MG, Labuan Bajo, Kec. Komodo, Kabupaten Manggarai Barat, Nusa Tenggara Tim.","Kabupaten Manggarai Barat, Nusa Tenggara Tim.",NUSA TENGGARA TIMUR,,Indonesia, 03852440495,,,-8.4916862,119.8766883,https://maps.google.com/?cid=0x0:0xe3d304648f98e0b2,
mall,Kantor Perusahaan,HE BPLC SITE 1,"GV5W+327, Wae Kelambu, Kec. Komodo, Kabupaten Manggarai Barat, Nusa Tenggara Tim.","Kabupaten Manggarai Barat, Nusa Tenggara Tim.",NUSA TENGGARA TIMUR,,Indonesia,,,,-8.4923407,119.8950514,https://maps.google.com/?cid=0x0:0xb51bc920cf07a793,
mall,Pusat Perbelanjaan,Rmh.Ferdinandus Jaleng,"GVJV+PXV, Batu Cermin, Kec. Komodo, Kabupaten Manggarai Barat, Nusa Tenggara Tim.","Kabupaten Manggarai Barat, Nusa Tenggara Tim.",NUSA TENGGARA TIMUR,,Indonesia,,,,-8.4681368,119.8949264,https://maps.google.com/?cid=0x0:0xc8313ac4b21d9f46,
mall,Toko,Madu Hutan Labuan Bajo,"Wae Kelambu, Kec. Komodo, Kabupaten Manggarai Barat, Nusa Tenggara Tim.","Kabupaten Manggarai Barat, Nusa Tenggara Tim.",NUSA TENGGARA TIMUR,,Indonesia, 085338410582,,,-8.5022194,119.8959756,https://maps.google.com/?cid=0x0:0xc6911b66054bcc81,
mall,Pusat Perbelanjaan,Toko Harapan Megah,"GV7V+5W6, Batu Cermin, Kec. Komodo, Kabupaten Manggarai Barat, Nusa Tenggara Tim.","Kabupaten Manggarai Barat, Nusa Tenggara Tim.",NUSA TENGGARA TIMUR,,Indonesia, 08123572194,,,-8.4870821,119.8947509,https://maps.google.com/?cid=0x0:0x3b5f6f8af160c254,
mall,Toko Pakaian Anak,Bintang Kecil Baby Shop,"GV3R+4R9, Wae Kelambu, Kec. Komodo, Kabupaten Manggarai Barat, Nusa Tenggara Tim.","Kabupaten Manggarai Barat, Nusa Tenggara Tim.",NUSA TENGGARA TIMUR,,Indonesia,,,,-8.4972159,119.8920981,https://maps.google.com/?cid=0x0:0xa65899a52531ee06,
mall,Toko,Puanshop Labuan Bajo,"Jl. Soekarno Hatta No.20, Labuan Bajo, Kec. Komodo, Kabupaten Manggarai Barat, Nusa Tenggara Tim.","Kabupaten Manggarai Barat, Nusa Tenggara Tim.",NUSA TENGGARA TIMUR,,Indonesia, 082144444888,,,-8.4912093,119.8766102,https://maps.google.com/?cid=0x0:0x60432a706a1a51,
mall,Kantor Perusahaan,HE BPLC SITE 1,"GV5W+327, Wae Kelambu, Kec. Komodo, Kabupaten Manggarai Barat, Nusa Tenggara Tim.","Kabupaten Manggarai Barat, Nusa Tenggara Tim.",NUSA TENGGARA TIMUR,,Indonesia,,,,-8.4923407,119.8950514,https://maps.google.com/?cid=0x0:0xb51bc920cf07a793,
mall,mall,Nusa Tenggara Tim.,,Nusa Tenggara Tim.,NUSA TENGGARA TIMUR,,Indonesia,,,,-8.6573819,121.0793705,https://maps.google.com/?cid=0x0:0x1030bfbcaf71ae0,
mall,Komplek perumahan,Kios Lodo hau,"J7MH+V96, Neleblolong, Kec. Ile Boleng, Kabupaten Flores Timur, Nusa Tenggara Tim.","Kabupaten Flores Timur, Nusa Tenggara Tim.",NUSA TENGGARA TIMUR,,Indonesia,,,,-8.3653479,123.2783996,https://maps.google.com/?cid=0x0:0xcca8f8565d9eca24,
mall,Komplek perumahan,Rumah dean,"C68H+M48, Dunta, Kec. Welak, Kabupaten Manggarai Barat, Nusa Tenggara Tim.","Kabupaten Manggarai Barat, Nusa Tenggara Tim.",NUSA TENGGARA TIMUR,,Indonesia,,,,-8.5833399,120.2278267,https://maps.google.com/?cid=0x0:0x7b7cf4a3ff01b175,
mall,Pusat Perbelanjaan,BIOFLOG LOLON GIREK,"JVC6+7GP, Blepanawa, Kec. Demon Pagong, Kabupaten Flores Timur, Nusa Tenggara Tim.","Kabupaten Flores Timur, Nusa Tenggara Tim.",NUSA TENGGARA TIMUR,,Indonesia,,,,-8.379289,122.8613225,https://maps.google.com/?cid=0x0:0x604d6869ad53e241,
mall,mall,Boleng,"Waijarang, Kec. Nubatukan, Kabupaten Lembata, Nusa Tenggara Tim.","Kabupaten Lembata, Nusa Tenggara Tim.",NUSA TENGGARA TIMUR,,Indonesia,,,,-8.409525,123.345529,https://maps.google.com/?cid=0x0:0xffc7a39d57efdaaf,
mall,Pusat Perbelanjaan,Central labuan bajo - Toserba - swalayan - toko terlengkap di labuan bajo,"COWANG DERENG, Labuan Bajo, Kec. Komodo, Kabupaten Manggarai Barat, Nusa Tenggara Tim.","Kabupaten Manggarai Barat, Nusa Tenggara Tim.",NUSA TENGGARA TIMUR,,Indonesia, 082147511597,,,-8.4900046,119.8950034,https://maps.google.com/?cid=0x0:0xd97b0a8c9bd2c024,
mall,Pusat Perbelanjaan,Kios Valens,"J7HH+HFV, Nelelamadike, Kec. Ile Boleng, Kabupaten Flores Timur, Nusa Tenggara Tim.","Kabupaten Flores Timur, Nusa Tenggara Tim.",NUSA TENGGARA TIMUR,,Indonesia,,,,-8.3710028,123.2786839,https://maps.google.com/?cid=0x0:0x3d265d8b1b7d6b75,
mall,Pusat Perbelanjaan,Kios Maradeka,"P635+QHH, RT.10/RW.5, Mangaaleng, Kec. Kelubagolit, Kabupaten Flores Timur, Nusa Tenggara Tim.","Kabupaten Flores Timur, Nusa Tenggara Tim.",NUSA TENGGARA TIMUR,,Indonesia, 081239683627,,,-8.295552,123.2089818,https://maps.google.com/?cid=0x0:0x9f8dd1f7bbfb959e,
mall,Pusat Perbelanjaan,Toko Modern Fastpay NTT,"MX6P+H8P, Lokea, Kec. Larantuka, Kabupaten Flores Timur, Nusa Tenggara Tim.","Kabupaten Flores Timur, Nusa Tenggara Tim.",NUSA TENGGARA TIMUR,,Indonesia,,,,-8.3385363,122.9858413,https://maps.google.com/?cid=0x0:0x48eb49a6c6bfcef8,
mall,Pusat Perbelanjaan,Millenia Outlet Cinere Mall,"Cinere Mall Lantai 1 Unit 19 -21, Kota Depok, Jawa Barat 16514",Kota Depok,NUSA TENGGARA TIMUR,16514.0,Indonesia, 083841461340,,,-6.3239051,106.7837392,https://maps.google.com/?cid=0x0:0x4627fc15d0ed5a46,
mall,Pusat Perbelanjaan,Mangga 2 Square,"Jl. Gn. Sahari No.1, Ancol, Kec. Pademangan, Jkt Utara, Daerah Khusus Ibukota Jakarta 14420","Ancol, Kec. Pademangan, Jkt Utara",NUSA TENGGARA TIMUR,14420.0,Indonesia, 02162313000,,,-6.1387841,106.8316377,https://maps.google.com/?cid=0x0:0xcc24e8c546bb46a1,
mall,mall,Kec. Welak,"Kabupaten Manggarai Barat, Nusa Tenggara Tim.","Kabupaten Manggarai Barat, Nusa Tenggara Tim.",NUSA TENGGARA TIMUR,,Indonesia,,,,-8.6284325,120.1747836,https://maps.google.com/?cid=0x0:0x9d0199762a8049e0,
mall,Pusat Perbelanjaan,Kios om simon,"86XJ+4GH, Orong, Kec. Welak, Kabupaten Manggarai Barat, Nusa Tenggara Tim.","Kabupaten Manggarai Barat, Nusa Tenggara Tim.",NUSA TENGGARA TIMUR,,Indonesia, 081350656145,,,-8.6521823,120.2313553,https://maps.google.com/?cid=0x0:0x295e6e972b8018c0,
mall,Pusat Perbelanjaan,Kios Om Arnol,"86X9+68, Galang, Kec. Welak, Kabupaten Manggarai Barat, Nusa Tenggara Tim.","Kabupaten Manggarai Barat, Nusa Tenggara Tim.",NUSA TENGGARA TIMUR,,Indonesia,,,,-8.651939,120.2182703,https://maps.google.com/?cid=0x0:0xe8ac4838cc7a9512,
mall,Pusat Perbelanjaan,Aik,"Pong Welak, Kec. Welak, Kabupaten Manggarai Barat, Nusa Tenggara Tim.","Kabupaten Manggarai Barat, Nusa Tenggara Tim.",NUSA TENGGARA TIMUR,,Indonesia, 082211540327,,,-8.6484657,120.2411976,https://maps.google.com/?cid=0x0:0xa3e3a940b05d2289,
mall,Pusat Perbelanjaan,Kios Om Abraham,"962R+JF8, Unnamed Road, Pong Welak, Kec. Welak, Kabupaten Manggarai Barat, Nusa Tenggara Tim.","Kabupaten Manggarai Barat, Nusa Tenggara Tim.",NUSA TENGGARA TIMUR,,Indonesia,,,,-8.6484657,120.2411979,https://maps.google.com/?cid=0x0:0x584cd4b97ffc302e,
mall,Pusat Perbelanjaan,Kios Ombyk,"86WC+WV, Galang, Kec. Welak, Kabupaten Manggarai Barat, Nusa Tenggara Tim.","Kabupaten Manggarai Barat, Nusa Tenggara Tim.",NUSA TENGGARA TIMUR,,Indonesia,,,,-8.6533997,120.2221482,https://maps.google.com/?cid=0x0:0x2c9be22f4ea60329,
mall,Pusat Perbelanjaan,SUBAR MUNTHUNK,"75R8+RMQ, Jl. Ruteng, Tangge, Kecamatan Lembor, Kabupaten Manggarai Barat, Nusa Tenggara Tim.","Kabupaten Manggarai Barat, Nusa Tenggara Tim.",NUSA TENGGARA TIMUR,,Indonesia, 082339748832,,,-8.7079079,120.1667201,https://maps.google.com/?cid=0x0:0xc8575be037081be5,
mall,Komplek perumahan,Rumah dean,"C68H+M48, Dunta, Kec. Welak, Kabupaten Manggarai Barat, Nusa Tenggara Tim.","Kabupaten Manggarai Barat, Nusa Tenggara Tim.",NUSA TENGGARA TIMUR,,Indonesia,,,,-8.5833399,120.2278267,https://maps.google.com/?cid=0x0:0x7b7cf4a3ff01b175,
mall,Pembangunan Perumahan,Pertigaan jeong,"C68H+J68, Dunta, Kec. Welak, Kabupaten Manggarai Barat, Nusa Tenggara Tim.","Kabupaten Manggarai Barat, Nusa Tenggara Tim.",NUSA TENGGARA TIMUR,,Indonesia,,,,-8.5834649,120.2280631,https://maps.google.com/?cid=0x0:0x73ab7696557d0d97,
mall,Pusat Perbelanjaan,Toko Suasana Baru,"C5XV+MCP, Compang, Kec. Macang Pacar, Kabupaten Manggarai Barat, Nusa Tenggara Tim.","Kabupaten Manggarai Barat, Nusa Tenggara Tim.",NUSA TENGGARA TIMUR,,Indonesia,,,,-8.5507883,120.1935663,https://maps.google.com/?cid=0x0:0x20ce4d1356508690,
mall,Toko,Kios Alvino Anjelo,"8593+X4F, Siru, Kecamatan Lembor, Kabupaten Manggarai Barat, Nusa Tenggara Tim.","Kabupaten Manggarai Barat, Nusa Tenggara Tim.",NUSA TENGGARA TIMUR,,Indonesia, 081338710810,,,-8.6800594,120.1527978,https://maps.google.com/?cid=0x0:0x9a2fcebd06769c47,
mall,Toko umum,KIOS MILENIAL WOL,"85M6+8H2, Jl.Poros wol, Golo Ronggot, Kec. Welak, Kuwus, Nusa Tenggara Tim.","Kuwus, Nusa Tenggara Tim.",NUSA TENGGARA TIMUR,,Indonesia, 081238887694,,,-8.6667434,120.1614062,https://maps.google.com/?cid=0x0:0x8e45c8d1b26e90ec,
mall,Kios,Warung Marsel Hero koe,"88CF+6XJ, Kole, Kec. Satar Mese Bar., Kabupaten Manggarai, Nusa Tenggara Tim.","Kabupaten Manggarai, Nusa Tenggara Tim.",NUSA TENGGARA TIMUR,,Indonesia, 081353552313,,,-8.6794144,120.3248865,https://maps.google.com/?cid=0x0:0xafb0bec148e5f4a0,
mall,Kios,KIOS RYAN,"Unnamed Road, Siru, Kecamatan Lembor, Kabupaten Manggarai Barat, Nusa Tenggara Tim.","Kabupaten Manggarai Barat, Nusa Tenggara Tim.",NUSA TENGGARA TIMUR,,Indonesia, 081337846941,,,-8.6809431,120.1531382,https://maps.google.com/?cid=0x0:0x523d5dcf16dfebd3,
mall,Kios,Kios Cahaya,"75R8+V2F, Jl. Ruteng, Tangge, Kecamatan Lembor, Kabupaten Manggarai Barat, Nusa Tenggara Tim.","Kabupaten Manggarai Barat, Nusa Tenggara Tim.",NUSA TENGGARA TIMUR,,Indonesia, 082266388550,,,-8.7078016,120.1650538,https://maps.google.com/?cid=0x0:0xa060a6dbd3e64e9a,
mall,Toko,Pancaran Mart Lembor,"75R7+XPX, Tangge, Kecamatan Lembor, Kabupaten Manggarai Barat, Nusa Tenggara Tim.","Kabupaten Manggarai Barat, Nusa Tenggara Tim.",NUSA TENGGARA TIMUR,,Indonesia,,,,-8.7075194,120.1643624,https://maps.google.com/?cid=0x0:0x7d8d7aa4db5639d7,
mall,Komplek perumahan,leda kolang,"F72G+3G7, Pangga, Kec. Kuwus, Kabupaten Manggarai Barat, Nusa Tenggara Tim.","Kabupaten Manggarai Barat, Nusa Tenggara Tim.",NUSA TENGGARA TIMUR,,Indonesia, 082187538858,,,-8.5498475,120.2763093,https://maps.google.com/?cid=0x0:0x45d33b1b5bec1b7e,
mall,Perhimpunan Pengembang Perumahan,NNT flores,"856C+95H, Siru, Kecamatan Lembor, Kabupaten Manggarai Barat, Nusa Tenggara Tim.","Kabupaten Manggarai Barat, Nusa Tenggara Tim.",NUSA TENGGARA TIMUR,,Indonesia,,,,-8.6890651,120.1704766,https://maps.google.com/?cid=0x0:0x9df323c27b7c9873,
mall,Pusat Perbelanjaan,TOKO HANAFI JAYA,"Pasar Malwatar, jln. gang susteran, Tangge, Kecamatan Lembor, Kabupaten Manggarai Barat, Nusa Tenggara Tim.","Kabupaten Manggarai Barat, Nusa Tenggara Tim.",NUSA TENGGARA TIMUR,,Indonesia, 081338077997,,,-8.7091669,120.167645,https://maps.google.com/?cid=0x0:0x826d3661ad1ca1e6,
mall,Pusat Perbelanjaan,Kios jeims sembako/BRILINK,"87PR+56, Wae Bangka, Kecamatan Lembor, Kabupaten Manggarai Barat, Nusa Tenggara Tim.","Kabupaten Manggarai Barat, Nusa Tenggara Tim.",NUSA TENGGARA TIMUR,,Indonesia,,,,-8.66458,120.290513,https://maps.google.com/?cid=0x0:0xd713bbda1c5735e,
mall,mall,Nusa Tenggara Tim.,,Nusa Tenggara Tim.,NUSA TENGGARA TIMUR,,Indonesia,,,,-8.6573819,121.0793705,https://maps.google.com/?cid=0x0:0x1030bfbcaf71ae0,
mall,Pusat Perbelanjaan,Kios Introbazi,"9GVV+R9W, Mando Sawu, Kec. Poco Ranaka, Kabupaten Manggarai Timur, Nusa Tenggara Tim.","Kabupaten Manggarai Timur, Nusa Tenggara Tim.",NUSA TENGGARA TIMUR,,Indonesia, 081237967812,,,-8.6053841,120.5434584,https://maps.google.com/?cid=0x0:0xd70f8699cacb5af5,
mall,Komplek perumahan,"Noa Il,Golo Ndoal,Kabupaten,Manggarai Barat,Nusa Tenggara Timur","C28R+G6X, Golo Ndoal, Kec. Sano Nggoang, Kabupaten Manggarai Barat, Nusa Tenggara Tim.","Kabupaten Manggarai Barat, Nusa Tenggara Tim.",NUSA TENGGARA TIMUR,,Indonesia, 082145018784,,,-8.5840702,120.0416608,https://maps.google.com/?cid=0x0:0xa6cbc6afb74be467,
mall,Toko bahan makanan,Kios portugal woloese,"5WPV+GGC, Maubasa Tim., Kec. Ndori, Kabupaten Ende, Nusa Tenggara Tim.","Kabupaten Ende, Nusa Tenggara Tim.",NUSA TENGGARA TIMUR,,Indonesia, 081238739928,,,-8.8136764,121.9437609,https://maps.google.com/?cid=0x0:0xd21fafcb1d8e39a8,
mall,Komplek perumahan,Noa ll,"C28R+8W, Golo Ndoal, Kec. Mbeliling, Kabupaten Manggarai Barat, Nusa Tenggara Tim.","Kabupaten Manggarai Barat, Nusa Tenggara Tim.",NUSA TENGGARA TIMUR,,Indonesia,,,,-8.5841418,120.0422488,https://maps.google.com/?cid=0x0:0xdfc595caaa5902b4,
mall,Komplek perumahan,Rumah Bpk Fransiskus Mandara,"C27V+XX3, Noa II, Golo Ndoal, Kec. Mbeliling, Kabupaten Manggarai Barat, Nusa Tenggara Tim.","Kabupaten Manggarai Barat, Nusa Tenggara Tim.",NUSA TENGGARA TIMUR,,Indonesia,,,,-8.5851225,120.0449064,https://maps.google.com/?cid=0x0:0xfda889cd5bc4816e,
mall,mall,Kec. Lembor Selatan,"Kabupaten Manggarai Barat, Nusa Tenggara Tim.","Kabupaten Manggarai Barat, Nusa Tenggara Tim.",NUSA TENGGARA TIMUR,,Indonesia,,,,-8.7739706,120.1323197,https://maps.google.com/?cid=0x0:0x5bb218ae172463d2,
mall,Toko,Pancaran Mart Lembor,"75R7+XPX, Tangge, Kecamatan Lembor, Kabupaten Manggarai Barat, Nusa Tenggara Tim.","Kabupaten Manggarai Barat, Nusa Tenggara Tim.",NUSA TENGGARA TIMUR,,Indonesia,,,,-8.7075194,120.1643624,https://maps.google.com/?cid=0x0:0x7d8d7aa4db5639d7,
mall,Pusat Perbelanjaan,SUBAR MUNTHUNK,"75R8+RMQ, Jl. Ruteng, Tangge, Kecamatan Lembor, Kabupaten Manggarai Barat, Nusa Tenggara Tim.","Kabupaten Manggarai Barat, Nusa Tenggara Tim.",NUSA TENGGARA TIMUR,,Indonesia, 082339748832,,,-8.7079079,120.1667201,https://maps.google.com/?cid=0x0:0xc8575be037081be5,
mall,mall,Kecamatan Lembor,"Kabupaten Manggarai Barat, Nusa Tenggara Tim.","Kabupaten Manggarai Barat, Nusa Tenggara Tim.",NUSA TENGGARA TIMUR,,Indonesia,,,,-8.7081253,120.1677018,https://maps.google.com/?cid=0x0:0xd449d3835f0762cf,
mall,Pusat Perbelanjaan,TOKO HANAFI JAYA,"Pasar Malwatar, jln. gang susteran, Tangge, Kecamatan Lembor, Kabupaten Manggarai Barat, Nusa Tenggara Tim.","Kabupaten Manggarai Barat, Nusa Tenggara Tim.",NUSA TENGGARA TIMUR,,Indonesia, 081338077997,,,-8.7091669,120.167645,https://maps.google.com/?cid=0x0:0x826d3661ad1ca1e6,
mall,Pusat Perbelanjaan,APRIL CELL,"76R9+7F7, Kakor, Kecamatan Lembor, Kabupaten Manggarai Barat, Nusa Tenggara Tim.","Kabupaten Manggarai Barat, Nusa Tenggara Tim.",NUSA TENGGARA TIMUR,,Indonesia, 081340471001,,,-8.7093294,120.2186587,https://maps.google.com/?cid=0x0:0xc2cc0471907e4f0e,
mall,Pusat Perbelanjaan,Kios om simon,"86XJ+4GH, Orong, Kec. Welak, Kabupaten Manggarai Barat, Nusa Tenggara Tim.","Kabupaten Manggarai Barat, Nusa Tenggara Tim.",NUSA TENGGARA TIMUR,,Indonesia, 081350656145,,,-8.6521823,120.2313553,https://maps.google.com/?cid=0x0:0x295e6e972b8018c0,
mall,Pasar,Pasar lembor,"75Q9+X2J Pedrosa cell, Tangge, Kecamatan Lembor, Kabupaten Manggarai Barat, Nusa Tenggara Tim.","Kabupaten Manggarai Barat, Nusa Tenggara Tim.",NUSA TENGGARA TIMUR,,Indonesia, 082144778442,,,-8.7100382,120.1675036,https://maps.google.com/?cid=0x0:0x7ee82ea3db2788c4,
mall,Komplek perumahan,Shafa Fasion,"75R7+XVJ, Jl. Ruteng, Tangge, Kecamatan Lembor, Kabupaten Manggarai Barat, Nusa Tenggara Tim.","Kabupaten Manggarai Barat, Nusa Tenggara Tim.",NUSA TENGGARA TIMUR,,Indonesia, 081252457786,,,-8.7075497,120.1646507,https://maps.google.com/?cid=0x0:0x99ecc1cd2b97fb5c,
mall,Kios,Kios sinar pagi,"Kakor, Kecamatan Lembor, Kabupaten Manggarai Barat, Nusa Tenggara Tim.","Kabupaten Manggarai Barat, Nusa Tenggara Tim.",NUSA TENGGARA TIMUR,,Indonesia, 082235608517,,,-8.7071886,120.2113951,https://maps.google.com/?cid=0x0:0x6a22b8a34cde2931,
mall,Kios,Aiden Cell (Kios Sembako),"76RC+RF, Kakor, Kec. Lembor Selatan, Kabupaten Manggarai Barat, Nusa Tenggara Tim.","Kabupaten Manggarai Barat, Nusa Tenggara Tim.",NUSA TENGGARA TIMUR,,Indonesia, 082147494056,,,-8.7078946,120.2211857,https://maps.google.com/?cid=0x0:0x2bc654fe798bf199,
mall,Restoran,C2C,"75R7+WJJ, Jl. Ruteng, Tangge, Kecamatan Lembor, Kabupaten Manggarai Barat, Nusa Tenggara Tim.","Kabupaten Manggarai Barat, Nusa Tenggara Tim.",NUSA TENGGARA TIMUR,,Indonesia, 082146067000,,,-8.7076586,120.1640174,https://maps.google.com/?cid=0x0:0x3f9c8f1831bed416,
mall,Pusat Perbelanjaan,Jupitet j1,"75WJ+78P, Unnamed Road, Poco Rutang, Kecamatan Lembor, Kabupaten Manggarai Barat, Nusa Tenggara Tim.","Kabupaten Manggarai Barat, Nusa Tenggara Tim.",NUSA TENGGARA TIMUR,,Indonesia, 08123647123,,,-8.7042774,120.1808217,https://maps.google.com/?cid=0x0:0x77f8622e4e881fd1,
mall,Perhimpunan Pengembang Perumahan,NNT flores,"856C+95H, Siru, Kecamatan Lembor, Kabupaten Manggarai Barat, Nusa Tenggara Tim.","Kabupaten Manggarai Barat, Nusa Tenggara Tim.",NUSA TENGGARA TIMUR,,Indonesia,,,,-8.6890651,120.1704766,https://maps.google.com/?cid=0x0:0x9df323c27b7c9873,
mall,Toko,Pangkalan minyak tanah hyasintus,"8633+MPF, Daleng, Kecamatan Lembor, Kabupaten Manggarai Barat, Nusa Tenggara Tim.","Kabupaten Manggarai Barat, Nusa Tenggara Tim.",NUSA TENGGARA TIMUR,,Indonesia, 085239183977,,,-8.6958201,120.2042866,https://maps.google.com/?cid=0x0:0xa4c1bf3b1c113fbf,
mall,Pusat Perbelanjaan,Kios Om Arnol,"86X9+68, Galang, Kec. Welak, Kabupaten Manggarai Barat, Nusa Tenggara Tim.","Kabupaten Manggarai Barat, Nusa Tenggara Tim.",NUSA TENGGARA TIMUR,,Indonesia,,,,-8.651939,120.2182703,https://maps.google.com/?cid=0x0:0xe8ac4838cc7a9512,
mall,Pusat Perbelanjaan,Kios Siti Daiman,"92FV+2JX, Jl. Kakor Kec, Kempo, Lembor Sel., West Manggarai Regency, East Nusa Tenggara","Kabupaten Manggarai Barat, Nusa Tenggara Tim.",NUSA TENGGARA TIMUR,,Indonesia, 081236297021,,,-8.6273772,120.0441061,https://maps.google.com/?cid=0x0:0x6f1191e05b6b8aad,
mall,Pusat Perbelanjaan,Kios jeims sembako/BRILINK,"87PR+56, Wae Bangka, Kecamatan Lembor, Kabupaten Manggarai Barat, Nusa Tenggara Tim.","Kabupaten Manggarai Barat, Nusa Tenggara Tim.",NUSA TENGGARA TIMUR,,Indonesia,,,,-8.66458,120.290513,https://maps.google.com/?cid=0x0:0xd713bbda1c5735e,
mall,Kios,KIOS RYAN,"Unnamed Road, Siru, Kecamatan Lembor, Kabupaten Manggarai Barat, Nusa Tenggara Tim.","Kabupaten Manggarai Barat, Nusa Tenggara Tim.",NUSA TENGGARA TIMUR,,Indonesia, 081337846941,,,-8.6809431,120.1531382,https://maps.google.com/?cid=0x0:0x523d5dcf16dfebd3,
mall,Kios,Warung Marsel Hero koe,"88CF+6XJ, Kole, Kec. Satar Mese Bar., Kabupaten Manggarai, Nusa Tenggara Tim.","Kabupaten Manggarai, Nusa Tenggara Tim.",NUSA TENGGARA TIMUR,,Indonesia, 081353552313,,,-8.6794144,120.3248865,https://maps.google.com/?cid=0x0:0xafb0bec148e5f4a0,
mall,Toko,Kios Alvino Anjelo,"8593+X4F, Siru, Kecamatan Lembor, Kabupaten Manggarai Barat, Nusa Tenggara Tim.","Kabupaten Manggarai Barat, Nusa Tenggara Tim.",NUSA TENGGARA TIMUR,,Indonesia, 081338710810,,,-8.6800594,120.1527978,https://maps.google.com/?cid=0x0:0x9a2fcebd06769c47,
mall,Pusat Perbelanjaan,Kios Ombyk,"86WC+WV, Galang, Kec. Welak, Kabupaten Manggarai Barat, Nusa Tenggara Tim.","Kabupaten Manggarai Barat, Nusa Tenggara Tim.",NUSA TENGGARA TIMUR,,Indonesia,,,,-8.6533997,120.2221482,https://maps.google.com/?cid=0x0:0x2c9be22f4ea60329,
mall,Kantor Pemerintah,Kantor Kecamatan Lembor Selatan,"659P+Q57, Surunumbeng, Kecamatan Lembor, Kabupaten Manggarai Barat, Nusa Tenggara Tim.","Kabupaten Manggarai Barat, Nusa Tenggara Tim.",NUSA TENGGARA TIMUR,,Indonesia,,,,-8.7805989,120.1854083,https://maps.google.com/?cid=0x0:0xf61e932b3fb4e8bc,
mall,Pusat Perbelanjaan,Aik,"Pong Welak, Kec. Welak, Kabupaten Manggarai Barat, Nusa Tenggara Tim.","Kabupaten Manggarai Barat, Nusa Tenggara Tim.",NUSA TENGGARA TIMUR,,Indonesia, 082211540327,,,-8.6484657,120.2411976,https://maps.google.com/?cid=0x0:0xa3e3a940b05d2289,
mall,Kios,Kios valtra,"93F2+R4P, Kempo, Kec. Sano Nggoang, Kabupaten Manggarai Barat, Nusa Tenggara Tim.","Kabupaten Manggarai Barat, Nusa Tenggara Tim.",NUSA TENGGARA TIMUR,,Indonesia,,,,-8.6254245,120.0503359,https://maps.google.com/?cid=0x0:0xb897ee60f2bbe56b,
mall,mall,Kec. Mbeliling,"Kabupaten Manggarai Barat, Nusa Tenggara Tim.","Kabupaten Manggarai Barat, Nusa Tenggara Tim.",NUSA TENGGARA TIMUR,,Indonesia,,,,-8.6128114,120.0597179,https://maps.google.com/?cid=0x0:0x46c9c4828bf6f8cf,
mall,Komplek perumahan,"Noa Il,Golo Ndoal,Kabupaten,Manggarai Barat,Nusa Tenggara Timur","C28R+G6X, Golo Ndoal, Kec. Sano Nggoang, Kabupaten Manggarai Barat, Nusa Tenggara Tim.","Kabupaten Manggarai Barat, Nusa Tenggara Tim.",NUSA TENGGARA TIMUR,,Indonesia, 082145018784,,,-8.5840702,120.0416608,https://maps.google.com/?cid=0x0:0xa6cbc6afb74be467,
mall,Biro Perjalanan dan Wisata,Tourist Information Center (Waterfall),"Jln. Langgo Werang, Wae Lolos, Kec. Sano Nggoang, Kabupaten Manggarai Barat, Nusa Tenggara Tim. 86758","Wae Lolos, Kec. Sano Nggoang, Kabupaten Manggarai Barat",NUSA TENGGARA TIMUR,86758.0,Indonesia, 082144823347,,,-8.6223187,119.9918389,https://maps.google.com/?cid=0x0:0xf0eac01418d1c378,
mall,Pusat Perbelanjaan,Central labuan bajo - Toserba - swalayan - toko terlengkap di labuan bajo,"COWANG DERENG, Labuan Bajo, Kec. Komodo, Kabupaten Manggarai Barat, Nusa Tenggara Tim.","Kabupaten Manggarai Barat, Nusa Tenggara Tim.",NUSA TENGGARA TIMUR,,Indonesia, 082147511597,,,-8.4900046,119.8950034,https://maps.google.com/?cid=0x0:0xd97b0a8c9bd2c024,
mall,Pusat Perbelanjaan,Kios Siti Daiman,"92FV+2JX, Jl. Kakor Kec, Kempo, Lembor Sel., West Manggarai Regency, East Nusa Tenggara","Kabupaten Manggarai Barat, Nusa Tenggara Tim.",NUSA TENGGARA TIMUR,,Indonesia, 081236297021,,,-8.6273772,120.0441061,https://maps.google.com/?cid=0x0:0x6f1191e05b6b8aad,
mall,Kios,Irhone Cell,"CX27+X5H, Unnamed Road, Liang Ndara, Kec. Sano Nggoang, Kabupaten Manggarai Barat, Nusa Tenggara Tim.","Kabupaten Manggarai Barat, Nusa Tenggara Tim.",NUSA TENGGARA TIMUR,,Indonesia,,,,-8.5975546,119.9629716,https://maps.google.com/?cid=0x0:0x21232cb33433f9d1,
mall,Kantor Perusahaan,GLOBAL KOMODO INDONESIA,"GW22+H9W, Wae Kelambu, Kec. Komodo, Kabupaten Manggarai Barat, Nusa Tenggara Tim.","Kabupaten Manggarai Barat, Nusa Tenggara Tim.",NUSA TENGGARA TIMUR,,Indonesia, 081310648999,,,-8.498517,119.9009493,https://maps.google.com/?cid=0x0:0xf8d0a80b475345f4,
mall,Pusat Perbelanjaan,Kios Rezki Messi,"CV9X+HJR, Golo Pongkor, Kec. Komodo, Kabupaten Manggarai Barat, Nusa Tenggara Tim.","Kabupaten Manggarai Barat, Nusa Tenggara Tim.",NUSA TENGGARA TIMUR,,Indonesia,,,,-8.5811495,119.899643,https://maps.google.com/?cid=0x0:0x56c09adbea39a41d,
mall,Pusat Perbelanjaan,Rose V Nasa Labuan Bajo,"83J8+FJC, Labuan Bajo, Kec. Sano Nggoang, Kabupaten Manggarai Barat, Nusa Tenggara Tim.","Kabupaten Manggarai Barat, Nusa Tenggara Tim.",NUSA TENGGARA TIMUR,,Indonesia, 082236696077,,,-8.6688148,120.0665236,https://maps.google.com/?cid=0x0:0xdc4a4422bc2878b2,
mall,Pusat Perbelanjaan,NarJi Kios,"Golo Pongkor, Kec. Komodo, Kabupaten Manggarai Barat, Nusa Tenggara Tim.","Kabupaten Manggarai Barat, Nusa Tenggara Tim.",NUSA TENGGARA TIMUR,,Indonesia,,,,-8.5902097,119.895341,https://maps.google.com/?cid=0x0:0x4b21d2c7dbe919f3,
mall,Biro Perjalanan dan Wisata,Jual tiket pesawat/kapal,"92HR+V98, Golo Desat, Kec. Sano Nggoang, Kabupaten Manggarai Barat, Nusa Tenggara Tim.","Kabupaten Manggarai Barat, Nusa Tenggara Tim.",NUSA TENGGARA TIMUR,,Indonesia,,,,-8.6126076,120.059815,https://maps.google.com/?cid=0x0:0x6b9380133f6336bc,
mall,Toko,Kios Alvino Anjelo,"8593+X4F, Siru, Kecamatan Lembor, Kabupaten Manggarai Barat, Nusa Tenggara Tim.","Kabupaten Manggarai Barat, Nusa Tenggara Tim.",NUSA TENGGARA TIMUR,,Indonesia, 081338710810,,,-8.6800594,120.1527978,https://maps.google.com/?cid=0x0:0x9a2fcebd06769c47,
mall,Toko,Toko Rezeki,"FVVP+4CC, Goron Talo, Kec. Komodo, Kabupaten Manggarai Barat, Nusa Tenggara Tim.","Kabupaten Manggarai Barat, Nusa Tenggara Tim.",NUSA TENGGARA TIMUR,,Indonesia, 082199265827,,,-8.5071792,119.8860293,https://maps.google.com/?cid=0x0:0x125d6e9266f71259,
mall,Gudang,Ruko Pemda Mabar,"GV5W+646, Wae Kelambu, Kec. Komodo, Kabupaten Manggarai Barat, Nusa Tenggara Tim.","Kabupaten Manggarai Barat, Nusa Tenggara Tim.",NUSA TENGGARA TIMUR,,Indonesia,,,,-8.4919652,119.8952618,https://maps.google.com/?cid=0x0:0x27ff091284f1faa1,
mall,Toko bahan makanan,Kios Farhan Benteng,"CV6Q+664, Unnamed Road, Golo Pongkor, Kec. Komodo, Kabupaten Manggarai Barat, Nusa Tenggara Tim.","Kabupaten Manggarai Barat, Nusa Tenggara Tim.",NUSA TENGGARA TIMUR,,Indonesia, 082146613204,,,-8.5894766,119.8880829,https://maps.google.com/?cid=0x0:0x566bf17ffd216b3,
mall,Kantor Perusahaan,HE BPLC SITE 1,"GV5W+327, Wae Kelambu, Kec. Komodo, Kabupaten Manggarai Barat, Nusa Tenggara Tim.","Kabupaten Manggarai Barat, Nusa Tenggara Tim.",NUSA TENGGARA TIMUR,,Indonesia,,,,-8.4923407,119.8950514,https://maps.google.com/?cid=0x0:0xb51bc920cf07a793,
mall,Toko Perlengkapan Rumah,Toko Mitra Jaya,"GV3R+656, Wae Kelambu, Kec. Komodo, Kabupaten Manggarai Barat, Nusa Tenggara Tim.","Kabupaten Manggarai Barat, Nusa Tenggara Tim.",NUSA TENGGARA TIMUR,,Indonesia,,,,-8.4969543,119.890394,https://maps.google.com/?cid=0x0:0xdd261f56e2f5b197,
mall,Toko Swalayan,ZASGO MART,"Jl. Soekarno Hatta, Labuan Bajo, Kec. Komodo, Kabupaten Manggarai Barat, Nusa Tenggara Tim.","Kabupaten Manggarai Barat, Nusa Tenggara Tim.",NUSA TENGGARA TIMUR,,Indonesia, 082145408947,,,-8.4988048,119.882725,https://maps.google.com/?cid=0x0:0x907afe04258f6944,
mall,Pusat Perbelanjaan,Labuan Square,"Jl. Soekarno Hatta, Goron Talo, Kec. Komodo, Kabupaten Manggarai Barat, Nusa Tenggara Tim.","Kabupaten Manggarai Barat, Nusa Tenggara Tim.",NUSA TENGGARA TIMUR,,Indonesia, 081138795888,,,-8.4985625,119.8827575,https://maps.google.com/?cid=0x0:0xbbaef32f1cc06bd,
mall,Toko Pakaian Anak,Bintang Kecil Baby Shop,"GV3R+4R9, Wae Kelambu, Kec. Komodo, Kabupaten Manggarai Barat, Nusa Tenggara Tim.","Kabupaten Manggarai Barat, Nusa Tenggara Tim.",NUSA TENGGARA TIMUR,,Indonesia,,,,-8.4972159,119.8920981,https://maps.google.com/?cid=0x0:0xa65899a52531ee06,
mall,mall,Risal Kios,"CX26+VQ5, Unnamed Road, Liang Ndara, Kec. Sano Nggoang, Kabupaten Manggarai Barat, Nusa Tenggara Tim.","Kabupaten Manggarai Barat, Nusa Tenggara Tim.",NUSA TENGGARA TIMUR,,Indonesia,,,,-8.5978526,119.9619849,https://maps.google.com/?cid=0x0:0xb0ae934a56a691c6,
supermarket,supermarket,Kec. Macang Pacar,"Kabupaten Manggarai Barat, Nusa Tenggara Tim.","Kabupaten Manggarai Barat, Nusa Tenggara Tim.",NUSA TENGGARA TIMUR,,Indonesia,,,,-8.4349594,120.2725372,https://maps.google.com/?cid=0x0:0xb9473d35b1b4ecc9,
supermarket,Pasar,Pasar Noa,"F5CP+J59, Compang, Kec. Macang Pacar, Kabupaten Manggarai Barat, Nusa Tenggara Tim.","Kabupaten Manggarai Barat, Nusa Tenggara Tim.",NUSA TENGGARA TIMUR,,Indonesia,,,,-8.5284593,120.1854974,https://maps.google.com/?cid=0x0:0x2a9f4bf15d71bd60,
supermarket,Toko Swalayan,EFREMI MART,"Rokap, Kec. Macang Pacar, Kabupaten Manggarai Barat, Nusa Tenggara Tim.","Kabupaten Manggarai Barat, Nusa Tenggara Tim.",NUSA TENGGARA TIMUR,,Indonesia, 081233558881,,,-8.4208116,120.2328203,https://maps.google.com/?cid=0x0:0xe16ff77393043f15,
supermarket,Pasar,Noa Desa Compang,"G58Q+PCP, Pacar, Kec. Macang Pacar, Kabupaten Manggarai Barat, Nusa Tenggara Tim.","Kabupaten Manggarai Barat, Nusa Tenggara Tim.",NUSA TENGGARA TIMUR,,Indonesia,,,,-8.4831584,120.1885663,https://maps.google.com/?cid=0x0:0xfc493e6c2595ce75,
supermarket,Toko,KIOS LONGGE JAYA,"H6F6+W2F, Raba, Kec. Macang Pacar, Kabupaten Manggarai Barat, Nusa Tenggara Tim.","Kabupaten Manggarai Barat, Nusa Tenggara Tim.",NUSA TENGGARA TIMUR,,Indonesia,,,,-8.4251768,120.2100468,https://maps.google.com/?cid=0x0:0x6bdbeeb90c30b275,
supermarket,supermarket,Pasar Hita Kecamatan Pacar,"G6V3+XVM, Kombo, Kec. Macang Pacar, Kabupaten Manggarai Barat, Nusa Tenggara Tim.","Kabupaten Manggarai Barat, Nusa Tenggara Tim.",NUSA TENGGARA TIMUR,,Indonesia,,,,-8.4550488,120.204686,https://maps.google.com/?cid=0x0:0x18c88a812738a575,
supermarket,Toko Perlengkapan Rumah,Toko Persada Indah,"J73C+VXM, Unnamed Rd, Rego, Kec. Macang Pacar, Kabupaten Manggarai Barat, Nusa Tenggara Tim.","Kabupaten Manggarai Barat, Nusa Tenggara Tim.",NUSA TENGGARA TIMUR,,Indonesia,,,,-8.3952751,120.2724314,https://maps.google.com/?cid=0x0:0x3b8862d17c1680c4,
supermarket,Pusat Perbelanjaan,PASAR BARI,"F6H2+Q6J, Compang, Kec. Macang Pacar, Kabupaten Manggarai Barat, Nusa Tenggara Tim.","Kabupaten Manggarai Barat, Nusa Tenggara Tim.",NUSA TENGGARA TIMUR,,Indonesia,,,,-8.521413,120.200158,https://maps.google.com/?cid=0x0:0x85f4c5063057bec4,
supermarket,Kios,Raja Kios,"M429+6R9, Nanga Ktr., Kec. Macang Pacar, Kabupaten Manggarai Barat, Nusa Tenggara Tim.","Kabupaten Manggarai Barat, Nusa Tenggara Tim.",NUSA TENGGARA TIMUR,,Indonesia, 082341959119,,,-8.3494599,120.1196221,https://maps.google.com/?cid=0x0:0xe214b2466ec5ab78,
supermarket,Toko,KIOS ASRI LONGOS,"J4XH+V5G, Nanga Ktr., Kec. Macang Pacar, Kabupaten Manggarai Barat, Nusa Tenggara Tim.","Kabupaten Manggarai Barat, Nusa Tenggara Tim.",NUSA TENGGARA TIMUR,,Indonesia,,,,-8.3503026,120.1279401,https://maps.google.com/?cid=0x0:0x8499a8ac553852bc,
supermarket,Toko Perlengkapan Rumah,Tk Anugrah Indah,"Bari, Kec. Macang Pacar, Kabupaten Manggarai Barat, Nusa Tenggara Tim. 86756","Kec. Macang Pacar, Kabupaten Manggarai Barat",NUSA TENGGARA TIMUR,86756.0,Indonesia, 082119178616,,,-8.350172,120.1818427,https://maps.google.com/?cid=0x0:0xf7e8224c8da9bfa7,
supermarket,Toko,Toko Sinar Surya Rego,"H777+PWG, Unnamed Road, Wontong, Macang Pacar, West Manggarai Regency, East Nusa Tenggara","Kabupaten Manggarai Barat, Nusa Tenggara Tim.",NUSA TENGGARA TIMUR,,Indonesia, 081246383232,,,-8.4356878,120.2648226,https://maps.google.com/?cid=0x0:0x86c1ad6122a787d7,
supermarket,supermarket,Dusun timundu,"G6PM+3HW, Kombo, Dusun timundu, Kabupaten Manggarai Barat, Nusa Tenggara Tim.","Kabupaten Manggarai Barat, Nusa Tenggara Tim.",NUSA TENGGARA TIMUR,,Indonesia,,,,-8.4647626,120.2339635,https://maps.google.com/?cid=0x0:0x96b51c92f6626a26,
supermarket,Toko Perlengkapan Rumah,Kios Sinar Karya,"H768+R2R, Wontong, Kec. Macang Pacar, Kabupaten Manggarai Barat, Nusa Tenggara Tim.","Kabupaten Manggarai Barat, Nusa Tenggara Tim.",NUSA TENGGARA TIMUR,,Indonesia,,,,-8.4372673,120.2650504,https://maps.google.com/?cid=0x0:0x3032d3b11a770cde,
supermarket,supermarket,4G CELL  Stationary,"Pateng, RT./rw/RW.002/003, desa lewat, Kec. Macang Pacar, Kabupaten Manggarai Barat, Nusa Tenggara Tim.","Kabupaten Manggarai Barat, Nusa Tenggara Tim.",NUSA TENGGARA TIMUR,,Indonesia,,,,-8.3954683,120.2726213,https://maps.google.com/?cid=0x0:0xf7ac5e3d63b37059,
supermarket,Kios,Kios Bryo,"J53V+RCW, Raba, Kec. Macang Pacar, Kabupaten Manggarai Barat, Nusa Tenggara Tim.","Kabupaten Manggarai Barat, Nusa Tenggara Tim.",NUSA TENGGARA TIMUR,,Indonesia,,,,-8.3953923,120.1935663,https://maps.google.com/?cid=0x0:0xf8a93628cc7ca3be,
supermarket,Kedai Kopi,Toko Waelaru Rego,"003/002, Rego, Kec. Macang Pacar, Kabupaten Manggarai Barat, Nusa Tenggara Tim. 86756","Rego, Kec. Macang Pacar, Kabupaten Manggarai Barat",NUSA TENGGARA TIMUR,86756.0,Indonesia, 081260798953,,,-8.4231055,120.2590714,https://maps.google.com/?cid=0x0:0x1dece5785878081,
supermarket,Toko,Toko Mini Central Bangunan- Pit Abat-Herang Pacar,"G53W+W8, Pacar, Kec. Macang Pacar, Kabupaten Manggarai Barat, Nusa Tenggara Tim.","Kabupaten Manggarai Barat, Nusa Tenggara Tim.",NUSA TENGGARA TIMUR,,Indonesia, 081338660719,,,-8.4952374,120.1958268,https://maps.google.com/?cid=0x0:0xaed52134929ff94c,
supermarket,Minimarket,Kios Gepod Longge,"H6C5+V3, Raba, Kec. Macang Pacar, Kabupaten Manggarai Barat, Nusa Tenggara Tim.","Kabupaten Manggarai Barat, Nusa Tenggara Tim.",NUSA TENGGARA TIMUR,,Indonesia,,,,-8.4278289,120.2077239,https://maps.google.com/?cid=0x0:0x39ac215577a423b8,
supermarket,Penyedia peralatan listrik,MCB ELEKTRIK,"F6C2+CHM, Compang, Kec. Macang Pacar, Kabupaten Manggarai Barat, Nusa Tenggara Tim.","Kabupaten Manggarai Barat, Nusa Tenggara Tim.",NUSA TENGGARA TIMUR,,Indonesia, 081237007235,,,-8.5289069,120.2014231,https://maps.google.com/?cid=0x0:0xd90b3a43c07e1b52,
supermarket,supermarket,Kec. Kuwus,"Kabupaten Manggarai Barat, Nusa Tenggara Tim.","Kabupaten Manggarai Barat, Nusa Tenggara Tim.",NUSA TENGGARA TIMUR,,Indonesia,,,,-8.58661,120.2649221,https://maps.google.com/?cid=0x0:0x20bc20e16a7cc39a,
supermarket,Minimarket,"KIOS GEMINI,","C784+669, Ranggu, Kec. Kuwus, Kabupaten Manggarai Barat, Nusa Tenggara Tim.","Kabupaten Manggarai Barat, Nusa Tenggara Tim.",NUSA TENGGARA TIMUR,,Indonesia,,,,-8.5844697,120.2556101,https://maps.google.com/?cid=0x0:0xb97b9d16937e7d76,
supermarket,Kantor Perusahaan,Ud.Nugi Indah Golowelu,"C8M7+7G2, Nantal, Kec. Kuwus, Kabupaten Manggarai Barat, Nusa Tenggara Tim.","Kabupaten Manggarai Barat, Nusa Tenggara Tim.",NUSA TENGGARA TIMUR,,Indonesia,,,,-8.5668577,120.3137694,https://maps.google.com/?cid=0x0:0x757c6233387e16f8,
supermarket,Toko Pakaian,TT Selvi(di'a),"C8M8+FJ7, Golowelu, Kec. Kuwus, Kabupaten Manggarai Barat, Nusa Tenggara Tim.","Kabupaten Manggarai Barat, Nusa Tenggara Tim.",NUSA TENGGARA TIMUR,,Indonesia,,,,-8.5663271,120.3165321,https://maps.google.com/?cid=0x0:0x99f232cb3f339b43,
supermarket,Toko,Yendra,"F65R+JV8, Tueng, Kec. Kuwus, Kabupaten Manggarai Barat, Nusa Tenggara Tim.","Kabupaten Manggarai Barat, Nusa Tenggara Tim.",NUSA TENGGARA TIMUR,,Indonesia,,,,-8.5409675,120.2421984,https://maps.google.com/?cid=0x0:0x67ed2251457b0184,
supermarket,Toko umum,BILAS,"C777+PG7 Bilas, Kel. Golo Ru'u, Benteng Curu, Kec. Kuwus, Kabupaten Manggarai Barat, Nusa Tenggara Tim.","Kabupaten Manggarai Barat, Nusa Tenggara Tim.",NUSA TENGGARA TIMUR,,Indonesia, 082138681104,,,-8.5857086,120.2638068,https://maps.google.com/?cid=0x0:0x3b7b1ccbb0536529,
supermarket,Kios,Kios Sindi,"C7R4+2RF, Nao, Kolang, Kec. Kuwus, Kabupaten Manggarai Barat, Nusa Tenggara Tim.","Kabupaten Manggarai Barat, Nusa Tenggara Tim.",NUSA TENGGARA TIMUR,,Indonesia,,,,-8.5599307,120.2570421,https://maps.google.com/?cid=0x0:0xd81d5e7482e4ae10,
supermarket,Toko Perlengkapan Rumah,VERANO,"F7J4+7HH Lokot, Golo Riwu, Kec. Kuwus, Kabupaten Manggarai Barat, Nusa Tenggara Tim.","Kabupaten Manggarai Barat, Nusa Tenggara Tim.",NUSA TENGGARA TIMUR,,Indonesia,,,,-8.5193175,120.2564759,https://maps.google.com/?cid=0x0:0x71c42ea814706843,
supermarket,Minimarket,Pallenk Kios,"F65V+JFV, Gendang Longos, Tueng, Kec. Kuwus, Kabupaten Manggarai Barat, Nusa Tenggara Tim.","Kabupaten Manggarai Barat, Nusa Tenggara Tim.",NUSA TENGGARA TIMUR,,Indonesia,,,,-8.5408543,120.244212,https://maps.google.com/?cid=0x0:0xa68cf8bb40cfc202,
supermarket,Pusat Perbelanjaan,Toko cemerlang cancar,"C95G+HJ9, Unnamed Road, Wae Belang, Kec. Ruteng, Kabupaten Manggarai, Nusa Tenggara Tim.","Kabupaten Manggarai, Nusa Tenggara Tim.",NUSA TENGGARA TIMUR,,Indonesia,,,,-8.5910772,120.3765957,https://maps.google.com/?cid=0x0:0xb53dc533d4db82ee,
supermarket,Minimarket,Kios Ignas,"C6CG+8QJ, Dunta, Kec. Welak, Kabupaten Manggarai Barat, Nusa Tenggara Tim.","Kabupaten Manggarai Barat, Nusa Tenggara Tim.",NUSA TENGGARA TIMUR,,Indonesia,,,,-8.5791575,120.2268811,https://maps.google.com/?cid=0x0:0x70c5ae3ba27631b6,
supermarket,supermarket,KiostigaPutra,"C8RW+5HM, Lewur, Kec. Kuwus, Kabupaten Manggarai Barat, Nusa Tenggara Tim.","Kabupaten Manggarai Barat, Nusa Tenggara Tim.",NUSA TENGGARA TIMUR,,Indonesia,,,,-8.5579394,120.3383799,https://maps.google.com/?cid=0x0:0x86df98eac6fb6e22,
supermarket,Toko,Kios Agatho,"F8WW+RGQ, Tentang, Kec. Kuwus, Kabupaten Manggarai Barat, Nusa Tenggara Tim.","Kabupaten Manggarai Barat, Nusa Tenggara Tim.",NUSA TENGGARA TIMUR,,Indonesia,,,,-8.5029176,120.3463494,https://maps.google.com/?cid=0x0:0x53ed5cf21bf6864f,
supermarket,Toko Suvenir,Alfares Online Shoop,"Dahang, Pangga, Labuan Bajo, Kabupaten Manggarai Barat, Nusa Tenggara Tim. 86752","Pangga, Labuan Bajo, Kabupaten Manggarai Barat",NUSA TENGGARA TIMUR,86752.0,Indonesia, 082192760061,,,-8.5455464,120.2900465,https://maps.google.com/?cid=0x0:0x539b9bafb46b4bc0,
supermarket,supermarket,Kios Titin,"F8WW+RGQ, Tentang, Kec. Kuwus, Kabupaten Manggarai Barat, Nusa Tenggara Tim.","Kabupaten Manggarai Barat, Nusa Tenggara Tim.",NUSA TENGGARA TIMUR,,Indonesia,,,,-8.5030016,120.346438,https://maps.google.com/?cid=0x0:0x2e1bf2483b4f3f8,
supermarket,supermarket,Arfanbaru,"C6QP+4WP, Golo Lewe, Kec. Kuwus, Kabupaten Manggarai Barat, Nusa Tenggara Tim.","Kabupaten Manggarai Barat, Nusa Tenggara Tim.",NUSA TENGGARA TIMUR,,Indonesia,,,,-8.5621561,120.237315,https://maps.google.com/?cid=0x0:0x1492024d4f6af6a2,
supermarket,Minimarket,Alfamart Wae Belang Ruteng,"C95H+X2P, Unnamed Road, Wae Belang, Kec. Ruteng, Kabupaten Manggarai, Nusa Tenggara Tim.","Kabupaten Manggarai, Nusa Tenggara Tim.",NUSA TENGGARA TIMUR,,Indonesia, 081353427120,,,-8.5900262,120.3775662,https://maps.google.com/?cid=0x0:0x7170ad822ee6b0d7,
supermarket,Komplek perumahan,Alfred home,"C748+FM, Benteng Curu, Kec. Kuwus, Kabupaten Manggarai Barat, Nusa Tenggara Tim.","Kabupaten Manggarai Barat, Nusa Tenggara Tim.",NUSA TENGGARA TIMUR,,Indonesia,,,,-8.593828,120.266683,https://maps.google.com/?cid=0x0:0xe224a6019a8ed272,
supermarket,Studio Foto,FOTO KOPI GOLOWELU INVIOLA,"Nantal, Kec. Kuwus, Kabupaten Manggarai Barat, Nusa Tenggara Tim.","Kabupaten Manggarai Barat, Nusa Tenggara Tim.",NUSA TENGGARA TIMUR,,Indonesia, 081290528105,,,-8.5659747,120.3155262,https://maps.google.com/?cid=0x0:0xdc9ea768b2683e86,
supermarket,Toko,UD Munting Tanda,"C68G+MF, Dunta, Kec. Welak, Kabupaten Manggarai Barat, Nusa Tenggara Tim.","Kabupaten Manggarai Barat, Nusa Tenggara Tim.",NUSA TENGGARA TIMUR,,Indonesia,,,,-8.5832356,120.2262131,https://maps.google.com/?cid=0x0:0x24ce329ff249a99e,
supermarket,Toko makanan beku,AisyahShop Frozen Food,"Jl. Wr. Asem, Cogreg, Kec. Parung, Kabupaten Bogor, Jawa Barat 16330","Cogreg, Kec. Parung, Kabupaten Bogor",NUSA TENGGARA TIMUR,16330.0,Indonesia, 081617422320,,,-6.4136379,106.6976948,https://maps.google.com/?cid=0x0:0xcd71a3b49908845e,
supermarket,Toko Swalayan,GrandLucky - SCBD,"Kawasan Niaga Terpadu Sudirman (SCBD, Jl. Jenderal Sudirman LOT-12, Senayan, Kec. Kby. Baru, Kota Jakarta Selatan, Daerah Khusus Ibukota Jakarta 12190","Jl. Jenderal Sudirman LOT-12, Senayan, Kec. Kby. Baru, Kota Jakarta Selatan",NUSA TENGGARA TIMUR,12190.0,Indonesia, 085183118632,,,-6.22691,106.8059153,https://maps.google.com/?cid=0x0:0x4efcd0d8d64cad53,
supermarket,supermarket,KIOS MANDA LEWUR,"C8RW+5HM, Lewur, Kec. Kuwus, Kabupaten Manggarai Barat, Nusa Tenggara Tim.","Kabupaten Manggarai Barat, Nusa Tenggara Tim.",NUSA TENGGARA TIMUR,,Indonesia,,,,-8.559529,120.3464333,https://maps.google.com/?cid=0x0:0x6f431a826692652d,
supermarket,supermarket,Kecamatan Lembor,"Kabupaten Manggarai Barat, Nusa Tenggara Tim.","Kabupaten Manggarai Barat, Nusa Tenggara Tim.",NUSA TENGGARA TIMUR,,Indonesia,,,,-8.7081253,120.1677018,https://maps.google.com/?cid=0x0:0xd449d3835f0762cf,
supermarket,Pusat Perbelanjaan,Alfamart Lembor,"75R8+X28, Tangge, Kecamatan Lembor, Kabupaten Manggarai Barat, Nusa Tenggara Tim.","Kabupaten Manggarai Barat, Nusa Tenggara Tim.",NUSA TENGGARA TIMUR,,Indonesia, 082297833343,,,-8.7075955,120.1650837,https://maps.google.com/?cid=0x0:0xbd3826a5ecdb9d81,
supermarket,Toko bahan makanan,KIOS S-MART,"Jl. Ruteng-Labuan Bajo, Daleng, Kecamatan Lembor, Kabupaten Manggarai Barat, Nusa Tenggara Tim.","Kabupaten Manggarai Barat, Nusa Tenggara Tim.",NUSA TENGGARA TIMUR,,Indonesia, 081238842254,,,-8.6960362,120.2024607,https://maps.google.com/?cid=0x0:0xdb7afbc1c83130e3,
supermarket,Toko,Kios Bapa Eka,"852W+FMV, Daleng, Kecamatan Lembor, Kabupaten Manggarai Barat, Nusa Tenggara Tim.","Kabupaten Manggarai Barat, Nusa Tenggara Tim.",NUSA TENGGARA TIMUR,,Indonesia,,,,-8.6987509,120.1966678,https://maps.google.com/?cid=0x0:0xbd099c74e40ed107,
supermarket,Toko,RMC_LEMBOR,"75R9+R89, Tangge, Kecamatan Lembor, Kabupaten Manggarai Barat, Nusa Tenggara Tim.","Kabupaten Manggarai Barat, Nusa Tenggara Tim.",NUSA TENGGARA TIMUR,,Indonesia, 081238880889,,,-8.7079682,120.1683489,https://maps.google.com/?cid=0x0:0x1d1e28d4097ea68a,
supermarket,supermarket,Kios mb Wati,"Near, Tangge, Kecamatan Lembor, Kabupaten Manggarai Barat, Nusa Tenggara Tim. 86753","Tangge, Kecamatan Lembor, Kabupaten Manggarai Barat",NUSA TENGGARA TIMUR,86753.0,Indonesia, 081238742559,,,-8.7088749,120.1678471,https://maps.google.com/?cid=0x0:0xfe508fdaafb4d098,
supermarket,Restoran,C2C,"75R7+WJJ, Jl. Ruteng, Tangge, Kecamatan Lembor, Kabupaten Manggarai Barat, Nusa Tenggara Tim.","Kabupaten Manggarai Barat, Nusa Tenggara Tim.",NUSA TENGGARA TIMUR,,Indonesia, 082146067000,,,-8.7076586,120.1640174,https://maps.google.com/?cid=0x0:0x3f9c8f1831bed416,
supermarket,Pasar,Pasar lembor,"75Q9+X2J Pedrosa cell, Tangge, Kecamatan Lembor, Kabupaten Manggarai Barat, Nusa Tenggara Tim.","Kabupaten Manggarai Barat, Nusa Tenggara Tim.",NUSA TENGGARA TIMUR,,Indonesia, 082144778442,,,-8.7100382,120.1675036,https://maps.google.com/?cid=0x0:0x7ee82ea3db2788c4,
supermarket,Toko,Pancaran Mart Lembor,"75R7+XPX, Tangge, Kecamatan Lembor, Kabupaten Manggarai Barat, Nusa Tenggara Tim.","Kabupaten Manggarai Barat, Nusa Tenggara Tim.",NUSA TENGGARA TIMUR,,Indonesia,,,,-8.7075194,120.1643624,https://maps.google.com/?cid=0x0:0x7d8d7aa4db5639d7,
supermarket,Toko bahan makanan,Bertolomeus Banggut (Toko Sumber Bahagia),"75HF+RX8, Pasar, Wae Mose, Kecamatan Lembor, Kabupaten Manggarai Barat, Nusa Tenggara Tim.","Kabupaten Manggarai Barat, Nusa Tenggara Tim.",NUSA TENGGARA TIMUR,,Indonesia, 082188407474,,,-8.7204502,120.1749614,https://maps.google.com/?cid=0x0:0x8ffcf08d8dd76b70,
supermarket,Toko Buah dan Sayur,Kakor,"76VC+9R, Kakor, Kec. Lembor Selatan, Kabupaten Manggarai Barat, Nusa Tenggara Tim.","Kabupaten Manggarai Barat, Nusa Tenggara Tim.",NUSA TENGGARA TIMUR,,Indonesia,,,,-8.7066495,120.2220498,https://maps.google.com/?cid=0x0:0xd8d124afc4059883,
supermarket,Toko Buah dan Sayur,Buah lembor,"Lembor view, Tangge, Kecamatan Lembor, Kabupaten Manggarai Barat, Nusa Tenggara Tim.","Kabupaten Manggarai Barat, Nusa Tenggara Tim.",NUSA TENGGARA TIMUR,,Indonesia,,,,-8.7080543,120.1677594,https://maps.google.com/?cid=0x0:0x60102e91068597b9,
supermarket,Toko Perlengkapan Rumah,Bagus Bangunan  minimart,"747V+WJJ Bagus mart, jln ruteng, labuan bajo, Kecamatan Lembor, Kabupaten Manggarai Barat, Nusa Tenggara Tim.","Kabupaten Manggarai Barat, Nusa Tenggara Tim.",NUSA TENGGARA TIMUR,,Indonesia,,,,-8.7351516,120.1440286,https://maps.google.com/?cid=0x0:0x92a365e35efbb901,
supermarket,Kios,Maxi Gabur,"75XV+X48, Daleng, Kecamatan Lembor, Kabupaten Manggarai Barat, Nusa Tenggara Tim.","Kabupaten Manggarai Barat, Nusa Tenggara Tim.",NUSA TENGGARA TIMUR,,Indonesia,,,,-8.7001154,120.1927724,https://maps.google.com/?cid=0x0:0xcf7ee1b0d0c10042,
supermarket,Pusat Perbelanjaan,Pangkalan Minyak Tanah Neranai,"Jl. Ruteng, Tangge, Kecamatan Lembor, Kabupaten Manggarai Barat, Nusa Tenggara Tim. 86753","Tangge, Kecamatan Lembor, Kabupaten Manggarai Barat",NUSA TENGGARA TIMUR,86753.0,Indonesia,,,,-8.7078089,120.1699921,https://maps.google.com/?cid=0x0:0x12decb66a0f9b22b,
supermarket,Kios,KIOS RENDY DARSON,"847H+PQ6, Siru, Kecamatan Lembor, Kabupaten Manggarai Barat, Nusa Tenggara Tim.","Kabupaten Manggarai Barat, Nusa Tenggara Tim.",NUSA TENGGARA TIMUR,,Indonesia, 085274827801,,,-8.6864038,120.1298658,https://maps.google.com/?cid=0x0:0x8c79c59f290e2465,
supermarket,Pertanian,Toko Anugerah Tani Lembor,"75R8+VFJ, Jl. Ruteng, Tangge, Kecamatan Lembor, Kabupaten Manggarai Barat, Nusa Tenggara Tim.","Kabupaten Manggarai Barat, Nusa Tenggara Tim.",NUSA TENGGARA TIMUR,,Indonesia, 081328486986,,,-8.7077804,120.1661336,https://maps.google.com/?cid=0x0:0x3fc891ab64799100,
supermarket,,PURNAMA PHOTOCOPY LEMBOR,"Tangge, Kecamatan Lembor, Kabupaten Manggarai Barat, Nusa Tenggara Tim.","Kabupaten Manggarai Barat, Nusa Tenggara Tim.",NUSA TENGGARA TIMUR,,Indonesia, 082266354150,,,-8.7081097,120.1664973,https://maps.google.com/?cid=0x0:0xc95d340f26327be1,
supermarket,Kios,Toko Sinar Hasil,"75Q8+XRQ, Pasar, Kecamatan Lembor, Kabupaten Manggarai Barat, Nusa Tenggara Tim.","Kabupaten Manggarai Barat, Nusa Tenggara Tim.",NUSA TENGGARA TIMUR,,Indonesia,,,,-8.7099882,120.1670922,https://maps.google.com/?cid=0x0:0x88e1036ef982fa69,
supermarket,Toko bahan makanan,Kakor lemboe,"76Q3+29, Kakor, Kec. Lembor Selatan, Kabupaten Manggarai Barat, Nusa Tenggara Tim.","Kabupaten Manggarai Barat, Nusa Tenggara Tim.",NUSA TENGGARA TIMUR,,Indonesia,,,,-8.7124355,120.2034703,https://maps.google.com/?cid=0x0:0x1d30b7d17615cb0,
supermarket,Pusat Perbelanjaan,KAMPUNG AMBA MARKET,"Amba Watu Rambung, Lembor Selatan, Nusa Tenggara Tim. 86753",Lembor Selatan,NUSA TENGGARA TIMUR,86753.0,Indonesia, 081266128124,,,-8.738696,120.190346,https://maps.google.com/?cid=0x0:0xb03cec3a397388b7,
supermarket,Toko makanan beku,Mugie frozen,"Jl. Sawah Lio No.I, RT.11/RW.1, Jemb. Lima, Kec. Tambora, Kota Jakarta Barat, Daerah Khusus Ibukota Jakarta 11250","RT.11/RW.1, Jemb. Lima, Kec. Tambora, Kota Jakarta Barat",NUSA TENGGARA TIMUR,11250.0,Indonesia, 085814561987,,,-6.1466015,106.8060013,https://maps.google.com/?cid=0x0:0x6b272c8d9ccd891a,
supermarket,Pusat Perbelanjaan,IKENNA SHOP,"RWW9+56C, Gading Nias Apartemen tower emerald lobby T, Jl. Pegangsaan Dua, RT.13/RW.3, Pegangsaan Dua, Kec. Klp. Gading, Jkt Utara, Daerah Khusus Ibukota Jakarta 14250","Gading Nias Apartemen tower emerald lobby T, Jl. Pegangsaan Dua, RT.13/RW.3, Pegangsaan Dua, Kec. Klp. Gading, Jkt Utara",NUSA TENGGARA TIMUR,14250.0,Indonesia, 0895333217721,,,-6.1545572,106.9180112,https://maps.google.com/?cid=0x0:0xa9967c9000a8535e,
supermarket,Toko Swalayan,Bapa Kades,"52PW+V45, Benteng Dewa, Kecamatan Lembor, Kabupaten Manggarai Barat, Nusa Tenggara Tim.","Kabupaten Manggarai Barat, Nusa Tenggara Tim.",NUSA TENGGARA TIMUR,,Indonesia,,,,-8.81287,120.0453695,https://maps.google.com/?cid=0x0:0x5233a3af6c57471b,
supermarket,Toko Swalayan,BAPA TIKA,"53V8+MP5, Benteng Dewa, Kec. Lembor Selatan, Kabupaten Manggarai Barat, Nusa Tenggara Tim.","Kabupaten Manggarai Barat, Nusa Tenggara Tim.",NUSA TENGGARA TIMUR,,Indonesia,,,,-8.8058652,120.0668677,https://maps.google.com/?cid=0x0:0x58d31093948963d6,
supermarket,Toko bahan makanan,Denny's Mart SURYA BAHARI,"Jl. Soekarno Hatta No.89, Labuan Bajo, Kec. Komodo, Kabupaten Manggarai Barat, Nusa Tenggara Tim.","Kabupaten Manggarai Barat, Nusa Tenggara Tim.",NUSA TENGGARA TIMUR,,Indonesia, 081339460307,,,-8.4890838,119.8757177,https://maps.google.com/?cid=0x0:0xbf17a8ce3bc14f0b,
supermarket,supermarket,Nusa Tenggara Tim.,,Nusa Tenggara Tim.,NUSA TENGGARA TIMUR,,Indonesia,,,,-8.6573819,121.0793705,https://maps.google.com/?cid=0x0:0x1030bfbcaf71ae0,
supermarket,Toko Swalayan,Nirwana Pasaraya,"Mbaumuku, Kec. Langke Rembong, Kabupaten Manggarai, Nusa Tenggara Tim.","Kabupaten Manggarai, Nusa Tenggara Tim.",NUSA TENGGARA TIMUR,,Indonesia, 038521265,,,-8.6090783,120.4685412,https://maps.google.com/?cid=0x0:0x43d25be070da0bcb,
supermarket,Toko bahan makanan,Nadine Mart,"Roe, Jln. Trans Flores Ruteng-Labuan Bajo. KM 35, Dari, Labuan Bajo, Kabupaten Manggarai Barat, Nusa Tenggara Tim. 86757","Jln. Trans Flores Ruteng-Labuan Bajo. KM 35, Dari, Labuan Bajo, Kabupaten Manggarai Barat",NUSA TENGGARA TIMUR,86757.0,Indonesia, 081227268397,,,-8.5951526,120.0181274,https://maps.google.com/?cid=0x0:0x6d684a5338871c01,
supermarket,Toko bahan makanan,Kios Nangga Dangis,"FW38+5GC, Nggorang, Kec. Komodo, Kabupaten Manggarai Barat, Nusa Tenggara Tim.","Kabupaten Manggarai Barat, Nusa Tenggara Tim.",NUSA TENGGARA TIMUR,,Indonesia, 081246123922,,,-8.5470696,119.9162626,https://maps.google.com/?cid=0x0:0x68d43429b3be5d28,
supermarket,Komplek perumahan,Werang,"82R7+GRJ, Golo Mbu, Kec. Sano Nggoang, Kabupaten Manggarai Barat, Nusa Tenggara Tim.","Kabupaten Manggarai Barat, Nusa Tenggara Tim.",NUSA TENGGARA TIMUR,,Indonesia,,,,-8.6586645,120.0145169,https://maps.google.com/?cid=0x0:0x7964a3691b39be2a,
supermarket,Kantor Perusahaan,Derano Tour  Travel,"Bambor Desa Watu Wangka, Labuan Bajo, Kec. Mbeliling, Nusa Tenggara Tim. 86757","Labuan Bajo, Kec. Mbeliling",NUSA TENGGARA TIMUR,86757.0,Indonesia, 082191872640,,,-8.5825222,120.1069594,https://maps.google.com/?cid=0x0:0xeab8aef585f495ee,
supermarket,supermarket,Plataran Komodo Resort  Spa,"Labuan Bajo, Kec. Komodo, Kabupaten Manggarai Barat, Nusa Tenggara Tim. 86757","Kec. Komodo, Kabupaten Manggarai Barat",NUSA TENGGARA TIMUR,86757.0,Indonesia,"  Bagus ini! ||Drink: Nice! ||Tribal dancer ini: Fantastik!||Terima kasih, semuanya! ||Sayangnya, Saya bahkan tidak dapat memposting foto hotelnya... ||Selain itu, saya juga ingin menceritakan pandangan saya tentang tempat surgawi ini. Saya sangat berharap saya tidak memiliki kesalahpahaman. ||Jadi, pertama-tama, meskipun saya menginap beberapa malam di hotel yang indah ini untuk tujuan inspeksi, saya sangat menyukai hotel itu sendiri. Pemandangannya indah, kamarnya indah, lautnya tidak akan pernah seindah, seindah, dan >>",,,-8.4567648,119.8704449,https://maps.google.com/?cid=0x0:0x21a84b3e1539a820,
supermarket,supermarket,,,,NUSA TENGGARA TIMUR,,Indonesia,,,,,,https://maps.google.com/?cid=0x0:0x21a84b3e1539a820%7C/g/11b637m6t6%7Cid-ID,
supermarket,Kantor Perusahaan,Kanawa Island,"Kanawah Island, Pasir Putih, Komodo, West Manggarai Regency, East Nusa Tenggara","Kabupaten Manggarai Barat, Nusa Tenggara Tim.",NUSA TENGGARA TIMUR,,Indonesia, 081353670441,,,-8.4948685,119.7587178,https://maps.google.com/?cid=0x0:0x5b9902ce7ec279f9,
supermarket,Toko Swalayan,Nirwana. UD,"CF22+GCX, JL. Laksda Adi Sucipto, Tenda, Langke Rembong, Wali, Kec. Ruteng, Kabupaten Manggarai, Nusa Tenggara Tim.","Kabupaten Manggarai, Nusa Tenggara Tim.",NUSA TENGGARA TIMUR,,Indonesia, 038521265,,,-8.5986426,120.4511197,https://maps.google.com/?cid=0x0:0x640520c30ae8d55e,
supermarket,supermarket,Kec. Sano Nggoang,"Kabupaten Manggarai Barat, Nusa Tenggara Tim.","Kabupaten Manggarai Barat, Nusa Tenggara Tim.",NUSA TENGGARA TIMUR,,Indonesia,,,,-8.6504359,120.0088957,https://maps.google.com/?cid=0x0:0xbdd044f0cd4c82fb,
supermarket,Minimarket,Pasar Werang,"82X6+976, Unnamed Road, Golo Mbu, Kec. Sano Nggoang, Kabupaten Manggarai Barat, Nusa Tenggara Tim.","Kabupaten Manggarai Barat, Nusa Tenggara Tim.",NUSA TENGGARA TIMUR,,Indonesia,,,,-8.6515945,120.0106553,https://maps.google.com/?cid=0x0:0x8a31008af268cdce,
supermarket,Kios,Kios Mekar Bersama,"9226+66F, Werang, Kec. Sano Nggoang, Kabupaten Manggarai Barat, Nusa Tenggara Tim.","Kabupaten Manggarai Barat, Nusa Tenggara Tim.",NUSA TENGGARA TIMUR,,Indonesia, 081237654205,,,-8.6494941,120.010546,https://maps.google.com/?cid=0x0:0x6d9e4fefb48c6bae,
supermarket,Kios,Kios Sembako Rafa,"9423+FRG, Golo Tantong, Kec. Sano Nggoang, Kabupaten Manggarai Barat, Nusa Tenggara Tim.","Kabupaten Manggarai Barat, Nusa Tenggara Tim.",NUSA TENGGARA TIMUR,,Indonesia,,,,-8.6488176,120.1045923,https://maps.google.com/?cid=0x0:0xefd16e904b50b346,
supermarket,Grosir,Toko Kembang Indah,"82X5+RGJ, Unnamed Road, Golo Mbu, Kec. Sano Nggoang, Kabupaten Manggarai Barat, Nusa Tenggara Tim.","Kabupaten Manggarai Barat, Nusa Tenggara Tim.",NUSA TENGGARA TIMUR,,Indonesia,,,,-8.6504055,120.0087768,https://maps.google.com/?cid=0x0:0xb79720f605cd6446,
supermarket,Kios,CIKO KIOS BAMBOR,"93Q5+C84, Unnamed Road, Watu Wangka, Kec. Sano Nggoang, Kabupaten Manggarai Barat, Nusa Tenggara Tim.","Kabupaten Manggarai Barat, Nusa Tenggara Tim.",NUSA TENGGARA TIMUR,,Indonesia, 082340656850,,,-8.6114868,120.0583161,https://maps.google.com/?cid=0x0:0x928c8b1779a67498,
supermarket,Pasar,De Garry Minimarket,"Werang, kompleks pasar werang No.1, Golo Mbu, Kec. Sano Nggoang, Kabupaten Manggarai Barat, Nusa Tenggara Tim. 86758","kompleks pasar werang No.1, Golo Mbu, Kec. Sano Nggoang, Kabupaten Manggarai Barat",NUSA TENGGARA TIMUR,86758.0,Indonesia,,,,-8.6518029,120.0097172,https://maps.google.com/?cid=0x0:0xabbcd68d7f441e54,
supermarket,Toko,Kios Densy,"9XX7+HF9, Liang Ndara, Kec. Sano Nggoang, Kabupaten Manggarai Barat, Nusa Tenggara Tim.","Kabupaten Manggarai Barat, Nusa Tenggara Tim.",NUSA TENGGARA TIMUR,,Indonesia, 082341090353,,,-8.6010944,119.9637346,https://maps.google.com/?cid=0x0:0x43638ad5a03f0ccb,
supermarket,supermarket,Kios NavathaChey,"82R7+GRJ, Genggo, Golo Mbu, Kec. Sano Nggoang, Kabupaten Manggarai Barat, Nusa Tenggara Tim.","Kabupaten Manggarai Barat, Nusa Tenggara Tim.",NUSA TENGGARA TIMUR,,Indonesia,,,,-8.6586645,120.0145169,https://maps.google.com/?cid=0x0:0x260e3ad0e084dec7,
supermarket,Kios,kios fatmi,"83WP+8PM, Golo Leleng, Kec. Sano Nggoang, Kabupaten Manggarai Barat, Nusa Tenggara Tim.","Kabupaten Manggarai Barat, Nusa Tenggara Tim.",NUSA TENGGARA TIMUR,,Indonesia,,,,-8.6538127,120.0864401,https://maps.google.com/?cid=0x0:0x5a75e27872a7ad57,
supermarket,Kantor Perusahaan,Pasar Rekas,"Rekas_Kempo, Kec. Mbeliling, Kabupaten Manggarai Barat, Nusa Tenggara Tim.","Kabupaten Manggarai Barat, Nusa Tenggara Tim.",NUSA TENGGARA TIMUR,,Indonesia,,,,-8.6253377,120.0506986,https://maps.google.com/?cid=0x0:0x1699da0e7cf391d0,
supermarket,Kios,Kios Devela,"9X6R+468, Teong Toda, Golo Ndaring, Kec. Sano Nggoang, Kabupaten Manggarai Barat, Nusa Tenggara Tim.","Kabupaten Manggarai Barat, Nusa Tenggara Tim.",NUSA TENGGARA TIMUR,,Indonesia,,,,-8.6397055,119.9905813,https://maps.google.com/?cid=0x0:0x53420fc79c83e524,
supermarket,Kios,Kios Bp Abdul Gani,"9368+V4, Golo Kempo, Kec. Sano Nggoang, Kabupaten Manggarai Barat, Nusa Tenggara Tim.","Kabupaten Manggarai Barat, Nusa Tenggara Tim.",NUSA TENGGARA TIMUR,,Indonesia, 082144717008,,,-8.6369626,120.0646435,https://maps.google.com/?cid=0x0:0xa346d5242334fff4,
supermarket,Kios,Kios Sembako Baba Eko,"Unnamed Road, Wae Jare, Kec. Sano Nggoang, Kabupaten Manggarai Barat, Nusa Tenggara Tim.","Kabupaten Manggarai Barat, Nusa Tenggara Tim.",NUSA TENGGARA TIMUR,,Indonesia, 081237953805,,,-8.6271326,120.1080671,https://maps.google.com/?cid=0x0:0xb27b2d0e57088d0b,
supermarket,Kios,Kios Karlos,"93F2+Q5V, Kempo, Kec. Sano Nggoang, Kabupaten Manggarai Barat, Nusa Tenggara Tim.","Kabupaten Manggarai Barat, Nusa Tenggara Tim.",NUSA TENGGARA TIMUR,,Indonesia, 081236436326,,,-8.6255128,120.0504187,https://maps.google.com/?cid=0x0:0x6c6c9f5601199357,
supermarket,Toko,KIOS AYU DAHOT,"933C+C9R, Nampar Macing, Kec. Sano Nggoang, Kabupaten Manggarai Barat, Nusa Tenggara Tim.","Kabupaten Manggarai Barat, Nusa Tenggara Tim.",NUSA TENGGARA TIMUR,,Indonesia,,,,-8.6463895,120.0708824,https://maps.google.com/?cid=0x0:0x9f041d1148bd627e,
supermarket,Kios,"Golo Menes, Kabupaten Manggarai Barat","Golo Menes, Desa, Golo Desat, Kec. Mbeliling, Kabupaten Manggarai Barat, Nusa Tenggara Tim.","Kabupaten Manggarai Barat, Nusa Tenggara Tim.",NUSA TENGGARA TIMUR,,Indonesia, 082244677560,,,-8.6106534,120.0532921,https://maps.google.com/?cid=0x0:0x3018c505cc2765c8,
supermarket,Toko,Rumah flory/Kebun Porang,"C342+QFQ, Golo Sembea, Kec. Sano Nggoang, Kabupaten Manggarai Barat, Nusa Tenggara Tim.","Kabupaten Manggarai Barat, Nusa Tenggara Tim.",NUSA TENGGARA TIMUR,,Indonesia, 081353477451,,,-8.5961775,120.0503449,https://maps.google.com/?cid=0x0:0xdae8d5541e17596f,
supermarket,Toko,Kios Masyo,"9XX7+8CQ, Liang Ndara, Kec. Sano Nggoang, Kabupaten Manggarai Barat, Nusa Tenggara Tim.","Kabupaten Manggarai Barat, Nusa Tenggara Tim.",NUSA TENGGARA TIMUR,,Indonesia,,,,-8.6013656,119.9629093,https://maps.google.com/?cid=0x0:0x576cebb717c6e0b0,
supermarket,supermarket,Nusa Tenggara Tim.,,Nusa Tenggara Tim.,NUSA TENGGARA TIMUR,,Indonesia,,,,-8.6573819,121.0793705,https://maps.google.com/?cid=0x0:0x1030bfbcaf71ae0,
supermarket,Toko Swalayan,ZASGO MART,"Jl. Soekarno Hatta, Labuan Bajo, Kec. Komodo, Kabupaten Manggarai Barat, Nusa Tenggara Tim.","Kabupaten Manggarai Barat, Nusa Tenggara Tim.",NUSA TENGGARA TIMUR,,Indonesia, 082145408947,,,-8.4988048,119.882725,https://maps.google.com/?cid=0x0:0x907afe04258f6944,
supermarket,Toko Swalayan,ROXYMART,"Jl. Soekarno Hatta, Labuan Bajo, Kec. Komodo, Kabupaten Manggarai Barat, Nusa Tenggara Tim.","Kabupaten Manggarai Barat, Nusa Tenggara Tim.",NUSA TENGGARA TIMUR,,Indonesia, 081337064399,,,-8.4959897,119.8790453,https://maps.google.com/?cid=0x0:0xc7e600729b51a797,
supermarket,Toko bahan makanan,Denny's Mart SURYA BAHARI,"Jl. Soekarno Hatta No.89, Labuan Bajo, Kec. Komodo, Kabupaten Manggarai Barat, Nusa Tenggara Tim.","Kabupaten Manggarai Barat, Nusa Tenggara Tim.",NUSA TENGGARA TIMUR,,Indonesia, 081339460307,,,-8.4890838,119.8757177,https://maps.google.com/?cid=0x0:0xbf17a8ce3bc14f0b,
supermarket,Toko bahan makanan,Bali Mart,"GV2M+C3H, Jl. Soekarno Hatta, Goron Talo, Kec. Komodo, Kabupaten Manggarai Barat, Nusa Tenggara Tim.","Kabupaten Manggarai Barat, Nusa Tenggara Tim.",NUSA TENGGARA TIMUR,,Indonesia,,,,-8.4989486,119.8827368,https://maps.google.com/?cid=0x0:0x6b9174dcfb2663a2,
supermarket,Toko Swalayan,Denny's Mart Kampung Tengah,"GV3H+XGJ, Labuan Bajo, Kec. Komodo, Kabupaten Manggarai Barat, Nusa Tenggara Tim.","Kabupaten Manggarai Barat, Nusa Tenggara Tim.",NUSA TENGGARA TIMUR,,Indonesia, 081236030882,,,-8.4950476,119.8787776,https://maps.google.com/?cid=0x0:0x4a30ce46561fb479,
supermarket,Toko Swalayan,Denny's Mart Waemata,"GV2R+7QX, Wae Kelambu, Kec. Komodo, Kabupaten Manggarai Barat, Nusa Tenggara Tim.","Kabupaten Manggarai Barat, Nusa Tenggara Tim.",NUSA TENGGARA TIMUR,,Indonesia, 081339761463,,,-8.4992589,119.8919973,https://maps.google.com/?cid=0x0:0x66b7a4725166cb26,
supermarket,Toko Swalayan,Deli Point,"Jl. Puncak Waringin, Labuan Bajo, Kec. Komodo, Kabupaten Manggarai Barat, Nusa Tenggara Tim. 86754","Labuan Bajo, Kec. Komodo, Kabupaten Manggarai Barat",NUSA TENGGARA TIMUR,86754.0,Indonesia, 081236058607,,,-8.4970857,119.8826537,https://maps.google.com/?cid=0x0:0xc9d3c3706f6bb833,
supermarket,Toko Swalayan,Pagi Supermarket,"FVXJ+WMX, Goron Talo, Kec. Komodo, Kabupaten Manggarai Barat, Nusa Tenggara Tim.","Kabupaten Manggarai Barat, Nusa Tenggara Tim.",NUSA TENGGARA TIMUR,,Indonesia,,,,-8.5001479,119.8817421,https://maps.google.com/?cid=0x0:0xf9a6d92b1cc19d52,
supermarket,Toko Swalayan,DENNY'S MART WAENAHI,"FVVV+W37, Jln Dalu Bintang Labuan Bajo, Jl. Waemata, Goron Talo, Kec. Komodo, Kabupaten Manggarai Barat, Nusa Tenggara Tim. 86711","Jln Dalu Bintang Labuan Bajo, Jl. Waemata, Goron Talo, Kec. Komodo, Kabupaten Manggarai Barat",NUSA TENGGARA TIMUR,86711.0,Indonesia, 081246115972,,,-8.5053353,119.8926879,https://maps.google.com/?cid=0x0:0x26d27f2060132d42,
supermarket,Toko Roti,Kompiang Lejong - Oleh-Oleh Khas Labuan Bajo,"Jl. Yohanes Sahadoen Wae Kelambu, Labuan Bajo, Komodo, West Manggarai Regency, East Nusa Tenggara","Kabupaten Manggarai Barat, Nusa Tenggara Tim.",NUSA TENGGARA TIMUR,,Indonesia, 085850758161,,,-8.4957028,119.8856558,https://maps.google.com/?cid=0x0:0x68e481a5fc34a96e,
supermarket,Toko Swalayan,TOKO SURYA JAYA,"GV4H+2FW, Labuan Bajo, Kec. Komodo, Kabupaten Manggarai Barat, Nusa Tenggara Tim.","Kabupaten Manggarai Barat, Nusa Tenggara Tim.",NUSA TENGGARA TIMUR,,Indonesia,,,,-8.4948889,119.8787059,https://maps.google.com/?cid=0x0:0x78314a112d76dc11,
supermarket,Toko Kelontong Asia,Toko Jifiqa putri komodo,"CF5Q+MQ2 Komodo, RT.402/RW.04, Komodo, Kec. Komodo, Kabupaten Manggarai Barat, Nusa Tenggara Tim. 86711","RT.402/RW.04, Komodo, Kec. Komodo, Kabupaten Manggarai Barat",NUSA TENGGARA TIMUR,86711.0,Indonesia, 082145282567,,,-8.5908549,119.4893792,https://maps.google.com/?cid=0x0:0x29572864d9797ab9,
supermarket,Toko Suvenir,Komodo Giftshop,"Jl. Raymundus Rambu Jl. Batu Cermin No.17, Labuan Bajo, Komodo, West Manggarai Regency, East Nusa Tenggara 86754","Labuan Bajo, Komodo, West Manggarai Regency",NUSA TENGGARA TIMUR,86754.0,Indonesia, 081236849269,,,-8.473853,119.8960502,https://maps.google.com/?cid=0x0:0xd09a588a338829ad,
supermarket,Toko Rokok Elektrik,Katakio Vape - disposable pod ELFBAR / Relx - Terea Iqos,"Jl. Soekarno Hatta, Goron Talo, Kec. Komodo, Kabupaten Manggarai Barat, Nusa Tenggara Tim. 86754","Goron Talo, Kec. Komodo, Kabupaten Manggarai Barat",NUSA TENGGARA TIMUR,86754.0,Indonesia, 081220397825,,,-8.4992617,119.8814794,https://maps.google.com/?cid=0x0:0xe830676c78aa7e15,
supermarket,Toko Roti,MIMAMORI CAFE LABUAN BAJO,"Jl. Soekarno Hatta, Labuan Bajo, Kec. Komodo, Kabupaten Manggarai Barat, Nusa Tenggara Tim. 86754","Labuan Bajo, Kec. Komodo, Kabupaten Manggarai Barat",NUSA TENGGARA TIMUR,86754.0,Indonesia, 081138000767,,,-8.4930872,119.8775855,https://maps.google.com/?cid=0x0:0x13c4c006d3436d8,
supermarket,Toko Roti,Kompiang Komey Depan Bandara,"Jl. Yohanis Sahadun, Labuan Bajo, Kec. Komodo, Kabupaten Manggarai Barat, Nusa Tenggara Tim. 86754","Labuan Bajo, Kec. Komodo, Kabupaten Manggarai Barat",NUSA TENGGARA TIMUR,86754.0,Indonesia, 085238683858,,,-8.4881867,119.8861921,https://maps.google.com/?cid=0x0:0xec3b94afc23bdf08,
supermarket,Toko Suvenir,Yasmine Oleh Oleh,"Jl. Sunu, Labuan Bajo, Kec. Komodo, Kabupaten Manggarai Barat, Nusa Tenggara Tim. 86754","Labuan Bajo, Kec. Komodo, Kabupaten Manggarai Barat",NUSA TENGGARA TIMUR,86754.0,Indonesia, 081235193395,,,-8.4973599,119.8828114,https://maps.google.com/?cid=0x0:0x586b49cd79c0a0f4,
supermarket,Kedai Kopi,CARPENTER CAFE  ROASTERY - SOETTA,"Jl. Soekarno Hatta, Labuan Bajo, Kec. Komodo, Kabupaten Manggarai Barat, Nusa Tenggara Tim. 86754","Labuan Bajo, Kec. Komodo, Kabupaten Manggarai Barat",NUSA TENGGARA TIMUR,86754.0,Indonesia, 081236424411,,,-8.4930293,119.8778,https://maps.google.com/?cid=0x0:0xb351d32233356cbf,
supermarket,Toko Swalayan,ROXY MART,"Gabriel Gampur, Jalan, Goron Talo, Komodo, West Manggarai Regency, East Nusa Tenggara","Kabupaten Manggarai Barat, Nusa Tenggara Tim.",NUSA TENGGARA TIMUR,,Indonesia, 082144174615,,,-8.4969713,119.885337,https://maps.google.com/?cid=0x0:0xbfdb99df044040ed,
supermarket,Minimarket,YTELMART,"Pau, Kec. Langke Rembong, Kabupaten Manggarai, Nusa Tenggara Tim.","Kabupaten Manggarai, Nusa Tenggara Tim.",NUSA TENGGARA TIMUR,,Indonesia, 081236427399,,,-8.6105622,120.4531034,https://maps.google.com/?cid=0x0:0xbb438add11dbcb3b,
supermarket,Toko Swalayan,MKT Mart (Makanan Kita Tiaphari),"GV7G+3W9, Labuan Bajo, Kec. Komodo, Kabupaten Manggarai Barat, Nusa Tenggara Tim.","Kabupaten Manggarai Barat, Nusa Tenggara Tim.",NUSA TENGGARA TIMUR,,Indonesia, 081808882627,,,-8.4873347,119.8772987,https://maps.google.com/?cid=0x0:0x7f70f2812891c20f,
supermarket,Toko Swalayan,One Star Minimarket,"FVXX+JG4, Kompleks PDAM Jl. Soekarno Hatta, Labuan Bajo, Kec. Komodo, Kabupaten Manggarai Barat, Nusa Tenggara Tim. 86754","Kompleks PDAM Jl. Soekarno Hatta, Labuan Bajo, Kec. Komodo, Kabupaten Manggarai Barat",NUSA TENGGARA TIMUR,86754.0,Indonesia,,,,-8.5009917,119.8988359,https://maps.google.com/?cid=0x0:0x8a5df9a40bba9a0,
supermarket,Kios,KIOS ARNAM,"Labuan Bajo, Kec. Komodo, Kabupaten Manggarai Barat, Nusa Tenggara Tim.","Kabupaten Manggarai Barat, Nusa Tenggara Tim.",NUSA TENGGARA TIMUR,,Indonesia,,,,-8.4978984,119.87899,https://maps.google.com/?cid=0x0:0xb6e75a06537d3936,
supermarket,Toko Swalayan,Tk bone rate,"GV4H+MRF, Jl. Soekarno Hatta, Labuan Bajo, Kec. Komodo, Kabupaten Manggarai Barat, Nusa Tenggara Tim.","Kabupaten Manggarai Barat, Nusa Tenggara Tim.",NUSA TENGGARA TIMUR,,Indonesia,,,,-8.4933074,119.8795324,https://maps.google.com/?cid=0x0:0x7a3dd072753122a1,
supermarket,Kios,KIOS ERDIANTARA,"GV6G+WX6, Labuan Bajo, Kec. Komodo, Kabupaten Manggarai Barat, Nusa Tenggara Tim.","Kabupaten Manggarai Barat, Nusa Tenggara Tim.",NUSA TENGGARA TIMUR,,Indonesia, 081238297458,,,-8.4877137,119.8773941,https://maps.google.com/?cid=0x0:0x18cb375e4ea44b21,
supermarket,Toko Buku,toko buku sinar harapan,"GV3H+5W4, Jl. Soekarno Hatta, Labuan Bajo, Kec. Komodo, Kabupaten Manggarai Barat, Nusa Tenggara Tim.","Kabupaten Manggarai Barat, Nusa Tenggara Tim.",NUSA TENGGARA TIMUR,,Indonesia, 081239556695,,,-8.4971104,119.8798309,https://maps.google.com/?cid=0x0:0xb7b6eed1afb2ead8,
supermarket,Toko Bahan Bangunan,Toko Raja Bangunan,"Jl. Soekarno Hatta No.88, Labuan Bajo, Kec. Komodo, Kabupaten Manggarai Barat, Nusa Tenggara Tim. 86754","Labuan Bajo, Kec. Komodo, Kabupaten Manggarai Barat",NUSA TENGGARA TIMUR,86754.0,Indonesia,,,,-8.498078,119.8804582,https://maps.google.com/?cid=0x0:0x3bc97fa1d5c89c75,
supermarket,Toko makanan beku,AisyahShop Frozen Food,"Jl. Wr. Asem, Cogreg, Kec. Parung, Kabupaten Bogor, Jawa Barat 16330","Cogreg, Kec. Parung, Kabupaten Bogor",NUSA TENGGARA TIMUR,16330.0,Indonesia, 081617422320,,,-6.4136379,106.6976948,https://maps.google.com/?cid=0x0:0xcd71a3b49908845e,
supermarket,supermarket,Nusa Tenggara Tim.,,Nusa Tenggara Tim.,NUSA TENGGARA TIMUR,,Indonesia,,,,-8.6573819,121.0793705,https://maps.google.com/?cid=0x0:0x1030bfbcaf71ae0,
supermarket,Toko bahan makanan,Denny's Mart Cowang Dereng,"GV5V+JQR, cowang dereng, Batu Cermin, Kec. Komodo, Kabupaten Manggarai Barat, Nusa Tenggara Tim.","Kabupaten Manggarai Barat, Nusa Tenggara Tim.",NUSA TENGGARA TIMUR,,Indonesia,,,,-8.4908853,119.8943923,https://maps.google.com/?cid=0x0:0xdb2b3a18ebb5c5f4,
supermarket,Toko Swalayan,ZASGO MART,"Jl. Soekarno Hatta, Labuan Bajo, Kec. Komodo, Kabupaten Manggarai Barat, Nusa Tenggara Tim.","Kabupaten Manggarai Barat, Nusa Tenggara Tim.",NUSA TENGGARA TIMUR,,Indonesia, 082145408947,,,-8.4988048,119.882725,https://maps.google.com/?cid=0x0:0x907afe04258f6944,
supermarket,Toko bahan makanan,Denny's Mart SURYA BAHARI,"Jl. Soekarno Hatta No.89, Labuan Bajo, Kec. Komodo, Kabupaten Manggarai Barat, Nusa Tenggara Tim.","Kabupaten Manggarai Barat, Nusa Tenggara Tim.",NUSA TENGGARA TIMUR,,Indonesia, 081339460307,,,-8.4890838,119.8757177,https://maps.google.com/?cid=0x0:0xbf17a8ce3bc14f0b,
supermarket,Toko Swalayan,DENNY'S MART WAENAHI,"FVVV+W37, Jln Dalu Bintang Labuan Bajo, Jl. Waemata, Goron Talo, Kec. Komodo, Kabupaten Manggarai Barat, Nusa Tenggara Tim. 86711","Jln Dalu Bintang Labuan Bajo, Jl. Waemata, Goron Talo, Kec. Komodo, Kabupaten Manggarai Barat",NUSA TENGGARA TIMUR,86711.0,Indonesia, 081246115972,,,-8.5053353,119.8926879,https://maps.google.com/?cid=0x0:0x26d27f2060132d42,
supermarket,Toko Swalayan,Denny's Mart Waemata,"GV2R+7QX, Wae Kelambu, Kec. Komodo, Kabupaten Manggarai Barat, Nusa Tenggara Tim.","Kabupaten Manggarai Barat, Nusa Tenggara Tim.",NUSA TENGGARA TIMUR,,Indonesia, 081339761463,,,-8.4992589,119.8919973,https://maps.google.com/?cid=0x0:0x66b7a4725166cb26,
supermarket,Minimarket,FRANS MART LEWOKELENG,"J6CC+2H4, Lewo Keleng, Kec. Ile Boleng, Kabupaten Flores Timur, Nusa Tenggara Tim.","Kabupaten Flores Timur, Nusa Tenggara Tim.",NUSA TENGGARA TIMUR,,Indonesia, 081338793414,,,-8.3799875,123.2214531,https://maps.google.com/?cid=0x0:0xc0aeac99cbeb462d,
supermarket,Toko Swalayan,Deli Point,"Jl. Puncak Waringin, Labuan Bajo, Kec. Komodo, Kabupaten Manggarai Barat, Nusa Tenggara Tim. 86754","Labuan Bajo, Kec. Komodo, Kabupaten Manggarai Barat",NUSA TENGGARA TIMUR,86754.0,Indonesia, 081236058607,,,-8.4970857,119.8826537,https://maps.google.com/?cid=0x0:0xc9d3c3706f6bb833,
supermarket,Toko bahan makanan,KEDAI 99,"J775+R67, Helanlangowuyo, Kec. Ile Boleng, Kabupaten Flores Timur, Nusa Tenggara Tim.","Kabupaten Flores Timur, Nusa Tenggara Tim.",NUSA TENGGARA TIMUR,,Indonesia,,,,-8.3854746,123.2580473,https://maps.google.com/?cid=0x0:0x89f9607354e332a9,
supermarket,Minimarket,YTELMART,"Pau, Kec. Langke Rembong, Kabupaten Manggarai, Nusa Tenggara Tim.","Kabupaten Manggarai, Nusa Tenggara Tim.",NUSA TENGGARA TIMUR,,Indonesia, 081236427399,,,-8.6105622,120.4531034,https://maps.google.com/?cid=0x0:0xbb438add11dbcb3b,
supermarket,Minimarket,MurinBoleng,"Waiburak, Kec. Adonara Tim., Kabupaten Flores Timur, Nusa Tenggara Tim. 86261","Kec. Adonara Tim., Kabupaten Flores Timur",NUSA TENGGARA TIMUR,86261.0,Indonesia, 081237067464,,,-8.3812796,123.171699,https://maps.google.com/?cid=0x0:0xf5f3d80bea849da5,
supermarket,Komplek perumahan,P. Minyak Wae Lideng,"Jalan Komodo No.11 Kel : Pitak, Kec :, Kec. Langke Rembong, Nusa Tenggara Tim. 86513","Kec :, Kec. Langke Rembong",NUSA TENGGARA TIMUR,86513.0,Indonesia, 081220658886,,,-8.607108,120.4643005,https://maps.google.com/?cid=0x0:0xd870fad80c7f0e4d,
supermarket,supermarket,wotan,"J7QH+HQJ, Lamabayung, Kec. Ile Boleng, Kabupaten Flores Timur, Nusa Tenggara Tim.","Kabupaten Flores Timur, Nusa Tenggara Tim.",NUSA TENGGARA TIMUR,,Indonesia,,,,-8.3610254,123.2793776,https://maps.google.com/?cid=0x0:0x1ca30fbb4f6d6174,
supermarket,supermarket,Boleng,"Waijarang, Kec. Nubatukan, Kabupaten Lembata, Nusa Tenggara Tim.","Kabupaten Lembata, Nusa Tenggara Tim.",NUSA TENGGARA TIMUR,,Indonesia,,,,-8.409525,123.345529,https://maps.google.com/?cid=0x0:0xffc7a39d57efdaaf,
supermarket,Toko Kue,Rahma's Shop Frozen Food-BOLENQUE (Bolen Pisang Keju Cokelat),"Jl. Batan, Gg. H. Sabenih Jl. Grafika No.1 RT005/002, Kota Jakarta Selatan, Daerah Khusus Ibukota Jakarta 12440","Gg. H. Sabenih Jl. Grafika No.1 RT005/002, Kota Jakarta Selatan",NUSA TENGGARA TIMUR,12440.0,Indonesia,,,,-6.2939101,106.7719139,https://maps.google.com/?cid=0x0:0x48cfa7df714fd727,
supermarket,Toko,Alliyah Rahmah Snack,"PQ69+VJ5, RT.8/RW.9, Pd. Pinang, Kec. Kby. Lama, Kota Jakarta Selatan, Daerah Khusus Ibukota Jakarta 12310","RT.8/RW.9, Pd. Pinang, Kec. Kby. Lama, Kota Jakarta Selatan",NUSA TENGGARA TIMUR,12310.0,Indonesia, 0818970448,,,-6.2878606,106.7691218,https://maps.google.com/?cid=0x0:0xa92ac4ce51e15355,
supermarket,supermarket,Kec. Welak,"Kabupaten Manggarai Barat, Nusa Tenggara Tim.","Kabupaten Manggarai Barat, Nusa Tenggara Tim.",NUSA TENGGARA TIMUR,,Indonesia,,,,-8.6284325,120.1747836,https://maps.google.com/?cid=0x0:0x9d0199762a8049e0,
supermarket,Minimarket,Endang Mart,"86XR+9WH, Pong Welak, Kec. Welak, Kabupaten Manggarai Barat, Nusa Tenggara Tim.","Kabupaten Manggarai Barat, Nusa Tenggara Tim.",NUSA TENGGARA TIMUR,,Indonesia,,,,-8.65157,120.24237,https://maps.google.com/?cid=0x0:0x5b517a557ee4a8f1,
supermarket,Toko bahan makanan,Swalayan Pagi,"MFQR+V24, Reo, Kec. Reok, Kabupaten Manggarai, Nusa Tenggara Tim.","Kabupaten Manggarai, Nusa Tenggara Tim.",NUSA TENGGARA TIMUR,,Indonesia,,,,-8.3103661,120.4900678,https://maps.google.com/?cid=0x0:0x611f116a93b6306d,
supermarket,supermarket,Datak,"959F+3F7, datak pao, Lale, Kec. Welak, Kabupaten Manggarai, Nusa Tenggara Tim.","Kabupaten Manggarai, Nusa Tenggara Tim.",NUSA TENGGARA TIMUR,,Indonesia,,,,-8.6323431,120.1736572,https://maps.google.com/?cid=0x0:0x7a797abb8e9f0c68,
supermarket,Minimarket,Sandry kios,"958F+RG6, Golo Ronggot, Kec. Welak, Kabupaten Manggarai Barat, Nusa Tenggara Tim.","Kabupaten Manggarai Barat, Nusa Tenggara Tim.",NUSA TENGGARA TIMUR,,Indonesia, 081236078334,,,-8.6329683,120.1737789,https://maps.google.com/?cid=0x0:0x47a2faa25b0301a7,
supermarket,Toko sembako pemerintah,Mini Benza mart,"9655+P95, Lale, Kec. Welak, Kabupaten Manggarai Barat, Nusa Tenggara Tim.","Kabupaten Manggarai Barat, Nusa Tenggara Tim.",NUSA TENGGARA TIMUR,,Indonesia,,,,-8.6407451,120.2084812,https://maps.google.com/?cid=0x0:0x9ac4c6625cec331,
supermarket,Minimarket,Kios Lintang,"9773+GX, Pong Welak, Kec. Welak, Kabupaten Manggarai Barat, Nusa Tenggara Tim.","Kabupaten Manggarai Barat, Nusa Tenggara Tim.",NUSA TENGGARA TIMUR,,Indonesia,,,,-8.6361252,120.2548785,https://maps.google.com/?cid=0x0:0xd0e212daa1aa1be7,
supermarket,supermarket,Kios mb Wati,"Near, Tangge, Kecamatan Lembor, Kabupaten Manggarai Barat, Nusa Tenggara Tim. 86753","Tangge, Kecamatan Lembor, Kabupaten Manggarai Barat",NUSA TENGGARA TIMUR,86753.0,Indonesia, 081238742559,,,-8.7088749,120.1678471,https://maps.google.com/?cid=0x0:0xfe508fdaafb4d098,
supermarket,Pusat Perbelanjaan,KIOS CAHAYA,"Pong Welak, Nampong, Kabupaten Manggarai Barat, Nusa Tenggara Tim. 86553","Nampong, Kabupaten Manggarai Barat",NUSA TENGGARA TIMUR,86553.0,Indonesia, 085239008224,,,-8.6445951,120.2421453,https://maps.google.com/?cid=0x0:0x4e9c5d270bdd611e,
supermarket,Toko sembako pemerintah,Mberong,"9699+RJ4, Paje, Kec. Welak, Kabupaten Manggarai Barat, Nusa Tenggara Tim.","Kabupaten Manggarai Barat, Nusa Tenggara Tim.",NUSA TENGGARA TIMUR,,Indonesia,,,,-8.6300294,120.2191602,https://maps.google.com/?cid=0x0:0x79662846c4d54ba4,
supermarket,Toko,UD Munting Tanda,"C68G+MF, Dunta, Kec. Welak, Kabupaten Manggarai Barat, Nusa Tenggara Tim.","Kabupaten Manggarai Barat, Nusa Tenggara Tim.",NUSA TENGGARA TIMUR,,Indonesia,,,,-8.5832356,120.2262131,https://maps.google.com/?cid=0x0:0x24ce329ff249a99e,
supermarket,Toko Pakaian,Dhus,"84PR+H7, Golo Ronggot, Kec. Welak, Kabupaten Manggarai Barat, Nusa Tenggara Tim.","Kabupaten Manggarai Barat, Nusa Tenggara Tim.",NUSA TENGGARA TIMUR,,Indonesia,,,,-8.6635827,120.1407471,https://maps.google.com/?cid=0x0:0x1f3ef2571112c3e6,
supermarket,Minimarket,Kios Ignas,"C6CG+8QJ, Dunta, Kec. Welak, Kabupaten Manggarai Barat, Nusa Tenggara Tim.","Kabupaten Manggarai Barat, Nusa Tenggara Tim.",NUSA TENGGARA TIMUR,,Indonesia,,,,-8.5791575,120.2268811,https://maps.google.com/?cid=0x0:0x70c5ae3ba27631b6,
supermarket,Kios,KIOS RENDY DARSON,"847H+PQ6, Siru, Kecamatan Lembor, Kabupaten Manggarai Barat, Nusa Tenggara Tim.","Kabupaten Manggarai Barat, Nusa Tenggara Tim.",NUSA TENGGARA TIMUR,,Indonesia, 085274827801,,,-8.6864038,120.1298658,https://maps.google.com/?cid=0x0:0x8c79c59f290e2465,
supermarket,Toko,Kios Bapa Eka,"852W+FMV, Daleng, Kecamatan Lembor, Kabupaten Manggarai Barat, Nusa Tenggara Tim.","Kabupaten Manggarai Barat, Nusa Tenggara Tim.",NUSA TENGGARA TIMUR,,Indonesia,,,,-8.6987509,120.1966678,https://maps.google.com/?cid=0x0:0xbd099c74e40ed107,
supermarket,Toko,Kios FR,"C6FG+3GC, Wora desa, Semang, Kec. Welak, Kabupaten Manggarai Barat, Nusa Tenggara Tim.","Kabupaten Manggarai Barat, Nusa Tenggara Tim.",NUSA TENGGARA TIMUR,,Indonesia,,,,-8.5773199,120.2262509,https://maps.google.com/?cid=0x0:0x8eceb069771bd44e,
supermarket,Toko bahan makanan,Kios bapa rus,"959G+32C, Lale, Kec. Welak, Kabupaten Manggarai Barat, Nusa Tenggara Tim.","Kabupaten Manggarai Barat, Nusa Tenggara Tim.",NUSA TENGGARA TIMUR,,Indonesia,,,,-8.6323948,120.1740745,https://maps.google.com/?cid=0x0:0x87df572dcd35e40c,
supermarket,Toko,Salman Family,"847P+3X9, Siru, Kecamatan Lembor, Kabupaten Manggarai Barat, Nusa Tenggara Tim.","Kabupaten Manggarai Barat, Nusa Tenggara Tim.",NUSA TENGGARA TIMUR,,Indonesia, 081398715860,,,-8.6873356,120.1374866,https://maps.google.com/?cid=0x0:0x88fb8fa0fdb4fc1c,
supermarket,Pusat Perbelanjaan,Falen k. Abel,"96QG+9R, Gurung, Kec. Welak, Kabupaten Manggarai Barat, Nusa Tenggara Tim.","Kabupaten Manggarai Barat, Nusa Tenggara Tim.",NUSA TENGGARA TIMUR,,Indonesia,,,,-8.6115942,120.2271193,https://maps.google.com/?cid=0x0:0xd39d5a61b9722a9f,
supermarket,Toko,Tokoh Solideo,"75Q8+MQ6, Jl. Ruteng, Tangge, Kecamatan Lembor, Kabupaten Manggarai Barat, Nusa Tenggara Tim.","Kabupaten Manggarai Barat, Nusa Tenggara Tim.",NUSA TENGGARA TIMUR,,Indonesia,,,,-8.7108412,120.1667824,https://maps.google.com/?cid=0x0:0xad3c1f042b2cbf73,
supermarket,Pusat Perbelanjaan,Pangkalan Minyak Tanah Neranai,"Jl. Ruteng, Tangge, Kecamatan Lembor, Kabupaten Manggarai Barat, Nusa Tenggara Tim. 86753","Tangge, Kecamatan Lembor, Kabupaten Manggarai Barat",NUSA TENGGARA TIMUR,86753.0,Indonesia,,,,-8.7078089,120.1699921,https://maps.google.com/?cid=0x0:0x12decb66a0f9b22b,
supermarket,Toko Makanan Sehat,Waroeng satya2,"Jl. Ir Soekarno-Hatta Jl. Sasak Bakar Utama No.Kp, RT.002/RW.03, Kertamukti, Kec. Cibitung, Kabupaten Bekasi, Jawa Barat 17520","RT.002/RW.03, Kertamukti, Kec. Cibitung, Kabupaten Bekasi",NUSA TENGGARA TIMUR,17520.0,Indonesia, 082118040954,,,-6.2272352,107.1054671,https://maps.google.com/?cid=0x0:0x2887309f2f575c8e,
supermarket,Toko bahan makanan,WAROENG SATYA,"Perum kirana cibitung blok A16 no 3, Kabupaten Bekasi, Jawa Barat 17520",Kabupaten Bekasi,NUSA TENGGARA TIMUR,17520.0,Indonesia, 082297039958,,,-6.2449408,107.1077734,https://maps.google.com/?cid=0x0:0xf6ab083ea221d611,
supermarket,supermarket,Nusa Tenggara Tim.,,Nusa Tenggara Tim.,NUSA TENGGARA TIMUR,,Indonesia,,,,-8.6573819,121.0793705,https://maps.google.com/?cid=0x0:0x1030bfbcaf71ae0,
supermarket,Toko bahan makanan,Swalayan Pagi,"MFQR+V24, Reo, Kec. Reok, Kabupaten Manggarai, Nusa Tenggara Tim.","Kabupaten Manggarai, Nusa Tenggara Tim.",NUSA TENGGARA TIMUR,,Indonesia,,,,-8.3103661,120.4900678,https://maps.google.com/?cid=0x0:0x611f116a93b6306d,
supermarket,Toko Swalayan,Denny's Mart Waemata,"GV2R+7QX, Wae Kelambu, Kec. Komodo, Kabupaten Manggarai Barat, Nusa Tenggara Tim.","Kabupaten Manggarai Barat, Nusa Tenggara Tim.",NUSA TENGGARA TIMUR,,Indonesia, 081339761463,,,-8.4992589,119.8919973,https://maps.google.com/?cid=0x0:0x66b7a4725166cb26,
supermarket,Toko Swalayan,Denny's Mart Kampung Tengah,"GV3H+XGJ, Labuan Bajo, Kec. Komodo, Kabupaten Manggarai Barat, Nusa Tenggara Tim.","Kabupaten Manggarai Barat, Nusa Tenggara Tim.",NUSA TENGGARA TIMUR,,Indonesia, 081236030882,,,-8.4950476,119.8787776,https://maps.google.com/?cid=0x0:0x4a30ce46561fb479,
supermarket,Toko Swalayan,DENNY'S MART WAENAHI,"FVVV+W37, Jln Dalu Bintang Labuan Bajo, Jl. Waemata, Goron Talo, Kec. Komodo, Kabupaten Manggarai Barat, Nusa Tenggara Tim. 86711","Jln Dalu Bintang Labuan Bajo, Jl. Waemata, Goron Talo, Kec. Komodo, Kabupaten Manggarai Barat",NUSA TENGGARA TIMUR,86711.0,Indonesia, 081246115972,,,-8.5053353,119.8926879,https://maps.google.com/?cid=0x0:0x26d27f2060132d42,
supermarket,Toko Swalayan,ZASGO MART,"Jl. Soekarno Hatta, Labuan Bajo, Kec. Komodo, Kabupaten Manggarai Barat, Nusa Tenggara Tim.","Kabupaten Manggarai Barat, Nusa Tenggara Tim.",NUSA TENGGARA TIMUR,,Indonesia, 082145408947,,,-8.4988048,119.882725,https://maps.google.com/?cid=0x0:0x907afe04258f6944,
supermarket,Minimarket,YTELMART,"Pau, Kec. Langke Rembong, Kabupaten Manggarai, Nusa Tenggara Tim.","Kabupaten Manggarai, Nusa Tenggara Tim.",NUSA TENGGARA TIMUR,,Indonesia, 081236427399,,,-8.6105622,120.4531034,https://maps.google.com/?cid=0x0:0xbb438add11dbcb3b,
supermarket,Toko Suvenir,Alfares Online Shoop,"Dahang, Pangga, Labuan Bajo, Kabupaten Manggarai Barat, Nusa Tenggara Tim. 86752","Pangga, Labuan Bajo, Kabupaten Manggarai Barat",NUSA TENGGARA TIMUR,86752.0,Indonesia, 082192760061,,,-8.5455464,120.2900465,https://maps.google.com/?cid=0x0:0x539b9bafb46b4bc0,
supermarket,Toko Sepatu,Pareng Lesu,"F8WC+95C , Ndoso, Kec. Ndoso, Kabupaten Manggarai Barat, Nusa Tenggara Tim.","Kabupaten Manggarai Barat, Nusa Tenggara Tim.",NUSA TENGGARA TIMUR,,Indonesia,,,,-8.5040549,120.320396,https://maps.google.com/?cid=0x0:0x44cd3d2f7f6251f7,
supermarket,Toko Pakaian,Ruteng Sneakers,"Pau, Kec. Langke Rembong, Kabupaten Manggarai, Nusa Tenggara Tim.","Kabupaten Manggarai, Nusa Tenggara Tim.",NUSA TENGGARA TIMUR,,Indonesia, 081339872728,,,-8.6138197,120.4529962,https://maps.google.com/?cid=0x0:0x32f41882bcf4594a,
supermarket,Toko Swalayan,Ranch Market The Breeze,"Jl. BSD Green Office Park No.9, Sampora, Kec. Cisauk, Kabupaten Tangerang, Banten 15345","Sampora, Kec. Cisauk, Kabupaten Tangerang",NUSA TENGGARA TIMUR,15345.0,Indonesia, 02123581199,,,-6.302245,106.653258,https://maps.google.com/?cid=0x0:0x8bb566b52a1c2f49,
supermarket,Supermarket Industri,Daily Supermarket - Bumi Serpong Damai,"Blok B2 No.10, Blk. B2 No.10, Pagedangan, Kec. Pagedangan, Kabupaten Tangerang, Banten 15339","Blk. B2 No.10, Pagedangan, Kec. Pagedangan, Kabupaten Tangerang",NUSA TENGGARA TIMUR,15339.0,Indonesia, 08179077272,,,-6.293191,106.634071,https://maps.google.com/?cid=0x0:0x35a19498f12fc900,
supermarket,supermarket,Kec. Lembor Selatan,"Kabupaten Manggarai Barat, Nusa Tenggara Tim.","Kabupaten Manggarai Barat, Nusa Tenggara Tim.",NUSA TENGGARA TIMUR,,Indonesia,,,,-8.7739706,120.1323197,https://maps.google.com/?cid=0x0:0x5bb218ae172463d2,
supermarket,Toko bahan makanan,KIOS S-MART,"Jl. Ruteng-Labuan Bajo, Daleng, Kecamatan Lembor, Kabupaten Manggarai Barat, Nusa Tenggara Tim.","Kabupaten Manggarai Barat, Nusa Tenggara Tim.",NUSA TENGGARA TIMUR,,Indonesia, 081238842254,,,-8.6960362,120.2024607,https://maps.google.com/?cid=0x0:0xdb7afbc1c83130e3,
supermarket,supermarket,Kios mb Wati,"Near, Tangge, Kecamatan Lembor, Kabupaten Manggarai Barat, Nusa Tenggara Tim. 86753","Tangge, Kecamatan Lembor, Kabupaten Manggarai Barat",NUSA TENGGARA TIMUR,86753.0,Indonesia, 081238742559,,,-8.7088749,120.1678471,https://maps.google.com/?cid=0x0:0xfe508fdaafb4d098,
supermarket,Toko,Tokoh Solideo,"75Q8+MQ6, Jl. Ruteng, Tangge, Kecamatan Lembor, Kabupaten Manggarai Barat, Nusa Tenggara Tim.","Kabupaten Manggarai Barat, Nusa Tenggara Tim.",NUSA TENGGARA TIMUR,,Indonesia,,,,-8.7108412,120.1667824,https://maps.google.com/?cid=0x0:0xad3c1f042b2cbf73,
supermarket,Restoran,C2C,"75R7+WJJ, Jl. Ruteng, Tangge, Kecamatan Lembor, Kabupaten Manggarai Barat, Nusa Tenggara Tim.","Kabupaten Manggarai Barat, Nusa Tenggara Tim.",NUSA TENGGARA TIMUR,,Indonesia, 082146067000,,,-8.7076586,120.1640174,https://maps.google.com/?cid=0x0:0x3f9c8f1831bed416,
supermarket,Pusat Perbelanjaan,Alfamart Lembor,"75R8+X28, Tangge, Kecamatan Lembor, Kabupaten Manggarai Barat, Nusa Tenggara Tim.","Kabupaten Manggarai Barat, Nusa Tenggara Tim.",NUSA TENGGARA TIMUR,,Indonesia, 082297833343,,,-8.7075955,120.1650837,https://maps.google.com/?cid=0x0:0xbd3826a5ecdb9d81,
supermarket,Pasar,Pasar lembor,"75Q9+X2J Pedrosa cell, Tangge, Kecamatan Lembor, Kabupaten Manggarai Barat, Nusa Tenggara Tim.","Kabupaten Manggarai Barat, Nusa Tenggara Tim.",NUSA TENGGARA TIMUR,,Indonesia, 082144778442,,,-8.7100382,120.1675036,https://maps.google.com/?cid=0x0:0x7ee82ea3db2788c4,
supermarket,Toko Buah dan Sayur,Kakor,"76VC+9R, Kakor, Kec. Lembor Selatan, Kabupaten Manggarai Barat, Nusa Tenggara Tim.","Kabupaten Manggarai Barat, Nusa Tenggara Tim.",NUSA TENGGARA TIMUR,,Indonesia,,,,-8.7066495,120.2220498,https://maps.google.com/?cid=0x0:0xd8d124afc4059883,
supermarket,Toko bahan makanan,Bertolomeus Banggut (Toko Sumber Bahagia),"75HF+RX8, Pasar, Wae Mose, Kecamatan Lembor, Kabupaten Manggarai Barat, Nusa Tenggara Tim.","Kabupaten Manggarai Barat, Nusa Tenggara Tim.",NUSA TENGGARA TIMUR,,Indonesia, 082188407474,,,-8.7204502,120.1749614,https://maps.google.com/?cid=0x0:0x8ffcf08d8dd76b70,
supermarket,Pusat Perbelanjaan,Pangkalan Minyak Tanah Neranai,"Jl. Ruteng, Tangge, Kecamatan Lembor, Kabupaten Manggarai Barat, Nusa Tenggara Tim. 86753","Tangge, Kecamatan Lembor, Kabupaten Manggarai Barat",NUSA TENGGARA TIMUR,86753.0,Indonesia,,,,-8.7078089,120.1699921,https://maps.google.com/?cid=0x0:0x12decb66a0f9b22b,
supermarket,Toko Perlengkapan Rumah,Bagus Bangunan  minimart,"747V+WJJ Bagus mart, jln ruteng, labuan bajo, Kecamatan Lembor, Kabupaten Manggarai Barat, Nusa Tenggara Tim.","Kabupaten Manggarai Barat, Nusa Tenggara Tim.",NUSA TENGGARA TIMUR,,Indonesia,,,,-8.7351516,120.1440286,https://maps.google.com/?cid=0x0:0x92a365e35efbb901,
supermarket,Kios,Maxi Gabur,"75XV+X48, Daleng, Kecamatan Lembor, Kabupaten Manggarai Barat, Nusa Tenggara Tim.","Kabupaten Manggarai Barat, Nusa Tenggara Tim.",NUSA TENGGARA TIMUR,,Indonesia,,,,-8.7001154,120.1927724,https://maps.google.com/?cid=0x0:0xcf7ee1b0d0c10042,
supermarket,Pusat Perbelanjaan,KAMPUNG AMBA MARKET,"Amba Watu Rambung, Lembor Selatan, Nusa Tenggara Tim. 86753",Lembor Selatan,NUSA TENGGARA TIMUR,86753.0,Indonesia, 081266128124,,,-8.738696,120.190346,https://maps.google.com/?cid=0x0:0xb03cec3a397388b7,
supermarket,Toko Buah dan Sayur,Buah lembor,"Lembor view, Tangge, Kecamatan Lembor, Kabupaten Manggarai Barat, Nusa Tenggara Tim.","Kabupaten Manggarai Barat, Nusa Tenggara Tim.",NUSA TENGGARA TIMUR,,Indonesia,,,,-8.7080543,120.1677594,https://maps.google.com/?cid=0x0:0x60102e91068597b9,
supermarket,Toko Swalayan,BAPA TIKA,"53V8+MP5, Benteng Dewa, Kec. Lembor Selatan, Kabupaten Manggarai Barat, Nusa Tenggara Tim.","Kabupaten Manggarai Barat, Nusa Tenggara Tim.",NUSA TENGGARA TIMUR,,Indonesia,,,,-8.8058652,120.0668677,https://maps.google.com/?cid=0x0:0x58d31093948963d6,
supermarket,Toko Swalayan,Bapa Kades,"52PW+V45, Benteng Dewa, Kecamatan Lembor, Kabupaten Manggarai Barat, Nusa Tenggara Tim.","Kabupaten Manggarai Barat, Nusa Tenggara Tim.",NUSA TENGGARA TIMUR,,Indonesia,,,,-8.81287,120.0453695,https://maps.google.com/?cid=0x0:0x5233a3af6c57471b,
supermarket,Toko,Wae mege,"655G+42, Surunumbeng, Kec. Lembor Selatan, Kabupaten Manggarai Barat, Nusa Tenggara Tim.","Kabupaten Manggarai Barat, Nusa Tenggara Tim.",NUSA TENGGARA TIMUR,,Indonesia,,,,-8.7921915,120.1750177,https://maps.google.com/?cid=0x0:0x9ee9da8b4ab72a94,
supermarket,Toko bahan makanan,Kakor lemboe,"76Q3+29, Kakor, Kec. Lembor Selatan, Kabupaten Manggarai Barat, Nusa Tenggara Tim.","Kabupaten Manggarai Barat, Nusa Tenggara Tim.",NUSA TENGGARA TIMUR,,Indonesia,,,,-8.7124355,120.2034703,https://maps.google.com/?cid=0x0:0x1d30b7d17615cb0,
supermarket,Pertanian,Toko Anugerah Tani Lembor,"75R8+VFJ, Jl. Ruteng, Tangge, Kecamatan Lembor, Kabupaten Manggarai Barat, Nusa Tenggara Tim.","Kabupaten Manggarai Barat, Nusa Tenggara Tim.",NUSA TENGGARA TIMUR,,Indonesia, 081328486986,,,-8.7077804,120.1661336,https://maps.google.com/?cid=0x0:0x3fc891ab64799100,
supermarket,Kios,Toko Sinar Hasil,"75Q8+XRQ, Pasar, Kecamatan Lembor, Kabupaten Manggarai Barat, Nusa Tenggara Tim.","Kabupaten Manggarai Barat, Nusa Tenggara Tim.",NUSA TENGGARA TIMUR,,Indonesia,,,,-8.7099882,120.1670922,https://maps.google.com/?cid=0x0:0x88e1036ef982fa69,
supermarket,Toko,Pancaran Mart Lembor,"75R7+XPX, Tangge, Kecamatan Lembor, Kabupaten Manggarai Barat, Nusa Tenggara Tim.","Kabupaten Manggarai Barat, Nusa Tenggara Tim.",NUSA TENGGARA TIMUR,,Indonesia,,,,-8.7075194,120.1643624,https://maps.google.com/?cid=0x0:0x7d8d7aa4db5639d7,
supermarket,Pusat Perbelanjaan,KIOS KENARTHA,"Gang Polo, Tangge, Kecamatan Lembor, Kabupaten Manggarai Barat, Nusa Tenggara Tim. 86753","Tangge, Kecamatan Lembor, Kabupaten Manggarai Barat",NUSA TENGGARA TIMUR,86753.0,Indonesia, 081232248621,,,-8.7119626,120.1647375,https://maps.google.com/?cid=0x0:0xee7c2f8f7c5a9b46,
supermarket,Toko,Toko Om Man,"75R8+2P7, Pasar, Tangge, Kecamatan Lembor, Kabupaten Manggarai Barat, Nusa Tenggara Tim.","Kabupaten Manggarai Barat, Nusa Tenggara Tim.",NUSA TENGGARA TIMUR,,Indonesia,,,,-8.7099544,120.166786,https://maps.google.com/?cid=0x0:0xacf56eb60d0d86df,
supermarket,Toko,Ud Felice,"Lalo Daleng Lembor, Jl. Ruteng-Labuan Bajo, Kecamatan Lembor, Kabupaten Manggarai Barat, Nusa Tenggara Tim. 86753","Jl. Ruteng-Labuan Bajo, Kecamatan Lembor, Kabupaten Manggarai Barat",NUSA TENGGARA TIMUR,86753.0,Indonesia,,,,-8.6923786,120.2146413,https://maps.google.com/?cid=0x0:0x585b55173a12171a,
supermarket,supermarket,Kec. Mbeliling,"Kabupaten Manggarai Barat, Nusa Tenggara Tim.","Kabupaten Manggarai Barat, Nusa Tenggara Tim.",NUSA TENGGARA TIMUR,,Indonesia,,,,-8.6128114,120.0597179,https://maps.google.com/?cid=0x0:0x46c9c4828bf6f8cf,
supermarket,Kios,WARUNG PUNCAK MBELILING,"JLN.TRANS FLORES, ROE, Cunca Lolos, Kec. Mbeliling, Kabupaten Manggarai Barat, Nusa Tenggara Tim. 86762","ROE, Cunca Lolos, Kec. Mbeliling, Kabupaten Manggarai Barat",NUSA TENGGARA TIMUR,86762.0,Indonesia, 085829308134,,,-8.5938339,120.0114078,https://maps.google.com/?cid=0x0:0x339ce7dfe1730aaf,
supermarket,Toko bahan makanan,Denny's Mart Cowang Dereng,"GV5V+JQR, cowang dereng, Batu Cermin, Kec. Komodo, Kabupaten Manggarai Barat, Nusa Tenggara Tim.","Kabupaten Manggarai Barat, Nusa Tenggara Tim.",NUSA TENGGARA TIMUR,,Indonesia,,,,-8.4908853,119.8943923,https://maps.google.com/?cid=0x0:0xdb2b3a18ebb5c5f4,
supermarket,Minimarket,Obing's Shop,"Tiwu Riwung, Kec. Mbeliling, Kabupaten Manggarai Barat, Nusa Tenggara Tim.","Kabupaten Manggarai Barat, Nusa Tenggara Tim.",NUSA TENGGARA TIMUR,,Indonesia,,,,-8.5751875,120.0416875,https://maps.google.com/?cid=0x0:0xb2b8a658b91a789f,
supermarket,Toko umum,Kios Aqila,"C342+JJ7, Golo Sembea, Kec. Mbeliling, Kabupaten Manggarai Barat, Nusa Tenggara Tim.","Kabupaten Manggarai Barat, Nusa Tenggara Tim.",NUSA TENGGARA TIMUR,,Indonesia,,,,-8.593475,120.0515526,https://maps.google.com/?cid=0x0:0x8a9a35467127a3ac,
supermarket,Kantor Perusahaan,Pasar Rekas,"Rekas_Kempo, Kec. Mbeliling, Kabupaten Manggarai Barat, Nusa Tenggara Tim.","Kabupaten Manggarai Barat, Nusa Tenggara Tim.",NUSA TENGGARA TIMUR,,Indonesia,,,,-8.6253377,120.0506986,https://maps.google.com/?cid=0x0:0x1699da0e7cf391d0,
supermarket,Kios,Kios TORA,"Liang Ndara, Kec. Mbeliling, Kabupaten Manggarai Barat, Nusa Tenggara Tim.","Kabupaten Manggarai Barat, Nusa Tenggara Tim.",NUSA TENGGARA TIMUR,,Indonesia, 081237406605,,,-8.5977255,119.9625097,https://maps.google.com/?cid=0x0:0xf3e0875ddf7af8e5,
supermarket,Toko bahan makanan,Nadine Mart,"Roe, Jln. Trans Flores Ruteng-Labuan Bajo. KM 35, Dari, Labuan Bajo, Kabupaten Manggarai Barat, Nusa Tenggara Tim. 86757","Jln. Trans Flores Ruteng-Labuan Bajo. KM 35, Dari, Labuan Bajo, Kabupaten Manggarai Barat",NUSA TENGGARA TIMUR,86757.0,Indonesia, 081227268397,,,-8.5951526,120.0181274,https://maps.google.com/?cid=0x0:0x6d684a5338871c01,
supermarket,Toko,Kios surat lamar,"9377+QV2, Wae ngguar, Kec. Mbeliling, Kabupaten Manggarai Barat, Nusa Tenggara Tim.","Kabupaten Manggarai Barat, Nusa Tenggara Tim.",NUSA TENGGARA TIMUR,,Indonesia, 081246181189,,,-8.6356127,120.0646389,https://maps.google.com/?cid=0x0:0x50d23ae9370f22e3,
supermarket,Toko umum,Imran kios,"C2FH+QW, Tiwu Riwung, Kec. Mbeliling, Kabupaten Manggarai Barat, Nusa Tenggara Tim.","Kabupaten Manggarai Barat, Nusa Tenggara Tim.",NUSA TENGGARA TIMUR,,Indonesia,,,,-8.5755623,120.0298395,https://maps.google.com/?cid=0x0:0xed73a6e62f9b7ca1,
supermarket,Toko Swalayan,Denny's Mart Waemata,"GV2R+7QX, Wae Kelambu, Kec. Komodo, Kabupaten Manggarai Barat, Nusa Tenggara Tim.","Kabupaten Manggarai Barat, Nusa Tenggara Tim.",NUSA TENGGARA TIMUR,,Indonesia, 081339761463,,,-8.4992589,119.8919973,https://maps.google.com/?cid=0x0:0x66b7a4725166cb26,
supermarket,Minimarket,Kios biru,"C28X+CHX, Golo Ndoal, Kec. Mbeliling, Kabupaten Manggarai Barat, Nusa Tenggara Tim.","Kabupaten Manggarai Barat, Nusa Tenggara Tim.",NUSA TENGGARA TIMUR,,Indonesia,,,,-8.5838813,120.0489998,https://maps.google.com/?cid=0x0:0x42c442f3ea931572,
supermarket,Minimarket,"Stall Nangga Dangis 3,Cunca Wulang village","CXQX+9F3, Cunca Wulang, Kec. Mbeliling, Kabupaten Manggarai Barat, Nusa Tenggara Tim.","Kabupaten Manggarai Barat, Nusa Tenggara Tim.",NUSA TENGGARA TIMUR,,Indonesia, 081238193822,,,-8.5617407,119.9985022,https://maps.google.com/?cid=0x0:0x44c8f8f81cf718eb,
supermarket,Minimarket,Kios bpk achmad,"C342+9HG, Golo Sembea, Kec. Mbeliling, Kabupaten Manggarai Barat, Nusa Tenggara Tim.","Kabupaten Manggarai Barat, Nusa Tenggara Tim.",NUSA TENGGARA TIMUR,,Indonesia,,,,-8.5940556,120.0514481,https://maps.google.com/?cid=0x0:0xccd9afbc5951d520,
supermarket,Toko,FISTORE,"Jl. Trans Flores Jl. Raya Labuan Bajo-Ruteng, Rangga Watu, Kec. Mbeliling, Kabupaten Manggarai Barat, Nusa Tenggara Tim. 86757","Rangga Watu, Kec. Mbeliling, Kabupaten Manggarai Barat",NUSA TENGGARA TIMUR,86757.0,Indonesia, 087893665775,,,-8.61186,120.0437371,https://maps.google.com/?cid=0x0:0xd911d31fa9e4d36e,
supermarket,supermarket,Kios BU DIANA,"Tohong, Cunca Wulang, Kec. Mbeliling, Kabupaten Manggarai Barat, Nusa Tenggara Tim.","Kabupaten Manggarai Barat, Nusa Tenggara Tim.",NUSA TENGGARA TIMUR,,Indonesia, 081238036260,,,-8.5566406,120.0038472,https://maps.google.com/?cid=0x0:0xb99588b71e88cb06,
supermarket,Kios,"Golo Menes, Kabupaten Manggarai Barat","Golo Menes, Desa, Golo Desat, Kec. Mbeliling, Kabupaten Manggarai Barat, Nusa Tenggara Tim.","Kabupaten Manggarai Barat, Nusa Tenggara Tim.",NUSA TENGGARA TIMUR,,Indonesia, 082244677560,,,-8.6106534,120.0532921,https://maps.google.com/?cid=0x0:0x3018c505cc2765c8,
supermarket,Toko Swalayan,DENNY'S MART WAENAHI,"FVVV+W37, Jln Dalu Bintang Labuan Bajo, Jl. Waemata, Goron Talo, Kec. Komodo, Kabupaten Manggarai Barat, Nusa Tenggara Tim. 86711","Jln Dalu Bintang Labuan Bajo, Jl. Waemata, Goron Talo, Kec. Komodo, Kabupaten Manggarai Barat",NUSA TENGGARA TIMUR,86711.0,Indonesia, 081246115972,,,-8.5053353,119.8926879,https://maps.google.com/?cid=0x0:0x26d27f2060132d42,
supermarket,Minimarket,Kios Lala mamis,"CWCR+QC3, Liang Ndara, Kec. Mbeliling, Kabupaten Manggarai Barat, Nusa Tenggara Tim.","Kabupaten Manggarai Barat, Nusa Tenggara Tim.",NUSA TENGGARA TIMUR,,Indonesia, 081353669956,,,-8.5781032,119.9410502,https://maps.google.com/?cid=0x0:0x71cb2af479b98cb,
supermarket,Toko Roti,MARTINKUN.BANANA CHIPS,"Jl. Trans Flores, Labuan Bajo, Kec. Mbeliling, Kabupaten Manggarai Barat, Nusa Tenggara Tim.","Kabupaten Manggarai Barat, Nusa Tenggara Tim.",NUSA TENGGARA TIMUR,,Indonesia, 082247162056,,,-8.5961089,119.9658822,https://maps.google.com/?cid=0x0:0xb54a670fcd7c42ce,
supermarket,Kios,CIKO KIOS BAMBOR,"93Q5+C84, Unnamed Road, Watu Wangka, Kec. Sano Nggoang, Kabupaten Manggarai Barat, Nusa Tenggara Tim.","Kabupaten Manggarai Barat, Nusa Tenggara Tim.",NUSA TENGGARA TIMUR,,Indonesia, 082340656850,,,-8.6114868,120.0583161,https://maps.google.com/?cid=0x0:0x928c8b1779a67498,
