Category,Real Category,Business Name,Address,City,State,Postal Code,Country,Phone,Email,Website,Latitude,Longitude,Map Link,Details Link
perumahan,perumahan,Kec. Macang Pacar,"Kabupaten Manggarai Barat, Nusa Tenggara Tim.","Kabupaten Manggarai Barat, Nusa Tenggara Tim.",NUSA TENGGARA TIMUR,,Indonesia,,,,-8.4349594,120.2725372,https://maps.google.com/?cid=0x0:0xb9473d35b1b4ecc9,
perumahan,Perhimpunan Pengembang Perumahan,Mansir,"H779+96, Wontong, Kec. Macang Pacar, Kabupaten Manggarai Barat, Nusa Tenggara Tim.","Kabupaten Manggarai Barat, Nusa Tenggara Tim.",NUSA TENGGARA TIMUR,,Indonesia,,,,-8.4365808,120.2680594,https://maps.google.com/?cid=0x0:0x513fb1bf6162d406,
perumahan,Komplek perumahan,Keling,"G55V+2C8, Benteng Ndope, Kec. Macang Pacar, Kabupaten Manggarai Barat, Nusa Tenggara Tim.","Kabupaten Manggarai Barat, Nusa Tenggara Tim.",NUSA TENGGARA TIMUR,,Indonesia,,,,-8.4924718,120.1935663,https://maps.google.com/?cid=0x0:0x5f4ec2542caaca85,
perumahan,Bangunan Bersejarah,Kampung Hawir,"J7RP+9JV Hawir, Nggilat, Kec. Macang Pacar, Kabupaten Manggarai Barat, Nusa Tenggara Tim.","Kabupaten Manggarai Barat, Nusa Tenggara Tim.",NUSA TENGGARA TIMUR,,Indonesia,,,,-8.3590058,120.2865497,https://maps.google.com/?cid=0x0:0xd5ccc0b9f151d748,
perumahan,Perhimpunan Pengembang Perumahan,DUSUN TUWA,"F6PP+73H, Golo Lajang, Kec. Macang Pacar, Kabupaten Manggarai Barat, Nusa Tenggara Tim.","Kabupaten Manggarai Barat, Nusa Tenggara Tim.",NUSA TENGGARA TIMUR,,Indonesia, 081238774896,,,-8.5143106,120.2352291,https://maps.google.com/?cid=0x0:0x1a00356096f030f,
perumahan,Komplek perumahan,Rumah Gendang Longge,"H6F5+XX, Raba, Kec. Macang Pacar, Kabupaten Manggarai Barat, Nusa Tenggara Tim.","Kabupaten Manggarai Barat, Nusa Tenggara Tim.",NUSA TENGGARA TIMUR,,Indonesia,,,,-8.425057,120.2099759,https://maps.google.com/?cid=0x0:0x2b32c9e8faf55747,
perumahan,Perhimpunan Pengembang Perumahan,SERKOFAR,"H793+XQ, Rego, Kec. Macang Pacar, Kabupaten Manggarai Barat, Nusa Tenggara Tim.","Kabupaten Manggarai Barat, Nusa Tenggara Tim.",NUSA TENGGARA TIMUR,,Indonesia,,,,-8.4296679,120.2543796,https://maps.google.com/?cid=0x0:0x3f3de64fce4788e1,
perumahan,Komplek perumahan,Gendang Kengko,"H7F4+G7R, Rego, Kec. Macang Pacar, Kabupaten Manggarai Barat, Nusa Tenggara Tim.","Kabupaten Manggarai Barat, Nusa Tenggara Tim.",NUSA TENGGARA TIMUR,,Indonesia, 081237987346,,,-8.4261299,120.2556511,https://maps.google.com/?cid=0x0:0x7f8607d51f8ce62d,
perumahan,Kantor Pos,Desa Watu Baru,"H78C+3FW, Watu Baru, Kec. Macang Pacar, Kabupaten Manggarai Barat, Nusa Tenggara Tim.","Kabupaten Manggarai Barat, Nusa Tenggara Tim.",NUSA TENGGARA TIMUR,,Indonesia, 081246235899,,,-8.4347625,120.2712031,https://maps.google.com/?cid=0x0:0xc1ce40c228af9367,
perumahan,Komplek perumahan,Kolong desa lewat kecamatan macang pacar,"H78F+227 Kolong desa lewat, Wontong, Kec. Macang Pacar, Kabupaten Manggarai Barat, Nusa Tenggara Tim.","Kabupaten Manggarai Barat, Nusa Tenggara Tim.",NUSA TENGGARA TIMUR,,Indonesia,,,,-8.4349594,120.2725372,https://maps.google.com/?cid=0x0:0x966d79bcc1490759,
perumahan,Pembangunan Perumahan,Yones,"J6VX+MX, Mbakung, Kec. Macang Pacar, Kabupaten Manggarai Barat, Nusa Tenggara Tim.","Kabupaten Manggarai Barat, Nusa Tenggara Tim.",NUSA TENGGARA TIMUR,,Indonesia,,,,-8.3557667,120.2499087,https://maps.google.com/?cid=0x0:0x6e2314c2b66f03f6,
perumahan,Kantor Pemerintah,Desa pacar,"G55V+2C8, Pacar, Kec. Macang Pacar, Kabupaten Manggarai Barat, Nusa Tenggara Tim.","Kabupaten Manggarai Barat, Nusa Tenggara Tim.",NUSA TENGGARA TIMUR,,Indonesia,,,,-8.4924718,120.1935663,https://maps.google.com/?cid=0x0:0xb755e7cc49e45f90,
perumahan,perumahan,Kons Amat,"H7G5+GFV, Rego, Kec. Macang Pacar, Kabupaten Manggarai Barat, Nusa Tenggara Tim.","Kabupaten Manggarai Barat, Nusa Tenggara Tim.",NUSA TENGGARA TIMUR,,Indonesia,,,,-8.4235631,120.258412,https://maps.google.com/?cid=0x0:0xacb4cd57d33d4e18,
perumahan,Komplek perumahan,Rumah Beben,"H6PX+2P, Rego, Kec. Macang Pacar, Kabupaten Manggarai Barat, Nusa Tenggara Tim.","Kabupaten Manggarai Barat, Nusa Tenggara Tim.",NUSA TENGGARA TIMUR,,Indonesia,,,,-8.4149383,120.2493861,https://maps.google.com/?cid=0x0:0x52224a5d350641ca,
perumahan,Komplek perumahan,Rumah ku,"H55J+8M, Nanga Ktr., Kec. Macang Pacar, Kabupaten Manggarai Barat, Nusa Tenggara Tim.","Kabupaten Manggarai Barat, Nusa Tenggara Tim.",NUSA TENGGARA TIMUR,,Indonesia,,,,-8.4416192,120.1816579,https://maps.google.com/?cid=0x0:0x8a4beb4f6741dfed,
perumahan,Komplek perumahan,Rumah Nikolaus Ngasul,"J73C+VXM, Unnamed Rd, Rego, Kec. Macang Pacar, Kabupaten Manggarai Barat, Nusa Tenggara Tim.","Kabupaten Manggarai Barat, Nusa Tenggara Tim.",NUSA TENGGARA TIMUR,,Indonesia,,,,-8.3950317,120.2722853,https://maps.google.com/?cid=0x0:0x99ec39cbe9a7578d,
perumahan,Komplek perumahan,Zefanya Home,"H7R9+VM, Wontong, Kec. Macang Pacar, Kabupaten Manggarai Barat, Nusa Tenggara Tim.","Kabupaten Manggarai Barat, Nusa Tenggara Tim.",NUSA TENGGARA TIMUR,,Indonesia,,,,-8.4074733,120.270493,https://maps.google.com/?cid=0x0:0xa7bf9f67cb89e14f,
perumahan,Komplek perumahan,Rumah,"H7G6+JQ7, Rego, Kec. Macang Pacar, Kabupaten Manggarai Barat, Nusa Tenggara Tim.","Kabupaten Manggarai Barat, Nusa Tenggara Tim.",NUSA TENGGARA TIMUR,,Indonesia,,,,-8.423453,120.2619299,https://maps.google.com/?cid=0x0:0xa16c83308e894ec8,
perumahan,Komplek perumahan,Rumah Mm Ardy,"F5CX+6JW, Compang, Kec. Macang Pacar, Kabupaten Manggarai Barat, Nusa Tenggara Tim.","Kabupaten Manggarai Barat, Nusa Tenggara Tim.",NUSA TENGGARA TIMUR,,Indonesia,,,,-8.5297398,120.1989152,https://maps.google.com/?cid=0x0:0xf7d62ca26f39207,
perumahan,Komplek perumahan,Rumahnya yaris,"H7R9+VM, Wontong, Kec. Macang Pacar, Kabupaten Manggarai Barat, Nusa Tenggara Tim.","Kabupaten Manggarai Barat, Nusa Tenggara Tim.",NUSA TENGGARA TIMUR,,Indonesia, 081236817122,,,-8.4078229,120.2691673,https://maps.google.com/?cid=0x0:0x305ce8df7218f894,
perumahan,Rumah Kayu,Kampung Mawe,"F6P5+6CH, Kampung Mawe, Pacar, Kec. Macang Pacar, Kabupaten Manggarai Barat, Nusa Tenggara Tim.","Kabupaten Manggarai Barat, Nusa Tenggara Tim.",NUSA TENGGARA TIMUR,,Indonesia,,,,-8.5144353,120.2086221,https://maps.google.com/?cid=0x0:0x897201f20b97166d,
perumahan,perumahan,Cowang,"G55V+2C8, Pacar, Kec. Macang Pacar, Kabupaten Manggarai Barat, Nusa Tenggara Tim.","Kabupaten Manggarai Barat, Nusa Tenggara Tim.",NUSA TENGGARA TIMUR,,Indonesia,,,,-8.4924718,120.1935663,https://maps.google.com/?cid=0x0:0xff897ae4f9f51d64,
perumahan,Komplek perumahan,Romang,"G5P8+7QQ, Pacar, Kec. Macang Pacar, Kabupaten Manggarai Barat, Nusa Tenggara Tim.","Kabupaten Manggarai Barat, Nusa Tenggara Tim.",NUSA TENGGARA TIMUR,,Indonesia,,,,-8.4642761,120.1669889,https://maps.google.com/?cid=0x0:0x4f6d644683b8e467,
perumahan,Komplek perumahan,Rumah Muklis,"J5WM+8F8, Bari, Kec. Macang Pacar, Kabupaten Manggarai Barat, Nusa Tenggara Tim.","Kabupaten Manggarai Barat, Nusa Tenggara Tim.",NUSA TENGGARA TIMUR,,Indonesia,,,,-8.3542504,120.1833822,https://maps.google.com/?cid=0x0:0xa9ae72d48c759e06,
perumahan,Gedung Apartemen,Rumah Vitus Helmon,"J726+WG4, Rego, Kec. Macang Pacar, Kabupaten Manggarai Barat, Nusa Tenggara Tim.","Kabupaten Manggarai Barat, Nusa Tenggara Tim.",NUSA TENGGARA TIMUR,,Indonesia,,,,-8.3974142,120.2620906,https://maps.google.com/?cid=0x0:0x5feb90277814a450,
perumahan,Perhimpunan Pengembang Perumahan,Anjeli,"F6G7+H3, Golo Lajang, Kec. Macang Pacar, Kabupaten Manggarai Barat, Nusa Tenggara Tim.","Kabupaten Manggarai Barat, Nusa Tenggara Tim.",NUSA TENGGARA TIMUR,,Indonesia,,,,-8.5235276,120.212683,https://maps.google.com/?cid=0x0:0x457e208c88ffb0d2,
perumahan,Komplek perumahan,Lapangan wulang,"G52X+MG9, Pacar, Kec. Macang Pacar, Kabupaten Manggarai Barat, Nusa Tenggara Tim.","Kabupaten Manggarai Barat, Nusa Tenggara Tim.",NUSA TENGGARA TIMUR,,Indonesia,,,,-8.4983347,120.1988736,https://maps.google.com/?cid=0x0:0x457002b293062d1e,
perumahan,Pembangunan Perumahan,Wae munting,"H628+6PH, Kombo, Kec. Macang Pacar, Kabupaten Manggarai Barat, Nusa Tenggara Tim.","Kabupaten Manggarai Barat, Nusa Tenggara Tim.",NUSA TENGGARA TIMUR,,Indonesia, 082127378305,,,-8.4494268,120.2168731,https://maps.google.com/?cid=0x0:0x1581c8f8b1c4656a,
perumahan,Pembangunan Perumahan,Fit Misi,"Pacar, Kec. Macang Pacar, Kabupaten Manggarai Barat, Nusa Tenggara Tim.","Kabupaten Manggarai Barat, Nusa Tenggara Tim.",NUSA TENGGARA TIMUR,,Indonesia,,,,-8.4919455,120.1961264,https://maps.google.com/?cid=0x0:0x9a759c815cd1d86a,
perumahan,perumahan,Kec. Kuwus,"Kabupaten Manggarai Barat, Nusa Tenggara Tim.","Kabupaten Manggarai Barat, Nusa Tenggara Tim.",NUSA TENGGARA TIMUR,,Indonesia,,,,-8.58661,120.2649221,https://maps.google.com/?cid=0x0:0x20bc20e16a7cc39a,
perumahan,Komplek perumahan,Kuwu,"FH32+J9V, Kuwu, Compang Laho, Kec. Poco Ranaka, Kabupaten Manggarai Timur, Nusa Tenggara Tim.","Kabupaten Manggarai Timur, Nusa Tenggara Tim.",NUSA TENGGARA TIMUR,,Indonesia,,,,-8.5458917,120.5509266,https://maps.google.com/?cid=0x0:0xb334727257021ce6,
perumahan,perumahan,Golowelu,"C8M8+FJ, Nantal, Kec. Kuwus, Kabupaten Manggarai Barat, Nusa Tenggara Tim.","Kabupaten Manggarai Barat, Nusa Tenggara Tim.",NUSA TENGGARA TIMUR,,Indonesia, 085239418363,,,-8.5663271,120.3165321,https://maps.google.com/?cid=0x0:0x6e07f7262ed6d3a0,
perumahan,Perhimpunan Pengembang Perumahan,Vinsen cembes desa Ranggu kecamatan kuwus barat kabupaten Manggarai Barat,"Rumah Opa Imun, Ranggu, Kec. Kuwus, Kabupaten Manggarai Barat, Nusa Tenggara Tim.","Kabupaten Manggarai Barat, Nusa Tenggara Tim.",NUSA TENGGARA TIMUR,,Indonesia,,,,-8.5855044,120.2535786,https://maps.google.com/?cid=0x0:0x75f337e8c5b41ac2,
perumahan,Komplek perumahan,"Kamarku, sukakiong kuwus Manggarai barat Nusa tenggara timur","C7PJ+448, Compang Suka, Kec. Kuwus, Kabupaten Manggarai Barat, Nusa Tenggara Tim.","Kabupaten Manggarai Barat, Nusa Tenggara Tim.",NUSA TENGGARA TIMUR,,Indonesia,,,,-8.5647222,120.2803142,https://maps.google.com/?cid=0x0:0x1009018e46c2fa1e,
perumahan,Pembangunan Perumahan,Rumah destu hamu,"F65R+8R7, Dusun Longos, Tueng, Kec. Kuwus, Kabupaten Manggarai Barat, Nusa Tenggara Tim.","Kabupaten Manggarai Barat, Nusa Tenggara Tim.",NUSA TENGGARA TIMUR,,Indonesia,,,,-8.5417146,120.242032,https://maps.google.com/?cid=0x0:0xc759ed317098aa8,
perumahan,Perumahan rakyat,"Hawe, Wajur-Kuwus Barat","F754+JFC, Tueng, Kec. Kuwus, Kabupaten Manggarai Barat, Nusa Tenggara Tim.","Kabupaten Manggarai Barat, Nusa Tenggara Tim.",NUSA TENGGARA TIMUR,,Indonesia,,,,-8.540928,120.2561378,https://maps.google.com/?cid=0x0:0x3a9aa551eb1daa4f,
perumahan,Pembangunan Perumahan,Kecamatan kuwus,"C777+9Q7, Benteng Curu, Kec. Kuwus, Kabupaten Manggarai Barat, Nusa Tenggara Tim.","Kabupaten Manggarai Barat, Nusa Tenggara Tim.",NUSA TENGGARA TIMUR,,Indonesia,,,,-8.5865818,120.2644265,https://maps.google.com/?cid=0x0:0x4d1546760b618b51,
perumahan,Pembangunan Perumahan,KUWUS BARAT (DESA GOLO LEWE,"C778+82R, Benteng Curu, Kec. Kuwus, Kabupaten Manggarai Barat, Nusa Tenggara Tim.","Kabupaten Manggarai Barat, Nusa Tenggara Tim.",NUSA TENGGARA TIMUR,,Indonesia,,,,-8.5866375,120.2650156,https://maps.google.com/?cid=0x0:0x53701ef10b673e8b,
perumahan,Komplek perumahan,Rumah Toton,"C8H4+CCR, Nantal, Kec. Kuwus, Kabupaten Manggarai Barat, Nusa Tenggara Tim.","Kabupaten Manggarai Barat, Nusa Tenggara Tim.",NUSA TENGGARA TIMUR,,Indonesia,,,,-8.5714805,120.3059259,https://maps.google.com/?cid=0x0:0xd9db45eef3417a3a,
perumahan,Komplek perumahan,Rumah Antos,"C777+JGH, Golo Ruu, Kec. Kuwus, Kabupaten Manggarai Barat, Nusa Tenggara Tim.","Kabupaten Manggarai Barat, Nusa Tenggara Tim.",NUSA TENGGARA TIMUR,,Indonesia,,,,-8.586417,120.2639631,https://maps.google.com/?cid=0x0:0xc32820cab8f62e31,
perumahan,Pembangunan Perumahan,Gelarang kert.,"C767+P9G, Unnamed Road, Benteng Curu, Kec. Kuwus, Kabupaten Manggarai Barat, Nusa Tenggara Tim.","Kabupaten Manggarai Barat, Nusa Tenggara Tim.",NUSA TENGGARA TIMUR,,Indonesia,,,,-8.5881815,120.2634651,https://maps.google.com/?cid=0x0:0xf55c48384dd0c02,
perumahan,Perhimpunan Pengembang Perumahan,Ranggu,"C784+MR9, Ranggu, Kec. Kuwus, Kabupaten Manggarai Barat, Nusa Tenggara Tim.","Kabupaten Manggarai Barat, Nusa Tenggara Tim.",NUSA TENGGARA TIMUR,,Indonesia,,,,-8.5833255,120.2571057,https://maps.google.com/?cid=0x0:0x441908743d476e45,
perumahan,Komplek perumahan,Rumah Aurora,"C8M5+CV2, Golowelu, Nantal, Kec. Kuwus, Kabupaten Manggarai Barat, Nusa Tenggara Tim.","Kabupaten Manggarai Barat, Nusa Tenggara Tim.",NUSA TENGGARA TIMUR,,Indonesia,,,,-8.5664803,120.3096311,https://maps.google.com/?cid=0x0:0x3480210244b1efe5,
perumahan,Asosiasi pemilik rumah,Desa compang suka,"C8J8+Q6, Nantal, Kec. Kuwus, Kabupaten Manggarai Barat, Nusa Tenggara Tim.","Kabupaten Manggarai Barat, Nusa Tenggara Tim.",NUSA TENGGARA TIMUR,,Indonesia,,,,-8.5681248,120.3156144,https://maps.google.com/?cid=0x0:0x630407164bf425d2,
perumahan,Pemakaman,"Kubur, Golo Ru'a","C768+VQ9, Kubur, Golo Ru'aKabupaten, Benteng Curu, Kec. Kuwus, Kabupaten Manggarai Barat, Nusa Tenggara Tim.","Kabupaten Manggarai Barat, Nusa Tenggara Tim.",NUSA TENGGARA TIMUR,,Indonesia,,,,-8.5878293,120.2669783,https://maps.google.com/?cid=0x0:0xbadfff9e373e755b,
perumahan,Perhimpunan Pengembang Perumahan,subu,"97VV+RGQ, Gelong, Kec. Lelak, Kabupaten Manggarai, Nusa Tenggara Tim.","Kabupaten Manggarai, Nusa Tenggara Tim.",NUSA TENGGARA TIMUR,,Indonesia,,,,-8.6054202,120.293851,https://maps.google.com/?cid=0x0:0xa6ad72c542d77415,
perumahan,Perhimpunan Pengembang Perumahan,Jack,"C74C+RW8, Benteng Curu, Kec. Kuwus, Kabupaten Manggarai Barat, Nusa Tenggara Tim.","Kabupaten Manggarai Barat, Nusa Tenggara Tim.",NUSA TENGGARA TIMUR,,Indonesia,,,,-8.5929634,120.2723456,https://maps.google.com/?cid=0x0:0x2fb29b1375f4eb87,
perumahan,Komplek perumahan,Ndaung desa kolang,"C777+9X4, Ndaung, Kec. Kuwus, Kabupaten Manggarai Barat, Nusa Tenggara Tim.","Kabupaten Manggarai Barat, Nusa Tenggara Tim.",NUSA TENGGARA TIMUR,,Indonesia,,,,-8.5866135,120.2649393,https://maps.google.com/?cid=0x0:0x7332fd7fb2450527,
perumahan,Komplek perumahan,Ranggu-Lamas,"C787+C37, Jalan, Golo Ruu, Kuwus, West Manggarai Regency, East Nusa Tenggara","Kabupaten Manggarai Barat, Nusa Tenggara Tim.",NUSA TENGGARA TIMUR,,Indonesia, 081370213493,,,-8.5839642,120.2626579,https://maps.google.com/?cid=0x0:0x9b8425bf4362810e,
perumahan,Komplek perumahan,Kolang Puu,"C7V4+G9, Kolang, Kec. Kuwus, Kabupaten Manggarai Barat, Nusa Tenggara Tim.","Kabupaten Manggarai Barat, Nusa Tenggara Tim.",NUSA TENGGARA TIMUR,,Indonesia,,,,-8.5561859,120.2559832,https://maps.google.com/?cid=0x0:0x9e3b87c1ccebe6d,
perumahan,Perumahan,Perumahan Kosambi Baru blok f ext.13 duri kosambi tangerang,"Jl. Pinang Tengah Blok Dex 2 No.39, RT.9/RW.13, Duri Kosambi, Kecamatan Cengkareng, Kota Jakarta Barat, Daerah Khusus Ibukota Jakarta 11750","RT.9/RW.13, Duri Kosambi, Kecamatan Cengkareng, Kota Jakarta Barat",NUSA TENGGARA TIMUR,11750.0,Indonesia,,,,-6.1768658,106.7101632,https://maps.google.com/?cid=0x0:0xcb51ca80da9ef9ef,
perumahan,Perhimpunan Pengembang Perumahan,Tus Home,"C748+GXM, Benteng Curu, Kec. Kuwus, Kabupaten Manggarai Barat, Nusa Tenggara Tim.","Kabupaten Manggarai Barat, Nusa Tenggara Tim.",NUSA TENGGARA TIMUR,,Indonesia,,,,-8.5936673,120.2674248,https://maps.google.com/?cid=0x0:0x9bf922b34194357d,
perumahan,Komplek perumahan,Rumah kuino,"C8H3+RV9, Nantal, Kec. Kuwus, Kabupaten Manggarai Barat, Nusa Tenggara Tim.","Kabupaten Manggarai Barat, Nusa Tenggara Tim.",NUSA TENGGARA TIMUR,,Indonesia,,,,-8.5704708,120.3047355,https://maps.google.com/?cid=0x0:0x72b7c890fdda8eb9,
perumahan,Kantor Perusahaan,Lembor Manggarai NTT,"75RC+G2G, Tangge, Kecamatan Lembor, Kabupaten Manggarai Barat, Nusa Tenggara Tim.","Kabupaten Manggarai Barat, Nusa Tenggara Tim.",NUSA TENGGARA TIMUR,,Indonesia,,,,-8.7086824,120.170065,https://maps.google.com/?cid=0x0:0x97da1016fa84b8af,
perumahan,perumahan,Kecamatan Lembor,"Kabupaten Manggarai Barat, Nusa Tenggara Tim.","Kabupaten Manggarai Barat, Nusa Tenggara Tim.",NUSA TENGGARA TIMUR,,Indonesia,,,,-8.7081253,120.1677018,https://maps.google.com/?cid=0x0:0xd449d3835f0762cf,
perumahan,Komplek perumahan,Kampung Kois citi,"768J+37, Munting, Kec. Lembor Selatan, Kabupaten Manggarai Barat, Nusa Tenggara Tim.","Kabupaten Manggarai Barat, Nusa Tenggara Tim.",NUSA TENGGARA TIMUR,,Indonesia, 081368050657,,,-8.7348126,120.230743,https://maps.google.com/?cid=0x0:0x6541f63e609f39c3,
perumahan,Pusat Perbelanjaan,FLORES NTT,"75G5+F38, Goron Talo, Kecamatan Lembor, Kabupaten Manggarai Barat, Nusa Tenggara Tim.","Kabupaten Manggarai Barat, Nusa Tenggara Tim.",NUSA TENGGARA TIMUR,,Indonesia,,,,-8.7238267,120.1576882,https://maps.google.com/?cid=0x0:0x81a20bfb176c655c,
perumahan,Komplek perumahan,Rumah Empo Bombang,"847M+GRV, Siru, Kecamatan Lembor, Kabupaten Manggarai Barat, Nusa Tenggara Tim.","Kabupaten Manggarai Barat, Nusa Tenggara Tim.",NUSA TENGGARA TIMUR,,Indonesia,,,,-8.686392,120.134923,https://maps.google.com/?cid=0x0:0xdb210a82710c0ac9,
perumahan,perumahan,Rangga Kole,"75R9+P3W Rangga Kole, Tangge, Kecamatan Lembor, Kabupaten Manggarai Barat, Nusa Tenggara Tim.","Kabupaten Manggarai Barat, Nusa Tenggara Tim.",NUSA TENGGARA TIMUR,,Indonesia,,,,-8.7081253,120.1677018,https://maps.google.com/?cid=0x0:0xdd075f73713a3310,
perumahan,Perhimpunan Pengembang Perumahan,Rumah,"76W2+4JW, Wae Mose, Kecamatan Lembor, Kabupaten Manggarai Barat, Nusa Tenggara Tim.","Kabupaten Manggarai Barat, Nusa Tenggara Tim.",NUSA TENGGARA TIMUR,,Indonesia,,,,-8.7046396,120.2015748,https://maps.google.com/?cid=0x0:0x90784b42433d5f0b,
perumahan,Pembangunan Perumahan,Rumah Bp Marsel Musdin,"747V+RF6, Unnamed Road, Tangge, Kecamatan Lembor, Kabupaten Manggarai Barat, Nusa Tenggara Tim.","Kabupaten Manggarai Barat, Nusa Tenggara Tim.",NUSA TENGGARA TIMUR,,Indonesia,,,,-8.7354501,120.1436404,https://maps.google.com/?cid=0x0:0xf14f00af52592165,
perumahan,Perumahan,Rumah Atryk Trimance,"8446+QR, Wae Wako, Kecamatan Lembor, Kabupaten Manggarai Barat, Nusa Tenggara Tim.","Kabupaten Manggarai Barat, Nusa Tenggara Tim.",NUSA TENGGARA TIMUR,,Indonesia, 081347660591,,,-8.6930451,120.1120031,https://maps.google.com/?cid=0x0:0x3607feb5d82ba45f,
perumahan,Komplek perumahan,Jhony agung,"848W+G2, Siru, Kecamatan Lembor, Kabupaten Manggarai Barat, Nusa Tenggara Tim.","Kabupaten Manggarai Barat, Nusa Tenggara Tim.",NUSA TENGGARA TIMUR,,Indonesia,,,,-8.6836975,120.1450908,https://maps.google.com/?cid=0x0:0x702037c78c9defcd,
perumahan,Komplek perumahan,Eduardo's house,"8645+453, Jl. Ruteng-Labuan Bajo, Daleng, Kecamatan Lembor, Kabupaten Manggarai Barat, Nusa Tenggara Tim.","Kabupaten Manggarai Barat, Nusa Tenggara Tim.",NUSA TENGGARA TIMUR,,Indonesia,,,,-8.6951881,120.2095444,https://maps.google.com/?cid=0x0:0x3be8f873e1c11fe5,
perumahan,Komplek perumahan,Kampung Ndoso Lembor,"Nodoso, Desa, Wae Mowol, Kecamatan Lembor, Kabupaten Manggarai Barat, Nusa Tenggara Tim.","Kabupaten Manggarai Barat, Nusa Tenggara Tim.",NUSA TENGGARA TIMUR,,Indonesia,,,,-8.7080543,120.1677594,https://maps.google.com/?cid=0x0:0x412f51847d2e3dbe,
perumahan,Komplek perumahan,Simon Sampul,"844H+89M, Unnamed Road, Siru, Kecamatan Lembor, Kabupaten Manggarai Barat, Nusa Tenggara Tim.","Kabupaten Manggarai Barat, Nusa Tenggara Tim.",NUSA TENGGARA TIMUR,,Indonesia,,,,-8.6941513,120.1284149,https://maps.google.com/?cid=0x0:0x2c0e5e9edced99d9,
perumahan,Komplek perumahan,Rumah Yonn,"75RQ+668, Wae Mose, Kec. Lembor Selatan, Kabupaten Manggarai Barat, Nusa Tenggara Tim.","Kabupaten Manggarai Barat, Nusa Tenggara Tim.",NUSA TENGGARA TIMUR,,Indonesia,,,,-8.7094549,120.1880804,https://maps.google.com/?cid=0x0:0x403967df3da800a4,
perumahan,Komplek perumahan,Nando,"85C8+CR, Poco Rutang, Kecamatan Lembor, Kabupaten Manggarai Barat, Nusa Tenggara Tim.","Kabupaten Manggarai Barat, Nusa Tenggara Tim.",NUSA TENGGARA TIMUR,,Indonesia,,,,-8.6789765,120.1671129,https://maps.google.com/?cid=0x0:0x883f35e76a8cdb0,
perumahan,Komplek perumahan,Rumah dise simoen,"74H3+FM9, situ, Kecamatan Lembor, Kabupaten Manggarai Barat, Nusa Tenggara Tim.","Kabupaten Manggarai Barat, Nusa Tenggara Tim.",NUSA TENGGARA TIMUR,,Indonesia,,,,-8.721358,120.103372,https://maps.google.com/?cid=0x0:0xc2450443bf014496,
perumahan,Perhimpunan Pengembang Perumahan,Rumah Karlos,"74QR+7P, Tangge, Kecamatan Lembor, Kabupaten Manggarai Barat, Nusa Tenggara Tim.","Kabupaten Manggarai Barat, Nusa Tenggara Tim.",NUSA TENGGARA TIMUR,,Indonesia,,,,-8.7118749,120.1420225,https://maps.google.com/?cid=0x0:0xf2dcd51bc51bd330,
perumahan,Komplek perumahan,Rumah Wong Deso,"842H+X59, Siru, Kecamatan Lembor, Kabupaten Manggarai Barat, Nusa Tenggara Tim.","Kabupaten Manggarai Barat, Nusa Tenggara Tim.",NUSA TENGGARA TIMUR,,Indonesia,,,,-8.6975851,120.1279795,https://maps.google.com/?cid=0x0:0xb675d5373fae9066,
perumahan,Komplek perumahan,"Manggarai barat, Lembor selatan","76R8+6GM, Kakor, Kec. Lembor Selatan, Kabupaten Manggarai Barat, Nusa Tenggara Tim.","Kabupaten Manggarai Barat, Nusa Tenggara Tim.",NUSA TENGGARA TIMUR,,Indonesia,,,,-8.7094171,120.2162899,https://maps.google.com/?cid=0x0:0x367c2e2fb1f03c88,
perumahan,Komplek perumahan,Rumah Om Serilus,"76GC+X6M, Lonto, Desa Lendong, Kec. Lembor Selatan, Kabupaten Manggarai Barat, Nusa Tenggara Tim.","Kabupaten Manggarai Barat, Nusa Tenggara Tim.",NUSA TENGGARA TIMUR,,Indonesia,,,,-8.7225267,120.2205566,https://maps.google.com/?cid=0x0:0x960ada86caa01260,
perumahan,Komplek perumahan,Rumah Bpk Bone Jegalut,"75VG+JQ4, Poco Rutang, Kecamatan Lembor, Kabupaten Manggarai Barat, Nusa Tenggara Tim.","Kabupaten Manggarai Barat, Nusa Tenggara Tim.",NUSA TENGGARA TIMUR,,Indonesia,,,,-8.7059844,120.1769566,https://maps.google.com/?cid=0x0:0xeb32584f8889d413,
perumahan,Komplek perumahan,Namo,"76GG+86F, Munting, Kecamatan Lembor, Kabupaten Manggarai Barat, Nusa Tenggara Tim.","Kabupaten Manggarai Barat, Nusa Tenggara Tim.",NUSA TENGGARA TIMUR,,Indonesia,,,,-8.7241833,120.2255372,https://maps.google.com/?cid=0x0:0xa0180c7b215cf283,
perumahan,Komplek perumahan,Rumah goris nambut,"749F+5P7, Tangge, Kecamatan Lembor, Kabupaten Manggarai Barat, Nusa Tenggara Tim.","Kabupaten Manggarai Barat, Nusa Tenggara Tim.",NUSA TENGGARA TIMUR,,Indonesia,,,,-8.7320843,120.1242853,https://maps.google.com/?cid=0x0:0xa7cb0f7c5f9df239,
perumahan,Komplek perumahan,Desa ledang,"75R9+Q4C, Tangge, Kecamatan Lembor, Kabupaten Manggarai Barat, Nusa Tenggara Tim.","Kabupaten Manggarai Barat, Nusa Tenggara Tim.",NUSA TENGGARA TIMUR,,Indonesia,,,,-8.7080543,120.1677594,https://maps.google.com/?cid=0x0:0x85b55d1008f55b4d,
perumahan,Perumahan,rhyan rame,"85F3+MJ3, Mosung, lendo kepe, Siru, Kecamatan Lembor, Kabupaten Manggarai Barat, Nusa Tenggara Tim.","Kabupaten Manggarai Barat, Nusa Tenggara Tim.",NUSA TENGGARA TIMUR,,Indonesia, 082147189898,,,-8.6758633,120.1540583,https://maps.google.com/?cid=0x0:0x9605cd0d839b8d2c,
perumahan,Komplek perumahan,Mbaru Dami,"85C8+XM, Poco Rutang, Kecamatan Lembor, Kabupaten Manggarai Barat, Nusa Tenggara Tim.","Kabupaten Manggarai Barat, Nusa Tenggara Tim.",NUSA TENGGARA TIMUR,,Indonesia, 081238497397,,,-8.6775696,120.1667478,https://maps.google.com/?cid=0x0:0xc5486bdf4d9f7098,
perumahan,Komplek perumahan,Komplek Perumahan,"846P+XP9, Siru, Kecamatan Lembor, Kabupaten Manggarai Barat, Nusa Tenggara Tim.","Kabupaten Manggarai Barat, Nusa Tenggara Tim.",NUSA TENGGARA TIMUR,,Indonesia,,,,-8.6875796,120.1368633,https://maps.google.com/?cid=0x0:0x4d078b8313fb880a,
perumahan,Pembangunan Perumahan,Yohanes D Bosko,"8656+R9C, Daleng, Kecamatan Lembor, Kabupaten Manggarai Barat, Nusa Tenggara Tim.","Kabupaten Manggarai Barat, Nusa Tenggara Tim.",NUSA TENGGARA TIMUR,,Indonesia,,,,-8.6904264,120.2108809,https://maps.google.com/?cid=0x0:0xb899b33203e3fbab,
perumahan,Komplek perumahan,Tondong Lewe,"Siru, Kecamatan Lembor, Kabupaten Manggarai Barat, Nusa Tenggara Tim.","Kabupaten Manggarai Barat, Nusa Tenggara Tim.",NUSA TENGGARA TIMUR,,Indonesia,,,,-8.6827312,120.1479713,https://maps.google.com/?cid=0x0:0x9769677512a7b7d3,
perumahan,perumahan,Nusa Tenggara Tim.,,Nusa Tenggara Tim.,NUSA TENGGARA TIMUR,,Indonesia,,,,-8.6573819,121.0793705,https://maps.google.com/?cid=0x0:0x1030bfbcaf71ae0,
perumahan,Komplek perumahan,Ndewel,"C28X+65F, Unnamed Road, Golo Ndoal, Kec. Sano Nggoang, Kabupaten Manggarai Barat, Nusa Tenggara Tim.","Kabupaten Manggarai Barat, Nusa Tenggara Tim.",NUSA TENGGARA TIMUR,,Indonesia,,,,-8.5844405,120.0479233,https://maps.google.com/?cid=0x0:0xa449244b668a92f1,
perumahan,Rumah Kayu,Kampung mbore,"Kampung Mbore, Dusun Liang Panas, Tondong Belang, Kec. Mbeliling, Kabupaten Manggarai Barat, Nusa Tenggara Tim. 86757","Dusun Liang Panas, Tondong Belang, Kec. Mbeliling, Kabupaten Manggarai Barat",NUSA TENGGARA TIMUR,86757.0,Indonesia, 081246627909,,,-8.572496,119.9659992,https://maps.google.com/?cid=0x0:0x3ee2a51b8ac3bbde,
perumahan,perumahan,,,,NUSA TENGGARA TIMUR,,Indonesia,,,,,,https://maps.google.com/?cid=0x0:0x21a84b3e1539a820%7C/g/11b637m6t6%7Cid-ID,
perumahan,Hidangan Laut,Atlantis On The Rock,"Labuan Bajo, Kec. Komodo, Kabupaten Manggarai Barat, Nusa Tenggara Tim. 86757","Kec. Komodo, Kabupaten Manggarai Barat",NUSA TENGGARA TIMUR,86757.0,Indonesia, 08113826935,,,-8.4568023,119.8703842,https://maps.google.com/?cid=0x0:0xc8b3cef2de7f3278,
perumahan,Kantor Perusahaan,Kanawa Island,"Kanawah Island, Pasir Putih, Komodo, West Manggarai Regency, East Nusa Tenggara","Kabupaten Manggarai Barat, Nusa Tenggara Tim.",NUSA TENGGARA TIMUR,,Indonesia, 081353670441,,,-8.4948685,119.7587178,https://maps.google.com/?cid=0x0:0x5b9902ce7ec279f9,
perumahan,Indonesia,Warung Ca Nai Bambor,"Bambor, Desa, Watu Wangka, Kec. Mbeliling, Kabupaten Manggarai Barat, Nusa Tenggara Tim. 86757","Desa, Watu Wangka, Kec. Mbeliling, Kabupaten Manggarai Barat",NUSA TENGGARA TIMUR,86757.0,Indonesia, 081338268785,,,-8.6125452,120.0595222,https://maps.google.com/?cid=0x0:0xbccda177e22e0e75,
perumahan,perumahan,Rumah adat Langgo,"Langgo, RT./RW/RW.001/001, Wae Lolos, Kec. Sano Nggoang, Kabupaten Manggarai Barat, Nusa Tenggara Tim. 86757","RT./RW/RW.001/001, Wae Lolos, Kec. Sano Nggoang, Kabupaten Manggarai Barat",NUSA TENGGARA TIMUR,86757.0,Indonesia,,,,-8.6099375,120.0208125,https://maps.google.com/?cid=0x0:0x39b6e4309cff8c2f,
perumahan,perumahan,Kec. Sano Nggoang,"Kabupaten Manggarai Barat, Nusa Tenggara Tim.","Kabupaten Manggarai Barat, Nusa Tenggara Tim.",NUSA TENGGARA TIMUR,,Indonesia,,,,-8.6504359,120.0088957,https://maps.google.com/?cid=0x0:0xbdd044f0cd4c82fb,
perumahan,Komplek perumahan,Rumah ardus,"9243+65J, Golo Ndaring, Kec. Sano Nggoang, Kabupaten Manggarai Barat, Nusa Tenggara Tim.","Kabupaten Manggarai Barat, Nusa Tenggara Tim.",NUSA TENGGARA TIMUR,,Indonesia,,,,-8.6444149,120.002894,https://maps.google.com/?cid=0x0:0x330bcfe5020948f2,
perumahan,Komplek perumahan,Rumah Mr. Mudhar,"9232+WWP, Golo Ndaring, Kec. Sano Nggoang, Kabupaten Manggarai Barat, Nusa Tenggara Tim.","Kabupaten Manggarai Barat, Nusa Tenggara Tim.",NUSA TENGGARA TIMUR,,Indonesia, 081226970967,,,-8.645151,120.0023335,https://maps.google.com/?cid=0x0:0xf62fd42d5171794f,
perumahan,Komplek perumahan,Kompleks kelara Rambang,"82WX+W7P, Golo Kempo, Kec. Sano Nggoang, Kabupaten Manggarai Barat, Nusa Tenggara Tim.","Kabupaten Manggarai Barat, Nusa Tenggara Tim.",NUSA TENGGARA TIMUR,,Indonesia,,,,-8.6526375,120.0475405,https://maps.google.com/?cid=0x0:0x3135faffc5f9e790,
perumahan,Komplek perumahan,Nggirang,"C22P+QQM, Unnamed Road, Golo Ndoal, Kec. Sano Nggoang, Kabupaten Manggarai Barat, Nusa Tenggara Tim.","Kabupaten Manggarai Barat, Nusa Tenggara Tim.",NUSA TENGGARA TIMUR,,Indonesia,,,,-8.5980498,120.0369316,https://maps.google.com/?cid=0x0:0xea7b0329975c3e07,
perumahan,Komplek perumahan,DISINI RUMAH HARYANTODISINI RUMAH HARYANTO,"83XM+WQH, Golo Tantong, Kec. Sano Nggoang, Kabupaten Manggarai Barat, Nusa Tenggara Tim.","Kabupaten Manggarai Barat, Nusa Tenggara Tim.",NUSA TENGGARA TIMUR,,Indonesia,,,,-8.6495491,120.0842638,https://maps.google.com/?cid=0x0:0x3f3c8b9d6bbb7519,
perumahan,Komplek perumahan,Beo Rambang,"82XX+58, Golo Kempo, Kec. Sano Nggoang, Kabupaten Manggarai Barat, Nusa Tenggara Tim.","Kabupaten Manggarai Barat, Nusa Tenggara Tim.",NUSA TENGGARA TIMUR,,Indonesia,,,,-8.652038,120.048276,https://maps.google.com/?cid=0x0:0xea83143792b1e52a,
perumahan,Komplek perumahan,Golo Ndaring,"9X5R+GHR, Golo Ndaring, Kec. Sano Nggoang, Kabupaten Manggarai Barat, Nusa Tenggara Tim.","Kabupaten Manggarai Barat, Nusa Tenggara Tim.",NUSA TENGGARA TIMUR,,Indonesia,,,,-8.641142,119.9913964,https://maps.google.com/?cid=0x0:0xcc0927ebb62f7cb5,
perumahan,Komplek perumahan,Rumahnya PIA,"9253+6FF, Teong Toda, Golo Ndaring, Kec. Sano Nggoang, Kabupaten Manggarai Barat, Nusa Tenggara Tim.","Kabupaten Manggarai Barat, Nusa Tenggara Tim.",NUSA TENGGARA TIMUR,,Indonesia,,,,-8.641941,120.0036802,https://maps.google.com/?cid=0x0:0x8be49de9d7c9ba79,
perumahan,Komplek perumahan,Rumah Fransiskus Nasus Mujur,"9244+M7, Golo Ndaring, Kec. Sano Nggoang, Kabupaten Manggarai Barat, Nusa Tenggara Tim.","Kabupaten Manggarai Barat, Nusa Tenggara Tim.",NUSA TENGGARA TIMUR,,Indonesia,,,,-8.6432745,120.0057244,https://maps.google.com/?cid=0x0:0xc4a04d1e5788ee01,
perumahan,Pembangunan Perumahan,Kompleks Lingko Lale,"82W6+VQ5 Lingko Lale, Werang, Golo Mbu, Kec. Sano Nggoang, Kabupaten Manggarai Barat, Nusa Tenggara Tim.","Kabupaten Manggarai Barat, Nusa Tenggara Tim.",NUSA TENGGARA TIMUR,,Indonesia,,,,-8.652871,120.011978,https://maps.google.com/?cid=0x0:0x3e966a9bf1b1fffa,
perumahan,Komplek perumahan,Rumah Yani Manggarai,"7XP7+G7, Sano Nggoang, Kec. Sano Nggoang, Kabupaten Manggarai Barat, Nusa Tenggara Tim.","Kabupaten Manggarai Barat, Nusa Tenggara Tim.",NUSA TENGGARA TIMUR,,Indonesia,,,,-8.713636,119.963239,https://maps.google.com/?cid=0x0:0x801b735d6d4a75fa,
perumahan,Komplek perumahan,Gregorius Unggar,"9254+QV8, Golo Ndaring, Kec. Sano Nggoang, Kabupaten Manggarai Barat, Nusa Tenggara Tim.","Kabupaten Manggarai Barat, Nusa Tenggara Tim.",NUSA TENGGARA TIMUR,,Indonesia,,,,-8.6405848,120.0071997,https://maps.google.com/?cid=0x0:0x401d92d1d2471ef4,
perumahan,Komplek perumahan,Rumah BP Ambros ganggung,"83VW+XX8, Golo Leleng, Kec. Sano Nggoang, Kabupaten Manggarai Barat, Nusa Tenggara Tim.","Kabupaten Manggarai Barat, Nusa Tenggara Tim.",NUSA TENGGARA TIMUR,,Indonesia,,,,-8.6550968,120.0974673,https://maps.google.com/?cid=0x0:0x82cec552d3868f89,
perumahan,Perhimpunan Pengembang Perumahan,Lamung,"9XMV+37, Wae Lolos, Kec. Sano Nggoang, Kabupaten Manggarai Barat, Nusa Tenggara Tim.","Kabupaten Manggarai Barat, Nusa Tenggara Tim.",NUSA TENGGARA TIMUR,,Indonesia,,,,-8.617338,119.9931897,https://maps.google.com/?cid=0x0:0xfb525b865755aa50,
perumahan,Komplek perumahan,Rumah Bpk frans wudu,"9359+5VG, Nampar Macing, Kec. Sano Nggoang, Kabupaten Manggarai Barat, Nusa Tenggara Tim.","Kabupaten Manggarai Barat, Nusa Tenggara Tim.",NUSA TENGGARA TIMUR,,Indonesia,,,,-8.6420524,120.0696975,https://maps.google.com/?cid=0x0:0x81bd860d92d0b63a,
perumahan,Komplek perumahan,Rangga watu,"Golo Desat, Kec. Sano Nggoang, Kabupaten Manggarai Barat, Nusa Tenggara Tim.","Kabupaten Manggarai Barat, Nusa Tenggara Tim.",NUSA TENGGARA TIMUR,,Indonesia,,,,-8.6134711,120.0449826,https://maps.google.com/?cid=0x0:0xcde345ba740cdebc,
perumahan,Komplek perumahan,Kampung Dange,"Kampung Dange, Nampar Macing, Kec. Sano Nggoang, Kabupaten Manggarai Barat, Nusa Tenggara Tim.","Kabupaten Manggarai Barat, Nusa Tenggara Tim.",NUSA TENGGARA TIMUR,,Indonesia,,,,-8.6611846,120.0504422,https://maps.google.com/?cid=0x0:0x745388d4fdd5f8d8,
perumahan,Komplek perumahan,Ruma Alfian,"9268+G47, GOLOKONDENG, Kec. Sano Nggoang, Kabupaten Manggarai Barat, Nusa Tenggara Tim.","Kabupaten Manggarai Barat, Nusa Tenggara Tim.",NUSA TENGGARA TIMUR,,Indonesia,,,,-8.6387058,120.0153052,https://maps.google.com/?cid=0x0:0x46a22fc058b54a73,
perumahan,Komplek perumahan,Kampung Taal,"8262+X4, Wae Sano, Kec. Sano Nggoang, Kabupaten Manggarai Barat, Nusa Tenggara Tim.","Kabupaten Manggarai Barat, Nusa Tenggara Tim.",NUSA TENGGARA TIMUR,,Indonesia,,,,-8.6876593,120.0003466,https://maps.google.com/?cid=0x0:0x544d8a66273b1f54,
perumahan,Komplek perumahan,CTR,"82V6+R9, Golo Mbu, Kec. Sano Nggoang, Kabupaten Manggarai Barat, Nusa Tenggara Tim.","Kabupaten Manggarai Barat, Nusa Tenggara Tim.",NUSA TENGGARA TIMUR,,Indonesia,,,,-8.6551176,120.0109802,https://maps.google.com/?cid=0x0:0xea341b198b255d10,
perumahan,perumahan,Nusa Tenggara Tim.,,Nusa Tenggara Tim.,NUSA TENGGARA TIMUR,,Indonesia,,,,-8.6573819,121.0793705,https://maps.google.com/?cid=0x0:0x1030bfbcaf71ae0,
perumahan,perumahan,LONTART GUEST HOUSE,"Jln. Trans Flores, Km.10, Nggorang, Labuan Bajo, Kec. Komodo, Kabupaten Manggarai Barat, Nusa Tenggara Tim. 86754","Km.10, Nggorang, Labuan Bajo, Kec. Komodo, Kabupaten Manggarai Barat",NUSA TENGGARA TIMUR,86754.0,Indonesia, 081237213879,,,-8.5500968,119.9198663,https://maps.google.com/?cid=0x0:0x685445a477c69405,
perumahan,perumahan,Pulau Kelor,"Pasir Putih, Kec. Komodo, Kabupaten Manggarai Barat, Nusa Tenggara Tim.","Kabupaten Manggarai Barat, Nusa Tenggara Tim.",NUSA TENGGARA TIMUR,,Indonesia,,,,-8.5475,119.8147222,https://maps.google.com/?cid=0x0:0x29e8980519c764a7,
perumahan,Tujuan Wisata,PULAU SERAYA KECIL,"HVJF+QCR, Labuan Bajo, Kec. Komodo, Kabupaten Manggarai Barat, Nusa Tenggara Tim.","Kabupaten Manggarai Barat, Nusa Tenggara Tim.",NUSA TENGGARA TIMUR,,Indonesia,,,,-8.4180213,119.8735298,https://maps.google.com/?cid=0x0:0x4018a31d97e381a,
perumahan,Pasar,TOKO BINTANG TIMUR,"Jl. Ikan Kerapu Kampung ujung, Labuan Bajo, Kec. Komodo, Kabupaten Manggarai Barat, Nusa Tenggara Tim. 86754","Labuan Bajo, Kec. Komodo, Kabupaten Manggarai Barat",NUSA TENGGARA TIMUR,86754.0,Indonesia,,,,-8.488773,119.875806,https://maps.google.com/?cid=0x0:0x4d5d681393f74227,
perumahan,Toko Roti,MIMAMORI CAFE LABUAN BAJO,"Jl. Soekarno Hatta, Labuan Bajo, Kec. Komodo, Kabupaten Manggarai Barat, Nusa Tenggara Tim. 86754","Labuan Bajo, Kec. Komodo, Kabupaten Manggarai Barat",NUSA TENGGARA TIMUR,86754.0,Indonesia, 081138000767,,,-8.4930872,119.8775855,https://maps.google.com/?cid=0x0:0x13c4c006d3436d8,
perumahan,Binatu,QnC Laundry Labuan Bajo,"Jl. Lamber Kape No.88, Labuan Bajo, Kec. Komodo, Kabupaten Manggarai Barat, Nusa Tenggara Tim. 86754","Labuan Bajo, Kec. Komodo, Kabupaten Manggarai Barat",NUSA TENGGARA TIMUR,86754.0,Indonesia, 081339651950,,,-8.4998541,119.8860596,https://maps.google.com/?cid=0x0:0xef4ada16a0b7f9a7,
perumahan,Biro Perjalanan dan Wisata,Paket Wisata Labuan Bajo - Sunrise Indonesia,"Jl.Goa Firdaus, Labuan Bajo, Kec. Komodo, Kabupaten Manggarai Barat, Nusa Tenggara Tim. 86754","Labuan Bajo, Kec. Komodo, Kabupaten Manggarai Barat",NUSA TENGGARA TIMUR,86754.0,Indonesia, 087777890888,,,-8.4868113,119.8857285,https://maps.google.com/?cid=0x0:0x7ed98c06ad586ee9,
perumahan,Layanan Transportasi,Rental Mobil Bajo | by: komodoshuttle,"Jl. Yohanis Sahadun, Labuan Bajo, Kec. Komodo, Kabupaten Manggarai Barat, Nusa Tenggara Tim. 86754","Labuan Bajo, Kec. Komodo, Kabupaten Manggarai Barat",NUSA TENGGARA TIMUR,86754.0,Indonesia, 0811139337,,,-8.4870841,119.8860215,https://maps.google.com/?cid=0x0:0x6348e77fc04bfb21,
perumahan,Kedai Kopi,CARPENTER CAFE  ROASTERY - SOETTA,"Jl. Soekarno Hatta, Labuan Bajo, Kec. Komodo, Kabupaten Manggarai Barat, Nusa Tenggara Tim. 86754","Labuan Bajo, Kec. Komodo, Kabupaten Manggarai Barat",NUSA TENGGARA TIMUR,86754.0,Indonesia, 081236424411,,,-8.4930293,119.8778,https://maps.google.com/?cid=0x0:0xb351d32233356cbf,
perumahan,Toko Roti,Pondok Mai Ceng'go Labuan Bajo,"Jl. Alo Tanis, Labuan Bajo, Kec. Komodo, Kabupaten Manggarai Barat, Nusa Tenggara Tim. 86554","Labuan Bajo, Kec. Komodo, Kabupaten Manggarai Barat",NUSA TENGGARA TIMUR,86554.0,Indonesia, 082340032098,,,-8.4899811,119.8840961,https://maps.google.com/?cid=0x0:0xb10f1b15be10e3be,
perumahan,perumahan,Palulu Garden Homestay,"Jl.puncak waringin, Labuan Bajo, Kec. Komodo, Kabupaten Manggarai Barat, Nusa Tenggara Tim. 86754","Labuan Bajo, Kec. Komodo, Kabupaten Manggarai Barat",NUSA TENGGARA TIMUR,86754.0,Indonesia, 081238967229,,,-8.4914265,119.8787711,https://maps.google.com/?cid=0x0:0x5eb0b31a3e935638,
perumahan,Restoran,La Taqueria,"Jalan Haji Kasimo No.3, Labuan Bajo, Kec. Komodo, Kabupaten Manggarai Barat, Nusa Tenggara Tim. 86754","Labuan Bajo, Kec. Komodo, Kabupaten Manggarai Barat",NUSA TENGGARA TIMUR,86754.0,Indonesia, 085339161059,,,-8.4997281,119.882143,https://maps.google.com/?cid=0x0:0xff8ee9b629043888,
perumahan,Toko Suvenir,Komodo Giftshop,"Jl. Raymundus Rambu Jl. Batu Cermin No.17, Labuan Bajo, Komodo, West Manggarai Regency, East Nusa Tenggara 86754","Labuan Bajo, Komodo, West Manggarai Regency",NUSA TENGGARA TIMUR,86754.0,Indonesia, 081236849269,,,-8.473853,119.8960502,https://maps.google.com/?cid=0x0:0xd09a588a338829ad,
perumahan,Taman Kota,PUSAT PERSEMAIAN LABUAN BAJO,"Nggorang, Kec. Komodo, Kabupaten Manggarai Barat, Nusa Tenggara Tim.","Kabupaten Manggarai Barat, Nusa Tenggara Tim.",NUSA TENGGARA TIMUR,,Indonesia, 08113828489,,,-8.5270511,119.9437949,https://maps.google.com/?cid=0x0:0x9bb54c3e42e33b56,
perumahan,Jepang,Copper Bonnet Bistro  Bar,"Jl. Soekarno Hatta, Labuan Bajo, Kec. Komodo, Kabupaten Manggarai Barat, Nusa Tenggara Tim. 86754","Labuan Bajo, Kec. Komodo, Kabupaten Manggarai Barat",NUSA TENGGARA TIMUR,86754.0,Indonesia, 081139912016,,,-8.4922277,119.8768529,https://maps.google.com/?cid=0x0:0x1f7f6d4e58af4fae,
perumahan,Sulawesi Selatan,Rumah Makan Aini COTO MAKKASAR,"Jalan Arah Padang SMIP KELURAHAN BATU CERMIN, Labuan Bajo, Kec. Komodo, Kabupaten Manggarai Barat, Nusa Tenggara Tim. 86754","Labuan Bajo, Kec. Komodo, Kabupaten Manggarai Barat",NUSA TENGGARA TIMUR,86754.0,Indonesia, 081337591537,,,-8.4844526,119.8941813,https://maps.google.com/?cid=0x0:0x2197234a2cbaf427,
perumahan,Restoran Mediterania,Le Resto Komodo,"Jl. Mutiara, Kampung Unjung, Labuan Bajo, Kec. Komodo, Kabupaten Manggarai Barat, Nusa Tenggara Tim. 86754","Kampung Unjung, Labuan Bajo, Kec. Komodo, Kabupaten Manggarai Barat",NUSA TENGGARA TIMUR,86754.0,Indonesia, 08113820393,,,-8.4889216,119.8769281,https://maps.google.com/?cid=0x0:0xd0b7f6a8bd4eead6,
perumahan,perumahan,Kampung tengah,"GV3H+4P8, Kampung air, Labuan Bajo, Kec. Komodo, Kabupaten Manggarai Barat, Nusa Tenggara Tim.","Kabupaten Manggarai Barat, Nusa Tenggara Tim.",NUSA TENGGARA TIMUR,,Indonesia, 08123782655,,,-8.4972174,119.8793168,https://maps.google.com/?cid=0x0:0x3a2bb01c26d44a3c,
perumahan,Penyiar Radio,"Bandara Internasional Komodo, Labuan Bajo","Labuan Bajo, Kec. Komodo, Kabupaten Manggarai Barat, Nusa Tenggara Tim.","Kabupaten Manggarai Barat, Nusa Tenggara Tim.",NUSA TENGGARA TIMUR,,Indonesia,,,,-8.488846,119.8871342,https://maps.google.com/?cid=0x0:0x65f416d9240eb787,
perumahan,Penyiar Radio,AirNav Komodo Tower 122.7,"GV7P+CW6, Batu Cermin, Kec. Komodo, Kabupaten Manggarai Barat, Nusa Tenggara Tim.","Kabupaten Manggarai Barat, Nusa Tenggara Tim.",NUSA TENGGARA TIMUR,,Indonesia,,,,-8.4864555,119.8872542,https://maps.google.com/?cid=0x0:0x7ab7c7570b3bc26f,
perumahan,Komplek perumahan,Kaze Hill Residence by Dekoruma,"Jl. Rudal III No.14, Joglo, Kec. Kembangan, Kota Jakarta Barat, Daerah Khusus Ibukota Jakarta 11640","Joglo, Kec. Kembangan, Kota Jakarta Barat",NUSA TENGGARA TIMUR,11640.0,Indonesia, 081703888830,,,-6.2220299,106.7222881,https://maps.google.com/?cid=0x0:0xae1418e46b6f96f5,
perumahan,Komplek perumahan,"Kebayoran Harmony, Kebayoran Residences","Jl. Kby. Residence, Pd. Aren, Kec. Pd. Aren, Kota Tangerang Selatan, Banten 15224","Pd. Aren, Kec. Pd. Aren, Kota Tangerang Selatan",NUSA TENGGARA TIMUR,15224.0,Indonesia,,,,-6.2649303,106.7142924,https://maps.google.com/?cid=0x0:0xdfd3d57e76adc27,
perumahan,Komplek perumahan,Cluster Kebayoran Garden,"Jl. Kby. Residence, Pd. Jaya, Kec. Pd. Aren, Kota Tangerang Selatan, Banten 15224","Pd. Jaya, Kec. Pd. Aren, Kota Tangerang Selatan",NUSA TENGGARA TIMUR,15224.0,Indonesia, 081808999977,,,-6.268486,106.7103097,https://maps.google.com/?cid=0x0:0xd057f80570bdf25b,
perumahan,perumahan,Jl. Komodo,"Jatibening, Kec. Pd. Gede, Kota Bks, Jawa Barat","Kota Bks, Jawa Barat",NUSA TENGGARA TIMUR,,Indonesia,,,,-6.26884,106.94712,https://maps.google.com/?cid=0x0:0x55c3ee20bdf348cb,
perumahan,perumahan,Nusa Tenggara Tim.,,Nusa Tenggara Tim.,NUSA TENGGARA TIMUR,,Indonesia,,,,-8.6573819,121.0793705,https://maps.google.com/?cid=0x0:0x1030bfbcaf71ae0,
perumahan,Pembangunan Perumahan,PERUMAHAN FLOSINDO PERMAI,"BTN Bak Biru, Bello, Kec. Maulafa, Kota Kupang, Nusa Tenggara Tim. 85142","Bello, Kec. Maulafa, Kota Kupang",NUSA TENGGARA TIMUR,85142.0,Indonesia, 085239033755,,,-10.2094093,123.6250254,https://maps.google.com/?cid=0x0:0x50630cb0afc8db0d,
perumahan,perumahan,Kec. Boleng,"Kabupaten Manggarai Barat, Nusa Tenggara Tim.","Kabupaten Manggarai Barat, Nusa Tenggara Tim.",NUSA TENGGARA TIMUR,,Indonesia,,,,-8.4540441,120.0768696,https://maps.google.com/?cid=0x0:0x999db4ca3d7536c5,
perumahan,Komplek perumahan,Lesem Boleng,"F4HJ+GPH, Golo Lujang, Kec. Boleng, Kabupaten Manggarai Barat, Nusa Tenggara Tim.","Kabupaten Manggarai Barat, Nusa Tenggara Tim.",NUSA TENGGARA TIMUR,,Indonesia,,,,-8.5211792,120.1318698,https://maps.google.com/?cid=0x0:0xad9fae6e0c202e72,
perumahan,Komplek perumahan,Tanjung Boleng,"G2X7+R3X, Tj. Boleng, Kec. Boleng, Kabupaten Manggarai Barat, Nusa Tenggara Tim.","Kabupaten Manggarai Barat, Nusa Tenggara Tim.",NUSA TENGGARA TIMUR,,Indonesia,,,,-8.4503904,120.0127233,https://maps.google.com/?cid=0x0:0xa6e106b95587b1eb,
perumahan,Pembangunan Perumahan,Lenga,"G3VH+G89, Sepang, Kec. Boleng, Kabupaten Manggarai Barat, Nusa Tenggara Tim.","Kabupaten Manggarai Barat, Nusa Tenggara Tim.",NUSA TENGGARA TIMUR,,Indonesia,,,,-8.4562027,120.0783587,https://maps.google.com/?cid=0x0:0xc8655af89492728e,
perumahan,Pembangunan Perumahan,Boleng,"G3WJ+XGM, Sepang, Kec. Boleng, Kabupaten Manggarai Barat, Nusa Tenggara Tim.","Kabupaten Manggarai Barat, Nusa Tenggara Tim.",NUSA TENGGARA TIMUR,,Indonesia,,,,-8.4525475,120.0812924,https://maps.google.com/?cid=0x0:0x5c9cac74cac4aa3d,
perumahan,Komplek perumahan,Lando,"G32H+8X8, Mbuit, Kec. Boleng, Kabupaten Manggarai Barat, Nusa Tenggara Tim.","Kabupaten Manggarai Barat, Nusa Tenggara Tim.",NUSA TENGGARA TIMUR,,Indonesia,,,,-8.4992244,120.0799445,https://maps.google.com/?cid=0x0:0x39f59f745762b4f4,
perumahan,Komplek perumahan,"Golo Galang, desa pota wangka, kec. Boleng, manggarai barat","F2J3+J6F, Unnamed Road, Pota Wangka, Kec. Boleng, Kabupaten Manggarai Barat, Nusa Tenggara Tim.","Kabupaten Manggarai Barat, Nusa Tenggara Tim.",NUSA TENGGARA TIMUR,,Indonesia,,,,-8.5184418,120.003062,https://maps.google.com/?cid=0x0:0xb8ae1efbf64770bf,
perumahan,Pembangunan Perumahan,Kau'ng,"F489+RCR, Golo Lujang, Kec. Boleng, Kabupaten Manggarai Barat, Nusa Tenggara Tim.","Kabupaten Manggarai Barat, Nusa Tenggara Tim.",NUSA TENGGARA TIMUR,,Indonesia,,,,-8.5328798,120.1185102,https://maps.google.com/?cid=0x0:0x464ef2f2fb22a2f1,
perumahan,Komplek perumahan,Golo Garang,"G3JG+W4F, Sepang, Kec. Boleng, Kabupaten Manggarai Barat, Nusa Tenggara Tim.","Kabupaten Manggarai Barat, Nusa Tenggara Tim.",NUSA TENGGARA TIMUR,,Indonesia,,,,-8.4676852,120.0752905,https://maps.google.com/?cid=0x0:0x567e00ba0a31a62,
perumahan,Pembangunan Perumahan,Kampung wate,"G24Q+7W4, Golo Ketak, Kec. Boleng, Kabupaten Manggarai Barat, Nusa Tenggara Tim.","Kabupaten Manggarai Barat, Nusa Tenggara Tim.",NUSA TENGGARA TIMUR,,Indonesia,,,,-8.4943546,120.0398173,https://maps.google.com/?cid=0x0:0x4208676574ecfaad,
perumahan,Komplek perumahan,Bentala,"G33P+6R8, Bentala, Mbuit, Kec. Boleng, Kabupaten Manggarai Barat, Nusa Tenggara Tim.","Kabupaten Manggarai Barat, Nusa Tenggara Tim.",NUSA TENGGARA TIMUR,,Indonesia,,,,-8.4969281,120.0870995,https://maps.google.com/?cid=0x0:0x52c45fd395c882e0,
perumahan,Komplek perumahan,TEBEDO,"G39H+H7, Sepang, Kec. Boleng, Kabupaten Manggarai Barat, Nusa Tenggara Tim.","Kabupaten Manggarai Barat, Nusa Tenggara Tim.",NUSA TENGGARA TIMUR,,Indonesia,,,,-8.4810317,120.0781434,https://maps.google.com/?cid=0x0:0x631e66fbc7d8b1c5,
perumahan,Komplek perumahan,Rumah saya,"G38G+Q7, Sepang, Kec. Boleng, Kabupaten Manggarai Barat, Nusa Tenggara Tim.","Kabupaten Manggarai Barat, Nusa Tenggara Tim.",NUSA TENGGARA TIMUR,,Indonesia,,,,-8.4830224,120.075557,https://maps.google.com/?cid=0x0:0x3e6efb92498451e0,
perumahan,Komplek perumahan,RT flamboyan,"Unnamed Road, Golo Ndoal, Kec. Sano Nggoang, Kabupaten Manggarai Barat, Nusa Tenggara Tim.","Kabupaten Manggarai Barat, Nusa Tenggara Tim.",NUSA TENGGARA TIMUR,,Indonesia,,,,-8.583806,120.040489,https://maps.google.com/?cid=0x0:0x252c23ccc5332bb6,
perumahan,Komplek perumahan,Kecamatan boleng,"GWPP+79R, Tj. Boleng, Kec. Boleng, Kabupaten Manggarai Barat, Nusa Tenggara Tim.","Kabupaten Manggarai Barat, Nusa Tenggara Tim.",NUSA TENGGARA TIMUR,,Indonesia,,,,-8.4642588,119.9358904,https://maps.google.com/?cid=0x0:0xcc92ac10347168c2,
perumahan,perumahan,Rumah Alma,"F4X2+VFF Rumah Alma, Mbuit, Kec. Boleng, Kabupaten Manggarai Barat, Nusa Tenggara Tim.","Kabupaten Manggarai Barat, Nusa Tenggara Tim.",NUSA TENGGARA TIMUR,,Indonesia,,,,-8.5003121,120.1011836,https://maps.google.com/?cid=0x0:0x39e958ef84d7e30a,
perumahan,Pembangunan Perumahan,WAETANA,"C3WR+V5G, Golo Sembea, Kec. Mbeliling, Kabupaten Manggarai Barat, Nusa Tenggara Tim.","Kabupaten Manggarai Barat, Nusa Tenggara Tim.",NUSA TENGGARA TIMUR,,Indonesia,,,,-8.5528021,120.0904506,https://maps.google.com/?cid=0x0:0xb04749a9180e591a,
perumahan,Komplek perumahan,Tanah Ibu Yosephina,"GWPX+MW, Tj. Boleng, Kec. Boleng, Kabupaten Manggarai Barat, Nusa Tenggara Tim.","Kabupaten Manggarai Barat, Nusa Tenggara Tim.",NUSA TENGGARA TIMUR,,Indonesia,,,,-8.463371,119.949778,https://maps.google.com/?cid=0x0:0xdd4df6dd1704e2de,
perumahan,Komplek perumahan,Rumah Bojhans,"C3F6+WP2, Golo Sembea, Kec. Mbeliling, Kabupaten Manggarai Barat, Nusa Tenggara Tim.","Kabupaten Manggarai Barat, Nusa Tenggara Tim.",NUSA TENGGARA TIMUR,,Indonesia,,,,-8.5752437,120.0617812,https://maps.google.com/?cid=0x0:0xde451b46a340490b,
perumahan,Komplek perumahan,Mantang,"C24W+WHQ, Unnamed Road, Mantang, Golo Ndoal, Kec. Mbeliling, Kabupaten Manggarai Barat, Nusa Tenggara Tim.","Kabupaten Manggarai Barat, Nusa Tenggara Tim.",NUSA TENGGARA TIMUR,,Indonesia,,,,-8.5926572,120.0464755,https://maps.google.com/?cid=0x0:0xea0a097691d77703,
perumahan,Komplek perumahan,Citra Swarna Riverside,"Jl. Raya Bojong Klapanunggal, Bojong, Kec. Klapanunggal, Kabupaten Bogor, Jawa Barat 16710","Bojong, Kec. Klapanunggal, Kabupaten Bogor",NUSA TENGGARA TIMUR,16710.0,Indonesia, 02129217491,,,-6.453213,107.0012372,https://maps.google.com/?cid=0x0:0x3986839ca8f3f1e7,
perumahan,Komplek perumahan,Rumah Bapa Lorens/ Ibu Emilia,"FW4C+GVF, Nggorang, Kec. Komodo, Kabupaten Manggarai Barat, Nusa Tenggara Tim.","Kabupaten Manggarai Barat, Nusa Tenggara Tim.",NUSA TENGGARA TIMUR,,Indonesia,,,,-8.5436829,119.922182,https://maps.google.com/?cid=0x0:0x8793d12f8cbf73a9,
perumahan,Komplek perumahan,Vila Bogor Indah 6,"Pasir Jambu, Kec. Sukaraja, Kabupaten Bogor, Jawa Barat 16710","Kec. Sukaraja, Kabupaten Bogor",NUSA TENGGARA TIMUR,16710.0,Indonesia, 0218652111,,,-6.5288937,106.8104503,https://maps.google.com/?cid=0x0:0x7cb892d01854fb89,
perumahan,perumahan,Perumahan Bale Arsa Cibatok,"CM38+VGQ, Jl. Kapten Dasuki Bakri, Cibatok 1, Kec. Cibungbulang, Kabupaten Bogor, Jawa Barat","Kabupaten Bogor, Jawa Barat",NUSA TENGGARA TIMUR,,Indonesia,,,,-6.5952952,106.6663496,https://maps.google.com/?cid=0x0:0xa15f006aec72724e,
perumahan,perumahan,Kec. Welak,"Kabupaten Manggarai Barat, Nusa Tenggara Tim.","Kabupaten Manggarai Barat, Nusa Tenggara Tim.",NUSA TENGGARA TIMUR,,Indonesia,,,,-8.6284325,120.1747836,https://maps.google.com/?cid=0x0:0x9d0199762a8049e0,
perumahan,Komplek perumahan,Home tolo,"86WG+XV, Orong, Kec. Welak, Kabupaten Manggarai Barat, Nusa Tenggara Tim.","Kabupaten Manggarai Barat, Nusa Tenggara Tim.",NUSA TENGGARA TIMUR,,Indonesia,,,,-8.6525283,120.2271873,https://maps.google.com/?cid=0x0:0x4773425ae4fe0126,
perumahan,perumahan,Rumah combath,"C6JF+3W, Semang, Kec. Welak, Kabupaten Manggarai Barat, Nusa Tenggara Tim.","Kabupaten Manggarai Barat, Nusa Tenggara Tim.",NUSA TENGGARA TIMUR,,Indonesia,,,,-8.5697804,120.2247982,https://maps.google.com/?cid=0x0:0xeced311e4d462fac,
perumahan,Pembangunan Perumahan,Pau welak,"96QX+892, Orong, Kec. Welak, Kabupaten Manggarai Barat, Nusa Tenggara Tim.","Kabupaten Manggarai Barat, Nusa Tenggara Tim.",NUSA TENGGARA TIMUR,,Indonesia,,,,-8.6117268,120.2483881,https://maps.google.com/?cid=0x0:0x6c4b34d8fc67aff9,
perumahan,Komplek perumahan,Tuwa,"84PP+87, Golo Ronggot, Kec. Welak, Kabupaten Manggarai Barat, Nusa Tenggara Tim.","Kabupaten Manggarai Barat, Nusa Tenggara Tim.",NUSA TENGGARA TIMUR,,Indonesia, 081323401541,,,-8.6636572,120.1385994,https://maps.google.com/?cid=0x0:0xda564caf3ec8ac08,
perumahan,Komplek perumahan,Kampung Pogo,"968C+9H, Gurung, Kec. Welak, Kabupaten Manggarai Barat, Nusa Tenggara Tim.","Kabupaten Manggarai Barat, Nusa Tenggara Tim.",NUSA TENGGARA TIMUR,,Indonesia,,,,-8.6341255,120.222238,https://maps.google.com/?cid=0x0:0x52d2f0dffd80c4a4,
perumahan,Komplek perumahan,Yasung,"86XM+2X, Orong, Kec. Welak, Kabupaten Manggarai Barat, Nusa Tenggara Tim.","Kabupaten Manggarai Barat, Nusa Tenggara Tim.",NUSA TENGGARA TIMUR,,Indonesia,,,,-8.6522088,120.2350201,https://maps.google.com/?cid=0x0:0xf4614d20364664ca,
perumahan,Pembangunan Perumahan,beo mehe,"C68H+P68, Unnamed Road, Dunta, Kec. Welak, Kabupaten Manggarai Barat, Nusa Tenggara Tim.","Kabupaten Manggarai Barat, Nusa Tenggara Tim.",NUSA TENGGARA TIMUR,,Indonesia,,,,-8.5832148,120.2280771,https://maps.google.com/?cid=0x0:0x5b6edb685794cda6,
perumahan,Tujuan Wisata,Lempa,"96JH+3V5, Gurung, Kec. Welak, Kabupaten Manggarai Barat, Nusa Tenggara Tim.","Kabupaten Manggarai Barat, Nusa Tenggara Tim.",NUSA TENGGARA TIMUR,,Indonesia,,,,-8.6198562,120.2297392,https://maps.google.com/?cid=0x0:0x1cf53efb6d1654c9,
perumahan,Komplek perumahan,Valentino,"96QG+8RP, Gurung, Kec. Welak, Kabupaten Manggarai Barat, Nusa Tenggara Tim.","Kabupaten Manggarai Barat, Nusa Tenggara Tim.",NUSA TENGGARA TIMUR,,Indonesia,,,,-8.6116659,120.2270891,https://maps.google.com/?cid=0x0:0x32a48e01ff336f6e,
perumahan,Komplek perumahan,Orong,"964P+5X8, Orong, Kec. Welak, Kabupaten Manggarai Barat, Nusa Tenggara Tim.","Kabupaten Manggarai Barat, Nusa Tenggara Tim.",NUSA TENGGARA TIMUR,,Indonesia, 081246378219,,,-8.6445814,120.2374411,https://maps.google.com/?cid=0x0:0x4cbbb34163dc6b14,
perumahan,Perhimpunan Pengembang Perumahan,Goloderu,"956Q+6CF, Lale, Kec. Welak, Kabupaten Manggarai Barat, Nusa Tenggara Tim.","Kabupaten Manggarai Barat, Nusa Tenggara Tim.",NUSA TENGGARA TIMUR,,Indonesia,,,,-8.6394323,120.1885566,https://maps.google.com/?cid=0x0:0xc50bcfb60d98e790,
perumahan,Komplek perumahan,Kampung Jeong,"C67J+W6, Dunta, Kec. Welak, Kabupaten Manggarai Barat, Nusa Tenggara Tim.","Kabupaten Manggarai Barat, Nusa Tenggara Tim.",NUSA TENGGARA TIMUR,,Indonesia,,,,-8.5852505,120.2305308,https://maps.google.com/?cid=0x0:0x415ccb18d4b75a25,
perumahan,Kantor Administrasi Kota,Desa Lale,"9649+2H, Orong, Kec. Welak, Kabupaten Manggarai Barat, Nusa Tenggara Tim.","Kabupaten Manggarai Barat, Nusa Tenggara Tim.",NUSA TENGGARA TIMUR,,Indonesia,,,,-8.6449444,120.2188889,https://maps.google.com/?cid=0x0:0x650a74641e575abc,
perumahan,Komplek perumahan,Rumah Blasius Baruk,"84MG+P8 Alamat: Tado Longge, Dusun Kota Tado Desa Golo Leleng. Kecamatan Sano Nggoang Kabupaten Manggarai Barat, RT.005/RW.002, Golo Leleng, Kabupaten Manggarai Barat, Nusa Tenggara Tim.","Kabupaten Manggarai Barat, Nusa Tenggara Tim.",NUSA TENGGARA TIMUR,,Indonesia,,,,-8.6656867,120.1258069,https://maps.google.com/?cid=0x0:0x9cea2878cb7dab4f,
perumahan,Komplek perumahan,Lengkong Wol,"84JW+8CV, Golo Ronggot, Kec. Welak, Kabupaten Manggarai Barat, Nusa Tenggara Tim.","Kabupaten Manggarai Barat, Nusa Tenggara Tim.",NUSA TENGGARA TIMUR,,Indonesia,,,,-8.669149,120.1460532,https://maps.google.com/?cid=0x0:0x8ce82b7b596a1703,
perumahan,Otoritas Perumahan,Rumah Mario,"C6CG+QWG, Wora desa, wora, Kec. Welak, Kabupaten Manggarai Barat, Nusa Tenggara Tim.","Kabupaten Manggarai Barat, Nusa Tenggara Tim.",NUSA TENGGARA TIMUR,,Indonesia,,,,-8.5780508,120.2273417,https://maps.google.com/?cid=0x0:0xb52374f12d4a69,
perumahan,Kantor Pemerintah,Wol Desa Golo Ronggt,"9573+673, Golo Ronggot, Kec. Welak, Kabupaten Manggarai Barat, Nusa Tenggara Tim.","Kabupaten Manggarai Barat, Nusa Tenggara Tim.",NUSA TENGGARA TIMUR,,Indonesia,,,,-8.6369788,120.1531568,https://maps.google.com/?cid=0x0:0x67f1e0e2cd451996,
perumahan,Perhimpunan Pengembang Perumahan,Kotok,"95GX+73, dunta, Kec. Welak, Kabupaten Manggarai Barat, Nusa Tenggara Tim.","Kabupaten Manggarai Barat, Nusa Tenggara Tim.",NUSA TENGGARA TIMUR,,Indonesia,,,,-8.6243816,120.1977489,https://maps.google.com/?cid=0x0:0x9ff13ddc319c2c51,
perumahan,Komplek perumahan,kampung Subu,"C6PC+V3M, Semang, Kec. Welak, Kabupaten Manggarai Barat, Nusa Tenggara Tim.","Kabupaten Manggarai Barat, Nusa Tenggara Tim.",NUSA TENGGARA TIMUR,,Indonesia,,,,-8.5627857,120.2201734,https://maps.google.com/?cid=0x0:0x1861a836f651228e,
perumahan,Komplek perumahan,Rumah hari pasman,"963R+MR4, Pong Welak, Kec. Welak, Kabupaten Manggarai Barat, Nusa Tenggara Tim.","Kabupaten Manggarai Barat, Nusa Tenggara Tim.",NUSA TENGGARA TIMUR,,Indonesia,,,,-8.643045,120.24285,https://maps.google.com/?cid=0x0:0xcf87478b08c245dd,
perumahan,Komplek perumahan,KOWOK,"Kowok, Galang, Kec. Welak, Kabupaten Manggarai Barat, Nusa Tenggara Tim.","Kabupaten Manggarai Barat, Nusa Tenggara Tim.",NUSA TENGGARA TIMUR,,Indonesia,,,,-8.662661,120.234789,https://maps.google.com/?cid=0x0:0x973045552398cc,
perumahan,Pembangunan Perumahan,Beo Weto,"86W6+CF6, Galang, Kec. Welak, Kabupaten Manggarai Barat, Nusa Tenggara Tim.","Kabupaten Manggarai Barat, Nusa Tenggara Tim.",NUSA TENGGARA TIMUR,,Indonesia,,,,-8.6539711,120.2111407,https://maps.google.com/?cid=0x0:0x95feedbbd3595338,
perumahan,Komplek perumahan,Jhony agung,"848W+G2, Siru, Kecamatan Lembor, Kabupaten Manggarai Barat, Nusa Tenggara Tim.","Kabupaten Manggarai Barat, Nusa Tenggara Tim.",NUSA TENGGARA TIMUR,,Indonesia,,,,-8.6836975,120.1450908,https://maps.google.com/?cid=0x0:0x702037c78c9defcd,
perumahan,Komplek perumahan,Rumah Empo Bombang,"847M+GRV, Siru, Kecamatan Lembor, Kabupaten Manggarai Barat, Nusa Tenggara Tim.","Kabupaten Manggarai Barat, Nusa Tenggara Tim.",NUSA TENGGARA TIMUR,,Indonesia,,,,-8.686392,120.134923,https://maps.google.com/?cid=0x0:0xdb210a82710c0ac9,
perumahan,Perumahan,Metang Ndoso,"F8QC+M5Q, Momol, Kec. Ndoso, Kabupaten Manggarai Barat, Nusa Tenggara Tim.","Kabupaten Manggarai Barat, Nusa Tenggara Tim.",NUSA TENGGARA TIMUR,,Indonesia, 082134684844,,,-8.5107801,120.3204873,https://maps.google.com/?cid=0x0:0x6d2864338a611d30,
perumahan,Sekolah,METANG NDOSO,"G8G5+MR, Waning, Kec. Ndoso, Kabupaten Manggarai Barat, Nusa Tenggara Tim.","Kabupaten Manggarai Barat, Nusa Tenggara Tim.",NUSA TENGGARA TIMUR,,Indonesia, 082239019083,,,-8.4726837,120.3021232,https://maps.google.com/?cid=0x0:0x6f76d097fb6e681a,
perumahan,perumahan,Ndoso,"Ndoso, Kec. Ndoso, Kabupaten Manggarai Barat, Nusa Tenggara Tim.","Kabupaten Manggarai Barat, Nusa Tenggara Tim.",NUSA TENGGARA TIMUR,,Indonesia,,,,-8.5040549,120.320396,https://maps.google.com/?cid=0x0:0xa13f0de10f2802b2,
perumahan,Pembangunan Perumahan,todo,"F9V4+P45, Tentang, Kec. Ndoso, Kabupaten Manggarai Barat, Nusa Tenggara Tim.","Kabupaten Manggarai Barat, Nusa Tenggara Tim.",NUSA TENGGARA TIMUR,,Indonesia,,,,-8.5057309,120.355353,https://maps.google.com/?cid=0x0:0xd0d80cfc40eb8991,
perumahan,Komplek perumahan,Rumah Om Leo Ndoso,"F8WC+95C desa wae mowol, Ndoso, Kec. Ndoso, Kabupaten Manggarai Barat, Nusa Tenggara Tim.","Kabupaten Manggarai Barat, Nusa Tenggara Tim.",NUSA TENGGARA TIMUR,,Indonesia,,,,-8.5040549,120.320396,https://maps.google.com/?cid=0x0:0xcebd1f360d874bfe,
perumahan,Komplek perumahan,Belasius jaru,"F8WC+95C, Ndoso, Kec. Ndoso, Kabupaten Manggarai Barat, Nusa Tenggara Tim.","Kabupaten Manggarai Barat, Nusa Tenggara Tim.",NUSA TENGGARA TIMUR,,Indonesia,,,,-8.5040549,120.320396,https://maps.google.com/?cid=0x0:0xd6d943eee4488b82,
perumahan,perumahan,Kec. Lembor Selatan,"Kabupaten Manggarai Barat, Nusa Tenggara Tim.","Kabupaten Manggarai Barat, Nusa Tenggara Tim.",NUSA TENGGARA TIMUR,,Indonesia,,,,-8.7739706,120.1323197,https://maps.google.com/?cid=0x0:0x5bb218ae172463d2,
perumahan,Komplek perumahan,Kampung Kois citi,"768J+37, Munting, Kec. Lembor Selatan, Kabupaten Manggarai Barat, Nusa Tenggara Tim.","Kabupaten Manggarai Barat, Nusa Tenggara Tim.",NUSA TENGGARA TIMUR,,Indonesia, 081368050657,,,-8.7348126,120.230743,https://maps.google.com/?cid=0x0:0x6541f63e609f39c3,
perumahan,Pusat Perbelanjaan,FLORES NTT,"75G5+F38, Goron Talo, Kecamatan Lembor, Kabupaten Manggarai Barat, Nusa Tenggara Tim.","Kabupaten Manggarai Barat, Nusa Tenggara Tim.",NUSA TENGGARA TIMUR,,Indonesia,,,,-8.7238267,120.1576882,https://maps.google.com/?cid=0x0:0x81a20bfb176c655c,
perumahan,Indonesia,RM. UKHE-UKHE,"Jl. Ruteng, Siru, Kecamatan Lembor, Kabupaten Manggarai Barat, Nusa Tenggara Tim.","Kabupaten Manggarai Barat, Nusa Tenggara Tim.",NUSA TENGGARA TIMUR,,Indonesia,,,,-8.7067876,120.1614112,https://maps.google.com/?cid=0x0:0x920a19c8708443b4,
perumahan,Pembangunan Perumahan,Rumah Bp Marsel Musdin,"747V+RF6, Unnamed Road, Tangge, Kecamatan Lembor, Kabupaten Manggarai Barat, Nusa Tenggara Tim.","Kabupaten Manggarai Barat, Nusa Tenggara Tim.",NUSA TENGGARA TIMUR,,Indonesia,,,,-8.7354501,120.1436404,https://maps.google.com/?cid=0x0:0xf14f00af52592165,
perumahan,Kantor Perusahaan,Lembor Manggarai NTT,"75RC+G2G, Tangge, Kecamatan Lembor, Kabupaten Manggarai Barat, Nusa Tenggara Tim.","Kabupaten Manggarai Barat, Nusa Tenggara Tim.",NUSA TENGGARA TIMUR,,Indonesia,,,,-8.7086824,120.170065,https://maps.google.com/?cid=0x0:0x97da1016fa84b8af,
perumahan,perumahan,Rangga Kole,"75R9+P3W Rangga Kole, Tangge, Kecamatan Lembor, Kabupaten Manggarai Barat, Nusa Tenggara Tim.","Kabupaten Manggarai Barat, Nusa Tenggara Tim.",NUSA TENGGARA TIMUR,,Indonesia,,,,-8.7081253,120.1677018,https://maps.google.com/?cid=0x0:0xdd075f73713a3310,
perumahan,Pembangunan Perumahan,Bertho LemoRai,"66P6+WMH, Surunumbeng, Kecamatan Lembor, Kabupaten Manggarai Barat, Nusa Tenggara Tim.","Kabupaten Manggarai Barat, Nusa Tenggara Tim.",NUSA TENGGARA TIMUR,,Indonesia,,,,-8.7626918,120.2117274,https://maps.google.com/?cid=0x0:0xf4e2ff22b1bcc7bd,
perumahan,Perumahan,roman joki,"64XH+RC, Tangge, Kecamatan Lembor, Kabupaten Manggarai Barat, Nusa Tenggara Tim.","Kabupaten Manggarai Barat, Nusa Tenggara Tim.",NUSA TENGGARA TIMUR,,Indonesia,,,,-8.7504784,120.1286146,https://maps.google.com/?cid=0x0:0x944b09f437fc8637,
perumahan,Rumah Kayu,Kampung Bempo,"64GJ+CW8, Nanga Lili, Kec. Lembor Selatan, Kabupaten Manggarai Barat, Nusa Tenggara Tim.","Kabupaten Manggarai Barat, Nusa Tenggara Tim.",NUSA TENGGARA TIMUR,,Indonesia,,,,-8.7739706,120.1323197,https://maps.google.com/?cid=0x0:0x6a60aead7b7149b4,
perumahan,Kantor Pemerintah,Kampung Munting,"755X+WPP, Munting, Kec. Lembor Selatan, Kabupaten Manggarai Barat, Nusa Tenggara Tim.","Kabupaten Manggarai Barat, Nusa Tenggara Tim.",NUSA TENGGARA TIMUR,,Indonesia,,,,-8.7401668,120.1993381,https://maps.google.com/?cid=0x0:0xf99b15173bc0f9be,
perumahan,Perhimpunan Pengembang Perumahan,Rumah,"6655+R4, Watu Waja, Kec. Lembor Selatan, Kabupaten Manggarai Barat, Nusa Tenggara Tim.","Kabupaten Manggarai Barat, Nusa Tenggara Tim.",NUSA TENGGARA TIMUR,,Indonesia,,,,-8.7904347,120.2078819,https://maps.google.com/?cid=0x0:0xec229cf977efcf8c,
perumahan,Komplek perumahan,"Manggarai barat, Lembor selatan","76R8+6GM, Kakor, Kec. Lembor Selatan, Kabupaten Manggarai Barat, Nusa Tenggara Tim.","Kabupaten Manggarai Barat, Nusa Tenggara Tim.",NUSA TENGGARA TIMUR,,Indonesia,,,,-8.7094171,120.2162899,https://maps.google.com/?cid=0x0:0x367c2e2fb1f03c88,
perumahan,Pembangunan Perumahan,Kampung Siru,"73H9+22G, Siru, Kecamatan Lembor, Kabupaten Manggarai Barat, Nusa Tenggara Tim.","Kabupaten Manggarai Barat, Nusa Tenggara Tim.",NUSA TENGGARA TIMUR,,Indonesia,,,,-8.7224437,120.0675637,https://maps.google.com/?cid=0x0:0xe3b65737b54413d6,
perumahan,perumahan,"Beo tongkor. Rumah Bpk, Mateus Jemuar","64GJ+CW8, Nanga Lili, Kec. Lembor Selatan, Kabupaten Manggarai Barat, Nusa Tenggara Tim.","Kabupaten Manggarai Barat, Nusa Tenggara Tim.",NUSA TENGGARA TIMUR,,Indonesia,,,,-8.7739706,120.1323197,https://maps.google.com/?cid=0x0:0x96394069f5ea5f56,
perumahan,Komplek perumahan,Rumah Empo Bombang,"847M+GRV, Siru, Kecamatan Lembor, Kabupaten Manggarai Barat, Nusa Tenggara Tim.","Kabupaten Manggarai Barat, Nusa Tenggara Tim.",NUSA TENGGARA TIMUR,,Indonesia,,,,-8.686392,120.134923,https://maps.google.com/?cid=0x0:0xdb210a82710c0ac9,
perumahan,Komplek perumahan,Namo,"76GG+86F, Munting, Kecamatan Lembor, Kabupaten Manggarai Barat, Nusa Tenggara Tim.","Kabupaten Manggarai Barat, Nusa Tenggara Tim.",NUSA TENGGARA TIMUR,,Indonesia,,,,-8.7241833,120.2255372,https://maps.google.com/?cid=0x0:0xa0180c7b215cf283,
perumahan,Inspektur Tempat Tinggal,Sambir wae mose,"7589+MQ, Munting, Kec. Lembor Selatan, Kabupaten Manggarai Barat, Nusa Tenggara Tim.","Kabupaten Manggarai Barat, Nusa Tenggara Tim.",NUSA TENGGARA TIMUR,,Indonesia,,,,-8.7332812,120.1694323,https://maps.google.com/?cid=0x0:0xb14fb7b6ed988fe9,
perumahan,Komplek perumahan,ALVARO,"66M5+M5, Surunumbeng, Kec. Lembor Selatan, Kabupaten Manggarai Barat, Nusa Tenggara Tim.","Kabupaten Manggarai Barat, Nusa Tenggara Tim.",NUSA TENGGARA TIMUR,,Indonesia,,,,-8.7664821,120.2075003,https://maps.google.com/?cid=0x0:0x72ab480da0683b01,
perumahan,Komplek perumahan,"the city, Wiko Lembor Selatan,","64GJ+CW8, Nanga Lili, Kec. Lembor Selatan, Kabupaten Manggarai Barat, Nusa Tenggara Tim.","Kabupaten Manggarai Barat, Nusa Tenggara Tim.",NUSA TENGGARA TIMUR,,Indonesia,,,,-8.7739706,120.1323197,https://maps.google.com/?cid=0x0:0xf8563f9f7a2b65dc,
perumahan,Komplek perumahan,Rumah Yonn,"75RQ+668, Wae Mose, Kec. Lembor Selatan, Kabupaten Manggarai Barat, Nusa Tenggara Tim.","Kabupaten Manggarai Barat, Nusa Tenggara Tim.",NUSA TENGGARA TIMUR,,Indonesia,,,,-8.7094549,120.1880804,https://maps.google.com/?cid=0x0:0x403967df3da800a4,
perumahan,Perhimpunan Pengembang Perumahan,Rumah,"76W2+4JW, Wae Mose, Kecamatan Lembor, Kabupaten Manggarai Barat, Nusa Tenggara Tim.","Kabupaten Manggarai Barat, Nusa Tenggara Tim.",NUSA TENGGARA TIMUR,,Indonesia,,,,-8.7046396,120.2015748,https://maps.google.com/?cid=0x0:0x90784b42433d5f0b,
perumahan,Pembangunan Perumahan,Kaca,"64GJ+CW8, Kaca, Kec. Lembor Selatan, Kabupaten Manggarai Barat, Nusa Tenggara Tim.","Kabupaten Manggarai Barat, Nusa Tenggara Tim.",NUSA TENGGARA TIMUR,,Indonesia,,,,-8.7739706,120.1323197,https://maps.google.com/?cid=0x0:0x5e451ebaa80a9453,
perumahan,Komplek perumahan,Desa ledang,"75R9+Q4C, Tangge, Kecamatan Lembor, Kabupaten Manggarai Barat, Nusa Tenggara Tim.","Kabupaten Manggarai Barat, Nusa Tenggara Tim.",NUSA TENGGARA TIMUR,,Indonesia,,,,-8.7080543,120.1677594,https://maps.google.com/?cid=0x0:0x85b55d1008f55b4d,
perumahan,Komplek perumahan,Kios yohanes jegoa,"Pie, Benteng tado, Surunumbeng, Kec. Lembor Selatan, Kabupaten Manggarai Barat, Nusa Tenggara Tim.","Kabupaten Manggarai Barat, Nusa Tenggara Tim.",NUSA TENGGARA TIMUR,,Indonesia, 081239610386,,,-8.7652724,120.2274823,https://maps.google.com/?cid=0x0:0x5703ea4ea9a0acd4,
perumahan,Pembangunan Perumahan,Pemakaman Wae Rebo,"66P8+QMJ, Surunumbeng, Kec. Lembor Selatan, Kabupaten Manggarai Barat, Nusa Tenggara Tim.","Kabupaten Manggarai Barat, Nusa Tenggara Tim.",NUSA TENGGARA TIMUR,,Indonesia,,,,-8.7630304,120.2166519,https://maps.google.com/?cid=0x0:0x17329df55e977a79,
perumahan,Komplek perumahan,Rumah Om Serilus,"76GC+X6M, Lonto, Desa Lendong, Kec. Lembor Selatan, Kabupaten Manggarai Barat, Nusa Tenggara Tim.","Kabupaten Manggarai Barat, Nusa Tenggara Tim.",NUSA TENGGARA TIMUR,,Indonesia,,,,-8.7225267,120.2205566,https://maps.google.com/?cid=0x0:0x960ada86caa01260,
perumahan,perumahan,Kec. Mbeliling,"Kabupaten Manggarai Barat, Nusa Tenggara Tim.","Kabupaten Manggarai Barat, Nusa Tenggara Tim.",NUSA TENGGARA TIMUR,,Indonesia,,,,-8.6128114,120.0597179,https://maps.google.com/?cid=0x0:0x46c9c4828bf6f8cf,
perumahan,Komplek perumahan,ruma Abong,"C33H+7WM, Watu Wangka, Kec. Mbeliling, Kabupaten Manggarai Barat, Nusa Tenggara Tim.","Kabupaten Manggarai Barat, Nusa Tenggara Tim.",NUSA TENGGARA TIMUR,,Indonesia,,,,-8.5967951,120.0797929,https://maps.google.com/?cid=0x0:0xf580e112add065b3,
perumahan,Perhimpunan Pengembang Perumahan,Rumah kluarga jonlin mudaly,"C2GJ+9Q, Tiwu Riwung, Kec. Mbeliling, Kabupaten Manggarai Barat, Nusa Tenggara Tim.","Kabupaten Manggarai Barat, Nusa Tenggara Tim.",NUSA TENGGARA TIMUR,,Indonesia,,,,-8.5740439,120.0319292,https://maps.google.com/?cid=0x0:0x9a45056cdf0a291c,
perumahan,Perhimpunan Pengembang Perumahan,Gempar,"C2GJ+5CV Pampa, Tiwu Riwung, Kec. Mbeliling, Kabupaten Manggarai Barat, Nusa Tenggara Tim.","Kabupaten Manggarai Barat, Nusa Tenggara Tim.",NUSA TENGGARA TIMUR,,Indonesia,,,,-8.5745009,120.0310455,https://maps.google.com/?cid=0x0:0x95b2c3ad92632c36,
perumahan,Komplek perumahan,Lalang wae jare,"94X6+MJ, Wae Jare, Kec. Mbeliling, Kabupaten Manggarai Barat, Nusa Tenggara Tim.","Kabupaten Manggarai Barat, Nusa Tenggara Tim.",NUSA TENGGARA TIMUR,,Indonesia, 087883503516,,,-8.6007516,120.1115339,https://maps.google.com/?cid=0x0:0xdaab13f6dc8beff4,
perumahan,perumahan,rumah bpk Sipri,"9482+XG, Golo Tantong, Kec. Mbeliling, Kabupaten Manggarai Barat, Nusa Tenggara Tim.","Kabupaten Manggarai Barat, Nusa Tenggara Tim.",NUSA TENGGARA TIMUR,,Indonesia,,,,-8.6325659,120.1013398,https://maps.google.com/?cid=0x0:0xbf1de6d1dc7a2a6f,
perumahan,Komplek perumahan,Rumah jangka lendong,"92XF+5FW, Wae Lolos, Kec. Mbeliling, Kabupaten Manggarai Barat, Nusa Tenggara Tim.","Kabupaten Manggarai Barat, Nusa Tenggara Tim.",NUSA TENGGARA TIMUR,,Indonesia,,,,-8.6019967,120.0237166,https://maps.google.com/?cid=0x0:0x1f322baabf763f29,
perumahan,perumahan,Rumah keluarga Leo Limit,"C2GJ+9Q, Tiwu Riwung, Kec. Mbeliling, Kabupaten Manggarai Barat, Nusa Tenggara Tim.","Kabupaten Manggarai Barat, Nusa Tenggara Tim.",NUSA TENGGARA TIMUR,,Indonesia,,,,-8.5741006,120.03172,https://maps.google.com/?cid=0x0:0xcd5683e56d5b4b02,
perumahan,Komplek perumahan,Rumah Bojhans,"C3F6+WP2, Golo Sembea, Kec. Mbeliling, Kabupaten Manggarai Barat, Nusa Tenggara Tim.","Kabupaten Manggarai Barat, Nusa Tenggara Tim.",NUSA TENGGARA TIMUR,,Indonesia,,,,-8.5752437,120.0617812,https://maps.google.com/?cid=0x0:0xde451b46a340490b,
perumahan,Komplek perumahan,RUMAH ANDRI,"C28P+3QX, Golo Ndoal, Kec. Mbeliling, Kabupaten Manggarai Barat, Nusa Tenggara Tim.","Kabupaten Manggarai Barat, Nusa Tenggara Tim.",NUSA TENGGARA TIMUR,,Indonesia,,,,-8.5848516,120.0373507,https://maps.google.com/?cid=0x0:0xa6dfb177a97d772,
perumahan,Komplek perumahan,Ndiheng,"C2MR+XQQ, Unnamed Road, Tiwu Riwung, Kec. Mbeliling, Kabupaten Manggarai Barat, Nusa Tenggara Tim.","Kabupaten Manggarai Barat, Nusa Tenggara Tim.",NUSA TENGGARA TIMUR,,Indonesia,,,,-8.5650331,120.0419999,https://maps.google.com/?cid=0x0:0x7676cc62c91ac555,
perumahan,Komplek perumahan,Rumah heribertus,"C365+RJC, Golo Sembea, Kec. Mbeliling, Kabupaten Manggarai Barat, Nusa Tenggara Tim.","Kabupaten Manggarai Barat, Nusa Tenggara Tim.",NUSA TENGGARA TIMUR,,Indonesia,,,,-8.5879375,120.0590156,https://maps.google.com/?cid=0x0:0xa148f0429c288ce8,
perumahan,perumahan,Rumah NinoNho,"C3WR+V5G, Golo Sembea, Kec. Mbeliling, Kabupaten Manggarai Barat, Nusa Tenggara Tim.","Kabupaten Manggarai Barat, Nusa Tenggara Tim.",NUSA TENGGARA TIMUR,,Indonesia,,,,-8.5519684,120.0908872,https://maps.google.com/?cid=0x0:0x3c9cad69f60ba1ce,
perumahan,Komplek perumahan,Rumah yogi,"92XF+5FW, Wae Lolos, Kec. Mbeliling, Kabupaten Manggarai Barat, Nusa Tenggara Tim.","Kabupaten Manggarai Barat, Nusa Tenggara Tim.",NUSA TENGGARA TIMUR,,Indonesia,,,,-8.6020113,120.0237126,https://maps.google.com/?cid=0x0:0x2802e27ed68a34c3,
perumahan,Pembangunan Perumahan,Wae Masa,"C24H+C8Q, Golo Damu, Kec. Mbeliling, Kabupaten Manggarai Barat, Nusa Tenggara Tim.","Kabupaten Manggarai Barat, Nusa Tenggara Tim.",NUSA TENGGARA TIMUR,,Indonesia,,,,-8.5939133,120.0283715,https://maps.google.com/?cid=0x0:0xca42f14eac8fd36f,
perumahan,Perhimpunan Pengembang Perumahan,Kampung Nobo,"93P5+VWC, Watu Wangka, Kec. Mbeliling, Kabupaten Manggarai Barat, Nusa Tenggara Tim.","Kabupaten Manggarai Barat, Nusa Tenggara Tim.",NUSA TENGGARA TIMUR,,Indonesia,,,,-8.6128203,120.0597646,https://maps.google.com/?cid=0x0:0x2dc9650cba0c0ba5,
perumahan,Komplek perumahan,Ariyanto_,"Golo Tantong, Kec. Mbeliling, Kabupaten Manggarai Barat, Nusa Tenggara Tim.","Kabupaten Manggarai Barat, Nusa Tenggara Tim.",NUSA TENGGARA TIMUR,,Indonesia,,,,-8.6516868,120.0859286,https://maps.google.com/?cid=0x0:0xdd2175e3c7f287df,
perumahan,Komplek perumahan,Kampug meleng,"93RQ+MV2, Watu Wangka, Kec. Mbeliling, Kabupaten Manggarai Barat, Nusa Tenggara Tim.","Kabupaten Manggarai Barat, Nusa Tenggara Tim.",NUSA TENGGARA TIMUR,,Indonesia, 081338358040,,,-8.6083516,120.0896313,https://maps.google.com/?cid=0x0:0x3c90d0230c1e4804,
perumahan,Komplek perumahan,Lembor,"92XW+8F4, Golo Sembea, Kec. Mbeliling, Kabupaten Manggarai Barat, Nusa Tenggara Tim.","Kabupaten Manggarai Barat, Nusa Tenggara Tim.",NUSA TENGGARA TIMUR,,Indonesia,,,,-8.6017398,120.0462046,https://maps.google.com/?cid=0x0:0xa16cd32974cfd2ab,
perumahan,Komplek perumahan,Rumah QINO/ MENDRA,"C2V4+P7, Cunca Wulang, Kec. Mbeliling, Kabupaten Manggarai Barat, Nusa Tenggara Tim.","Kabupaten Manggarai Barat, Nusa Tenggara Tim.",NUSA TENGGARA TIMUR,,Indonesia,,,,-8.555708,120.0056589,https://maps.google.com/?cid=0x0:0x1e7baa11db00999e,
perumahan,Komplek perumahan,Rumah zakiaAL-Hakim,"94C5+XR, Wae Jare, Kec. Mbeliling, Kabupaten Manggarai Barat, Nusa Tenggara Tim.","Kabupaten Manggarai Barat, Nusa Tenggara Tim.",NUSA TENGGARA TIMUR,,Indonesia,,,,-8.6272112,120.1087648,https://maps.google.com/?cid=0x0:0x9a0ef021f303a634,
perumahan,Kompleks Apartemen,"Daleng, Desa Watu Wangka, Kecamatan Mbeliling","C32J+X2W Daleng, Watu Wangka, Kec. Mbeliling, Kabupaten Manggarai Barat, Nusa Tenggara Tim.","Kabupaten Manggarai Barat, Nusa Tenggara Tim.",NUSA TENGGARA TIMUR,,Indonesia,,,,-8.5975162,120.0800865,https://maps.google.com/?cid=0x0:0xddb5395b12b60fbe,
perumahan,Komplek perumahan,Abdul Kaharudin,"CXQV+RM9, Cunca Wulang, Kec. Mbeliling, Kabupaten Manggarai Barat, Nusa Tenggara Tim.","Kabupaten Manggarai Barat, Nusa Tenggara Tim.",NUSA TENGGARA TIMUR,,Indonesia,,,,-8.5604669,119.9942419,https://maps.google.com/?cid=0x0:0x813e3361d4d0b9b0,
perumahan,Pembangunan Perumahan,WAETANA,"C3WR+V5G, Golo Sembea, Kec. Mbeliling, Kabupaten Manggarai Barat, Nusa Tenggara Tim.","Kabupaten Manggarai Barat, Nusa Tenggara Tim.",NUSA TENGGARA TIMUR,,Indonesia,,,,-8.5528021,120.0904506,https://maps.google.com/?cid=0x0:0xb04749a9180e591a,
perumahan,Komplek perumahan,Culu Village,"CX5G+338, Tondong Belang, Kec. Mbeliling, Kabupaten Manggarai Barat, Nusa Tenggara Tim.","Kabupaten Manggarai Barat, Nusa Tenggara Tim.",NUSA TENGGARA TIMUR,,Indonesia,,,,-8.592349,119.9752086,https://maps.google.com/?cid=0x0:0xbe3b1f86f1874a19,
perumahan,Perhimpunan Pengembang Perumahan,Lamung,"9XMV+37, Wae Lolos, Kec. Sano Nggoang, Kabupaten Manggarai Barat, Nusa Tenggara Tim.","Kabupaten Manggarai Barat, Nusa Tenggara Tim.",NUSA TENGGARA TIMUR,,Indonesia,,,,-8.617338,119.9931897,https://maps.google.com/?cid=0x0:0xfb525b865755aa50,
perumahan,Komplek perumahan,Rumah Blasius Baruk,"84MG+P8 Alamat: Tado Longge, Dusun Kota Tado Desa Golo Leleng. Kecamatan Sano Nggoang Kabupaten Manggarai Barat, RT.005/RW.002, Golo Leleng, Kabupaten Manggarai Barat, Nusa Tenggara Tim.","Kabupaten Manggarai Barat, Nusa Tenggara Tim.",NUSA TENGGARA TIMUR,,Indonesia,,,,-8.6656867,120.1258069,https://maps.google.com/?cid=0x0:0x9cea2878cb7dab4f,
